{"type":"FeatureCollection","features":[{"type":"Feature","properties":{"level_ft":1},"geometry":{"type":"MultiPolygon","coordinates":[[[[-74.412323,40.483573],[-74.411712,40.484067],[-74.411029,40.483984],[-74.409916,40.482473],[-74.408587,40.481923],[-74.407438,40.480605],[-74.407258,40.481071],[-74.40661,40.481153],[-74.404634,40.480575],[-74.407527,40.480434],[-74.408505,40.481467],[-74.410584,40.482771],[-74.411173,40.483849],[-74.411662,40.483931],[-74.41218,40.483381],[-74.412323,40.483573]]],[[[-74.41254,40.483052],[-74.412576,40.483217],[-74.412359,40.483464],[-74.412261,40.483271],[-74.41254,40.483052]]],[[[-74.412742,40.493519],[-74.413068,40.491864],[-74.413248,40.49181],[-74.412994,40.493401],[-74.412742,40.493519]]],[[[-74.436824,40.497587],[-74.435717,40.495173],[-74.435504,40.49284],[-74.434518,40.491502],[-74.434691,40.491387],[-74.434319,40.49067],[-74.433637,40.490039],[-74.431744,40.488996],[-74.429338,40.488154],[-74.423877,40.488159],[-74.422384,40.488357],[-74.420364,40.489299],[-74.417078,40.49216],[-74.415332,40.492964],[-74.41321,40.493347],[-74.413499,40.491892],[-74.413895,40.491343],[-74.416126,40.490631],[-74.417565,40.489809],[-74.418213,40.489095],[-74.418932,40.488767],[-74.419293,40.488163],[-74.421487,40.486957],[-74.42386,40.486684],[-74.424399,40.486986],[-74.425406,40.487014],[-74.428822,40.486659],[-74.428822,40.486824],[-74.431446,40.487182],[-74.432596,40.487622],[-74.432848,40.487513],[-74.43292,40.48776],[-74.435255,40.489079],[-74.436441,40.490589],[-74.436764,40.490699],[-74.43662,40.491138],[-74.437014,40.492401],[-74.437589,40.493115],[-74.438234,40.495504],[-74.439132,40.496767],[-74.438628,40.497069],[-74.4387,40.497344],[-74.436937,40.497617],[-74.438771,40.497453],[-74.440532,40.499541],[-74.441574,40.500392],[-74.440242,40.501599],[-74.439283,40.500822],[-74.438486,40.499498],[-74.436824,40.497587]]],[[[-74.448684,40.50711],[-74.441366,40.502715],[-74.44035,40.50174],[-74.441753,40.500639],[-74.444305,40.502095],[-74.446426,40.503771],[-74.447648,40.504238],[-74.451495,40.506518],[-74.452429,40.506848],[-74.457356,40.507509],[-74.45865,40.50888],[-74.454839,40.50865],[-74.450732,40.507764],[-74.448684,40.50711]]],[[[-74.466852,40.509329],[-74.459381,40.509047],[-74.45901,40.508921],[-74.457788,40.507454],[-74.463901,40.508115],[-74.463649,40.509103],[-74.463973,40.508143],[-74.467066,40.508308],[-74.466852,40.509329]]],[[[-74.40334,40.480052],[-74.403125,40.48019],[-74.403269,40.479991],[-74.40334,40.480052]]],[[[-74.403663,40.48041],[-74.403808,40.480166],[-74.404051,40.480245],[-74.403951,40.48041],[-74.403663,40.48041]]],[[[-74.404239,40.480306],[-74.404418,40.480575],[-74.404131,40.480465],[-74.404239,40.480306]]],[[[-74.395382,40.488583],[-74.394641,40.488251],[-74.394689,40.487743],[-74.394288,40.487333],[-74.392969,40.486501],[-74.392281,40.486315],[-74.392523,40.485012],[-74.393901,40.483567],[-74.395392,40.483661],[-74.395843,40.482585],[-74.397531,40.481133],[-74.399323,40.481225],[-74.400078,40.480568],[-74.401883,40.479609],[-74.403034,40.479915],[-74.39672,40.483533],[-74.395965,40.483862],[-74.395678,40.483642],[-74.395354,40.483861],[-74.395279,40.485398],[-74.396356,40.48647],[-74.396606,40.487486],[-74.395382,40.488583]]],[[[-74.411553,40.493751],[-74.409758,40.493207],[-74.40965,40.493371],[-74.408693,40.493342],[-74.406771,40.492827],[-74.406553,40.492458],[-74.405563,40.492001],[-74.400843,40.491333],[-74.399873,40.491469],[-74.399765,40.491167],[-74.399657,40.491387],[-74.399483,40.491172],[-74.399153,40.491524],[-74.398784,40.491541],[-74.398716,40.491743],[-74.398477,40.491891],[-74.398573,40.491194],[-74.396776,40.490232],[-74.395885,40.489187],[-74.397181,40.488035],[-74.398582,40.48897],[-74.399301,40.488724],[-74.399446,40.488312],[-74.400129,40.488313],[-74.400236,40.488532],[-74.39948,40.489053],[-74.400127,40.489548],[-74.400487,40.489329],[-74.402284,40.48955],[-74.402536,40.489166],[-74.402177,40.48911],[-74.401962,40.488753],[-74.401098,40.489055],[-74.400919,40.48867],[-74.402537,40.488397],[-74.402682,40.488205],[-74.404371,40.488536],[-74.405055,40.488207],[-74.406205,40.488208],[-74.406169,40.488455],[-74.406924,40.488703],[-74.407607,40.488538],[-74.407535,40.488731],[-74.408541,40.488869],[-74.408649,40.489116],[-74.409116,40.489061],[-74.409727,40.489638],[-74.410087,40.489336],[-74.409293,40.491477],[-74.41091,40.491753],[-74.412457,40.491727],[-74.412889,40.49115],[-74.41249,40.493573],[-74.411553,40.493751]]]]}}]}