{"type":"FeatureCollection","features":[{"type":"Feature","properties":{"level_ft":12},"geometry":{"type":"MultiPolygon","coordinates":[[[[-74.44118,40.497921],[-74.441216,40.497894],[-74.441216,40.497921],[-74.44118,40.497921]]],[[[-74.442005,40.5002],[-74.440927,40.499239],[-74.440676,40.49836],[-74.441,40.498388],[-74.441108,40.498827],[-74.441431,40.498635],[-74.441611,40.498992],[-74.441755,40.498333],[-74.441935,40.49891],[-74.442546,40.49924],[-74.442653,40.499734],[-74.442005,40.5002]]],[[[-74.442796,40.500283],[-74.442437,40.500091],[-74.443156,40.500256],[-74.442796,40.500283]]],[[[-74.443192,40.500283],[-74.443551,40.500558],[-74.444162,40.501491],[-74.443084,40.501024],[-74.442185,40.50031],[-74.442473,40.500145],[-74.442796,40.50031],[-74.443192,40.500283]]],[[[-74.444305,40.502041],[-74.444341,40.502068],[-74.444305,40.502068],[-74.444305,40.502041]]],[[[-74.444881,40.502206],[-74.444917,40.502178],[-74.444917,40.502206],[-74.444881,40.502206]]],[[[-74.445168,40.502233],[-74.445132,40.502206],[-74.445168,40.502206],[-74.445168,40.502233]]],[[[-74.446211,40.502975],[-74.445923,40.50281],[-74.445707,40.502755],[-74.445564,40.502618],[-74.445276,40.50248],[-74.444917,40.502206],[-74.44506,40.502151],[-74.445132,40.502261],[-74.445708,40.502508],[-74.446211,40.502975]],[[-74.444988,40.50226],[-74.445024,40.502233],[-74.444988,40.502233],[-74.444988,40.50226]],[[-74.4456,40.502508],[-74.445564,40.502535],[-74.4456,40.502535],[-74.4456,40.502508]]],[[[-74.464294,40.500973],[-74.465627,40.50165],[-74.465663,40.501905],[-74.466953,40.502879],[-74.46733,40.504959],[-74.466924,40.50463],[-74.466781,40.503971],[-74.467032,40.503587],[-74.466565,40.502735],[-74.465487,40.502214],[-74.465595,40.501994],[-74.464768,40.50128],[-74.462647,40.500483],[-74.464294,40.500973]]],[[[-74.446031,40.50292],[-74.445995,40.50292],[-74.445995,40.502892],[-74.446031,40.502892],[-74.446031,40.50292]]],[[[-74.446247,40.502947],[-74.446283,40.50292],[-74.446283,40.502947],[-74.446247,40.502947]]],[[[-74.446031,40.502947],[-74.446031,40.50292],[-74.446067,40.50292],[-74.446067,40.502947],[-74.446031,40.502947]]],[[[-74.446103,40.502975],[-74.446067,40.502947],[-74.446103,40.502947],[-74.446103,40.502975]]],[[[-74.445995,40.502975],[-74.446031,40.503002],[-74.445995,40.503002],[-74.445995,40.502975]]],[[[-74.445995,40.50303],[-74.445959,40.503002],[-74.445995,40.503002],[-74.445995,40.50303]]],[[[-74.444305,40.502095],[-74.445995,40.502947],[-74.445995,40.502975],[-74.445923,40.503002],[-74.445959,40.503084],[-74.44621,40.503277],[-74.445384,40.50281],[-74.445419,40.50292],[-74.446282,40.503606],[-74.447037,40.503771],[-74.449661,40.505502],[-74.451674,40.506518],[-74.452537,40.506793],[-74.456925,40.507289],[-74.458075,40.508058],[-74.45865,40.50888],[-74.454412,40.508589],[-74.448684,40.50711],[-74.441639,40.502891],[-74.44035,40.501737],[-74.441897,40.500557],[-74.444305,40.502095]],[[-74.445384,40.50281],[-74.445348,40.502782],[-74.445348,40.50281],[-74.445384,40.50281]]],[[[-74.46723,40.505563],[-74.46696,40.505343],[-74.467212,40.505041],[-74.46723,40.505563]]],[[[-74.467192,40.506833],[-74.467496,40.507694],[-74.467102,40.508061],[-74.467174,40.507375],[-74.466671,40.506469],[-74.466672,40.506057],[-74.467067,40.505755],[-74.467381,40.50665],[-74.467192,40.506833]]],[[[-74.45901,40.508921],[-74.4575,40.507152],[-74.462211,40.507977],[-74.464657,40.507978],[-74.467086,40.508308],[-74.466852,40.509329],[-74.464976,40.509124],[-74.459495,40.509076],[-74.45901,40.508921]]],[[[-74.435724,40.48831],[-74.43576,40.488283],[-74.43576,40.48831],[-74.435724,40.48831]]],[[[-74.435616,40.48842],[-74.43558,40.48842],[-74.43558,40.488393],[-74.435616,40.488393],[-74.435616,40.48842]]],[[[-74.435616,40.488448],[-74.435616,40.48842],[-74.435652,40.48842],[-74.435652,40.488448],[-74.435616,40.488448]]],[[[-74.435687,40.488475],[-74.435652,40.488448],[-74.435688,40.488448],[-74.435687,40.488475]]],[[[-74.435831,40.488558],[-74.435795,40.488558],[-74.435795,40.48853],[-74.435831,40.48853],[-74.435831,40.488558]]],[[[-74.435831,40.488585],[-74.435831,40.488558],[-74.435867,40.488558],[-74.435867,40.488585],[-74.435831,40.488585]]],[[[-74.435867,40.488612],[-74.435867,40.488585],[-74.435903,40.488585],[-74.435903,40.488612],[-74.435867,40.488612]]],[[[-74.435939,40.48864],[-74.435903,40.488612],[-74.435939,40.488612],[-74.435939,40.48864]]],[[[-74.435975,40.488667],[-74.435939,40.488667],[-74.435939,40.48864],[-74.435975,40.48864],[-74.435975,40.488667]]],[[[-74.435975,40.488695],[-74.435975,40.488667],[-74.436011,40.488667],[-74.436011,40.488695],[-74.435975,40.488695]]],[[[-74.436011,40.488722],[-74.436011,40.488695],[-74.436047,40.488695],[-74.436047,40.488722],[-74.436011,40.488722]]],[[[-74.436047,40.48875],[-74.436047,40.488722],[-74.436083,40.488722],[-74.436083,40.48875],[-74.436047,40.48875]]],[[[-74.436083,40.488777],[-74.436083,40.48875],[-74.436119,40.48875],[-74.436119,40.488777],[-74.436083,40.488777]]],[[[-74.436119,40.488805],[-74.436119,40.488777],[-74.436155,40.488777],[-74.436155,40.488805],[-74.436119,40.488805]]],[[[-74.436191,40.488832],[-74.436155,40.488805],[-74.436191,40.488805],[-74.436191,40.488832]]],[[[-74.436226,40.48886],[-74.43619,40.48886],[-74.436191,40.488832],[-74.436226,40.488832],[-74.436226,40.48886]]],[[[-74.436226,40.488887],[-74.436226,40.48886],[-74.436262,40.48886],[-74.436262,40.488887],[-74.436226,40.488887]]],[[[-74.436298,40.488915],[-74.436262,40.488887],[-74.436298,40.488887],[-74.436298,40.488915]]],[[[-74.439599,40.497152],[-74.439778,40.497426],[-74.439599,40.497426],[-74.439599,40.497152]]],[[[-74.403196,40.480272],[-74.403269,40.479991],[-74.403341,40.480014],[-74.403196,40.480272]]],[[[-74.403879,40.480492],[-74.403627,40.480437],[-74.403808,40.480166],[-74.404051,40.480245],[-74.403879,40.480492]]],[[[-74.404454,40.48063],[-74.404095,40.480575],[-74.404239,40.480306],[-74.40449,40.480388],[-74.404454,40.48063]]],[[[-74.413692,40.481516],[-74.41362,40.482092],[-74.413116,40.481982],[-74.413487,40.481378],[-74.413692,40.481516]]],[[[-74.405639,40.480608],[-74.407623,40.480492],[-74.408505,40.481467],[-74.410451,40.482648],[-74.411282,40.483914],[-74.411662,40.483931],[-74.41218,40.483381],[-74.412359,40.483464],[-74.412792,40.482531],[-74.413043,40.48286],[-74.412827,40.483189],[-74.412612,40.483134],[-74.412719,40.483519],[-74.412395,40.483519],[-74.412503,40.483958],[-74.411316,40.484094],[-74.410921,40.483929],[-74.410239,40.482858],[-74.40952,40.483132],[-74.409844,40.48272],[-74.4097,40.482418],[-74.408622,40.482061],[-74.407904,40.481374],[-74.406251,40.48118],[-74.405675,40.481564],[-74.405856,40.48096],[-74.404526,40.480822],[-74.404742,40.48047],[-74.405639,40.480608]]],[[[-74.41302,40.482119],[-74.413439,40.482421],[-74.41308,40.482586],[-74.412864,40.482393],[-74.41302,40.482119]]],[[[-74.395382,40.488583],[-74.394641,40.488251],[-74.394689,40.487743],[-74.394288,40.487333],[-74.392969,40.486501],[-74.392281,40.486315],[-74.392523,40.485012],[-74.393751,40.483677],[-74.394275,40.483475],[-74.395392,40.483661],[-74.395843,40.482585],[-74.397531,40.481133],[-74.399323,40.481225],[-74.400078,40.480568],[-74.401883,40.479609],[-74.403034,40.479915],[-74.402549,40.480601],[-74.401362,40.481066],[-74.401828,40.481698],[-74.400821,40.481725],[-74.400822,40.481395],[-74.400498,40.481478],[-74.398951,40.482464],[-74.398987,40.482629],[-74.398411,40.482656],[-74.396396,40.48378],[-74.395495,40.485261],[-74.396142,40.485729],[-74.396789,40.485674],[-74.397003,40.486526],[-74.396463,40.486964],[-74.396642,40.487459],[-74.395382,40.488583]]],[[[-74.435328,40.4882],[-74.435364,40.488173],[-74.435364,40.4882],[-74.435328,40.4882]]],[[[-74.435328,40.488228],[-74.435292,40.4882],[-74.435328,40.4882],[-74.435328,40.488228]]],[[[-74.435364,40.488228],[-74.435328,40.488255],[-74.435328,40.488228],[-74.435364,40.488228]]],[[[-74.4354,40.488283],[-74.435364,40.488283],[-74.435364,40.488255],[-74.4354,40.488255],[-74.4354,40.488283]]],[[[-74.435436,40.48831],[-74.4354,40.488283],[-74.435436,40.488283],[-74.435436,40.48831]]],[[[-74.435544,40.488365],[-74.435508,40.488365],[-74.435508,40.488338],[-74.435544,40.488338],[-74.435544,40.488365]]],[[[-74.43558,40.488393],[-74.435544,40.488365],[-74.43558,40.488365],[-74.43558,40.488393]]],[[[-74.408682,40.493336],[-74.406771,40.492827],[-74.406553,40.492458],[-74.405563,40.492001],[-74.403126,40.491795],[-74.401804,40.491468],[-74.400049,40.491494],[-74.399575,40.491416],[-74.399483,40.491172],[-74.399327,40.491528],[-74.398784,40.491541],[-74.398707,40.491757],[-74.398477,40.491891],[-74.398573,40.491194],[-74.396776,40.490232],[-74.395885,40.489187],[-74.397325,40.487898],[-74.397684,40.488036],[-74.398116,40.487789],[-74.398403,40.487982],[-74.398404,40.487433],[-74.39898,40.487378],[-74.399482,40.487626],[-74.400166,40.487544],[-74.400021,40.48812],[-74.40038,40.488423],[-74.401999,40.48804],[-74.40394,40.487931],[-74.404048,40.488234],[-74.407068,40.488016],[-74.407355,40.488319],[-74.408757,40.488704],[-74.409943,40.488897],[-74.410807,40.488706],[-74.410303,40.489227],[-74.410805,40.489776],[-74.411596,40.490161],[-74.413141,40.490437],[-74.41249,40.493573],[-74.411553,40.493751],[-74.408682,40.493336]]],[[[-74.412742,40.493519],[-74.413357,40.490492],[-74.413573,40.49041],[-74.412994,40.493429],[-74.412742,40.493519]]],[[[-74.441108,40.498031],[-74.440246,40.497344],[-74.44021,40.497015],[-74.440498,40.49685],[-74.4396,40.495285],[-74.439204,40.496054],[-74.439276,40.496603],[-74.439563,40.49674],[-74.439275,40.497124],[-74.436937,40.497562],[-74.437081,40.497727],[-74.439023,40.497426],[-74.439095,40.497893],[-74.439634,40.498113],[-74.44046,40.499348],[-74.441682,40.500392],[-74.440206,40.501616],[-74.439283,40.500822],[-74.436241,40.4966],[-74.43566,40.495136],[-74.435506,40.492931],[-74.434518,40.491502],[-74.434691,40.491387],[-74.434363,40.490774],[-74.431744,40.488996],[-74.429338,40.488154],[-74.423877,40.488159],[-74.421452,40.488703],[-74.419203,40.490282],[-74.419187,40.490765],[-74.418799,40.490627],[-74.417078,40.49216],[-74.415011,40.493117],[-74.41321,40.493417],[-74.413789,40.490492],[-74.414975,40.490521],[-74.415766,40.490274],[-74.416126,40.490467],[-74.41627,40.490137],[-74.417565,40.489781],[-74.418141,40.489095],[-74.418932,40.488712],[-74.419257,40.488163],[-74.420984,40.487093],[-74.423645,40.486683],[-74.423717,40.486382],[-74.424004,40.486821],[-74.424435,40.486931],[-74.428894,40.486632],[-74.430727,40.487072],[-74.431914,40.4871],[-74.433675,40.487596],[-74.434753,40.488173],[-74.434932,40.488502],[-74.435436,40.488448],[-74.435903,40.488777],[-74.436693,40.489931],[-74.437304,40.490315],[-74.437411,40.490919],[-74.437842,40.491359],[-74.437878,40.491167],[-74.43795,40.491221],[-74.43813,40.491194],[-74.437232,40.489821],[-74.437448,40.489519],[-74.437089,40.489629],[-74.436334,40.488887],[-74.435544,40.48831],[-74.435436,40.488338],[-74.435472,40.488283],[-74.435364,40.488228],[-74.435472,40.4882],[-74.435724,40.488338],[-74.436119,40.488366],[-74.436083,40.488064],[-74.436587,40.487844],[-74.436407,40.488146],[-74.436838,40.488174],[-74.437233,40.488915],[-74.437844,40.489025],[-74.437484,40.489437],[-74.437988,40.489218],[-74.43867,40.490069],[-74.438526,40.490535],[-74.439065,40.490618],[-74.438849,40.490947],[-74.439389,40.490536],[-74.44061,40.491635],[-74.440502,40.492348],[-74.440718,40.492541],[-74.438272,40.492649],[-74.43784,40.493225],[-74.438092,40.4935],[-74.438092,40.493088],[-74.438596,40.492814],[-74.439854,40.492732],[-74.439423,40.493089],[-74.439494,40.49405],[-74.441436,40.493804],[-74.441471,40.49427],[-74.441147,40.494435],[-74.441651,40.494737],[-74.441363,40.494984],[-74.441614,40.495039],[-74.441326,40.495368],[-74.441542,40.495561],[-74.441002,40.49567],[-74.441326,40.495835],[-74.441362,40.496192],[-74.440894,40.496576],[-74.440894,40.496878],[-74.44208,40.496879],[-74.442152,40.497126],[-74.441325,40.497345],[-74.441288,40.497866],[-74.441144,40.497894],[-74.441108,40.498031]],[[-74.439603,40.492897],[-74.439567,40.492869],[-74.439567,40.492897],[-74.439603,40.492897]],[[-74.439459,40.493007],[-74.439423,40.492979],[-74.439423,40.493007],[-74.439459,40.493007]]]]}}]}