{"type":"FeatureCollection","features":[{"type":"Feature","properties":{"level_ft":15},"geometry":{"type":"MultiPolygon","coordinates":[[[[-74.434825,40.487953],[-74.434861,40.487981],[-74.434825,40.48798],[-74.434825,40.487953]]],[[[-74.434933,40.487981],[-74.434897,40.488008],[-74.434897,40.487981],[-74.434933,40.487981]]],[[[-74.434969,40.488008],[-74.434933,40.488035],[-74.434933,40.488008],[-74.434969,40.488008]]],[[[-74.435041,40.488036],[-74.435005,40.488063],[-74.435005,40.488035],[-74.435041,40.488036]]],[[[-74.435077,40.488063],[-74.435041,40.48809],[-74.435041,40.488063],[-74.435077,40.488063]]],[[[-74.435113,40.48809],[-74.435077,40.488118],[-74.435077,40.48809],[-74.435113,40.48809]]],[[[-74.43522,40.488173],[-74.435256,40.4882],[-74.43522,40.4882],[-74.43522,40.488173]]],[[[-74.4354,40.48831],[-74.435436,40.488283],[-74.435436,40.48831],[-74.4354,40.48831]]],[[[-74.440358,40.492733],[-74.440322,40.492705],[-74.440358,40.492705],[-74.440358,40.492733]]],[[[-74.465415,40.501939],[-74.464696,40.50128],[-74.462467,40.500483],[-74.46182,40.499632],[-74.461029,40.499138],[-74.460598,40.498451],[-74.462663,40.500418],[-74.465035,40.501264],[-74.466953,40.502879],[-74.46733,40.504959],[-74.466744,40.504218],[-74.466996,40.503696],[-74.466745,40.502983],[-74.466026,40.502378],[-74.465199,40.502104],[-74.465091,40.501857],[-74.465415,40.501939]],[[-74.465415,40.501939],[-74.465451,40.501966],[-74.465451,40.501939],[-74.465415,40.501939]],[[-74.465559,40.501966],[-74.465487,40.502021],[-74.465595,40.502021],[-74.465559,40.501966]]],[[[-74.447289,40.503662],[-74.447181,40.503716],[-74.447181,40.503689],[-74.447289,40.503662]]],[[[-74.447253,40.503799],[-74.449769,40.505557],[-74.452034,40.506656],[-74.456997,40.507317],[-74.457967,40.507948],[-74.45865,40.50888],[-74.454412,40.508589],[-74.448684,40.50711],[-74.441639,40.502891],[-74.44035,40.501737],[-74.443193,40.499597],[-74.443875,40.501134],[-74.44427,40.501025],[-74.444666,40.501327],[-74.444557,40.501629],[-74.445384,40.501986],[-74.44542,40.502178],[-74.445132,40.502206],[-74.447289,40.503579],[-74.446642,40.503634],[-74.445635,40.503002],[-74.445671,40.503112],[-74.446606,40.503771],[-74.447253,40.503799]],[[-74.442077,40.500447],[-74.442185,40.500502],[-74.442257,40.50042],[-74.442077,40.500447]],[[-74.442473,40.500145],[-74.442509,40.500173],[-74.442509,40.500146],[-74.442473,40.500145]],[[-74.442509,40.500173],[-74.442545,40.5002],[-74.442545,40.500173],[-74.442509,40.500173]],[[-74.442545,40.5002],[-74.442581,40.500228],[-74.442581,40.5002],[-74.442545,40.5002]],[[-74.445204,40.502151],[-74.445168,40.502123],[-74.445168,40.502151],[-74.445204,40.502151]],[[-74.446965,40.503579],[-74.446929,40.503552],[-74.446929,40.503579],[-74.446965,40.503579]],[[-74.446929,40.503552],[-74.446893,40.503524],[-74.446893,40.503552],[-74.446929,40.503552]],[[-74.446893,40.503524],[-74.446858,40.503497],[-74.446857,40.503524],[-74.446893,40.503524]],[[-74.446858,40.503497],[-74.446786,40.503469],[-74.446786,40.503497],[-74.446858,40.503497]],[[-74.446786,40.503469],[-74.44675,40.503442],[-74.44675,40.503469],[-74.446786,40.503469]],[[-74.44675,40.503442],[-74.446714,40.503414],[-74.446714,40.503442],[-74.44675,40.503442]],[[-74.446714,40.503414],[-74.446678,40.503387],[-74.446678,40.503414],[-74.446714,40.503414]],[[-74.446678,40.503387],[-74.446642,40.503359],[-74.446642,40.503387],[-74.446678,40.503387]],[[-74.445635,40.503002],[-74.445599,40.502974],[-74.445599,40.503002],[-74.445635,40.503002]]],[[[-74.466852,40.50559],[-74.466852,40.505288],[-74.467212,40.505041],[-74.46723,40.505563],[-74.466852,40.50559]]],[[[-74.45901,40.508921],[-74.457428,40.507097],[-74.463722,40.507703],[-74.463937,40.507978],[-74.464153,40.507731],[-74.466922,40.507951],[-74.466564,40.506084],[-74.466744,40.505837],[-74.467203,40.505783],[-74.467381,40.50665],[-74.467159,40.506947],[-74.467496,40.507694],[-74.466852,40.509329],[-74.464976,40.509124],[-74.459495,40.509076],[-74.45901,40.508921]]],[[[-74.40334,40.480052],[-74.403088,40.480299],[-74.403269,40.479991],[-74.40334,40.480052]]],[[[-74.403879,40.48052],[-74.403627,40.480464],[-74.403808,40.480166],[-74.404051,40.480245],[-74.403879,40.48052]]],[[[-74.404454,40.480602],[-74.404059,40.480575],[-74.404239,40.480306],[-74.40449,40.480388],[-74.404454,40.480602]]],[[[-74.41398,40.481159],[-74.41362,40.482092],[-74.413116,40.481982],[-74.41371,40.481049],[-74.41398,40.481159]]],[[[-74.412503,40.483546],[-74.412682,40.48404],[-74.411172,40.484067],[-74.410167,40.482858],[-74.409663,40.483214],[-74.409412,40.483159],[-74.409808,40.482748],[-74.4097,40.482446],[-74.409053,40.482363],[-74.407796,40.481374],[-74.406215,40.481235],[-74.405675,40.481592],[-74.405712,40.48096],[-74.40449,40.480767],[-74.404742,40.48047],[-74.405639,40.480608],[-74.407527,40.480434],[-74.408505,40.481467],[-74.410584,40.482771],[-74.411282,40.483914],[-74.411662,40.483931],[-74.41218,40.483381],[-74.412359,40.483464],[-74.412792,40.482531],[-74.413079,40.483107],[-74.412755,40.483574],[-74.412503,40.483546]],[[-74.412503,40.483546],[-74.412467,40.483491],[-74.412431,40.483491],[-74.412431,40.483546],[-74.412503,40.483546]]],[[[-74.41302,40.482119],[-74.413511,40.482339],[-74.413187,40.482641],[-74.412864,40.482383],[-74.41302,40.482119]]],[[[-74.395382,40.488583],[-74.394641,40.488251],[-74.394689,40.487743],[-74.394288,40.487333],[-74.392969,40.486501],[-74.392281,40.486315],[-74.392523,40.485012],[-74.393751,40.483677],[-74.394275,40.483475],[-74.395392,40.483661],[-74.395843,40.482585],[-74.397531,40.481133],[-74.399323,40.481225],[-74.400078,40.480568],[-74.401883,40.479609],[-74.403034,40.479915],[-74.402477,40.480683],[-74.401362,40.481121],[-74.401828,40.481726],[-74.400821,40.48178],[-74.40075,40.481423],[-74.399671,40.481971],[-74.399094,40.482657],[-74.397728,40.482985],[-74.396468,40.483752],[-74.395531,40.485179],[-74.396285,40.485729],[-74.396933,40.48551],[-74.39686,40.486416],[-74.397327,40.486471],[-74.396282,40.487788],[-74.395382,40.488583]]],[[[-74.434753,40.487843],[-74.434717,40.487871],[-74.434717,40.487843],[-74.434753,40.487843]]],[[[-74.434717,40.487871],[-74.434681,40.487898],[-74.434681,40.487871],[-74.434717,40.487871]]],[[[-74.434717,40.487898],[-74.434753,40.487926],[-74.434717,40.487926],[-74.434717,40.487898]]],[[[-74.434825,40.487953],[-74.434789,40.487953],[-74.434789,40.487926],[-74.434825,40.487926],[-74.434825,40.487953]]],[[[-74.395902,40.48933],[-74.397361,40.487871],[-74.397684,40.488008],[-74.397972,40.487679],[-74.398368,40.487789],[-74.398332,40.487405],[-74.399016,40.487296],[-74.399518,40.487598],[-74.400238,40.487517],[-74.400057,40.488203],[-74.400416,40.488395],[-74.402035,40.488012],[-74.403797,40.487931],[-74.40412,40.487685],[-74.403904,40.488151],[-74.404084,40.488234],[-74.40696,40.487989],[-74.407391,40.488319],[-74.408829,40.488704],[-74.410231,40.488842],[-74.410807,40.488678],[-74.410375,40.489172],[-74.410805,40.489749],[-74.411668,40.490161],[-74.413141,40.490409],[-74.41249,40.493573],[-74.411553,40.493751],[-74.409034,40.493425],[-74.406771,40.492827],[-74.406553,40.492458],[-74.405563,40.492001],[-74.400942,40.491353],[-74.400049,40.491494],[-74.399575,40.491416],[-74.399486,40.491172],[-74.399327,40.491528],[-74.398784,40.491541],[-74.398707,40.491757],[-74.398477,40.491891],[-74.398573,40.491194],[-74.396209,40.48978],[-74.395902,40.48933]]],[[[-74.412742,40.493519],[-74.413357,40.490492],[-74.413573,40.49041],[-74.412994,40.493429],[-74.412742,40.493519]]],[[[-74.442905,40.499542],[-74.440206,40.501616],[-74.439283,40.500822],[-74.436141,40.496405],[-74.43566,40.495136],[-74.435506,40.492931],[-74.434518,40.491502],[-74.434691,40.491387],[-74.434363,40.490774],[-74.432053,40.489164],[-74.43071,40.488576],[-74.428573,40.488048],[-74.427558,40.488282],[-74.422838,40.488294],[-74.42093,40.488919],[-74.419192,40.490293],[-74.419187,40.490765],[-74.418799,40.490627],[-74.417078,40.49216],[-74.415011,40.493117],[-74.41321,40.493417],[-74.413789,40.490465],[-74.416126,40.490357],[-74.416306,40.49011],[-74.417457,40.489836],[-74.418177,40.48926],[-74.418105,40.489095],[-74.418896,40.488739],[-74.419257,40.488163],[-74.420948,40.487093],[-74.423609,40.486656],[-74.423465,40.486354],[-74.424076,40.486848],[-74.424723,40.486959],[-74.428822,40.486604],[-74.430655,40.487045],[-74.431806,40.487073],[-74.433675,40.487596],[-74.435436,40.48842],[-74.435472,40.488283],[-74.435256,40.488255],[-74.435292,40.488173],[-74.43522,40.488145],[-74.43522,40.488173],[-74.435113,40.488173],[-74.435149,40.48809],[-74.434753,40.487871],[-74.436119,40.488036],[-74.436839,40.487817],[-74.437161,40.488613],[-74.43788,40.488751],[-74.437952,40.489053],[-74.437484,40.489437],[-74.437916,40.489135],[-74.438383,40.489135],[-74.43867,40.489959],[-74.43982,40.490481],[-74.440179,40.491305],[-74.44079,40.49158],[-74.440538,40.492266],[-74.441113,40.492404],[-74.441113,40.492706],[-74.440502,40.492842],[-74.440394,40.492568],[-74.438308,40.492677],[-74.437877,40.493033],[-74.437912,40.493335],[-74.438596,40.492814],[-74.44007,40.492732],[-74.439459,40.493034],[-74.43953,40.493967],[-74.440609,40.493748],[-74.440968,40.493858],[-74.44104,40.493639],[-74.441292,40.493776],[-74.441364,40.493392],[-74.441652,40.493557],[-74.441651,40.4946],[-74.442082,40.495067],[-74.441937,40.495643],[-74.442261,40.495671],[-74.442727,40.497071],[-74.44154,40.497427],[-74.441792,40.497427],[-74.441684,40.497784],[-74.442223,40.497812],[-74.441935,40.498471],[-74.442114,40.498965],[-74.442905,40.49913],[-74.442905,40.499542]],[[-74.435544,40.48842],[-74.435616,40.488503],[-74.435616,40.48842],[-74.435544,40.48842]],[[-74.435616,40.48842],[-74.435652,40.488393],[-74.435616,40.488393],[-74.435616,40.48842]],[[-74.435652,40.48842],[-74.435688,40.488448],[-74.435688,40.48842],[-74.435652,40.48842]],[[-74.435688,40.488448],[-74.435723,40.488475],[-74.435723,40.488448],[-74.435688,40.488448]],[[-74.43522,40.488145],[-74.435184,40.488118],[-74.435184,40.488145],[-74.43522,40.488145]],[[-74.435508,40.488008],[-74.435544,40.488036],[-74.435544,40.488008],[-74.435508,40.488008]],[[-74.44179,40.500337],[-74.441754,40.50031],[-74.441754,40.500337],[-74.44179,40.500337]]]]}}]}