{"type":"FeatureCollection","features":[{"type":"Feature","properties":{"level_ft":5},"geometry":{"type":"MultiPolygon","coordinates":[[[[-74.412504,40.483025],[-74.412576,40.483217],[-74.412359,40.483464],[-74.412261,40.483271],[-74.412504,40.483025]]],[[[-74.412742,40.493519],[-74.413285,40.490821],[-74.413393,40.490766],[-74.412994,40.493429],[-74.412742,40.493519]]],[[[-74.437697,40.492814],[-74.438019,40.494845],[-74.439167,40.496877],[-74.4387,40.497096],[-74.4387,40.497344],[-74.436937,40.497617],[-74.438771,40.497453],[-74.440424,40.499403],[-74.44161,40.500392],[-74.440206,40.501616],[-74.439283,40.500822],[-74.438486,40.499498],[-74.436824,40.497587],[-74.436241,40.4966],[-74.43566,40.495136],[-74.435506,40.492931],[-74.434518,40.491502],[-74.434691,40.491387],[-74.434363,40.490774],[-74.432053,40.489164],[-74.430376,40.488466],[-74.428573,40.488048],[-74.427558,40.488282],[-74.422838,40.488294],[-74.42093,40.488919],[-74.419192,40.490293],[-74.419187,40.490765],[-74.418799,40.490627],[-74.417078,40.49216],[-74.415322,40.492991],[-74.413282,40.493402],[-74.41321,40.493264],[-74.413716,40.490849],[-74.414111,40.491096],[-74.414723,40.490548],[-74.41555,40.490439],[-74.415586,40.490686],[-74.416233,40.490549],[-74.416378,40.490165],[-74.417601,40.489781],[-74.418177,40.489123],[-74.418968,40.488712],[-74.419293,40.488163],[-74.421056,40.487066],[-74.423681,40.486629],[-74.424507,40.486959],[-74.428822,40.486659],[-74.43328,40.487458],[-74.433998,40.487815],[-74.433818,40.48809],[-74.435471,40.488969],[-74.436477,40.490452],[-74.436872,40.490617],[-74.436943,40.491441],[-74.437266,40.491715],[-74.437194,40.492621],[-74.437697,40.492814]],[[-74.437732,40.493472],[-74.437696,40.493445],[-74.437696,40.493472],[-74.437732,40.493472]]],[[[-74.448684,40.50711],[-74.441366,40.502715],[-74.44035,40.50174],[-74.441789,40.500612],[-74.444126,40.501958],[-74.446282,40.503661],[-74.447684,40.504238],[-74.4502,40.505859],[-74.452178,40.506766],[-74.457284,40.507481],[-74.458183,40.508168],[-74.45865,40.50888],[-74.454839,40.50865],[-74.450753,40.50777],[-74.448684,40.50711]]],[[[-74.467248,40.505069],[-74.467103,40.505508],[-74.46714,40.505261],[-74.467248,40.505069]]],[[[-74.467349,40.506746],[-74.467159,40.506947],[-74.467488,40.507767],[-74.467102,40.508034],[-74.467318,40.507704],[-74.467031,40.507073],[-74.467103,40.505755],[-74.467349,40.506746]]],[[[-74.459114,40.508982],[-74.457788,40.507454],[-74.463865,40.508088],[-74.463649,40.509103],[-74.463937,40.508115],[-74.464225,40.508005],[-74.467079,40.508336],[-74.466852,40.509329],[-74.464976,40.509124],[-74.460347,40.509148],[-74.459114,40.508982]]],[[[-74.403341,40.480014],[-74.403124,40.480244],[-74.403269,40.479991],[-74.403341,40.480014]]],[[[-74.404051,40.480245],[-74.403663,40.48041],[-74.403808,40.480166],[-74.404051,40.480245]]],[[[-74.404526,40.48052],[-74.404382,40.48063],[-74.404131,40.480437],[-74.404239,40.480306],[-74.404526,40.48052]]],[[[-74.412287,40.483573],[-74.411891,40.484012],[-74.411136,40.484039],[-74.40988,40.482446],[-74.408658,40.482006],[-74.407581,40.481017],[-74.406035,40.481208],[-74.405964,40.480933],[-74.404705,40.480822],[-74.404634,40.480575],[-74.407527,40.480434],[-74.408505,40.481467],[-74.410584,40.482771],[-74.411173,40.483849],[-74.411662,40.483931],[-74.41218,40.483381],[-74.412287,40.483573]]],[[[-74.395382,40.488583],[-74.394641,40.488251],[-74.394689,40.487743],[-74.394288,40.487333],[-74.392969,40.486501],[-74.392281,40.486315],[-74.392523,40.485012],[-74.393901,40.483567],[-74.395392,40.483661],[-74.395843,40.482585],[-74.397531,40.481133],[-74.399323,40.481225],[-74.400078,40.480568],[-74.401883,40.479609],[-74.403034,40.479915],[-74.402621,40.480354],[-74.401362,40.480847],[-74.401074,40.481396],[-74.400858,40.481258],[-74.400498,40.481423],[-74.395893,40.484054],[-74.395423,40.485261],[-74.396645,40.486031],[-74.396428,40.48669],[-74.396606,40.487486],[-74.395382,40.488583]]],[[[-74.411553,40.493751],[-74.40983,40.493289],[-74.408693,40.493342],[-74.406771,40.492827],[-74.406553,40.492458],[-74.405563,40.492001],[-74.401164,40.491381],[-74.400049,40.491494],[-74.399765,40.49125],[-74.399573,40.491414],[-74.399483,40.491172],[-74.398477,40.491891],[-74.398573,40.491194],[-74.396776,40.490232],[-74.395885,40.489187],[-74.397181,40.488035],[-74.398187,40.488476],[-74.398619,40.48779],[-74.399266,40.488202],[-74.399949,40.488148],[-74.400272,40.488532],[-74.402898,40.488013],[-74.404048,40.488261],[-74.406888,40.488044],[-74.407355,40.488346],[-74.409692,40.488924],[-74.410195,40.489172],[-74.410122,40.489501],[-74.411308,40.490106],[-74.412962,40.490492],[-74.41249,40.493573],[-74.411553,40.493751]],[[-74.400272,40.488532],[-74.400236,40.48856],[-74.400272,40.48856],[-74.400272,40.488532]]]]}}]}