{"type":"FeatureCollection","features":[{"type":"Feature","properties":{"level_ft":20},"geometry":{"type":"MultiPolygon","coordinates":[[[[-74.434034,40.487623],[-74.43407,40.487596],[-74.43407,40.487623],[-74.434034,40.487623]]],[[[-74.434142,40.487623],[-74.434106,40.487651],[-74.434106,40.487623],[-74.434142,40.487623]]],[[[-74.434358,40.487733],[-74.434394,40.487761],[-74.434358,40.487761],[-74.434358,40.487733]]],[[[-74.43443,40.487761],[-74.434466,40.487788],[-74.43443,40.487788],[-74.43443,40.487761]]],[[[-74.434538,40.487816],[-74.434574,40.487843],[-74.434538,40.487843],[-74.434538,40.487816]]],[[[-74.459628,40.49727],[-74.459628,40.49727],[-74.459628,40.49727],[-74.459628,40.49727]]],[[[-74.459667,40.497325],[-74.459664,40.497325],[-74.459664,40.497321],[-74.459667,40.497325]]],[[[-74.460283,40.49794],[-74.46254,40.50033],[-74.465035,40.501264],[-74.466953,40.502879],[-74.46733,40.504959],[-74.466852,40.504602],[-74.466709,40.503998],[-74.466925,40.503669],[-74.466026,40.502845],[-74.466134,40.502488],[-74.465091,40.502186],[-74.464192,40.501609],[-74.464013,40.50106],[-74.462323,40.500373],[-74.46182,40.499659],[-74.460921,40.49911],[-74.460059,40.497545],[-74.459772,40.497463],[-74.4597,40.497357],[-74.460169,40.497494],[-74.460283,40.49794]]],[[[-74.447397,40.503662],[-74.447181,40.503716],[-74.447181,40.503689],[-74.447397,40.503662]]],[[[-74.447253,40.503799],[-74.450452,40.505804],[-74.451531,40.506189],[-74.451747,40.506052],[-74.451782,40.506354],[-74.452106,40.506601],[-74.452501,40.506656],[-74.452358,40.506738],[-74.455378,40.506904],[-74.456997,40.507317],[-74.457967,40.507948],[-74.45865,40.50888],[-74.454412,40.508589],[-74.448684,40.50711],[-74.441639,40.502891],[-74.44035,40.501737],[-74.443553,40.499268],[-74.443875,40.500229],[-74.444666,40.501107],[-74.445277,40.501327],[-74.445025,40.501711],[-74.445852,40.502316],[-74.445528,40.502425],[-74.447325,40.503579],[-74.446642,40.503634],[-74.445959,40.503222],[-74.445887,40.503277],[-74.446606,40.503771],[-74.447253,40.503799]],[[-74.442473,40.500145],[-74.442509,40.500173],[-74.442509,40.500146],[-74.442473,40.500145]],[[-74.442509,40.500173],[-74.442545,40.5002],[-74.442545,40.500173],[-74.442509,40.500173]],[[-74.442545,40.5002],[-74.442581,40.500228],[-74.442581,40.5002],[-74.442545,40.5002]],[[-74.445025,40.501684],[-74.444989,40.501657],[-74.444989,40.501684],[-74.445025,40.501684]]],[[[-74.452825,40.506601],[-74.451998,40.506436],[-74.451891,40.505969],[-74.452034,40.506162],[-74.453077,40.506299],[-74.453041,40.506354],[-74.453185,40.506382],[-74.452933,40.506464],[-74.453077,40.506464],[-74.453221,40.506574],[-74.452825,40.506601]],[[-74.452933,40.506327],[-74.453005,40.506354],[-74.453005,40.506327],[-74.452933,40.506327]],[[-74.453041,40.506574],[-74.453005,40.506492],[-74.453005,40.506574],[-74.453041,40.506574]]],[[[-74.453113,40.506354],[-74.453149,40.506327],[-74.453149,40.506354],[-74.453113,40.506354]]],[[[-74.453221,40.506601],[-74.453293,40.506574],[-74.453293,40.506601],[-74.453221,40.506601]]],[[[-74.45901,40.508921],[-74.45732,40.506987],[-74.45955,40.507208],[-74.459838,40.506686],[-74.45991,40.507153],[-74.461204,40.507428],[-74.466023,40.507759],[-74.466419,40.507182],[-74.466348,40.505975],[-74.466888,40.505783],[-74.466888,40.505069],[-74.467296,40.505096],[-74.467139,40.505783],[-74.467381,40.50665],[-74.467159,40.506947],[-74.467496,40.507694],[-74.466852,40.509329],[-74.464976,40.509124],[-74.459495,40.509076],[-74.45901,40.508921]]],[[[-74.40334,40.480052],[-74.403088,40.480299],[-74.403269,40.479991],[-74.40334,40.480052]]],[[[-74.415314,40.478607],[-74.414952,40.480226],[-74.413548,40.482147],[-74.413116,40.481956],[-74.414463,40.479877],[-74.414635,40.478639],[-74.415314,40.478607]]],[[[-74.404051,40.480245],[-74.403879,40.48052],[-74.403591,40.480492],[-74.403808,40.480166],[-74.404051,40.480245]]],[[[-74.404239,40.480306],[-74.40431,40.48074],[-74.404059,40.480602],[-74.404239,40.480306]]],[[[-74.41302,40.482119],[-74.413583,40.482312],[-74.413511,40.482668],[-74.412864,40.482393],[-74.41302,40.482119]]],[[[-74.405639,40.480608],[-74.407623,40.480492],[-74.408505,40.481467],[-74.41031,40.482534],[-74.411282,40.483914],[-74.411846,40.483805],[-74.412792,40.482531],[-74.413223,40.483052],[-74.412862,40.483711],[-74.412897,40.484754],[-74.41225,40.484534],[-74.412215,40.484177],[-74.410957,40.483984],[-74.410167,40.482913],[-74.409627,40.483324],[-74.40916,40.483214],[-74.409736,40.482611],[-74.409233,40.482363],[-74.409017,40.482473],[-74.408982,40.482198],[-74.408586,40.48217],[-74.40794,40.481593],[-74.406107,40.481345],[-74.405603,40.481729],[-74.40564,40.481015],[-74.404454,40.480987],[-74.404742,40.48047],[-74.405639,40.480608]]],[[[-74.39704,40.486251],[-74.397399,40.486114],[-74.397507,40.486334],[-74.396787,40.487019],[-74.39675,40.487376],[-74.395379,40.488583],[-74.394641,40.488251],[-74.394689,40.487743],[-74.394288,40.487333],[-74.392969,40.486501],[-74.392281,40.486315],[-74.392523,40.485012],[-74.393901,40.483567],[-74.395392,40.483661],[-74.395843,40.482585],[-74.397531,40.481133],[-74.399323,40.481225],[-74.400078,40.480568],[-74.401883,40.479609],[-74.403034,40.479915],[-74.402513,40.480765],[-74.401577,40.481176],[-74.401864,40.481588],[-74.401684,40.481863],[-74.400749,40.481944],[-74.40057,40.48156],[-74.40039,40.481999],[-74.399886,40.481971],[-74.399095,40.482492],[-74.399202,40.482684],[-74.39762,40.483067],[-74.396936,40.483451],[-74.396468,40.484219],[-74.39582,40.484575],[-74.395783,40.485262],[-74.396034,40.485536],[-74.396501,40.485674],[-74.396825,40.485372],[-74.397185,40.485455],[-74.396861,40.485784],[-74.397112,40.485949],[-74.39704,40.486251]],[[-74.396968,40.486306],[-74.396932,40.486333],[-74.396968,40.486333],[-74.396968,40.486306]]],[[[-74.433927,40.487486],[-74.433891,40.487513],[-74.433891,40.487486],[-74.433927,40.487486]]],[[[-74.433891,40.487513],[-74.433855,40.487541],[-74.433855,40.487513],[-74.433891,40.487513]]],[[[-74.433963,40.487541],[-74.433927,40.487568],[-74.433927,40.487541],[-74.433963,40.487541]]],[[[-74.395902,40.48933],[-74.397397,40.487844],[-74.397756,40.487926],[-74.398009,40.487487],[-74.398944,40.487214],[-74.399662,40.487571],[-74.400382,40.487434],[-74.400237,40.488285],[-74.400453,40.488038],[-74.401171,40.488204],[-74.403797,40.487876],[-74.404301,40.487438],[-74.404012,40.488206],[-74.407284,40.487907],[-74.407356,40.488291],[-74.408793,40.488677],[-74.410879,40.488431],[-74.410842,40.488843],[-74.410447,40.48909],[-74.410877,40.489694],[-74.412063,40.490189],[-74.413142,40.490355],[-74.41249,40.493573],[-74.411553,40.493751],[-74.409034,40.493425],[-74.406771,40.492827],[-74.406553,40.492458],[-74.405563,40.492001],[-74.400942,40.491353],[-74.400049,40.491494],[-74.399575,40.491416],[-74.399486,40.491172],[-74.399327,40.491528],[-74.398784,40.491541],[-74.398707,40.491757],[-74.398477,40.491891],[-74.398573,40.491194],[-74.396209,40.48978],[-74.395902,40.48933]]],[[[-74.412742,40.493519],[-74.413357,40.490492],[-74.413609,40.490382],[-74.412994,40.493429],[-74.412742,40.493519]]],[[[-74.437988,40.48908],[-74.438276,40.488971],[-74.438707,40.489438],[-74.439066,40.489383],[-74.439425,40.490152],[-74.440324,40.490756],[-74.441906,40.490757],[-74.440934,40.492019],[-74.441005,40.492266],[-74.441401,40.492239],[-74.442047,40.493831],[-74.442226,40.495039],[-74.442764,40.496083],[-74.44262,40.496467],[-74.443195,40.496742],[-74.443231,40.496989],[-74.442475,40.497291],[-74.442475,40.497538],[-74.442835,40.497455],[-74.443697,40.498554],[-74.443301,40.498773],[-74.443445,40.499103],[-74.440206,40.501616],[-74.439283,40.500822],[-74.436241,40.4966],[-74.43566,40.495136],[-74.435506,40.492931],[-74.434518,40.491502],[-74.434691,40.491387],[-74.434363,40.490774],[-74.431744,40.488996],[-74.429565,40.488217],[-74.428573,40.488048],[-74.427558,40.488282],[-74.423877,40.488159],[-74.421452,40.488703],[-74.419203,40.490282],[-74.419187,40.490765],[-74.418799,40.490627],[-74.417078,40.49216],[-74.415011,40.493117],[-74.41321,40.493417],[-74.413825,40.49041],[-74.415155,40.490466],[-74.417421,40.489836],[-74.418141,40.489288],[-74.418069,40.489095],[-74.418896,40.488712],[-74.419257,40.488108],[-74.4212,40.486984],[-74.423537,40.486656],[-74.42325,40.486271],[-74.423717,40.486299],[-74.42404,40.486793],[-74.424507,40.486931],[-74.42893,40.486604],[-74.43274,40.487293],[-74.434645,40.48809],[-74.434969,40.488063],[-74.434466,40.487816],[-74.434466,40.487733],[-74.434358,40.487706],[-74.434358,40.487733],[-74.434286,40.487733],[-74.434142,40.487678],[-74.434178,40.487623],[-74.43407,40.487568],[-74.433963,40.487596],[-74.433963,40.487486],[-74.434574,40.487459],[-74.435832,40.488009],[-74.436839,40.487789],[-74.436982,40.488339],[-74.437917,40.488641],[-74.437988,40.48908]],[[-74.434861,40.487981],[-74.434897,40.487953],[-74.434861,40.487953],[-74.434861,40.487981]],[[-74.434753,40.487926],[-74.434789,40.487898],[-74.434753,40.487898],[-74.434753,40.487926]],[[-74.434645,40.487871],[-74.434681,40.487843],[-74.434645,40.487843],[-74.434645,40.487871]],[[-74.434286,40.487706],[-74.434322,40.487678],[-74.434286,40.487678],[-74.434286,40.487706]],[[-74.434214,40.487678],[-74.43425,40.487651],[-74.434214,40.487651],[-74.434214,40.487678]],[[-74.434754,40.487569],[-74.434718,40.487596],[-74.434754,40.487596],[-74.434754,40.487569]],[[-74.434825,40.487596],[-74.434789,40.487624],[-74.434825,40.487624],[-74.434825,40.487596]],[[-74.435005,40.487679],[-74.434969,40.487706],[-74.435005,40.487706],[-74.435005,40.487679]],[[-74.435077,40.487706],[-74.435041,40.487734],[-74.435077,40.487734],[-74.435077,40.487706]],[[-74.437844,40.489135],[-74.437484,40.489409],[-74.43752,40.489464],[-74.437808,40.489272],[-74.437844,40.489135]]]]}}]}