{"type":"FeatureCollection","features":[{"type":"Feature","properties":{"level_ft":0},"geometry":{"type":"MultiPolygon","coordinates":[[[[-74.406215,40.480878],[-74.404957,40.480795],[-74.404634,40.480575],[-74.407527,40.480434],[-74.408505,40.481467],[-74.410584,40.482771],[-74.411173,40.483849],[-74.411662,40.483931],[-74.41218,40.483381],[-74.412323,40.483573],[-74.411855,40.484012],[-74.411136,40.484039],[-74.409916,40.482473],[-74.408587,40.481896],[-74.407474,40.480605],[-74.407222,40.481071],[-74.407186,40.480522],[-74.406215,40.480878]],[[-74.406323,40.480824],[-74.406287,40.480796],[-74.406287,40.480824],[-74.406323,40.480824]]],[[[-74.41254,40.483052],[-74.412576,40.483217],[-74.412396,40.483409],[-74.412261,40.483271],[-74.41254,40.483052]]],[[[-74.412742,40.493511],[-74.413068,40.491919],[-74.413247,40.491892],[-74.412994,40.493401],[-74.412742,40.493511]]],[[[-74.436824,40.497587],[-74.435717,40.495173],[-74.435504,40.49284],[-74.434516,40.491494],[-74.434691,40.491387],[-74.434319,40.49067],[-74.433637,40.490039],[-74.431744,40.488996],[-74.429338,40.488154],[-74.423877,40.488159],[-74.422384,40.488357],[-74.420364,40.489299],[-74.417078,40.49216],[-74.415332,40.492964],[-74.41321,40.493347],[-74.413499,40.491892],[-74.414003,40.491288],[-74.416161,40.490631],[-74.417637,40.489781],[-74.419436,40.488081],[-74.421307,40.487011],[-74.423824,40.486711],[-74.424363,40.486986],[-74.425298,40.487041],[-74.428606,40.486824],[-74.428822,40.486659],[-74.428822,40.486824],[-74.431446,40.487182],[-74.43256,40.487622],[-74.432848,40.48754],[-74.432848,40.487732],[-74.435255,40.489079],[-74.436728,40.490699],[-74.436584,40.491083],[-74.437014,40.492429],[-74.437553,40.493033],[-74.438198,40.495449],[-74.439132,40.496767],[-74.438628,40.497069],[-74.4387,40.497344],[-74.436937,40.497617],[-74.438735,40.497453],[-74.440496,40.499513],[-74.441574,40.500392],[-74.440242,40.501599],[-74.439283,40.500822],[-74.438486,40.499498],[-74.436824,40.497587]]],[[[-74.448684,40.50711],[-74.441366,40.502715],[-74.44035,40.50174],[-74.441753,40.500639],[-74.444377,40.50215],[-74.446462,40.503798],[-74.447648,40.504238],[-74.451423,40.506491],[-74.452429,40.506848],[-74.457356,40.507509],[-74.45865,40.50888],[-74.454839,40.50865],[-74.450732,40.507764],[-74.448684,40.50711]]],[[[-74.466852,40.509329],[-74.459381,40.509047],[-74.45901,40.508921],[-74.457788,40.507454],[-74.463901,40.508115],[-74.463649,40.509103],[-74.463973,40.508143],[-74.467066,40.508308],[-74.466852,40.509329]]],[[[-74.40334,40.480052],[-74.403125,40.48019],[-74.403269,40.479991],[-74.40334,40.480052]]],[[[-74.404051,40.480245],[-74.403699,40.48041],[-74.403808,40.480166],[-74.404051,40.480245]]],[[[-74.404239,40.480306],[-74.404418,40.480575],[-74.404131,40.480465],[-74.404239,40.480306]]],[[[-74.397802,40.481283],[-74.398377,40.481366],[-74.398233,40.481942],[-74.398916,40.482108],[-74.398555,40.482519],[-74.397836,40.482683],[-74.397584,40.482957],[-74.397404,40.482847],[-74.396469,40.483615],[-74.395822,40.483477],[-74.395246,40.483916],[-74.395353,40.484136],[-74.395029,40.484218],[-74.395137,40.48463],[-74.394382,40.484629],[-74.393735,40.484189],[-74.393051,40.484738],[-74.394633,40.485014],[-74.395207,40.485481],[-74.395135,40.485673],[-74.396213,40.486388],[-74.396606,40.487486],[-74.395379,40.488583],[-74.394641,40.488251],[-74.394689,40.487743],[-74.394288,40.487333],[-74.392969,40.486501],[-74.392281,40.486315],[-74.392523,40.485012],[-74.393901,40.483567],[-74.395392,40.483661],[-74.395843,40.482585],[-74.397531,40.481133],[-74.399323,40.481225],[-74.400078,40.480568],[-74.401883,40.479609],[-74.403034,40.479915],[-74.402477,40.480299],[-74.402082,40.480189],[-74.401794,40.480408],[-74.401758,40.480298],[-74.401866,40.480161],[-74.401831,40.480051],[-74.401363,40.480298],[-74.401506,40.48049],[-74.401075,40.48049],[-74.400895,40.480709],[-74.400966,40.481176],[-74.399239,40.482135],[-74.398629,40.481339],[-74.397802,40.481283]],[[-74.397802,40.48131],[-74.397622,40.481338],[-74.397802,40.481338],[-74.397802,40.48131]]],[[[-74.411553,40.493751],[-74.409758,40.493207],[-74.40965,40.493371],[-74.408693,40.493342],[-74.406762,40.49282],[-74.406553,40.492458],[-74.405563,40.492001],[-74.4007,40.491305],[-74.399945,40.491469],[-74.399801,40.491167],[-74.398758,40.491523],[-74.398685,40.491763],[-74.398477,40.491891],[-74.398573,40.491194],[-74.396776,40.490232],[-74.395885,40.489187],[-74.397217,40.488036],[-74.398653,40.489025],[-74.399193,40.488971],[-74.399409,40.488504],[-74.399841,40.488367],[-74.399984,40.48856],[-74.399661,40.488587],[-74.399408,40.489081],[-74.399947,40.48974],[-74.400738,40.489329],[-74.400846,40.489494],[-74.403866,40.489771],[-74.404226,40.489194],[-74.403435,40.489111],[-74.403472,40.488919],[-74.404011,40.488892],[-74.403544,40.488453],[-74.404335,40.488673],[-74.404478,40.489195],[-74.405377,40.489333],[-74.405485,40.488948],[-74.405269,40.488866],[-74.405521,40.488839],[-74.405557,40.488619],[-74.404586,40.48881],[-74.404443,40.488618],[-74.404947,40.488344],[-74.405773,40.488345],[-74.406169,40.488647],[-74.405809,40.488592],[-74.4057,40.489388],[-74.406347,40.489416],[-74.406276,40.488977],[-74.406923,40.488922],[-74.407031,40.489114],[-74.406635,40.489142],[-74.406599,40.489444],[-74.40685,40.489581],[-74.407066,40.489444],[-74.407461,40.489911],[-74.40721,40.489719],[-74.406167,40.48969],[-74.405807,40.48991],[-74.405772,40.48969],[-74.40534,40.489772],[-74.405268,40.489607],[-74.405124,40.489936],[-74.404764,40.490018],[-74.404945,40.489717],[-74.404513,40.489497],[-74.404656,40.490101],[-74.405411,40.490074],[-74.405699,40.490431],[-74.406489,40.490569],[-74.407029,40.490487],[-74.4071,40.490844],[-74.407496,40.490954],[-74.407712,40.490872],[-74.407712,40.490378],[-74.407964,40.49035],[-74.407747,40.491009],[-74.408754,40.491312],[-74.40915,40.49101],[-74.409078,40.490681],[-74.409546,40.49005],[-74.409151,40.489967],[-74.408683,40.490543],[-74.408791,40.490104],[-74.408468,40.490021],[-74.409079,40.489775],[-74.409044,40.489363],[-74.409296,40.489363],[-74.409834,40.489721],[-74.409329,40.491505],[-74.411306,40.491781],[-74.412529,40.491727],[-74.412709,40.491397],[-74.412888,40.491535],[-74.41249,40.493566],[-74.411553,40.493751]],[[-74.402787,40.489687],[-74.402751,40.489715],[-74.402787,40.489715],[-74.402787,40.489687]],[[-74.405772,40.48969],[-74.40588,40.489635],[-74.405808,40.489608],[-74.405772,40.48969]],[[-74.408791,40.490104],[-74.408827,40.490077],[-74.408791,40.490077],[-74.408791,40.490104]]]]}}]}