{"type":"FeatureCollection","features":[{"type":"Feature","properties":{"level_ft":7},"geometry":{"type":"MultiPolygon","coordinates":[[[[-74.438704,40.492622],[-74.438452,40.492594],[-74.438165,40.491606],[-74.438633,40.492018],[-74.438704,40.492622]]],[[[-74.438884,40.492457],[-74.438848,40.49243],[-74.438884,40.49243],[-74.438884,40.492457]]],[[[-74.438559,40.493528],[-74.438128,40.493143],[-74.438884,40.492814],[-74.438955,40.493308],[-74.438847,40.4935],[-74.438559,40.493528]],[[-74.438703,40.493473],[-74.438667,40.493445],[-74.438667,40.493473],[-74.438703,40.493473]],[[-74.438703,40.493445],[-74.438739,40.493418],[-74.438703,40.493418],[-74.438703,40.493445]],[[-74.438631,40.4935],[-74.438595,40.493473],[-74.438595,40.4935],[-74.438631,40.4935]]],[[[-74.466793,40.502735],[-74.467224,40.503546],[-74.467248,40.504987],[-74.466925,40.50301],[-74.466565,40.502653],[-74.466793,40.502735]]],[[[-74.448684,40.50711],[-74.441366,40.502715],[-74.44035,40.50174],[-74.441789,40.500612],[-74.444269,40.502041],[-74.44639,40.503716],[-74.447612,40.504183],[-74.450056,40.505777],[-74.452429,40.506821],[-74.45732,40.507481],[-74.45865,40.50888],[-74.454839,40.50865],[-74.450753,40.50777],[-74.448684,40.50711]]],[[[-74.467139,40.505618],[-74.467103,40.505481],[-74.46714,40.505151],[-74.467248,40.505069],[-74.467139,40.505618]]],[[[-74.467349,40.506746],[-74.467159,40.506947],[-74.467488,40.507767],[-74.467102,40.508034],[-74.467318,40.507649],[-74.467031,40.5071],[-74.467103,40.505755],[-74.467349,40.506746]]],[[[-74.45901,40.508921],[-74.457788,40.507454],[-74.459622,40.50751],[-74.462499,40.508032],[-74.464621,40.508005],[-74.467086,40.508308],[-74.466852,40.509329],[-74.464976,40.509124],[-74.459495,40.509076],[-74.45901,40.508921]]],[[[-74.40334,40.480052],[-74.403124,40.480244],[-74.403269,40.479991],[-74.40334,40.480052]]],[[[-74.404051,40.480245],[-74.403663,40.480437],[-74.403808,40.480166],[-74.404051,40.480245]]],[[[-74.404526,40.48052],[-74.404382,40.480657],[-74.404095,40.480492],[-74.404239,40.480306],[-74.404526,40.48052]]],[[[-74.404742,40.48047],[-74.407623,40.480492],[-74.408505,40.481467],[-74.410584,40.482771],[-74.411282,40.483914],[-74.411662,40.483931],[-74.41218,40.483381],[-74.412359,40.483464],[-74.412504,40.48297],[-74.412467,40.483464],[-74.412035,40.48393],[-74.411568,40.484094],[-74.411029,40.483984],[-74.410275,40.482858],[-74.409844,40.482858],[-74.40988,40.482473],[-74.408658,40.482033],[-74.408264,40.481511],[-74.407545,40.481154],[-74.406215,40.481153],[-74.405747,40.481427],[-74.405928,40.480933],[-74.404598,40.480712],[-74.404742,40.48047]]],[[[-74.395382,40.488583],[-74.394641,40.488251],[-74.394689,40.487743],[-74.394288,40.487333],[-74.392969,40.486501],[-74.392281,40.486315],[-74.392523,40.485012],[-74.393901,40.483567],[-74.395392,40.483661],[-74.395843,40.482585],[-74.397531,40.481133],[-74.399323,40.481225],[-74.400078,40.480568],[-74.401883,40.479609],[-74.403034,40.479915],[-74.402549,40.480464],[-74.401326,40.481039],[-74.401217,40.48156],[-74.40057,40.481395],[-74.396181,40.483862],[-74.395423,40.485206],[-74.396106,40.485756],[-74.396609,40.485784],[-74.396788,40.486114],[-74.396428,40.486772],[-74.396642,40.487459],[-74.395382,40.488583]]],[[[-74.411553,40.493751],[-74.408693,40.493342],[-74.406771,40.492827],[-74.406553,40.492458],[-74.405563,40.492001],[-74.403126,40.491795],[-74.401804,40.491468],[-74.400049,40.491494],[-74.399573,40.491414],[-74.399483,40.491172],[-74.398477,40.491891],[-74.398573,40.491194],[-74.396776,40.490232],[-74.395885,40.489187],[-74.397217,40.488008],[-74.397684,40.488365],[-74.398187,40.488421],[-74.398907,40.487543],[-74.399339,40.487626],[-74.399302,40.487928],[-74.400308,40.488505],[-74.402754,40.488013],[-74.404084,40.488261],[-74.407068,40.488044],[-74.407355,40.488346],[-74.409548,40.488924],[-74.410123,40.489007],[-74.410807,40.488733],[-74.410375,40.488952],[-74.410266,40.489419],[-74.41156,40.490189],[-74.413105,40.490464],[-74.413105,40.490711],[-74.41249,40.493573],[-74.411553,40.493751]]],[[[-74.412742,40.493519],[-74.413321,40.490657],[-74.413537,40.49052],[-74.412994,40.493429],[-74.412742,40.493519]]],[[[-74.417078,40.49216],[-74.41526,40.493016],[-74.41321,40.493417],[-74.413752,40.490739],[-74.415551,40.490384],[-74.41573,40.490631],[-74.416198,40.490549],[-74.416306,40.490165],[-74.417637,40.489754],[-74.418141,40.489123],[-74.41904,40.488629],[-74.419293,40.488163],[-74.421128,40.487039],[-74.423645,40.486711],[-74.423681,40.486519],[-74.424507,40.486959],[-74.427168,40.486878],[-74.428355,40.486632],[-74.43292,40.487348],[-74.434214,40.487898],[-74.435112,40.488639],[-74.435687,40.488667],[-74.435831,40.488914],[-74.435507,40.488997],[-74.435939,40.488997],[-74.436118,40.489491],[-74.436585,40.489629],[-74.436369,40.489903],[-74.436657,40.490315],[-74.437016,40.490095],[-74.437123,40.491248],[-74.437482,40.491633],[-74.437194,40.491907],[-74.437338,40.492484],[-74.437985,40.492567],[-74.437768,40.493198],[-74.438235,40.493802],[-74.438091,40.494022],[-74.43784,40.493967],[-74.437947,40.494406],[-74.438091,40.494626],[-74.438127,40.494461],[-74.438522,40.494571],[-74.438558,40.49501],[-74.438845,40.495093],[-74.438701,40.495532],[-74.439133,40.495724],[-74.439132,40.496081],[-74.438845,40.496136],[-74.439203,40.496932],[-74.438736,40.497344],[-74.436937,40.497617],[-74.438807,40.497453],[-74.441646,40.500502],[-74.440206,40.501616],[-74.439283,40.500822],[-74.437569,40.498283],[-74.436824,40.497587],[-74.436141,40.496405],[-74.43566,40.495136],[-74.435506,40.492931],[-74.434518,40.491502],[-74.434691,40.491387],[-74.434363,40.490774],[-74.431744,40.488996],[-74.429565,40.488217],[-74.428573,40.488048],[-74.427558,40.488282],[-74.423877,40.488159],[-74.421452,40.488703],[-74.419203,40.490282],[-74.419172,40.490776],[-74.418911,40.490559],[-74.417078,40.49216]]]]}}]}