{"type":"FeatureCollection","features":[{"type":"Feature","properties":{"level_ft":10},"geometry":{"type":"MultiPolygon","coordinates":[[[[-74.436191,40.488805],[-74.436155,40.488832],[-74.436155,40.488805],[-74.436191,40.488805]]],[[[-74.436226,40.488832],[-74.43619,40.48886],[-74.436191,40.488832],[-74.436226,40.488832]]],[[[-74.436262,40.488887],[-74.436226,40.488887],[-74.436226,40.48886],[-74.436262,40.48886],[-74.436262,40.488887]]],[[[-74.436262,40.488915],[-74.436262,40.488887],[-74.436298,40.488887],[-74.436298,40.488915],[-74.436262,40.488915]]],[[[-74.436334,40.488942],[-74.436298,40.488915],[-74.436334,40.488915],[-74.436334,40.488942]]],[[[-74.43637,40.488942],[-74.436334,40.48897],[-74.436334,40.488942],[-74.43637,40.488942]]],[[[-74.438166,40.491359],[-74.43813,40.491331],[-74.438166,40.491331],[-74.438166,40.491359]]],[[[-74.440502,40.492513],[-74.440538,40.49254],[-74.440502,40.49254],[-74.440502,40.492513]]],[[[-74.441969,40.500173],[-74.440964,40.499019],[-74.441431,40.498855],[-74.441719,40.499212],[-74.441755,40.498718],[-74.442294,40.49924],[-74.442042,40.499706],[-74.442293,40.499981],[-74.441969,40.500173]]],[[[-74.442509,40.500173],[-74.442545,40.500146],[-74.442545,40.500173],[-74.442509,40.500173]]],[[[-74.442653,40.500173],[-74.442581,40.500228],[-74.442545,40.500173],[-74.442653,40.500173]]],[[[-74.442293,40.500283],[-74.442257,40.50031],[-74.442257,40.500283],[-74.442293,40.500283]]],[[[-74.442401,40.50042],[-74.442293,40.500228],[-74.442401,40.500145],[-74.442617,40.500283],[-74.442976,40.50031],[-74.442832,40.500475],[-74.442401,40.50042]],[[-74.442401,40.500365],[-74.442437,40.500338],[-74.442401,40.500338],[-74.442401,40.500365]],[[-74.442509,40.500228],[-74.442473,40.500255],[-74.442509,40.500255],[-74.442509,40.500228]],[[-74.442653,40.50042],[-74.442617,40.500393],[-74.442617,40.50042],[-74.442653,40.50042]],[[-74.442545,40.50042],[-74.442581,40.500393],[-74.442545,40.500393],[-74.442545,40.50042]]],[[[-74.444054,40.501464],[-74.443084,40.501024],[-74.44258,40.50064],[-74.443443,40.500722],[-74.444054,40.501464]]],[[[-74.464912,40.501212],[-74.466997,40.502937],[-74.46733,40.504959],[-74.466924,40.504575],[-74.466817,40.503943],[-74.467068,40.503614],[-74.466709,40.502845],[-74.465343,40.501637],[-74.464085,40.500959],[-74.464912,40.501212]]],[[[-74.448684,40.50711],[-74.441366,40.502715],[-74.44035,40.50174],[-74.441825,40.500584],[-74.444018,40.501848],[-74.446318,40.503634],[-74.447073,40.503826],[-74.450416,40.505914],[-74.452501,40.506793],[-74.45527,40.507041],[-74.456853,40.507454],[-74.456601,40.507289],[-74.456961,40.507317],[-74.458075,40.508058],[-74.45865,40.50888],[-74.454839,40.50865],[-74.450732,40.507764],[-74.448684,40.50711]]],[[[-74.467211,40.505591],[-74.467104,40.505124],[-74.467212,40.505041],[-74.467211,40.505591]]],[[[-74.467067,40.505755],[-74.467496,40.507694],[-74.467138,40.508061],[-74.467067,40.505755]]],[[[-74.457968,40.507372],[-74.458003,40.507399],[-74.457968,40.507399],[-74.457968,40.507372]]],[[[-74.45901,40.508921],[-74.457644,40.507317],[-74.462535,40.508032],[-74.464693,40.508005],[-74.467086,40.508308],[-74.466852,40.509329],[-74.464976,40.509124],[-74.459495,40.509076],[-74.45901,40.508921]]],[[[-74.40334,40.480052],[-74.403089,40.480244],[-74.403269,40.479991],[-74.40334,40.480052]]],[[[-74.403879,40.480492],[-74.403627,40.480437],[-74.403808,40.480166],[-74.404051,40.480245],[-74.403879,40.480492]]],[[[-74.404454,40.480602],[-74.404095,40.480547],[-74.404239,40.480306],[-74.40449,40.480388],[-74.404454,40.480602]]],[[[-74.405639,40.480608],[-74.407623,40.480492],[-74.408505,40.481467],[-74.410451,40.482648],[-74.411282,40.483914],[-74.411662,40.483931],[-74.41218,40.483381],[-74.412359,40.483464],[-74.412504,40.48297],[-74.412611,40.483464],[-74.412395,40.483491],[-74.412359,40.48393],[-74.411029,40.483984],[-74.410167,40.482803],[-74.409664,40.482995],[-74.40988,40.482693],[-74.409736,40.482391],[-74.408622,40.482061],[-74.407904,40.481346],[-74.406215,40.48118],[-74.405639,40.481537],[-74.405928,40.48096],[-74.404526,40.480767],[-74.404742,40.48047],[-74.405639,40.480608]]],[[[-74.395382,40.488583],[-74.394641,40.488251],[-74.394689,40.487743],[-74.394288,40.487333],[-74.392969,40.486501],[-74.392281,40.486315],[-74.392523,40.485012],[-74.393751,40.483677],[-74.394275,40.483475],[-74.395392,40.483661],[-74.395843,40.482585],[-74.397531,40.481133],[-74.399323,40.481225],[-74.400078,40.480568],[-74.401883,40.479609],[-74.403034,40.479915],[-74.402549,40.480546],[-74.401362,40.481039],[-74.401612,40.481698],[-74.400858,40.48167],[-74.400858,40.481395],[-74.400606,40.481395],[-74.396396,40.483752],[-74.395459,40.485234],[-74.396106,40.485729],[-74.396717,40.485729],[-74.396931,40.486553],[-74.396464,40.4868],[-74.396642,40.487459],[-74.395382,40.488583]]],[[[-74.435759,40.488475],[-74.435723,40.488503],[-74.435723,40.488475],[-74.435759,40.488475]]],[[[-74.435795,40.488503],[-74.435759,40.48853],[-74.435759,40.488503],[-74.435795,40.488503]]],[[[-74.435831,40.488558],[-74.435795,40.488558],[-74.435795,40.48853],[-74.435831,40.48853],[-74.435831,40.488558]]],[[[-74.435831,40.488585],[-74.435831,40.488558],[-74.435867,40.488558],[-74.435867,40.488585],[-74.435831,40.488585]]],[[[-74.435903,40.488612],[-74.435867,40.488585],[-74.435903,40.488585],[-74.435903,40.488612]]],[[[-74.435939,40.488612],[-74.435903,40.48864],[-74.435903,40.488612],[-74.435939,40.488612]]],[[[-74.435975,40.48864],[-74.435939,40.488667],[-74.435939,40.48864],[-74.435975,40.48864]]],[[[-74.436011,40.488695],[-74.435975,40.488695],[-74.435975,40.488667],[-74.436011,40.488667],[-74.436011,40.488695]]],[[[-74.436011,40.488722],[-74.436011,40.488695],[-74.436047,40.488695],[-74.436047,40.488722],[-74.436011,40.488722]]],[[[-74.436083,40.48875],[-74.436047,40.488722],[-74.436083,40.488722],[-74.436083,40.48875]]],[[[-74.436119,40.48875],[-74.436083,40.488777],[-74.436083,40.48875],[-74.436119,40.48875]]],[[[-74.436155,40.488777],[-74.436119,40.488805],[-74.436119,40.488777],[-74.436155,40.488777]]],[[[-74.411553,40.493751],[-74.406771,40.492827],[-74.406553,40.492458],[-74.405563,40.492001],[-74.403126,40.491795],[-74.401804,40.491468],[-74.400049,40.491494],[-74.399575,40.491416],[-74.399483,40.491172],[-74.399327,40.491528],[-74.398784,40.491541],[-74.398707,40.491757],[-74.398477,40.491891],[-74.398573,40.491194],[-74.396776,40.490232],[-74.395885,40.489187],[-74.397217,40.488008],[-74.397756,40.488338],[-74.398439,40.488174],[-74.398548,40.487433],[-74.399806,40.487653],[-74.399806,40.487873],[-74.40013,40.487654],[-74.399949,40.488148],[-74.400344,40.48845],[-74.402826,40.487985],[-74.403796,40.488014],[-74.404228,40.488261],[-74.407032,40.488016],[-74.40732,40.488319],[-74.409871,40.488925],[-74.410807,40.488706],[-74.410267,40.489282],[-74.410913,40.489859],[-74.411632,40.490189],[-74.413141,40.490437],[-74.41249,40.493573],[-74.411553,40.493751]]],[[[-74.412742,40.493519],[-74.413357,40.490492],[-74.413537,40.490437],[-74.412994,40.493429],[-74.412742,40.493519]]],[[[-74.441037,40.497811],[-74.440246,40.497344],[-74.44021,40.497042],[-74.44057,40.496933],[-74.439673,40.495093],[-74.439241,40.494818],[-74.439203,40.497179],[-74.436937,40.497617],[-74.439023,40.497426],[-74.439095,40.497893],[-74.439562,40.498113],[-74.440496,40.499403],[-74.441682,40.500392],[-74.440206,40.501616],[-74.439283,40.500822],[-74.438486,40.499498],[-74.436824,40.497587],[-74.436241,40.4966],[-74.43566,40.495136],[-74.435506,40.492931],[-74.434518,40.491502],[-74.434691,40.491387],[-74.434363,40.490774],[-74.431744,40.488996],[-74.429338,40.488154],[-74.423877,40.488159],[-74.421452,40.488703],[-74.419203,40.490282],[-74.419187,40.490765],[-74.418799,40.490627],[-74.417078,40.49216],[-74.415011,40.493117],[-74.41321,40.493417],[-74.413789,40.49052],[-74.415047,40.490521],[-74.41573,40.490302],[-74.415874,40.490521],[-74.41627,40.490494],[-74.416306,40.490137],[-74.417529,40.489809],[-74.418141,40.489095],[-74.418968,40.488684],[-74.419257,40.488163],[-74.420984,40.487093],[-74.423645,40.486683],[-74.423681,40.486491],[-74.42404,40.486848],[-74.424615,40.486959],[-74.428822,40.486632],[-74.43274,40.487293],[-74.433926,40.487733],[-74.435004,40.488557],[-74.43558,40.48853],[-74.435867,40.48875],[-74.436729,40.489986],[-74.437304,40.490343],[-74.437626,40.491441],[-74.437914,40.491496],[-74.437986,40.491331],[-74.438166,40.491386],[-74.438202,40.491304],[-74.437232,40.489821],[-74.43752,40.489602],[-74.437053,40.489601],[-74.436622,40.489134],[-74.435759,40.488448],[-74.436514,40.48864],[-74.436299,40.488366],[-74.436694,40.488338],[-74.437125,40.488915],[-74.437772,40.489135],[-74.437484,40.489437],[-74.437916,40.489327],[-74.437772,40.489849],[-74.438239,40.490069],[-74.438382,40.490782],[-74.438813,40.491002],[-74.439712,40.490893],[-74.439352,40.491222],[-74.439388,40.491552],[-74.438813,40.491469],[-74.439459,40.492211],[-74.439675,40.492128],[-74.439855,40.492348],[-74.440107,40.492019],[-74.439747,40.491854],[-74.440143,40.491634],[-74.439855,40.491552],[-74.439963,40.491387],[-74.440359,40.49147],[-74.440502,40.492513],[-74.438308,40.492622],[-74.437805,40.493061],[-74.438236,40.493582],[-74.438164,40.493061],[-74.438596,40.492814],[-74.439603,40.49276],[-74.43971,40.492869],[-74.439423,40.493061],[-74.43953,40.494132],[-74.44122,40.493913],[-74.440932,40.494078],[-74.441003,40.494792],[-74.440572,40.494188],[-74.440464,40.494599],[-74.439745,40.494489],[-74.439745,40.494956],[-74.440032,40.495203],[-74.440967,40.495204],[-74.440715,40.495533],[-74.440211,40.495642],[-74.440211,40.495944],[-74.440679,40.496054],[-74.441038,40.49589],[-74.441326,40.496055],[-74.44075,40.496658],[-74.440929,40.49696],[-74.441397,40.496961],[-74.441253,40.497098],[-74.441469,40.497208],[-74.441181,40.497235],[-74.441037,40.497811]],[[-74.439493,40.494956],[-74.439529,40.494901],[-74.439493,40.494901],[-74.439493,40.494956]],[[-74.437915,40.490782],[-74.437951,40.490755],[-74.437915,40.490755],[-74.437915,40.490782]],[[-74.437951,40.490782],[-74.437986,40.490837],[-74.437986,40.490782],[-74.437951,40.490782]],[[-74.437986,40.490837],[-74.438022,40.490865],[-74.438022,40.490837],[-74.437986,40.490837]],[[-74.437843,40.490672],[-74.437915,40.4907],[-74.437843,40.49059],[-74.437843,40.490672]],[[-74.437843,40.49059],[-74.437807,40.490563],[-74.437807,40.49059],[-74.437843,40.49059]],[[-74.438813,40.491469],[-74.438777,40.491442],[-74.438777,40.491469],[-74.438813,40.491469]],[[-74.439603,40.492897],[-74.439567,40.492869],[-74.439567,40.492897],[-74.439603,40.492897]],[[-74.439459,40.493007],[-74.439423,40.492979],[-74.439423,40.493007],[-74.439459,40.493007]],[[-74.439423,40.493061],[-74.439387,40.493034],[-74.439387,40.493061],[-74.439423,40.493061]],[[-74.441037,40.497674],[-74.441001,40.497647],[-74.441001,40.497674],[-74.441037,40.497674]]]]}}]}