{"type":"FeatureCollection","features":[{"type":"Feature","properties":{"level_ft":4},"geometry":{"type":"MultiPolygon","coordinates":[[[[-74.41254,40.483025],[-74.412576,40.483217],[-74.412359,40.483464],[-74.412261,40.483271],[-74.41254,40.483025]]],[[[-74.412742,40.493519],[-74.413249,40.490986],[-74.413392,40.490931],[-74.412994,40.493401],[-74.412742,40.493519]]],[[[-74.435547,40.493406],[-74.434319,40.490698],[-74.431744,40.488996],[-74.428573,40.488048],[-74.427558,40.488282],[-74.423877,40.488159],[-74.421452,40.488703],[-74.419203,40.490282],[-74.419187,40.490765],[-74.418799,40.490627],[-74.417078,40.49216],[-74.415322,40.492991],[-74.413461,40.493347],[-74.41321,40.493264],[-74.413644,40.491206],[-74.414039,40.491261],[-74.414831,40.490932],[-74.414651,40.49074],[-74.414831,40.490548],[-74.415443,40.490466],[-74.415514,40.490713],[-74.416162,40.490604],[-74.416378,40.490192],[-74.417925,40.489534],[-74.419401,40.488081],[-74.421415,40.486956],[-74.423681,40.486629],[-74.424148,40.486903],[-74.424975,40.486986],[-74.428822,40.486659],[-74.43328,40.487458],[-74.433747,40.487678],[-74.433782,40.48809],[-74.435148,40.488887],[-74.436225,40.489958],[-74.436441,40.490562],[-74.436872,40.490727],[-74.437194,40.492649],[-74.437769,40.493006],[-74.437983,40.494873],[-74.439132,40.49674],[-74.4387,40.497344],[-74.436937,40.497617],[-74.438771,40.497453],[-74.441646,40.500474],[-74.440206,40.501616],[-74.439283,40.500822],[-74.438486,40.499498],[-74.436824,40.497587],[-74.436241,40.4966],[-74.43566,40.495136],[-74.435547,40.493406]]],[[[-74.448684,40.50711],[-74.441366,40.502715],[-74.44035,40.50174],[-74.441789,40.500612],[-74.444126,40.501958],[-74.446282,40.503661],[-74.447684,40.504238],[-74.450128,40.505831],[-74.452286,40.506793],[-74.457284,40.507481],[-74.458183,40.508168],[-74.45865,40.50888],[-74.454839,40.50865],[-74.450753,40.50777],[-74.448684,40.50711]]],[[[-74.46723,40.505563],[-74.467176,40.505096],[-74.467248,40.505069],[-74.46723,40.505563]]],[[[-74.467329,40.506764],[-74.467159,40.506947],[-74.467488,40.507767],[-74.467102,40.508034],[-74.467318,40.507732],[-74.467031,40.507073],[-74.467247,40.506689],[-74.467103,40.505755],[-74.467329,40.506764]]],[[[-74.466852,40.509329],[-74.459452,40.509067],[-74.45901,40.508921],[-74.457788,40.507454],[-74.463829,40.508088],[-74.463649,40.509103],[-74.463937,40.508115],[-74.464225,40.508005],[-74.467066,40.508308],[-74.466852,40.509329]]],[[[-74.40334,40.480052],[-74.403124,40.480244],[-74.403269,40.479991],[-74.40334,40.480052]]],[[[-74.404051,40.480245],[-74.403663,40.48041],[-74.403808,40.480166],[-74.404051,40.480245]]],[[[-74.404526,40.480548],[-74.404131,40.480492],[-74.404239,40.480306],[-74.40449,40.480388],[-74.404526,40.480548]]],[[[-74.412287,40.483573],[-74.411855,40.484012],[-74.411136,40.484039],[-74.409916,40.482473],[-74.408587,40.481951],[-74.407617,40.480934],[-74.406682,40.481208],[-74.406107,40.481153],[-74.405928,40.480906],[-74.404777,40.480822],[-74.404634,40.480575],[-74.407527,40.480434],[-74.408505,40.481467],[-74.410584,40.482771],[-74.411173,40.483849],[-74.411662,40.483931],[-74.41218,40.483381],[-74.412287,40.483573]]],[[[-74.395382,40.488583],[-74.394641,40.488251],[-74.394689,40.487743],[-74.394288,40.487333],[-74.392969,40.486501],[-74.392281,40.486315],[-74.392523,40.485012],[-74.393901,40.483567],[-74.395392,40.483661],[-74.395843,40.482585],[-74.397531,40.481133],[-74.399323,40.481225],[-74.400078,40.480568],[-74.401883,40.479609],[-74.403034,40.479915],[-74.402621,40.480326],[-74.40129,40.480847],[-74.401038,40.481258],[-74.395857,40.483971],[-74.395388,40.485179],[-74.396573,40.485976],[-74.396391,40.487129],[-74.396606,40.487486],[-74.395382,40.488583]]],[[[-74.411553,40.493751],[-74.40983,40.493234],[-74.40965,40.493399],[-74.408693,40.493342],[-74.406771,40.492827],[-74.406553,40.492458],[-74.405563,40.492001],[-74.401164,40.491381],[-74.400049,40.491494],[-74.399765,40.49125],[-74.399573,40.491414],[-74.399483,40.491172],[-74.398477,40.491891],[-74.398573,40.491194],[-74.396776,40.490232],[-74.395885,40.489187],[-74.397181,40.488035],[-74.398187,40.488503],[-74.398583,40.487927],[-74.398835,40.487927],[-74.398942,40.488257],[-74.399949,40.488175],[-74.400272,40.488532],[-74.402718,40.48804],[-74.404012,40.488261],[-74.406888,40.488071],[-74.409296,40.488787],[-74.409907,40.489227],[-74.410159,40.489172],[-74.410122,40.489693],[-74.410482,40.489556],[-74.411452,40.490326],[-74.413069,40.490794],[-74.41249,40.493573],[-74.411553,40.493751]],[[-74.400272,40.488532],[-74.400236,40.48856],[-74.400272,40.48856],[-74.400272,40.488532]],[[-74.400236,40.48856],[-74.4002,40.488587],[-74.400236,40.488587],[-74.400236,40.48856]]]]}}]}