{"type":"FeatureCollection","features":[{"type":"Feature","properties":{"level_ft":17},"geometry":{"type":"MultiPolygon","coordinates":[[[[-74.434538,40.487843],[-74.434574,40.487816],[-74.434574,40.487843],[-74.434538,40.487843]]],[[[-74.434645,40.487843],[-74.434609,40.487871],[-74.434609,40.487843],[-74.434645,40.487843]]],[[[-74.434717,40.487898],[-74.434753,40.487926],[-74.434717,40.487926],[-74.434717,40.487898]]],[[[-74.434825,40.48798],[-74.434861,40.487953],[-74.434861,40.487981],[-74.434825,40.48798]]],[[[-74.460347,40.498122],[-74.462841,40.500513],[-74.465035,40.501264],[-74.466953,40.502879],[-74.46733,40.504959],[-74.466888,40.50463],[-74.466709,40.504026],[-74.466961,40.503614],[-74.46617,40.502488],[-74.465055,40.502104],[-74.46484,40.501747],[-74.465127,40.501747],[-74.464624,40.501637],[-74.464049,40.501033],[-74.462503,40.500511],[-74.461856,40.499687],[-74.460957,40.499083],[-74.460347,40.498122]]],[[[-74.447325,40.503662],[-74.447181,40.503716],[-74.447181,40.503689],[-74.447325,40.503662]]],[[[-74.451747,40.506052],[-74.452214,40.506711],[-74.455738,40.506987],[-74.456853,40.507262],[-74.457967,40.507948],[-74.45865,40.50888],[-74.454412,40.508589],[-74.448684,40.50711],[-74.441639,40.502891],[-74.44035,40.501737],[-74.443193,40.499542],[-74.443372,40.500146],[-74.443624,40.500146],[-74.444594,40.501217],[-74.445133,40.501355],[-74.444881,40.501629],[-74.445708,40.502206],[-74.445312,40.502316],[-74.447289,40.503579],[-74.446642,40.503634],[-74.445779,40.503112],[-74.445887,40.503304],[-74.446606,40.503771],[-74.447181,40.503716],[-74.449733,40.505502],[-74.451567,40.506216],[-74.451747,40.506052]],[[-74.441933,40.500557],[-74.441969,40.500584],[-74.441969,40.500557],[-74.441933,40.500557]],[[-74.442473,40.500145],[-74.442509,40.500173],[-74.442509,40.500146],[-74.442473,40.500145]],[[-74.442509,40.500173],[-74.442545,40.5002],[-74.442545,40.500173],[-74.442509,40.500173]],[[-74.442545,40.5002],[-74.442581,40.500228],[-74.442581,40.5002],[-74.442545,40.5002]],[[-74.445348,40.502233],[-74.445312,40.502206],[-74.445312,40.502233],[-74.445348,40.502233]],[[-74.445779,40.503112],[-74.445743,40.503084],[-74.445743,40.503112],[-74.445779,40.503112]],[[-74.451567,40.506216],[-74.451531,40.506244],[-74.451567,40.506244],[-74.451567,40.506216]]],[[[-74.467031,40.505618],[-74.466816,40.505316],[-74.467212,40.505041],[-74.46723,40.505563],[-74.467031,40.505618]]],[[[-74.452322,40.506244],[-74.451962,40.506271],[-74.45189,40.506134],[-74.451998,40.506134],[-74.452322,40.506244]]],[[[-74.451926,40.506271],[-74.451962,40.506299],[-74.451926,40.506299],[-74.451926,40.506271]]],[[[-74.451998,40.506326],[-74.45207,40.506299],[-74.45207,40.506326],[-74.451998,40.506326]]],[[[-74.45901,40.508921],[-74.457392,40.507042],[-74.463758,40.507703],[-74.463973,40.507978],[-74.464189,40.507676],[-74.466203,40.507841],[-74.466455,40.507622],[-74.466563,40.507896],[-74.466851,40.507924],[-74.466492,40.506002],[-74.467203,40.505783],[-74.467381,40.50665],[-74.467159,40.506947],[-74.467496,40.507694],[-74.466852,40.509329],[-74.464976,40.509124],[-74.459495,40.509076],[-74.45901,40.508921]]],[[[-74.40334,40.480052],[-74.403088,40.480299],[-74.403269,40.479991],[-74.40334,40.480052]]],[[[-74.415278,40.478662],[-74.414952,40.480226],[-74.413764,40.481598],[-74.413619,40.482147],[-74.413296,40.482064],[-74.413116,40.481956],[-74.414561,40.479632],[-74.414635,40.478639],[-74.415278,40.478662]]],[[[-74.404051,40.480245],[-74.403627,40.480464],[-74.403808,40.480166],[-74.404051,40.480245]]],[[[-74.40449,40.480602],[-74.404059,40.480602],[-74.404239,40.480306],[-74.40449,40.480388],[-74.40449,40.480602]]],[[[-74.405639,40.480608],[-74.407623,40.480492],[-74.408505,40.481467],[-74.410451,40.482648],[-74.411282,40.483914],[-74.411662,40.483931],[-74.41218,40.483381],[-74.412359,40.483464],[-74.412792,40.482531],[-74.413187,40.483162],[-74.412863,40.483601],[-74.412503,40.483546],[-74.412754,40.484068],[-74.4111,40.484039],[-74.410203,40.482885],[-74.409627,40.483269],[-74.409304,40.483187],[-74.409772,40.482583],[-74.409485,40.482363],[-74.409017,40.482418],[-74.409018,40.482198],[-74.408622,40.482143],[-74.40776,40.481401],[-74.406143,40.48129],[-74.405675,40.481619],[-74.405676,40.480988],[-74.40449,40.480904],[-74.404742,40.48047],[-74.405639,40.480608]]],[[[-74.41302,40.482119],[-74.413511,40.482366],[-74.413223,40.482668],[-74.412864,40.482383],[-74.41302,40.482119]]],[[[-74.395382,40.488583],[-74.394641,40.488251],[-74.394689,40.487743],[-74.394288,40.487333],[-74.392969,40.486501],[-74.392281,40.486315],[-74.392523,40.485012],[-74.393901,40.483567],[-74.395392,40.483661],[-74.395843,40.482585],[-74.397531,40.481133],[-74.399323,40.481225],[-74.400078,40.480568],[-74.401883,40.479609],[-74.403034,40.479915],[-74.402513,40.480711],[-74.401434,40.481094],[-74.401864,40.481616],[-74.40172,40.481808],[-74.400785,40.481835],[-74.400714,40.48145],[-74.399635,40.481998],[-74.399094,40.482657],[-74.3978,40.482958],[-74.39654,40.483698],[-74.39654,40.484027],[-74.395784,40.484603],[-74.395639,40.485152],[-74.396286,40.485701],[-74.397041,40.485427],[-74.396753,40.485812],[-74.39704,40.486031],[-74.396896,40.486388],[-74.397148,40.486224],[-74.397435,40.486361],[-74.396751,40.487019],[-74.396714,40.487404],[-74.395382,40.488583]]],[[[-74.434394,40.487733],[-74.434358,40.487761],[-74.434358,40.487733],[-74.434394,40.487733]]],[[[-74.434466,40.487761],[-74.43443,40.487788],[-74.43443,40.487761],[-74.434466,40.487761]]],[[[-74.395902,40.48933],[-74.397361,40.487871],[-74.39772,40.487981],[-74.398368,40.48735],[-74.399052,40.487268],[-74.39959,40.487598],[-74.400274,40.487462],[-74.400093,40.488203],[-74.400632,40.488368],[-74.401963,40.488012],[-74.403833,40.487904],[-74.404193,40.487602],[-74.403976,40.488206],[-74.407248,40.487962],[-74.40732,40.488291],[-74.408865,40.488704],[-74.410843,40.488678],[-74.41041,40.489172],[-74.410841,40.489749],[-74.41156,40.490106],[-74.413142,40.490382],[-74.41249,40.493573],[-74.411553,40.493751],[-74.409034,40.493425],[-74.406771,40.492827],[-74.406553,40.492458],[-74.405563,40.492001],[-74.400942,40.491353],[-74.400049,40.491494],[-74.399575,40.491416],[-74.399486,40.491172],[-74.399327,40.491528],[-74.398784,40.491541],[-74.398707,40.491757],[-74.398477,40.491891],[-74.398573,40.491194],[-74.396209,40.48978],[-74.395902,40.48933]]],[[[-74.412742,40.493519],[-74.413357,40.490492],[-74.413609,40.490382],[-74.412994,40.493429],[-74.412742,40.493519]]],[[[-74.435185,40.487734],[-74.436119,40.488009],[-74.436839,40.487789],[-74.436946,40.488366],[-74.437988,40.488861],[-74.437484,40.489437],[-74.438312,40.489053],[-74.43885,40.489602],[-74.438814,40.489932],[-74.439605,40.490207],[-74.440395,40.490948],[-74.44187,40.490702],[-74.441654,40.491141],[-74.441222,40.491196],[-74.440646,40.491827],[-74.440646,40.492211],[-74.441257,40.492376],[-74.441293,40.492678],[-74.439531,40.492979],[-74.43953,40.49372],[-74.439638,40.493968],[-74.440753,40.493611],[-74.440968,40.493721],[-74.441256,40.493529],[-74.441292,40.493035],[-74.441544,40.493035],[-74.442548,40.496495],[-74.442907,40.496934],[-74.442439,40.497263],[-74.442511,40.497757],[-74.442079,40.498306],[-74.442115,40.498745],[-74.442474,40.499102],[-74.443193,40.499103],[-74.440206,40.501616],[-74.439283,40.500822],[-74.436241,40.4966],[-74.43566,40.495136],[-74.435506,40.492931],[-74.434518,40.491502],[-74.434691,40.491387],[-74.434363,40.490774],[-74.431744,40.488996],[-74.429565,40.488217],[-74.428573,40.488048],[-74.427558,40.488282],[-74.423877,40.488159],[-74.421452,40.488703],[-74.419203,40.490282],[-74.419187,40.490765],[-74.418799,40.490627],[-74.417078,40.49216],[-74.415011,40.493117],[-74.41321,40.493417],[-74.413789,40.490465],[-74.415119,40.490493],[-74.417457,40.489836],[-74.418177,40.48926],[-74.418105,40.489095],[-74.418932,40.488684],[-74.419257,40.488135],[-74.420948,40.487093],[-74.423573,40.486656],[-74.423429,40.486326],[-74.424435,40.486931],[-74.428822,40.486604],[-74.43274,40.487293],[-74.435112,40.488255],[-74.43522,40.4882],[-74.434861,40.488008],[-74.434861,40.487926],[-74.434753,40.487953],[-74.434789,40.487898],[-74.434717,40.487871],[-74.434717,40.487898],[-74.434645,40.487898],[-74.434645,40.487816],[-74.434538,40.487788],[-74.434466,40.487816],[-74.434502,40.487761],[-74.434394,40.487706],[-74.435185,40.487734]],[[-74.435113,40.488118],[-74.435149,40.48809],[-74.435113,40.48809],[-74.435113,40.488118]],[[-74.435113,40.48809],[-74.435077,40.488063],[-74.435077,40.48809],[-74.435113,40.48809]],[[-74.434969,40.488035],[-74.435005,40.488008],[-74.434969,40.488008],[-74.434969,40.488035]],[[-74.435185,40.487761],[-74.435149,40.487789],[-74.435185,40.487789],[-74.435185,40.487761]]]]}}]}