{"type":"FeatureCollection","features":[{"type":"Feature","properties":{"level_ft":9},"geometry":{"type":"MultiPolygon","coordinates":[[[[-74.440749,40.497537],[-74.440246,40.497344],[-74.44021,40.497042],[-74.440642,40.496988],[-74.440139,40.496109],[-74.441074,40.496],[-74.441326,40.496164],[-74.440714,40.496631],[-74.440929,40.497015],[-74.440929,40.497098],[-74.440714,40.497015],[-74.44057,40.497125],[-74.440857,40.497317],[-74.440749,40.497537]],[[-74.440247,40.496191],[-74.440283,40.496246],[-74.440283,40.496191],[-74.440247,40.496191]],[[-74.44057,40.497207],[-74.440534,40.497235],[-74.44057,40.497235],[-74.44057,40.497207]]],[[[-74.440714,40.497043],[-74.440785,40.49707],[-74.440714,40.49707],[-74.440714,40.497043]]],[[[-74.440893,40.497372],[-74.440857,40.4974],[-74.440857,40.497372],[-74.440893,40.497372]]],[[[-74.44179,40.499953],[-74.441682,40.499761],[-74.44143,40.499788],[-74.441359,40.499733],[-74.440999,40.499321],[-74.441359,40.498882],[-74.441575,40.499322],[-74.441862,40.499239],[-74.441791,40.499047],[-74.44215,40.499185],[-74.44197,40.499706],[-74.442293,40.499981],[-74.442113,40.50009],[-74.442077,40.500008],[-74.441862,40.499926],[-74.441826,40.499926],[-74.441826,40.499953],[-74.44179,40.499953]],[[-74.441646,40.499761],[-74.44161,40.499733],[-74.44161,40.499761],[-74.441646,40.499761]],[[-74.44161,40.499733],[-74.441574,40.499706],[-74.441574,40.499733],[-74.44161,40.499733]],[[-74.441574,40.499706],[-74.441538,40.499678],[-74.441538,40.499706],[-74.441574,40.499706]]],[[[-74.441646,40.499816],[-74.441682,40.499788],[-74.441682,40.499816],[-74.441646,40.499816]]],[[[-74.441862,40.49998],[-74.441826,40.499953],[-74.441862,40.499953],[-74.441862,40.49998]]],[[[-74.442437,40.500173],[-74.442401,40.500145],[-74.442437,40.500145],[-74.442437,40.500173]]],[[[-74.442437,40.5002],[-74.442473,40.500173],[-74.442473,40.5002],[-74.442437,40.5002]]],[[[-74.442401,40.5002],[-74.442365,40.500173],[-74.442401,40.500173],[-74.442401,40.5002]]],[[[-74.442401,40.500228],[-74.442437,40.5002],[-74.442437,40.500228],[-74.442401,40.500228]]],[[[-74.466853,40.50301],[-74.465415,40.501857],[-74.465451,40.501592],[-74.466997,40.502937],[-74.467384,40.504622],[-74.467248,40.504987],[-74.466924,40.504547],[-74.467068,40.503614],[-74.466817,40.503312],[-74.466853,40.50301]],[[-74.466925,40.50323],[-74.466961,40.503257],[-74.466961,40.50323],[-74.466925,40.50323]]],[[[-74.448684,40.50711],[-74.441366,40.502715],[-74.44035,40.50174],[-74.441825,40.500584],[-74.444018,40.501848],[-74.446318,40.503634],[-74.447576,40.504128],[-74.450236,40.505832],[-74.452357,40.506766],[-74.455234,40.507041],[-74.45732,40.507481],[-74.45865,40.50888],[-74.454839,40.50865],[-74.450732,40.507764],[-74.448684,40.50711]]],[[[-74.467211,40.505591],[-74.467104,40.505124],[-74.467212,40.505041],[-74.467211,40.505591]]],[[[-74.467067,40.505755],[-74.467496,40.507694],[-74.467174,40.50805],[-74.467067,40.505755]]],[[[-74.45901,40.508921],[-74.457788,40.507454],[-74.459514,40.507482],[-74.462535,40.508032],[-74.464693,40.508005],[-74.467086,40.508308],[-74.466852,40.509329],[-74.464976,40.509124],[-74.459495,40.509076],[-74.45901,40.508921]]],[[[-74.436514,40.48875],[-74.436478,40.488723],[-74.436514,40.488723],[-74.436514,40.48875]]],[[[-74.436047,40.48875],[-74.436047,40.488722],[-74.436083,40.488722],[-74.436083,40.48875],[-74.436047,40.48875]]],[[[-74.436119,40.488777],[-74.436083,40.48875],[-74.436119,40.48875],[-74.436119,40.488777]]],[[[-74.436155,40.488805],[-74.436119,40.488805],[-74.436119,40.488777],[-74.436155,40.488777],[-74.436155,40.488805]]],[[[-74.436155,40.488832],[-74.436155,40.488805],[-74.436191,40.488805],[-74.436191,40.488832],[-74.436155,40.488832]]],[[[-74.436226,40.48886],[-74.436191,40.488832],[-74.436226,40.488832],[-74.436226,40.48886]]],[[[-74.436262,40.48886],[-74.436226,40.488887],[-74.436226,40.48886],[-74.436262,40.48886]]],[[[-74.436298,40.488887],[-74.436262,40.488915],[-74.436262,40.488887],[-74.436298,40.488887]]],[[[-74.436334,40.488942],[-74.436298,40.488942],[-74.436298,40.488915],[-74.436334,40.488915],[-74.436334,40.488942]]],[[[-74.43637,40.48897],[-74.436334,40.488942],[-74.43637,40.488942],[-74.43637,40.48897]]],[[[-74.437736,40.489904],[-74.437772,40.489931],[-74.437736,40.489931],[-74.437736,40.489904]]],[[[-74.437771,40.489986],[-74.437807,40.489959],[-74.437807,40.489986],[-74.437771,40.489986]]],[[[-74.437807,40.490672],[-74.437843,40.490617],[-74.437843,40.490672],[-74.437807,40.490672]]],[[[-74.439028,40.492128],[-74.4391,40.492073],[-74.4391,40.492155],[-74.439028,40.492128]]],[[[-74.439709,40.494956],[-74.440248,40.495395],[-74.440067,40.495807],[-74.43978,40.49556],[-74.439637,40.495093],[-74.439709,40.494956]],[[-74.439673,40.495038],[-74.439744,40.495066],[-74.439744,40.495038],[-74.439673,40.495038]]],[[[-74.403232,40.480217],[-74.403269,40.479991],[-74.403341,40.480014],[-74.403232,40.480217]]],[[[-74.403879,40.480492],[-74.403663,40.480437],[-74.403808,40.480166],[-74.404051,40.480245],[-74.403879,40.480492]]],[[[-74.404454,40.480602],[-74.404095,40.480547],[-74.404239,40.480306],[-74.40449,40.480388],[-74.404454,40.480602]]],[[[-74.405639,40.480608],[-74.407623,40.480492],[-74.408505,40.481467],[-74.410451,40.482648],[-74.411282,40.483914],[-74.411662,40.483931],[-74.41218,40.483381],[-74.412359,40.483464],[-74.412504,40.48297],[-74.412539,40.483491],[-74.412035,40.484012],[-74.411029,40.483984],[-74.410275,40.482886],[-74.4097,40.482967],[-74.409772,40.482418],[-74.408658,40.482061],[-74.40794,40.481346],[-74.406251,40.481153],[-74.405675,40.481537],[-74.405928,40.48096],[-74.404562,40.480767],[-74.404742,40.48047],[-74.405639,40.480608]]],[[[-74.395382,40.488583],[-74.394641,40.488251],[-74.394689,40.487743],[-74.394288,40.487333],[-74.392969,40.486501],[-74.392281,40.486315],[-74.392523,40.485012],[-74.393751,40.483677],[-74.394275,40.483475],[-74.395392,40.483661],[-74.395843,40.482585],[-74.397531,40.481133],[-74.399323,40.481225],[-74.400078,40.480568],[-74.401883,40.479609],[-74.403034,40.479915],[-74.402585,40.480491],[-74.401398,40.480984],[-74.401397,40.481698],[-74.40057,40.481395],[-74.398843,40.482519],[-74.39726,40.483204],[-74.395856,40.484301],[-74.395459,40.485234],[-74.396142,40.485756],[-74.396681,40.485729],[-74.396895,40.486553],[-74.396464,40.486772],[-74.396642,40.487459],[-74.395382,40.488583]]],[[[-74.435867,40.488612],[-74.435867,40.488585],[-74.435903,40.488585],[-74.435903,40.488612],[-74.435867,40.488612]]],[[[-74.435939,40.48864],[-74.435903,40.488612],[-74.435939,40.488612],[-74.435939,40.48864]]],[[[-74.435975,40.488667],[-74.435939,40.488667],[-74.435939,40.48864],[-74.435975,40.48864],[-74.435975,40.488667]]],[[[-74.435975,40.488695],[-74.435975,40.488667],[-74.436011,40.488667],[-74.436011,40.488695],[-74.435975,40.488695]]],[[[-74.436047,40.488722],[-74.436011,40.488695],[-74.436047,40.488695],[-74.436047,40.488722]]],[[[-74.411553,40.493751],[-74.406771,40.492827],[-74.406553,40.492458],[-74.405563,40.492001],[-74.400942,40.491353],[-74.400049,40.491494],[-74.399575,40.491416],[-74.399486,40.491172],[-74.399327,40.491528],[-74.398784,40.491541],[-74.398707,40.491757],[-74.398477,40.491891],[-74.398573,40.491194],[-74.396776,40.490232],[-74.395885,40.489187],[-74.397217,40.488008],[-74.397791,40.488393],[-74.398187,40.488366],[-74.398547,40.487982],[-74.398584,40.48746],[-74.399662,40.487653],[-74.39959,40.487818],[-74.400344,40.48845],[-74.402682,40.488013],[-74.403832,40.488041],[-74.404228,40.488261],[-74.40696,40.488016],[-74.407391,40.488346],[-74.409907,40.488952],[-74.410771,40.488706],[-74.410267,40.489282],[-74.410841,40.489831],[-74.411919,40.490271],[-74.413141,40.490437],[-74.41249,40.493573],[-74.411553,40.493751]]],[[[-74.412742,40.493519],[-74.413357,40.490492],[-74.413501,40.490465],[-74.412994,40.493429],[-74.412742,40.493519]]],[[[-74.439673,40.494983],[-74.439313,40.494681],[-74.439421,40.494516],[-74.439277,40.494571],[-74.439242,40.494022],[-74.43917,40.49405],[-74.439098,40.493857],[-74.43899,40.493857],[-74.438666,40.494708],[-74.43881,40.494983],[-74.439097,40.494846],[-74.439169,40.495038],[-74.439167,40.497152],[-74.436937,40.497617],[-74.438987,40.497426],[-74.439095,40.497893],[-74.441682,40.500392],[-74.440206,40.501616],[-74.439283,40.500822],[-74.438486,40.499498],[-74.436824,40.497587],[-74.436241,40.4966],[-74.43566,40.495136],[-74.435506,40.492931],[-74.434518,40.491502],[-74.434691,40.491387],[-74.434363,40.490774],[-74.432053,40.489164],[-74.430376,40.488466],[-74.428573,40.488048],[-74.427558,40.488282],[-74.422838,40.488294],[-74.42093,40.488919],[-74.419192,40.490293],[-74.419187,40.490765],[-74.418799,40.490627],[-74.417078,40.49216],[-74.415011,40.493117],[-74.41321,40.493417],[-74.41321,40.493264],[-74.413789,40.49052],[-74.415658,40.490329],[-74.415802,40.490549],[-74.416234,40.490521],[-74.416306,40.490137],[-74.417637,40.489754],[-74.418141,40.489123],[-74.418968,40.488684],[-74.419293,40.488135],[-74.421056,40.487066],[-74.423645,40.486683],[-74.423681,40.486491],[-74.42404,40.486848],[-74.424615,40.486959],[-74.428786,40.486632],[-74.43274,40.487293],[-74.434214,40.487898],[-74.435076,40.488612],[-74.435616,40.488557],[-74.437304,40.490398],[-74.437339,40.490974],[-74.437627,40.491057],[-74.437482,40.491413],[-74.43777,40.491633],[-74.43723,40.491907],[-74.437553,40.492511],[-74.438309,40.49199],[-74.437878,40.491688],[-74.438022,40.491386],[-74.438094,40.491469],[-74.438274,40.491414],[-74.437843,40.490727],[-74.437915,40.490645],[-74.437232,40.489821],[-74.43752,40.489602],[-74.437053,40.489601],[-74.436406,40.488942],[-74.435903,40.488585],[-74.436514,40.488832],[-74.436622,40.488503],[-74.436874,40.488558],[-74.437017,40.488888],[-74.4377,40.48919],[-74.437484,40.489437],[-74.437808,40.489355],[-74.4377,40.489931],[-74.437951,40.490288],[-74.437879,40.490041],[-74.438203,40.490096],[-74.43849,40.49092],[-74.439604,40.490975],[-74.439244,40.491332],[-74.438741,40.491359],[-74.439064,40.491991],[-74.438992,40.492155],[-74.439387,40.492403],[-74.440214,40.492431],[-74.440035,40.491854],[-74.440215,40.491552],[-74.440431,40.491689],[-74.44025,40.492568],[-74.438524,40.492704],[-74.438381,40.492265],[-74.437985,40.492402],[-74.438093,40.492649],[-74.437805,40.492978],[-74.437912,40.49339],[-74.438307,40.49361],[-74.4382,40.493061],[-74.438596,40.492814],[-74.439495,40.492787],[-74.439494,40.494105],[-74.440896,40.493996],[-74.440932,40.494243],[-74.440536,40.49416],[-74.440284,40.49438],[-74.439601,40.494434],[-74.439709,40.494819],[-74.439709,40.494956],[-74.439673,40.494983]],[[-74.439278,40.494434],[-74.439314,40.494379],[-74.439278,40.494379],[-74.439278,40.494434]],[[-74.439098,40.493857],[-74.439134,40.49372],[-74.439098,40.49372],[-74.439098,40.493857]],[[-74.438918,40.49394],[-74.438883,40.493912],[-74.438882,40.49394],[-74.438918,40.49394]],[[-74.438882,40.493995],[-74.438846,40.494022],[-74.438882,40.494022],[-74.438882,40.493995]],[[-74.437915,40.490782],[-74.437951,40.490755],[-74.437915,40.490755],[-74.437915,40.490782]],[[-74.437951,40.490782],[-74.437986,40.490837],[-74.437986,40.490782],[-74.437951,40.490782]],[[-74.437986,40.490837],[-74.438022,40.490892],[-74.438022,40.490837],[-74.437986,40.490837]],[[-74.437376,40.489958],[-74.437412,40.489904],[-74.437376,40.489903],[-74.437376,40.489958]],[[-74.437412,40.489958],[-74.437448,40.489986],[-74.437448,40.489958],[-74.437412,40.489958]],[[-74.437376,40.489903],[-74.43734,40.489876],[-74.43734,40.489903],[-74.437376,40.489903]],[[-74.436694,40.488778],[-74.43673,40.488805],[-74.43673,40.488778],[-74.436694,40.488778]],[[-74.437987,40.490288],[-74.438023,40.490316],[-74.438023,40.490288],[-74.437987,40.490288]],[[-74.438166,40.490508],[-74.438131,40.490535],[-74.438166,40.490535],[-74.438166,40.490508]],[[-74.438885,40.491689],[-74.438849,40.491716],[-74.438885,40.491716],[-74.438885,40.491689]],[[-74.43892,40.491771],[-74.438884,40.491798],[-74.43892,40.491798],[-74.43892,40.491771]],[[-74.438992,40.491908],[-74.438956,40.491936],[-74.438992,40.491936],[-74.438992,40.491908]],[[-74.438307,40.49361],[-74.438343,40.493637],[-74.438343,40.49361],[-74.438307,40.49361]],[[-74.439459,40.493007],[-74.439423,40.492979],[-74.439423,40.493007],[-74.439459,40.493007]],[[-74.439423,40.493061],[-74.439387,40.493034],[-74.439387,40.493061],[-74.439423,40.493061]]]]}}]}