{"type":"FeatureCollection","features":[{"type":"Feature","properties":{"level_ft":3},"geometry":{"type":"MultiPolygon","coordinates":[[[[-74.41254,40.483025],[-74.412576,40.483217],[-74.412359,40.483464],[-74.412261,40.483271],[-74.41254,40.483025]]],[[[-74.412742,40.493519],[-74.413212,40.491178],[-74.413356,40.491096],[-74.412994,40.493401],[-74.412742,40.493519]]],[[[-74.436824,40.497587],[-74.435717,40.495268],[-74.435506,40.492931],[-74.434518,40.491502],[-74.434691,40.491387],[-74.434319,40.49067],[-74.431744,40.488996],[-74.429338,40.488154],[-74.423877,40.488159],[-74.421452,40.488703],[-74.420155,40.489463],[-74.419192,40.490293],[-74.419196,40.490716],[-74.418799,40.490627],[-74.417078,40.49216],[-74.415296,40.492991],[-74.41321,40.493347],[-74.413571,40.491563],[-74.415226,40.49074],[-74.416126,40.490631],[-74.416378,40.49022],[-74.417421,40.489891],[-74.418213,40.489095],[-74.418968,40.488712],[-74.419401,40.488081],[-74.421451,40.486956],[-74.423681,40.486629],[-74.424903,40.486986],[-74.428822,40.486659],[-74.431913,40.487347],[-74.431518,40.487073],[-74.432273,40.487183],[-74.43292,40.487375],[-74.43292,40.487732],[-74.433639,40.487897],[-74.435112,40.488941],[-74.436764,40.490699],[-74.437086,40.492456],[-74.437625,40.493033],[-74.437983,40.494873],[-74.439132,40.49674],[-74.438628,40.497096],[-74.4387,40.497344],[-74.436937,40.497617],[-74.438771,40.497453],[-74.44046,40.499458],[-74.441574,40.500365],[-74.440242,40.501599],[-74.439283,40.500822],[-74.438486,40.499498],[-74.436824,40.497587]]],[[[-74.448684,40.50711],[-74.441366,40.502715],[-74.44035,40.50174],[-74.441789,40.500612],[-74.444198,40.502013],[-74.44621,40.503634],[-74.447684,40.504238],[-74.45074,40.506134],[-74.452501,40.506848],[-74.457356,40.507509],[-74.45865,40.50888],[-74.454839,40.50865],[-74.450753,40.50777],[-74.448684,40.50711]]],[[[-74.467103,40.505618],[-74.467176,40.505261],[-74.467268,40.505261],[-74.467103,40.505618]]],[[[-74.467329,40.506764],[-74.467159,40.506947],[-74.467488,40.507767],[-74.467102,40.508034],[-74.467318,40.507814],[-74.467031,40.507073],[-74.467247,40.506689],[-74.467103,40.505755],[-74.467329,40.506764]]],[[[-74.466852,40.509329],[-74.459452,40.509067],[-74.45901,40.508921],[-74.457788,40.507454],[-74.463901,40.508115],[-74.463649,40.509103],[-74.463937,40.508115],[-74.467066,40.508308],[-74.466852,40.509329]]],[[[-74.40334,40.480052],[-74.403124,40.480244],[-74.403269,40.479991],[-74.40334,40.480052]]],[[[-74.403699,40.480437],[-74.403808,40.480166],[-74.404051,40.480245],[-74.403951,40.480437],[-74.403699,40.480437]]],[[[-74.404239,40.480306],[-74.404382,40.480602],[-74.404131,40.480465],[-74.404239,40.480306]]],[[[-74.412287,40.483573],[-74.411855,40.484012],[-74.411136,40.484039],[-74.409916,40.482473],[-74.408587,40.481951],[-74.40751,40.480797],[-74.407258,40.481071],[-74.406574,40.481181],[-74.405999,40.481125],[-74.406035,40.480933],[-74.405712,40.48085],[-74.404849,40.480822],[-74.404634,40.480575],[-74.407527,40.480434],[-74.408505,40.481467],[-74.410584,40.482771],[-74.411173,40.483849],[-74.411662,40.483931],[-74.41218,40.483381],[-74.412287,40.483573]]],[[[-74.395382,40.488583],[-74.394641,40.488251],[-74.394689,40.487743],[-74.394288,40.487333],[-74.392969,40.486501],[-74.392281,40.486315],[-74.392523,40.485012],[-74.393901,40.483567],[-74.395392,40.483661],[-74.395843,40.482585],[-74.397531,40.481133],[-74.399323,40.481225],[-74.400078,40.480568],[-74.401883,40.479609],[-74.403034,40.479915],[-74.398915,40.482409],[-74.395965,40.483944],[-74.395713,40.483752],[-74.395387,40.485234],[-74.396536,40.48647],[-74.396391,40.487156],[-74.396606,40.487486],[-74.395382,40.488583]]],[[[-74.411954,40.491177],[-74.412457,40.491342],[-74.412817,40.490793],[-74.413033,40.490986],[-74.41249,40.493573],[-74.411553,40.493751],[-74.40983,40.493234],[-74.408693,40.493342],[-74.406771,40.492827],[-74.406553,40.492458],[-74.405563,40.492001],[-74.400735,40.491333],[-74.400049,40.491494],[-74.399801,40.491222],[-74.399545,40.491387],[-74.399486,40.491172],[-74.398477,40.491891],[-74.398573,40.491194],[-74.396776,40.490232],[-74.395885,40.489187],[-74.397181,40.488035],[-74.398223,40.48864],[-74.398691,40.488256],[-74.400021,40.488203],[-74.400236,40.48856],[-74.400847,40.488588],[-74.401459,40.488204],[-74.402754,40.48804],[-74.404048,40.488288],[-74.40696,40.488099],[-74.409332,40.488814],[-74.409943,40.489309],[-74.410159,40.489172],[-74.409942,40.48983],[-74.410302,40.489968],[-74.40987,40.48994],[-74.409834,40.49016],[-74.41084,40.490298],[-74.410984,40.490518],[-74.411631,40.490381],[-74.412135,40.490546],[-74.411954,40.491177]],[[-74.400236,40.48856],[-74.400164,40.488615],[-74.4002,40.488615],[-74.400236,40.48856]],[[-74.400739,40.488588],[-74.400703,40.488615],[-74.400739,40.488615],[-74.400739,40.488588]],[[-74.401351,40.488396],[-74.401459,40.488451],[-74.401459,40.488396],[-74.401351,40.488396]],[[-74.411882,40.491259],[-74.411702,40.491287],[-74.411882,40.491287],[-74.411882,40.491259]]],[[[-74.400699,40.491443],[-74.400699,40.491458],[-74.400678,40.491443],[-74.400699,40.491443]]]]}}]}