{"type":"FeatureCollection","features":[{"type":"Feature","properties":{"level_ft":8},"geometry":{"type":"MultiPolygon","coordinates":[[[[-74.437484,40.489904],[-74.43752,40.489931],[-74.437484,40.489931],[-74.437484,40.489904]]],[[[-74.437843,40.490672],[-74.437807,40.490617],[-74.437843,40.490617],[-74.437843,40.490672]]],[[[-74.438238,40.4907],[-74.438274,40.490673],[-74.438274,40.4907],[-74.438238,40.4907]]],[[[-74.437915,40.490782],[-74.43795,40.490837],[-74.437914,40.490837],[-74.437915,40.490782]]],[[[-74.439171,40.49254],[-74.438416,40.492594],[-74.438094,40.491496],[-74.438237,40.491524],[-74.438309,40.491606],[-74.438345,40.491551],[-74.437843,40.490727],[-74.437915,40.490618],[-74.437232,40.489821],[-74.437376,40.489684],[-74.438094,40.490755],[-74.438166,40.490618],[-74.438238,40.490755],[-74.438346,40.490728],[-74.438597,40.491085],[-74.439281,40.491085],[-74.438741,40.491359],[-74.438777,40.491743],[-74.438705,40.491716],[-74.438992,40.492457],[-74.439171,40.49254]],[[-74.438237,40.491551],[-74.438166,40.491578],[-74.438237,40.491578],[-74.438237,40.491551]],[[-74.438345,40.491606],[-74.438381,40.491661],[-74.438381,40.491606],[-74.438345,40.491606]],[[-74.438381,40.491661],[-74.438417,40.491716],[-74.438417,40.491661],[-74.438381,40.491661]],[[-74.438345,40.491551],[-74.438453,40.491524],[-74.438345,40.491496],[-74.438345,40.491551]],[[-74.438238,40.491359],[-74.43831,40.491386],[-74.438238,40.491304],[-74.438238,40.491359]],[[-74.437376,40.489958],[-74.437412,40.489904],[-74.437376,40.489903],[-74.437376,40.489958]],[[-74.437412,40.489958],[-74.437448,40.489986],[-74.437448,40.489958],[-74.437412,40.489958]],[[-74.437376,40.489903],[-74.43734,40.489876],[-74.43734,40.489903],[-74.437376,40.489903]],[[-74.437412,40.489794],[-74.437376,40.489821],[-74.437412,40.489821],[-74.437412,40.489794]],[[-74.437376,40.489794],[-74.43734,40.489766],[-74.43734,40.489794],[-74.437376,40.489794]],[[-74.438023,40.490672],[-74.437951,40.4907],[-74.438022,40.490727],[-74.438023,40.490672]],[[-74.438741,40.491442],[-74.438705,40.491469],[-74.438741,40.491469],[-74.438741,40.491442]]],[[[-74.438777,40.491579],[-74.438813,40.491551],[-74.438813,40.491579],[-74.438777,40.491579]]],[[[-74.438813,40.491798],[-74.438777,40.491771],[-74.438813,40.491771],[-74.438813,40.491798]]],[[[-74.439028,40.492375],[-74.439064,40.492293],[-74.439064,40.492375],[-74.439028,40.492375]]],[[[-74.439171,40.492842],[-74.439207,40.492814],[-74.439207,40.492842],[-74.439171,40.492842]]],[[[-74.439207,40.492979],[-74.439171,40.492924],[-74.439207,40.492924],[-74.439207,40.492979]]],[[[-74.43917,40.493638],[-74.439098,40.49372],[-74.439099,40.493638],[-74.43917,40.493638]]],[[[-74.439242,40.49361],[-74.438991,40.493446],[-74.438703,40.493802],[-74.438128,40.493116],[-74.438596,40.492814],[-74.439135,40.492787],[-74.439099,40.492979],[-74.439386,40.493336],[-74.439494,40.494132],[-74.440464,40.494078],[-74.439565,40.494407],[-74.439565,40.494709],[-74.439242,40.49361]],[[-74.438991,40.493281],[-74.439135,40.493418],[-74.439135,40.493336],[-74.438991,40.493281]],[[-74.439242,40.49361],[-74.439278,40.493583],[-74.439242,40.493583],[-74.439242,40.49361]]],[[[-74.439206,40.49394],[-74.439134,40.493857],[-74.439206,40.493857],[-74.439206,40.49394]]],[[[-74.467196,40.503714],[-74.467248,40.504987],[-74.46696,40.504602],[-74.466924,40.504081],[-74.46714,40.504053],[-74.466961,40.503175],[-74.466386,40.502378],[-74.466997,40.502937],[-74.467196,40.503714]]],[[[-74.448684,40.50711],[-74.441366,40.502715],[-74.44035,40.50174],[-74.441789,40.500612],[-74.444162,40.501958],[-74.446282,40.503634],[-74.44772,40.504238],[-74.45153,40.506491],[-74.452501,40.506821],[-74.45732,40.507481],[-74.45865,40.50888],[-74.454839,40.50865],[-74.450732,40.507764],[-74.448684,40.50711]]],[[[-74.467103,40.505618],[-74.46714,40.505151],[-74.467212,40.505041],[-74.46723,40.505563],[-74.467103,40.505618]]],[[[-74.467103,40.505755],[-74.467488,40.507767],[-74.467102,40.508034],[-74.467318,40.507594],[-74.467031,40.5071],[-74.467103,40.505755]]],[[[-74.45901,40.508921],[-74.457788,40.507454],[-74.459694,40.50751],[-74.462499,40.508032],[-74.464657,40.508005],[-74.467086,40.508308],[-74.466852,40.509329],[-74.464976,40.509124],[-74.459495,40.509076],[-74.45901,40.508921]]],[[[-74.40334,40.480052],[-74.403125,40.48019],[-74.403269,40.479991],[-74.40334,40.480052]]],[[[-74.403771,40.480465],[-74.403808,40.480166],[-74.404051,40.480245],[-74.403951,40.480437],[-74.403771,40.480465]]],[[[-74.40449,40.480602],[-74.404095,40.480547],[-74.404239,40.480306],[-74.40449,40.480388],[-74.40449,40.480602]]],[[[-74.405639,40.480608],[-74.407623,40.480492],[-74.408505,40.481467],[-74.410451,40.482648],[-74.411282,40.483914],[-74.411662,40.483931],[-74.41218,40.483381],[-74.412359,40.483464],[-74.412504,40.48297],[-74.412503,40.483464],[-74.412035,40.483957],[-74.411029,40.483984],[-74.410275,40.482858],[-74.409772,40.482913],[-74.409844,40.482446],[-74.408622,40.482033],[-74.407833,40.481291],[-74.406251,40.481153],[-74.405675,40.481537],[-74.405964,40.480961],[-74.404562,40.48074],[-74.404742,40.48047],[-74.405639,40.480608]]],[[[-74.395382,40.488583],[-74.394641,40.488251],[-74.394689,40.487743],[-74.394288,40.487333],[-74.392969,40.486501],[-74.392281,40.486315],[-74.392523,40.485012],[-74.393751,40.483677],[-74.394275,40.483475],[-74.395392,40.483661],[-74.395843,40.482585],[-74.397531,40.481133],[-74.399323,40.481225],[-74.400078,40.480568],[-74.401883,40.479609],[-74.403034,40.479915],[-74.402549,40.480491],[-74.401362,40.481012],[-74.401253,40.481561],[-74.40057,40.481395],[-74.39618,40.483917],[-74.395459,40.485261],[-74.396178,40.485784],[-74.396645,40.485784],[-74.396895,40.486553],[-74.396464,40.486745],[-74.396642,40.487459],[-74.395382,40.488583]]],[[[-74.436083,40.488722],[-74.436047,40.48875],[-74.436047,40.488722],[-74.436083,40.488722]]],[[[-74.436119,40.488777],[-74.436083,40.488777],[-74.436083,40.48875],[-74.436119,40.48875],[-74.436119,40.488777]]],[[[-74.436119,40.488805],[-74.436119,40.488777],[-74.436155,40.488777],[-74.436155,40.488805],[-74.436119,40.488805]]],[[[-74.436191,40.488832],[-74.436155,40.488805],[-74.436191,40.488805],[-74.436191,40.488832]]],[[[-74.436226,40.488832],[-74.43619,40.48886],[-74.436191,40.488832],[-74.436226,40.488832]]],[[[-74.436262,40.48886],[-74.436226,40.488887],[-74.436226,40.48886],[-74.436262,40.48886]]],[[[-74.436298,40.488887],[-74.436262,40.488915],[-74.436262,40.488887],[-74.436298,40.488887]]],[[[-74.436334,40.488915],[-74.436298,40.488942],[-74.436298,40.488915],[-74.436334,40.488915]]],[[[-74.43637,40.488942],[-74.436334,40.48897],[-74.436334,40.488942],[-74.43637,40.488942]]],[[[-74.436298,40.48886],[-74.436083,40.488695],[-74.436874,40.488942],[-74.436694,40.488778],[-74.436838,40.48864],[-74.437197,40.489217],[-74.437592,40.489217],[-74.437484,40.489519],[-74.437053,40.489601],[-74.436298,40.48886]]],[[[-74.411553,40.493751],[-74.406771,40.492827],[-74.406553,40.492458],[-74.405563,40.492001],[-74.400942,40.491353],[-74.400049,40.491494],[-74.399575,40.491416],[-74.399486,40.491172],[-74.399353,40.491496],[-74.398784,40.491541],[-74.398707,40.491757],[-74.398477,40.491891],[-74.398573,40.491194],[-74.396776,40.490232],[-74.395885,40.489187],[-74.397217,40.488008],[-74.397756,40.488393],[-74.3979,40.488256],[-74.398187,40.488393],[-74.39862,40.487515],[-74.399482,40.487626],[-74.399518,40.487928],[-74.400344,40.488477],[-74.402718,40.488013],[-74.40376,40.488041],[-74.404192,40.488261],[-74.406924,40.488016],[-74.407391,40.488346],[-74.409836,40.488952],[-74.410807,40.488733],[-74.410303,40.489062],[-74.410302,40.489419],[-74.411596,40.490189],[-74.413105,40.490464],[-74.413105,40.490711],[-74.41249,40.493573],[-74.411553,40.493751]]],[[[-74.412742,40.493519],[-74.413357,40.490519],[-74.413573,40.490492],[-74.412994,40.493429],[-74.412742,40.493519]]],[[[-74.438667,40.493802],[-74.438703,40.494159],[-74.438235,40.493802],[-74.438271,40.494241],[-74.438666,40.494269],[-74.438666,40.49501],[-74.438989,40.49501],[-74.439239,40.496905],[-74.438736,40.497344],[-74.436937,40.497617],[-74.439023,40.497508],[-74.439095,40.497893],[-74.439885,40.498525],[-74.440424,40.499376],[-74.44161,40.500365],[-74.440206,40.501616],[-74.439283,40.500822],[-74.438486,40.499498],[-74.436824,40.497587],[-74.436241,40.4966],[-74.43566,40.495136],[-74.435506,40.492931],[-74.434518,40.491502],[-74.434691,40.491387],[-74.434363,40.490774],[-74.432053,40.489164],[-74.430376,40.488466],[-74.428573,40.488048],[-74.427558,40.488282],[-74.422838,40.488294],[-74.42093,40.488919],[-74.419192,40.490293],[-74.419187,40.490765],[-74.418799,40.490627],[-74.417078,40.49216],[-74.416387,40.492329],[-74.415296,40.493014],[-74.41321,40.493417],[-74.41321,40.493264],[-74.413789,40.49052],[-74.414004,40.490685],[-74.41573,40.490356],[-74.415694,40.490576],[-74.416198,40.490549],[-74.416306,40.490165],[-74.417637,40.489754],[-74.418141,40.489123],[-74.419004,40.488657],[-74.419293,40.488135],[-74.420948,40.487121],[-74.423789,40.486519],[-74.42404,40.486848],[-74.424507,40.486959],[-74.428894,40.486659],[-74.430691,40.487072],[-74.431914,40.4871],[-74.433675,40.487596],[-74.434968,40.488557],[-74.435723,40.48864],[-74.435867,40.488914],[-74.435507,40.488997],[-74.435903,40.488969],[-74.436621,40.489601],[-74.436621,40.489931],[-74.437016,40.490068],[-74.437375,40.490754],[-74.437267,40.491386],[-74.43759,40.491578],[-74.43723,40.49188],[-74.437374,40.492429],[-74.437589,40.492539],[-74.437913,40.492347],[-74.43784,40.493308],[-74.438667,40.493802]]]]}}]}