{"type":"FeatureCollection","features":[{"type":"Feature","properties":{"level_ft":16},"geometry":{"type":"MultiPolygon","coordinates":[[[[-74.434717,40.487926],[-74.434753,40.487898],[-74.434753,40.487926],[-74.434717,40.487926]]],[[[-74.434825,40.487953],[-74.434861,40.487981],[-74.434825,40.48798],[-74.434825,40.487953]]],[[[-74.434933,40.488008],[-74.434969,40.488035],[-74.434933,40.488035],[-74.434933,40.488008]]],[[[-74.460347,40.498177],[-74.462663,40.500418],[-74.465035,40.501264],[-74.466953,40.502879],[-74.46733,40.504959],[-74.466816,40.504437],[-74.466745,40.503943],[-74.466997,40.503641],[-74.466529,40.502735],[-74.465055,40.502049],[-74.464948,40.501802],[-74.465235,40.501774],[-74.464804,40.50139],[-74.462503,40.500511],[-74.461856,40.499687],[-74.460993,40.49911],[-74.460347,40.498177]]],[[[-74.447289,40.503662],[-74.447181,40.503716],[-74.447181,40.503689],[-74.447289,40.503662]]],[[[-74.451531,40.506409],[-74.451818,40.506573],[-74.452465,40.506766],[-74.456853,40.507262],[-74.457967,40.507948],[-74.45865,40.50888],[-74.454412,40.508589],[-74.448684,40.50711],[-74.441639,40.502891],[-74.44035,40.501737],[-74.443193,40.499569],[-74.443264,40.500173],[-74.443552,40.500146],[-74.445672,40.502206],[-74.445204,40.502261],[-74.447289,40.503579],[-74.446642,40.503634],[-74.445707,40.503057],[-74.445851,40.503277],[-74.446606,40.503771],[-74.447181,40.503716],[-74.449913,40.505639],[-74.451531,40.506161],[-74.451351,40.506161],[-74.451351,40.506271],[-74.451495,40.506271],[-74.451495,40.506299],[-74.451459,40.506299],[-74.451459,40.506326],[-74.451495,40.506354],[-74.451603,40.506326],[-74.451531,40.506409]],[[-74.441933,40.500557],[-74.441969,40.500584],[-74.441969,40.500557],[-74.441933,40.500557]],[[-74.442473,40.500145],[-74.442509,40.500173],[-74.442509,40.500146],[-74.442473,40.500145]],[[-74.442509,40.500173],[-74.442545,40.5002],[-74.442545,40.500173],[-74.442509,40.500173]],[[-74.442545,40.5002],[-74.442581,40.500228],[-74.442581,40.5002],[-74.442545,40.5002]],[[-74.445707,40.503057],[-74.445671,40.503029],[-74.445671,40.503057],[-74.445707,40.503057]]],[[[-74.467103,40.50559],[-74.466852,40.50559],[-74.466816,40.505343],[-74.467212,40.505041],[-74.467103,40.50559]]],[[[-74.451423,40.506271],[-74.451387,40.506244],[-74.451423,40.506244],[-74.451423,40.506271]]],[[[-74.451531,40.506326],[-74.451495,40.506299],[-74.451531,40.506299],[-74.451531,40.506326]]],[[[-74.451638,40.506354],[-74.451603,40.506381],[-74.451603,40.506354],[-74.451638,40.506354]]],[[[-74.451638,40.506381],[-74.451674,40.506436],[-74.451638,40.506436],[-74.451638,40.506381]]],[[[-74.451746,40.506491],[-74.451782,40.506409],[-74.451818,40.506464],[-74.451746,40.506491]]],[[[-74.45901,40.508921],[-74.457392,40.50707],[-74.463758,40.507703],[-74.463937,40.507978],[-74.464117,40.507731],[-74.466886,40.507951],[-74.466851,40.507018],[-74.466492,40.506277],[-74.466744,40.505837],[-74.467203,40.505783],[-74.467381,40.50665],[-74.467159,40.506947],[-74.467496,40.507694],[-74.466852,40.509329],[-74.464976,40.509124],[-74.459495,40.509076],[-74.45901,40.508921]]],[[[-74.40334,40.480052],[-74.403088,40.480299],[-74.403269,40.479991],[-74.40334,40.480052]]],[[[-74.415314,40.478588],[-74.414952,40.480226],[-74.413764,40.481598],[-74.41362,40.482092],[-74.413296,40.482064],[-74.413116,40.481956],[-74.414561,40.479632],[-74.414635,40.478639],[-74.415314,40.478588]]],[[[-74.404051,40.480245],[-74.403627,40.480464],[-74.403808,40.480166],[-74.404051,40.480245]]],[[[-74.40449,40.480602],[-74.404059,40.480575],[-74.404239,40.480306],[-74.40449,40.480388],[-74.40449,40.480602]]],[[[-74.412575,40.483656],[-74.412754,40.48404],[-74.411172,40.484067],[-74.410167,40.482858],[-74.409627,40.483242],[-74.409376,40.483187],[-74.409808,40.482748],[-74.4097,40.482473],[-74.409017,40.48239],[-74.409018,40.482171],[-74.408622,40.482143],[-74.407832,40.481401],[-74.406179,40.481263],[-74.405675,40.481592],[-74.405784,40.481015],[-74.404562,40.480932],[-74.40449,40.480767],[-74.404742,40.48047],[-74.405639,40.480608],[-74.407527,40.480434],[-74.408505,40.481467],[-74.410584,40.482771],[-74.411282,40.483914],[-74.411662,40.483931],[-74.41218,40.483381],[-74.412359,40.483464],[-74.412792,40.482531],[-74.413115,40.483245],[-74.412575,40.483656]],[[-74.412503,40.483546],[-74.412431,40.483519],[-74.412431,40.483546],[-74.412503,40.483546]]],[[[-74.41302,40.482119],[-74.413511,40.482366],[-74.413151,40.482641],[-74.412864,40.482383],[-74.41302,40.482119]]],[[[-74.395382,40.488583],[-74.394641,40.488251],[-74.394689,40.487743],[-74.394288,40.487333],[-74.392969,40.486501],[-74.392281,40.486315],[-74.392523,40.485012],[-74.393751,40.483677],[-74.394275,40.483475],[-74.395392,40.483661],[-74.395843,40.482585],[-74.397531,40.481133],[-74.399323,40.481225],[-74.400078,40.480568],[-74.401883,40.479609],[-74.403034,40.479915],[-74.402513,40.480683],[-74.401434,40.481067],[-74.401756,40.481781],[-74.400785,40.481807],[-74.400714,40.48145],[-74.399635,40.481998],[-74.399094,40.482657],[-74.3978,40.482958],[-74.396504,40.483725],[-74.39654,40.484],[-74.395748,40.48463],[-74.395603,40.485179],[-74.396321,40.485729],[-74.397005,40.485427],[-74.396753,40.485812],[-74.397004,40.486031],[-74.39686,40.486388],[-74.397219,40.486279],[-74.397363,40.486443],[-74.396282,40.487788],[-74.395382,40.488583]]],[[[-74.434574,40.487816],[-74.434538,40.487843],[-74.434538,40.487816],[-74.434574,40.487816]]],[[[-74.434645,40.487843],[-74.434609,40.487871],[-74.434609,40.487843],[-74.434645,40.487843]]],[[[-74.395902,40.48933],[-74.397361,40.487871],[-74.397648,40.488008],[-74.397972,40.487624],[-74.398332,40.487762],[-74.398368,40.48735],[-74.39898,40.487296],[-74.399554,40.487598],[-74.400238,40.487489],[-74.400093,40.488203],[-74.400488,40.488395],[-74.401999,40.488012],[-74.403761,40.487931],[-74.404121,40.487657],[-74.40394,40.488206],[-74.407212,40.487989],[-74.40732,40.488291],[-74.408829,40.488704],[-74.410231,40.488842],[-74.410807,40.488678],[-74.410375,40.489145],[-74.410913,40.489804],[-74.411596,40.490134],[-74.413142,40.490382],[-74.41249,40.493573],[-74.411553,40.493751],[-74.409034,40.493425],[-74.406771,40.492827],[-74.406553,40.492458],[-74.405563,40.492001],[-74.400942,40.491353],[-74.400049,40.491494],[-74.399575,40.491416],[-74.399486,40.491172],[-74.399327,40.491528],[-74.398784,40.491541],[-74.398707,40.491757],[-74.398477,40.491891],[-74.398573,40.491194],[-74.396209,40.48978],[-74.395902,40.48933]]],[[[-74.412742,40.493519],[-74.413357,40.490492],[-74.413573,40.49041],[-74.412994,40.493429],[-74.412742,40.493519]]],[[[-74.442259,40.497483],[-74.441792,40.497592],[-74.441971,40.497839],[-74.442475,40.497565],[-74.442043,40.498114],[-74.442007,40.49869],[-74.442366,40.499102],[-74.443013,40.499075],[-74.442977,40.499459],[-74.440206,40.501616],[-74.439283,40.500822],[-74.436241,40.4966],[-74.43566,40.495136],[-74.435506,40.492931],[-74.434518,40.491502],[-74.434691,40.491387],[-74.434363,40.490774],[-74.431744,40.488996],[-74.429338,40.488154],[-74.423877,40.488159],[-74.421452,40.488703],[-74.419203,40.490282],[-74.419187,40.490765],[-74.418799,40.490627],[-74.417078,40.49216],[-74.415011,40.493117],[-74.41321,40.493417],[-74.413789,40.490465],[-74.41609,40.490329],[-74.416702,40.489945],[-74.417457,40.489836],[-74.418177,40.48926],[-74.418105,40.489095],[-74.418932,40.488684],[-74.419257,40.488135],[-74.420948,40.487093],[-74.423573,40.486656],[-74.423573,40.486327],[-74.424076,40.486848],[-74.424723,40.486959],[-74.428822,40.486604],[-74.430691,40.487045],[-74.431806,40.487073],[-74.435328,40.488338],[-74.435364,40.488283],[-74.435041,40.488118],[-74.434969,40.487981],[-74.434933,40.488008],[-74.434861,40.488008],[-74.434897,40.487953],[-74.434825,40.487926],[-74.434825,40.487953],[-74.434753,40.487953],[-74.434789,40.487898],[-74.434574,40.487788],[-74.43594,40.488036],[-74.436803,40.487789],[-74.437162,40.488586],[-74.437845,40.488696],[-74.437988,40.488916],[-74.437484,40.489437],[-74.438312,40.48908],[-74.438742,40.489987],[-74.439641,40.490316],[-74.440144,40.490756],[-74.440251,40.491332],[-74.440862,40.49158],[-74.440574,40.492239],[-74.441185,40.492376],[-74.441221,40.492651],[-74.439495,40.493007],[-74.43953,40.49394],[-74.440753,40.493611],[-74.441004,40.493776],[-74.441328,40.493172],[-74.44158,40.4932],[-74.442153,40.495479],[-74.442835,40.496961],[-74.442188,40.497318],[-74.442259,40.497483]],[[-74.435256,40.4882],[-74.435292,40.488173],[-74.435256,40.488173],[-74.435256,40.4882]],[[-74.435256,40.488173],[-74.43522,40.488145],[-74.43522,40.488173],[-74.435256,40.488173]],[[-74.435113,40.488118],[-74.435149,40.48809],[-74.435113,40.48809],[-74.435113,40.488118]],[[-74.435113,40.48809],[-74.435077,40.488063],[-74.435077,40.48809],[-74.435113,40.48809]],[[-74.441149,40.492651],[-74.441113,40.492623],[-74.441113,40.492651],[-74.441149,40.492651]],[[-74.442188,40.497318],[-74.441936,40.497263],[-74.441612,40.4974],[-74.442188,40.497318]]]]}}]}