{"type":"FeatureCollection","features":[{"type":"Feature","properties":{"level_ft":6},"geometry":{"type":"MultiPolygon","coordinates":[[[[-74.412742,40.493519],[-74.413321,40.490657],[-74.413501,40.490629],[-74.412958,40.493472],[-74.412742,40.493519]]],[[[-74.434363,40.490774],[-74.431744,40.488996],[-74.428871,40.488068],[-74.427558,40.488282],[-74.422838,40.488294],[-74.42093,40.488919],[-74.419192,40.490293],[-74.419187,40.490765],[-74.418799,40.490627],[-74.417078,40.49216],[-74.415322,40.492991],[-74.41321,40.493417],[-74.413716,40.490794],[-74.414112,40.491014],[-74.414544,40.490575],[-74.415479,40.490411],[-74.415658,40.490658],[-74.416233,40.490549],[-74.41645,40.49011],[-74.417601,40.489781],[-74.418177,40.489123],[-74.418932,40.488739],[-74.419293,40.488163],[-74.421056,40.487066],[-74.423681,40.486711],[-74.423789,40.486519],[-74.424076,40.486876],[-74.424507,40.486959],[-74.428858,40.486659],[-74.43292,40.487348],[-74.434106,40.487843],[-74.43407,40.488117],[-74.435148,40.488777],[-74.435615,40.488859],[-74.435507,40.489051],[-74.435974,40.489271],[-74.436549,40.490397],[-74.436908,40.49037],[-74.437051,40.491413],[-74.437374,40.49166],[-74.437266,40.492484],[-74.437805,40.492676],[-74.437983,40.49468],[-74.438198,40.494845],[-74.438199,40.494516],[-74.43845,40.494681],[-74.438629,40.495834],[-74.439203,40.49685],[-74.4387,40.497344],[-74.436937,40.497617],[-74.438807,40.497453],[-74.44046,40.499431],[-74.44161,40.500392],[-74.440206,40.501616],[-74.439283,40.500822],[-74.437569,40.498283],[-74.436824,40.497587],[-74.43566,40.495136],[-74.435506,40.492931],[-74.434518,40.491502],[-74.434691,40.491387],[-74.434363,40.490774]]],[[[-74.467226,40.503559],[-74.467212,40.504959],[-74.467068,40.503532],[-74.467226,40.503559]]],[[[-74.448684,40.50711],[-74.441366,40.502715],[-74.44035,40.50174],[-74.441789,40.500612],[-74.444341,40.502095],[-74.446246,40.503634],[-74.447792,40.504293],[-74.450272,40.505886],[-74.452429,40.506821],[-74.45732,40.507481],[-74.45865,40.50888],[-74.454839,40.50865],[-74.450753,40.50777],[-74.448684,40.50711]]],[[[-74.467248,40.505069],[-74.467103,40.505508],[-74.46714,40.505206],[-74.467248,40.505069]]],[[[-74.467349,40.506746],[-74.467159,40.506947],[-74.467488,40.507767],[-74.467102,40.508034],[-74.467318,40.507704],[-74.467031,40.5071],[-74.467103,40.505755],[-74.467349,40.506746]]],[[[-74.459114,40.508982],[-74.457788,40.507454],[-74.463901,40.508088],[-74.463649,40.509103],[-74.463937,40.508115],[-74.464189,40.508005],[-74.467079,40.508336],[-74.466852,40.509329],[-74.464976,40.509124],[-74.460347,40.509148],[-74.459114,40.508982]]],[[[-74.403269,40.479991],[-74.403232,40.480217],[-74.403124,40.480244],[-74.403269,40.479991]]],[[[-74.404051,40.480245],[-74.403663,40.480437],[-74.403808,40.480166],[-74.404051,40.480245]]],[[[-74.404526,40.48052],[-74.404346,40.48063],[-74.404095,40.480492],[-74.404239,40.480306],[-74.404526,40.48052]]],[[[-74.404742,40.48047],[-74.407623,40.480492],[-74.408505,40.481467],[-74.410584,40.482771],[-74.411282,40.483914],[-74.411662,40.483931],[-74.41218,40.483381],[-74.412359,40.483464],[-74.412504,40.48297],[-74.412431,40.483491],[-74.411891,40.484012],[-74.411208,40.484067],[-74.410311,40.482886],[-74.409952,40.48283],[-74.40988,40.482473],[-74.408658,40.482033],[-74.408264,40.481484],[-74.407617,40.481127],[-74.405927,40.48129],[-74.405964,40.480933],[-74.404598,40.480685],[-74.404742,40.48047]]],[[[-74.395382,40.488583],[-74.394641,40.488251],[-74.394689,40.487743],[-74.394288,40.487333],[-74.392969,40.486501],[-74.392281,40.486315],[-74.392523,40.485012],[-74.393901,40.483567],[-74.395392,40.483661],[-74.395843,40.482585],[-74.397531,40.481133],[-74.399323,40.481225],[-74.400078,40.480568],[-74.401883,40.479609],[-74.403034,40.479915],[-74.402549,40.480436],[-74.401506,40.48082],[-74.401181,40.481533],[-74.400786,40.481286],[-74.396109,40.483889],[-74.395423,40.485234],[-74.396716,40.486059],[-74.396428,40.486717],[-74.396642,40.487459],[-74.395382,40.488583]]],[[[-74.411553,40.493751],[-74.408693,40.493342],[-74.406771,40.492827],[-74.406553,40.492458],[-74.405563,40.492001],[-74.401164,40.491381],[-74.400049,40.491494],[-74.399765,40.491304],[-74.399573,40.491414],[-74.399483,40.491172],[-74.398477,40.491891],[-74.398573,40.491194],[-74.396776,40.490232],[-74.395885,40.489187],[-74.397181,40.488035],[-74.398151,40.488448],[-74.398871,40.48768],[-74.399123,40.487708],[-74.399194,40.488037],[-74.399949,40.488148],[-74.400308,40.488505],[-74.40279,40.488013],[-74.404084,40.488261],[-74.406924,40.488044],[-74.407355,40.488346],[-74.410087,40.489062],[-74.410663,40.48876],[-74.410231,40.489117],[-74.41023,40.489446],[-74.411308,40.490106],[-74.413069,40.490492],[-74.413105,40.490711],[-74.41249,40.493573],[-74.411553,40.493751]],[[-74.400308,40.488505],[-74.400272,40.488532],[-74.400308,40.488532],[-74.400308,40.488505]]],[[[-74.400729,40.491471],[-74.400735,40.49147],[-74.400735,40.491472],[-74.400729,40.491471]]]]}}]}