{"type":"FeatureCollection","features":[{"type":"Feature","properties":{"level_ft":18},"geometry":{"type":"MultiPolygon","coordinates":[[[[-74.434933,40.487624],[-74.434897,40.487651],[-74.434897,40.487624],[-74.434933,40.487624]]],[[[-74.434466,40.487761],[-74.43443,40.487788],[-74.43443,40.487761],[-74.434466,40.487761]]],[[[-74.434538,40.487816],[-74.434574,40.487843],[-74.434538,40.487843],[-74.434538,40.487816]]],[[[-74.434609,40.487843],[-74.434645,40.487871],[-74.434609,40.487871],[-74.434609,40.487843]]],[[[-74.434717,40.487898],[-74.434753,40.487926],[-74.434717,40.487926],[-74.434717,40.487898]]],[[[-74.434825,40.487953],[-74.434861,40.487981],[-74.434825,40.48798],[-74.434825,40.487953]]],[[[-74.460307,40.497983],[-74.46254,40.50033],[-74.465035,40.501264],[-74.466953,40.502879],[-74.46733,40.504959],[-74.466888,40.504657],[-74.466709,40.503998],[-74.466961,40.503641],[-74.466206,40.502543],[-74.464911,40.502049],[-74.464013,40.501033],[-74.462395,40.500428],[-74.461856,40.499687],[-74.460957,40.499083],[-74.459808,40.497377],[-74.460169,40.497494],[-74.460307,40.497983]]],[[[-74.447325,40.503662],[-74.447181,40.503716],[-74.447181,40.503689],[-74.447325,40.503662]]],[[[-74.452034,40.506656],[-74.456781,40.507234],[-74.457967,40.507948],[-74.45865,40.50888],[-74.454412,40.508589],[-74.448684,40.50711],[-74.441639,40.502891],[-74.44035,40.501737],[-74.443193,40.499542],[-74.443372,40.500146],[-74.44366,40.500119],[-74.444594,40.501162],[-74.445169,40.501355],[-74.444881,40.501629],[-74.44578,40.502261],[-74.445348,40.502343],[-74.447289,40.503579],[-74.446642,40.503634],[-74.445815,40.503139],[-74.445959,40.503359],[-74.446606,40.503771],[-74.447181,40.503716],[-74.450452,40.505804],[-74.451603,40.506216],[-74.451747,40.506052],[-74.451782,40.506354],[-74.452034,40.506656]],[[-74.442473,40.500145],[-74.442509,40.500173],[-74.442509,40.500146],[-74.442473,40.500145]],[[-74.442509,40.500173],[-74.442545,40.5002],[-74.442545,40.500173],[-74.442509,40.500173]],[[-74.442545,40.5002],[-74.442581,40.500228],[-74.442581,40.5002],[-74.442545,40.5002]],[[-74.44542,40.502261],[-74.445384,40.502233],[-74.445384,40.502261],[-74.44542,40.502261]]],[[[-74.466816,40.50559],[-74.466924,40.505041],[-74.467212,40.505041],[-74.467211,40.505591],[-74.466816,40.50559]]],[[[-74.452681,40.506299],[-74.452034,40.506464],[-74.451854,40.506107],[-74.452681,40.506299]],[[-74.452214,40.506326],[-74.452106,40.506299],[-74.452106,40.506326],[-74.452214,40.506326]]],[[[-74.452106,40.506628],[-74.452178,40.506601],[-74.452178,40.506628],[-74.452106,40.506628]]],[[[-74.466743,40.50743],[-74.466456,40.505975],[-74.467139,40.505755],[-74.467381,40.50665],[-74.467159,40.506947],[-74.467496,40.507694],[-74.466852,40.509329],[-74.464976,40.509124],[-74.461937,40.509231],[-74.459452,40.509067],[-74.45901,40.508921],[-74.458399,40.507976],[-74.457356,40.507125],[-74.459334,40.50718],[-74.463937,40.507841],[-74.464261,40.507648],[-74.466059,40.507814],[-74.466383,40.507375],[-74.466743,40.50743]],[[-74.459262,40.507235],[-74.459226,40.507208],[-74.459226,40.507235],[-74.459262,40.507235]],[[-74.466743,40.507018],[-74.466815,40.507155],[-74.466815,40.507018],[-74.466743,40.507018]]],[[[-74.40334,40.480052],[-74.403088,40.480299],[-74.403269,40.479991],[-74.40334,40.480052]]],[[[-74.415278,40.478689],[-74.414952,40.480226],[-74.413548,40.482147],[-74.413116,40.481956],[-74.414463,40.479877],[-74.414635,40.478639],[-74.415278,40.478689]]],[[[-74.403879,40.48052],[-74.403627,40.480464],[-74.403808,40.480166],[-74.404051,40.480245],[-74.403879,40.48052]]],[[[-74.40449,40.480602],[-74.404059,40.480602],[-74.404239,40.480306],[-74.40449,40.480388],[-74.40449,40.480602]]],[[[-74.411758,40.483882],[-74.412777,40.482531],[-74.413115,40.482805],[-74.413151,40.483272],[-74.412899,40.483629],[-74.412611,40.483629],[-74.41279,40.48415],[-74.411208,40.484094],[-74.410167,40.482885],[-74.409627,40.483269],[-74.409268,40.483187],[-74.409772,40.482611],[-74.409485,40.482391],[-74.409017,40.482445],[-74.408982,40.482171],[-74.408622,40.482143],[-74.407653,40.481401],[-74.406143,40.481318],[-74.405675,40.481619],[-74.405676,40.480988],[-74.40449,40.480932],[-74.40449,40.480767],[-74.404742,40.48047],[-74.405639,40.480608],[-74.407527,40.480434],[-74.408505,40.481467],[-74.410451,40.482648],[-74.411364,40.483938],[-74.411758,40.483882]],[[-74.412216,40.483381],[-74.412252,40.483409],[-74.412252,40.483381],[-74.412216,40.483381]],[[-74.412252,40.483409],[-74.412288,40.483436],[-74.412288,40.483409],[-74.412252,40.483409]],[[-74.412288,40.483436],[-74.412359,40.483464],[-74.41236,40.483436],[-74.412288,40.483436]]],[[[-74.41302,40.482119],[-74.413547,40.482312],[-74.413475,40.482641],[-74.412864,40.482393],[-74.41302,40.482119]]],[[[-74.39704,40.486278],[-74.397471,40.486334],[-74.396751,40.487047],[-74.39675,40.487376],[-74.395379,40.488583],[-74.394641,40.488251],[-74.394689,40.487743],[-74.394288,40.487333],[-74.392969,40.486501],[-74.392281,40.486315],[-74.392523,40.485012],[-74.393901,40.483567],[-74.395392,40.483661],[-74.395843,40.482585],[-74.397531,40.481133],[-74.399323,40.481225],[-74.400078,40.480568],[-74.401883,40.479609],[-74.403034,40.479915],[-74.402441,40.480765],[-74.40147,40.481094],[-74.401864,40.481616],[-74.40172,40.481835],[-74.400785,40.481862],[-74.400678,40.481478],[-74.399059,40.482492],[-74.399166,40.482684],[-74.3978,40.482958],[-74.396612,40.48367],[-74.396432,40.484192],[-74.395712,40.48474],[-74.395747,40.485262],[-74.396286,40.485701],[-74.397077,40.485428],[-74.396789,40.485784],[-74.39704,40.486278]],[[-74.396932,40.486333],[-74.396896,40.486361],[-74.396932,40.486361],[-74.396932,40.486333]]],[[[-74.434214,40.487651],[-74.434178,40.487678],[-74.434178,40.487651],[-74.434214,40.487651]]],[[[-74.434286,40.487678],[-74.43425,40.487706],[-74.43425,40.487678],[-74.434286,40.487678]]],[[[-74.434358,40.487733],[-74.434394,40.487761],[-74.434358,40.487761],[-74.434358,40.487733]]],[[[-74.395902,40.48933],[-74.397361,40.487871],[-74.397684,40.487981],[-74.398332,40.48735],[-74.398908,40.487268],[-74.399626,40.487598],[-74.400346,40.487462],[-74.400201,40.488285],[-74.400417,40.488093],[-74.400812,40.488286],[-74.403761,40.487904],[-74.404229,40.487547],[-74.403976,40.488206],[-74.407248,40.487934],[-74.407356,40.488291],[-74.408757,40.488677],[-74.410807,40.488623],[-74.410411,40.489145],[-74.410841,40.489721],[-74.411668,40.490106],[-74.413142,40.490382],[-74.41249,40.493573],[-74.411553,40.493751],[-74.409034,40.493425],[-74.406771,40.492827],[-74.406553,40.492458],[-74.405563,40.492001],[-74.400942,40.491353],[-74.400049,40.491494],[-74.399575,40.491416],[-74.399486,40.491172],[-74.399327,40.491528],[-74.398784,40.491541],[-74.398707,40.491757],[-74.398477,40.491891],[-74.398573,40.491194],[-74.396209,40.48978],[-74.395902,40.48933]]],[[[-74.412742,40.493519],[-74.413357,40.490492],[-74.413609,40.490382],[-74.412994,40.493429],[-74.412742,40.493519]]],[[[-74.435005,40.487651],[-74.436119,40.488009],[-74.436839,40.487789],[-74.436946,40.488339],[-74.438024,40.488833],[-74.437484,40.489437],[-74.438024,40.489025],[-74.438312,40.489053],[-74.438958,40.489575],[-74.438922,40.489959],[-74.439246,40.489959],[-74.440395,40.490893],[-74.44187,40.490702],[-74.441654,40.491141],[-74.441258,40.491196],[-74.440682,40.491882],[-74.440934,40.492294],[-74.441329,40.492349],[-74.442656,40.49611],[-74.442548,40.49644],[-74.443051,40.496934],[-74.442439,40.497291],[-74.442475,40.497538],[-74.443266,40.498224],[-74.443553,40.498224],[-74.443697,40.498691],[-74.443301,40.498773],[-74.443373,40.499158],[-74.443085,40.499185],[-74.442941,40.499514],[-74.440206,40.501616],[-74.439283,40.500822],[-74.436241,40.4966],[-74.43566,40.495136],[-74.435506,40.492931],[-74.434518,40.491502],[-74.434691,40.491387],[-74.434363,40.490774],[-74.431744,40.488996],[-74.429565,40.488217],[-74.428573,40.488048],[-74.427558,40.488282],[-74.423877,40.488159],[-74.421452,40.488703],[-74.419203,40.490282],[-74.419187,40.490765],[-74.418799,40.490627],[-74.417078,40.49216],[-74.415011,40.493117],[-74.41321,40.493417],[-74.413825,40.490437],[-74.415083,40.490493],[-74.417493,40.489809],[-74.418105,40.489095],[-74.418932,40.488684],[-74.419149,40.488218],[-74.420984,40.487066],[-74.423573,40.486656],[-74.423286,40.486299],[-74.423681,40.486299],[-74.42404,40.486793],[-74.424471,40.486931],[-74.428858,40.486604],[-74.43274,40.487293],[-74.434969,40.4882],[-74.435113,40.488118],[-74.434645,40.487898],[-74.434645,40.487816],[-74.434538,40.487788],[-74.434538,40.487816],[-74.434466,40.487816],[-74.434502,40.487761],[-74.434394,40.487706],[-74.434358,40.487733],[-74.434286,40.487733],[-74.434322,40.487678],[-74.434214,40.487623],[-74.434502,40.487678],[-74.435005,40.487651]],[[-74.435113,40.488118],[-74.435149,40.48809],[-74.435113,40.48809],[-74.435113,40.488118]],[[-74.435005,40.487679],[-74.434969,40.487706],[-74.435005,40.487706],[-74.435005,40.487679]],[[-74.435077,40.487706],[-74.435041,40.487734],[-74.435077,40.487734],[-74.435077,40.487706]],[[-74.435185,40.487761],[-74.435149,40.487789],[-74.435185,40.487789],[-74.435185,40.487761]]]]}}]}