{"type":"FeatureCollection","features":[{"type":"Feature","properties":{"level_ft":13},"geometry":{"type":"MultiPolygon","coordinates":[[[[-74.444342,40.501684],[-74.444306,40.501656],[-74.444342,40.501656],[-74.444342,40.501684]]],[[[-74.444342,40.501684],[-74.444378,40.501711],[-74.444342,40.501711],[-74.444342,40.501684]]],[[[-74.444306,40.501684],[-74.44427,40.501739],[-74.44427,40.501684],[-74.444306,40.501684]]],[[[-74.444449,40.501739],[-74.444414,40.501711],[-74.444449,40.501711],[-74.444449,40.501739]]],[[[-74.444449,40.501739],[-74.444485,40.501766],[-74.444449,40.501766],[-74.444449,40.501739]]],[[[-74.444414,40.501739],[-74.444449,40.501794],[-74.444342,40.501739],[-74.444414,40.501739]]],[[[-74.444377,40.501848],[-74.444342,40.501821],[-74.444377,40.501821],[-74.444377,40.501848]]],[[[-74.444953,40.502013],[-74.444881,40.502041],[-74.444881,40.502013],[-74.444953,40.502013]]],[[[-74.464042,40.500947],[-74.465627,40.50165],[-74.465663,40.501905],[-74.466953,40.502879],[-74.46733,40.504959],[-74.466888,40.504575],[-74.466745,40.503998],[-74.467032,40.503614],[-74.466565,40.502735],[-74.465307,40.502131],[-74.465595,40.501994],[-74.464768,40.50128],[-74.462539,40.500511],[-74.461892,40.499659],[-74.462663,40.500418],[-74.464042,40.500947]]],[[[-74.446642,40.503222],[-74.446678,40.503195],[-74.446678,40.503222],[-74.446642,40.503222]]],[[[-74.44675,40.503277],[-74.446786,40.50325],[-74.446786,40.503277],[-74.44675,40.503277]]],[[[-74.446786,40.503277],[-74.446822,40.503304],[-74.446786,40.503304],[-74.446786,40.503277]]],[[[-74.446678,40.503332],[-74.446642,40.503304],[-74.446678,40.503304],[-74.446678,40.503332]]],[[[-74.446534,40.503332],[-74.44657,40.503359],[-74.446534,40.503359],[-74.446534,40.503332]]],[[[-74.44657,40.503414],[-74.446606,40.503387],[-74.446606,40.503414],[-74.44657,40.503414]]],[[[-74.446786,40.503332],[-74.44639,40.503194],[-74.446534,40.503304],[-74.446534,40.503332],[-74.446498,40.503332],[-74.446498,40.503442],[-74.44621,40.503387],[-74.445491,40.502892],[-74.446462,40.503716],[-74.447037,40.503744],[-74.449661,40.505502],[-74.451746,40.506546],[-74.456997,40.507317],[-74.457967,40.507948],[-74.45865,40.50888],[-74.454412,40.508589],[-74.448684,40.50711],[-74.441639,40.502891],[-74.44035,40.501737],[-74.441897,40.500557],[-74.444377,40.501931],[-74.444377,40.502123],[-74.444449,40.501794],[-74.444989,40.501876],[-74.445025,40.501986],[-74.444881,40.501986],[-74.444809,40.502041],[-74.446786,40.503332]],[[-74.44639,40.503194],[-74.446354,40.503167],[-74.446354,40.503194],[-74.44639,40.503194]],[[-74.446354,40.503167],[-74.446318,40.50314],[-74.446318,40.503167],[-74.446354,40.503167]],[[-74.446246,40.50314],[-74.446247,40.503057],[-74.446175,40.503057],[-74.446246,40.50314]],[[-74.446175,40.503057],[-74.446139,40.50303],[-74.446139,40.503057],[-74.446175,40.503057]],[[-74.446139,40.50303],[-74.446103,40.503002],[-74.446103,40.50303],[-74.446139,40.50303]],[[-74.446031,40.503002],[-74.446067,40.502947],[-74.445995,40.502947],[-74.446031,40.503002]],[[-74.445995,40.502947],[-74.445959,40.50292],[-74.445959,40.502947],[-74.445995,40.502947]],[[-74.445959,40.50292],[-74.445923,40.502892],[-74.445923,40.50292],[-74.445959,40.50292]],[[-74.445923,40.502892],[-74.445887,40.502865],[-74.445887,40.502892],[-74.445923,40.502892]],[[-74.445887,40.502865],[-74.445851,40.502837],[-74.445851,40.502865],[-74.445887,40.502865]],[[-74.445851,40.502837],[-74.445779,40.50281],[-74.445779,40.502837],[-74.445851,40.502837]],[[-74.445779,40.50281],[-74.445743,40.502782],[-74.445743,40.50281],[-74.445779,40.50281]],[[-74.445743,40.502782],[-74.445707,40.502755],[-74.445707,40.502782],[-74.445743,40.502782]],[[-74.445707,40.502755],[-74.445671,40.502727],[-74.445671,40.502755],[-74.445707,40.502755]],[[-74.445491,40.502892],[-74.445455,40.502865],[-74.445455,40.502892],[-74.445491,40.502892]],[[-74.444629,40.502041],[-74.444629,40.502123],[-74.444701,40.502123],[-74.444629,40.502041]],[[-74.444773,40.502123],[-74.444773,40.502205],[-74.444845,40.502206],[-74.444773,40.502123]],[[-74.444845,40.502206],[-74.444881,40.502233],[-74.444881,40.502206],[-74.444845,40.502206]],[[-74.444881,40.502233],[-74.444917,40.50226],[-74.444917,40.502233],[-74.444881,40.502233]],[[-74.444917,40.50226],[-74.444988,40.502288],[-74.444988,40.50226],[-74.444917,40.50226]],[[-74.444988,40.502288],[-74.445024,40.502315],[-74.445024,40.502288],[-74.444988,40.502288]],[[-74.445024,40.502315],[-74.44506,40.502343],[-74.44506,40.502315],[-74.445024,40.502315]],[[-74.44506,40.502343],[-74.445096,40.50237],[-74.445096,40.502343],[-74.44506,40.502343]],[[-74.445096,40.50237],[-74.445132,40.502398],[-74.445132,40.50237],[-74.445096,40.50237]],[[-74.445204,40.502398],[-74.445168,40.502453],[-74.44524,40.502453],[-74.445204,40.502398]],[[-74.444701,40.502096],[-74.444737,40.502068],[-74.444701,40.502068],[-74.444701,40.502096]],[[-74.444629,40.502041],[-74.444665,40.502013],[-74.444629,40.502013],[-74.444629,40.502041]],[[-74.444485,40.501848],[-74.444521,40.501876],[-74.444521,40.501848],[-74.444485,40.501848]],[[-74.444881,40.501986],[-74.444845,40.501958],[-74.444845,40.501986],[-74.444881,40.501986]],[[-74.444845,40.501958],[-74.444809,40.501931],[-74.444809,40.501958],[-74.444845,40.501958]]],[[[-74.466924,40.505563],[-74.466888,40.505343],[-74.467212,40.505041],[-74.46723,40.505563],[-74.466924,40.505563]]],[[[-74.467067,40.505755],[-74.467496,40.507694],[-74.467102,40.508061],[-74.467138,40.507457],[-74.466671,40.506551],[-74.466672,40.506057],[-74.467067,40.505755]]],[[[-74.45901,40.508921],[-74.457464,40.507125],[-74.458831,40.507455],[-74.459478,40.50729],[-74.463506,40.507703],[-74.463937,40.507978],[-74.463038,40.507978],[-74.463901,40.508088],[-74.464189,40.508033],[-74.464081,40.507758],[-74.464693,40.507731],[-74.464729,40.50806],[-74.467092,40.508281],[-74.466852,40.509329],[-74.464976,40.509124],[-74.459495,40.509076],[-74.45901,40.508921]]],[[[-74.43558,40.488365],[-74.435544,40.488393],[-74.435544,40.488365],[-74.43558,40.488365]]],[[[-74.435616,40.48842],[-74.43558,40.48842],[-74.43558,40.488393],[-74.435616,40.488393],[-74.435616,40.48842]]],[[[-74.435616,40.488448],[-74.435616,40.48842],[-74.435652,40.48842],[-74.435652,40.488448],[-74.435616,40.488448]]],[[[-74.435687,40.488475],[-74.435652,40.488448],[-74.435688,40.488448],[-74.435687,40.488475]]],[[[-74.436226,40.48886],[-74.43619,40.48886],[-74.436191,40.488832],[-74.436226,40.488832],[-74.436226,40.48886]]],[[[-74.436262,40.488887],[-74.436226,40.48886],[-74.436262,40.48886],[-74.436262,40.488887]]],[[[-74.441288,40.498525],[-74.441324,40.498553],[-74.441288,40.498553],[-74.441288,40.498525]]],[[[-74.442005,40.500228],[-74.441394,40.49987],[-74.441358,40.49987],[-74.441358,40.499898],[-74.441322,40.499898],[-74.441215,40.499815],[-74.441215,40.499706],[-74.441179,40.499706],[-74.441179,40.499733],[-74.441143,40.499733],[-74.441071,40.499678],[-74.440641,40.49836],[-74.440964,40.49836],[-74.441144,40.498635],[-74.441431,40.498553],[-74.441539,40.498882],[-74.441827,40.498086],[-74.441863,40.498745],[-74.44233,40.499212],[-74.442689,40.499212],[-74.442725,40.499679],[-74.442005,40.500228]],[[-74.441107,40.499623],[-74.441143,40.499651],[-74.441143,40.499623],[-74.441107,40.499623]],[[-74.441143,40.499651],[-74.441179,40.499678],[-74.441179,40.499651],[-74.441143,40.499651]]],[[[-74.441215,40.499761],[-74.441179,40.499733],[-74.441215,40.499733],[-74.441215,40.499761]]],[[[-74.441358,40.499925],[-74.441358,40.499898],[-74.441394,40.499898],[-74.441394,40.499925],[-74.441358,40.499925]]],[[[-74.441394,40.499953],[-74.441394,40.499925],[-74.44143,40.499925],[-74.44143,40.499953],[-74.441394,40.499953]]],[[[-74.44143,40.49998],[-74.44143,40.499953],[-74.441466,40.499953],[-74.441466,40.49998],[-74.44143,40.49998]]],[[[-74.441466,40.500008],[-74.441466,40.49998],[-74.441502,40.49998],[-74.441502,40.500008],[-74.441466,40.500008]]],[[[-74.441538,40.500035],[-74.441502,40.500008],[-74.441538,40.500008],[-74.441538,40.500035]]],[[[-74.443336,40.500256],[-74.4433,40.500228],[-74.443336,40.500228],[-74.443336,40.500256]]],[[[-74.443372,40.500338],[-74.444234,40.501382],[-74.444234,40.501519],[-74.442185,40.500392],[-74.443085,40.499597],[-74.443336,40.500009],[-74.443156,40.500201],[-74.443372,40.500338]],[[-74.442473,40.500145],[-74.442509,40.500173],[-74.442509,40.500146],[-74.442473,40.500145]],[[-74.442509,40.500173],[-74.442545,40.5002],[-74.442545,40.500173],[-74.442509,40.500173]],[[-74.442545,40.5002],[-74.442581,40.500228],[-74.442581,40.5002],[-74.442545,40.5002]],[[-74.443156,40.500201],[-74.442832,40.500228],[-74.443156,40.500228],[-74.443156,40.500201]],[[-74.443228,40.500256],[-74.44312,40.500283],[-74.443228,40.500283],[-74.443228,40.500256]],[[-74.44312,40.500283],[-74.443012,40.50031],[-74.44312,40.500311],[-74.44312,40.500283]]],[[[-74.444126,40.501574],[-74.444162,40.501601],[-74.444126,40.501629],[-74.444126,40.501574]]],[[[-74.444198,40.501684],[-74.44427,40.501601],[-74.444306,40.501656],[-74.444198,40.501684]]],[[[-74.444306,40.501766],[-74.444234,40.501821],[-74.444198,40.501766],[-74.444306,40.501766]]],[[[-74.403196,40.480272],[-74.403233,40.480025],[-74.403341,40.480014],[-74.403196,40.480272]]],[[[-74.404051,40.480245],[-74.403628,40.48041],[-74.403808,40.480166],[-74.404051,40.480245]]],[[[-74.404454,40.48063],[-74.404059,40.480575],[-74.404239,40.480306],[-74.40449,40.480388],[-74.404454,40.48063]]],[[[-74.413692,40.481488],[-74.41362,40.482092],[-74.413116,40.481982],[-74.413487,40.481378],[-74.413692,40.481488]]],[[[-74.407231,40.480392],[-74.410451,40.482648],[-74.411282,40.483914],[-74.411662,40.483931],[-74.41218,40.483381],[-74.412359,40.483464],[-74.412792,40.482531],[-74.413079,40.482805],[-74.412647,40.483162],[-74.412827,40.483464],[-74.412395,40.483519],[-74.412575,40.483985],[-74.411136,40.484039],[-74.410167,40.482831],[-74.40952,40.483159],[-74.409844,40.48272],[-74.4097,40.482418],[-74.408622,40.482088],[-74.407868,40.481374],[-74.406251,40.48118],[-74.405675,40.481564],[-74.405856,40.480988],[-74.404526,40.480877],[-74.404742,40.48047],[-74.405639,40.480608],[-74.407231,40.480392]]],[[[-74.41302,40.482119],[-74.413475,40.482394],[-74.41308,40.482586],[-74.412864,40.482393],[-74.41302,40.482119]]],[[[-74.396824,40.486416],[-74.397219,40.486553],[-74.396679,40.487102],[-74.39675,40.487349],[-74.395379,40.488583],[-74.394641,40.488251],[-74.394689,40.487743],[-74.394288,40.487333],[-74.392969,40.486501],[-74.392281,40.486315],[-74.392523,40.485012],[-74.393901,40.483567],[-74.395392,40.483661],[-74.395843,40.482585],[-74.397531,40.481133],[-74.399323,40.481225],[-74.400078,40.480568],[-74.401883,40.479609],[-74.403034,40.479915],[-74.402513,40.480628],[-74.401398,40.481039],[-74.401792,40.481726],[-74.400821,40.481725],[-74.400714,40.481423],[-74.399455,40.482108],[-74.399059,40.482629],[-74.398375,40.482684],[-74.396432,40.483752],[-74.395495,40.485234],[-74.396285,40.485756],[-74.396861,40.485592],[-74.396824,40.486416]],[[-74.397003,40.486553],[-74.396967,40.48658],[-74.397003,40.48658],[-74.397003,40.486553]]],[[[-74.435148,40.488145],[-74.435149,40.488118],[-74.435184,40.488118],[-74.435184,40.488145],[-74.435148,40.488145]]],[[[-74.435184,40.488173],[-74.435184,40.488145],[-74.43522,40.488145],[-74.43522,40.488173],[-74.435184,40.488173]]],[[[-74.435256,40.4882],[-74.43522,40.488173],[-74.435256,40.488173],[-74.435256,40.4882]]],[[[-74.435328,40.488228],[-74.435292,40.488228],[-74.435292,40.4882],[-74.435328,40.4882],[-74.435328,40.488228]]],[[[-74.435328,40.488255],[-74.435328,40.488228],[-74.435364,40.488228],[-74.435364,40.488255],[-74.435328,40.488255]]],[[[-74.435364,40.488283],[-74.435364,40.488255],[-74.4354,40.488255],[-74.4354,40.488283],[-74.435364,40.488283]]],[[[-74.435436,40.48831],[-74.4354,40.488283],[-74.435436,40.488283],[-74.435436,40.48831]]],[[[-74.395902,40.48933],[-74.397325,40.487898],[-74.397648,40.488036],[-74.398044,40.487734],[-74.398332,40.487872],[-74.398368,40.487433],[-74.399016,40.487323],[-74.399518,40.487626],[-74.400166,40.487544],[-74.400057,40.488203],[-74.400416,40.488423],[-74.401963,40.48804],[-74.404012,40.487932],[-74.404048,40.488234],[-74.407104,40.488016],[-74.407355,40.488319],[-74.408937,40.488732],[-74.410051,40.48887],[-74.410807,40.488678],[-74.410338,40.489282],[-74.410877,40.489804],[-74.411632,40.490161],[-74.413141,40.490409],[-74.41249,40.493573],[-74.411553,40.493751],[-74.409034,40.493425],[-74.406771,40.492827],[-74.406553,40.492458],[-74.405563,40.492001],[-74.400942,40.491353],[-74.400049,40.491494],[-74.399575,40.491416],[-74.399486,40.491172],[-74.399327,40.491528],[-74.398784,40.491541],[-74.398707,40.491757],[-74.398477,40.491891],[-74.398573,40.491194],[-74.396209,40.48978],[-74.395902,40.48933]]],[[[-74.412742,40.493519],[-74.413357,40.490492],[-74.413573,40.49041],[-74.412994,40.493429],[-74.412742,40.493519]]],[[[-74.440789,40.492541],[-74.438236,40.492677],[-74.437877,40.493006],[-74.437948,40.493418],[-74.438596,40.492814],[-74.439926,40.492732],[-74.439423,40.493089],[-74.439566,40.494022],[-74.441508,40.493749],[-74.441327,40.494462],[-74.441579,40.49449],[-74.441614,40.495012],[-74.44183,40.495012],[-74.441614,40.495149],[-74.441794,40.495506],[-74.441326,40.495588],[-74.441362,40.496192],[-74.440929,40.496878],[-74.442224,40.496796],[-74.442153,40.496192],[-74.442656,40.496659],[-74.442224,40.497208],[-74.441361,40.497345],[-74.441324,40.497949],[-74.441,40.498141],[-74.440713,40.497537],[-74.440282,40.497427],[-74.44021,40.497015],[-74.440498,40.496878],[-74.439564,40.495367],[-74.43924,40.496383],[-74.439563,40.496575],[-74.439814,40.497454],[-74.439455,40.496987],[-74.438951,40.497316],[-74.436937,40.497562],[-74.437081,40.497727],[-74.439023,40.497426],[-74.439095,40.497893],[-74.43967,40.49814],[-74.44046,40.499348],[-74.441682,40.500392],[-74.440206,40.501616],[-74.439283,40.500822],[-74.436241,40.4966],[-74.43566,40.495136],[-74.435506,40.492931],[-74.434518,40.491502],[-74.434691,40.491387],[-74.434363,40.490774],[-74.431744,40.488996],[-74.429565,40.488217],[-74.428573,40.488048],[-74.427558,40.488282],[-74.423877,40.488159],[-74.421452,40.488703],[-74.419203,40.490282],[-74.419187,40.490765],[-74.418799,40.490627],[-74.417078,40.49216],[-74.415011,40.493117],[-74.41321,40.493417],[-74.413789,40.490492],[-74.415155,40.490493],[-74.415766,40.490274],[-74.416126,40.490412],[-74.41627,40.490137],[-74.417421,40.489864],[-74.418105,40.489123],[-74.418932,40.488712],[-74.419257,40.488163],[-74.420984,40.487093],[-74.423609,40.486683],[-74.423501,40.486354],[-74.424435,40.486931],[-74.428894,40.486632],[-74.433208,40.487431],[-74.434789,40.488173],[-74.434968,40.488447],[-74.4354,40.48842],[-74.435867,40.488722],[-74.436693,40.489931],[-74.437268,40.49026],[-74.437411,40.490892],[-74.437806,40.491276],[-74.438058,40.491057],[-74.437232,40.489821],[-74.437448,40.489519],[-74.437089,40.489629],[-74.436298,40.48886],[-74.436226,40.488805],[-74.436119,40.488832],[-74.43558,40.488338],[-74.435184,40.488118],[-74.435939,40.488228],[-74.436299,40.487872],[-74.436803,40.487872],[-74.436659,40.488091],[-74.437233,40.488915],[-74.437665,40.488833],[-74.43788,40.488998],[-74.437484,40.489437],[-74.438024,40.48919],[-74.438814,40.490426],[-74.43982,40.490728],[-74.440107,40.491305],[-74.440682,40.491607],[-74.440502,40.492293],[-74.440897,40.492403],[-74.440789,40.492541]],[[-74.439491,40.496987],[-74.439527,40.496932],[-74.439491,40.496932],[-74.439491,40.496987]],[[-74.438058,40.491139],[-74.438094,40.491167],[-74.438094,40.491139],[-74.438058,40.491139]],[[-74.436191,40.488805],[-74.436155,40.488777],[-74.436155,40.488805],[-74.436191,40.488805]],[[-74.436155,40.488777],[-74.436119,40.48875],[-74.436119,40.488777],[-74.436155,40.488777]],[[-74.436119,40.48875],[-74.436083,40.488722],[-74.436083,40.48875],[-74.436119,40.48875]],[[-74.436083,40.488722],[-74.436047,40.488695],[-74.436047,40.488722],[-74.436083,40.488722]],[[-74.436047,40.488695],[-74.436011,40.488667],[-74.436011,40.488695],[-74.436047,40.488695]],[[-74.436011,40.488667],[-74.435975,40.48864],[-74.435975,40.488667],[-74.436011,40.488667]],[[-74.435975,40.48864],[-74.435939,40.488612],[-74.435939,40.48864],[-74.435975,40.48864]],[[-74.435939,40.488612],[-74.435903,40.488585],[-74.435903,40.488612],[-74.435939,40.488612]],[[-74.440502,40.49254],[-74.440466,40.492513],[-74.440466,40.49254],[-74.440502,40.49254]]]]}}]}