{
"type": "FeatureCollection",
"name": "assets",
"crs": { "type": "name", "properties": { "name": "urn:ogc:def:crs:OGC:1.3:CRS84" } },
"features": [
{ "type": "Feature", "properties": { "id": "w473378433", "name": "Jewish Community Center", "category": "community", "address": "", "ground_elev_ft": 40.45, "elev_source": "epqs", "ffo_ft": 1.0, "source": "OpenStreetMap" }, "geometry": { "type": "Point", "coordinates": [ -74.110829, 40.682288 ] } },
{ "type": "Feature", "properties": { "id": "n367684986", "name": "Bayonne Tower Ladder Company 1", "category": "fire", "address": "", "ground_elev_ft": 26.61, "elev_source": "epqs", "ffo_ft": 1.0, "source": "OpenStreetMap" }, "geometry": { "type": "Point", "coordinates": [ -74.131662, 40.649729 ] } },
{ "type": "Feature", "properties": { "id": "w264967240", "name": "Bayonne FD Rescue Co.1 Engine Co.4", "category": "fire", "address": "", "ground_elev_ft": 31.3, "elev_source": "epqs", "ffo_ft": 1.0, "source": "OpenStreetMap" }, "geometry": { "type": "Point", "coordinates": [ -74.12882, 40.662019 ] } },
{ "type": "Feature", "properties": { "id": "w1032410308", "name": "Bayonne Fire Station 5", "category": "fire", "address": "200 Chosin Few Way, Bayonne", "ground_elev_ft": 11.58, "elev_source": "epqs", "ffo_ft": 1.0, "source": "OpenStreetMap" }, "geometry": { "type": "Point", "coordinates": [ -74.10267, 40.672892 ] } },
{ "type": "Feature", "properties": { "id": "n367684974", "name": "Bayonne Tower Ladder Company 2", "category": "fire", "address": "", "ground_elev_ft": 39.3, "elev_source": "epqs", "ffo_ft": 1.0, "source": "OpenStreetMap" }, "geometry": { "type": "Point", "coordinates": [ -74.117104, 40.668738 ] } },
{ "type": "Feature", "properties": { "id": "n367684920", "name": "Bayonne Engine Company 5", "category": "fire", "address": "", "ground_elev_ft": 28.48, "elev_source": "epqs", "ffo_ft": 1.0, "source": "OpenStreetMap" }, "geometry": { "type": "Point", "coordinates": [ -74.110868, 40.674138 ] } },
{ "type": "Feature", "properties": { "id": "n367684905", "name": "Bayonne Ladder Company 3", "category": "fire", "address": "", "ground_elev_ft": 35.53, "elev_source": "epqs", "ffo_ft": 1.0, "source": "OpenStreetMap" }, "geometry": { "type": "Point", "coordinates": [ -74.10386, 40.689179 ] } },
{ "type": "Feature", "properties": { "id": "w484604257", "name": "Bayonne Medical Center", "category": "hospital", "address": "29 East 29th Street, Bayonne", "ground_elev_ft": 34.32, "elev_source": "epqs", "ffo_ft": 1.0, "source": "OpenStreetMap" }, "geometry": { "type": "Point", "coordinates": [ -74.112626, 40.668126 ] } },
{ "type": "Feature", "properties": { "id": "w264969843", "name": "Free Public Library of Bayonne", "category": "library", "address": "697 Avenue C, Bayonne", "ground_elev_ft": 47.21, "elev_source": "epqs", "ffo_ft": 1.0, "source": "OpenStreetMap" }, "geometry": { "type": "Point", "coordinates": [ -74.115566, 40.671702 ] } },
{ "type": "Feature", "properties": { "id": "n367694989", "name": "Bayonne City Hall", "category": "municipal", "address": "", "ground_elev_ft": 29.07, "elev_source": "epqs", "ffo_ft": 1.0, "source": "OpenStreetMap" }, "geometry": { "type": "Point", "coordinates": [ -74.11712, 40.668368 ] } },
{ "type": "Feature", "properties": { "id": "n6762357406", "name": "NJ Motor Vehicle Commission - Bayonne", "category": "municipal", "address": "1347 John F. Kennedy Boulevard, Bayonne", "ground_elev_ft": 26.61, "elev_source": "epqs", "ffo_ft": 1.0, "source": "OpenStreetMap" }, "geometry": { "type": "Point", "coordinates": [ -74.103627, 40.693808 ] } },
{ "type": "Feature", "properties": { "id": "w264969838", "name": "Bayonne Police Headquarters", "category": "police", "address": "", "ground_elev_ft": 34.68, "elev_source": "epqs", "ffo_ft": 1.0, "source": "OpenStreetMap" }, "geometry": { "type": "Point", "coordinates": [ -74.116894, 40.66841 ] } },
{ "type": "Feature", "properties": { "id": "w1421736839", "name": "APM Terminals", "category": "port", "address": "5080 McLester Street, Elizabeth", "ground_elev_ft": 10.89, "elev_source": "epqs", "ffo_ft": 1.0, "source": "OpenStreetMap" }, "geometry": { "type": "Point", "coordinates": [ -74.15369, 40.666537 ] } },
{ "type": "Feature", "properties": { "id": "r14486565", "name": "Port Liberty Bayonne", "category": "port", "address": "", "ground_elev_ft": -5.31, "elev_source": "epqs", "ffo_ft": 1.0, "source": "OpenStreetMap" }, "geometry": { "type": "Point", "coordinates": [ -74.07669, 40.670013 ] } },
{ "type": "Feature", "properties": { "id": "r14486566", "name": "Port Liberty Bayonne", "category": "port", "address": "", "ground_elev_ft": 9.12, "elev_source": "epqs", "ffo_ft": 1.0, "source": "OpenStreetMap" }, "geometry": { "type": "Point", "coordinates": [ -74.077811, 40.671708 ] } },
{ "type": "Feature", "properties": { "id": "w538979738", "name": "Unnamed port", "category": "port", "address": "", "ground_elev_ft": -5.31, "elev_source": "epqs", "ffo_ft": 1.0, "source": "OpenStreetMap" }, "geometry": { "type": "Point", "coordinates": [ -74.08729, 40.671541 ] } },
{ "type": "Feature", "properties": { "id": "n357722990", "name": "Henry E Harris Number 1 Elementary School", "category": "school", "address": "", "ground_elev_ft": 32.94, "elev_source": "epqs", "ffo_ft": 1.0, "source": "OpenStreetMap" }, "geometry": { "type": "Point", "coordinates": [ -74.130898, 40.650665 ] } },
{ "type": "Feature", "properties": { "id": "w496390423", "name": "Walter F Robinson Elementary School", "category": "school", "address": "95 West 31st Street, Bayonne", "ground_elev_ft": 54.43, "elev_source": "epqs", "ffo_ft": 1.0, "source": "OpenStreetMap" }, "geometry": { "type": "Point", "coordinates": [ -74.11668, 40.672343 ] } },
{ "type": "Feature", "properties": { "id": "w806577359", "name": "Ezra L. Nolan Number 40 Elementary School", "category": "school", "address": "", "ground_elev_ft": 40.35, "elev_source": "epqs", "ffo_ft": 1.0, "source": "OpenStreetMap" }, "geometry": { "type": "Point", "coordinates": [ -74.095449, 40.690786 ] } },
{ "type": "Feature", "properties": { "id": "w861106447", "name": "Mary J Donohoe Number 4 Elementary School", "category": "school", "address": "", "ground_elev_ft": 21.16, "elev_source": "epqs", "ffo_ft": 1.0, "source": "OpenStreetMap" }, "geometry": { "type": "Point", "coordinates": [ -74.127123, 40.651906 ] } },
{ "type": "Feature", "properties": { "id": "w863016745", "name": "Saint Andrew's Catholic School", "category": "school", "address": "", "ground_elev_ft": 34.48, "elev_source": "epqs", "ffo_ft": 1.0, "source": "OpenStreetMap" }, "geometry": { "type": "Point", "coordinates": [ -74.127586, 40.650297 ] } },
{ "type": "Feature", "properties": { "id": "w907742491", "name": "Bayonne High School", "category": "school", "address": "667 Avenue A", "ground_elev_ft": 29.95, "elev_source": "epqs", "ffo_ft": 1.0, "source": "OpenStreetMap" }, "geometry": { "type": "Point", "coordinates": [ -74.122324, 40.671947 ] } },
{ "type": "Feature", "properties": { "id": "w938440146", "name": "Saint Henrys School", "category": "school", "address": "82W 29th Street, Bayonne", "ground_elev_ft": 41.24, "elev_source": "epqs", "ffo_ft": 1.0, "source": "OpenStreetMap" }, "geometry": { "type": "Point", "coordinates": [ -74.118042, 40.668992 ] } },
{ "type": "Feature", "properties": { "id": "w1371334086", "name": "Nicholas Oresko School No. 14", "category": "school", "address": "33 East 24th Street", "ground_elev_ft": 24.84, "elev_source": "epqs", "ffo_ft": 1.0, "source": "OpenStreetMap" }, "geometry": { "type": "Point", "coordinates": [ -74.115633, 40.664133 ] } },
{ "type": "Feature", "properties": { "id": "n357723507", "name": "Holy Family Academy", "category": "school", "address": "", "ground_elev_ft": 33.04, "elev_source": "epqs", "ffo_ft": 1.0, "source": "OpenStreetMap" }, "geometry": { "type": "Point", "coordinates": [ -74.133628, 40.656779 ] } },
{ "type": "Feature", "properties": { "id": "n357725409", "name": "Marist High School", "category": "school", "address": "", "ground_elev_ft": 34.06, "elev_source": "epqs", "ffo_ft": 1.0, "source": "OpenStreetMap" }, "geometry": { "type": "Point", "coordinates": [ -74.106048, 40.690424 ] } },
{ "type": "Feature", "properties": { "id": "n357726931", "name": "Our Lady of Mercy School", "category": "school", "address": "", "ground_elev_ft": 13.48, "elev_source": "epqs", "ffo_ft": 1.0, "source": "OpenStreetMap" }, "geometry": { "type": "Point", "coordinates": [ -74.099031, 40.701491 ] } },
{ "type": "Feature", "properties": { "id": "n357727564", "name": "John M Bailey Number 12 Elementary School", "category": "school", "address": "", "ground_elev_ft": 22.67, "elev_source": "epqs", "ffo_ft": 1.0, "source": "OpenStreetMap" }, "geometry": { "type": "Point", "coordinates": [ -74.129029, 40.657316 ] } },
{ "type": "Feature", "properties": { "id": "n357729574", "name": "Midtown Community Elementary School", "category": "school", "address": "", "ground_elev_ft": 25.0, "elev_source": "epqs", "ffo_ft": 1.0, "source": "OpenStreetMap" }, "geometry": { "type": "Point", "coordinates": [ -74.123474, 40.667164 ] } },
{ "type": "Feature", "properties": { "id": "n357729630", "name": "Phillip G Vroom Number 2 Elementary School", "category": "school", "address": "18 West 26th Street, Bayonne", "ground_elev_ft": 40.16, "elev_source": "epqs", "ffo_ft": 1.0, "source": "OpenStreetMap" }, "geometry": { "type": "Point", "coordinates": [ -74.116969, 40.666541 ] } },
{ "type": "Feature", "properties": { "id": "n357729661", "name": "Number 20 Elementary School", "category": "school", "address": "", "ground_elev_ft": 68.54, "elev_source": "epqs", "ffo_ft": 1.0, "source": "OpenStreetMap" }, "geometry": { "type": "Point", "coordinates": [ -74.091253, 40.697325 ] } },
{ "type": "Feature", "properties": { "id": "n357729748", "name": "Alexander D. Sullivan Number 30 Elementary School", "category": "school", "address": "", "ground_elev_ft": 62.6, "elev_source": "epqs", "ffo_ft": 1.0, "source": "OpenStreetMap" }, "geometry": { "type": "Point", "coordinates": [ -74.097642, 40.693714 ] } },
{ "type": "Feature", "properties": { "id": "n357729836", "name": "Lincoln Number 5 Elementary School", "category": "school", "address": "", "ground_elev_ft": 21.65, "elev_source": "epqs", "ffo_ft": 1.0, "source": "OpenStreetMap" }, "geometry": { "type": "Point", "coordinates": [ -74.110142, 40.667047 ] } },
{ "type": "Feature", "properties": { "id": "n357729895", "name": "School Number 7", "category": "school", "address": "", "ground_elev_ft": 33.4, "elev_source": "epqs", "ffo_ft": 1.0, "source": "OpenStreetMap" }, "geometry": { "type": "Point", "coordinates": [ -74.123198, 40.660659 ] } },
{ "type": "Feature", "properties": { "id": "n357731195", "name": "United Hebrew School", "category": "school", "address": "", "ground_elev_ft": 47.51, "elev_source": "epqs", "ffo_ft": 1.0, "source": "OpenStreetMap" }, "geometry": { "type": "Point", "coordinates": [ -74.114506, 40.672876 ] } },
{ "type": "Feature", "properties": { "id": "n357731550", "name": "Washington Number 9 Elementary School", "category": "school", "address": "", "ground_elev_ft": 45.7, "elev_source": "epqs", "ffo_ft": 1.0, "source": "OpenStreetMap" }, "geometry": { "type": "Point", "coordinates": [ -74.107805, 40.684008 ] } },
{ "type": "Feature", "properties": { "id": "n357731935", "name": "Woodrow Wilson Number 10 Elementary School", "category": "school", "address": "", "ground_elev_ft": 40.78, "elev_source": "epqs", "ffo_ft": 1.0, "source": "OpenStreetMap" }, "geometry": { "type": "Point", "coordinates": [ -74.103122, 40.688699 ] } },
{ "type": "Feature", "properties": { "id": "n357745329", "name": "Our Lady of Mount Carmel School", "category": "school", "address": "", "ground_elev_ft": 24.7, "elev_source": "epqs", "ffo_ft": 1.0, "source": "OpenStreetMap" }, "geometry": { "type": "Point", "coordinates": [ -74.117643, 40.663159 ] } },
{ "type": "Feature", "properties": { "id": "n357729863", "name": "Horace Mann Number 6 Elementary School", "category": "school", "address": "", "ground_elev_ft": 34.61, "elev_source": "epqs", "ffo_ft": 1.0, "source": "OpenStreetMap" }, "geometry": { "type": "Point", "coordinates": [ -74.108872, 40.676275 ] } },
{ "type": "Feature", "properties": { "id": "w261880640", "name": "Unnamed school", "category": "school", "address": "", "ground_elev_ft": 45.01, "elev_source": "epqs", "ffo_ft": 1.0, "source": "OpenStreetMap" }, "geometry": { "type": "Point", "coordinates": [ -74.10902, 40.683951 ] } }
]
}
