{"type":"FeatureCollection","features":[{"type":"Feature","properties":{"level_ft":15},"geometry":{"type":"MultiPolygon","coordinates":[[[[-75.099697,39.899398],[-75.099732,39.899343],[-75.099732,39.899398],[-75.099697,39.899398]]],[[[-75.11104,39.900382],[-75.111076,39.900355],[-75.111076,39.900382],[-75.11104,39.900382]]],[[[-75.115267,39.902666],[-75.113337,39.9021],[-75.112406,39.901583],[-75.111076,39.900327],[-75.112899,39.900894],[-75.115267,39.902666]],[[-75.113837,39.902179],[-75.113801,39.902152],[-75.113801,39.90218],[-75.113837,39.902179]]],[[[-75.113804,39.902536],[-75.113733,39.902509],[-75.113804,39.902509],[-75.113804,39.902536]]],[[[-75.113521,39.902758],[-75.112662,39.902405],[-75.113806,39.902729],[-75.113521,39.902758]]],[[[-75.115267,39.902666],[-75.115339,39.902693],[-75.115267,39.902693],[-75.115267,39.902666]]],[[[-75.105767,39.916855],[-75.105875,39.916882],[-75.105768,39.916882],[-75.105767,39.916855]]],[[[-75.11322,39.916953],[-75.113184,39.916926],[-75.11322,39.916925],[-75.11322,39.916953]]],[[[-75.12048,39.947058],[-75.119979,39.946869],[-75.120048,39.946649],[-75.120583,39.946673],[-75.120863,39.946041],[-75.121079,39.946232],[-75.120975,39.946644],[-75.12119,39.946753],[-75.121509,39.946531],[-75.121504,39.9459],[-75.12118,39.9456],[-75.121964,39.945568],[-75.122352,39.944989],[-75.121708,39.944828],[-75.121598,39.944499],[-75.121846,39.944278],[-75.121377,39.943704],[-75.120878,39.943762],[-75.120051,39.943025],[-75.119443,39.942891],[-75.119339,39.943166],[-75.119054,39.943195],[-75.1188,39.942757],[-75.117194,39.942601],[-75.117407,39.94249],[-75.117191,39.942299],[-75.118082,39.942239],[-75.11804,39.941553],[-75.118392,39.94103],[-75.117677,39.940841],[-75.118031,39.940537],[-75.117603,39.940485],[-75.117498,39.940678],[-75.117276,39.939855],[-75.117522,39.939442],[-75.117703,39.939743],[-75.118094,39.939521],[-75.119093,39.939571],[-75.119304,39.939323],[-75.120127,39.939538],[-75.120767,39.939315],[-75.120789,39.93786],[-75.12143,39.937746],[-75.121352,39.936978],[-75.121778,39.936784],[-75.121168,39.93643],[-75.121412,39.935797],[-75.120913,39.935745],[-75.1213,39.935194],[-75.120764,39.935087],[-75.120726,39.934868],[-75.121083,39.934866],[-75.121117,39.934646],[-75.120685,39.934264],[-75.121075,39.93396],[-75.120861,39.933988],[-75.120607,39.93355],[-75.12171,39.933188],[-75.120782,39.933138],[-75.120464,39.933441],[-75.120318,39.933113],[-75.120069,39.933142],[-75.120351,39.932811],[-75.119744,39.932759],[-75.119813,39.932402],[-75.119599,39.932403],[-75.119987,39.931961],[-75.119346,39.932102],[-75.119058,39.931802],[-75.119271,39.931636],[-75.118913,39.931473],[-75.118663,39.931502],[-75.11856,39.931887],[-75.118274,39.931861],[-75.118198,39.931312],[-75.118095,39.931807],[-75.117774,39.931699],[-75.11795,39.931533],[-75.117806,39.931342],[-75.117632,39.931809],[-75.116385,39.931926],[-75.116105,39.932531],[-75.115389,39.932261],[-75.115892,39.93267],[-75.114576,39.933034],[-75.114578,39.933226],[-75.114899,39.933279],[-75.114688,39.933555],[-75.113938,39.933531],[-75.113406,39.933781],[-75.113337,39.934056],[-75.113944,39.93419],[-75.113339,39.934248],[-75.113341,39.93455],[-75.112875,39.934278],[-75.11313,39.934881],[-75.112599,39.935323],[-75.112242,39.93527],[-75.112318,39.935791],[-75.112963,39.936172],[-75.11261,39.936531],[-75.113326,39.936801],[-75.112652,39.937217],[-75.113045,39.93727],[-75.113226,39.937571],[-75.113509,39.937377],[-75.113903,39.937567],[-75.113442,39.937816],[-75.1128,39.93782],[-75.112879,39.938725],[-75.11208,39.937055],[-75.111671,39.935245],[-75.111728,39.933543],[-75.112358,39.932249],[-75.113488,39.931008],[-75.11533,39.92968],[-75.114904,39.929792],[-75.115889,39.928305],[-75.116103,39.928386],[-75.116208,39.928166],[-75.116695,39.918801],[-75.116551,39.914684],[-75.116972,39.913968],[-75.116722,39.913887],[-75.116934,39.913639],[-75.116541,39.913531],[-75.116142,39.912847],[-75.116129,39.911364],[-75.115588,39.910708],[-75.115274,39.911451],[-75.114848,39.911646],[-75.115385,39.911862],[-75.11564,39.912465],[-75.115545,39.913783],[-75.116218,39.917349],[-75.116192,39.918392],[-75.115979,39.91853],[-75.115734,39.926988],[-75.114496,39.928037],[-75.115033,39.928309],[-75.114897,39.929106],[-75.112458,39.931507],[-75.111087,39.933738],[-75.110873,39.933685],[-75.110794,39.932861],[-75.110824,39.93223],[-75.111067,39.931487],[-75.11163,39.930633],[-75.111879,39.930495],[-75.113859,39.928617],[-75.114671,39.927707],[-75.114529,39.927735],[-75.114529,39.92779],[-75.114458,39.927818],[-75.114458,39.927845],[-75.114387,39.927873],[-75.114387,39.927901],[-75.114352,39.927901],[-75.114352,39.927928],[-75.114316,39.927929],[-75.114352,39.927983],[-75.114246,39.928011],[-75.114282,39.928066],[-75.112655,39.929585],[-75.112513,39.929613],[-75.111276,39.930882],[-75.110647,39.932395],[-75.110808,39.934399],[-75.110416,39.934428],[-75.109011,39.932816],[-75.104496,39.930369],[-75.10521,39.930447],[-75.105032,39.930558],[-75.105676,39.930774],[-75.107029,39.93052],[-75.106777,39.930247],[-75.107311,39.930189],[-75.10731,39.930024],[-75.108094,39.929965],[-75.108162,39.929636],[-75.109012,39.928917],[-75.10861,39.927849],[-75.109071,39.927489],[-75.109056,39.925842],[-75.109343,39.92606],[-75.109406,39.925072],[-75.109833,39.925015],[-75.109973,39.924657],[-75.109757,39.924521],[-75.110148,39.924382],[-75.110106,39.92364],[-75.109534,39.923479],[-75.109494,39.922957],[-75.109139,39.923097],[-75.108674,39.922934],[-75.108564,39.92266],[-75.107781,39.922747],[-75.107171,39.922338],[-75.10685,39.922395],[-75.106486,39.921491],[-75.105661,39.921001],[-75.106149,39.91968],[-75.106002,39.919215],[-75.10625,39.918966],[-75.108959,39.918979],[-75.109278,39.918676],[-75.109989,39.918507],[-75.110346,39.918505],[-75.110669,39.918806],[-75.111417,39.918664],[-75.111561,39.918883],[-75.112127,39.918386],[-75.112415,39.918687],[-75.11252,39.918466],[-75.112948,39.918437],[-75.113016,39.918052],[-75.113836,39.918103],[-75.113802,39.918267],[-75.113232,39.918298],[-75.113559,39.91901],[-75.113772,39.918899],[-75.11352,39.918626],[-75.113946,39.918377],[-75.11427,39.918732],[-75.114337,39.91832],[-75.114051,39.918184],[-75.114691,39.918016],[-75.114334,39.91799],[-75.114332,39.917716],[-75.114686,39.917467],[-75.114151,39.917415],[-75.113719,39.916978],[-75.113291,39.91698],[-75.113326,39.916815],[-75.113825,39.916812],[-75.113822,39.91651],[-75.113324,39.916595],[-75.112501,39.91627],[-75.111925,39.915669],[-75.110356,39.91565],[-75.109144,39.915684],[-75.108652,39.916428],[-75.107514,39.916791],[-75.106943,39.916766],[-75.106584,39.916439],[-75.105583,39.916169],[-75.10491,39.91664],[-75.105483,39.916911],[-75.104842,39.917052],[-75.104773,39.917244],[-75.104167,39.917247],[-75.103879,39.917029],[-75.103777,39.917551],[-75.10335,39.917609],[-75.102345,39.916927],[-75.101775,39.916985],[-75.101489,39.916795],[-75.101431,39.91696],[-75.099865,39.913659],[-75.099497,39.913857],[-75.098545,39.91379],[-75.098005,39.914078],[-75.097647,39.913585],[-75.097222,39.913508],[-75.096244,39.913898],[-75.09453,39.911916],[-75.094744,39.911998],[-75.094921,39.911777],[-75.094456,39.91167],[-75.094306,39.910847],[-75.094093,39.910875],[-75.094061,39.911342],[-75.09327,39.91055],[-75.09358,39.909272],[-75.096955,39.908319],[-75.097411,39.907987],[-75.096981,39.906989],[-75.097232,39.907043],[-75.097408,39.906768],[-75.097088,39.906824],[-75.097227,39.906384],[-75.09672,39.905536],[-75.096434,39.9054],[-75.096367,39.905565],[-75.094606,39.901418],[-75.096041,39.901174],[-75.098716,39.901352],[-75.099217,39.901569],[-75.100535,39.90148],[-75.100425,39.901206],[-75.098393,39.901107],[-75.097963,39.900917],[-75.097853,39.900533],[-75.098279,39.900284],[-75.097674,39.900479],[-75.097572,39.900974],[-75.096252,39.900926],[-75.099414,39.89929],[-75.099624,39.899248],[-75.099449,39.899564],[-75.099558,39.899783],[-75.099909,39.899232],[-75.101289,39.898895],[-75.102259,39.899174],[-75.103243,39.900035],[-75.104877,39.900527],[-75.107941,39.900238],[-75.110063,39.89908],[-75.111838,39.898569],[-75.113326,39.899455],[-75.113874,39.901102],[-75.116358,39.902119],[-75.11655,39.902879],[-75.115194,39.902502],[-75.113112,39.900893],[-75.112397,39.900567],[-75.112822,39.90029],[-75.112745,39.899714],[-75.111742,39.899088],[-75.111315,39.899145],[-75.111814,39.899225],[-75.11264,39.899934],[-75.112574,39.900429],[-75.109613,39.900143],[-75.108263,39.900671],[-75.109011,39.900612],[-75.109157,39.901024],[-75.109544,39.900472],[-75.110648,39.900302],[-75.111585,39.901505],[-75.113733,39.902482],[-75.110587,39.901483],[-75.109552,39.901351],[-75.112768,39.902295],[-75.110877,39.90203],[-75.11013,39.902199],[-75.110593,39.902224],[-75.111062,39.902798],[-75.11095,39.902222],[-75.111985,39.902381],[-75.11192,39.903095],[-75.112785,39.904162],[-75.112277,39.903176],[-75.112379,39.902571],[-75.11363,39.902977],[-75.113674,39.903882],[-75.113774,39.903113],[-75.114416,39.903192],[-75.11402,39.9027],[-75.116513,39.903126],[-75.116286,39.90374],[-75.11488,39.9054],[-75.114715,39.906125],[-75.117488,39.90849],[-75.120177,39.908514],[-75.121403,39.907762],[-75.122836,39.907428],[-75.129344,39.907381],[-75.129091,39.911608],[-75.12984,39.915359],[-75.135874,39.927639],[-75.136621,39.93037],[-75.136805,39.937021],[-75.136556,39.941533],[-75.135631,39.947459],[-75.134194,39.952774],[-75.124119,39.951075],[-75.122224,39.950563],[-75.120575,39.949721],[-75.119711,39.94882],[-75.120134,39.948213],[-75.119813,39.948215],[-75.11956,39.947887],[-75.119555,39.947338],[-75.120375,39.947279],[-75.12048,39.947058]],[[-75.11533,39.929598],[-75.115365,39.92957],[-75.115329,39.92957],[-75.11533,39.929598]],[[-75.116203,39.911693],[-75.116239,39.911748],[-75.116239,39.911693],[-75.116203,39.911693]],[[-75.115378,39.911066],[-75.115342,39.911039],[-75.115342,39.911066],[-75.115378,39.911066]],[[-75.116109,39.91713],[-75.116073,39.917075],[-75.116074,39.91713],[-75.116109,39.91713]],[[-75.114566,39.927955],[-75.11453,39.927927],[-75.114531,39.927955],[-75.114566,39.927955]],[[-75.114496,39.928065],[-75.114425,39.928093],[-75.114496,39.928092],[-75.114496,39.928065]],[[-75.114425,39.928093],[-75.114389,39.92812],[-75.114425,39.92812],[-75.114425,39.928093]],[[-75.110861,39.932312],[-75.110896,39.932257],[-75.11086,39.932257],[-75.110861,39.932312]],[[-75.114671,39.927707],[-75.114706,39.927679],[-75.114671,39.92768],[-75.114671,39.927707]],[[-75.114706,39.927624],[-75.114848,39.927596],[-75.114812,39.927514],[-75.114741,39.927542],[-75.114706,39.927624]],[[-75.114848,39.927541],[-75.114883,39.927514],[-75.114848,39.927514],[-75.114848,39.927541]],[[-75.114883,39.927514],[-75.114919,39.927486],[-75.114883,39.927486],[-75.114883,39.927514]],[[-75.114918,39.927431],[-75.11499,39.927458],[-75.114989,39.927403],[-75.114918,39.927431]],[[-75.114989,39.927403],[-75.115025,39.927376],[-75.114989,39.927376],[-75.114989,39.927403]],[[-75.115025,39.927376],[-75.11506,39.927348],[-75.115024,39.927348],[-75.115025,39.927376]],[[-75.115024,39.927348],[-75.114988,39.927321],[-75.114989,39.927348],[-75.115024,39.927348]],[[-75.109138,39.922987],[-75.109173,39.922959],[-75.109137,39.922959],[-75.109138,39.922987]],[[-75.104736,39.917135],[-75.1047,39.917107],[-75.1047,39.917135],[-75.104736,39.917135]],[[-75.094997,39.912408],[-75.095033,39.912435],[-75.095033,39.912408],[-75.094997,39.912408]],[[-75.094921,39.911777],[-75.094956,39.911749],[-75.09492,39.91175],[-75.094921,39.911777]],[[-75.094956,39.911749],[-75.094991,39.911722],[-75.094956,39.911722],[-75.094956,39.911749]],[[-75.09395,39.910849],[-75.093984,39.910656],[-75.093877,39.910712],[-75.09395,39.910849]],[[-75.10057,39.901398],[-75.100641,39.901425],[-75.100641,39.901397],[-75.10057,39.901398]],[[-75.099628,39.899728],[-75.099664,39.899783],[-75.099664,39.899728],[-75.099628,39.899728]],[[-75.111315,39.899145],[-75.111279,39.899173],[-75.111315,39.899173],[-75.111315,39.899145]],[[-75.114416,39.903192],[-75.114488,39.903219],[-75.114487,39.903192],[-75.114416,39.903192]],[[-75.120375,39.947279],[-75.120411,39.947306],[-75.12041,39.947278],[-75.120375,39.947279]],[[-75.095169,39.911638],[-75.09506,39.911392],[-75.095027,39.911694],[-75.095169,39.911638]],[[-75.09506,39.911392],[-75.095023,39.91131],[-75.095024,39.911392],[-75.09506,39.911392]],[[-75.095023,39.91131],[-75.09495,39.911118],[-75.094988,39.91131],[-75.095023,39.91131]],[[-75.09495,39.911118],[-75.094914,39.911063],[-75.094915,39.911118],[-75.09495,39.911118]],[[-75.094914,39.911063],[-75.094878,39.910981],[-75.094879,39.911063],[-75.094914,39.911063]],[[-75.094878,39.910981],[-75.094806,39.910844],[-75.094842,39.910981],[-75.094878,39.910981]],[[-75.094805,39.910734],[-75.094659,39.910351],[-75.094587,39.910296],[-75.094483,39.910709],[-75.094805,39.910734]],[[-75.094483,39.910709],[-75.094448,39.910736],[-75.094484,39.910736],[-75.094483,39.910709]]],[[[-75.116163,39.927123],[-75.116092,39.927068],[-75.116161,39.926903],[-75.116163,39.927123]]],[[[-75.114812,39.927542],[-75.114777,39.927569],[-75.114776,39.927542],[-75.114812,39.927542]]],[[[-75.114494,39.927873],[-75.114458,39.927845],[-75.114494,39.927845],[-75.114494,39.927873]]],[[[-75.114423,39.9279],[-75.114458,39.927873],[-75.114459,39.9279],[-75.114423,39.9279]]],[[[-75.114388,39.927928],[-75.114423,39.9279],[-75.114423,39.927928],[-75.114388,39.927928]]],[[[-75.112727,39.929612],[-75.112762,39.929584],[-75.112762,39.929611],[-75.112727,39.929612]]],[[[-75.10439,39.930452],[-75.104425,39.930479],[-75.10439,39.930479],[-75.10439,39.930452]]],[[[-75.104497,39.930478],[-75.104426,39.930506],[-75.104425,39.930479],[-75.104497,39.930478]]],[[[-75.111873,39.937907],[-75.11191,39.937962],[-75.111874,39.937962],[-75.111873,39.937907]]],[[[-75.11191,39.938044],[-75.111946,39.938071],[-75.11191,39.938072],[-75.11191,39.938044]]],[[[-75.111947,39.938154],[-75.111983,39.938236],[-75.111948,39.938236],[-75.111947,39.938154]]],[[[-75.111984,39.938263],[-75.112019,39.938291],[-75.111984,39.938291],[-75.111984,39.938263]]],[[[-75.112571,39.9401],[-75.112499,39.940128],[-75.112499,39.940045],[-75.112571,39.9401]]],[[[-75.113665,39.942867],[-75.114128,39.942782],[-75.114092,39.942727],[-75.11427,39.942726],[-75.114235,39.942809],[-75.113986,39.942865],[-75.113665,39.942867]],[[-75.114235,39.942781],[-75.114164,39.942754],[-75.114164,39.942782],[-75.114235,39.942781]]],[[[-75.114022,39.942892],[-75.113986,39.942865],[-75.114022,39.942865],[-75.114022,39.942892]]],[[[-75.11413,39.942947],[-75.116161,39.942716],[-75.116449,39.943017],[-75.114881,39.943217],[-75.11413,39.942947]]],[[[-75.111567,39.943537],[-75.111246,39.943511],[-75.111566,39.943399],[-75.111567,39.943537]]],[[[-75.119147,39.953545],[-75.118717,39.953327],[-75.119574,39.953432],[-75.119571,39.953103],[-75.118999,39.952886],[-75.119996,39.952716],[-75.119459,39.952527],[-75.120064,39.952332],[-75.119562,39.952032],[-75.119988,39.951838],[-75.120204,39.952111],[-75.12038,39.951753],[-75.120165,39.951645],[-75.120414,39.951671],[-75.119979,39.95085],[-75.120513,39.950737],[-75.12012,39.950684],[-75.12015,39.95008],[-75.119687,39.950165],[-75.11986,39.949533],[-75.121403,39.950513],[-75.123263,39.951134],[-75.134099,39.953052],[-75.132573,39.956557],[-75.130162,39.959455],[-75.125749,39.962444],[-75.122172,39.964298],[-75.119748,39.96171],[-75.118447,39.960723],[-75.115839,39.959328],[-75.110143,39.958016],[-75.108033,39.958011],[-75.106227,39.958401],[-75.104126,39.95944],[-75.096972,39.964978],[-75.093629,39.966868],[-75.088069,39.969382],[-75.083485,39.963154],[-75.084807,39.963414],[-75.084953,39.963743],[-75.085416,39.963658],[-75.086312,39.964148],[-75.086953,39.96398],[-75.087674,39.964855],[-75.088705,39.964465],[-75.088809,39.96408],[-75.088413,39.96367],[-75.088661,39.963449],[-75.088338,39.963259],[-75.088478,39.962984],[-75.088263,39.96282],[-75.088475,39.962544],[-75.088261,39.9626],[-75.08815,39.962189],[-75.08847,39.96205],[-75.088253,39.961612],[-75.088573,39.961583],[-75.088391,39.961172],[-75.088605,39.961061],[-75.088244,39.960569],[-75.088032,39.960845],[-75.08742,39.960244],[-75.087099,39.960245],[-75.08731,39.959887],[-75.087525,39.959941],[-75.087235,39.959476],[-75.087411,39.959173],[-75.086688,39.958106],[-75.087047,39.958269],[-75.08726,39.958158],[-75.087043,39.95783],[-75.086579,39.957805],[-75.086646,39.957337],[-75.086143,39.956928],[-75.086211,39.956544],[-75.085888,39.956326],[-75.085354,39.956411],[-75.085281,39.956219],[-75.085212,39.956466],[-75.084996,39.956275],[-75.087334,39.954342],[-75.08769,39.954285],[-75.088016,39.954832],[-75.088659,39.954939],[-75.088769,39.95524],[-75.088555,39.955324],[-75.089875,39.95529],[-75.089843,39.955701],[-75.090631,39.956082],[-75.090993,39.956657],[-75.091529,39.956791],[-75.092419,39.956539],[-75.092563,39.956786],[-75.092249,39.957584],[-75.092645,39.957911],[-75.092614,39.958488],[-75.092971,39.958568],[-75.092728,39.959366],[-75.093159,39.959665],[-75.093172,39.96112],[-75.094106,39.961939],[-75.095247,39.961769],[-75.095883,39.961079],[-75.096487,39.960856],[-75.096368,39.959429],[-75.095974,39.959212],[-75.095354,39.95776],[-75.095949,39.956357],[-75.095838,39.955918],[-75.097923,39.953656],[-75.097562,39.953191],[-75.097954,39.953107],[-75.097524,39.952917],[-75.097556,39.952422],[-75.097306,39.952451],[-75.097729,39.951872],[-75.09737,39.951545],[-75.097368,39.951408],[-75.097691,39.951543],[-75.097329,39.950996],[-75.097541,39.950803],[-75.097113,39.950723],[-75.096644,39.950094],[-75.096038,39.950152],[-75.096071,39.949904],[-75.095539,39.950237],[-75.096069,39.949657],[-75.095997,39.94963],[-75.095432,39.95021],[-75.095003,39.950184],[-75.09348,39.951345],[-75.092016,39.95127],[-75.091411,39.951383],[-75.091447,39.951465],[-75.091304,39.951439],[-75.091305,39.951466],[-75.091269,39.951466],[-75.091197,39.951329],[-75.091941,39.950831],[-75.091905,39.950722],[-75.094597,39.948567],[-75.094561,39.948512],[-75.095307,39.948151],[-75.095271,39.948097],[-75.095449,39.948041],[-75.095554,39.947875],[-75.095483,39.947876],[-75.095483,39.947903],[-75.095412,39.947904],[-75.095341,39.947959],[-75.09527,39.947959],[-75.095092,39.94807],[-75.095021,39.94807],[-75.095021,39.948043],[-75.095625,39.947793],[-75.095695,39.947683],[-75.096832,39.94721],[-75.097944,39.947891],[-75.098157,39.94778],[-75.09848,39.94797],[-75.098551,39.947915],[-75.097511,39.947289],[-75.097118,39.947181],[-75.09708,39.946989],[-75.097009,39.946989],[-75.097009,39.947017],[-75.096973,39.947017],[-75.096974,39.947099],[-75.096544,39.946855],[-75.096367,39.946965],[-75.096689,39.947101],[-75.096761,39.947238],[-75.096583,39.947184],[-75.096583,39.947211],[-75.096511,39.947212],[-75.096512,39.947239],[-75.09644,39.947239],[-75.096441,39.947267],[-75.096369,39.947267],[-75.09637,39.947295],[-75.096298,39.947295],[-75.096263,39.94735],[-75.096192,39.947351],[-75.096192,39.947378],[-75.096156,39.947378],[-75.096157,39.947433],[-75.096085,39.947406],[-75.096085,39.947433],[-75.096014,39.947434],[-75.096014,39.947461],[-75.095943,39.947462],[-75.095943,39.947489],[-75.095907,39.947489],[-75.095908,39.947517],[-75.095836,39.947517],[-75.095766,39.947572],[-75.095694,39.947573],[-75.095694,39.9476],[-75.095623,39.947601],[-75.094948,39.947906],[-75.093707,39.948763],[-75.093101,39.948821],[-75.093988,39.948295],[-75.093384,39.948573],[-75.093169,39.948464],[-75.092956,39.948575],[-75.092957,39.948603],[-75.092921,39.948603],[-75.092921,39.948658],[-75.09285,39.948713],[-75.092743,39.948713],[-75.092637,39.948824],[-75.092884,39.948521],[-75.09242,39.948441],[-75.092417,39.948139],[-75.091525,39.948033],[-75.091234,39.947431],[-75.090806,39.947406],[-75.090804,39.947131],[-75.091268,39.947156],[-75.091118,39.946306],[-75.0914,39.946002],[-75.091079,39.945922],[-75.091004,39.945538],[-75.090684,39.945677],[-75.090539,39.945348],[-75.09047,39.945678],[-75.089864,39.945653],[-75.089327,39.945436],[-75.089252,39.945052],[-75.088823,39.944945],[-75.088539,39.945111],[-75.088288,39.94492],[-75.088319,39.944426],[-75.087962,39.944373],[-75.08785,39.943797],[-75.087463,39.94443],[-75.087385,39.943579],[-75.086991,39.943389],[-75.087273,39.943031],[-75.086808,39.942841],[-75.086877,39.942594],[-75.08659,39.942403],[-75.086837,39.942045],[-75.086338,39.94213],[-75.086335,39.941773],[-75.085979,39.94183],[-75.085404,39.941311],[-75.083757,39.940578],[-75.089268,39.935738],[-75.089851,39.936182],[-75.090135,39.936064],[-75.090084,39.935271],[-75.089724,39.934693],[-75.088931,39.934367],[-75.087064,39.93482],[-75.08639,39.934661],[-75.086313,39.932656],[-75.085922,39.931765],[-75.087362,39.929346],[-75.087435,39.927986],[-75.087105,39.927059],[-75.086365,39.926725],[-75.083626,39.926701],[-75.08138,39.925993],[-75.085571,39.923959],[-75.085544,39.924289],[-75.086116,39.924505],[-75.086651,39.924448],[-75.086688,39.92464],[-75.087115,39.924555],[-75.087152,39.92472],[-75.088974,39.92515],[-75.089794,39.925063],[-75.09101,39.925469],[-75.091182,39.924727],[-75.090466,39.924401],[-75.090855,39.924125],[-75.091608,39.924533],[-75.091611,39.924862],[-75.092041,39.925134],[-75.091902,39.925629],[-75.092654,39.925955],[-75.092657,39.926312],[-75.093623,39.926691],[-75.094551,39.926769],[-75.094412,39.927154],[-75.093593,39.927295],[-75.09381,39.927706],[-75.093599,39.927954],[-75.092208,39.927989],[-75.092278,39.927796],[-75.091921,39.92777],[-75.091704,39.927387],[-75.091312,39.927499],[-75.091245,39.927966],[-75.090139,39.927944],[-75.08978,39.927562],[-75.089143,39.928224],[-75.089936,39.929208],[-75.089979,39.930004],[-75.089131,39.930942],[-75.092249,39.932793],[-75.093511,39.934379],[-75.094439,39.934374],[-75.094725,39.934565],[-75.094622,39.935004],[-75.095018,39.935359],[-75.094843,39.935827],[-75.095063,39.93643],[-75.095846,39.936261],[-75.095426,39.937169],[-75.095823,39.937744],[-75.096747,39.937355],[-75.098281,39.937456],[-75.099171,39.937287],[-75.09963,39.936708],[-75.100881,39.937059],[-75.101665,39.937],[-75.100629,39.936731],[-75.100626,39.936456],[-75.101233,39.936453],[-75.100943,39.935905],[-75.100622,39.935907],[-75.100473,39.935194],[-75.100827,39.934945],[-75.100505,39.934864],[-75.100537,39.934343],[-75.101323,39.934586],[-75.101355,39.934119],[-75.10107,39.934148],[-75.100852,39.933682],[-75.101278,39.933515],[-75.101637,39.93376],[-75.101596,39.933157],[-75.101917,39.9331],[-75.101665,39.932882],[-75.101696,39.93236],[-75.102267,39.932384],[-75.101836,39.932057],[-75.102264,39.932],[-75.102225,39.931698],[-75.103223,39.931611],[-75.103255,39.931171],[-75.103469,39.931198],[-75.103573,39.930895],[-75.104393,39.930808],[-75.104354,39.930507],[-75.107112,39.93181],[-75.108941,39.933008],[-75.109732,39.933745],[-75.110309,39.934429],[-75.111254,39.936428],[-75.1117,39.938512],[-75.111162,39.938158],[-75.111274,39.938679],[-75.110846,39.938681],[-75.110696,39.937913],[-75.11034,39.937888],[-75.111087,39.937719],[-75.110834,39.937309],[-75.11119,39.937252],[-75.110615,39.936761],[-75.11097,39.936594],[-75.110612,39.936459],[-75.110789,39.936238],[-75.110281,39.935253],[-75.108749,39.935508],[-75.108536,39.935619],[-75.108717,39.935865],[-75.10829,39.936004],[-75.108613,39.936222],[-75.108689,39.936771],[-75.10812,39.936884],[-75.108016,39.937323],[-75.107198,39.93752],[-75.107057,39.93774],[-75.107773,39.938039],[-75.107348,39.93837],[-75.107742,39.938533],[-75.108096,39.938202],[-75.108385,39.938639],[-75.107852,39.938917],[-75.107965,39.939602],[-75.107467,39.939687],[-75.109218,39.940063],[-75.109677,39.939566],[-75.110076,39.94036],[-75.110784,39.939697],[-75.110781,39.939368],[-75.110996,39.939504],[-75.111848,39.939115],[-75.112359,39.94032],[-75.11226,39.941282],[-75.112657,39.941774],[-75.112735,39.942597],[-75.111032,39.943567],[-75.106298,39.944635],[-75.108898,39.944292],[-75.110856,39.943788],[-75.111213,39.943896],[-75.111247,39.943703],[-75.112421,39.943368],[-75.112807,39.942569],[-75.113235,39.942595],[-75.112852,39.943612],[-75.11157,39.943839],[-75.111073,39.944198],[-75.110934,39.944611],[-75.11133,39.944966],[-75.110831,39.945051],[-75.110834,39.945353],[-75.112618,39.945426],[-75.112254,39.944576],[-75.112752,39.944436],[-75.112972,39.945122],[-75.113688,39.945392],[-75.114054,39.946461],[-75.110517,39.945848],[-75.110984,39.94623],[-75.109306,39.946019],[-75.109379,39.946156],[-75.10881,39.946406],[-75.109572,39.94783],[-75.110292,39.948595],[-75.110446,39.949802],[-75.110805,39.95013],[-75.110669,39.950817],[-75.111529,39.951334],[-75.111033,39.951638],[-75.111247,39.951692],[-75.111144,39.952159],[-75.111832,39.953336],[-75.111729,39.953694],[-75.112658,39.953854],[-75.113019,39.954373],[-75.113411,39.954344],[-75.113879,39.954835],[-75.114236,39.954834],[-75.114376,39.954586],[-75.114773,39.955023],[-75.116275,39.955427],[-75.116172,39.955894],[-75.11628,39.956031],[-75.117133,39.955724],[-75.117343,39.955174],[-75.117878,39.955171],[-75.117481,39.954679],[-75.117802,39.954677],[-75.11826,39.954098],[-75.118689,39.954178],[-75.118615,39.953822],[-75.119147,39.953545]],[[-75.092725,39.958954],[-75.092689,39.958981],[-75.092725,39.958981],[-75.092725,39.958954]],[[-75.09598,39.95589],[-75.096016,39.955917],[-75.096016,39.95589],[-75.09598,39.95589]],[[-75.096107,39.949904],[-75.096392,39.949875],[-75.096533,39.949682],[-75.096318,39.949574],[-75.096107,39.949904]],[[-75.092047,39.950639],[-75.092083,39.950666],[-75.092082,39.950639],[-75.092047,39.950639]],[[-75.095554,39.947848],[-75.095626,39.94793],[-75.095697,39.947847],[-75.095804,39.947874],[-75.095874,39.947764],[-75.095803,39.947737],[-75.095803,39.947764],[-75.095732,39.947765],[-75.095732,39.947792],[-75.09566,39.947793],[-75.095661,39.94782],[-75.095625,39.94782],[-75.095625,39.947848],[-75.095554,39.947848]],[[-75.095626,39.94793],[-75.095591,39.947958],[-75.095626,39.947957],[-75.095626,39.94793]],[[-75.095697,39.947875],[-75.095733,39.947902],[-75.095732,39.947875],[-75.095697,39.947875]],[[-75.097834,39.947479],[-75.097869,39.947452],[-75.097833,39.947452],[-75.097834,39.947479]],[[-75.097511,39.947289],[-75.097546,39.947261],[-75.097511,39.947261],[-75.097511,39.947289]],[[-75.097294,39.947015],[-75.097259,39.947071],[-75.097437,39.94696],[-75.097294,39.946906],[-75.09733,39.94696],[-75.097258,39.946961],[-75.097294,39.947015]],[[-75.09733,39.947043],[-75.097295,39.947098],[-75.097437,39.947042],[-75.09733,39.947043]],[[-75.097295,39.947098],[-75.097224,39.947126],[-75.097295,39.947125],[-75.097295,39.947098]],[[-75.097437,39.947042],[-75.097473,39.947015],[-75.097437,39.947015],[-75.097437,39.947042]],[[-75.097473,39.947015],[-75.097544,39.946987],[-75.097473,39.946987],[-75.097473,39.947015]],[[-75.097544,39.946959],[-75.097615,39.946959],[-75.098042,39.946792],[-75.097863,39.94682],[-75.09772,39.946766],[-75.097649,39.946794],[-75.097793,39.946876],[-75.097544,39.946959]],[[-75.098042,39.946792],[-75.098113,39.946764],[-75.098041,39.946764],[-75.098042,39.946792]],[[-75.098113,39.946764],[-75.098184,39.946736],[-75.098112,39.946737],[-75.098113,39.946764]],[[-75.098184,39.946736],[-75.098219,39.946709],[-75.098184,39.946709],[-75.098184,39.946736]],[[-75.097899,39.946793],[-75.098005,39.946737],[-75.097969,39.946628],[-75.097791,39.946683],[-75.097899,39.946793]],[[-75.098005,39.94671],[-75.09804,39.946655],[-75.098005,39.946655],[-75.098005,39.94671]],[[-75.097471,39.946795],[-75.097615,39.946904],[-75.097613,39.946767],[-75.097471,39.946795]],[[-75.097613,39.946767],[-75.097684,39.946739],[-75.097613,39.946739],[-75.097613,39.946767]],[[-75.097684,39.946739],[-75.097756,39.946711],[-75.097684,39.946711],[-75.097684,39.946739]],[[-75.097471,39.946822],[-75.0974,39.94685],[-75.097471,39.94685],[-75.097471,39.946822]],[[-75.097365,39.946905],[-75.0974,39.946878],[-75.097365,39.946878],[-75.097365,39.946905]],[[-75.097365,39.946878],[-75.097329,39.946851],[-75.097329,39.946878],[-75.097365,39.946878]],[[-75.097187,39.946961],[-75.097151,39.946934],[-75.097151,39.946961],[-75.097187,39.946961]],[[-75.09708,39.946989],[-75.097116,39.946961],[-75.09708,39.946962],[-75.09708,39.946989]],[[-75.096795,39.946991],[-75.096866,39.946963],[-75.096795,39.946963],[-75.096795,39.946991]],[[-75.096866,39.946963],[-75.096901,39.946935],[-75.096866,39.946935],[-75.096866,39.946963]],[[-75.096546,39.947102],[-75.096475,39.947129],[-75.096546,39.947129],[-75.096546,39.947102]],[[-75.096475,39.947157],[-75.096368,39.947157],[-75.096369,39.947185],[-75.096475,39.947157]],[[-75.09669,39.947183],[-75.096654,39.947156],[-75.096654,39.947183],[-75.09669,39.947183]],[[-75.093671,39.948709],[-75.093706,39.948681],[-75.093671,39.948681],[-75.093671,39.948709]],[[-75.093988,39.948268],[-75.094059,39.948267],[-75.094166,39.948212],[-75.093988,39.948268]],[[-75.094166,39.948185],[-75.094237,39.948184],[-75.094308,39.948129],[-75.094166,39.948185]],[[-75.093312,39.948409],[-75.093561,39.948352],[-75.09356,39.948297],[-75.093312,39.948409]],[[-75.100689,39.935495],[-75.100725,39.935467],[-75.100689,39.935467],[-75.100689,39.935495]],[[-75.109049,39.933118],[-75.109014,39.933145],[-75.109049,39.933145],[-75.109049,39.933118]],[[-75.119327,39.953708],[-75.119184,39.953682],[-75.119114,39.953847],[-75.119327,39.953708]]],[[[-75.11763,39.947485],[-75.117243,39.948064],[-75.116169,39.947685],[-75.11542,39.947689],[-75.115272,39.947086],[-75.114268,39.94646],[-75.113903,39.945474],[-75.114441,39.945855],[-75.1143,39.945993],[-75.116018,39.946753],[-75.115944,39.946451],[-75.114978,39.946044],[-75.11451,39.94558],[-75.115654,39.945849],[-75.116375,39.946723],[-75.117629,39.947321],[-75.11763,39.947485]],[[-75.117523,39.947513],[-75.117487,39.947486],[-75.117488,39.947514],[-75.117523,39.947513]]],[[[-75.110818,39.947576],[-75.110277,39.946865],[-75.110705,39.946918],[-75.111307,39.946366],[-75.111278,39.947135],[-75.111598,39.947023],[-75.111564,39.94727],[-75.110818,39.947576]]],[[[-75.099661,39.899426],[-75.099697,39.89948],[-75.099662,39.899481],[-75.099661,39.899426]]],[[[-75.097898,39.946738],[-75.097827,39.946711],[-75.097827,39.946683],[-75.097898,39.946738]]],[[[-75.097863,39.94682],[-75.097792,39.946848],[-75.097792,39.946821],[-75.097863,39.94682]]],[[[-75.097366,39.946988],[-75.09733,39.94696],[-75.097365,39.94696],[-75.097366,39.946988]]],[[[-75.097045,39.947044],[-75.097009,39.947017],[-75.097045,39.947017],[-75.097045,39.947044]]],[[[-75.097045,39.947044],[-75.097081,39.947071],[-75.097045,39.947072],[-75.097045,39.947044]]],[[[-75.096619,39.947239],[-75.096583,39.947211],[-75.096618,39.947211],[-75.096619,39.947239]]],[[[-75.096548,39.947266],[-75.096584,39.947294],[-75.096548,39.947294],[-75.096548,39.947266]]],[[[-75.096477,39.947294],[-75.096441,39.947267],[-75.096476,39.947267],[-75.096477,39.947294]]],[[[-75.097475,39.947316],[-75.097511,39.947344],[-75.097476,39.947344],[-75.097475,39.947316]]],[[[-75.09637,39.94735],[-75.096406,39.947377],[-75.09637,39.947377],[-75.09637,39.94735]]],[[[-75.096299,39.947377],[-75.096263,39.94735],[-75.096299,39.94735],[-75.096299,39.947377]]],[[[-75.096228,39.947405],[-75.096192,39.947378],[-75.096228,39.947378],[-75.096228,39.947405]]],[[[-75.096121,39.947461],[-75.096085,39.947433],[-75.096121,39.947433],[-75.096121,39.947461]]],[[[-75.096014,39.947489],[-75.096014,39.947461],[-75.09605,39.947461],[-75.09605,39.947489],[-75.096014,39.947489]]],[[[-75.096086,39.947516],[-75.09605,39.947489],[-75.096086,39.947488],[-75.096086,39.947516]]],[[[-75.095943,39.947517],[-75.095943,39.947489],[-75.095979,39.947489],[-75.095979,39.947516],[-75.095943,39.947517]]],[[[-75.096015,39.947544],[-75.095979,39.947516],[-75.096015,39.947516],[-75.096015,39.947544]]],[[[-75.095801,39.9476],[-75.095766,39.947572],[-75.095801,39.947572],[-75.095801,39.9476]]],[[[-75.095839,39.947792],[-75.095803,39.947764],[-75.095839,39.947764],[-75.095839,39.947792]]],[[[-75.095732,39.94782],[-75.095803,39.947792],[-75.095804,39.947847],[-75.095732,39.94782]]],[[[-75.095697,39.947847],[-75.095661,39.94782],[-75.095696,39.94782],[-75.095697,39.947847]]],[[[-75.095661,39.947875],[-75.095625,39.947848],[-75.095661,39.947847],[-75.095661,39.947875]]],[[[-75.095519,39.947931],[-75.095483,39.947903],[-75.095519,39.947903],[-75.095519,39.947931]]],[[[-75.095198,39.947905],[-75.095234,39.947932],[-75.095198,39.947932],[-75.095198,39.947905]]],[[[-75.095305,39.947987],[-75.095448,39.948013],[-75.095306,39.948041],[-75.095305,39.947987]]],[[[-75.095306,39.948069],[-75.095234,39.948014],[-75.09527,39.948014],[-75.095306,39.948069]]],[[[-75.095199,39.948042],[-75.095163,39.94807],[-75.095163,39.948042],[-75.095199,39.948042]]],[[[-75.095128,39.948097],[-75.0952,39.948124],[-75.095128,39.948125],[-75.095128,39.948097]]],[[[-75.094782,39.912244],[-75.094761,39.912272],[-75.094746,39.912245],[-75.094782,39.912244]]],[[[-75.094786,39.912299],[-75.094818,39.912327],[-75.094811,39.912327],[-75.094786,39.912299]]],[[[-75.095091,39.947933],[-75.095056,39.947988],[-75.095055,39.947933],[-75.095091,39.947933]]],[[[-75.09502,39.947988],[-75.095056,39.948015],[-75.09502,39.948015],[-75.09502,39.947988]]],[[[-75.095092,39.948097],[-75.095092,39.94807],[-75.095128,39.94807],[-75.095128,39.948097],[-75.095092,39.948097]]],[[[-75.094949,39.948071],[-75.094986,39.948125],[-75.094914,39.948126],[-75.094949,39.948071]]],[[[-75.095057,39.948098],[-75.095093,39.948125],[-75.095057,39.948125],[-75.095057,39.948098]]],[[[-75.095093,39.948152],[-75.095128,39.948125],[-75.095129,39.948152],[-75.095093,39.948152]]],[[[-75.094843,39.948154],[-75.094914,39.948126],[-75.094914,39.948153],[-75.094843,39.948154]]],[[[-75.094808,39.948181],[-75.094843,39.948154],[-75.094843,39.948181],[-75.094808,39.948181]]],[[[-75.094986,39.948125],[-75.095022,39.948235],[-75.094915,39.948236],[-75.094986,39.948125]]],[[[-75.094772,39.948209],[-75.094808,39.948181],[-75.094808,39.948209],[-75.094772,39.948209]]],[[[-75.09488,39.948291],[-75.094915,39.948236],[-75.094916,39.948291],[-75.09488,39.948291]]],[[[-75.094845,39.948318],[-75.094773,39.948291],[-75.094844,39.948263],[-75.094845,39.948318]]],[[[-75.094738,39.948346],[-75.094774,39.948374],[-75.094738,39.948374],[-75.094738,39.948346]]],[[[-75.094702,39.948347],[-75.094632,39.948429],[-75.09456,39.948375],[-75.094702,39.948347]]],[[[-75.094596,39.948429],[-75.094632,39.948457],[-75.094596,39.948457],[-75.094596,39.948429]]],[[[-75.094525,39.948457],[-75.09456,39.94843],[-75.09456,39.948457],[-75.094525,39.948457]]],[[[-75.094489,39.948485],[-75.094525,39.948457],[-75.094525,39.948485],[-75.094489,39.948485]]],[[[-75.094454,39.94854],[-75.094418,39.948513],[-75.094454,39.948513],[-75.094454,39.94854]]],[[[-75.094561,39.948539],[-75.094526,39.948567],[-75.094525,39.94854],[-75.094561,39.948539]]],[[[-75.094383,39.948568],[-75.094418,39.94854],[-75.094419,39.948568],[-75.094383,39.948568]]],[[[-75.094526,39.948567],[-75.09449,39.948595],[-75.09449,39.948567],[-75.094526,39.948567]]],[[[-75.094348,39.948595],[-75.094383,39.948568],[-75.094383,39.948595],[-75.094348,39.948595]]],[[[-75.09449,39.948595],[-75.094455,39.948622],[-75.094455,39.948595],[-75.09449,39.948595]]],[[[-75.094455,39.948622],[-75.094419,39.94865],[-75.094419,39.948623],[-75.094455,39.948622]]],[[[-75.094384,39.94865],[-75.09442,39.948677],[-75.094384,39.948678],[-75.094384,39.94865]]],[[[-75.094384,39.948678],[-75.094349,39.948705],[-75.094348,39.948678],[-75.094384,39.948678]]],[[[-75.094313,39.948705],[-75.094349,39.948733],[-75.094313,39.948733],[-75.094313,39.948705]]],[[[-75.091912,39.922554],[-75.091554,39.922419],[-75.091662,39.922501],[-75.091591,39.922556],[-75.089944,39.92179],[-75.091422,39.921065],[-75.093648,39.920431],[-75.09478,39.920288],[-75.095353,39.920505],[-75.095992,39.920227],[-75.096137,39.920474],[-75.0966,39.920499],[-75.096353,39.920747],[-75.096533,39.920966],[-75.095717,39.921354],[-75.095718,39.921574],[-75.095148,39.921577],[-75.095192,39.92251],[-75.09601,39.922341],[-75.09644,39.922559],[-75.096697,39.923408],[-75.096413,39.923602],[-75.095986,39.923632],[-75.095053,39.923005],[-75.09545,39.92347],[-75.094774,39.923638],[-75.095062,39.923993],[-75.094601,39.924298],[-75.091985,39.922774],[-75.091912,39.922554]],[[-75.091483,39.922419],[-75.091518,39.922392],[-75.091446,39.922337],[-75.091483,39.922419]],[[-75.092091,39.922691],[-75.092092,39.922773],[-75.092163,39.922773],[-75.092091,39.922691]]],[[[-75.091949,39.922691],[-75.091841,39.922637],[-75.091948,39.922664],[-75.091949,39.922691]]],[[[-75.087423,39.923044],[-75.087383,39.923044],[-75.087423,39.923024],[-75.087423,39.923044]]],[[[-75.092787,39.924801],[-75.092746,39.92417],[-75.091065,39.923602],[-75.090453,39.922919],[-75.090097,39.922975],[-75.089559,39.922621],[-75.089132,39.922706],[-75.08913,39.922486],[-75.088524,39.922497],[-75.089909,39.921851],[-75.094066,39.9243],[-75.093961,39.924493],[-75.093639,39.92444],[-75.093749,39.924769],[-75.093466,39.92499],[-75.092787,39.924801]]],[[[-75.09317,39.948519],[-75.093134,39.948547],[-75.093134,39.948519],[-75.09317,39.948519]]],[[[-75.094312,39.948623],[-75.094348,39.948595],[-75.094348,39.948623],[-75.094312,39.948623]]],[[[-75.092992,39.94863],[-75.092957,39.948603],[-75.092992,39.948602],[-75.092992,39.94863]]],[[[-75.094277,39.948651],[-75.094312,39.948623],[-75.094312,39.948651],[-75.094277,39.948651]]],[[[-75.094241,39.948678],[-75.094277,39.948651],[-75.094277,39.948678],[-75.094241,39.948678]]],[[[-75.094206,39.948706],[-75.094241,39.948678],[-75.094242,39.948706],[-75.094206,39.948706]]],[[[-75.09417,39.948734],[-75.094206,39.948706],[-75.094206,39.948733],[-75.09417,39.948734]]],[[[-75.094171,39.948761],[-75.094135,39.948734],[-75.09417,39.948734],[-75.094171,39.948761]]],[[[-75.094242,39.948761],[-75.094278,39.948788],[-75.094242,39.948788],[-75.094242,39.948761]]],[[[-75.094171,39.948816],[-75.094207,39.948843],[-75.094171,39.948843],[-75.094171,39.948816]]],[[[-75.092959,39.948905],[-75.092995,39.948877],[-75.092995,39.948904],[-75.092959,39.948905]]],[[[-75.094065,39.948899],[-75.094101,39.948926],[-75.094065,39.948926],[-75.094065,39.948899]]],[[[-75.092924,39.948932],[-75.092959,39.948905],[-75.092959,39.948932],[-75.092924,39.948932]]],[[[-75.092496,39.948934],[-75.092388,39.94888],[-75.092495,39.948879],[-75.092496,39.948934]]],[[[-75.092888,39.94896],[-75.092924,39.948932],[-75.092924,39.94896],[-75.092888,39.94896]]],[[[-75.092853,39.948987],[-75.092888,39.94896],[-75.092889,39.948987],[-75.092853,39.948987]]],[[[-75.092034,39.949156],[-75.092106,39.949211],[-75.092034,39.949211],[-75.092034,39.949156]]],[[[-75.09187,39.950804],[-75.091834,39.950832],[-75.091834,39.950805],[-75.09187,39.950804]]],[[[-75.091126,39.951412],[-75.091197,39.951357],[-75.091197,39.951412],[-75.091126,39.951412]]],[[[-75.091341,39.951493],[-75.091305,39.951466],[-75.09134,39.951466],[-75.091341,39.951493]]],[[[-75.084672,39.955865],[-75.083384,39.955432],[-75.084165,39.955071],[-75.083804,39.954524],[-75.084906,39.954052],[-75.084939,39.953722],[-75.086259,39.953798],[-75.086328,39.95355],[-75.086619,39.954098],[-75.086374,39.954703],[-75.084672,39.955865]]],[[[-75.087745,39.969],[-75.087745,39.969001],[-75.087744,39.969],[-75.087745,39.969]]]]}}]}