{"type":"FeatureCollection","features":[{"type":"Feature","properties":{"level_ft":0},"geometry":{"type":"MultiPolygon","coordinates":[[[[-75.110677,39.89956],[-75.110067,39.899097],[-75.110351,39.898973],[-75.110677,39.89956]]],[[[-75.100491,39.90052],[-75.099986,39.899836],[-75.099737,39.899892],[-75.099874,39.899287],[-75.101146,39.898882],[-75.102116,39.899107],[-75.102917,39.899882],[-75.104793,39.900527],[-75.107941,39.900238],[-75.10964,39.899265],[-75.109787,39.899675],[-75.107195,39.900814],[-75.104881,39.901211],[-75.104487,39.900966],[-75.104948,39.900716],[-75.104412,39.900582],[-75.10395,39.900694],[-75.103739,39.901079],[-75.101922,39.901116],[-75.102025,39.900676],[-75.102669,39.901003],[-75.103629,39.900668],[-75.102015,39.899551],[-75.101731,39.899662],[-75.102089,39.899825],[-75.102057,39.900237],[-75.101519,39.899855],[-75.101164,39.900022],[-75.10102,39.899858],[-75.101166,39.900269],[-75.100773,39.900216],[-75.100812,39.900518],[-75.100491,39.90052]],[[-75.100632,39.900409],[-75.100668,39.900381],[-75.100632,39.900382],[-75.100632,39.900409]]],[[[-75.11655,39.902879],[-75.11523,39.902501],[-75.112933,39.900811],[-75.112823,39.900455],[-75.113138,39.89974],[-75.112813,39.89933],[-75.111669,39.898869],[-75.111028,39.899037],[-75.110528,39.898905],[-75.111838,39.898569],[-75.113166,39.899305],[-75.113874,39.901102],[-75.11643,39.902191],[-75.11655,39.902879]]],[[[-75.116513,39.903126],[-75.1162,39.90332],[-75.116197,39.903073],[-75.116513,39.903126]]],[[[-75.113841,39.906627],[-75.114057,39.906873],[-75.11395,39.906901],[-75.113841,39.906627]]],[[[-75.117089,39.911112],[-75.117535,39.90916],[-75.11488,39.90728],[-75.114453,39.907337],[-75.113716,39.904568],[-75.113882,39.903277],[-75.115524,39.903543],[-75.116437,39.903456],[-75.11488,39.9054],[-75.114696,39.905978],[-75.115126,39.906652],[-75.116727,39.907983],[-75.117922,39.908554],[-75.117482,39.911165],[-75.117089,39.911112]]],[[[-75.119918,39.908517],[-75.119885,39.908846],[-75.118069,39.908993],[-75.117964,39.909213],[-75.117993,39.908556],[-75.119918,39.908517]]],[[[-75.110322,39.907744],[-75.10884,39.909536],[-75.108272,39.909841],[-75.109064,39.910605],[-75.10907,39.911319],[-75.108459,39.910746],[-75.107924,39.910749],[-75.107742,39.91031],[-75.104821,39.910545],[-75.104462,39.910273],[-75.103356,39.910223],[-75.101864,39.91078],[-75.101656,39.911495],[-75.10198,39.91185],[-75.101555,39.912127],[-75.101557,39.912429],[-75.100951,39.912405],[-75.099674,39.913098],[-75.099672,39.912906],[-75.100772,39.912268],[-75.100659,39.91161],[-75.101508,39.910864],[-75.10068,39.909963],[-75.099933,39.910131],[-75.099431,39.909859],[-75.100146,39.910048],[-75.100786,39.909852],[-75.101208,39.909191],[-75.101705,39.908914],[-75.103271,39.908686],[-75.104413,39.90879],[-75.105347,39.909582],[-75.106382,39.909768],[-75.107735,39.909487],[-75.108272,39.909786],[-75.108127,39.909485],[-75.109992,39.906784],[-75.111196,39.905872],[-75.111332,39.90513],[-75.112542,39.904849],[-75.11323,39.906136],[-75.11309,39.906411],[-75.1137,39.906847],[-75.113888,39.907889],[-75.113452,39.907041],[-75.111602,39.907462],[-75.111604,39.9076],[-75.112887,39.90762],[-75.112542,39.908858],[-75.110513,39.90928],[-75.109974,39.908706],[-75.110123,39.909474],[-75.109129,39.909946],[-75.108912,39.909618],[-75.110322,39.907744]],[[-75.107742,39.91031],[-75.107777,39.910283],[-75.107742,39.910283],[-75.107742,39.91031]],[[-75.110261,39.908897],[-75.110296,39.908869],[-75.11026,39.90887],[-75.110261,39.908897]],[[-75.110322,39.907744],[-75.110357,39.907716],[-75.110321,39.907716],[-75.110322,39.907744]]],[[[-75.134194,39.952774],[-75.129264,39.95198],[-75.129547,39.951732],[-75.131619,39.952105],[-75.130404,39.951837],[-75.130539,39.950985],[-75.131002,39.950873],[-75.131274,39.949416],[-75.131557,39.94925],[-75.131376,39.948949],[-75.131805,39.948974],[-75.131411,39.948866],[-75.131445,39.948646],[-75.132624,39.948832],[-75.132762,39.948365],[-75.130759,39.947772],[-75.130969,39.947331],[-75.131466,39.947081],[-75.132082,39.944195],[-75.132206,39.942163],[-75.131604,39.942661],[-75.130961,39.942609],[-75.130602,39.942282],[-75.130668,39.94176],[-75.131058,39.941511],[-75.131593,39.941508],[-75.132024,39.941835],[-75.132273,39.941724],[-75.132004,39.939666],[-75.131433,39.939587],[-75.131499,39.939037],[-75.131212,39.938874],[-75.131137,39.93838],[-75.131457,39.938351],[-75.131702,39.937856],[-75.132471,39.932223],[-75.131864,39.932172],[-75.131961,39.931128],[-75.131595,39.930032],[-75.132129,39.929919],[-75.131834,39.92896],[-75.130764,39.928856],[-75.130613,39.927978],[-75.131178,39.927371],[-75.130959,39.926796],[-75.130424,39.926826],[-75.129273,39.925762],[-75.127341,39.925031],[-75.126981,39.924649],[-75.126978,39.924292],[-75.128579,39.923899],[-75.128613,39.923734],[-75.127412,39.921105],[-75.126984,39.92108],[-75.127158,39.920585],[-75.127621,39.920582],[-75.127904,39.920251],[-75.127936,39.919839],[-75.12658,39.919791],[-75.126433,39.919326],[-75.126647,39.919269],[-75.126678,39.918803],[-75.126,39.918724],[-75.125855,39.918423],[-75.125879,39.91716],[-75.126303,39.916718],[-75.126292,39.915565],[-75.123654,39.915579],[-75.12326,39.915417],[-75.123255,39.91484],[-75.123503,39.914619],[-75.122539,39.914542],[-75.122714,39.914129],[-75.12464,39.914201],[-75.124663,39.912801],[-75.124092,39.912777],[-75.124017,39.912393],[-75.123625,39.912367],[-75.12347,39.910996],[-75.123789,39.910802],[-75.124644,39.910797],[-75.124534,39.910358],[-75.124961,39.910356],[-75.124496,39.910194],[-75.124737,39.909204],[-75.125019,39.908873],[-75.125661,39.90887],[-75.121489,39.908728],[-75.121484,39.908233],[-75.125442,39.908294],[-75.12569,39.908156],[-75.125084,39.908214],[-75.125046,39.907885],[-75.12262,39.907733],[-75.121517,39.907959],[-75.120846,39.908649],[-75.120133,39.908652],[-75.121403,39.907762],[-75.122836,39.907428],[-75.129344,39.907381],[-75.129091,39.911608],[-75.12984,39.915359],[-75.135874,39.927639],[-75.136463,39.929363],[-75.136805,39.937021],[-75.136425,39.942723],[-75.135631,39.947459],[-75.134604,39.951504],[-75.134194,39.952774]]],[[[-75.104009,39.943961],[-75.104142,39.942834],[-75.104497,39.942695],[-75.104739,39.941843],[-75.105242,39.94217],[-75.104757,39.943874],[-75.104009,39.943961]]],[[[-75.10384,39.945005],[-75.104117,39.94407],[-75.104688,39.944067],[-75.104517,39.944892],[-75.10384,39.945005]]],[[[-75.104019,39.945086],[-75.103983,39.945059],[-75.104019,39.945059],[-75.104019,39.945086]]],[[[-75.103948,39.945114],[-75.103912,39.945087],[-75.103948,39.945087],[-75.103948,39.945114]]],[[[-75.109997,39.951479],[-75.109633,39.950657],[-75.109552,39.949642],[-75.10818,39.9477],[-75.108067,39.947014],[-75.107673,39.946879],[-75.107527,39.946523],[-75.106778,39.946554],[-75.107239,39.946168],[-75.106131,39.945899],[-75.104598,39.946044],[-75.103988,39.945636],[-75.103913,39.945169],[-75.104483,39.945084],[-75.104771,39.945467],[-75.106159,39.94513],[-75.107159,39.945207],[-75.107984,39.945697],[-75.110186,39.948705],[-75.110635,39.951064],[-75.110601,39.951229],[-75.110102,39.951259],[-75.110067,39.951396],[-75.110601,39.951256],[-75.110638,39.951339],[-75.109997,39.951479]]],[[[-75.110002,39.952111],[-75.110033,39.951561],[-75.11071,39.951448],[-75.111546,39.953228],[-75.110979,39.953615],[-75.110949,39.954302],[-75.111599,39.955177],[-75.11197,39.95674],[-75.1126,39.955364],[-75.113098,39.955279],[-75.11262,39.957615],[-75.112799,39.957669],[-75.112973,39.957256],[-75.114404,39.957715],[-75.11558,39.957544],[-75.115513,39.958011],[-75.116049,39.958118],[-75.116475,39.957842],[-75.116682,39.957127],[-75.117394,39.956903],[-75.117506,39.957452],[-75.117862,39.95745],[-75.118116,39.957888],[-75.117869,39.958218],[-75.118622,39.958599],[-75.119087,39.958761],[-75.119942,39.958647],[-75.12048,39.958891],[-75.121192,39.958722],[-75.122015,39.958992],[-75.1223,39.958991],[-75.122793,39.958302],[-75.123578,39.958298],[-75.123784,39.957446],[-75.124214,39.957608],[-75.124425,39.957277],[-75.124675,39.957304],[-75.124792,39.958428],[-75.125858,39.957901],[-75.125675,39.957463],[-75.125958,39.957159],[-75.126492,39.957074],[-75.127103,39.957592],[-75.128204,39.956982],[-75.128451,39.956707],[-75.127233,39.956137],[-75.127372,39.955724],[-75.1298,39.955985],[-75.12862,39.955662],[-75.128759,39.955277],[-75.129617,39.955437],[-75.129859,39.954667],[-75.128745,39.95374],[-75.128741,39.953273],[-75.129381,39.953105],[-75.12977,39.952719],[-75.128877,39.952559],[-75.128875,39.952367],[-75.13023,39.952359],[-75.134099,39.953052],[-75.132573,39.956557],[-75.130162,39.959455],[-75.125749,39.962444],[-75.122172,39.964298],[-75.119748,39.96171],[-75.118447,39.960723],[-75.115839,39.959328],[-75.110143,39.958016],[-75.108033,39.958011],[-75.106227,39.958401],[-75.104126,39.95944],[-75.096972,39.964978],[-75.093629,39.966868],[-75.088069,39.969382],[-75.087031,39.96807],[-75.090577,39.966377],[-75.090252,39.965967],[-75.091105,39.965523],[-75.090957,39.96492],[-75.091314,39.964946],[-75.092144,39.966095],[-75.092173,39.965243],[-75.093314,39.965238],[-75.093096,39.964717],[-75.092596,39.964637],[-75.092916,39.964553],[-75.092342,39.964144],[-75.092375,39.96387],[-75.091839,39.963818],[-75.092266,39.963678],[-75.091727,39.963242],[-75.091795,39.962775],[-75.091257,39.96253],[-75.091289,39.962118],[-75.091436,39.962529],[-75.091937,39.962774],[-75.091869,39.963186],[-75.092407,39.96343],[-75.092698,39.964115],[-75.093765,39.963698],[-75.094557,39.964517],[-75.095913,39.964511],[-75.095942,39.963851],[-75.096333,39.963657],[-75.096114,39.963109],[-75.096758,39.963243],[-75.09718,39.962527],[-75.096814,39.961541],[-75.097596,39.961153],[-75.098352,39.961917],[-75.097811,39.961261],[-75.097699,39.960658],[-75.098848,39.961585],[-75.099593,39.96106],[-75.099482,39.960621],[-75.09984,39.960702],[-75.100088,39.960508],[-75.099907,39.96029],[-75.100156,39.960151],[-75.09958,39.959605],[-75.100763,39.960203],[-75.101434,39.959431],[-75.101426,39.958552],[-75.10171,39.958331],[-75.102283,39.95863],[-75.10246,39.958519],[-75.102243,39.958163],[-75.101096,39.957511],[-75.101412,39.95696],[-75.102303,39.95679],[-75.10205,39.956517],[-75.101695,39.956629],[-75.101729,39.956437],[-75.102513,39.956432],[-75.102582,39.956158],[-75.103186,39.955852],[-75.102763,39.956376],[-75.104188,39.956149],[-75.103471,39.955796],[-75.104365,39.956066],[-75.106647,39.955862],[-75.108777,39.954725],[-75.110015,39.953538],[-75.110119,39.953153],[-75.109005,39.952308],[-75.108077,39.952258],[-75.107896,39.951875],[-75.107145,39.951714],[-75.106433,39.95191],[-75.105753,39.951639],[-75.105926,39.951034],[-75.107568,39.95119],[-75.107786,39.951573],[-75.108463,39.951487],[-75.110002,39.952111]],[[-75.102302,39.956708],[-75.102445,39.956707],[-75.102444,39.956652],[-75.102302,39.956708]],[[-75.102444,39.956652],[-75.102479,39.956625],[-75.102444,39.956625],[-75.102444,39.956652]],[[-75.109788,39.952057],[-75.109752,39.952084],[-75.109788,39.952084],[-75.109788,39.952057]]],[[[-75.099732,39.899398],[-75.099696,39.899343],[-75.099732,39.899343],[-75.099732,39.899398]]],[[[-75.096241,39.900898],[-75.099624,39.899248],[-75.099027,39.90028],[-75.097921,39.900149],[-75.097249,39.900783],[-75.096241,39.900898]]],[[[-75.094904,39.901592],[-75.094759,39.901389],[-75.09597,39.901257],[-75.095546,39.901671],[-75.094904,39.901592]]],[[[-75.10134,39.903865],[-75.100798,39.903044],[-75.099693,39.903022],[-75.099619,39.90272],[-75.100401,39.902469],[-75.100824,39.901918],[-75.10157,39.901695],[-75.106952,39.901639],[-75.104993,39.901814],[-75.104968,39.90294],[-75.104461,39.902091],[-75.103034,39.901934],[-75.102002,39.902104],[-75.101648,39.902408],[-75.101728,39.903451],[-75.10134,39.903865]]],[[[-75.097562,39.913542],[-75.096364,39.913826],[-75.095968,39.913364],[-75.098287,39.913517],[-75.099423,39.912962],[-75.099715,39.913775],[-75.098545,39.91379],[-75.098005,39.914078],[-75.097562,39.913542]]],[[[-75.096181,39.91383],[-75.096258,39.913857],[-75.09629,39.913884],[-75.096244,39.913898],[-75.096181,39.91383]]],[[[-75.083732,39.925012],[-75.083948,39.92534],[-75.083848,39.926109],[-75.083669,39.926083],[-75.083853,39.926739],[-75.08138,39.925993],[-75.083732,39.925012]]],[[[-75.092916,39.927381],[-75.091519,39.926674],[-75.089844,39.926765],[-75.089449,39.926493],[-75.089446,39.926108],[-75.091689,39.92563],[-75.092516,39.926532],[-75.093625,39.926911],[-75.093273,39.927379],[-75.092916,39.927381]]],[[[-75.085919,39.93187],[-75.087243,39.92975],[-75.087435,39.927986],[-75.087271,39.927236],[-75.086743,39.926816],[-75.084246,39.92678],[-75.084598,39.92627],[-75.084556,39.925474],[-75.085049,39.924758],[-75.086226,39.924834],[-75.088234,39.926115],[-75.088982,39.926083],[-75.089487,39.926712],[-75.089387,39.927509],[-75.088822,39.928171],[-75.089578,39.928963],[-75.089799,39.929813],[-75.08881,39.930943],[-75.088745,39.93163],[-75.089033,39.932013],[-75.087679,39.93213],[-75.086785,39.931805],[-75.08664,39.931531],[-75.086251,39.931972],[-75.085919,39.93187]]],[[[-75.086503,39.932163],[-75.086653,39.933041],[-75.086399,39.933234],[-75.085962,39.932029],[-75.086503,39.932163]]],[[[-75.094144,39.937395],[-75.092538,39.937349],[-75.090287,39.936839],[-75.089531,39.936019],[-75.089851,39.936182],[-75.090135,39.936064],[-75.089783,39.934745],[-75.088721,39.934354],[-75.086531,39.934806],[-75.086413,39.933372],[-75.086655,39.933343],[-75.086701,39.934551],[-75.088231,39.934159],[-75.087799,39.933667],[-75.088263,39.933637],[-75.088366,39.933224],[-75.092216,39.933068],[-75.093011,39.934271],[-75.094194,39.934924],[-75.094626,39.935444],[-75.094848,39.936376],[-75.094638,39.936844],[-75.094353,39.936873],[-75.094963,39.937281],[-75.094573,39.937585],[-75.094144,39.937395]]],[[[-75.089465,39.935909],[-75.089387,39.935882],[-75.089387,39.935842],[-75.089465,39.935909]]],[[[-75.105453,39.941894],[-75.104915,39.94154],[-75.10572,39.939834],[-75.105463,39.938957],[-75.104147,39.939375],[-75.103483,39.940916],[-75.102732,39.940645],[-75.098379,39.940476],[-75.097557,39.940343],[-75.09684,39.939825],[-75.096189,39.938867],[-75.095831,39.938622],[-75.09551,39.938679],[-75.095471,39.938295],[-75.094681,39.937695],[-75.095249,39.937362],[-75.09708,39.938753],[-75.097902,39.938968],[-75.098509,39.938993],[-75.098715,39.938141],[-75.098652,39.939074],[-75.100151,39.939176],[-75.101727,39.939937],[-75.101938,39.939606],[-75.102333,39.939879],[-75.103044,39.93971],[-75.103148,39.939298],[-75.104248,39.938688],[-75.106207,39.938349],[-75.106408,39.941011],[-75.105453,39.941894]]],[[[-75.089788,39.965887],[-75.089281,39.965039],[-75.089886,39.964926],[-75.090352,39.96517],[-75.090172,39.964897],[-75.090421,39.964896],[-75.090531,39.965252],[-75.090144,39.965803],[-75.089788,39.965887]]]]}}]}