{"type":"FeatureCollection","features":[{"type":"Feature","properties":{"level_ft":18},"geometry":{"type":"MultiPolygon","coordinates":[[[[-75.113804,39.902536],[-75.113733,39.902509],[-75.113804,39.902509],[-75.113804,39.902536]]],[[[-75.113521,39.902758],[-75.112591,39.902406],[-75.113913,39.902701],[-75.113521,39.902758]]],[[[-75.115339,39.902693],[-75.115267,39.902666],[-75.115338,39.902666],[-75.115339,39.902693]]],[[[-75.116092,39.92715],[-75.116126,39.926903],[-75.116161,39.926903],[-75.116164,39.92715],[-75.116092,39.92715]]],[[[-75.114105,39.928232],[-75.114069,39.928204],[-75.114105,39.928204],[-75.114105,39.928232]]],[[[-75.113787,39.928508],[-75.113751,39.928535],[-75.113751,39.928508],[-75.113787,39.928508]]],[[[-75.112726,39.929584],[-75.112762,39.929611],[-75.112727,39.929612],[-75.112726,39.929584]]],[[[-75.103243,39.929854],[-75.103208,39.929881],[-75.103208,39.929854],[-75.103243,39.929854]]],[[[-75.111384,39.931046],[-75.11142,39.930991],[-75.11142,39.931046],[-75.111384,39.931046]]],[[[-75.107363,39.932028],[-75.107399,39.932056],[-75.107364,39.932056],[-75.107363,39.932028]]],[[[-75.107722,39.932219],[-75.107686,39.932246],[-75.107686,39.932219],[-75.107722,39.932219]]],[[[-75.119679,39.949232],[-75.120793,39.950159],[-75.122834,39.951027],[-75.134089,39.953025],[-75.132873,39.956031],[-75.131493,39.958068],[-75.129626,39.95992],[-75.126141,39.962205],[-75.122172,39.964298],[-75.119748,39.96171],[-75.118447,39.960723],[-75.115839,39.959328],[-75.110143,39.958016],[-75.107366,39.958114],[-75.106227,39.958401],[-75.104126,39.95944],[-75.099304,39.963276],[-75.096051,39.965546],[-75.088055,39.969404],[-75.08329,39.9629],[-75.083909,39.962677],[-75.084126,39.963061],[-75.08441,39.962867],[-75.084627,39.963223],[-75.085414,39.963411],[-75.085488,39.963713],[-75.086025,39.963929],[-75.086379,39.963626],[-75.086916,39.963898],[-75.087379,39.963813],[-75.087061,39.964144],[-75.087637,39.964772],[-75.088065,39.964743],[-75.088596,39.964273],[-75.088377,39.963616],[-75.087805,39.963536],[-75.088053,39.963288],[-75.087754,39.961752],[-75.088108,39.961421],[-75.087927,39.961147],[-75.087496,39.960737],[-75.087138,39.960575],[-75.086818,39.960713],[-75.086207,39.96025],[-75.085532,39.9605],[-75.085458,39.960254],[-75.086453,39.959727],[-75.08645,39.959452],[-75.086844,39.959588],[-75.086627,39.959204],[-75.086985,39.959367],[-75.087161,39.959174],[-75.086369,39.958327],[-75.086084,39.958384],[-75.085969,39.957368],[-75.085646,39.95715],[-75.085254,39.957235],[-75.085323,39.956987],[-75.084784,39.956441],[-75.086272,39.95528],[-75.086236,39.955226],[-75.08744,39.954259],[-75.087761,39.954202],[-75.08891,39.95513],[-75.090088,39.955206],[-75.090022,39.955783],[-75.090918,39.9563],[-75.09131,39.956216],[-75.091385,39.956682],[-75.092167,39.956349],[-75.092454,39.956539],[-75.092775,39.956455],[-75.092708,39.957005],[-75.092459,39.957061],[-75.092501,39.957774],[-75.092787,39.957855],[-75.092756,39.958405],[-75.09315,39.958567],[-75.092908,39.959474],[-75.093337,39.95961],[-75.093054,39.959913],[-75.093415,39.96035],[-75.093459,39.961284],[-75.094604,39.961772],[-75.096308,39.960775],[-75.096164,39.960583],[-75.096411,39.960253],[-75.096051,39.959952],[-75.096228,39.959705],[-75.095725,39.95935],[-75.095721,39.958829],[-75.095107,39.958036],[-75.095102,39.957404],[-75.0957,39.95644],[-75.095587,39.955727],[-75.096755,39.954678],[-75.097104,39.953852],[-75.097425,39.953768],[-75.097065,39.953468],[-75.097026,39.953029],[-75.096776,39.953003],[-75.096947,39.952206],[-75.096623,39.951851],[-75.096979,39.951794],[-75.096405,39.951358],[-75.096686,39.950835],[-75.095933,39.950399],[-75.095331,39.950979],[-75.094762,39.951174],[-75.095361,39.950292],[-75.094583,39.951038],[-75.093941,39.951041],[-75.093409,39.951455],[-75.09223,39.951269],[-75.091376,39.951493],[-75.091269,39.951466],[-75.091269,39.951494],[-75.091198,39.951494],[-75.091198,39.951522],[-75.091127,39.951522],[-75.091127,39.951549],[-75.091056,39.95155],[-75.091021,39.951605],[-75.090842,39.951633],[-75.092825,39.949894],[-75.092931,39.949811],[-75.093038,39.94981],[-75.093357,39.949561],[-75.093321,39.949507],[-75.093499,39.949451],[-75.09403,39.948954],[-75.093993,39.948844],[-75.094101,39.948899],[-75.094278,39.948761],[-75.094241,39.948596],[-75.094419,39.948595],[-75.094596,39.948484],[-75.09456,39.94843],[-75.094595,39.948292],[-75.094523,39.948238],[-75.094629,39.948127],[-75.094558,39.948128],[-75.094452,39.948238],[-75.094416,39.948238],[-75.094416,39.948266],[-75.094345,39.948266],[-75.092786,39.949537],[-75.092785,39.949345],[-75.092998,39.949234],[-75.093103,39.948986],[-75.092216,39.94965],[-75.092109,39.949568],[-75.092817,39.94896],[-75.092215,39.94943],[-75.092319,39.949155],[-75.09207,39.949211],[-75.090901,39.950178],[-75.092672,39.948659],[-75.091354,39.948913],[-75.09096,39.948668],[-75.090919,39.948091],[-75.09067,39.94812],[-75.090814,39.948366],[-75.090422,39.948396],[-75.090344,39.947545],[-75.090204,39.947903],[-75.089844,39.947575],[-75.089545,39.945902],[-75.089008,39.945658],[-75.088687,39.945742],[-75.088291,39.94525],[-75.087827,39.945224],[-75.087748,39.944319],[-75.087468,39.945007],[-75.08704,39.945009],[-75.087176,39.944157],[-75.086715,39.944516],[-75.086784,39.944214],[-75.086171,39.943421],[-75.086562,39.943282],[-75.086239,39.943036],[-75.086631,39.942979],[-75.086484,39.942568],[-75.08595,39.942598],[-75.085983,39.942296],[-75.085553,39.942051],[-75.085162,39.942218],[-75.085337,39.94186],[-75.08505,39.941697],[-75.084661,39.942083],[-75.08477,39.94233],[-75.084341,39.942222],[-75.084585,39.941535],[-75.083803,39.941786],[-75.083664,39.942198],[-75.08251,39.940721],[-75.082687,39.940583],[-75.083406,39.940809],[-75.089268,39.935738],[-75.089851,39.936182],[-75.090135,39.936064],[-75.090104,39.935397],[-75.089724,39.934693],[-75.088931,39.934367],[-75.087064,39.93482],[-75.08639,39.934661],[-75.086313,39.932656],[-75.085922,39.931765],[-75.087243,39.92975],[-75.087271,39.927236],[-75.086566,39.926761],[-75.08387,39.926742],[-75.08138,39.925993],[-75.085683,39.923904],[-75.08565,39.924178],[-75.087185,39.924418],[-75.087866,39.924799],[-75.089187,39.924984],[-75.090042,39.924842],[-75.090829,39.925168],[-75.090684,39.924867],[-75.08997,39.924788],[-75.089894,39.924239],[-75.091101,39.923629],[-75.090172,39.923387],[-75.089597,39.922923],[-75.088062,39.922739],[-75.089838,39.921844],[-75.094998,39.924817],[-75.095107,39.925036],[-75.094321,39.92493],[-75.093647,39.925346],[-75.093715,39.924934],[-75.093217,39.925073],[-75.092609,39.924829],[-75.092968,39.925157],[-75.092649,39.925351],[-75.092652,39.925708],[-75.093194,39.926529],[-75.094693,39.926658],[-75.094377,39.927209],[-75.093664,39.927295],[-75.093845,39.927623],[-75.093634,39.927954],[-75.092319,39.9284],[-75.091603,39.928156],[-75.091428,39.928487],[-75.091033,39.928214],[-75.090001,39.928439],[-75.089782,39.927891],[-75.089286,39.928168],[-75.090008,39.929263],[-75.090048,39.929784],[-75.089238,39.930941],[-75.089741,39.931378],[-75.090382,39.93132],[-75.090816,39.931922],[-75.09257,39.932764],[-75.092756,39.933614],[-75.093547,39.934379],[-75.094474,39.934319],[-75.094797,39.934564],[-75.094658,39.935004],[-75.095053,39.935332],[-75.094879,39.935854],[-75.095098,39.936375],[-75.095952,39.936151],[-75.095705,39.936536],[-75.095957,39.936727],[-75.095463,39.937361],[-75.095859,39.937743],[-75.097067,39.937243],[-75.098316,39.937374],[-75.098736,39.936438],[-75.100308,39.93676],[-75.099913,39.936432],[-75.100443,39.935853],[-75.100157,39.935745],[-75.100397,39.9347],[-75.100037,39.93429],[-75.100394,39.934371],[-75.100248,39.934015],[-75.100568,39.933848],[-75.1006,39.933409],[-75.100886,39.933462],[-75.101199,39.932609],[-75.100981,39.932144],[-75.101762,39.931728],[-75.101756,39.931069],[-75.102359,39.930737],[-75.102825,39.930954],[-75.103106,39.930431],[-75.102922,39.9298],[-75.107183,39.931837],[-75.107328,39.932083],[-75.109085,39.933117],[-75.110309,39.934429],[-75.110998,39.935688],[-75.112395,39.94043],[-75.112735,39.942597],[-75.112525,39.942955],[-75.111883,39.943013],[-75.11089,39.943623],[-75.106832,39.94455],[-75.111817,39.943645],[-75.112527,39.943202],[-75.112807,39.942569],[-75.113235,39.942595],[-75.112993,39.943529],[-75.111926,39.943837],[-75.112212,39.943945],[-75.111999,39.944056],[-75.112144,39.94422],[-75.111467,39.944361],[-75.111434,39.944636],[-75.111935,39.94488],[-75.112082,39.945264],[-75.112439,39.945317],[-75.112288,39.944384],[-75.113499,39.94424],[-75.113039,39.944682],[-75.113008,39.945121],[-75.113688,39.945365],[-75.11409,39.946488],[-75.111696,39.946062],[-75.112126,39.946252],[-75.11195,39.9465],[-75.112201,39.946691],[-75.112137,39.947515],[-75.111604,39.947655],[-75.111388,39.947464],[-75.111249,39.947849],[-75.110996,39.947575],[-75.110397,39.948347],[-75.110798,39.949361],[-75.110732,39.949938],[-75.111125,39.950018],[-75.110809,39.950514],[-75.111417,39.95073],[-75.111529,39.951306],[-75.111994,39.951414],[-75.111995,39.951606],[-75.111139,39.951528],[-75.111836,39.953693],[-75.112872,39.95388],[-75.113089,39.954181],[-75.113445,39.954097],[-75.113661,39.954315],[-75.11473,39.954282],[-75.114914,39.954912],[-75.11577,39.954853],[-75.115951,39.955099],[-75.116841,39.95493],[-75.116766,39.954546],[-75.117479,39.954487],[-75.117012,39.954078],[-75.117868,39.9541],[-75.117938,39.953935],[-75.117546,39.95402],[-75.117328,39.953582],[-75.117935,39.953578],[-75.117968,39.953304],[-75.117395,39.953087],[-75.117931,39.953139],[-75.117964,39.952865],[-75.117212,39.952539],[-75.118104,39.952534],[-75.11828,39.952314],[-75.117815,39.952152],[-75.118349,39.952066],[-75.117885,39.952014],[-75.117596,39.951659],[-75.118524,39.951708],[-75.118487,39.951544],[-75.119023,39.951623],[-75.119128,39.951431],[-75.119089,39.951074],[-75.118516,39.950803],[-75.118801,39.950774],[-75.118903,39.950197],[-75.118654,39.950253],[-75.118294,39.949898],[-75.118434,39.94965],[-75.118827,39.949648],[-75.118467,39.949348],[-75.118789,39.949428],[-75.119037,39.949235],[-75.118641,39.948798],[-75.119068,39.948768],[-75.119101,39.948466],[-75.119316,39.948575],[-75.11953,39.948546],[-75.119168,39.947944],[-75.11806,39.947675],[-75.117601,39.948254],[-75.116205,39.947713],[-75.115493,39.947854],[-75.114986,39.946978],[-75.114268,39.94646],[-75.113902,39.945446],[-75.114407,39.94602],[-75.115661,39.946617],[-75.115766,39.946425],[-75.114474,39.945553],[-75.115868,39.945902],[-75.116446,39.94675],[-75.118236,39.947427],[-75.118802,39.94693],[-75.11869,39.946382],[-75.119294,39.946104],[-75.119261,39.946433],[-75.119618,39.946459],[-75.119758,39.946074],[-75.120468,39.945741],[-75.120037,39.945386],[-75.120459,39.94478],[-75.12049,39.944231],[-75.120133,39.94415],[-75.120453,39.944121],[-75.120452,39.943956],[-75.120061,39.944096],[-75.119809,39.943822],[-75.119704,39.94407],[-75.119418,39.944044],[-75.119093,39.943524],[-75.118593,39.943499],[-75.117804,39.943064],[-75.116628,39.943153],[-75.116375,39.942715],[-75.116449,39.943017],[-75.115095,39.943244],[-75.115098,39.943518],[-75.114846,39.943327],[-75.113847,39.943278],[-75.113617,39.941467],[-75.114446,39.942451],[-75.115728,39.942197],[-75.115436,39.941512],[-75.116263,39.942222],[-75.117726,39.942241],[-75.117901,39.941938],[-75.117225,39.942052],[-75.117181,39.941146],[-75.116896,39.94123],[-75.116751,39.940901],[-75.115858,39.940796],[-75.11657,39.940655],[-75.116494,39.940079],[-75.116209,39.940218],[-75.116136,39.939998],[-75.115852,39.940082],[-75.115884,39.939725],[-75.116134,39.939751],[-75.115847,39.939588],[-75.115868,39.937913],[-75.115747,39.940385],[-75.115243,39.939839],[-75.114779,39.939759],[-75.114991,39.93951],[-75.115455,39.93959],[-75.115096,39.939373],[-75.115486,39.939069],[-75.114986,39.938989],[-75.113845,39.938995],[-75.11417,39.939487],[-75.113811,39.939242],[-75.113527,39.939326],[-75.113993,39.939598],[-75.113816,39.939819],[-75.114032,39.940037],[-75.114317,39.940008],[-75.114215,39.940475],[-75.11364,39.940067],[-75.113143,39.940261],[-75.111636,39.935273],[-75.111693,39.93368],[-75.112252,39.932414],[-75.113488,39.931008],[-75.115189,39.929791],[-75.114762,39.929903],[-75.115923,39.928167],[-75.116173,39.928248],[-75.116208,39.928083],[-75.116712,39.916687],[-75.116481,39.914876],[-75.116795,39.914051],[-75.116545,39.91397],[-75.11672,39.913667],[-75.116143,39.912874],[-75.115841,39.911064],[-75.115276,39.911671],[-75.115677,39.912602],[-75.11558,39.913783],[-75.116218,39.917349],[-75.115734,39.926988],[-75.114744,39.927926],[-75.11503,39.928007],[-75.115105,39.928391],[-75.114862,39.929161],[-75.112211,39.931811],[-75.111053,39.933903],[-75.110794,39.932861],[-75.110824,39.932202],[-75.111102,39.931405],[-75.111245,39.931404],[-75.11163,39.930633],[-75.113505,39.928949],[-75.114106,39.928287],[-75.114105,39.928177],[-75.113998,39.928232],[-75.113892,39.928343],[-75.113928,39.928397],[-75.113715,39.928508],[-75.113751,39.928563],[-75.113185,39.929005],[-75.113044,39.929226],[-75.112796,39.929364],[-75.112655,39.929585],[-75.112018,39.930082],[-75.111276,39.930882],[-75.110648,39.932478],[-75.110666,39.934454],[-75.108258,39.932353],[-75.104245,39.930233],[-75.107273,39.929915],[-75.107484,39.929584],[-75.108301,39.929223],[-75.108228,39.929004],[-75.10855,39.929057],[-75.108724,39.928617],[-75.108222,39.928263],[-75.107931,39.92766],[-75.108429,39.92752],[-75.108459,39.926861],[-75.108674,39.926997],[-75.108849,39.926585],[-75.108525,39.926339],[-75.108594,39.926009],[-75.108093,39.925792],[-75.108413,39.925681],[-75.108551,39.925159],[-75.108907,39.925102],[-75.108759,39.924581],[-75.109471,39.924413],[-75.109112,39.92414],[-75.109107,39.923591],[-75.108751,39.923675],[-75.108639,39.923017],[-75.107784,39.923131],[-75.107424,39.922776],[-75.106495,39.922589],[-75.106489,39.92182],[-75.105592,39.921248],[-75.105407,39.920508],[-75.105652,39.919985],[-75.104936,39.919659],[-75.104931,39.919055],[-75.104291,39.919223],[-75.103716,39.918732],[-75.103715,39.918595],[-75.104143,39.918675],[-75.104142,39.918483],[-75.103282,39.918076],[-75.102962,39.91816],[-75.102103,39.917697],[-75.102208,39.91756],[-75.101761,39.917644],[-75.099865,39.913659],[-75.099497,39.913857],[-75.098545,39.91379],[-75.098005,39.914078],[-75.097647,39.913585],[-75.097222,39.913508],[-75.096244,39.913898],[-75.093018,39.910275],[-75.092981,39.91014],[-75.093303,39.910248],[-75.093301,39.909973],[-75.092801,39.909921],[-75.092942,39.909701],[-75.092538,39.909565],[-75.096955,39.908319],[-75.097411,39.907987],[-75.094606,39.901418],[-75.096219,39.901173],[-75.100178,39.901427],[-75.100283,39.901262],[-75.100033,39.901181],[-75.097892,39.900917],[-75.09803,39.90034],[-75.097675,39.900507],[-75.097572,39.901001],[-75.096214,39.900926],[-75.098539,39.899649],[-75.101015,39.898908],[-75.102116,39.899107],[-75.102917,39.899882],[-75.104793,39.900527],[-75.107941,39.900238],[-75.109679,39.899245],[-75.111611,39.898588],[-75.112968,39.899172],[-75.113453,39.89966],[-75.113777,39.901008],[-75.11441,39.90145],[-75.116358,39.902119],[-75.11655,39.902879],[-75.115194,39.902502],[-75.113112,39.900893],[-75.112397,39.900567],[-75.112822,39.90029],[-75.112746,39.899742],[-75.111742,39.899088],[-75.112677,39.899989],[-75.112574,39.900429],[-75.109755,39.900142],[-75.108547,39.900587],[-75.109082,39.900557],[-75.10912,39.900832],[-75.110149,39.900305],[-75.112183,39.900568],[-75.115267,39.902639],[-75.113337,39.9021],[-75.111328,39.9006],[-75.110828,39.900521],[-75.111657,39.901532],[-75.113733,39.902482],[-75.109909,39.901404],[-75.112768,39.902295],[-75.110343,39.902143],[-75.110954,39.902634],[-75.11095,39.902222],[-75.112021,39.902381],[-75.11192,39.903041],[-75.112641,39.903943],[-75.112242,39.903176],[-75.112343,39.902544],[-75.113594,39.902922],[-75.113671,39.903525],[-75.113774,39.903113],[-75.114129,39.902974],[-75.11402,39.9027],[-75.116513,39.903126],[-75.116286,39.90374],[-75.11488,39.9054],[-75.114715,39.906125],[-75.117488,39.90849],[-75.120177,39.908514],[-75.121403,39.907762],[-75.122836,39.907428],[-75.129344,39.907381],[-75.129091,39.911608],[-75.12984,39.915359],[-75.135874,39.927639],[-75.136571,39.929951],[-75.136732,39.939233],[-75.136267,39.943911],[-75.135365,39.948635],[-75.134194,39.952774],[-75.123225,39.950887],[-75.1214,39.950211],[-75.119893,39.949175],[-75.119679,39.949232]],[[-75.086307,39.955198],[-75.086343,39.955225],[-75.086343,39.955198],[-75.086307,39.955198]],[[-75.088301,39.954831],[-75.088266,39.954858],[-75.088302,39.954858],[-75.088301,39.954831]],[[-75.092756,39.958405],[-75.09272,39.958432],[-75.092756,39.958432],[-75.092756,39.958405]],[[-75.093817,39.961501],[-75.093853,39.961529],[-75.093853,39.961501],[-75.093817,39.961501]],[[-75.096981,39.951931],[-75.097016,39.951959],[-75.097016,39.951931],[-75.096981,39.951931]],[[-75.095361,39.950292],[-75.095397,39.950265],[-75.095361,39.950265],[-75.095361,39.950292]],[[-75.095397,39.950265],[-75.095432,39.950237],[-75.095396,39.950237],[-75.095397,39.950265]],[[-75.095431,39.950182],[-75.095503,39.950209],[-75.095503,39.950154],[-75.095431,39.950182]],[[-75.095502,39.950099],[-75.095609,39.950099],[-75.095609,39.950044],[-75.095502,39.950099]],[[-75.095609,39.950044],[-75.095644,39.950016],[-75.095608,39.950017],[-75.095609,39.950044]],[[-75.095644,39.950016],[-75.095679,39.949989],[-75.095644,39.949989],[-75.095644,39.950016]],[[-75.095679,39.949989],[-75.095715,39.949934],[-75.095679,39.949934],[-75.095679,39.949989]],[[-75.095714,39.949879],[-75.095821,39.949878],[-75.095821,39.949823],[-75.095714,39.949879]],[[-75.095821,39.949823],[-75.095856,39.949796],[-75.09582,39.949796],[-75.095821,39.949823]],[[-75.095856,39.949796],[-75.095892,39.949768],[-75.095856,39.949768],[-75.095856,39.949796]],[[-75.095892,39.949768],[-75.095927,39.94974],[-75.095891,39.949741],[-75.095892,39.949768]],[[-75.095927,39.94974],[-75.095962,39.949713],[-75.095927,39.949713],[-75.095927,39.94974]],[[-75.095962,39.949713],[-75.095998,39.949685],[-75.095962,39.949685],[-75.095962,39.949713]],[[-75.091483,39.95141],[-75.091447,39.951383],[-75.091447,39.951411],[-75.091483,39.95141]],[[-75.091376,39.951466],[-75.09134,39.951439],[-75.09134,39.951466],[-75.091376,39.951466]],[[-75.092896,39.949866],[-75.092932,39.949893],[-75.092932,39.949866],[-75.092896,39.949866]],[[-75.094277,39.948651],[-75.094349,39.948705],[-75.094312,39.948651],[-75.094277,39.948651]],[[-75.094596,39.948429],[-75.094631,39.948402],[-75.094596,39.948402],[-75.094596,39.948429]],[[-75.094595,39.94832],[-75.094631,39.948347],[-75.094631,39.948319],[-75.094595,39.94832]],[[-75.09463,39.948292],[-75.094666,39.948347],[-75.094738,39.948374],[-75.09488,39.948291],[-75.09488,39.948236],[-75.094986,39.948208],[-75.094986,39.948125],[-75.094808,39.948181],[-75.094808,39.948209],[-75.094772,39.948209],[-75.094773,39.948264],[-75.094701,39.948237],[-75.09463,39.948292]],[[-75.094915,39.948236],[-75.094951,39.948263],[-75.094951,39.948235],[-75.094915,39.948236]],[[-75.094985,39.948098],[-75.095093,39.94818],[-75.095164,39.948152],[-75.095128,39.948097],[-75.095092,39.948097],[-75.095093,39.948125],[-75.095057,39.948125],[-75.094985,39.948098]],[[-75.094629,39.9481],[-75.0947,39.948099],[-75.094806,39.948017],[-75.094629,39.9481]],[[-75.0947,39.948127],[-75.094772,39.948181],[-75.094772,39.948154],[-75.0947,39.948127]],[[-75.094701,39.948182],[-75.094665,39.948209],[-75.094701,39.948209],[-75.094701,39.948182]],[[-75.094665,39.948209],[-75.09463,39.948237],[-75.094666,39.948237],[-75.094665,39.948209]],[[-75.09463,39.948237],[-75.094594,39.948265],[-75.09463,39.948265],[-75.09463,39.948237]],[[-75.094913,39.948016],[-75.094772,39.948127],[-75.095624,39.947683],[-75.095802,39.947709],[-75.096797,39.947238],[-75.096583,39.947184],[-75.096583,39.947211],[-75.096511,39.947212],[-75.096512,39.947239],[-75.09644,39.947239],[-75.096441,39.947267],[-75.096369,39.947267],[-75.096334,39.947322],[-75.096263,39.947323],[-75.096263,39.94735],[-75.096227,39.94735],[-75.096228,39.947405],[-75.096156,39.947378],[-75.096121,39.947461],[-75.096014,39.947434],[-75.096014,39.947461],[-75.095979,39.947461],[-75.095979,39.947516],[-75.095765,39.947545],[-75.095766,39.947572],[-75.09573,39.947573],[-75.09573,39.947627],[-75.095659,39.9476],[-75.095659,39.947655],[-75.095588,39.947628],[-75.095588,39.947656],[-75.095517,39.947656],[-75.095517,39.947683],[-75.095445,39.947684],[-75.095411,39.947766],[-75.095339,39.947739],[-75.095339,39.947794],[-75.095268,39.947767],[-75.095197,39.947795],[-75.095197,39.947822],[-75.095161,39.947823],[-75.095162,39.94785],[-75.095019,39.947878],[-75.095019,39.947906],[-75.094984,39.947906],[-75.094984,39.947961],[-75.094806,39.947989],[-75.094913,39.948016]],[[-75.096121,39.947433],[-75.096085,39.947406],[-75.096085,39.947433],[-75.096121,39.947433]],[[-75.093282,39.949095],[-75.093175,39.949096],[-75.093175,39.949151],[-75.093282,39.949095]],[[-75.092856,39.949399],[-75.092892,39.949372],[-75.092856,39.949372],[-75.092856,39.949399]],[[-75.092927,39.949289],[-75.092963,39.949344],[-75.092998,39.949289],[-75.092927,39.949289]],[[-75.092998,39.949289],[-75.093034,39.949261],[-75.092998,39.949261],[-75.092998,39.949289]],[[-75.093034,39.949261],[-75.093069,39.949233],[-75.093033,39.949234],[-75.093034,39.949261]],[[-75.093069,39.949233],[-75.09314,39.949178],[-75.093069,39.949179],[-75.093069,39.949233]],[[-75.09218,39.949595],[-75.092216,39.949567],[-75.09218,39.949567],[-75.09218,39.949595]],[[-75.092216,39.949567],[-75.092251,39.94954],[-75.092216,39.94954],[-75.092216,39.949567]],[[-75.092817,39.94896],[-75.092852,39.948933],[-75.092817,39.948933],[-75.092817,39.94896]],[[-75.092924,39.948932],[-75.093065,39.948794],[-75.093633,39.948462],[-75.093029,39.948767],[-75.092924,39.948932]],[[-75.093633,39.948434],[-75.093704,39.948434],[-75.093811,39.948379],[-75.093633,39.948434]],[[-75.093811,39.948379],[-75.093882,39.948351],[-75.09381,39.948351],[-75.093811,39.948379]],[[-75.093882,39.948351],[-75.093917,39.948323],[-75.093882,39.948323],[-75.093882,39.948351]],[[-75.093917,39.948323],[-75.093953,39.948295],[-75.093917,39.948296],[-75.093917,39.948323]],[[-75.087104,39.944075],[-75.08721,39.944047],[-75.087103,39.944048],[-75.087104,39.944075]],[[-75.086602,39.943858],[-75.086638,39.94383],[-75.086602,39.94383],[-75.086602,39.943858]],[[-75.086631,39.942979],[-75.086702,39.943006],[-75.086702,39.942979],[-75.086631,39.942979]],[[-75.093856,39.924686],[-75.094036,39.924932],[-75.094212,39.924711],[-75.093856,39.924686]],[[-75.095706,39.936591],[-75.095671,39.936619],[-75.095706,39.936619],[-75.095706,39.936591]],[[-75.100394,39.934371],[-75.10043,39.934398],[-75.10043,39.934371],[-75.100394,39.934371]],[[-75.107184,39.931919],[-75.107149,39.931947],[-75.107184,39.931947],[-75.107184,39.931919]],[[-75.107148,39.93192],[-75.107113,39.931892],[-75.107113,39.93192],[-75.107148,39.93192]],[[-75.109049,39.933118],[-75.109014,39.933145],[-75.109049,39.933145],[-75.109049,39.933118]],[[-75.111926,39.943837],[-75.11189,39.94381],[-75.111891,39.943837],[-75.111926,39.943837]],[[-75.117479,39.954487],[-75.117515,39.954514],[-75.117515,39.954487],[-75.117479,39.954487]],[[-75.11835,39.952121],[-75.118457,39.952148],[-75.118457,39.952121],[-75.11835,39.952121]],[[-75.11806,39.947675],[-75.118024,39.947621],[-75.118024,39.947675],[-75.11806,39.947675]],[[-75.118024,39.947675],[-75.117989,39.947703],[-75.118024,39.947703],[-75.118024,39.947675]],[[-75.116375,39.942715],[-75.11641,39.942688],[-75.116374,39.942688],[-75.116375,39.942715]],[[-75.11641,39.942688],[-75.116481,39.94266],[-75.11641,39.94266],[-75.11641,39.942688]],[[-75.116339,39.942715],[-75.116267,39.942688],[-75.116268,39.942716],[-75.116339,39.942715]],[[-75.116233,39.942798],[-75.116303,39.942743],[-75.116268,39.942743],[-75.116233,39.942798]],[[-75.113836,39.94207],[-75.113872,39.942097],[-75.113872,39.94207],[-75.113836,39.94207]],[[-75.115558,39.911312],[-75.115485,39.911148],[-75.115523,39.911313],[-75.115558,39.911312]],[[-75.115488,39.911423],[-75.115452,39.911395],[-75.115452,39.911423],[-75.115488,39.911423]],[[-75.115276,39.911671],[-75.11524,39.911644],[-75.115241,39.911671],[-75.115276,39.911671]],[[-75.115579,39.913618],[-75.115543,39.913591],[-75.115543,39.913619],[-75.115579,39.913618]],[[-75.116145,39.917102],[-75.116073,39.917075],[-75.116074,39.917102],[-75.116145,39.917102]],[[-75.110861,39.932312],[-75.110896,39.932257],[-75.11086,39.932257],[-75.110861,39.932312]],[[-75.11414,39.928149],[-75.114247,39.928149],[-75.114246,39.928094],[-75.11414,39.928149]],[[-75.114246,39.928094],[-75.114282,39.928066],[-75.114246,39.928066],[-75.114246,39.928094]],[[-75.114282,39.928066],[-75.114317,39.928038],[-75.114282,39.928039],[-75.114282,39.928066]],[[-75.114317,39.928038],[-75.114353,39.928011],[-75.114317,39.928011],[-75.114317,39.928038]],[[-75.114317,39.927956],[-75.114387,39.927901],[-75.114352,39.927901],[-75.114317,39.927956]],[[-75.114387,39.927901],[-75.114423,39.927873],[-75.114387,39.927873],[-75.114387,39.927901]],[[-75.114423,39.927873],[-75.114458,39.927845],[-75.114423,39.927846],[-75.114423,39.927873]],[[-75.104143,39.918675],[-75.104179,39.918702],[-75.104179,39.918675],[-75.104143,39.918675]],[[-75.094349,39.911698],[-75.094386,39.911752],[-75.094385,39.911697],[-75.094349,39.911698]],[[-75.09803,39.90034],[-75.098065,39.900313],[-75.098029,39.900313],[-75.09803,39.90034]],[[-75.11106,39.902606],[-75.111096,39.902633],[-75.111096,39.902606],[-75.11106,39.902606]],[[-75.119857,39.949176],[-75.119821,39.949148],[-75.119821,39.949176],[-75.119857,39.949176]],[[-75.119821,39.949148],[-75.119785,39.949121],[-75.119785,39.949149],[-75.119821,39.949148]]],[[[-75.111616,39.937003],[-75.111652,39.93703],[-75.111616,39.93703],[-75.111616,39.937003]]],[[[-75.111836,39.93777],[-75.111873,39.937825],[-75.111837,39.937825],[-75.111836,39.93777]]],[[[-75.111873,39.93788],[-75.11191,39.937962],[-75.111874,39.937962],[-75.111873,39.93788]]],[[[-75.111946,39.938017],[-75.111911,39.938099],[-75.11191,39.938017],[-75.111946,39.938017]]],[[[-75.111947,39.938154],[-75.111983,39.938236],[-75.111948,39.938236],[-75.111947,39.938154]]],[[[-75.111984,39.938263],[-75.11202,39.938318],[-75.111984,39.938318],[-75.111984,39.938263]]],[[[-75.112572,39.940237],[-75.1125,39.940155],[-75.112499,39.940045],[-75.112572,39.940237]]],[[[-75.112204,39.943039],[-75.11224,39.943012],[-75.11224,39.943039],[-75.112204,39.943039]]],[[[-75.11153,39.9434],[-75.111496,39.943619],[-75.111211,39.943621],[-75.11153,39.9434]]],[[[-75.114285,39.944346],[-75.113893,39.944376],[-75.113891,39.944211],[-75.114285,39.944346]]],[[[-75.096619,39.947239],[-75.096583,39.947211],[-75.096618,39.947211],[-75.096619,39.947239]]],[[[-75.096512,39.947267],[-75.096512,39.947239],[-75.096547,39.947239],[-75.096548,39.947266],[-75.096512,39.947267]]],[[[-75.096584,39.947294],[-75.096548,39.947266],[-75.096583,39.947266],[-75.096584,39.947294]]],[[[-75.096477,39.947294],[-75.096441,39.947267],[-75.096476,39.947267],[-75.096477,39.947294]]],[[[-75.096477,39.947294],[-75.096512,39.947321],[-75.096477,39.947322],[-75.096477,39.947294]]],[[[-75.096512,39.947321],[-75.096548,39.947349],[-75.096513,39.947349],[-75.096512,39.947321]]],[[[-75.118096,39.94773],[-75.118131,39.947702],[-75.118132,39.94773],[-75.118096,39.94773]]],[[[-75.117848,39.947869],[-75.117812,39.947841],[-75.117847,39.947841],[-75.117848,39.947869]]],[[[-75.118704,39.947919],[-75.11874,39.947891],[-75.11874,39.947919],[-75.118704,39.947919]]],[[[-75.119137,39.948438],[-75.119173,39.948466],[-75.119137,39.948466],[-75.119137,39.948438]]],[[[-75.119458,39.948491],[-75.119495,39.948546],[-75.119459,39.948546],[-75.119458,39.948491]]],[[[-75.119387,39.948519],[-75.119352,39.948547],[-75.119352,39.948519],[-75.119387,39.948519]]],[[[-75.094164,39.911616],[-75.09417,39.911589],[-75.09417,39.911616],[-75.094164,39.911616]]],[[[-75.09637,39.94735],[-75.096334,39.947322],[-75.09637,39.947322],[-75.09637,39.94735]]],[[[-75.096299,39.947377],[-75.096263,39.94735],[-75.096299,39.94735],[-75.096299,39.947377]]],[[[-75.096299,39.947377],[-75.096406,39.947404],[-75.096335,39.947432],[-75.096299,39.947377]]],[[[-75.096228,39.947488],[-75.096121,39.947461],[-75.096299,39.947432],[-75.096228,39.947488]]],[[[-75.096014,39.947489],[-75.096014,39.947461],[-75.09605,39.947461],[-75.09605,39.947489],[-75.096014,39.947489]]],[[[-75.096086,39.947516],[-75.09605,39.947489],[-75.096086,39.947488],[-75.096086,39.947516]]],[[[-75.096015,39.947544],[-75.095979,39.947516],[-75.096015,39.947516],[-75.096015,39.947544]]],[[[-75.095801,39.9476],[-75.095766,39.947572],[-75.095801,39.947572],[-75.095801,39.9476]]],[[[-75.095624,39.947683],[-75.095588,39.947656],[-75.095624,39.947655],[-75.095624,39.947683]]],[[[-75.095233,39.94785],[-75.095197,39.947822],[-75.095233,39.947822],[-75.095233,39.94785]]],[[[-75.095055,39.947933],[-75.095019,39.947906],[-75.095055,39.947905],[-75.095055,39.947933]]],[[[-75.095129,39.948152],[-75.095093,39.948125],[-75.095128,39.948125],[-75.095129,39.948152]]],[[[-75.094844,39.948236],[-75.094808,39.948209],[-75.094844,39.948209],[-75.094844,39.948236]]],[[[-75.094487,39.948265],[-75.094452,39.948238],[-75.094487,39.948238],[-75.094487,39.948265]]],[[[-75.094702,39.948292],[-75.094737,39.948264],[-75.094737,39.948291],[-75.094702,39.948292]]],[[[-75.094666,39.948319],[-75.094702,39.948292],[-75.094702,39.948319],[-75.094666,39.948319]]],[[[-75.094381,39.948293],[-75.094417,39.948321],[-75.094381,39.948321],[-75.094381,39.948293]]],[[[-75.094559,39.94832],[-75.094381,39.948348],[-75.094523,39.948265],[-75.094559,39.94832]]],[[[-75.094702,39.948319],[-75.094738,39.948346],[-75.094702,39.948347],[-75.094702,39.948319]]],[[[-75.094346,39.948403],[-75.094381,39.948376],[-75.094382,39.948403],[-75.094346,39.948403]]],[[[-75.094525,39.948457],[-75.09456,39.94843],[-75.09456,39.948457],[-75.094525,39.948457]]],[[[-75.094239,39.948431],[-75.094346,39.948458],[-75.09424,39.948486],[-75.094239,39.948431]]],[[[-75.094418,39.948485],[-75.094525,39.948457],[-75.09449,39.948512],[-75.094418,39.948485]]],[[[-75.094383,39.948513],[-75.094418,39.948485],[-75.094418,39.948513],[-75.094383,39.948513]]],[[[-75.094418,39.94854],[-75.094454,39.948513],[-75.094454,39.94854],[-75.094418,39.94854]]],[[[-75.094347,39.948541],[-75.094383,39.948513],[-75.094383,39.94854],[-75.094347,39.948541]]],[[[-75.094204,39.948541],[-75.09424,39.948514],[-75.09424,39.948541],[-75.094204,39.948541]]],[[[-75.094383,39.94854],[-75.094419,39.948568],[-75.094383,39.948568],[-75.094383,39.94854]]],[[[-75.094097,39.948542],[-75.094133,39.948569],[-75.094098,39.948569],[-75.094097,39.948542]]],[[[-75.094171,39.948761],[-75.094207,39.948788],[-75.094171,39.948789],[-75.094171,39.948761]]],[[[-75.094064,39.948762],[-75.094099,39.948734],[-75.09417,39.948734],[-75.094171,39.948761],[-75.094135,39.948761],[-75.094135,39.948789],[-75.0941,39.948789],[-75.0941,39.948816],[-75.094064,39.948762]]],[[[-75.094135,39.948789],[-75.094171,39.948816],[-75.094135,39.948816],[-75.094135,39.948789]]],[[[-75.094135,39.948816],[-75.0941,39.948844],[-75.0941,39.948816],[-75.094135,39.948816]]],[[[-75.091912,39.922554],[-75.091591,39.922556],[-75.089944,39.92179],[-75.091422,39.921065],[-75.094722,39.920124],[-75.095563,39.920092],[-75.095633,39.919927],[-75.096524,39.919868],[-75.097134,39.920331],[-75.096785,39.921266],[-75.096287,39.921406],[-75.096144,39.92127],[-75.096074,39.921435],[-75.096328,39.92201],[-75.097042,39.922116],[-75.096834,39.922749],[-75.097512,39.9228],[-75.097519,39.923596],[-75.096736,39.923765],[-75.096737,39.92393],[-75.096202,39.92385],[-75.095565,39.92443],[-75.096213,39.925113],[-75.095139,39.924707],[-75.093883,39.923752],[-75.091985,39.922774],[-75.091912,39.922554]],[[-75.091661,39.922473],[-75.09159,39.922446],[-75.09159,39.922474],[-75.091661,39.922473]],[[-75.09159,39.922446],[-75.091554,39.922419],[-75.091554,39.922446],[-75.09159,39.922446]],[[-75.091483,39.922419],[-75.091518,39.922364],[-75.091447,39.922364],[-75.091483,39.922419]],[[-75.09202,39.922691],[-75.092091,39.922718],[-75.092091,39.922691],[-75.09202,39.922691]],[[-75.092091,39.922718],[-75.092127,39.922745],[-75.092127,39.922718],[-75.092091,39.922718]]],[[[-75.09392,39.948653],[-75.093956,39.94868],[-75.09392,39.94868],[-75.09392,39.948653]]],[[[-75.093993,39.948789],[-75.094028,39.948817],[-75.093993,39.948817],[-75.093993,39.948789]]],[[[-75.093923,39.948955],[-75.093922,39.948872],[-75.093993,39.948872],[-75.093923,39.948955]]],[[[-75.093958,39.948954],[-75.093994,39.948927],[-75.093994,39.948954],[-75.093958,39.948954]]],[[[-75.093923,39.948955],[-75.093959,39.948982],[-75.093923,39.948982],[-75.093923,39.948955]]],[[[-75.093851,39.948955],[-75.093887,39.948982],[-75.093852,39.948982],[-75.093851,39.948955]]],[[[-75.09378,39.948983],[-75.093817,39.949092],[-75.093781,39.949093],[-75.09378,39.948983]]],[[[-75.093637,39.948956],[-75.093426,39.949232],[-75.09339,39.949232],[-75.093637,39.948956]]],[[[-75.093746,39.94912],[-75.093781,39.949093],[-75.093781,39.94912],[-75.093746,39.94912]]],[[[-75.09371,39.94912],[-75.093746,39.949148],[-75.09371,39.949148],[-75.09371,39.94912]]],[[[-75.09339,39.949177],[-75.093318,39.94915],[-75.093389,39.949122],[-75.09339,39.949177]]],[[[-75.093639,39.949176],[-75.09371,39.949148],[-75.093711,39.949175],[-75.093639,39.949176]]],[[[-75.093283,39.949205],[-75.093318,39.949177],[-75.093318,39.949205],[-75.093283,39.949205]]],[[[-75.093247,39.949233],[-75.093283,39.949205],[-75.093283,39.949232],[-75.093247,39.949233]]],[[[-75.093354,39.949232],[-75.09339,39.949259],[-75.093355,39.949259],[-75.093354,39.949232]]],[[[-75.093212,39.949233],[-75.093248,39.94926],[-75.093212,39.94926],[-75.093212,39.949233]]],[[[-75.093533,39.949286],[-75.093569,39.949258],[-75.093569,39.949286],[-75.093533,39.949286]]],[[[-75.093319,39.949287],[-75.093355,39.949259],[-75.093355,39.949287],[-75.093319,39.949287]]],[[[-75.093426,39.949286],[-75.093462,39.949314],[-75.093426,39.949314],[-75.093426,39.949286]]],[[[-75.093284,39.949315],[-75.093319,39.949287],[-75.093319,39.949314],[-75.093284,39.949315]]],[[[-75.093248,39.949342],[-75.093284,39.949315],[-75.093284,39.949342],[-75.093248,39.949342]]],[[[-75.093213,39.94937],[-75.093248,39.949342],[-75.093249,39.94937],[-75.093213,39.94937]]],[[[-75.093177,39.949398],[-75.093213,39.94937],[-75.093213,39.949397],[-75.093177,39.949398]]],[[[-75.09332,39.949397],[-75.093356,39.949452],[-75.093321,39.949452],[-75.09332,39.949397]]],[[[-75.093177,39.949398],[-75.093107,39.949453],[-75.093106,39.949425],[-75.093177,39.949398]]],[[[-75.093071,39.94948],[-75.093107,39.949453],[-75.093107,39.94948],[-75.093071,39.94948]]],[[[-75.093214,39.94948],[-75.09325,39.949534],[-75.093214,39.949535],[-75.093214,39.94948]]],[[[-75.093143,39.949562],[-75.093179,39.94959],[-75.093143,39.94959],[-75.093143,39.949562]]],[[[-75.093072,39.949563],[-75.093108,39.94959],[-75.093072,39.94959],[-75.093072,39.949563]]],[[[-75.093215,39.94959],[-75.093251,39.949617],[-75.093215,39.949617],[-75.093215,39.94959]]],[[[-75.093072,39.949618],[-75.093108,39.949645],[-75.093073,39.949645],[-75.093072,39.949618]]],[[[-75.093108,39.949672],[-75.093144,39.9497],[-75.093109,39.9497],[-75.093108,39.949672]]],[[[-75.093109,39.9497],[-75.093073,39.949728],[-75.093073,39.9497],[-75.093109,39.9497]]],[[[-75.091949,39.922691],[-75.091841,39.922637],[-75.091948,39.922664],[-75.091949,39.922691]]],[[[-75.087956,39.922763],[-75.088849,39.923037],[-75.087885,39.922904],[-75.087164,39.923155],[-75.087956,39.922763]]],[[[-75.085754,39.923876],[-75.085739,39.923876],[-75.085754,39.923868],[-75.085754,39.923876]]],[[[-75.085719,39.923886],[-75.085719,39.923904],[-75.085684,39.923904],[-75.085719,39.923886]]],[[[-75.093212,39.94926],[-75.093,39.949481],[-75.092928,39.949481],[-75.093212,39.94926]]],[[[-75.092072,39.949403],[-75.092107,39.949376],[-75.092107,39.949403],[-75.092072,39.949403]]],[[[-75.092926,39.949179],[-75.092678,39.949373],[-75.092395,39.949621],[-75.092395,39.949676],[-75.092288,39.949677],[-75.092819,39.949207],[-75.092926,39.949179]]],[[[-75.092678,39.949428],[-75.092786,39.949454],[-75.092679,39.949482],[-75.092678,39.949428]]],[[[-75.092643,39.94951],[-75.092679,39.949482],[-75.092679,39.94951],[-75.092643,39.94951]]],[[[-75.093071,39.94948],[-75.093,39.949536],[-75.093,39.949508],[-75.093071,39.94948]]],[[[-75.092608,39.949538],[-75.092643,39.94951],[-75.092644,39.949538],[-75.092608,39.949538]]],[[[-75.092965,39.949563],[-75.093,39.949536],[-75.093001,39.949563],[-75.092965,39.949563]]],[[[-75.092715,39.949565],[-75.092751,39.949537],[-75.092751,39.949564],[-75.092715,39.949565]]],[[[-75.092572,39.949565],[-75.092608,39.949538],[-75.092608,39.949565],[-75.092572,39.949565]]],[[[-75.092929,39.949591],[-75.092965,39.949563],[-75.092965,39.949591],[-75.092929,39.949591]]],[[[-75.092679,39.949565],[-75.092715,39.949592],[-75.09268,39.949592],[-75.092679,39.949565]]],[[[-75.092501,39.949593],[-75.092537,39.949566],[-75.092537,39.949593],[-75.092501,39.949593]]],[[[-75.092894,39.949619],[-75.092929,39.949591],[-75.09293,39.949618],[-75.092894,39.949619]]],[[[-75.092644,39.94962],[-75.09268,39.949592],[-75.09268,39.94962],[-75.092644,39.94962]]],[[[-75.092466,39.949621],[-75.092501,39.949593],[-75.092502,39.949621],[-75.092466,39.949621]]],[[[-75.092074,39.949623],[-75.092109,39.949595],[-75.092109,39.949623],[-75.092074,39.949623]]],[[[-75.092609,39.949648],[-75.092644,39.94962],[-75.092645,39.949647],[-75.092609,39.949648]]],[[[-75.092573,39.949648],[-75.092502,39.949621],[-75.092573,39.94962],[-75.092573,39.949648]]],[[[-75.092038,39.94965],[-75.092074,39.949623],[-75.092074,39.94965],[-75.092038,39.94965]]],[[[-75.092466,39.949676],[-75.092502,39.949648],[-75.092502,39.949676],[-75.092466,39.949676]]],[[[-75.093001,39.949673],[-75.093037,39.9497],[-75.093002,39.9497],[-75.093001,39.949673]]],[[[-75.092253,39.949704],[-75.092288,39.949677],[-75.092288,39.949704],[-75.092253,39.949704]]],[[[-75.092217,39.949732],[-75.092253,39.949759],[-75.092217,39.949759],[-75.092217,39.949732]]],[[[-75.092967,39.949783],[-75.093003,39.94981],[-75.092967,39.94981],[-75.092967,39.949783]]],[[[-75.091305,39.951521],[-75.091269,39.951494],[-75.091305,39.951494],[-75.091305,39.951521]]],[[[-75.091234,39.951549],[-75.091198,39.951522],[-75.091234,39.951521],[-75.091234,39.951549]]],[[[-75.077862,39.952165],[-75.077541,39.952112],[-75.077644,39.9517],[-75.078361,39.952081],[-75.078786,39.951749],[-75.079215,39.951857],[-75.079292,39.952433],[-75.078187,39.952603],[-75.077862,39.952165]]],[[[-75.084672,39.955865],[-75.083348,39.955432],[-75.083666,39.955101],[-75.08266,39.954255],[-75.081972,39.953078],[-75.081509,39.953081],[-75.08172,39.952723],[-75.081323,39.95223],[-75.081824,39.95242],[-75.081713,39.951954],[-75.084787,39.952707],[-75.085218,39.952952],[-75.085221,39.953336],[-75.085898,39.953223],[-75.086472,39.953632],[-75.086657,39.9544],[-75.086232,39.954841],[-75.084672,39.955865]]],[[[-75.085953,39.955474],[-75.085917,39.955502],[-75.085917,39.955474],[-75.085953,39.955474]]]]}}]}