{"type":"FeatureCollection","features":[{"type":"Feature","properties":{"level_ft":6},"geometry":{"type":"MultiPolygon","coordinates":[[[[-75.112253,39.900458],[-75.111283,39.899557],[-75.111422,39.899227],[-75.111959,39.899416],[-75.112715,39.900291],[-75.112253,39.900458]]],[[[-75.111793,39.900872],[-75.111218,39.900354],[-75.111576,39.900434],[-75.111793,39.900872]]],[[[-75.115588,39.902664],[-75.113112,39.900893],[-75.112397,39.900567],[-75.112752,39.900401],[-75.112856,39.900071],[-75.112529,39.899413],[-75.111634,39.899006],[-75.110852,39.899258],[-75.110528,39.898905],[-75.111838,39.898569],[-75.113166,39.899305],[-75.113874,39.901102],[-75.11643,39.902191],[-75.11655,39.902879],[-75.115588,39.902664]]],[[[-75.112732,39.902213],[-75.111051,39.901618],[-75.110796,39.900905],[-75.111514,39.901533],[-75.112623,39.901966],[-75.112732,39.902213]]],[[[-75.115267,39.902666],[-75.114088,39.902398],[-75.11362,39.901879],[-75.112869,39.90158],[-75.11204,39.900542],[-75.113114,39.90103],[-75.115267,39.902666]]],[[[-75.113551,39.902071],[-75.113337,39.9021],[-75.113301,39.902045],[-75.113551,39.902071]]],[[[-75.113554,39.902483],[-75.113124,39.902211],[-75.113733,39.902509],[-75.113554,39.902483]]],[[[-75.112984,39.902458],[-75.112806,39.902514],[-75.112769,39.902405],[-75.112984,39.902458]]],[[[-75.113056,39.902513],[-75.113662,39.90262],[-75.113699,39.902674],[-75.113056,39.902513]]],[[[-75.115267,39.902666],[-75.115339,39.902693],[-75.115267,39.902693],[-75.115267,39.902666]]],[[[-75.114593,39.903081],[-75.114056,39.902727],[-75.116513,39.903126],[-75.116378,39.903319],[-75.115772,39.903322],[-75.114593,39.903081]]],[[[-75.113213,39.904159],[-75.112417,39.902901],[-75.112879,39.902679],[-75.113524,39.903032],[-75.113213,39.904159]]],[[[-75.111812,39.902986],[-75.1134,39.905119],[-75.113547,39.90564],[-75.111164,39.902248],[-75.111379,39.902385],[-75.111843,39.902437],[-75.111812,39.902986]],[[-75.11203,39.903397],[-75.111994,39.903425],[-75.11203,39.903424],[-75.11203,39.903397]]],[[[-75.11402,39.906681],[-75.113914,39.906874],[-75.113841,39.906599],[-75.11402,39.906681]]],[[[-75.116604,39.912625],[-75.117072,39.913199],[-75.116142,39.912819],[-75.116104,39.912517],[-75.116422,39.912269],[-75.116128,39.911227],[-75.116378,39.911335],[-75.116911,39.911086],[-75.117129,39.911579],[-75.116811,39.911882],[-75.117132,39.911881],[-75.117205,39.9121],[-75.116604,39.912625]]],[[[-75.116817,39.912514],[-75.116853,39.912541],[-75.116817,39.912541],[-75.116817,39.912514]]],[[[-75.114772,39.915078],[-75.112772,39.914704],[-75.112875,39.914209],[-75.113903,39.913572],[-75.114509,39.913597],[-75.114293,39.913296],[-75.114611,39.912992],[-75.115039,39.913072],[-75.115178,39.912605],[-75.114853,39.912195],[-75.115172,39.912028],[-75.11564,39.912492],[-75.115398,39.913317],[-75.11566,39.914744],[-75.115231,39.914554],[-75.114772,39.915078]]],[[[-75.117111,39.921517],[-75.117005,39.9216],[-75.117004,39.92149],[-75.117111,39.921517]]],[[[-75.116864,39.92171],[-75.116969,39.921573],[-75.116936,39.921792],[-75.116864,39.92171]]],[[[-75.115566,39.924161],[-75.113211,39.923954],[-75.112857,39.92423],[-75.112498,39.924012],[-75.112815,39.923516],[-75.112352,39.923546],[-75.112207,39.923327],[-75.112956,39.923323],[-75.112811,39.92305],[-75.113166,39.922856],[-75.113879,39.922934],[-75.113985,39.922769],[-75.114309,39.923097],[-75.114204,39.923317],[-75.11538,39.923311],[-75.1152,39.923119],[-75.115664,39.923089],[-75.115803,39.922759],[-75.115953,39.923555],[-75.115677,39.924599],[-75.115566,39.924161]]],[[[-75.116126,39.926903],[-75.116162,39.926985],[-75.116126,39.926985],[-75.116126,39.926903]]],[[[-75.126704,39.945103],[-75.126809,39.944855],[-75.126556,39.944527],[-75.126164,39.944502],[-75.12634,39.944282],[-75.126161,39.9442],[-75.128766,39.944406],[-75.128866,39.943636],[-75.129146,39.942976],[-75.129184,39.943278],[-75.12936,39.942975],[-75.129628,39.94506],[-75.130273,39.945358],[-75.13053,39.946126],[-75.131103,39.946397],[-75.130929,39.946865],[-75.131288,39.947055],[-75.131978,39.944608],[-75.13207,39.942933],[-75.131782,39.942687],[-75.130855,39.942692],[-75.130386,39.942091],[-75.129745,39.942259],[-75.129458,39.942068],[-75.129246,39.942262],[-75.128988,39.941385],[-75.129736,39.941188],[-75.130736,39.941375],[-75.131769,39.941177],[-75.131971,39.939941],[-75.130969,39.939562],[-75.128685,39.939355],[-75.12829,39.939137],[-75.128005,39.939194],[-75.12822,39.93922],[-75.128228,39.940098],[-75.127906,39.940018],[-75.127867,39.939606],[-75.127655,39.939909],[-75.127545,39.939498],[-75.126939,39.939611],[-75.126494,39.941673],[-75.12689,39.942055],[-75.127211,39.941998],[-75.127217,39.942712],[-75.127042,39.94307],[-75.126044,39.94313],[-75.12587,39.943625],[-75.1243,39.943496],[-75.123798,39.943252],[-75.123759,39.942868],[-75.122153,39.942712],[-75.122472,39.942573],[-75.12215,39.942382],[-75.122934,39.942378],[-75.123075,39.942185],[-75.123398,39.942376],[-75.123753,39.942182],[-75.123358,39.941937],[-75.123111,39.942158],[-75.123001,39.941884],[-75.122108,39.941779],[-75.122533,39.941364],[-75.122711,39.941391],[-75.122678,39.941638],[-75.122857,39.941692],[-75.122853,39.941335],[-75.123103,39.941306],[-75.122172,39.9409],[-75.123135,39.940949],[-75.123204,39.940702],[-75.123202,39.9404],[-75.122308,39.940158],[-75.12327,39.940125],[-75.123087,39.93955],[-75.123371,39.939466],[-75.12344,39.939108],[-75.123975,39.939133],[-75.123722,39.93875],[-75.124364,39.938774],[-75.124361,39.938417],[-75.124681,39.93836],[-75.124429,39.938142],[-75.124964,39.938057],[-75.125032,39.937755],[-75.124674,39.937564],[-75.124957,39.937316],[-75.124739,39.936905],[-75.124346,39.936825],[-75.124305,39.936276],[-75.123841,39.936169],[-75.124196,39.93603],[-75.124085,39.935591],[-75.123481,39.935841],[-75.123479,39.935567],[-75.122837,39.935598],[-75.124119,39.935344],[-75.124152,39.935069],[-75.123795,39.935071],[-75.123794,39.934906],[-75.123116,39.93491],[-75.123683,39.934495],[-75.123039,39.934279],[-75.123037,39.934087],[-75.12375,39.934028],[-75.123961,39.93367],[-75.122818,39.933484],[-75.123886,39.933286],[-75.123847,39.932874],[-75.122634,39.932881],[-75.123131,39.932604],[-75.123773,39.9326],[-75.123734,39.932298],[-75.122236,39.932224],[-75.122131,39.932417],[-75.122019,39.931923],[-75.122555,39.932003],[-75.122693,39.931453],[-75.122051,39.931484],[-75.122013,39.931264],[-75.123261,39.93123],[-75.123259,39.931038],[-75.123617,39.931173],[-75.123364,39.930735],[-75.12283,39.930903],[-75.122435,39.930548],[-75.123219,39.930489],[-75.12357,39.929856],[-75.123784,39.929882],[-75.12386,39.930403],[-75.12443,39.930318],[-75.124497,39.929878],[-75.124031,39.929634],[-75.124778,39.929465],[-75.124528,39.929329],[-75.123994,39.929497],[-75.123743,39.929306],[-75.123532,39.929636],[-75.122959,39.929337],[-75.122248,39.929588],[-75.122285,39.929808],[-75.122963,39.929777],[-75.122964,39.929941],[-75.122002,39.930029],[-75.121899,39.930414],[-75.121682,39.930086],[-75.121363,39.930334],[-75.121037,39.92976],[-75.120825,39.930008],[-75.120179,39.92949],[-75.119643,39.929465],[-75.11961,39.929767],[-75.119361,39.929769],[-75.119358,39.929494],[-75.119,39.929304],[-75.118998,39.929029],[-75.119247,39.929],[-75.118353,39.928758],[-75.119136,39.928534],[-75.11899,39.928206],[-75.118063,39.928183],[-75.117601,39.928405],[-75.117562,39.928021],[-75.117355,39.928763],[-75.116927,39.928766],[-75.117249,39.928929],[-75.116501,39.929015],[-75.116325,39.929263],[-75.115931,39.9291],[-75.115364,39.929433],[-75.115466,39.928883],[-75.115821,39.928662],[-75.116178,39.92877],[-75.116379,39.923305],[-75.116578,39.921712],[-75.116865,39.921848],[-75.11694,39.922232],[-75.117042,39.921737],[-75.117942,39.922693],[-75.117983,39.923297],[-75.118555,39.923458],[-75.118308,39.923734],[-75.118057,39.923571],[-75.118137,39.924504],[-75.118778,39.924418],[-75.119065,39.924636],[-75.119275,39.924223],[-75.120558,39.924079],[-75.120805,39.923858],[-75.120374,39.923504],[-75.120908,39.923418],[-75.120762,39.923062],[-75.121117,39.922896],[-75.121112,39.922347],[-75.12072,39.922349],[-75.120682,39.922074],[-75.121249,39.921714],[-75.121242,39.920946],[-75.120707,39.920894],[-75.121169,39.920727],[-75.121166,39.92037],[-75.120525,39.92051],[-75.120416,39.920264],[-75.119739,39.920268],[-75.119557,39.919857],[-75.119239,39.920243],[-75.11888,39.919915],[-75.11867,39.920328],[-75.118557,39.919642],[-75.117916,39.919756],[-75.117628,39.919455],[-75.11791,39.919124],[-75.11802,39.919426],[-75.118662,39.919422],[-75.118694,39.919065],[-75.118875,39.919421],[-75.119018,39.91942],[-75.119151,39.918349],[-75.120115,39.918481],[-75.119829,39.918373],[-75.120184,39.918234],[-75.120004,39.918042],[-75.12054,39.918149],[-75.120536,39.917737],[-75.120036,39.917685],[-75.120069,39.917383],[-75.118461,39.916925],[-75.118638,39.916787],[-75.11978,39.916945],[-75.119883,39.916451],[-75.120273,39.916256],[-75.120042,39.914308],[-75.119758,39.914447],[-75.119685,39.914255],[-75.119328,39.914257],[-75.119327,39.914093],[-75.119719,39.914091],[-75.119563,39.912581],[-75.119912,39.911783],[-75.12045,39.91211],[-75.121017,39.911805],[-75.123014,39.911877],[-75.122617,39.911302],[-75.122646,39.910561],[-75.12211,39.910454],[-75.12115,39.910733],[-75.121005,39.910405],[-75.120218,39.910162],[-75.119077,39.910141],[-75.118398,39.909897],[-75.118366,39.910337],[-75.118082,39.910503],[-75.118044,39.910228],[-75.117975,39.910476],[-75.118134,39.912314],[-75.11799,39.912151],[-75.117708,39.912454],[-75.117054,39.911085],[-75.117435,39.90993],[-75.117357,39.909189],[-75.115922,39.908098],[-75.115317,39.908266],[-75.115063,39.907773],[-75.115311,39.907607],[-75.114595,39.907254],[-75.115473,39.909803],[-75.114974,39.909723],[-75.114875,39.910657],[-75.113937,39.909372],[-75.113507,39.909209],[-75.112509,39.909215],[-75.112476,39.909462],[-75.111803,39.90996],[-75.110446,39.90972],[-75.109738,39.910327],[-75.1087,39.909839],[-75.108308,39.909868],[-75.109529,39.910878],[-75.109535,39.911509],[-75.109896,39.912001],[-75.109899,39.912386],[-75.109579,39.912497],[-75.10812,39.912752],[-75.107362,39.91174],[-75.102975,39.911433],[-75.10163,39.912566],[-75.101274,39.912595],[-75.101036,39.913997],[-75.1004,39.914604],[-75.099865,39.913659],[-75.099497,39.913857],[-75.098463,39.913809],[-75.098089,39.914078],[-75.097455,39.913516],[-75.096364,39.913826],[-75.095429,39.912818],[-75.09557,39.912707],[-75.096181,39.91328],[-75.097216,39.91333],[-75.097641,39.913081],[-75.09742,39.912203],[-75.096879,39.911465],[-75.097374,39.911051],[-75.09719,39.910393],[-75.097943,39.910828],[-75.098441,39.910716],[-75.098222,39.910195],[-75.098475,39.910551],[-75.098972,39.910356],[-75.098183,39.909729],[-75.097898,39.909785],[-75.097609,39.909402],[-75.09775,39.909182],[-75.097536,39.909183],[-75.097604,39.908743],[-75.098925,39.908956],[-75.099283,39.909229],[-75.100208,39.909004],[-75.09989,39.909253],[-75.100036,39.909637],[-75.100462,39.90947],[-75.100601,39.909112],[-75.101101,39.909192],[-75.101596,39.908723],[-75.102026,39.908913],[-75.103378,39.908631],[-75.104341,39.908708],[-75.105382,39.909499],[-75.106311,39.909714],[-75.107235,39.909407],[-75.108021,39.909595],[-75.108374,39.909209],[-75.108118,39.908524],[-75.108506,39.908055],[-75.108467,39.907671],[-75.10879,39.907861],[-75.109535,39.907446],[-75.110061,39.906537],[-75.110877,39.906039],[-75.111225,39.905103],[-75.11222,39.904741],[-75.112289,39.904466],[-75.113082,39.905505],[-75.114723,39.909587],[-75.114856,39.908571],[-75.113716,39.904651],[-75.11381,39.90314],[-75.116437,39.903456],[-75.11488,39.9054],[-75.114715,39.906125],[-75.117488,39.90849],[-75.119918,39.908517],[-75.120064,39.908872],[-75.120132,39.908514],[-75.121403,39.907762],[-75.122702,39.907449],[-75.129344,39.907381],[-75.129091,39.911608],[-75.12984,39.915359],[-75.13631,39.92878],[-75.136621,39.93037],[-75.136792,39.935065],[-75.136556,39.941533],[-75.135631,39.947459],[-75.134194,39.952774],[-75.125012,39.951234],[-75.12426,39.950937],[-75.125293,39.950739],[-75.125251,39.95008],[-75.124749,39.949808],[-75.125391,39.949777],[-75.125563,39.949063],[-75.125169,39.948873],[-75.125703,39.948787],[-75.125911,39.948127],[-75.12573,39.947826],[-75.126084,39.947495],[-75.125153,39.947088],[-75.12547,39.946702],[-75.125254,39.946484],[-75.126074,39.946369],[-75.126639,39.945817],[-75.127283,39.945951],[-75.127243,39.945567],[-75.127742,39.945482],[-75.126704,39.945103]],[[-75.119247,39.929],[-75.119282,39.928973],[-75.119247,39.928973],[-75.119247,39.929]],[[-75.118996,39.928837],[-75.119031,39.928809],[-75.118996,39.92881],[-75.118996,39.928837]],[[-75.11647,39.925474],[-75.116539,39.925281],[-75.116538,39.925144],[-75.116467,39.925144],[-75.11647,39.925474]],[[-75.116538,39.925144],[-75.116573,39.925034],[-75.116537,39.925034],[-75.116538,39.925144]],[[-75.116433,39.925364],[-75.116397,39.925337],[-75.116397,39.925364],[-75.116433,39.925364]],[[-75.116398,39.925474],[-75.116362,39.925447],[-75.116363,39.925474],[-75.116398,39.925474]],[[-75.116363,39.925557],[-75.116327,39.925529],[-75.116328,39.925557],[-75.116363,39.925557]],[[-75.116758,39.921821],[-75.116722,39.921848],[-75.116758,39.921848],[-75.116758,39.921821]],[[-75.120002,39.913869],[-75.120148,39.914253],[-75.120143,39.913731],[-75.120002,39.913869]],[[-75.112086,39.909684],[-75.11205,39.909656],[-75.11205,39.909684],[-75.112086,39.909684]],[[-75.127061,39.945129],[-75.127096,39.945101],[-75.127061,39.945101],[-75.127061,39.945129]]],[[[-75.115766,39.926576],[-75.111028,39.931021],[-75.11061,39.932149],[-75.110622,39.933576],[-75.110374,39.93377],[-75.110441,39.933248],[-75.109227,39.933062],[-75.108722,39.93246],[-75.108718,39.931939],[-75.108251,39.931584],[-75.109709,39.93111],[-75.109671,39.930808],[-75.110062,39.930696],[-75.110095,39.930449],[-75.110489,39.930584],[-75.111022,39.930362],[-75.11102,39.93017],[-75.110699,39.930116],[-75.111229,39.929647],[-75.110722,39.928744],[-75.111038,39.928138],[-75.110822,39.928002],[-75.110918,39.926711],[-75.111236,39.92638],[-75.111348,39.926983],[-75.112132,39.926897],[-75.111843,39.926432],[-75.111236,39.926352],[-75.111233,39.926105],[-75.111518,39.926022],[-75.111051,39.925667],[-75.11105,39.925475],[-75.112083,39.925442],[-75.112082,39.925277],[-75.111049,39.925447],[-75.110976,39.925283],[-75.112188,39.925167],[-75.11197,39.924701],[-75.112289,39.924535],[-75.112286,39.924233],[-75.112608,39.924314],[-75.112652,39.925219],[-75.112938,39.925273],[-75.113145,39.924558],[-75.113761,39.925598],[-75.113549,39.925874],[-75.113978,39.925926],[-75.11291,39.926179],[-75.113057,39.9267],[-75.113269,39.926479],[-75.113768,39.926476],[-75.11395,39.926832],[-75.114271,39.926858],[-75.114412,39.92661],[-75.114486,39.926939],[-75.115022,39.927101],[-75.115015,39.92636],[-75.115372,39.926358],[-75.115501,39.924875],[-75.115824,39.925038],[-75.115766,39.926576]],[[-75.108938,39.932624],[-75.108973,39.932596],[-75.108937,39.932597],[-75.108938,39.932624]],[[-75.108973,39.932596],[-75.109009,39.932569],[-75.108973,39.932569],[-75.108973,39.932596]],[[-75.111096,39.926738],[-75.111132,39.926765],[-75.111132,39.926737],[-75.111096,39.926738]],[[-75.113678,39.928371],[-75.113642,39.928316],[-75.113643,39.928371],[-75.113678,39.928371]]],[[[-75.114394,39.928587],[-75.114533,39.928284],[-75.114927,39.928392],[-75.114862,39.929134],[-75.113234,39.930515],[-75.113166,39.930845],[-75.111927,39.931922],[-75.111965,39.932224],[-75.111538,39.932308],[-75.111576,39.932528],[-75.111148,39.932585],[-75.111008,39.93286],[-75.11086,39.932202],[-75.111489,39.930826],[-75.113894,39.928535],[-75.114394,39.928587]],[[-75.114144,39.928643],[-75.114109,39.928698],[-75.114145,39.928698],[-75.114144,39.928643]],[[-75.114109,39.928698],[-75.114074,39.928753],[-75.11411,39.928753],[-75.114109,39.928698]]],[[[-75.113347,39.931146],[-75.114021,39.930758],[-75.114128,39.930757],[-75.113917,39.931143],[-75.113383,39.931255],[-75.113347,39.931146]],[[-75.113596,39.931172],[-75.113525,39.931145],[-75.113525,39.931172],[-75.113596,39.931172]]],[[[-75.112888,39.931697],[-75.11317,39.931311],[-75.113348,39.93131],[-75.112888,39.931697]]],[[[-75.114735,39.942806],[-75.116376,39.942825],[-75.116449,39.943017],[-75.114595,39.943136],[-75.114735,39.942806]]],[[[-75.110751,39.899917],[-75.110067,39.899097],[-75.110351,39.898973],[-75.111324,39.900216],[-75.110751,39.899917]]],[[[-75.110874,39.901701],[-75.112769,39.902322],[-75.11084,39.901921],[-75.109419,39.902422],[-75.110593,39.902224],[-75.111066,39.903237],[-75.110781,39.903266],[-75.110922,39.903046],[-75.110137,39.90305],[-75.110314,39.902829],[-75.110097,39.902529],[-75.110065,39.902913],[-75.109349,39.902593],[-75.108568,39.902976],[-75.108641,39.903168],[-75.10814,39.902951],[-75.107606,39.903036],[-75.109098,39.902397],[-75.108669,39.902289],[-75.107674,39.902624],[-75.107676,39.902843],[-75.107176,39.902764],[-75.106359,39.90307],[-75.106468,39.903261],[-75.107072,39.903121],[-75.107216,39.903257],[-75.106294,39.903756],[-75.106367,39.903948],[-75.105796,39.903924],[-75.105586,39.904364],[-75.10466,39.904479],[-75.104557,39.904891],[-75.103841,39.904593],[-75.103628,39.904649],[-75.103668,39.905088],[-75.103275,39.905008],[-75.103416,39.904842],[-75.103344,39.904733],[-75.102456,39.905094],[-75.100817,39.905267],[-75.101456,39.904962],[-75.100706,39.904746],[-75.100531,39.905104],[-75.100316,39.904996],[-75.100491,39.904638],[-75.099847,39.904339],[-75.100632,39.904417],[-75.100772,39.904197],[-75.10045,39.904006],[-75.100626,39.903786],[-75.100842,39.904059],[-75.100804,39.90373],[-75.100374,39.90343],[-75.099841,39.903653],[-75.098981,39.903163],[-75.09926,39.902475],[-75.098687,39.902149],[-75.098505,39.901738],[-75.10196,39.901418],[-75.099068,39.900829],[-75.099909,39.899232],[-75.101146,39.898882],[-75.102116,39.899107],[-75.102917,39.899882],[-75.104793,39.900527],[-75.107941,39.900238],[-75.10964,39.899265],[-75.109968,39.900086],[-75.109327,39.900117],[-75.105667,39.901344],[-75.104633,39.901404],[-75.106523,39.901449],[-75.107626,39.901224],[-75.107448,39.901307],[-75.110874,39.901701]],[[-75.10814,39.902951],[-75.108282,39.902895],[-75.10814,39.902923],[-75.10814,39.902951]],[[-75.110839,39.901783],[-75.110839,39.901783],[-75.110839,39.901756],[-75.110839,39.901783]],[[-75.110946,39.901783],[-75.110911,39.90181],[-75.110946,39.90181],[-75.110946,39.901783]],[[-75.109385,39.902587],[-75.109349,39.90256],[-75.109349,39.902587],[-75.109385,39.902587]]],[[[-75.111342,39.902247],[-75.111378,39.902275],[-75.111342,39.902275],[-75.111342,39.902247]]],[[[-75.111414,39.902302],[-75.111379,39.90233],[-75.111378,39.902302],[-75.111414,39.902302]]],[[[-75.111165,39.902331],[-75.111094,39.902386],[-75.111093,39.902304],[-75.111165,39.902331]]],[[[-75.111068,39.931597],[-75.111032,39.93157],[-75.111068,39.93157],[-75.111068,39.931597]]],[[[-75.110795,39.932999],[-75.110973,39.93286],[-75.110903,39.933025],[-75.110795,39.932999]]],[[[-75.106597,39.934036],[-75.106419,39.934092],[-75.105809,39.933739],[-75.105668,39.933877],[-75.105992,39.934287],[-75.10542,39.93407],[-75.105275,39.933824],[-75.105734,39.933245],[-75.105231,39.932836],[-75.105982,39.933134],[-75.107444,39.933099],[-75.107047,39.932606],[-75.106155,39.932501],[-75.107045,39.932277],[-75.107866,39.932383],[-75.107942,39.932986],[-75.108586,39.933175],[-75.10798,39.933233],[-75.107946,39.933425],[-75.107731,39.933262],[-75.106483,39.933351],[-75.106877,39.933513],[-75.106701,39.933761],[-75.10638,39.933708],[-75.106597,39.934036]],[[-75.10638,39.933708],[-75.106308,39.933681],[-75.106308,39.933708],[-75.10638,39.933708]]],[[[-75.106245,39.942659],[-75.106281,39.942686],[-75.106245,39.942686],[-75.106245,39.942659]]],[[[-75.106244,39.942604],[-75.106879,39.941777],[-75.106453,39.941971],[-75.106344,39.941807],[-75.107054,39.941364],[-75.107801,39.941223],[-75.108481,39.941494],[-75.108309,39.942126],[-75.108557,39.942015],[-75.108421,39.94273],[-75.108642,39.943552],[-75.108396,39.943938],[-75.10765,39.944326],[-75.106261,39.944526],[-75.105648,39.943787],[-75.106069,39.942989],[-75.106462,39.943042],[-75.106461,39.942905],[-75.106244,39.942604]]],[[[-75.108942,39.945198],[-75.10787,39.944956],[-75.108087,39.945257],[-75.107766,39.945341],[-75.106833,39.94466],[-75.107865,39.944407],[-75.109228,39.945196],[-75.108942,39.945198]],[[-75.108942,39.94517],[-75.109013,39.945115],[-75.108941,39.945115],[-75.108942,39.94517]]],[[[-75.104339,39.945002],[-75.104375,39.94503],[-75.104339,39.94503],[-75.104339,39.945002]]],[[[-75.103841,39.945087],[-75.104054,39.945059],[-75.103841,39.945115],[-75.103841,39.945087]]],[[[-75.102274,39.94537],[-75.102203,39.945398],[-75.102202,39.94537],[-75.102274,39.94537]]],[[[-75.102025,39.945426],[-75.102203,39.945398],[-75.102203,39.945425],[-75.102025,39.945426]]],[[[-75.101492,39.945703],[-75.101528,39.945731],[-75.101492,39.945731],[-75.101492,39.945703]]],[[[-75.101385,39.945731],[-75.101421,39.945759],[-75.101385,39.945759],[-75.101385,39.945731]]],[[[-75.101279,39.945787],[-75.101314,39.945759],[-75.101314,39.945787],[-75.101279,39.945787]]],[[[-75.101207,39.94576],[-75.101243,39.945787],[-75.101207,39.945787],[-75.101207,39.94576]]],[[[-75.101065,39.945843],[-75.1011,39.945788],[-75.101101,39.945843],[-75.101065,39.945843]]],[[[-75.102025,39.945426],[-75.10078,39.945817],[-75.100958,39.945816],[-75.100959,39.945926],[-75.10046,39.945928],[-75.098324,39.946406],[-75.100351,39.945764],[-75.102025,39.945426]],[[-75.100815,39.945789],[-75.100708,39.945735],[-75.100708,39.94579],[-75.100815,39.945789]],[[-75.100851,39.945844],[-75.100923,39.945871],[-75.100922,39.945844],[-75.100851,39.945844]],[[-75.100816,39.945927],[-75.10078,39.945899],[-75.100781,39.945927],[-75.100816,39.945927]]],[[[-75.100318,39.946039],[-75.10046,39.946011],[-75.10046,39.946038],[-75.100318,39.946039]]],[[[-75.100211,39.946067],[-75.100318,39.946039],[-75.100318,39.946066],[-75.100211,39.946067]]],[[[-75.100069,39.946095],[-75.100175,39.946067],[-75.100176,39.946095],[-75.100069,39.946095]]],[[[-75.099962,39.946096],[-75.100033,39.946123],[-75.099962,39.946123],[-75.099962,39.946096]]],[[[-75.099859,39.946618],[-75.099966,39.94659],[-75.099966,39.946617],[-75.099859,39.946618]]],[[[-75.125687,39.9548],[-75.125853,39.953454],[-75.124066,39.953051],[-75.124384,39.952775],[-75.124238,39.952419],[-75.124558,39.95228],[-75.12409,39.951816],[-75.124661,39.951868],[-75.124766,39.951648],[-75.1243,39.951348],[-75.134099,39.953052],[-75.132573,39.956557],[-75.130162,39.959455],[-75.125749,39.962444],[-75.122172,39.964298],[-75.119748,39.96171],[-75.118447,39.960723],[-75.115839,39.959328],[-75.110143,39.958016],[-75.108033,39.958011],[-75.106227,39.958401],[-75.104126,39.95944],[-75.096972,39.964978],[-75.093629,39.966868],[-75.088105,39.969382],[-75.085342,39.965848],[-75.085432,39.965607],[-75.085072,39.965197],[-75.08557,39.965057],[-75.085888,39.964644],[-75.086318,39.964861],[-75.086709,39.964667],[-75.087498,39.96513],[-75.088638,39.965014],[-75.089879,39.964102],[-75.089912,39.96369],[-75.089624,39.963445],[-75.089869,39.962867],[-75.089655,39.962923],[-75.08958,39.962456],[-75.089865,39.962373],[-75.08961,39.96177],[-75.090071,39.961493],[-75.089711,39.961056],[-75.089921,39.960615],[-75.089492,39.960508],[-75.089417,39.960096],[-75.088592,39.959579],[-75.088658,39.958974],[-75.089194,39.959082],[-75.089048,39.958671],[-75.088549,39.958755],[-75.088974,39.958369],[-75.088828,39.957958],[-75.089043,39.958094],[-75.089149,39.958011],[-75.08861,39.957547],[-75.087931,39.957413],[-75.087675,39.956701],[-75.087998,39.956891],[-75.087996,39.956672],[-75.087638,39.956454],[-75.087561,39.95585],[-75.087276,39.955934],[-75.086918,39.955716],[-75.086813,39.955936],[-75.086346,39.955609],[-75.086272,39.955308],[-75.086839,39.954838],[-75.087339,39.954863],[-75.087735,39.955383],[-75.088914,39.955596],[-75.089635,39.956361],[-75.090313,39.956385],[-75.090567,39.956961],[-75.091069,39.957233],[-75.091782,39.957202],[-75.091928,39.95753],[-75.091537,39.957752],[-75.091396,39.957945],[-75.09193,39.957805],[-75.091541,39.958191],[-75.092076,39.958161],[-75.091758,39.958492],[-75.092115,39.958545],[-75.092155,39.959012],[-75.091763,39.959096],[-75.092337,39.959532],[-75.092198,39.95989],[-75.092592,39.960053],[-75.09245,39.960218],[-75.092848,39.960847],[-75.092676,39.961507],[-75.093609,39.962216],[-75.095003,39.962429],[-75.095394,39.962344],[-75.095428,39.962125],[-75.095892,39.962122],[-75.096703,39.961075],[-75.096664,39.960636],[-75.097089,39.960359],[-75.097013,39.959728],[-75.09769,39.95967],[-75.098442,39.959968],[-75.098653,39.959665],[-75.100113,39.959328],[-75.099537,39.958781],[-75.099784,39.958396],[-75.100423,39.958118],[-75.100243,39.957872],[-75.099639,39.958177],[-75.099243,39.95774],[-75.098356,39.958293],[-75.097785,39.958241],[-75.097075,39.958684],[-75.096822,39.958356],[-75.096888,39.95767],[-75.097453,39.95698],[-75.097517,39.956156],[-75.097764,39.955908],[-75.097979,39.955989],[-75.098258,39.955274],[-75.099115,39.955297],[-75.099928,39.954497],[-75.100536,39.954686],[-75.100426,39.954384],[-75.100711,39.9543],[-75.099887,39.953865],[-75.100169,39.95348],[-75.09974,39.953345],[-75.099845,39.953152],[-75.100274,39.953259],[-75.10002,39.952822],[-75.100307,39.95293],[-75.100306,39.952793],[-75.100158,39.952189],[-75.099691,39.951917],[-75.099975,39.951696],[-75.099688,39.951533],[-75.100009,39.951476],[-75.099934,39.95112],[-75.100219,39.951091],[-75.100392,39.950459],[-75.101106,39.950565],[-75.101707,39.949848],[-75.100666,39.949194],[-75.100807,39.948946],[-75.101093,39.948972],[-75.101373,39.948449],[-75.100735,39.948919],[-75.100518,39.948591],[-75.100875,39.948617],[-75.100764,39.948151],[-75.100516,39.948262],[-75.100299,39.947933],[-75.099979,39.9481],[-75.099942,39.947908],[-75.099408,39.948103],[-75.09855,39.947778],[-75.098582,39.947448],[-75.097978,39.947671],[-75.097511,39.947344],[-75.09808,39.947066],[-75.098436,39.94701],[-75.098613,39.946899],[-75.099788,39.946591],[-75.099895,39.946673],[-75.102525,39.945533],[-75.106797,39.94466],[-75.106763,39.944825],[-75.104591,39.945275],[-75.105342,39.945409],[-75.106124,39.945103],[-75.107265,39.945152],[-75.108703,39.94638],[-75.108851,39.94701],[-75.110259,39.94887],[-75.110709,39.951366],[-75.110033,39.951534],[-75.110817,39.951447],[-75.111689,39.953255],[-75.111087,39.953697],[-75.110948,39.954165],[-75.112104,39.955778],[-75.111969,39.956685],[-75.112635,39.955281],[-75.113168,39.955086],[-75.113495,39.955743],[-75.113927,39.956153],[-75.114176,39.956097],[-75.114006,39.957059],[-75.115326,39.957079],[-75.115716,39.956802],[-75.115789,39.956994],[-75.116288,39.956964],[-75.116178,39.956553],[-75.116994,39.956137],[-75.11786,39.957203],[-75.118576,39.957473],[-75.118858,39.95706],[-75.120104,39.956834],[-75.120243,39.956366],[-75.120528,39.956365],[-75.12053,39.956557],[-75.120671,39.956337],[-75.121063,39.956362],[-75.121315,39.95658],[-75.120851,39.956583],[-75.120818,39.95683],[-75.121176,39.956993],[-75.120749,39.957105],[-75.121037,39.957351],[-75.120358,39.957272],[-75.120288,39.957437],[-75.120933,39.957735],[-75.121811,39.956221],[-75.120845,39.955869],[-75.12163,39.955947],[-75.121841,39.955589],[-75.122233,39.955532],[-75.122416,39.956025],[-75.122025,39.956192],[-75.121817,39.956825],[-75.122033,39.957098],[-75.12168,39.957457],[-75.121513,39.958693],[-75.12219,39.958662],[-75.122716,39.957643],[-75.122745,39.956902],[-75.12217,39.956493],[-75.122992,39.956571],[-75.123136,39.956763],[-75.123383,39.956404],[-75.123077,39.958081],[-75.123326,39.958052],[-75.12371,39.957144],[-75.124707,39.956946],[-75.124684,39.958347],[-75.124828,39.958401],[-75.124917,39.956479],[-75.124129,39.956098],[-75.124626,39.955794],[-75.124409,39.95552],[-75.124766,39.955491],[-75.124798,39.955189],[-75.124475,39.954944],[-75.124832,39.954969],[-75.124826,39.954283],[-75.124501,39.953873],[-75.125108,39.953952],[-75.125294,39.954747],[-75.125687,39.9548]],[[-75.08557,39.965057],[-75.085606,39.965085],[-75.085606,39.965057],[-75.08557,39.965057]],[[-75.087929,39.957194],[-75.087965,39.957166],[-75.087929,39.957166],[-75.087929,39.957194]],[[-75.086918,39.955716],[-75.086882,39.955662],[-75.086882,39.955717],[-75.086918,39.955716]],[[-75.091762,39.959014],[-75.091726,39.958986],[-75.091726,39.959014],[-75.091762,39.959014]],[[-75.100844,39.949056],[-75.100915,39.949083],[-75.100915,39.949056],[-75.100844,39.949056]],[[-75.100915,39.949083],[-75.100951,39.94911],[-75.100951,39.949083],[-75.100915,39.949083]],[[-75.100951,39.94911],[-75.100987,39.949138],[-75.100987,39.94911],[-75.100951,39.94911]],[[-75.097905,39.947452],[-75.097976,39.947424],[-75.097904,39.947424],[-75.097905,39.947452]],[[-75.097976,39.947424],[-75.098047,39.947396],[-75.097976,39.947396],[-75.097976,39.947424]],[[-75.098047,39.947396],[-75.098118,39.947368],[-75.098047,39.947368],[-75.098047,39.947396]],[[-75.098118,39.947341],[-75.098616,39.947201],[-75.098651,39.947146],[-75.098118,39.947341]],[[-75.098651,39.947146],[-75.098722,39.947118],[-75.098651,39.947118],[-75.098651,39.947146]],[[-75.098722,39.94709],[-75.0989,39.94709],[-75.098971,39.947007],[-75.098722,39.94709]],[[-75.097761,39.947342],[-75.097832,39.947315],[-75.097761,39.947315],[-75.097761,39.947342]],[[-75.097868,39.947314],[-75.097939,39.947342],[-75.098331,39.947202],[-75.098365,39.947092],[-75.098294,39.947093],[-75.098294,39.94712],[-75.098223,39.94712],[-75.098223,39.947148],[-75.098152,39.947148],[-75.098152,39.947176],[-75.098081,39.947176],[-75.098081,39.947204],[-75.098009,39.947204],[-75.09801,39.947231],[-75.097938,39.947232],[-75.097939,39.947259],[-75.097867,39.94726],[-75.097868,39.947314]],[[-75.098365,39.947092],[-75.098472,39.947064],[-75.098365,39.947065],[-75.098365,39.947092]],[[-75.098472,39.947064],[-75.098543,39.947036],[-75.098472,39.947037],[-75.098472,39.947064]],[[-75.098543,39.947036],[-75.098614,39.947009],[-75.098543,39.947009],[-75.098543,39.947036]],[[-75.098614,39.947009],[-75.098721,39.946981],[-75.098614,39.946981],[-75.098614,39.947009]],[[-75.098721,39.946981],[-75.098828,39.946953],[-75.098721,39.946953],[-75.098721,39.946981]],[[-75.098828,39.946953],[-75.098934,39.946925],[-75.098827,39.946925],[-75.098828,39.946953]],[[-75.098934,39.946925],[-75.099041,39.946897],[-75.098934,39.946897],[-75.098934,39.946925]],[[-75.099041,39.946897],[-75.099148,39.946869],[-75.099041,39.946869],[-75.099041,39.946897]],[[-75.099824,39.946673],[-75.099753,39.946701],[-75.099824,39.9467],[-75.099824,39.946673]],[[-75.099753,39.946701],[-75.099682,39.946729],[-75.099753,39.946728],[-75.099753,39.946701]],[[-75.099682,39.946729],[-75.099611,39.946756],[-75.099682,39.946756],[-75.099682,39.946729]],[[-75.102347,39.945617],[-75.102419,39.945644],[-75.102419,39.945616],[-75.102347,39.945617]],[[-75.113927,39.956153],[-75.113891,39.956181],[-75.113927,39.95618],[-75.113927,39.956153]],[[-75.125722,39.9548],[-75.125758,39.954827],[-75.125758,39.954799],[-75.125722,39.9548]]],[[[-75.099697,39.899398],[-75.099732,39.899343],[-75.099732,39.899398],[-75.099697,39.899398]]],[[[-75.096241,39.900898],[-75.099624,39.899248],[-75.098887,39.900528],[-75.097958,39.900258],[-75.097357,39.90092],[-75.096241,39.900898]]],[[[-75.099891,39.946124],[-75.099784,39.946179],[-75.099641,39.94618],[-75.099891,39.946124]]],[[[-75.099392,39.946263],[-75.099499,39.94618],[-75.099641,39.94618],[-75.099392,39.946263]]],[[[-75.099001,39.94632],[-75.09925,39.946264],[-75.09925,39.946292],[-75.099001,39.94632]]],[[[-75.099001,39.946348],[-75.098894,39.946321],[-75.099001,39.94632],[-75.099001,39.946348]]],[[[-75.098716,39.946432],[-75.098751,39.946349],[-75.098894,39.946348],[-75.098716,39.946432]]],[[[-75.099823,39.946563],[-75.098541,39.946789],[-75.097297,39.947262],[-75.097615,39.946986],[-75.097687,39.947041],[-75.099466,39.94651],[-75.09975,39.946316],[-75.099145,39.946484],[-75.099001,39.946375],[-75.100959,39.945981],[-75.102026,39.945563],[-75.102133,39.945618],[-75.099823,39.946563]],[[-75.099679,39.946399],[-75.099715,39.946426],[-75.099715,39.946399],[-75.099679,39.946399]],[[-75.102062,39.945646],[-75.102026,39.945618],[-75.102026,39.945646],[-75.102062,39.945646]]],[[[-75.098288,39.946434],[-75.098324,39.946406],[-75.098324,39.946434],[-75.098288,39.946434]]],[[[-75.098217,39.946407],[-75.098253,39.946461],[-75.098217,39.946462],[-75.098217,39.946407]]],[[[-75.099465,39.946455],[-75.099394,39.946483],[-75.099394,39.946456],[-75.099465,39.946455]]],[[[-75.09836,39.946516],[-75.098431,39.946433],[-75.098573,39.946432],[-75.09836,39.946516]]],[[[-75.098253,39.946516],[-75.098289,39.946489],[-75.098289,39.946516],[-75.098253,39.946516]]],[[[-75.099002,39.94654],[-75.098646,39.946597],[-75.099002,39.946485],[-75.099002,39.94654]]],[[[-75.098147,39.946572],[-75.098182,39.946544],[-75.098182,39.946572],[-75.098147,39.946572]]],[[[-75.098432,39.946625],[-75.098468,39.946652],[-75.098433,39.946653],[-75.098432,39.946625]]],[[[-75.09854,39.946652],[-75.098576,39.946679],[-75.09854,39.94668],[-75.09854,39.946652]]],[[[-75.098148,39.946764],[-75.098398,39.946735],[-75.098149,39.946791],[-75.098148,39.946764]]],[[[-75.098006,39.946847],[-75.098149,39.946791],[-75.098149,39.946819],[-75.098006,39.946847]]],[[[-75.098007,39.946874],[-75.097935,39.946847],[-75.098006,39.946847],[-75.098007,39.946874]]],[[[-75.098613,39.946844],[-75.098257,39.946956],[-75.098079,39.947011],[-75.098613,39.946844]]],[[[-75.0984,39.946955],[-75.098436,39.946982],[-75.0984,39.946982],[-75.0984,39.946955]]],[[[-75.097937,39.947094],[-75.097972,39.947012],[-75.098079,39.947011],[-75.097937,39.947094]]],[[[-75.098259,39.947175],[-75.098223,39.947148],[-75.098259,39.947148],[-75.098259,39.947175]]],[[[-75.098188,39.947203],[-75.098152,39.947176],[-75.098188,39.947176],[-75.098188,39.947203]]],[[[-75.098117,39.947231],[-75.098081,39.947204],[-75.098117,39.947203],[-75.098117,39.947231]]],[[[-75.098045,39.947231],[-75.09801,39.947259],[-75.09801,39.947231],[-75.098045,39.947231]]],[[[-75.09566,39.902466],[-75.095737,39.903152],[-75.095454,39.903346],[-75.095489,39.903263],[-75.095375,39.903237],[-75.094993,39.902332],[-75.095088,39.902305],[-75.095016,39.902223],[-75.09498,39.902223],[-75.094981,39.902278],[-75.094969,39.902278],[-75.094606,39.901418],[-75.095934,39.901219],[-75.097968,39.901494],[-75.097475,39.9021],[-75.096657,39.902406],[-75.09566,39.902466]],[[-75.095345,39.903154],[-75.09538,39.903099],[-75.095345,39.903099],[-75.095345,39.903154]],[[-75.095555,39.902741],[-75.09552,39.902769],[-75.095556,39.902769],[-75.095555,39.902741]]],[[[-75.095017,39.902305],[-75.094981,39.902278],[-75.095017,39.902277],[-75.095017,39.902305]]],[[[-75.094981,39.902305],[-75.094981,39.902306],[-75.094981,39.902305],[-75.094981,39.902305]]],[[[-75.09541,39.903319],[-75.095417,39.903264],[-75.095418,39.903319],[-75.09541,39.903319]]],[[[-75.095433,39.903373],[-75.095454,39.903346],[-75.095454,39.903373],[-75.095433,39.903373]]],[[[-75.096222,39.913857],[-75.096244,39.913898],[-75.096156,39.913802],[-75.096222,39.913857]]],[[[-75.084693,39.92487],[-75.084658,39.924897],[-75.084657,39.92487],[-75.084693,39.92487]]],[[[-75.103415,39.941273],[-75.103921,39.942012],[-75.104564,39.942118],[-75.104668,39.941816],[-75.105278,39.942197],[-75.10479,39.943517],[-75.10529,39.943625],[-75.105292,39.943817],[-75.104152,39.94396],[-75.104723,39.944039],[-75.10455,39.944617],[-75.104871,39.94467],[-75.105012,39.944395],[-75.105122,39.944779],[-75.103411,39.944952],[-75.099888,39.945794],[-75.100243,39.945628],[-75.09988,39.944861],[-75.098667,39.944922],[-75.098705,39.945114],[-75.098061,39.94498],[-75.09838,39.944731],[-75.098375,39.944127],[-75.098018,39.944047],[-75.098516,39.943962],[-75.098762,39.943494],[-75.097478,39.943473],[-75.097368,39.943144],[-75.096795,39.942927],[-75.0969,39.942652],[-75.096648,39.942434],[-75.096293,39.942601],[-75.095539,39.942055],[-75.094969,39.942141],[-75.094754,39.94195],[-75.094907,39.943157],[-75.094902,39.942635],[-75.095116,39.942552],[-75.095481,39.943566],[-75.094839,39.943541],[-75.094307,39.943956],[-75.094126,39.943573],[-75.094482,39.943488],[-75.094231,39.943352],[-75.094263,39.942968],[-75.093838,39.943327],[-75.093974,39.942503],[-75.093439,39.942533],[-75.093509,39.942313],[-75.093151,39.942232],[-75.092694,39.942948],[-75.092267,39.94306],[-75.092193,39.942731],[-75.092442,39.94273],[-75.092795,39.942262],[-75.092614,39.942015],[-75.092936,39.942041],[-75.092896,39.94163],[-75.093253,39.941655],[-75.093073,39.941437],[-75.093359,39.941463],[-75.093072,39.941272],[-75.092752,39.941438],[-75.092861,39.94163],[-75.092539,39.941604],[-75.092644,39.941301],[-75.092179,39.941112],[-75.091896,39.94147],[-75.09222,39.941798],[-75.091508,39.941911],[-75.091226,39.94227],[-75.090831,39.941997],[-75.090977,39.942353],[-75.090584,39.942328],[-75.089618,39.941948],[-75.0899,39.941563],[-75.089439,39.941839],[-75.08933,39.941675],[-75.088939,39.941815],[-75.089363,39.941318],[-75.088759,39.941651],[-75.088326,39.940994],[-75.087361,39.940779],[-75.086642,39.940179],[-75.086036,39.940182],[-75.085852,39.939551],[-75.086174,39.939632],[-75.086352,39.939576],[-75.085684,39.938866],[-75.086309,39.938726],[-75.086058,39.938547],[-75.089268,39.935738],[-75.089851,39.936182],[-75.090135,39.936064],[-75.090057,39.935156],[-75.089724,39.934693],[-75.088839,39.934353],[-75.087064,39.93482],[-75.08639,39.934661],[-75.086413,39.933372],[-75.086619,39.933288],[-75.086399,39.933234],[-75.085962,39.932029],[-75.086251,39.931972],[-75.085931,39.931946],[-75.085922,39.931765],[-75.087362,39.929346],[-75.087435,39.927986],[-75.087105,39.927059],[-75.086365,39.926725],[-75.084246,39.92678],[-75.084201,39.925723],[-75.083853,39.926739],[-75.08138,39.925993],[-75.084796,39.924347],[-75.084585,39.92476],[-75.084658,39.924925],[-75.085012,39.924676],[-75.08658,39.924531],[-75.086512,39.92486],[-75.086799,39.925133],[-75.087547,39.925075],[-75.088443,39.92551],[-75.090013,39.925694],[-75.090158,39.925913],[-75.091437,39.925384],[-75.093088,39.926639],[-75.094337,39.926742],[-75.094233,39.9271],[-75.093485,39.927241],[-75.093667,39.927652],[-75.092882,39.927573],[-75.092593,39.927163],[-75.091809,39.927167],[-75.091164,39.926813],[-75.090701,39.926871],[-75.090206,39.92734],[-75.089953,39.927012],[-75.089668,39.927013],[-75.08953,39.927563],[-75.088929,39.928198],[-75.089865,39.929209],[-75.089872,39.930005],[-75.088882,39.931053],[-75.089209,39.93171],[-75.089495,39.931846],[-75.089922,39.931652],[-75.09136,39.933017],[-75.092394,39.933039],[-75.093189,39.934216],[-75.094442,39.934786],[-75.094912,39.93547],[-75.094886,39.936595],[-75.09542,39.936538],[-75.095317,39.93695],[-75.094538,39.937613],[-75.093965,39.937396],[-75.092183,39.937515],[-75.093401,39.93814],[-75.092731,39.938967],[-75.092981,39.939049],[-75.093938,39.93833],[-75.094617,39.938491],[-75.094646,39.937722],[-75.095177,39.937335],[-75.09586,39.937853],[-75.096393,39.937631],[-75.096825,39.938178],[-75.097432,39.93823],[-75.097608,39.937927],[-75.098108,39.938006],[-75.098568,39.937592],[-75.10039,39.937995],[-75.100288,39.938544],[-75.100611,39.938735],[-75.100712,39.93813],[-75.101033,39.938074],[-75.101251,39.938567],[-75.101464,39.938428],[-75.101609,39.938675],[-75.101606,39.938318],[-75.101892,39.938399],[-75.102039,39.938919],[-75.102429,39.938643],[-75.102541,39.939219],[-75.103254,39.939215],[-75.103679,39.938829],[-75.104569,39.938632],[-75.104744,39.938301],[-75.105102,39.938464],[-75.106098,39.93813],[-75.106601,39.938594],[-75.107101,39.938673],[-75.10714,39.939085],[-75.107925,39.939081],[-75.107928,39.93941],[-75.107287,39.939496],[-75.107223,39.940348],[-75.106549,39.940735],[-75.106909,39.941145],[-75.106445,39.941065],[-75.105668,39.941948],[-75.104808,39.941541],[-75.10502,39.941292],[-75.104873,39.940827],[-75.10523,39.940852],[-75.105685,39.939861],[-75.105644,39.939258],[-75.105427,39.938957],[-75.105107,39.938986],[-75.105392,39.939039],[-75.105539,39.93945],[-75.104836,39.940662],[-75.104406,39.940472],[-75.104303,39.940829],[-75.10352,39.941053],[-75.103415,39.941273]],[[-75.094263,39.942968],[-75.094334,39.942913],[-75.094263,39.94294],[-75.094263,39.942968]],[[-75.090831,39.941997],[-75.090795,39.94197],[-75.090795,39.941997],[-75.090831,39.941997]],[[-75.084237,39.925778],[-75.084273,39.925805],[-75.084273,39.925778],[-75.084237,39.925778]],[[-75.084586,39.92487],[-75.084551,39.924925],[-75.084587,39.924925],[-75.084586,39.92487]],[[-75.092219,39.937488],[-75.092183,39.93746],[-75.092183,39.937488],[-75.092219,39.937488]],[[-75.101573,39.938675],[-75.101538,39.938702],[-75.101573,39.938702],[-75.101573,39.938675]],[[-75.103484,39.941081],[-75.103449,39.941054],[-75.103449,39.941081],[-75.103484,39.941081]]],[[[-75.097828,39.946848],[-75.097863,39.94682],[-75.097864,39.946848],[-75.097828,39.946848]]],[[[-75.097757,39.946848],[-75.097793,39.946876],[-75.097757,39.946876],[-75.097757,39.946848]]],[[[-75.097864,39.946903],[-75.097935,39.946875],[-75.097936,39.946902],[-75.097864,39.946903]]],[[[-75.097793,39.94693],[-75.097864,39.946903],[-75.097864,39.94693],[-75.097793,39.94693]]],[[[-75.097722,39.946931],[-75.097758,39.946958],[-75.097722,39.946958],[-75.097722,39.946931]]],[[[-75.097722,39.946958],[-75.097651,39.946986],[-75.097651,39.946959],[-75.097722,39.946958]]],[[[-75.097795,39.947123],[-75.097866,39.947095],[-75.097866,39.947122],[-75.097795,39.947123]]],[[[-75.097724,39.94715],[-75.097795,39.947123],[-75.097795,39.94715],[-75.097724,39.94715]]],[[[-75.097653,39.947178],[-75.097724,39.94715],[-75.097724,39.947178],[-75.097653,39.947178]]],[[[-75.097617,39.947206],[-75.097653,39.947178],[-75.097653,39.947206],[-75.097617,39.947206]]],[[[-75.097546,39.947234],[-75.097617,39.947206],[-75.097617,39.947233],[-75.097546,39.947234]]],[[[-75.097546,39.947261],[-75.097475,39.947234],[-75.097546,39.947234],[-75.097546,39.947261]]],[[[-75.09744,39.947289],[-75.097475,39.947262],[-75.097475,39.947289],[-75.09744,39.947289]]],[[[-75.097903,39.947287],[-75.097939,39.947314],[-75.097903,39.947314],[-75.097903,39.947287]]],[[[-75.09737,39.947454],[-75.097157,39.947565],[-75.097156,39.94751],[-75.09737,39.947454]]],[[[-75.097085,39.947566],[-75.097121,39.947538],[-75.097121,39.947565],[-75.097085,39.947566]]],[[[-75.097549,39.947591],[-75.097122,39.947648],[-75.097549,39.947536],[-75.097549,39.947591]]],[[[-75.097656,39.94759],[-75.097304,39.948086],[-75.097019,39.94817],[-75.09723,39.947757],[-75.097656,39.94759]]]]}}]}