{"type":"FeatureCollection","features":[{"type":"Feature","properties":{"level_ft":20},"geometry":{"type":"MultiPolygon","coordinates":[[[[-75.113804,39.902509],[-75.113733,39.902537],[-75.113733,39.902509],[-75.113804,39.902509]]],[[[-75.115339,39.902693],[-75.115267,39.902666],[-75.115338,39.902666],[-75.115339,39.902693]]],[[[-75.113738,39.903058],[-75.113808,39.903003],[-75.113773,39.903058],[-75.113738,39.903058]]],[[[-75.116093,39.927178],[-75.116126,39.926903],[-75.116161,39.926903],[-75.116164,39.927177],[-75.116093,39.927178]]],[[[-75.112939,39.929418],[-75.112974,39.929391],[-75.112975,39.929418],[-75.112939,39.929418]]],[[[-75.112903,39.929418],[-75.112939,39.929446],[-75.112903,39.929446],[-75.112903,39.929418]]],[[[-75.112868,39.929474],[-75.112903,39.929446],[-75.112904,39.929473],[-75.112868,39.929474]]],[[[-75.112267,39.930053],[-75.112302,39.930026],[-75.112303,39.930053],[-75.112267,39.930053]]],[[[-75.112232,39.930081],[-75.112267,39.930053],[-75.112267,39.930081],[-75.112232,39.930081]]],[[[-75.112196,39.930081],[-75.112232,39.930108],[-75.112196,39.930109],[-75.112196,39.930081]]],[[[-75.111949,39.930357],[-75.111984,39.930329],[-75.111984,39.930357],[-75.111949,39.930357]]],[[[-75.111913,39.930357],[-75.111949,39.930384],[-75.111913,39.930385],[-75.111913,39.930357]]],[[[-75.111878,39.930412],[-75.111913,39.930385],[-75.111914,39.930412],[-75.111878,39.930412]]],[[[-75.111314,39.931129],[-75.111349,39.931101],[-75.111349,39.931129],[-75.111314,39.931129]]],[[[-75.111314,39.931156],[-75.111278,39.931129],[-75.111314,39.931129],[-75.111314,39.931156]]],[[[-75.10765,39.932164],[-75.107614,39.932192],[-75.107614,39.932164],[-75.10765,39.932164]]],[[[-75.107722,39.932219],[-75.107686,39.932246],[-75.107686,39.932219],[-75.107722,39.932219]]],[[[-75.119824,39.949478],[-75.121474,39.950512],[-75.123263,39.951134],[-75.134089,39.953025],[-75.132873,39.956031],[-75.131493,39.958068],[-75.129626,39.95992],[-75.126141,39.962205],[-75.122172,39.964298],[-75.119748,39.96171],[-75.118447,39.960723],[-75.115839,39.959328],[-75.110143,39.958016],[-75.107366,39.958114],[-75.106227,39.958401],[-75.104126,39.95944],[-75.099304,39.963276],[-75.096051,39.965546],[-75.088055,39.969404],[-75.083165,39.962736],[-75.083659,39.962596],[-75.084587,39.962729],[-75.085128,39.96333],[-75.08552,39.963328],[-75.086024,39.96382],[-75.086273,39.963736],[-75.086163,39.963407],[-75.086522,39.963652],[-75.086913,39.963486],[-75.087165,39.963732],[-75.087875,39.963398],[-75.087625,39.96329],[-75.087512,39.962577],[-75.087833,39.962657],[-75.087866,39.962355],[-75.087544,39.96222],[-75.087718,39.961725],[-75.087502,39.961424],[-75.086247,39.960716],[-75.085892,39.960883],[-75.085105,39.96064],[-75.085278,39.960035],[-75.086664,39.959396],[-75.086159,39.958795],[-75.086442,39.958519],[-75.085656,39.958358],[-75.085972,39.957725],[-75.085791,39.957397],[-75.085254,39.957262],[-75.084606,39.956579],[-75.085562,39.955723],[-75.085918,39.955557],[-75.085917,39.955447],[-75.086024,39.955474],[-75.086166,39.955363],[-75.086165,39.955253],[-75.086236,39.955308],[-75.086236,39.955198],[-75.086448,39.955032],[-75.08652,39.955059],[-75.087653,39.95412],[-75.087939,39.954119],[-75.088874,39.955048],[-75.09023,39.955123],[-75.090093,39.955728],[-75.090486,39.955808],[-75.090667,39.956109],[-75.091523,39.956132],[-75.091847,39.956433],[-75.092059,39.956184],[-75.092453,39.956429],[-75.092952,39.956345],[-75.092705,39.956703],[-75.092816,39.957141],[-75.092495,39.95717],[-75.092857,39.957773],[-75.092863,39.958404],[-75.093292,39.958539],[-75.093156,39.959254],[-75.093444,39.959636],[-75.093163,39.960132],[-75.093521,39.960295],[-75.093671,39.961063],[-75.094208,39.961362],[-75.094778,39.961277],[-75.094887,39.961468],[-75.095206,39.961192],[-75.095634,39.961218],[-75.096304,39.960336],[-75.095873,39.960008],[-75.096048,39.959541],[-75.095439,39.959297],[-75.095508,39.958967],[-75.094965,39.958091],[-75.094958,39.95724],[-75.095417,39.956716],[-75.095407,39.955618],[-75.096044,39.954956],[-75.096436,39.954899],[-75.096929,39.95421],[-75.096818,39.953744],[-75.097102,39.953578],[-75.096956,39.953249],[-75.096563,39.953196],[-75.096488,39.952702],[-75.096804,39.952097],[-75.096157,39.951633],[-75.095696,39.951938],[-75.094693,39.951394],[-75.094372,39.95145],[-75.09522,39.95043],[-75.0943,39.951341],[-75.093907,39.951316],[-75.093482,39.951647],[-75.09298,39.95132],[-75.092159,39.951297],[-75.091269,39.951466],[-75.091269,39.951494],[-75.091198,39.951494],[-75.091198,39.951522],[-75.091127,39.951522],[-75.091092,39.951577],[-75.090843,39.951661],[-75.090806,39.951496],[-75.092153,39.950528],[-75.092152,39.950446],[-75.092719,39.950059],[-75.092754,39.949949],[-75.09279,39.949976],[-75.092861,39.949948],[-75.093072,39.949563],[-75.093073,39.9497],[-75.093145,39.949727],[-75.093179,39.94959],[-75.093251,39.949617],[-75.093322,39.949589],[-75.093356,39.949369],[-75.093428,39.949506],[-75.09357,39.949368],[-75.093603,39.949148],[-75.093532,39.949121],[-75.093462,39.949259],[-75.09339,39.949259],[-75.093036,39.949563],[-75.093001,39.949563],[-75.093001,39.949591],[-75.092965,39.949591],[-75.092965,39.949618],[-75.09293,39.949618],[-75.09293,39.949646],[-75.092894,39.949646],[-75.092894,39.949674],[-75.092859,39.949674],[-75.092859,39.949701],[-75.092823,39.949646],[-75.093071,39.949426],[-75.092964,39.949508],[-75.092928,39.949454],[-75.093211,39.949205],[-75.092751,39.949564],[-75.092679,39.94951],[-75.092573,39.949593],[-75.092645,39.949675],[-75.092609,39.949675],[-75.092609,39.949702],[-75.092574,39.949703],[-75.092574,39.94973],[-75.092538,39.94973],[-75.092538,39.949758],[-75.092503,39.949758],[-75.092503,39.949785],[-75.092467,39.949786],[-75.092468,39.949813],[-75.092432,39.949813],[-75.092432,39.949841],[-75.09229,39.949924],[-75.092185,39.950116],[-75.09197,39.950063],[-75.092183,39.949869],[-75.092039,39.94976],[-75.091543,39.95012],[-75.091968,39.949733],[-75.091931,39.949678],[-75.091081,39.950397],[-75.090903,39.950398],[-75.091363,39.949956],[-75.091326,39.949819],[-75.090264,39.950758],[-75.091891,39.949075],[-75.091283,39.948995],[-75.090643,39.949218],[-75.090818,39.948778],[-75.090284,39.948973],[-75.089956,39.948069],[-75.089203,39.947606],[-75.089522,39.94744],[-75.08952,39.94722],[-75.089127,39.947057],[-75.089446,39.946863],[-75.089407,39.946452],[-75.088762,39.946126],[-75.088616,39.945769],[-75.087902,39.945636],[-75.087864,39.945362],[-75.087507,39.945418],[-75.08761,39.944896],[-75.087328,39.945309],[-75.086935,39.945229],[-75.087003,39.944872],[-75.086576,39.944984],[-75.086537,39.944517],[-75.0856,39.943396],[-75.085741,39.943203],[-75.085421,39.943287],[-75.085596,39.94293],[-75.085202,39.942767],[-75.085135,39.943261],[-75.08445,39.942414],[-75.08331,39.942612],[-75.083451,39.942419],[-75.083056,39.942009],[-75.083274,39.942475],[-75.082699,39.942066],[-75.081594,39.942099],[-75.082198,39.941849],[-75.080629,39.941884],[-75.080447,39.941391],[-75.081942,39.941109],[-75.081868,39.940752],[-75.082371,39.941134],[-75.082189,39.940723],[-75.08251,39.940804],[-75.082507,39.940447],[-75.083406,39.940809],[-75.089268,39.935738],[-75.089851,39.936182],[-75.090135,39.936064],[-75.089949,39.93492],[-75.089201,39.934448],[-75.088501,39.934362],[-75.086869,39.934835],[-75.08639,39.934661],[-75.086313,39.932656],[-75.085922,39.931765],[-75.087243,39.92975],[-75.087271,39.927236],[-75.086566,39.926761],[-75.08387,39.926742],[-75.08138,39.925993],[-75.08579,39.92385],[-75.085684,39.924041],[-75.085935,39.924177],[-75.086862,39.92409],[-75.087829,39.924689],[-75.089506,39.924763],[-75.089994,39.923497],[-75.089172,39.923227],[-75.088102,39.92326],[-75.087779,39.92296],[-75.087054,39.92321],[-75.089838,39.921844],[-75.095357,39.92509],[-75.094716,39.925176],[-75.094824,39.925367],[-75.094469,39.925534],[-75.09397,39.925536],[-75.09404,39.925344],[-75.093506,39.925456],[-75.093152,39.925815],[-75.093551,39.926609],[-75.094764,39.926658],[-75.094412,39.927209],[-75.0937,39.927322],[-75.093847,39.927788],[-75.093386,39.92812],[-75.091146,39.928927],[-75.091001,39.928571],[-75.089859,39.92855],[-75.089747,39.927974],[-75.08968,39.928386],[-75.089395,39.928442],[-75.090044,39.929263],[-75.090084,39.929757],[-75.089345,39.930968],[-75.089776,39.93135],[-75.090382,39.931292],[-75.090885,39.931702],[-75.090815,39.931894],[-75.091029,39.931811],[-75.092213,39.932683],[-75.09282,39.932735],[-75.092501,39.933039],[-75.093619,39.934406],[-75.094616,39.934318],[-75.094833,39.934619],[-75.094694,39.935032],[-75.095089,39.935359],[-75.094915,39.935854],[-75.095133,39.93632],[-75.096059,39.936123],[-75.095883,39.936453],[-75.096063,39.936617],[-75.095499,39.937361],[-75.095823,39.937716],[-75.096675,39.9373],[-75.098102,39.937293],[-75.098558,39.936494],[-75.099379,39.936572],[-75.100195,39.936046],[-75.099981,39.936048],[-75.099938,39.935169],[-75.100325,39.934673],[-75.09993,39.934318],[-75.100319,39.933959],[-75.10042,39.9333],[-75.10067,39.933326],[-75.100628,39.932558],[-75.100841,39.932502],[-75.100518,39.932174],[-75.101474,39.9314],[-75.101401,39.931236],[-75.102076,39.930958],[-75.101927,39.930217],[-75.102285,39.930408],[-75.102568,39.930132],[-75.101998,39.930135],[-75.101995,39.929887],[-75.102458,39.92983],[-75.102421,39.929583],[-75.107183,39.931837],[-75.107328,39.932083],[-75.109085,39.933117],[-75.110309,39.934429],[-75.110998,39.935688],[-75.112617,39.94128],[-75.112735,39.942597],[-75.112525,39.942955],[-75.112098,39.943122],[-75.11199,39.942985],[-75.11089,39.943623],[-75.107153,39.944521],[-75.111853,39.943618],[-75.112527,39.943175],[-75.112806,39.942542],[-75.113235,39.942595],[-75.112994,39.943557],[-75.112069,39.943864],[-75.113461,39.943911],[-75.113396,39.94468],[-75.113007,39.945094],[-75.113688,39.945365],[-75.11409,39.946516],[-75.112232,39.946141],[-75.112591,39.946359],[-75.112343,39.946635],[-75.112739,39.946962],[-75.112745,39.947621],[-75.112391,39.947952],[-75.11214,39.947762],[-75.111821,39.948093],[-75.110681,39.948154],[-75.111042,39.948701],[-75.110951,39.950486],[-75.111131,39.95065],[-75.111522,39.950538],[-75.111565,39.951306],[-75.112315,39.951494],[-75.112246,39.951659],[-75.111174,39.951528],[-75.111399,39.952735],[-75.112227,39.953609],[-75.112726,39.953524],[-75.1128,39.95377],[-75.113335,39.95385],[-75.113369,39.953603],[-75.112724,39.953249],[-75.113722,39.953244],[-75.114545,39.953542],[-75.115217,39.952852],[-75.115148,39.953127],[-75.115434,39.95318],[-75.115078,39.953292],[-75.11526,39.953703],[-75.116545,39.953723],[-75.11622,39.953368],[-75.11672,39.953338],[-75.116754,39.953146],[-75.115826,39.953096],[-75.115573,39.95274],[-75.116856,39.952678],[-75.116069,39.952408],[-75.116995,39.952266],[-75.116672,39.951993],[-75.116885,39.951882],[-75.116955,39.951717],[-75.116671,39.951883],[-75.116524,39.951445],[-75.117238,39.951496],[-75.117521,39.951247],[-75.117916,39.951547],[-75.118129,39.951436],[-75.117807,39.951273],[-75.118304,39.951023],[-75.117909,39.950778],[-75.117626,39.950945],[-75.117586,39.95056],[-75.11812,39.950338],[-75.117618,39.950066],[-75.117794,39.949846],[-75.11708,39.949767],[-75.117363,39.949463],[-75.117934,39.949543],[-75.117891,39.948719],[-75.11714,39.948476],[-75.116888,39.948258],[-75.117066,39.948175],[-75.116349,39.947767],[-75.115601,39.947963],[-75.11492,39.947582],[-75.114668,39.947282],[-75.114878,39.946896],[-75.114268,39.94646],[-75.113867,39.945446],[-75.114478,39.94602],[-75.115481,39.946481],[-75.115551,39.946316],[-75.114474,39.94558],[-75.114542,39.945196],[-75.114791,39.945139],[-75.114903,39.945715],[-75.116047,39.945929],[-75.116231,39.946587],[-75.117592,39.947239],[-75.118088,39.946824],[-75.11744,39.946141],[-75.118261,39.946219],[-75.118753,39.945448],[-75.118902,39.946078],[-75.119289,39.9455],[-75.119002,39.945309],[-75.119999,39.945194],[-75.120175,39.944864],[-75.119922,39.944508],[-75.11953,39.94462],[-75.119634,39.944208],[-75.118635,39.944186],[-75.118597,39.943994],[-75.119025,39.943991],[-75.118844,39.943608],[-75.117595,39.943615],[-75.11777,39.943229],[-75.116665,39.94329],[-75.116484,39.942989],[-75.115949,39.943019],[-75.115844,39.943212],[-75.116271,39.943127],[-75.116452,39.943401],[-75.115814,39.943899],[-75.115207,39.943765],[-75.114959,39.943903],[-75.114847,39.943382],[-75.113812,39.943278],[-75.11355,39.941989],[-75.113799,39.941905],[-75.112631,39.938919],[-75.111637,39.935355],[-75.111693,39.933653],[-75.112252,39.932414],[-75.113488,39.931008],[-75.115047,39.929901],[-75.114691,39.929958],[-75.115958,39.928085],[-75.116207,39.928056],[-75.11666,39.918829],[-75.11648,39.914684],[-75.116689,39.914189],[-75.116438,39.914053],[-75.116541,39.913558],[-75.116143,39.912874],[-75.115915,39.91131],[-75.115808,39.911284],[-75.115774,39.911476],[-75.115596,39.911587],[-75.115562,39.911752],[-75.115492,39.911862],[-75.115421,39.91189],[-75.116218,39.917349],[-75.115734,39.926988],[-75.114851,39.927871],[-75.115244,39.927978],[-75.114862,39.929161],[-75.112211,39.931811],[-75.111054,39.934013],[-75.110759,39.932889],[-75.110824,39.932202],[-75.111067,39.93146],[-75.111245,39.931404],[-75.11142,39.931101],[-75.111348,39.931019],[-75.11163,39.930633],[-75.111843,39.93044],[-75.111914,39.93044],[-75.11202,39.930357],[-75.112338,39.930053],[-75.112337,39.929943],[-75.11262,39.929667],[-75.11301,39.929418],[-75.113575,39.928783],[-75.113539,39.928701],[-75.111276,39.930882],[-75.110648,39.932478],[-75.110808,39.934426],[-75.110416,39.934428],[-75.109299,39.933171],[-75.108043,39.932217],[-75.10403,39.930124],[-75.105741,39.930033],[-75.106093,39.929564],[-75.107732,39.929391],[-75.108654,39.928727],[-75.107932,39.927797],[-75.108421,39.926642],[-75.10774,39.926206],[-75.107664,39.92574],[-75.107909,39.925217],[-75.10823,39.925133],[-75.108154,39.924639],[-75.108759,39.924471],[-75.108756,39.924197],[-75.108218,39.923843],[-75.10843,39.923567],[-75.107858,39.92346],[-75.107533,39.922968],[-75.106963,39.92308],[-75.106746,39.92267],[-75.106497,39.922753],[-75.10649,39.92193],[-75.105521,39.921276],[-75.105302,39.920728],[-75.105441,39.920233],[-75.104685,39.919496],[-75.104186,39.919471],[-75.103968,39.919033],[-75.103433,39.918926],[-75.10325,39.91846],[-75.102752,39.918573],[-75.102935,39.919148],[-75.102757,39.919094],[-75.102758,39.919286],[-75.102109,39.918439],[-75.102367,39.919343],[-75.101757,39.918935],[-75.101863,39.918852],[-75.101825,39.91855],[-75.101437,39.919074],[-75.100828,39.918747],[-75.100618,39.919133],[-75.100116,39.918833],[-75.09976,39.918918],[-75.099907,39.919466],[-75.097768,39.919395],[-75.097699,39.919697],[-75.097483,39.919478],[-75.097059,39.919975],[-75.096773,39.919839],[-75.097062,39.920249],[-75.097383,39.920275],[-75.097351,39.920742],[-75.097143,39.921347],[-75.096822,39.921321],[-75.096574,39.921597],[-75.096791,39.92187],[-75.097791,39.922112],[-75.098048,39.92299],[-75.09745,39.923844],[-75.096918,39.924231],[-75.096311,39.924152],[-75.095816,39.924621],[-75.097074,39.925795],[-75.091842,39.922692],[-75.091768,39.922473],[-75.089944,39.921796],[-75.091422,39.921065],[-75.101991,39.91812],[-75.099865,39.913659],[-75.099497,39.913857],[-75.098545,39.91379],[-75.098005,39.914078],[-75.097647,39.913585],[-75.097222,39.913508],[-75.096244,39.913898],[-75.092472,39.909584],[-75.096955,39.908319],[-75.097411,39.907987],[-75.094606,39.901418],[-75.096041,39.901147],[-75.099928,39.901429],[-75.100106,39.901318],[-75.099891,39.901182],[-75.097928,39.900972],[-75.097817,39.900451],[-75.097572,39.901029],[-75.096214,39.900926],[-75.098539,39.899649],[-75.101015,39.898908],[-75.102116,39.899107],[-75.102917,39.899882],[-75.104793,39.900527],[-75.107941,39.900238],[-75.109679,39.899245],[-75.111611,39.898588],[-75.112968,39.899172],[-75.113453,39.89966],[-75.113777,39.901008],[-75.11441,39.90145],[-75.116358,39.902119],[-75.11655,39.902879],[-75.115194,39.902502],[-75.113112,39.900893],[-75.112397,39.900567],[-75.112822,39.90029],[-75.11271,39.899714],[-75.111885,39.899142],[-75.112677,39.899989],[-75.112574,39.900429],[-75.109648,39.90017],[-75.108689,39.900532],[-75.109225,39.900666],[-75.109722,39.900389],[-75.110648,39.900302],[-75.112183,39.900568],[-75.115267,39.902639],[-75.113337,39.9021],[-75.111435,39.90071],[-75.111079,39.900684],[-75.110971,39.900602],[-75.111513,39.901423],[-75.113733,39.902482],[-75.110123,39.90143],[-75.112768,39.902295],[-75.111916,39.902629],[-75.111956,39.903095],[-75.112532,39.903806],[-75.112205,39.903094],[-75.112343,39.902517],[-75.113558,39.902895],[-75.113671,39.903525],[-75.113845,39.903085],[-75.113807,39.902784],[-75.112591,39.902406],[-75.113912,39.902673],[-75.113985,39.90281],[-75.116513,39.903126],[-75.116286,39.90374],[-75.11488,39.9054],[-75.114715,39.906125],[-75.117488,39.90849],[-75.120177,39.908514],[-75.121403,39.907762],[-75.122836,39.907428],[-75.129344,39.907381],[-75.129091,39.911608],[-75.12984,39.915359],[-75.135874,39.927639],[-75.136571,39.929951],[-75.136732,39.939233],[-75.135631,39.947459],[-75.134194,39.952774],[-75.123225,39.950887],[-75.1214,39.950211],[-75.12,39.949257],[-75.119824,39.949478]],[[-75.087875,39.963371],[-75.087946,39.963343],[-75.087875,39.963344],[-75.087875,39.963371]],[[-75.087833,39.962657],[-75.087869,39.962685],[-75.087869,39.962657],[-75.087833,39.962657]],[[-75.086342,39.955143],[-75.086378,39.95517],[-75.086378,39.955143],[-75.086342,39.955143]],[[-75.095219,39.950375],[-75.095255,39.950403],[-75.095326,39.950347],[-75.095219,39.950375]],[[-75.092188,39.950446],[-75.092224,39.950473],[-75.092223,39.950446],[-75.092188,39.950446]],[[-75.092967,39.94981],[-75.093003,39.949838],[-75.093003,39.94981],[-75.092967,39.94981]],[[-75.093109,39.949727],[-75.093073,39.949755],[-75.093109,39.949755],[-75.093109,39.949727]],[[-75.093251,39.949617],[-75.093215,39.949644],[-75.093251,39.949644],[-75.093251,39.949617]],[[-75.093603,39.949066],[-75.093781,39.949093],[-75.09378,39.94901],[-75.093603,39.949066]],[[-75.093071,39.949426],[-75.093106,39.949398],[-75.09307,39.949398],[-75.093071,39.949426]],[[-75.093211,39.949205],[-75.093247,39.949178],[-75.093211,39.949178],[-75.093211,39.949205]],[[-75.093247,39.949178],[-75.093282,39.94915],[-75.093247,39.94915],[-75.093247,39.949178]],[[-75.093354,39.94915],[-75.093673,39.948928],[-75.093887,39.94901],[-75.094029,39.948899],[-75.094063,39.948707],[-75.09417,39.948734],[-75.094277,39.948623],[-75.094169,39.948569],[-75.094169,39.948596],[-75.094134,39.948597],[-75.094134,39.948624],[-75.094098,39.948624],[-75.094098,39.948652],[-75.094063,39.948652],[-75.094063,39.948679],[-75.093991,39.948652],[-75.094559,39.948237],[-75.094629,39.948127],[-75.094558,39.948128],[-75.094452,39.948238],[-75.094416,39.948238],[-75.094416,39.948266],[-75.094345,39.948266],[-75.093707,39.948763],[-75.093707,39.948818],[-75.093672,39.948819],[-75.093601,39.948901],[-75.093566,39.948901],[-75.093424,39.949039],[-75.093388,39.94904],[-75.093389,39.949067],[-75.093353,39.949067],[-75.093353,39.949095],[-75.093317,39.949095],[-75.093318,39.949122],[-75.093282,39.949123],[-75.093354,39.94915]],[[-75.093425,39.949149],[-75.09339,39.949177],[-75.093425,39.949177],[-75.093425,39.949149]],[[-75.09339,39.949232],[-75.093318,39.949205],[-75.093319,39.949232],[-75.09339,39.949232]],[[-75.093319,39.949287],[-75.093212,39.949288],[-75.093212,39.949315],[-75.093319,39.949287]],[[-75.093212,39.949315],[-75.093177,39.949343],[-75.093213,39.949342],[-75.093212,39.949315]],[[-75.093852,39.94901],[-75.093816,39.949037],[-75.093852,39.949037],[-75.093852,39.94901]],[[-75.094064,39.948817],[-75.0941,39.948844],[-75.0941,39.948816],[-75.094064,39.948817]],[[-75.09417,39.948734],[-75.094242,39.948761],[-75.094242,39.948733],[-75.09417,39.948734]],[[-75.094171,39.948761],[-75.094135,39.948789],[-75.094171,39.948789],[-75.094171,39.948761]],[[-75.094277,39.948651],[-75.094313,39.948678],[-75.094312,39.948651],[-75.094277,39.948651]],[[-75.094205,39.948569],[-75.09424,39.948541],[-75.094204,39.948541],[-75.094205,39.948569]],[[-75.09424,39.948514],[-75.094347,39.948513],[-75.094346,39.948458],[-75.09424,39.948514]],[[-75.094311,39.948541],[-75.094419,39.948595],[-75.09449,39.948512],[-75.094418,39.948485],[-75.094418,39.948513],[-75.094383,39.948513],[-75.094383,39.94854],[-75.094311,39.948541]],[[-75.094346,39.948431],[-75.094418,39.94843],[-75.094559,39.94832],[-75.094346,39.948431]],[[-75.094629,39.948127],[-75.094664,39.9481],[-75.094629,39.9481],[-75.094629,39.948127]],[[-75.094664,39.948072],[-75.094735,39.948072],[-75.094806,39.948017],[-75.094664,39.948072]],[[-75.094806,39.948017],[-75.094842,39.947989],[-75.094806,39.947989],[-75.094806,39.948017]],[[-75.092715,39.94951],[-75.09275,39.949482],[-75.092714,39.949482],[-75.092715,39.94951]],[[-75.09275,39.949482],[-75.092786,39.949454],[-75.09275,39.949455],[-75.09275,39.949482]],[[-75.092786,39.949454],[-75.092821,39.949427],[-75.092785,39.949427],[-75.092786,39.949454]],[[-75.092821,39.949427],[-75.092856,39.949399],[-75.092821,39.949399],[-75.092821,39.949427]],[[-75.092856,39.949399],[-75.092892,39.949372],[-75.092856,39.949372],[-75.092856,39.949399]],[[-75.092006,39.950062],[-75.092077,39.950035],[-75.092006,39.950035],[-75.092006,39.950062]],[[-75.092077,39.94998],[-75.092467,39.949758],[-75.092467,39.949703],[-75.092077,39.94998]],[[-75.092113,39.950034],[-75.092149,39.950062],[-75.092148,39.950034],[-75.092113,39.950034]],[[-75.092467,39.949703],[-75.092502,39.949676],[-75.092466,39.949676],[-75.092467,39.949703]],[[-75.092502,39.949676],[-75.092538,39.949648],[-75.092502,39.949648],[-75.092502,39.949676]],[[-75.09211,39.949705],[-75.092182,39.949814],[-75.092252,39.949649],[-75.09211,39.949705]],[[-75.092253,39.949732],[-75.092324,39.949759],[-75.092324,39.949704],[-75.092253,39.949732]],[[-75.092252,39.949649],[-75.092358,39.949566],[-75.092287,39.949567],[-75.092252,39.949649]],[[-75.092358,39.949566],[-75.092394,39.949539],[-75.092358,39.949539],[-75.092358,39.949566]],[[-75.092393,39.949484],[-75.092429,39.949511],[-75.093103,39.948986],[-75.092393,39.949484]],[[-75.091967,39.949623],[-75.092321,39.949402],[-75.092321,39.949347],[-75.091967,39.949623]],[[-75.092321,39.949347],[-75.092356,39.949319],[-75.092321,39.94932],[-75.092321,39.949347]],[[-75.092356,39.949265],[-75.092392,39.949292],[-75.092782,39.948988],[-75.092356,39.949265]],[[-75.092782,39.948988],[-75.092817,39.94896],[-75.092781,39.94896],[-75.092782,39.948988]],[[-75.092817,39.94896],[-75.092852,39.948933],[-75.092817,39.948933],[-75.092817,39.94896]],[[-75.092852,39.948933],[-75.092888,39.948905],[-75.092852,39.948905],[-75.092852,39.948933]],[[-75.092888,39.948877],[-75.093137,39.948794],[-75.093243,39.948683],[-75.092888,39.948877]],[[-75.093242,39.948656],[-75.093349,39.948628],[-75.093491,39.948545],[-75.093242,39.948656]],[[-75.093491,39.948517],[-75.093562,39.948517],[-75.093633,39.948462],[-75.093491,39.948517]],[[-75.093633,39.948434],[-75.093704,39.948434],[-75.093811,39.948379],[-75.093633,39.948434]],[[-75.091152,39.950286],[-75.09108,39.950259],[-75.091081,39.950287],[-75.091152,39.950286]],[[-75.091151,39.950232],[-75.091187,39.950204],[-75.091151,39.950204],[-75.091151,39.950232]],[[-75.091398,39.949846],[-75.091433,39.949818],[-75.091398,39.949818],[-75.091398,39.949846]],[[-75.091433,39.949846],[-75.091469,39.949873],[-75.091469,39.949846],[-75.091433,39.949846]],[[-75.091891,39.949075],[-75.091997,39.949019],[-75.09189,39.94902],[-75.091891,39.949075]],[[-75.091997,39.949019],[-75.092032,39.948992],[-75.091997,39.948992],[-75.091997,39.949019]],[[-75.085706,39.943313],[-75.085778,39.94334],[-75.085777,39.943313],[-75.085706,39.943313]],[[-75.08251,39.940804],[-75.082546,39.940831],[-75.082546,39.940804],[-75.08251,39.940804]],[[-75.094039,39.925289],[-75.094075,39.925316],[-75.094146,39.925261],[-75.094039,39.925289]],[[-75.094146,39.925261],[-75.094181,39.925233],[-75.094146,39.925233],[-75.094146,39.925261]],[[-75.107256,39.932001],[-75.10722,39.931974],[-75.10722,39.932002],[-75.107256,39.932001]],[[-75.109049,39.933118],[-75.109014,39.933145],[-75.109049,39.933145],[-75.109049,39.933118]],[[-75.117211,39.948476],[-75.117246,39.948448],[-75.117211,39.948449],[-75.117211,39.948476]],[[-75.1138,39.941988],[-75.113836,39.942015],[-75.113836,39.941987],[-75.1138,39.941988]],[[-75.116542,39.913641],[-75.116578,39.913668],[-75.116577,39.913641],[-75.116542,39.913641]],[[-75.115808,39.911284],[-75.115772,39.911256],[-75.115772,39.911284],[-75.115808,39.911284]],[[-75.115632,39.911559],[-75.115596,39.911532],[-75.115596,39.911559],[-75.115632,39.911559]],[[-75.115456,39.911862],[-75.11542,39.911835],[-75.115421,39.911862],[-75.115456,39.911862]],[[-75.116145,39.917102],[-75.116073,39.917075],[-75.116074,39.917102],[-75.116145,39.917102]],[[-75.114851,39.927898],[-75.114816,39.927926],[-75.114851,39.927926],[-75.114851,39.927898]],[[-75.110861,39.932312],[-75.110896,39.932284],[-75.11086,39.932284],[-75.110861,39.932312]],[[-75.11142,39.931046],[-75.111455,39.930991],[-75.11142,39.930991],[-75.11142,39.931046]],[[-75.111843,39.930467],[-75.111879,39.930495],[-75.111878,39.930467],[-75.111843,39.930467]],[[-75.112408,39.929915],[-75.112444,39.929943],[-75.112444,39.929915],[-75.112408,39.929915]],[[-75.112479,39.92986],[-75.112515,39.929887],[-75.112515,39.92986],[-75.112479,39.92986]],[[-75.112727,39.929612],[-75.112763,39.929639],[-75.112762,39.929611],[-75.112727,39.929612]],[[-75.113575,39.928729],[-75.11361,39.928701],[-75.113574,39.928701],[-75.113575,39.928729]],[[-75.113574,39.928646],[-75.113752,39.928618],[-75.113751,39.928563],[-75.113574,39.928646]],[[-75.113751,39.928563],[-75.113787,39.928535],[-75.113751,39.928535],[-75.113751,39.928563]],[[-75.113786,39.92848],[-75.113893,39.92848],[-75.113893,39.928425],[-75.113786,39.92848]],[[-75.113893,39.928425],[-75.113928,39.928397],[-75.113893,39.928397],[-75.113893,39.928425]],[[-75.113928,39.928397],[-75.113964,39.92837],[-75.113928,39.92837],[-75.113928,39.928397]],[[-75.113928,39.928315],[-75.114034,39.928259],[-75.114069,39.928232],[-75.113928,39.928315]],[[-75.113751,39.928535],[-75.113715,39.928508],[-75.113716,39.928536],[-75.113751,39.928535]],[[-75.096773,39.919839],[-75.096629,39.919647],[-75.096737,39.919839],[-75.096773,39.919839]],[[-75.091912,39.922637],[-75.091948,39.922664],[-75.091948,39.922636],[-75.091912,39.922637]],[[-75.091948,39.922664],[-75.09202,39.922691],[-75.09202,39.922664],[-75.091948,39.922664]],[[-75.111814,39.899143],[-75.111778,39.899115],[-75.111778,39.899143],[-75.111814,39.899143]],[[-75.109154,39.900667],[-75.109118,39.900694],[-75.109154,39.900694],[-75.109154,39.900667]],[[-75.11115,39.900656],[-75.111114,39.900629],[-75.111114,39.900656],[-75.11115,39.900656]],[[-75.112199,39.902435],[-75.112128,39.902408],[-75.112128,39.902435],[-75.112199,39.902435]],[[-75.113807,39.902784],[-75.113842,39.902756],[-75.113806,39.902756],[-75.113807,39.902784]],[[-75.119858,39.949313],[-75.119822,39.949286],[-75.119822,39.949313],[-75.119858,39.949313]]],[[[-75.111579,39.93692],[-75.111615,39.936948],[-75.11158,39.936948],[-75.111579,39.93692]]],[[[-75.111616,39.937003],[-75.111652,39.937057],[-75.111616,39.937057],[-75.111616,39.937003]]],[[[-75.111837,39.937852],[-75.111872,39.93777],[-75.111873,39.937852],[-75.111837,39.937852]]],[[[-75.111874,39.937989],[-75.111909,39.937879],[-75.11191,39.937989],[-75.111874,39.937989]]],[[[-75.11191,39.938017],[-75.111947,39.938126],[-75.111911,39.938127],[-75.11191,39.938017]]],[[[-75.111947,39.938126],[-75.111983,39.938236],[-75.111948,39.938236],[-75.111947,39.938126]]],[[[-75.111983,39.938236],[-75.11202,39.938318],[-75.111984,39.938318],[-75.111983,39.938236]]],[[[-75.112572,39.940237],[-75.1125,39.940182],[-75.112499,39.940045],[-75.112572,39.940237]]],[[[-75.111637,39.943454],[-75.111496,39.943619],[-75.111211,39.943621],[-75.111246,39.943511],[-75.111637,39.943454]]],[[[-75.114001,39.944512],[-75.113853,39.943909],[-75.114529,39.943686],[-75.11525,39.944643],[-75.11475,39.944536],[-75.114467,39.944812],[-75.114429,39.944565],[-75.114001,39.944512]],[[-75.114465,39.944592],[-75.114501,39.944564],[-75.114465,39.944565],[-75.114465,39.944592]]],[[[-75.116961,39.94845],[-75.117032,39.948395],[-75.117068,39.948449],[-75.116961,39.94845]]],[[[-75.093715,39.911124],[-75.093738,39.911097],[-75.093738,39.911124],[-75.093715,39.911124]]],[[[-75.093765,39.911179],[-75.093774,39.911124],[-75.093775,39.911179],[-75.093765,39.911179]]],[[[-75.103779,39.929988],[-75.102991,39.929553],[-75.103598,39.929632],[-75.103779,39.929988]]],[[[-75.107327,39.932001],[-75.107363,39.932028],[-75.107328,39.932028],[-75.107327,39.932001]]],[[[-75.107363,39.932028],[-75.107399,39.932056],[-75.107364,39.932056],[-75.107363,39.932028]]],[[[-75.094487,39.948265],[-75.094452,39.948238],[-75.094487,39.948238],[-75.094487,39.948265]]],[[[-75.094452,39.948265],[-75.094416,39.948293],[-75.094416,39.948266],[-75.094452,39.948265]]],[[[-75.094454,39.94854],[-75.094418,39.948513],[-75.094454,39.948513],[-75.094454,39.94854]]],[[[-75.094419,39.948568],[-75.094383,39.94854],[-75.094418,39.94854],[-75.094419,39.948568]]],[[[-75.09417,39.948706],[-75.094134,39.948624],[-75.094241,39.948623],[-75.09417,39.948706]]],[[[-75.09392,39.948653],[-75.093956,39.94868],[-75.09392,39.94868],[-75.09392,39.948653]]],[[[-75.093921,39.94879],[-75.093956,39.94868],[-75.093992,39.94868],[-75.093921,39.94879]]],[[[-75.093849,39.948735],[-75.093814,39.948763],[-75.093814,39.948735],[-75.093849,39.948735]]],[[[-75.093779,39.948791],[-75.093814,39.948763],[-75.093814,39.94879],[-75.093779,39.948791]]],[[[-75.094028,39.948817],[-75.093992,39.948762],[-75.094028,39.948762],[-75.094028,39.948817]]],[[[-75.093814,39.94879],[-75.093815,39.948873],[-75.093744,39.948873],[-75.093814,39.94879]]],[[[-75.093994,39.948899],[-75.093851,39.948873],[-75.093957,39.948817],[-75.093994,39.948899]]],[[[-75.093744,39.948873],[-75.093673,39.948901],[-75.093672,39.948873],[-75.093744,39.948873]]],[[[-75.09378,39.948955],[-75.093851,39.948927],[-75.093851,39.948955],[-75.09378,39.948955]]],[[[-75.093851,39.948955],[-75.093887,39.948982],[-75.093852,39.948982],[-75.093851,39.948955]]],[[[-75.09346,39.949067],[-75.093424,39.949039],[-75.09346,39.949039],[-75.09346,39.949067]]],[[[-75.093462,39.949341],[-75.093533,39.949286],[-75.093533,39.949313],[-75.093462,39.949341]]],[[[-75.093498,39.949368],[-75.093534,39.949341],[-75.093534,39.949368],[-75.093498,39.949368]]],[[[-75.093427,39.949369],[-75.093462,39.949341],[-75.093463,39.949369],[-75.093427,39.949369]]],[[[-75.09325,39.949534],[-75.093178,39.949507],[-75.093249,39.94948],[-75.09325,39.949534]]],[[[-75.093107,39.949535],[-75.093143,39.949562],[-75.093108,39.949563],[-75.093107,39.949535]]],[[[-75.09325,39.949589],[-75.093286,39.949562],[-75.093286,39.949589],[-75.09325,39.949589]]],[[[-75.093143,39.949562],[-75.093179,39.94959],[-75.093143,39.94959],[-75.093143,39.949562]]],[[[-75.093144,39.949672],[-75.093109,39.9497],[-75.093108,39.949672],[-75.093144,39.949672]]],[[[-75.092644,39.94962],[-75.092715,39.949565],[-75.09268,39.94962],[-75.092644,39.94962]]],[[[-75.093037,39.949618],[-75.093001,39.949591],[-75.093036,39.94959],[-75.093037,39.949618]]],[[[-75.092716,39.94962],[-75.092787,39.949592],[-75.092716,39.949647],[-75.092716,39.94962]]],[[[-75.093001,39.949646],[-75.092965,39.949618],[-75.093001,39.949618],[-75.093001,39.949646]]],[[[-75.092788,39.949729],[-75.092823,39.949701],[-75.092824,39.949729],[-75.092788,39.949729]]],[[[-75.09261,39.949757],[-75.092574,39.94973],[-75.09261,39.94973],[-75.09261,39.949757]]],[[[-75.092682,39.949812],[-75.092717,39.949757],[-75.092717,39.949812],[-75.092682,39.949812]]],[[[-75.092824,39.949784],[-75.09286,39.949811],[-75.092824,39.949811],[-75.092824,39.949784]]],[[[-75.092539,39.949813],[-75.092503,39.949785],[-75.092539,39.949785],[-75.092539,39.949813]]],[[[-75.092789,39.949839],[-75.092824,39.949811],[-75.092825,39.949839],[-75.092789,39.949839]]],[[[-75.092468,39.949813],[-75.092539,39.949868],[-75.092468,39.949868],[-75.092468,39.949813]]],[[[-75.092789,39.949866],[-75.092825,39.949894],[-75.092789,39.949894],[-75.092789,39.949866]]],[[[-75.092753,39.949866],[-75.092718,39.949894],[-75.092718,39.949867],[-75.092753,39.949866]]],[[[-75.092683,39.949922],[-75.092718,39.949894],[-75.092718,39.949922],[-75.092683,39.949922]]],[[[-75.09279,39.949949],[-75.092825,39.949921],[-75.092825,39.949948],[-75.09279,39.949949]]],[[[-75.092718,39.949922],[-75.092754,39.949949],[-75.092718,39.949949],[-75.092718,39.949922]]],[[[-75.092683,39.949977],[-75.092718,39.949949],[-75.092719,39.949976],[-75.092683,39.949977]]],[[[-75.092612,39.949977],[-75.092647,39.949949],[-75.092647,39.949977],[-75.092612,39.949977]]],[[[-75.092612,39.950004],[-75.092648,39.950032],[-75.092612,39.950032],[-75.092612,39.950004]]],[[[-75.092505,39.950005],[-75.092541,39.950032],[-75.092505,39.950032],[-75.092505,39.950005]]],[[[-75.092684,39.950059],[-75.092648,39.950032],[-75.092684,39.950032],[-75.092684,39.950059]]],[[[-75.09197,39.950063],[-75.091899,39.950118],[-75.091899,39.950063],[-75.09197,39.950063]]],[[[-75.092542,39.950142],[-75.092577,39.950114],[-75.092577,39.950142],[-75.092542,39.950142]]],[[[-75.09247,39.950142],[-75.092506,39.950115],[-75.092506,39.950142],[-75.09247,39.950142]]],[[[-75.092078,39.950144],[-75.092114,39.950117],[-75.092114,39.950144],[-75.092078,39.950144]]],[[[-75.091971,39.950145],[-75.092007,39.950117],[-75.092007,39.950145],[-75.091971,39.950145]]],[[[-75.091936,39.950173],[-75.091971,39.950145],[-75.091971,39.950172],[-75.091936,39.950173]]],[[[-75.0924,39.950225],[-75.092364,39.950198],[-75.0924,39.950198],[-75.0924,39.950225]]],[[[-75.092222,39.950308],[-75.092258,39.950336],[-75.092222,39.950336],[-75.092222,39.950308]]],[[[-75.085825,39.923832],[-75.085825,39.923848],[-75.085794,39.923848],[-75.085825,39.923832]]],[[[-75.082561,39.940419],[-75.082543,39.940419],[-75.082543,39.940411],[-75.082561,39.940419]]],[[[-75.091898,39.949981],[-75.091934,39.949953],[-75.091934,39.94998],[-75.091898,39.949981]]],[[[-75.091863,39.950008],[-75.091898,39.949981],[-75.091899,39.950008],[-75.091863,39.950008]]],[[[-75.091863,39.950008],[-75.091792,39.950064],[-75.091792,39.950036],[-75.091863,39.950008]]],[[[-75.091757,39.950119],[-75.091721,39.950091],[-75.091757,39.950091],[-75.091757,39.950119]]],[[[-75.091864,39.950146],[-75.091899,39.950118],[-75.0919,39.950145],[-75.091864,39.950146]]],[[[-75.091686,39.950146],[-75.091721,39.950119],[-75.091721,39.950146],[-75.091686,39.950146]]],[[[-75.09165,39.950174],[-75.091686,39.950146],[-75.091686,39.950174],[-75.09165,39.950174]]],[[[-75.091436,39.950148],[-75.091543,39.950175],[-75.091437,39.950203],[-75.091436,39.950148]]],[[[-75.091864,39.950146],[-75.091793,39.950201],[-75.091793,39.950173],[-75.091864,39.950146]]],[[[-75.091615,39.950202],[-75.09165,39.950174],[-75.091651,39.950202],[-75.091615,39.950202]]],[[[-75.091615,39.950229],[-75.091579,39.950202],[-75.091615,39.950202],[-75.091615,39.950229]]],[[[-75.090868,39.950425],[-75.090903,39.950398],[-75.090903,39.950425],[-75.090868,39.950425]]],[[[-75.090832,39.950453],[-75.090868,39.950425],[-75.090868,39.950453],[-75.090832,39.950453]]],[[[-75.090832,39.950453],[-75.090761,39.950508],[-75.090761,39.950481],[-75.090832,39.950453]]],[[[-75.090726,39.950536],[-75.090761,39.950508],[-75.090762,39.950536],[-75.090726,39.950536]]],[[[-75.091305,39.951521],[-75.091269,39.951494],[-75.091305,39.951494],[-75.091305,39.951521]]],[[[-75.091234,39.951549],[-75.091198,39.951522],[-75.091234,39.951521],[-75.091234,39.951549]]],[[[-75.091128,39.951604],[-75.091092,39.951577],[-75.091127,39.951577],[-75.091128,39.951604]]],[[[-75.090523,39.951772],[-75.090701,39.951771],[-75.090523,39.951827],[-75.090523,39.951772]]],[[[-75.090416,39.951855],[-75.090488,39.951882],[-75.090416,39.951883],[-75.090416,39.951855]]],[[[-75.080036,39.951935],[-75.081569,39.951735],[-75.083143,39.952249],[-75.084355,39.952215],[-75.08629,39.953249],[-75.086798,39.954207],[-75.085701,39.955256],[-75.084386,39.955894],[-75.083991,39.955566],[-75.083312,39.955433],[-75.083487,39.95502],[-75.083163,39.95461],[-75.082555,39.954421],[-75.082082,39.95338],[-75.081799,39.953656],[-75.081511,39.9533],[-75.08119,39.953357],[-75.08133,39.953081],[-75.081042,39.952726],[-75.080436,39.952729],[-75.080433,39.952482],[-75.080329,39.952812],[-75.079472,39.952706],[-75.079684,39.952458],[-75.079253,39.952049],[-75.079435,39.952487],[-75.079152,39.952763],[-75.078296,39.95285],[-75.077938,39.952632],[-75.077869,39.952962],[-75.077369,39.952909],[-75.076937,39.95239],[-75.077042,39.952197],[-75.077472,39.95236],[-75.077039,39.951813],[-75.077143,39.951428],[-75.076576,39.951842],[-75.076357,39.951294],[-75.077427,39.951262],[-75.078468,39.952025],[-75.078537,39.951805],[-75.077782,39.951123],[-75.078137,39.950901],[-75.078894,39.951831],[-75.079536,39.951773],[-75.079967,39.952155],[-75.080036,39.951935]],[[-75.077043,39.952307],[-75.077079,39.952334],[-75.077079,39.952307],[-75.077043,39.952307]],[[-75.077437,39.952442],[-75.077473,39.952469],[-75.077472,39.952442],[-75.077437,39.952442]],[[-75.077473,39.952469],[-75.077508,39.952497],[-75.077508,39.952469],[-75.077473,39.952469]],[[-75.077508,39.952497],[-75.077544,39.952524],[-75.077544,39.952496],[-75.077508,39.952497]],[[-75.077544,39.952524],[-75.077581,39.952579],[-75.07758,39.952524],[-75.077544,39.952524]],[[-75.080038,39.952155],[-75.080074,39.952182],[-75.080074,39.952154],[-75.080038,39.952155]],[[-75.081541,39.952641],[-75.081289,39.95245],[-75.081542,39.952833],[-75.081541,39.952641]]],[[[-75.086909,39.954646],[-75.086945,39.954673],[-75.086909,39.954673],[-75.086909,39.954646]]],[[[-75.086519,39.954977],[-75.086555,39.955004],[-75.086519,39.955005],[-75.086519,39.954977]]],[[[-75.086094,39.955336],[-75.086129,39.955309],[-75.08613,39.955336],[-75.086094,39.955336]]],[[[-75.085882,39.955529],[-75.085917,39.955502],[-75.085917,39.955529],[-75.085882,39.955529]]]]}}]}