{"type":"FeatureCollection","features":[{"type":"Feature","properties":{"level_ft":14},"geometry":{"type":"MultiPolygon","coordinates":[[[[-75.099697,39.899398],[-75.099732,39.899343],[-75.099732,39.899398],[-75.099697,39.899398]]],[[[-75.099661,39.899426],[-75.099697,39.89948],[-75.099662,39.899481],[-75.099661,39.899426]]],[[[-75.114767,39.902586],[-75.112406,39.901583],[-75.111076,39.900327],[-75.112899,39.900894],[-75.115267,39.902666],[-75.114767,39.902586]],[[-75.113765,39.902097],[-75.113729,39.90207],[-75.113729,39.902098],[-75.113765,39.902097]],[[-75.113729,39.90207],[-75.113693,39.902015],[-75.113693,39.90207],[-75.113729,39.90207]]],[[[-75.113804,39.902509],[-75.113733,39.902537],[-75.113733,39.902509],[-75.113804,39.902509]]],[[[-75.113557,39.902757],[-75.112662,39.902405],[-75.113806,39.902701],[-75.113557,39.902757]]],[[[-75.115267,39.902666],[-75.115339,39.902693],[-75.115267,39.902693],[-75.115267,39.902666]]],[[[-75.122205,39.944606],[-75.122667,39.944356],[-75.122095,39.944249],[-75.122664,39.944027],[-75.122555,39.943808],[-75.122235,39.943892],[-75.122162,39.9437],[-75.121697,39.943648],[-75.121556,39.943813],[-75.121447,39.943567],[-75.120768,39.943405],[-75.120658,39.943049],[-75.120409,39.94316],[-75.120085,39.942888],[-75.119944,39.943026],[-75.119585,39.942808],[-75.119621,39.942753],[-75.119088,39.942975],[-75.118978,39.942701],[-75.118408,39.942759],[-75.118619,39.942456],[-75.118333,39.94232],[-75.118618,39.942319],[-75.118864,39.941878],[-75.118326,39.941552],[-75.118717,39.94144],[-75.118749,39.940973],[-75.117998,39.940812],[-75.11871,39.940616],[-75.117817,39.940484],[-75.118527,39.940178],[-75.117562,39.939936],[-75.11838,39.939602],[-75.119093,39.939653],[-75.119199,39.939461],[-75.120735,39.939809],[-75.120803,39.939397],[-75.121406,39.939037],[-75.121332,39.938708],[-75.120833,39.938738],[-75.120829,39.938354],[-75.121329,39.938461],[-75.1215,39.937581],[-75.121716,39.937772],[-75.121964,39.937689],[-75.121959,39.93714],[-75.121637,39.937004],[-75.122062,39.936672],[-75.121382,39.936347],[-75.121594,39.936181],[-75.121483,39.93577],[-75.121055,39.935744],[-75.121407,39.935166],[-75.12087,39.934977],[-75.121366,39.934562],[-75.120864,39.934345],[-75.121145,39.933877],[-75.12075,39.93355],[-75.121604,39.933353],[-75.121709,39.933133],[-75.120317,39.93303],[-75.120387,39.93281],[-75.11985,39.932621],[-75.119776,39.93232],[-75.120164,39.931823],[-75.11977,39.931606],[-75.119343,39.931718],[-75.11923,39.931114],[-75.118768,39.931227],[-75.118876,39.931391],[-75.118628,39.931502],[-75.118233,39.931257],[-75.117985,39.931396],[-75.117947,39.931121],[-75.117557,39.931398],[-75.117376,39.931152],[-75.11713,39.931565],[-75.116559,39.931513],[-75.11667,39.931869],[-75.116278,39.931899],[-75.116102,39.932257],[-75.115672,39.932012],[-75.114677,39.932319],[-75.114536,39.932512],[-75.115142,39.932564],[-75.11518,39.932838],[-75.114468,39.932979],[-75.114401,39.933446],[-75.113404,39.933534],[-75.113265,39.933974],[-75.112801,39.933894],[-75.11316,39.934167],[-75.112592,39.934499],[-75.112842,39.93458],[-75.112594,39.934719],[-75.11288,39.9348],[-75.112775,39.934992],[-75.112382,39.934994],[-75.112172,39.93538],[-75.111956,39.935216],[-75.111743,39.935327],[-75.11167,39.935108],[-75.111728,39.933543],[-75.112358,39.932249],[-75.113488,39.931008],[-75.115437,39.929625],[-75.114975,39.929764],[-75.116208,39.928166],[-75.116696,39.918911],[-75.116552,39.914794],[-75.117043,39.913858],[-75.116722,39.913832],[-75.117005,39.913611],[-75.116505,39.913476],[-75.116142,39.912847],[-75.116239,39.911666],[-75.115766,39.91068],[-75.115552,39.910599],[-75.115096,39.91148],[-75.114741,39.911619],[-75.114739,39.911344],[-75.114562,39.911565],[-75.115385,39.911862],[-75.11564,39.912465],[-75.115507,39.913564],[-75.116218,39.917349],[-75.116192,39.918392],[-75.115979,39.918476],[-75.116075,39.921248],[-75.115679,39.924846],[-75.115734,39.926988],[-75.114992,39.927733],[-75.114389,39.928065],[-75.114671,39.927707],[-75.114529,39.927735],[-75.111276,39.930882],[-75.110647,39.932395],[-75.110772,39.934426],[-75.110416,39.934428],[-75.109011,39.932816],[-75.105427,39.930858],[-75.105856,39.930938],[-75.106139,39.930717],[-75.106461,39.930853],[-75.107242,39.930409],[-75.107672,39.930627],[-75.107597,39.930188],[-75.108131,39.93013],[-75.108199,39.929718],[-75.108732,39.929578],[-75.108942,39.929082],[-75.109122,39.929301],[-75.108753,39.92793],[-75.109178,39.927544],[-75.109134,39.926611],[-75.109491,39.926636],[-75.109238,39.926281],[-75.109521,39.92606],[-75.109446,39.925621],[-75.109943,39.925343],[-75.109584,39.925126],[-75.110082,39.924903],[-75.110042,39.924492],[-75.110434,39.924407],[-75.110002,39.92397],[-75.110249,39.923612],[-75.109855,39.923477],[-75.109491,39.922655],[-75.108959,39.922933],[-75.108599,39.922605],[-75.107744,39.92261],[-75.107063,39.922284],[-75.107133,39.922119],[-75.10692,39.922175],[-75.106845,39.921818],[-75.106055,39.921191],[-75.106008,39.919928],[-75.106544,39.919953],[-75.106612,39.919623],[-75.107039,39.919539],[-75.106714,39.919101],[-75.107357,39.91918],[-75.107819,39.918985],[-75.108284,39.919203],[-75.10871,39.918981],[-75.108961,39.919144],[-75.109314,39.918703],[-75.110061,39.918534],[-75.111598,39.918965],[-75.112201,39.918605],[-75.112489,39.918906],[-75.112592,39.918548],[-75.112916,39.918876],[-75.113197,39.918408],[-75.113239,39.919039],[-75.113596,39.919175],[-75.113948,39.918679],[-75.114057,39.918898],[-75.114377,39.918814],[-75.1143,39.918128],[-75.114727,39.91807],[-75.114685,39.917329],[-75.115183,39.917217],[-75.115003,39.916998],[-75.114182,39.916893],[-75.115607,39.916803],[-75.115207,39.915844],[-75.115031,39.916092],[-75.11485,39.915846],[-75.114494,39.915875],[-75.114036,39.916509],[-75.113891,39.91629],[-75.113464,39.916293],[-75.113497,39.916073],[-75.112462,39.915968],[-75.111996,39.915587],[-75.109144,39.915629],[-75.108258,39.916265],[-75.107613,39.915939],[-75.107653,39.916378],[-75.107334,39.916572],[-75.106619,39.916356],[-75.106473,39.916055],[-75.106154,39.916194],[-75.10519,39.916062],[-75.105086,39.916446],[-75.104767,39.916585],[-75.104982,39.916776],[-75.104483,39.916779],[-75.104983,39.916831],[-75.104877,39.916969],[-75.103949,39.916892],[-75.103633,39.91736],[-75.103241,39.917389],[-75.101984,39.91638],[-75.101844,39.916656],[-75.101298,39.916686],[-75.099865,39.913659],[-75.099497,39.913857],[-75.098545,39.91379],[-75.098005,39.914078],[-75.097647,39.913585],[-75.097222,39.913508],[-75.096244,39.913898],[-75.09507,39.912611],[-75.095177,39.912572],[-75.094746,39.912162],[-75.095204,39.911583],[-75.094693,39.910158],[-75.096078,39.90963],[-75.095719,39.909329],[-75.096714,39.90894],[-75.096107,39.908778],[-75.095359,39.908837],[-75.095183,39.909168],[-75.094469,39.909021],[-75.096955,39.908319],[-75.097411,39.907987],[-75.097028,39.907099],[-75.097306,39.907317],[-75.098126,39.907286],[-75.097837,39.906875],[-75.097732,39.907095],[-75.097411,39.907042],[-75.097298,39.906384],[-75.097511,39.906245],[-75.097119,39.906247],[-75.097116,39.906],[-75.097438,39.906081],[-75.097215,39.905094],[-75.096244,39.905291],[-75.094606,39.901418],[-75.09597,39.901182],[-75.09868,39.901353],[-75.099146,39.901597],[-75.100535,39.901508],[-75.100783,39.901342],[-75.100497,39.901206],[-75.098393,39.901107],[-75.097999,39.900917],[-75.097854,39.900588],[-75.098314,39.900284],[-75.097639,39.900507],[-75.097572,39.900974],[-75.096241,39.900898],[-75.099414,39.89929],[-75.099624,39.899248],[-75.099309,39.899867],[-75.099453,39.900003],[-75.099909,39.899232],[-75.101289,39.898895],[-75.102259,39.899174],[-75.103243,39.900035],[-75.104877,39.900527],[-75.107941,39.900238],[-75.110063,39.89908],[-75.111838,39.898569],[-75.113326,39.899455],[-75.113874,39.901102],[-75.116358,39.902119],[-75.11655,39.902879],[-75.115194,39.902502],[-75.113112,39.900893],[-75.112397,39.900567],[-75.112822,39.90029],[-75.112781,39.899742],[-75.111777,39.899088],[-75.111385,39.899063],[-75.111138,39.899284],[-75.111671,39.899171],[-75.112101,39.899443],[-75.112677,39.899989],[-75.112574,39.900429],[-75.109755,39.900114],[-75.108192,39.900727],[-75.109011,39.900612],[-75.109014,39.900942],[-75.109229,39.901133],[-75.10958,39.900472],[-75.110612,39.900302],[-75.111406,39.901396],[-75.113733,39.902482],[-75.110515,39.901456],[-75.109445,39.901351],[-75.112768,39.902295],[-75.110877,39.90203],[-75.110094,39.902227],[-75.110593,39.902224],[-75.111205,39.902852],[-75.11095,39.902222],[-75.111949,39.902382],[-75.111956,39.903178],[-75.112786,39.904217],[-75.112277,39.903148],[-75.112343,39.902599],[-75.113594,39.902949],[-75.113674,39.903882],[-75.113774,39.903113],[-75.114594,39.903136],[-75.114058,39.902947],[-75.11402,39.9027],[-75.116513,39.903126],[-75.116286,39.90374],[-75.11488,39.9054],[-75.114715,39.906125],[-75.117488,39.90849],[-75.120177,39.908514],[-75.121403,39.907762],[-75.122836,39.907428],[-75.129344,39.907381],[-75.129091,39.911608],[-75.12984,39.915359],[-75.135874,39.927639],[-75.136621,39.93037],[-75.136805,39.937021],[-75.136556,39.941533],[-75.135631,39.947459],[-75.134194,39.952774],[-75.123583,39.950968],[-75.122224,39.950563],[-75.120575,39.949721],[-75.120072,39.949339],[-75.119961,39.948818],[-75.120244,39.948624],[-75.120211,39.948872],[-75.121068,39.948977],[-75.121383,39.948316],[-75.120384,39.948267],[-75.120703,39.948046],[-75.120663,39.947606],[-75.120377,39.947471],[-75.120623,39.94714],[-75.120441,39.946729],[-75.120938,39.946424],[-75.120869,39.946754],[-75.12194,39.946858],[-75.121618,39.946723],[-75.121434,39.946065],[-75.121646,39.945899],[-75.121431,39.945763],[-75.122037,39.945677],[-75.122319,39.945319],[-75.122205,39.944606]],[[-75.119872,39.942916],[-75.119907,39.942888],[-75.119871,39.942889],[-75.119872,39.942916]],[[-75.119728,39.942835],[-75.119764,39.942807],[-75.119728,39.942807],[-75.119728,39.942835]],[[-75.119657,39.942807],[-75.119692,39.94278],[-75.119657,39.94278],[-75.119657,39.942807]],[[-75.11481,39.911344],[-75.114845,39.911316],[-75.11481,39.911316],[-75.11481,39.911344]],[[-75.114742,39.911756],[-75.114707,39.911784],[-75.114742,39.911783],[-75.114742,39.911756]],[[-75.114566,39.927955],[-75.11453,39.927927],[-75.114531,39.927955],[-75.114566,39.927955]],[[-75.114671,39.927707],[-75.114706,39.927679],[-75.114671,39.92768],[-75.114671,39.927707]],[[-75.114706,39.927624],[-75.114848,39.927596],[-75.114812,39.927514],[-75.114741,39.927542],[-75.114706,39.927624]],[[-75.114848,39.927541],[-75.114883,39.927514],[-75.114848,39.927514],[-75.114848,39.927541]],[[-75.114883,39.927514],[-75.114919,39.927486],[-75.114883,39.927486],[-75.114883,39.927514]],[[-75.114918,39.927431],[-75.11506,39.927375],[-75.115024,39.927321],[-75.114953,39.927349],[-75.114918,39.927431]],[[-75.11506,39.927348],[-75.115095,39.92732],[-75.11506,39.927321],[-75.11506,39.927348]],[[-75.115095,39.92732],[-75.115131,39.927293],[-75.115095,39.927293],[-75.115095,39.92732]],[[-75.115131,39.927293],[-75.115166,39.927238],[-75.11513,39.927238],[-75.115131,39.927293]],[[-75.11513,39.927238],[-75.115094,39.927211],[-75.115095,39.927238],[-75.11513,39.927238]],[[-75.11513,39.92721],[-75.115165,39.927183],[-75.11513,39.927183],[-75.11513,39.92721]],[[-75.115095,39.927238],[-75.115059,39.927266],[-75.115095,39.927265],[-75.115095,39.927238]],[[-75.115059,39.927266],[-75.115024,39.927293],[-75.115059,39.927293],[-75.115059,39.927266]],[[-75.095213,39.912627],[-75.095214,39.912736],[-75.095285,39.912736],[-75.095213,39.912627]],[[-75.094922,39.911942],[-75.094958,39.911969],[-75.094958,39.911942],[-75.094922,39.911942]],[[-75.098315,39.900339],[-75.098386,39.900366],[-75.098386,39.900338],[-75.098315,39.900339]],[[-75.099417,39.900004],[-75.099346,39.900031],[-75.099417,39.900031],[-75.099417,39.900004]],[[-75.099523,39.899948],[-75.099559,39.899975],[-75.099559,39.899948],[-75.099523,39.899948]],[[-75.111138,39.899284],[-75.111102,39.899311],[-75.111138,39.899311],[-75.111138,39.899284]],[[-75.111103,39.899366],[-75.11096,39.899339],[-75.111032,39.899421],[-75.111103,39.899366]],[[-75.110646,39.90011],[-75.11061,39.900082],[-75.11061,39.90011],[-75.110646,39.90011]],[[-75.109445,39.901351],[-75.109409,39.901324],[-75.109409,39.901352],[-75.109445,39.901351]],[[-75.111241,39.902852],[-75.111276,39.902879],[-75.111276,39.902852],[-75.111241,39.902852]],[[-75.112892,39.904216],[-75.112929,39.904271],[-75.112928,39.904216],[-75.112892,39.904216]],[[-75.120703,39.948046],[-75.120739,39.948073],[-75.120738,39.948045],[-75.120703,39.948046]],[[-75.122242,39.944743],[-75.122278,39.94477],[-75.122278,39.944743],[-75.122242,39.944743]]],[[[-75.116126,39.926903],[-75.116163,39.927095],[-75.116127,39.927095],[-75.116126,39.926903]]],[[[-75.115024,39.927348],[-75.114989,39.927376],[-75.114989,39.927348],[-75.115024,39.927348]]],[[[-75.114812,39.927542],[-75.114777,39.927569],[-75.114776,39.927542],[-75.114812,39.927542]]],[[[-75.114353,39.928093],[-75.114389,39.928065],[-75.114389,39.928093],[-75.114353,39.928093]]],[[[-75.112726,39.929584],[-75.112762,39.929611],[-75.112727,39.929612],[-75.112726,39.929584]]],[[[-75.114247,39.928176],[-75.115033,39.928337],[-75.114827,39.929189],[-75.113341,39.930487],[-75.11207,39.932004],[-75.11137,39.933462],[-75.110873,39.933685],[-75.110824,39.93223],[-75.111454,39.930854],[-75.114213,39.928286],[-75.114247,39.928176]],[[-75.110861,39.932312],[-75.110896,39.932257],[-75.11086,39.932257],[-75.110861,39.932312]],[[-75.114248,39.928231],[-75.114284,39.928258],[-75.114283,39.928231],[-75.114248,39.928231]]],[[[-75.11119,39.937252],[-75.110897,39.936347],[-75.11144,39.937251],[-75.11119,39.937252]]],[[[-75.112696,39.938122],[-75.112043,39.936945],[-75.111818,39.935656],[-75.11221,39.935627],[-75.112679,39.936228],[-75.112398,39.936696],[-75.112791,39.936859],[-75.112436,39.937053],[-75.112655,39.937628],[-75.112941,39.937627],[-75.112696,39.938122]]],[[[-75.112571,39.9401],[-75.112499,39.940128],[-75.112499,39.940045],[-75.112571,39.9401]]],[[[-75.113665,39.942867],[-75.11395,39.942838],[-75.113951,39.942865],[-75.113665,39.942867]]],[[[-75.113237,39.942897],[-75.11306,39.942952],[-75.112703,39.942927],[-75.112773,39.942762],[-75.113237,39.942897]]],[[[-75.114416,39.94311],[-75.114699,39.942779],[-75.116089,39.942717],[-75.116449,39.943017],[-75.114881,39.943217],[-75.114416,39.94311]]],[[[-75.111566,39.943427],[-75.11153,39.9434],[-75.111566,39.943399],[-75.111566,39.943427]]],[[[-75.111247,39.943648],[-75.11153,39.943427],[-75.111532,39.943592],[-75.111247,39.943648]]],[[[-75.111639,39.943619],[-75.111427,39.943867],[-75.111212,39.943758],[-75.111639,39.943619]]],[[[-75.116015,39.946368],[-75.114978,39.946044],[-75.11451,39.94558],[-75.115546,39.945822],[-75.116015,39.946368]]],[[[-75.118383,39.9558],[-75.118483,39.955058],[-75.118127,39.95517],[-75.118378,39.955251],[-75.118237,39.955444],[-75.117559,39.955447],[-75.117983,39.954978],[-75.117731,39.954733],[-75.118156,39.954428],[-75.118337,39.954674],[-75.118586,39.954646],[-75.118298,39.954345],[-75.118797,39.954288],[-75.1189,39.953875],[-75.119685,39.953899],[-75.119893,39.953156],[-75.11957,39.952993],[-75.120068,39.952798],[-75.120062,39.952194],[-75.120953,39.95208],[-75.120736,39.951752],[-75.121093,39.95175],[-75.120587,39.951039],[-75.120724,39.950379],[-75.120225,39.950437],[-75.120184,39.949805],[-75.121295,39.950403],[-75.120945,39.951146],[-75.121582,39.950567],[-75.123514,39.951188],[-75.134099,39.953052],[-75.132573,39.956557],[-75.130162,39.959455],[-75.125749,39.962444],[-75.122172,39.964298],[-75.119748,39.96171],[-75.118447,39.960723],[-75.115839,39.959328],[-75.110143,39.958016],[-75.108033,39.958011],[-75.106227,39.958401],[-75.104126,39.95944],[-75.099304,39.963276],[-75.096051,39.965546],[-75.093629,39.966868],[-75.088033,39.969355],[-75.083542,39.963228],[-75.084485,39.963333],[-75.084953,39.963825],[-75.085702,39.963794],[-75.086241,39.96423],[-75.086918,39.964117],[-75.08771,39.964882],[-75.088634,39.96452],[-75.088845,39.964135],[-75.088521,39.96378],[-75.088806,39.963751],[-75.08884,39.963531],[-75.088298,39.962792],[-75.088511,39.962572],[-75.088224,39.962436],[-75.088614,39.962132],[-75.088361,39.961721],[-75.088681,39.961637],[-75.088535,39.961309],[-75.088749,39.961225],[-75.088243,39.960514],[-75.08749,39.960024],[-75.0877,39.959528],[-75.087013,39.958544],[-75.08737,39.958487],[-75.087367,39.958212],[-75.087079,39.957829],[-75.086685,39.957749],[-75.086825,39.957391],[-75.086214,39.9569],[-75.085959,39.956215],[-75.085425,39.956355],[-75.085387,39.956108],[-75.085246,39.956246],[-75.085067,39.956275],[-75.085067,39.956247],[-75.087299,39.954369],[-75.087691,39.95434],[-75.088016,39.95486],[-75.08848,39.954857],[-75.088768,39.95513],[-75.088591,39.955351],[-75.08984,39.955345],[-75.089807,39.955729],[-75.09056,39.95611],[-75.090993,39.956711],[-75.092384,39.956622],[-75.092252,39.957858],[-75.092573,39.957911],[-75.092578,39.958515],[-75.0929,39.958569],[-75.092658,39.959421],[-75.093124,39.95972],[-75.092947,39.959941],[-75.093136,39.961066],[-75.093605,39.961722],[-75.094107,39.961967],[-75.095353,39.961713],[-75.095885,39.961353],[-75.095883,39.961106],[-75.096488,39.960911],[-75.096625,39.960252],[-75.096367,39.959319],[-75.09608,39.959184],[-75.095535,39.958033],[-75.095633,39.95699],[-75.096017,39.955972],[-75.096373,39.955915],[-75.096474,39.955201],[-75.09676,39.955282],[-75.097112,39.954731],[-75.097539,39.954674],[-75.097287,39.954401],[-75.098065,39.953628],[-75.098097,39.953161],[-75.09759,39.952312],[-75.097983,39.952365],[-75.098158,39.951925],[-75.097696,39.952175],[-75.097867,39.951323],[-75.097436,39.951023],[-75.097537,39.950281],[-75.096389,39.949573],[-75.095645,39.950126],[-75.096104,39.94963],[-75.096033,39.949603],[-75.093515,39.951318],[-75.091981,39.951271],[-75.091767,39.951354],[-75.091553,39.951328],[-75.091553,39.951355],[-75.091518,39.951355],[-75.091338,39.951219],[-75.091941,39.950831],[-75.092153,39.950528],[-75.09481,39.948456],[-75.094738,39.948401],[-75.094809,39.948346],[-75.095591,39.948013],[-75.095661,39.947875],[-75.095875,39.947846],[-75.095981,39.947709],[-75.095909,39.947654],[-75.0963,39.94746],[-75.09694,39.947237],[-75.097944,39.947891],[-75.098157,39.94778],[-75.098551,39.947997],[-75.098622,39.947942],[-75.097942,39.947671],[-75.097546,39.947261],[-75.097118,39.947181],[-75.09708,39.946989],[-75.097009,39.946989],[-75.097009,39.947017],[-75.096938,39.947017],[-75.096938,39.947045],[-75.096867,39.947045],[-75.096544,39.946855],[-75.096367,39.946965],[-75.096689,39.947156],[-75.096618,39.947156],[-75.096618,39.947184],[-75.096583,39.947184],[-75.096583,39.947211],[-75.096476,39.947212],[-75.096441,39.947267],[-75.096298,39.947295],[-75.096263,39.94735],[-75.096192,39.947351],[-75.096192,39.947378],[-75.096121,39.947378],[-75.096121,39.947406],[-75.096085,39.947433],[-75.096014,39.947434],[-75.096014,39.947461],[-75.095943,39.947462],[-75.095943,39.947489],[-75.095872,39.947489],[-75.09477,39.947989],[-75.094168,39.948432],[-75.093954,39.948405],[-75.093883,39.948488],[-75.093705,39.948489],[-75.093988,39.948295],[-75.093704,39.948407],[-75.092598,39.948385],[-75.092449,39.947644],[-75.092129,39.947783],[-75.091985,39.947592],[-75.091844,39.947812],[-75.091771,39.947593],[-75.091486,39.947649],[-75.091519,39.947374],[-75.091234,39.947376],[-75.091518,39.947182],[-75.091473,39.946112],[-75.092114,39.946054],[-75.091504,39.945672],[-75.092073,39.945395],[-75.091216,39.945317],[-75.09104,39.945592],[-75.090503,39.945321],[-75.090112,39.945515],[-75.089719,39.94538],[-75.089751,39.94505],[-75.088573,39.944919],[-75.088029,39.943878],[-75.087672,39.943853],[-75.087669,39.943496],[-75.087422,39.943717],[-75.087379,39.942921],[-75.087129,39.942922],[-75.087199,39.942702],[-75.086876,39.942539],[-75.087374,39.942317],[-75.085871,39.941748],[-75.085474,39.941228],[-75.085189,39.941284],[-75.085007,39.940846],[-75.084076,39.940412],[-75.089268,39.935738],[-75.089851,39.936182],[-75.090135,39.936064],[-75.090084,39.935271],[-75.089724,39.934693],[-75.088931,39.934367],[-75.087064,39.93482],[-75.08639,39.934661],[-75.086313,39.932656],[-75.085922,39.931765],[-75.087362,39.929346],[-75.087435,39.927986],[-75.087105,39.927059],[-75.086365,39.926725],[-75.083626,39.926701],[-75.08138,39.925993],[-75.085612,39.923959],[-75.085439,39.924509],[-75.085544,39.924344],[-75.086295,39.92456],[-75.086615,39.924448],[-75.086653,39.924695],[-75.08708,39.92461],[-75.087081,39.924775],[-75.088868,39.925205],[-75.089937,39.925145],[-75.090618,39.925526],[-75.091116,39.925414],[-75.091467,39.924725],[-75.091862,39.925108],[-75.091831,39.925602],[-75.092547,39.9259],[-75.092658,39.926367],[-75.094551,39.926769],[-75.094341,39.927182],[-75.093593,39.927268],[-75.093634,39.927926],[-75.092494,39.928015],[-75.092349,39.927768],[-75.092667,39.927437],[-75.092451,39.927164],[-75.092169,39.927604],[-75.091489,39.927306],[-75.091098,39.92739],[-75.091173,39.927884],[-75.090139,39.927889],[-75.089814,39.927397],[-75.089108,39.928224],[-75.0899,39.929153],[-75.089944,39.930059],[-75.08906,39.93097],[-75.092501,39.933039],[-75.092756,39.933641],[-75.093547,39.934406],[-75.09469,39.934565],[-75.094586,39.93495],[-75.095018,39.935387],[-75.094844,39.935854],[-75.095063,39.93643],[-75.09581,39.936289],[-75.095034,39.937254],[-75.095498,39.937251],[-75.095895,39.937771],[-75.096854,39.937354],[-75.098103,39.937485],[-75.099029,39.937343],[-75.099631,39.936818],[-75.100917,39.937113],[-75.101701,39.936999],[-75.100986,39.936811],[-75.101342,39.936754],[-75.101091,39.936591],[-75.101412,39.936589],[-75.101478,39.935957],[-75.100798,39.935741],[-75.100652,39.935303],[-75.101076,39.934834],[-75.100752,39.934506],[-75.101288,39.934613],[-75.101606,39.93431],[-75.100995,39.933764],[-75.101854,39.934089],[-75.101776,39.933348],[-75.102132,39.933236],[-75.101947,39.932551],[-75.10241,39.932438],[-75.102298,39.931863],[-75.102726,39.931915],[-75.10276,39.931668],[-75.103935,39.931442],[-75.103505,39.931225],[-75.104605,39.930643],[-75.107112,39.93181],[-75.109049,39.93309],[-75.110309,39.934429],[-75.110602,39.935361],[-75.110209,39.935198],[-75.109426,39.935394],[-75.10921,39.935231],[-75.108428,39.935509],[-75.108431,39.935811],[-75.108181,39.93573],[-75.108074,39.935758],[-75.108474,39.936635],[-75.107975,39.936665],[-75.107836,39.937077],[-75.107082,39.936477],[-75.10712,39.936779],[-75.10662,39.936727],[-75.106088,39.937032],[-75.106801,39.937028],[-75.107052,39.937191],[-75.107018,39.937356],[-75.107411,39.937409],[-75.107127,39.93752],[-75.107059,39.937987],[-75.107453,39.93815],[-75.107098,39.938317],[-75.107706,39.938533],[-75.107961,39.939136],[-75.107965,39.939575],[-75.107466,39.93955],[-75.107467,39.939715],[-75.10793,39.939685],[-75.109327,39.940309],[-75.109715,39.93984],[-75.109934,39.940443],[-75.111387,39.939392],[-75.111961,39.939691],[-75.111857,39.940021],[-75.112144,39.940294],[-75.112322,39.940183],[-75.11236,39.940485],[-75.111764,39.941614],[-75.112375,39.94216],[-75.112093,39.942573],[-75.112666,39.94279],[-75.111918,39.942958],[-75.110854,39.943623],[-75.106084,39.944636],[-75.108934,39.944319],[-75.110785,39.943815],[-75.111143,39.944006],[-75.110575,39.944338],[-75.111079,39.944885],[-75.110509,39.94486],[-75.110191,39.945274],[-75.112583,39.945453],[-75.11229,39.944659],[-75.112896,39.944573],[-75.112972,39.945149],[-75.113688,39.945392],[-75.114054,39.946461],[-75.110374,39.945822],[-75.11052,39.946123],[-75.10927,39.945965],[-75.108775,39.946407],[-75.10932,39.947557],[-75.110257,39.948677],[-75.110669,39.950872],[-75.111351,39.951307],[-75.110997,39.951639],[-75.111796,39.953282],[-75.111729,39.953694],[-75.112443,39.9538],[-75.113414,39.954673],[-75.114201,39.954916],[-75.114556,39.954749],[-75.115884,39.955594],[-75.11624,39.955537],[-75.116102,39.956114],[-75.117952,39.955555],[-75.118062,39.955884],[-75.117598,39.955777],[-75.117457,39.955997],[-75.117893,39.956873],[-75.118357,39.956898],[-75.118817,39.956456],[-75.118882,39.955797],[-75.118383,39.9558]],[[-75.088749,39.961308],[-75.088785,39.961335],[-75.088785,39.961307],[-75.088749,39.961308]],[[-75.089056,39.955403],[-75.089091,39.955431],[-75.089091,39.955403],[-75.089056,39.955403]],[[-75.092578,39.958515],[-75.092507,39.958543],[-75.092579,39.958543],[-75.092578,39.958515]],[[-75.092654,39.958982],[-75.092618,39.959009],[-75.092654,39.959009],[-75.092654,39.958982]],[[-75.097614,39.950912],[-75.097758,39.951049],[-75.098044,39.951157],[-75.097792,39.950939],[-75.097614,39.950912]],[[-75.091589,39.951327],[-75.09166,39.9513],[-75.091589,39.9513],[-75.091589,39.951327]],[[-75.09166,39.9513],[-75.091767,39.951272],[-75.09166,39.951272],[-75.09166,39.9513]],[[-75.091445,39.951218],[-75.091481,39.951191],[-75.091445,39.951191],[-75.091445,39.951218]],[[-75.091941,39.950831],[-75.091977,39.950859],[-75.091977,39.950831],[-75.091941,39.950831]],[[-75.09481,39.948428],[-75.094845,39.948401],[-75.09481,39.948401],[-75.09481,39.948428]],[[-75.094845,39.948401],[-75.094916,39.948373],[-75.094845,39.948373],[-75.094845,39.948401]],[[-75.094916,39.948373],[-75.094987,39.948345],[-75.094916,39.948345],[-75.094916,39.948373]],[[-75.094987,39.948345],[-75.095023,39.948317],[-75.094987,39.948318],[-75.094987,39.948345]],[[-75.095023,39.948317],[-75.095058,39.94829],[-75.095023,39.94829],[-75.095023,39.948317]],[[-75.09598,39.947681],[-75.096052,39.947653],[-75.09598,39.947654],[-75.09598,39.947681]],[[-75.096052,39.947653],[-75.096123,39.947625],[-75.096051,39.947626],[-75.096052,39.947653]],[[-75.096123,39.947625],[-75.096158,39.947598],[-75.096122,39.947598],[-75.096123,39.947625]],[[-75.096407,39.947459],[-75.096443,39.947487],[-75.096442,39.947459],[-75.096407,39.947459]],[[-75.096407,39.947487],[-75.096371,39.947514],[-75.096407,39.947514],[-75.096407,39.947487]],[[-75.097837,39.947836],[-75.097801,39.947864],[-75.097837,39.947864],[-75.097837,39.947836]],[[-75.097834,39.947479],[-75.097905,39.947452],[-75.097833,39.947452],[-75.097834,39.947479]],[[-75.097188,39.947043],[-75.097367,39.947097],[-75.098184,39.946764],[-75.098219,39.946681],[-75.097897,39.946628],[-75.0974,39.946823],[-75.097472,39.946877],[-75.097294,39.946906],[-75.09733,39.94696],[-75.097259,39.946988],[-75.097223,39.946988],[-75.097187,39.946961],[-75.097188,39.947043]],[[-75.097295,39.947098],[-75.097224,39.947126],[-75.097295,39.947125],[-75.097295,39.947098]],[[-75.098183,39.946654],[-75.098397,39.946598],[-75.098183,39.946599],[-75.098183,39.946654]],[[-75.09829,39.946653],[-75.098398,39.946708],[-75.098433,39.946653],[-75.09829,39.946653]],[[-75.098291,39.946708],[-75.098255,39.946736],[-75.098291,39.946736],[-75.098291,39.946708]],[[-75.098396,39.946543],[-75.09861,39.946569],[-75.09861,39.946514],[-75.098396,39.946543]],[[-75.09861,39.946514],[-75.098645,39.946487],[-75.09861,39.946487],[-75.09861,39.946514]],[[-75.098646,39.946514],[-75.098717,39.946569],[-75.098717,39.946514],[-75.098646,39.946514]],[[-75.098717,39.946514],[-75.098788,39.946486],[-75.098716,39.946459],[-75.098717,39.946514]],[[-75.098396,39.946543],[-75.098325,39.946516],[-75.098325,39.946543],[-75.098396,39.946543]],[[-75.098289,39.946571],[-75.098218,39.946544],[-75.098218,39.946571],[-75.098289,39.946571]],[[-75.098183,39.946599],[-75.098147,39.946572],[-75.098147,39.946599],[-75.098183,39.946599]],[[-75.098076,39.946627],[-75.09804,39.9466],[-75.09804,39.946627],[-75.098076,39.946627]],[[-75.097365,39.946878],[-75.097329,39.946851],[-75.097329,39.946878],[-75.097365,39.946878]],[[-75.097294,39.946906],[-75.097258,39.946878],[-75.097258,39.946906],[-75.097294,39.946906]],[[-75.097258,39.946906],[-75.097222,39.946933],[-75.097258,39.946933],[-75.097258,39.946906]],[[-75.097187,39.946961],[-75.097151,39.946934],[-75.097151,39.946961],[-75.097187,39.946961]],[[-75.09708,39.946989],[-75.097116,39.946961],[-75.09708,39.946962],[-75.09708,39.946989]],[[-75.096795,39.946991],[-75.096866,39.946963],[-75.096795,39.946963],[-75.096795,39.946991]],[[-75.096866,39.946963],[-75.096901,39.946935],[-75.096866,39.946935],[-75.096866,39.946963]],[[-75.096901,39.946935],[-75.096973,39.946907],[-75.096901,39.946908],[-75.096901,39.946935]],[[-75.096973,39.946907],[-75.097044,39.946879],[-75.096972,39.94688],[-75.096973,39.946907]],[[-75.097044,39.946879],[-75.097115,39.946852],[-75.097043,39.946852],[-75.097044,39.946879]],[[-75.097115,39.946852],[-75.09715,39.946824],[-75.097114,39.946824],[-75.097115,39.946852]],[[-75.096546,39.947129],[-75.096333,39.947158],[-75.096333,39.947185],[-75.096546,39.947129]],[[-75.096333,39.947185],[-75.096297,39.947213],[-75.096333,39.947213],[-75.096333,39.947185]],[[-75.096297,39.947213],[-75.096226,39.947241],[-75.096298,39.94724],[-75.096297,39.947213]],[[-75.096226,39.947241],[-75.096191,39.947268],[-75.096227,39.947268],[-75.096226,39.947241]],[[-75.093811,39.948433],[-75.093847,39.948461],[-75.093847,39.948433],[-75.093811,39.948433]],[[-75.093988,39.948268],[-75.094059,39.948267],[-75.094166,39.948212],[-75.093988,39.948268]],[[-75.094166,39.948185],[-75.094237,39.948184],[-75.094308,39.948129],[-75.094166,39.948185]],[[-75.094308,39.948129],[-75.09445,39.948073],[-75.094308,39.948101],[-75.094308,39.948129]],[[-75.093668,39.948352],[-75.093703,39.948297],[-75.093667,39.948297],[-75.093668,39.948352]],[[-75.085329,39.924207],[-75.085152,39.924373],[-75.085153,39.924428],[-75.08533,39.92429],[-75.085329,39.924207]],[[-75.085436,39.924179],[-75.0854,39.924152],[-75.0854,39.92418],[-75.085436,39.924179]],[[-75.089849,39.927397],[-75.089885,39.927342],[-75.089849,39.927342],[-75.089849,39.927397]],[[-75.106945,39.937192],[-75.10691,39.937219],[-75.106946,39.937219],[-75.106945,39.937192]],[[-75.110232,39.945822],[-75.11016,39.945795],[-75.11016,39.945823],[-75.110232,39.945822]],[[-75.118882,39.955797],[-75.118952,39.95566],[-75.118881,39.95566],[-75.118882,39.955797]]],[[[-75.098184,39.946736],[-75.097934,39.946738],[-75.098184,39.946709],[-75.098184,39.946736]]],[[[-75.117168,39.94768],[-75.116993,39.948038],[-75.116205,39.947685],[-75.115527,39.947689],[-75.115416,39.94714],[-75.114268,39.94646],[-75.113903,39.945474],[-75.114441,39.945855],[-75.114335,39.94602],[-75.116055,39.946807],[-75.116303,39.946641],[-75.117449,39.947212],[-75.117522,39.947404],[-75.117168,39.94768]],[[-75.116126,39.94678],[-75.116162,39.946807],[-75.116161,39.946779],[-75.116126,39.94678]],[[-75.116304,39.946751],[-75.11627,39.946916],[-75.116628,39.947079],[-75.116626,39.946887],[-75.116304,39.946751]]],[[[-75.117275,39.947652],[-75.11731,39.947624],[-75.117311,39.947652],[-75.117275,39.947652]]],[[[-75.098005,39.946655],[-75.097934,39.946683],[-75.097933,39.946655],[-75.098005,39.946655]]],[[[-75.097898,39.946683],[-75.097863,39.946738],[-75.097862,39.946683],[-75.097898,39.946683]]],[[[-75.097827,39.946711],[-75.097685,39.946766],[-75.097684,39.946739],[-75.097827,39.946711]]],[[[-75.097542,39.946795],[-75.097649,39.946821],[-75.097542,39.946822],[-75.097542,39.946795]]],[[[-75.097792,39.946821],[-75.097864,39.946848],[-75.097792,39.946848],[-75.097792,39.946821]]],[[[-75.097471,39.946822],[-75.097507,39.94685],[-75.097471,39.94685],[-75.097471,39.946822]]],[[[-75.097792,39.946848],[-75.097437,39.947042],[-75.09733,39.947043],[-75.097508,39.946959],[-75.097472,39.946905],[-75.097792,39.946848]]],[[[-75.097401,39.946905],[-75.097437,39.94696],[-75.097401,39.94696],[-75.097401,39.946905]]],[[[-75.097366,39.946988],[-75.09733,39.94696],[-75.097365,39.94696],[-75.097366,39.946988]]],[[[-75.097294,39.947015],[-75.097259,39.946988],[-75.097294,39.946988],[-75.097294,39.947015]]],[[[-75.097045,39.947044],[-75.097009,39.947017],[-75.097045,39.947017],[-75.097045,39.947044]]],[[[-75.097045,39.947044],[-75.097081,39.947071],[-75.097045,39.947072],[-75.097045,39.947044]]],[[[-75.096974,39.947072],[-75.096938,39.947072],[-75.096938,39.947045],[-75.096974,39.947045],[-75.096974,39.947072]]],[[[-75.09701,39.947099],[-75.096974,39.947072],[-75.09701,39.947072],[-75.09701,39.947099]]],[[[-75.09669,39.947183],[-75.096689,39.947156],[-75.096725,39.947156],[-75.096725,39.947183],[-75.09669,39.947183]]],[[[-75.09669,39.947211],[-75.096618,39.947184],[-75.09669,39.947183],[-75.09669,39.947211]]],[[[-75.096761,39.947238],[-75.096725,39.947183],[-75.096761,39.947183],[-75.096761,39.947238]]],[[[-75.096797,39.94721],[-75.096833,39.947237],[-75.096797,39.947238],[-75.096797,39.94721]]],[[[-75.096477,39.947294],[-75.096441,39.947267],[-75.096476,39.947267],[-75.096477,39.947294]]],[[[-75.097476,39.947344],[-75.097511,39.947316],[-75.097511,39.947344],[-75.097476,39.947344]]],[[[-75.09637,39.94735],[-75.096406,39.947377],[-75.09637,39.947377],[-75.09637,39.94735]]],[[[-75.096228,39.947405],[-75.096192,39.947378],[-75.096228,39.947378],[-75.096228,39.947405]]],[[[-75.096157,39.947433],[-75.096121,39.947406],[-75.096156,39.947406],[-75.096157,39.947433]]],[[[-75.09605,39.947489],[-75.096014,39.947461],[-75.09605,39.947461],[-75.09605,39.947489]]],[[[-75.095838,39.947709],[-75.095909,39.947681],[-75.095909,39.947709],[-75.095838,39.947709]]],[[[-75.095803,39.947764],[-75.095839,39.947792],[-75.095803,39.947792],[-75.095803,39.947764]]],[[[-75.095803,39.947819],[-75.095768,39.947847],[-75.095768,39.947819],[-75.095803,39.947819]]],[[[-75.094986,39.912518],[-75.094998,39.91249],[-75.094998,39.912518],[-75.094986,39.912518]]],[[[-75.095034,39.912518],[-75.095034,39.912571],[-75.094998,39.912532],[-75.095034,39.912518]]],[[[-75.09506,39.9126],[-75.09507,39.912572],[-75.09507,39.9126],[-75.09506,39.9126]]],[[[-75.096271,39.923658],[-75.094873,39.922759],[-75.095975,39.922396],[-75.096406,39.922696],[-75.096518,39.923299],[-75.096271,39.923658]]],[[[-75.095695,39.947683],[-75.095731,39.94771],[-75.095695,39.94771],[-75.095695,39.947683]]],[[[-75.095589,39.94782],[-75.095518,39.947821],[-75.095838,39.947709],[-75.095803,39.947764],[-75.095732,39.947765],[-75.095732,39.947792],[-75.09566,39.947793],[-75.095661,39.94782],[-75.095589,39.94782]]],[[[-75.095768,39.947819],[-75.095732,39.947792],[-75.095767,39.947792],[-75.095768,39.947819]]],[[[-75.095697,39.947847],[-75.095661,39.94782],[-75.095696,39.94782],[-75.095697,39.947847]]],[[[-75.095625,39.947848],[-75.095661,39.947875],[-75.095625,39.947875],[-75.095625,39.947848]]],[[[-75.095447,39.947876],[-75.095518,39.947848],[-75.095518,39.947876],[-75.095447,39.947876]]],[[[-75.095626,39.94793],[-75.095554,39.947875],[-75.09559,39.947875],[-75.095626,39.94793]]],[[[-75.095412,39.947931],[-75.095198,39.94796],[-75.095447,39.947876],[-75.095412,39.947931]]],[[[-75.095591,39.947985],[-75.095484,39.947958],[-75.095555,39.94793],[-75.095591,39.947985]]],[[[-75.095056,39.947988],[-75.095091,39.94796],[-75.095091,39.947988],[-75.095056,39.947988]]],[[[-75.095305,39.947987],[-75.095448,39.948013],[-75.095306,39.948041],[-75.095305,39.947987]]],[[[-75.09502,39.948015],[-75.095056,39.947988],[-75.095056,39.948015],[-75.09502,39.948015]]],[[[-75.095092,39.948015],[-75.095199,39.948015],[-75.095092,39.948043],[-75.095092,39.948015]]],[[[-75.095448,39.948013],[-75.095484,39.948041],[-75.095449,39.948041],[-75.095448,39.948013]]],[[[-75.095021,39.94807],[-75.095092,39.948043],[-75.095092,39.94807],[-75.095021,39.94807]]],[[[-75.095199,39.948097],[-75.095235,39.948042],[-75.095306,39.948041],[-75.095306,39.948069],[-75.09527,39.948069],[-75.095271,39.948097],[-75.095199,39.948097]]],[[[-75.095342,39.948096],[-75.095306,39.948069],[-75.095342,39.948069],[-75.095342,39.948096]]],[[[-75.095128,39.948097],[-75.0952,39.948124],[-75.095128,39.948125],[-75.095128,39.948097]]],[[[-75.0952,39.948124],[-75.095236,39.948152],[-75.0952,39.948152],[-75.0952,39.948124]]],[[[-75.095093,39.948152],[-75.095128,39.948125],[-75.095129,39.948152],[-75.095093,39.948152]]],[[[-75.095164,39.948179],[-75.095129,39.948152],[-75.095164,39.948152],[-75.095164,39.948179]]],[[[-75.095021,39.948153],[-75.095057,39.94818],[-75.095022,39.94818],[-75.095021,39.948153]]],[[[-75.095022,39.948235],[-75.094951,39.948208],[-75.095022,39.948208],[-75.095022,39.948235]]],[[[-75.093926,39.909174],[-75.093935,39.909171],[-75.093935,39.909174],[-75.093926,39.909174]]],[[[-75.094306,39.910819],[-75.093983,39.910601],[-75.093844,39.910986],[-75.09327,39.91055],[-75.093935,39.909174],[-75.094185,39.909173],[-75.094544,39.909445],[-75.094046,39.90964],[-75.093908,39.910107],[-75.094515,39.910269],[-75.094306,39.910819]],[[-75.094114,39.9092],[-75.09415,39.909228],[-75.09415,39.9092],[-75.094114,39.9092]]],[[[-75.094635,39.911778],[-75.094309,39.911121],[-75.094555,39.910681],[-75.09506,39.911419],[-75.095062,39.911666],[-75.094635,39.911778]]],[[[-75.091912,39.922554],[-75.091554,39.922419],[-75.091662,39.922501],[-75.091591,39.922556],[-75.089944,39.92179],[-75.091422,39.921065],[-75.093556,39.920459],[-75.094817,39.920371],[-75.095355,39.920752],[-75.095424,39.920532],[-75.095852,39.920585],[-75.095851,39.920393],[-75.096245,39.920583],[-75.09639,39.920939],[-75.096143,39.92116],[-75.095469,39.921575],[-75.095041,39.921522],[-75.09519,39.922345],[-75.09487,39.922457],[-75.095047,39.922236],[-75.094903,39.9221],[-75.094549,39.922458],[-75.094697,39.922979],[-75.09527,39.923278],[-75.094773,39.92361],[-75.094954,39.923939],[-75.094742,39.924132],[-75.094457,39.924188],[-75.091985,39.922774],[-75.091912,39.922554]],[[-75.091483,39.922419],[-75.091518,39.922392],[-75.091446,39.922337],[-75.091483,39.922419]],[[-75.092091,39.922691],[-75.092092,39.922773],[-75.092163,39.922773],[-75.092091,39.922691]]],[[[-75.091949,39.922691],[-75.091841,39.922637],[-75.091948,39.922664],[-75.091949,39.922691]]],[[[-75.09285,39.923812],[-75.092565,39.923924],[-75.091101,39.923602],[-75.090989,39.923081],[-75.090345,39.922754],[-75.08863,39.922444],[-75.089838,39.921844],[-75.090124,39.921959],[-75.093851,39.924164],[-75.093537,39.924934],[-75.092822,39.924746],[-75.093136,39.923948],[-75.09267,39.923676],[-75.09285,39.923812]],[[-75.09267,39.923676],[-75.092598,39.923621],[-75.092599,39.923676],[-75.09267,39.923676]]],[[[-75.09495,39.948098],[-75.095021,39.94807],[-75.095021,39.948098],[-75.09495,39.948098]]],[[[-75.094914,39.948126],[-75.09495,39.948098],[-75.09495,39.948126],[-75.094914,39.948126]]],[[[-75.094879,39.948153],[-75.094914,39.948126],[-75.094914,39.948153],[-75.094879,39.948153]]],[[[-75.094772,39.948181],[-75.094808,39.948209],[-75.094772,39.948209],[-75.094772,39.948181]]],[[[-75.094773,39.948291],[-75.094809,39.948346],[-75.094773,39.948346],[-75.094773,39.948291]]],[[[-75.094667,39.948429],[-75.094595,39.948375],[-75.094702,39.948374],[-75.094667,39.948429]]],[[[-75.094739,39.948456],[-75.094703,39.948429],[-75.094739,39.948429],[-75.094739,39.948456]]],[[[-75.094025,39.94846],[-75.094061,39.948432],[-75.094061,39.94846],[-75.094025,39.94846]]],[[[-75.093954,39.94846],[-75.09399,39.948487],[-75.093954,39.948488],[-75.093954,39.94846]]],[[[-75.094632,39.948457],[-75.094668,39.948511],[-75.094597,39.948512],[-75.094632,39.948457]]],[[[-75.094561,39.948539],[-75.094597,39.948512],[-75.094597,39.948539],[-75.094561,39.948539]]],[[[-75.094525,39.94854],[-75.094561,39.948567],[-75.094526,39.948567],[-75.094525,39.94854]]],[[[-75.09449,39.948595],[-75.094526,39.948567],[-75.094526,39.948595],[-75.09449,39.948595]]],[[[-75.094455,39.948622],[-75.09449,39.948595],[-75.094491,39.948622],[-75.094455,39.948622]]],[[[-75.094419,39.94865],[-75.094455,39.948622],[-75.094455,39.94865],[-75.094419,39.94865]]],[[[-75.091834,39.950832],[-75.09187,39.950804],[-75.09187,39.950832],[-75.091834,39.950832]]],[[[-75.091834,39.950832],[-75.091799,39.95086],[-75.091799,39.950832],[-75.091834,39.950832]]],[[[-75.091589,39.951382],[-75.091553,39.951355],[-75.091589,39.951355],[-75.091589,39.951382]]],[[[-75.091482,39.951355],[-75.091554,39.95141],[-75.091483,39.95141],[-75.091482,39.951355]]],[[[-75.084277,39.955592],[-75.084631,39.955316],[-75.084521,39.954932],[-75.084057,39.954907],[-75.083946,39.954496],[-75.084942,39.954052],[-75.085082,39.953749],[-75.086044,39.953689],[-75.08626,39.953853],[-75.086365,39.953605],[-75.086621,39.954345],[-75.086374,39.954703],[-75.084707,39.955837],[-75.084277,39.955592]]]]}}]}