{"type":"FeatureCollection","features":[{"type":"Feature","properties":{"level_ft":13},"geometry":{"type":"MultiPolygon","coordinates":[[[[-75.099696,39.899343],[-75.099732,39.899398],[-75.099697,39.899398],[-75.099696,39.899343]]],[[[-75.110854,39.89945],[-75.110818,39.899422],[-75.110854,39.899422],[-75.110854,39.89945]]],[[[-75.099697,39.899426],[-75.099662,39.899481],[-75.099661,39.899426],[-75.099697,39.899426]]],[[[-75.10923,39.901188],[-75.109265,39.90116],[-75.109265,39.901188],[-75.10923,39.901188]]],[[[-75.115267,39.902666],[-75.113945,39.902344],[-75.113621,39.901933],[-75.113694,39.902208],[-75.112764,39.901801],[-75.111076,39.900327],[-75.112899,39.900894],[-75.115267,39.902666]],[[-75.113585,39.901934],[-75.113549,39.901906],[-75.113549,39.901934],[-75.113585,39.901934]]],[[[-75.113733,39.902537],[-75.113804,39.902509],[-75.113804,39.902536],[-75.113733,39.902537]]],[[[-75.113521,39.90273],[-75.112662,39.902405],[-75.113806,39.902701],[-75.113521,39.90273]]],[[[-75.115338,39.902666],[-75.115267,39.902693],[-75.115267,39.902666],[-75.115338,39.902666]]],[[[-75.114671,39.911811],[-75.114636,39.911839],[-75.114636,39.911811],[-75.114671,39.911811]]],[[[-75.104198,39.916781],[-75.104234,39.916808],[-75.104198,39.916808],[-75.104198,39.916781]]],[[[-75.11461,39.916945],[-75.114718,39.916972],[-75.114611,39.916973],[-75.11461,39.916945]]],[[[-75.114539,39.916973],[-75.114611,39.917],[-75.11454,39.917001],[-75.114539,39.916973]]],[[[-75.114397,39.916974],[-75.114468,39.917001],[-75.114397,39.917001],[-75.114397,39.916974]]],[[[-75.11429,39.916975],[-75.114219,39.917002],[-75.114218,39.916975],[-75.11429,39.916975]]],[[[-75.116202,39.911556],[-75.11548,39.910489],[-75.11506,39.91137],[-75.114846,39.911453],[-75.114809,39.911207],[-75.114527,39.91162],[-75.114601,39.911867],[-75.115385,39.911862],[-75.11564,39.912465],[-75.115508,39.913619],[-75.115878,39.915209],[-75.11571,39.916336],[-75.116218,39.917349],[-75.116192,39.918365],[-75.115979,39.918448],[-75.116075,39.921248],[-75.115679,39.924792],[-75.115734,39.926988],[-75.114602,39.927927],[-75.11506,39.927403],[-75.115024,39.927321],[-75.114953,39.927349],[-75.111276,39.930855],[-75.110614,39.932643],[-75.110808,39.934399],[-75.110416,39.934428],[-75.109011,39.932816],[-75.105821,39.931048],[-75.106745,39.930686],[-75.107922,39.930735],[-75.107918,39.930268],[-75.108523,39.930073],[-75.109018,39.929576],[-75.108909,39.929357],[-75.109229,39.929328],[-75.109258,39.928504],[-75.108791,39.928095],[-75.109248,39.927379],[-75.109642,39.927541],[-75.109391,39.927405],[-75.109675,39.927239],[-75.109387,39.926994],[-75.109451,39.926197],[-75.109805,39.925866],[-75.109589,39.925675],[-75.110577,39.924434],[-75.110216,39.923997],[-75.110391,39.923557],[-75.110033,39.923476],[-75.110351,39.923063],[-75.110065,39.923037],[-75.110205,39.922761],[-75.109708,39.923011],[-75.109561,39.922463],[-75.109135,39.92274],[-75.10917,39.922575],[-75.107313,39.92231],[-75.107273,39.921789],[-75.106882,39.921928],[-75.106483,39.921134],[-75.106234,39.92119],[-75.106155,39.920339],[-75.106546,39.9202],[-75.106791,39.919705],[-75.107219,39.919757],[-75.10725,39.919208],[-75.108961,39.919144],[-75.109919,39.918672],[-75.111419,39.918884],[-75.111492,39.919048],[-75.112131,39.918798],[-75.112454,39.919016],[-75.112702,39.918822],[-75.112811,39.919069],[-75.113199,39.918655],[-75.11324,39.919231],[-75.113812,39.919338],[-75.113951,39.919008],[-75.114061,39.919254],[-75.11431,39.919198],[-75.114795,39.917631],[-75.115084,39.918069],[-75.115543,39.917544],[-75.115042,39.91741],[-75.11536,39.916996],[-75.114753,39.917],[-75.115679,39.916885],[-75.115493,39.915952],[-75.115243,39.915954],[-75.115384,39.915706],[-75.113569,39.916127],[-75.113532,39.915963],[-75.11289,39.915939],[-75.112852,39.915637],[-75.112568,39.915858],[-75.112531,39.915611],[-75.111176,39.915591],[-75.110924,39.915373],[-75.109247,39.915189],[-75.109284,39.915354],[-75.109926,39.91535],[-75.109891,39.915515],[-75.109,39.915547],[-75.108292,39.916045],[-75.107471,39.915912],[-75.106866,39.91608],[-75.10665,39.915834],[-75.105368,39.916006],[-75.105081,39.915788],[-75.104625,39.916723],[-75.104519,39.916779],[-75.103984,39.916727],[-75.104199,39.916835],[-75.104484,39.916806],[-75.104484,39.916889],[-75.103878,39.916837],[-75.103239,39.91717],[-75.10295,39.916732],[-75.101912,39.916271],[-75.101447,39.916136],[-75.101179,39.916439],[-75.099865,39.913659],[-75.099497,39.913857],[-75.098545,39.91379],[-75.098005,39.914078],[-75.097647,39.913585],[-75.097222,39.913508],[-75.096244,39.913898],[-75.095286,39.912848],[-75.095321,39.912736],[-75.094781,39.91219],[-75.095239,39.911556],[-75.094731,39.910433],[-75.095048,39.910047],[-75.096256,39.909574],[-75.095969,39.909356],[-75.096751,39.909077],[-75.096497,39.908612],[-75.095998,39.908589],[-75.097411,39.907987],[-75.097091,39.907236],[-75.09752,39.907371],[-75.097558,39.907645],[-75.098843,39.907749],[-75.099233,39.907582],[-75.098483,39.907366],[-75.098695,39.907173],[-75.098156,39.906709],[-75.097945,39.906984],[-75.097585,39.906629],[-75.097436,39.905861],[-75.097758,39.905942],[-75.097683,39.905586],[-75.097502,39.905285],[-75.097253,39.905341],[-75.097215,39.905039],[-75.096787,39.905014],[-75.097034,39.904738],[-75.09657,39.904713],[-75.09646,39.904329],[-75.096146,39.905045],[-75.094606,39.901418],[-75.096255,39.9012],[-75.09868,39.901353],[-75.099039,39.901625],[-75.100784,39.901479],[-75.100604,39.901205],[-75.098393,39.901107],[-75.097999,39.900917],[-75.097889,39.900561],[-75.098314,39.900284],[-75.097639,39.900507],[-75.097536,39.900974],[-75.096241,39.900898],[-75.099624,39.899248],[-75.099274,39.899949],[-75.099454,39.900141],[-75.099909,39.899232],[-75.101146,39.898882],[-75.102259,39.899174],[-75.10281,39.899818],[-75.103477,39.90014],[-75.104877,39.900527],[-75.107941,39.900238],[-75.110063,39.89908],[-75.111838,39.898569],[-75.113326,39.899455],[-75.113874,39.901102],[-75.116358,39.902119],[-75.11655,39.902879],[-75.115194,39.902502],[-75.113112,39.900893],[-75.112397,39.900567],[-75.112822,39.90029],[-75.112781,39.899714],[-75.111706,39.899061],[-75.111243,39.899118],[-75.111031,39.899339],[-75.11078,39.899203],[-75.110747,39.89945],[-75.111573,39.900105],[-75.111174,39.899366],[-75.111386,39.899172],[-75.111779,39.899225],[-75.11264,39.899934],[-75.112574,39.900429],[-75.110574,39.900028],[-75.110504,39.900193],[-75.109719,39.900115],[-75.108795,39.900367],[-75.108085,39.900755],[-75.108975,39.90064],[-75.109123,39.901161],[-75.108552,39.901191],[-75.109337,39.90127],[-75.109544,39.9005],[-75.110612,39.900302],[-75.111478,39.901451],[-75.113697,39.902455],[-75.110551,39.901455],[-75.109302,39.901325],[-75.109375,39.901489],[-75.110802,39.901674],[-75.112768,39.902295],[-75.110877,39.90203],[-75.110023,39.902227],[-75.110593,39.902224],[-75.111241,39.902934],[-75.11095,39.902222],[-75.111949,39.902382],[-75.11192,39.903123],[-75.112893,39.904326],[-75.112277,39.903121],[-75.112379,39.902599],[-75.113594,39.902949],[-75.113674,39.903882],[-75.113809,39.903085],[-75.114774,39.9033],[-75.114058,39.902947],[-75.11402,39.9027],[-75.116513,39.903126],[-75.116286,39.90374],[-75.11488,39.9054],[-75.114715,39.906125],[-75.117336,39.908422],[-75.120177,39.908514],[-75.121403,39.907762],[-75.122836,39.907428],[-75.129344,39.907381],[-75.129091,39.911608],[-75.12984,39.915359],[-75.135874,39.927639],[-75.136621,39.93037],[-75.136805,39.937021],[-75.136556,39.941533],[-75.135631,39.947459],[-75.134194,39.952774],[-75.123583,39.950968],[-75.120826,39.949857],[-75.121002,39.949581],[-75.12064,39.949034],[-75.122567,39.949079],[-75.121995,39.948917],[-75.121669,39.94837],[-75.121097,39.948236],[-75.12138,39.948042],[-75.122523,39.9482],[-75.122485,39.947954],[-75.122094,39.948011],[-75.122128,39.947846],[-75.121233,39.947549],[-75.12284,39.947732],[-75.123053,39.947566],[-75.120908,39.947056],[-75.1213,39.946999],[-75.120906,39.946809],[-75.121977,39.946913],[-75.121723,39.94653],[-75.122043,39.946391],[-75.121823,39.945733],[-75.122073,39.94576],[-75.122533,39.94529],[-75.122491,39.944604],[-75.12313,39.944299],[-75.122845,39.9443],[-75.123092,39.944079],[-75.122771,39.944054],[-75.122661,39.943752],[-75.121554,39.943566],[-75.120728,39.942966],[-75.120301,39.943079],[-75.119798,39.942697],[-75.119049,39.942646],[-75.119042,39.941822],[-75.118646,39.941495],[-75.119107,39.941218],[-75.118569,39.940892],[-75.11903,39.94056],[-75.118351,39.940399],[-75.119063,39.940285],[-75.118205,39.939987],[-75.119164,39.939598],[-75.120771,39.939836],[-75.120839,39.939479],[-75.121339,39.939504],[-75.121512,39.938954],[-75.121906,39.939117],[-75.121294,39.938488],[-75.121541,39.93824],[-75.121935,39.938403],[-75.121787,39.937827],[-75.122036,39.937771],[-75.121922,39.936975],[-75.122205,39.936644],[-75.121596,39.9364],[-75.12159,39.935769],[-75.121269,39.935716],[-75.121479,39.935248],[-75.121155,39.934893],[-75.121436,39.934452],[-75.121077,39.934234],[-75.121397,39.934123],[-75.121323,39.933794],[-75.121002,39.933768],[-75.120999,39.933521],[-75.121745,39.93316],[-75.12071,39.933028],[-75.120885,39.932643],[-75.120494,39.93281],[-75.120135,39.93262],[-75.119952,39.932017],[-75.120235,39.931795],[-75.119662,39.931497],[-75.119908,39.931138],[-75.11934,39.931388],[-75.119265,39.931004],[-75.118589,39.931228],[-75.118481,39.931036],[-75.118232,39.93112],[-75.118479,39.930789],[-75.11912,39.930786],[-75.119262,39.930702],[-75.118906,39.930732],[-75.118654,39.930431],[-75.118226,39.930461],[-75.118264,39.93068],[-75.117835,39.930655],[-75.117659,39.930903],[-75.117513,39.93052],[-75.116728,39.930441],[-75.116732,39.930908],[-75.117374,39.930932],[-75.117269,39.931152],[-75.116593,39.931238],[-75.116171,39.931927],[-75.11457,39.93232],[-75.114469,39.933007],[-75.114289,39.932815],[-75.114006,39.933091],[-75.113826,39.932955],[-75.113364,39.933122],[-75.113259,39.93337],[-75.113617,39.933505],[-75.113156,39.933755],[-75.112762,39.93362],[-75.112302,39.934006],[-75.112802,39.934114],[-75.112201,39.934666],[-75.112524,39.934911],[-75.111704,39.934943],[-75.111728,39.933543],[-75.112358,39.932249],[-75.113488,39.931008],[-75.115472,39.929597],[-75.115045,39.929709],[-75.115501,39.928828],[-75.116209,39.92822],[-75.116697,39.918993],[-75.116553,39.914904],[-75.117114,39.913857],[-75.116142,39.912847],[-75.116202,39.911556]],[[-75.115622,39.910516],[-75.115658,39.910461],[-75.115622,39.910461],[-75.115622,39.910516]],[[-75.115024,39.927266],[-75.115202,39.927237],[-75.115165,39.927183],[-75.115024,39.927266]],[[-75.115201,39.92721],[-75.115237,39.927182],[-75.115201,39.927183],[-75.115201,39.92721]],[[-75.115237,39.927182],[-75.115272,39.927155],[-75.115237,39.927155],[-75.115237,39.927182]],[[-75.115308,39.927155],[-75.115343,39.927045],[-75.115271,39.927045],[-75.115201,39.927128],[-75.115308,39.927155]],[[-75.115201,39.927128],[-75.115165,39.927155],[-75.115201,39.927155],[-75.115201,39.927128]],[[-75.104412,39.916725],[-75.104304,39.916698],[-75.104305,39.916725],[-75.104412,39.916725]],[[-75.095358,39.912845],[-75.095393,39.912873],[-75.095393,39.912845],[-75.095358,39.912845]],[[-75.095393,39.912873],[-75.095429,39.9129],[-75.095429,39.912873],[-75.095393,39.912873]],[[-75.095429,39.9129],[-75.095465,39.912927],[-75.095465,39.9129],[-75.095429,39.9129]],[[-75.100783,39.901287],[-75.100818,39.901259],[-75.100782,39.901259],[-75.100783,39.901287]],[[-75.111608,39.900077],[-75.111644,39.900159],[-75.111644,39.900077],[-75.111608,39.900077]],[[-75.110574,39.900028],[-75.110502,39.899946],[-75.110503,39.900028],[-75.110574,39.900028]],[[-75.108121,39.900782],[-75.108086,39.90081],[-75.108121,39.900809],[-75.108121,39.900782]],[[-75.111277,39.902934],[-75.111313,39.903016],[-75.111313,39.902934],[-75.111277,39.902934]],[[-75.114774,39.9033],[-75.114809,39.903327],[-75.114809,39.9033],[-75.114774,39.9033]],[[-75.116241,39.911968],[-75.116206,39.912023],[-75.116242,39.912023],[-75.116241,39.911968]]],[[[-75.116126,39.926903],[-75.116163,39.927095],[-75.116127,39.927095],[-75.116126,39.926903]]],[[[-75.115308,39.927127],[-75.115272,39.9271],[-75.115307,39.9271],[-75.115308,39.927127]]],[[[-75.11513,39.927238],[-75.115166,39.92721],[-75.115166,39.927238],[-75.11513,39.927238]]],[[[-75.115024,39.927348],[-75.114989,39.927376],[-75.114989,39.927348],[-75.115024,39.927348]]],[[[-75.114777,39.927569],[-75.114812,39.927542],[-75.114812,39.927569],[-75.114777,39.927569]]],[[[-75.114354,39.92812],[-75.11439,39.928148],[-75.114354,39.928148],[-75.114354,39.92812]]],[[[-75.114319,39.928176],[-75.114354,39.928148],[-75.114354,39.928175],[-75.114319,39.928176]]],[[[-75.114319,39.928203],[-75.114283,39.928176],[-75.114319,39.928176],[-75.114319,39.928203]]],[[[-75.114283,39.928231],[-75.114247,39.928203],[-75.114283,39.928203],[-75.114283,39.928231]]],[[[-75.112726,39.929584],[-75.112762,39.929611],[-75.112727,39.929612],[-75.112726,39.929584]]],[[[-75.114497,39.928147],[-75.115033,39.928364],[-75.114862,39.929134],[-75.112458,39.931507],[-75.111087,39.933683],[-75.110824,39.93223],[-75.111454,39.930854],[-75.112585,39.929722],[-75.112763,39.929639],[-75.11301,39.929418],[-75.114212,39.928231],[-75.114284,39.928258],[-75.114497,39.928147]],[[-75.110861,39.932312],[-75.110896,39.932257],[-75.11086,39.932257],[-75.110861,39.932312]]],[[[-75.115127,39.942777],[-75.115091,39.942749],[-75.115127,39.942749],[-75.115127,39.942777]]],[[[-75.11634,39.942798],[-75.116449,39.943017],[-75.115807,39.94302],[-75.115844,39.943185],[-75.114416,39.94311],[-75.114592,39.942807],[-75.114734,39.942779],[-75.11634,39.942798]],[[-75.114593,39.942862],[-75.114628,39.942889],[-75.114628,39.942862],[-75.114593,39.942862]]],[[[-75.111532,39.943592],[-75.111246,39.943511],[-75.11153,39.943427],[-75.111532,39.943592]]],[[[-75.111603,39.943646],[-75.111639,39.943674],[-75.111604,39.943674],[-75.111603,39.943646]]],[[[-75.111568,39.943701],[-75.111604,39.943674],[-75.111604,39.943701],[-75.111568,39.943701]]],[[[-75.111461,39.943675],[-75.111248,39.943758],[-75.111247,39.943703],[-75.111461,39.943675]]],[[[-75.115085,39.946071],[-75.11451,39.945608],[-75.115511,39.945822],[-75.115943,39.946314],[-75.115085,39.946071]]],[[[-75.098823,39.946404],[-75.09893,39.946458],[-75.098823,39.946431],[-75.098823,39.946404]]],[[[-75.09886,39.946623],[-75.098896,39.946595],[-75.098896,39.946623],[-75.09886,39.946623]]],[[[-75.116989,39.947571],[-75.116886,39.947984],[-75.116241,39.947685],[-75.115635,39.947716],[-75.115558,39.947167],[-75.114268,39.94646],[-75.113903,39.945474],[-75.114441,39.945855],[-75.114264,39.945993],[-75.116162,39.946862],[-75.116339,39.946669],[-75.11627,39.946916],[-75.116556,39.947079],[-75.116411,39.946778],[-75.117342,39.947157],[-75.11745,39.947294],[-75.117202,39.947488],[-75.116989,39.947571]],[[-75.117024,39.947544],[-75.117271,39.947268],[-75.117235,39.947186],[-75.116953,39.947516],[-75.117024,39.947544]]],[[[-75.108078,39.936252],[-75.108224,39.936609],[-75.107691,39.936804],[-75.107616,39.936447],[-75.10715,39.936147],[-75.106687,39.93626],[-75.106478,39.936728],[-75.106192,39.936702],[-75.105769,39.937225],[-75.10602,39.937389],[-75.106518,39.937221],[-75.107091,39.93752],[-75.1071,39.938536],[-75.107671,39.938643],[-75.107961,39.939163],[-75.107965,39.939547],[-75.107465,39.939523],[-75.107431,39.939688],[-75.107895,39.939713],[-75.1089,39.940394],[-75.109293,39.940529],[-75.109256,39.940364],[-75.109754,39.940197],[-75.109935,39.940525],[-75.110396,39.940221],[-75.110365,39.94077],[-75.111188,39.94104],[-75.112322,39.940238],[-75.111655,39.941395],[-75.112017,39.942052],[-75.111087,39.9417],[-75.110698,39.942086],[-75.111309,39.942577],[-75.111986,39.942519],[-75.112131,39.942793],[-75.110854,39.943623],[-75.10587,39.944692],[-75.10897,39.944319],[-75.110678,39.943843],[-75.110859,39.944172],[-75.110432,39.944257],[-75.110722,39.944749],[-75.110401,39.944833],[-75.109934,39.944369],[-75.109577,39.944426],[-75.110152,39.944917],[-75.109868,39.945001],[-75.109437,39.944674],[-75.109261,39.944922],[-75.109656,39.945222],[-75.112654,39.945453],[-75.112327,39.944741],[-75.112789,39.944546],[-75.112972,39.945149],[-75.113688,39.94542],[-75.114054,39.946461],[-75.10991,39.945742],[-75.110091,39.946043],[-75.109163,39.94591],[-75.108737,39.946242],[-75.10932,39.947584],[-75.110257,39.948677],[-75.110633,39.950817],[-75.111136,39.951254],[-75.110997,39.951666],[-75.111796,39.953282],[-75.111693,39.953666],[-75.112372,39.953855],[-75.112557,39.954568],[-75.115416,39.955184],[-75.115921,39.955731],[-75.116205,39.955674],[-75.116103,39.956141],[-75.117455,39.955722],[-75.117351,39.95608],[-75.117858,39.956956],[-75.118393,39.95698],[-75.118993,39.956181],[-75.119233,39.955191],[-75.11809,39.95495],[-75.118124,39.954758],[-75.118624,39.95481],[-75.118584,39.954399],[-75.118905,39.954397],[-75.119222,39.953929],[-75.119651,39.953981],[-75.119934,39.95376],[-75.119936,39.954007],[-75.12015,39.953951],[-75.120326,39.953758],[-75.120075,39.953595],[-75.120465,39.95329],[-75.120106,39.953018],[-75.121033,39.95304],[-75.120459,39.952632],[-75.121137,39.952683],[-75.120741,39.952328],[-75.121523,39.952022],[-75.12113,39.951914],[-75.121377,39.951611],[-75.12116,39.951283],[-75.121761,39.950648],[-75.123514,39.951188],[-75.134089,39.953025],[-75.132573,39.956557],[-75.131076,39.958545],[-75.129626,39.95992],[-75.125749,39.962444],[-75.122172,39.964298],[-75.119748,39.96171],[-75.118447,39.960723],[-75.115839,39.959328],[-75.110143,39.958016],[-75.108033,39.958011],[-75.106227,39.958401],[-75.104126,39.95944],[-75.099304,39.963276],[-75.096051,39.965546],[-75.088069,39.969382],[-75.083605,39.96331],[-75.084737,39.963497],[-75.085133,39.963989],[-75.085667,39.963821],[-75.086206,39.964285],[-75.086669,39.964146],[-75.086706,39.964365],[-75.087206,39.964418],[-75.08771,39.964882],[-75.088493,39.964658],[-75.088845,39.964162],[-75.0887,39.963888],[-75.089022,39.963969],[-75.088403,39.962462],[-75.088794,39.962296],[-75.088503,39.961748],[-75.088643,39.961418],[-75.088929,39.961416],[-75.088495,39.96076],[-75.088672,39.960622],[-75.08842,39.960376],[-75.088029,39.960488],[-75.087525,39.959996],[-75.087806,39.959418],[-75.087301,39.958872],[-75.087585,39.95865],[-75.087335,39.958597],[-75.087294,39.957966],[-75.086792,39.957694],[-75.086968,39.957391],[-75.086751,39.95709],[-75.085671,39.955915],[-75.085387,39.956108],[-75.085244,39.956082],[-75.087263,39.954397],[-75.087727,39.954422],[-75.088052,39.954914],[-75.088445,39.954885],[-75.088699,39.955405],[-75.089768,39.955345],[-75.08988,39.955866],[-75.090525,39.956165],[-75.091066,39.956848],[-75.092349,39.956732],[-75.092178,39.957639],[-75.092538,39.957939],[-75.092472,39.958571],[-75.092864,39.958596],[-75.092622,39.959394],[-75.093017,39.959694],[-75.092916,39.960463],[-75.09339,39.961586],[-75.094,39.961967],[-75.094535,39.961992],[-75.095922,39.961436],[-75.095919,39.961161],[-75.096488,39.960939],[-75.096696,39.960279],[-75.096475,39.959401],[-75.095824,39.958444],[-75.096035,39.958086],[-75.095605,39.957896],[-75.095705,39.957072],[-75.096234,39.956355],[-75.09616,39.956054],[-75.096552,39.955997],[-75.09637,39.955558],[-75.097611,39.954673],[-75.097607,39.954234],[-75.098604,39.954037],[-75.098172,39.953545],[-75.098382,39.953105],[-75.09806,39.953024],[-75.097841,39.952476],[-75.098232,39.952254],[-75.098085,39.951733],[-75.098295,39.951266],[-75.098082,39.951431],[-75.097974,39.95135],[-75.098256,39.950936],[-75.097503,39.950528],[-75.097608,39.950253],[-75.097211,39.949679],[-75.096782,39.949654],[-75.096994,39.949351],[-75.0966,39.949215],[-75.096,39.949877],[-75.096104,39.949602],[-75.095712,39.949632],[-75.093621,39.951235],[-75.09305,39.951155],[-75.093122,39.951292],[-75.091981,39.951271],[-75.091732,39.951354],[-75.091625,39.951327],[-75.092904,39.950744],[-75.092938,39.950634],[-75.092653,39.950663],[-75.092227,39.950912],[-75.09244,39.950719],[-75.09276,39.950608],[-75.092759,39.950553],[-75.092616,39.950444],[-75.092758,39.950388],[-75.092757,39.950278],[-75.092225,39.950638],[-75.092118,39.950611],[-75.094491,39.948622],[-75.094988,39.948373],[-75.094987,39.948263],[-75.09584,39.947901],[-75.095874,39.947737],[-75.096158,39.947625],[-75.096122,39.947543],[-75.096904,39.947237],[-75.097944,39.947891],[-75.098659,39.948024],[-75.097942,39.947671],[-75.097546,39.947261],[-75.097046,39.947099],[-75.097152,39.947044],[-75.097367,39.947097],[-75.098184,39.946764],[-75.098183,39.946654],[-75.098576,39.946734],[-75.098647,39.946652],[-75.098896,39.94665],[-75.099074,39.94654],[-75.098325,39.946516],[-75.098361,39.946598],[-75.098076,39.946682],[-75.098004,39.946627],[-75.097897,39.946628],[-75.097435,39.946795],[-75.097472,39.946877],[-75.097329,39.946851],[-75.097222,39.946906],[-75.097223,39.946961],[-75.097187,39.946961],[-75.097187,39.946934],[-75.097115,39.946934],[-75.09708,39.946989],[-75.097009,39.946989],[-75.097009,39.947017],[-75.096938,39.947017],[-75.096938,39.947045],[-75.096724,39.946991],[-75.096544,39.946855],[-75.096331,39.946965],[-75.096689,39.947156],[-75.096476,39.947212],[-75.095517,39.947683],[-75.095232,39.947767],[-75.094558,39.948155],[-75.093701,39.948077],[-75.093347,39.948326],[-75.092847,39.948274],[-75.092626,39.947506],[-75.091982,39.947317],[-75.091841,39.94751],[-75.091625,39.947292],[-75.091658,39.946935],[-75.092123,39.947097],[-75.09212,39.946685],[-75.092404,39.946519],[-75.092291,39.945861],[-75.092004,39.945642],[-75.092678,39.94531],[-75.091678,39.94515],[-75.090218,39.94535],[-75.090036,39.945021],[-75.088929,39.944834],[-75.088462,39.94448],[-75.088532,39.944287],[-75.088104,39.944235],[-75.088132,39.943356],[-75.087811,39.943413],[-75.087774,39.943166],[-75.08756,39.943277],[-75.087268,39.942482],[-75.087624,39.942343],[-75.087052,39.942154],[-75.086728,39.941826],[-75.085871,39.94172],[-75.08544,39.941366],[-75.085545,39.941145],[-75.08526,39.941174],[-75.085186,39.940928],[-75.084363,39.940547],[-75.084646,39.940271],[-75.084518,39.93986],[-75.089268,39.935738],[-75.089851,39.936182],[-75.090135,39.936064],[-75.090084,39.935271],[-75.089724,39.934693],[-75.088931,39.934367],[-75.087064,39.93482],[-75.08639,39.934661],[-75.086313,39.932656],[-75.085922,39.931765],[-75.087362,39.929346],[-75.087435,39.927986],[-75.087105,39.927059],[-75.086365,39.926725],[-75.083626,39.926701],[-75.08138,39.925993],[-75.085044,39.924215],[-75.085189,39.924428],[-75.0854,39.924152],[-75.085368,39.924564],[-75.086651,39.924475],[-75.086653,39.92475],[-75.088761,39.925233],[-75.089866,39.925173],[-75.090511,39.925554],[-75.091081,39.925469],[-75.091433,39.924945],[-75.091756,39.925136],[-75.091796,39.92563],[-75.092655,39.926065],[-75.092658,39.926367],[-75.094551,39.926796],[-75.094376,39.927154],[-75.093557,39.927295],[-75.093773,39.927569],[-75.093598,39.927927],[-75.092636,39.927959],[-75.092486,39.927164],[-75.092026,39.927495],[-75.091202,39.927143],[-75.090955,39.927364],[-75.091065,39.927802],[-75.090066,39.927725],[-75.089848,39.927232],[-75.089108,39.928252],[-75.0899,39.929181],[-75.089943,39.930032],[-75.08906,39.93097],[-75.090888,39.932004],[-75.091284,39.932496],[-75.092501,39.933039],[-75.092756,39.933669],[-75.093583,39.934433],[-75.094618,39.934538],[-75.094586,39.934977],[-75.094982,39.935359],[-75.095027,39.936485],[-75.095739,39.936289],[-75.095034,39.937254],[-75.095462,39.937279],[-75.095751,39.937717],[-75.096783,39.937382],[-75.098282,39.937511],[-75.099314,39.937259],[-75.099845,39.936872],[-75.101417,39.937193],[-75.102307,39.936914],[-75.101558,39.936918],[-75.101806,39.936807],[-75.10152,39.936726],[-75.101804,39.936587],[-75.101553,39.936396],[-75.101765,39.936148],[-75.101154,39.935657],[-75.102083,39.935872],[-75.102049,39.936064],[-75.102191,39.935926],[-75.101294,39.935354],[-75.101398,39.935024],[-75.101113,39.934998],[-75.10111,39.934642],[-75.101642,39.934309],[-75.101461,39.933981],[-75.101818,39.934116],[-75.102031,39.93395],[-75.102026,39.933429],[-75.102667,39.933261],[-75.102024,39.933099],[-75.102234,39.932686],[-75.102733,39.932656],[-75.102406,39.931999],[-75.10454,39.931384],[-75.10404,39.931222],[-75.104642,39.930807],[-75.105715,39.931103],[-75.108116,39.932409],[-75.110309,39.934429],[-75.110241,39.934868],[-75.109992,39.93487],[-75.109781,39.935255],[-75.107894,39.935567],[-75.10779,39.935924],[-75.108078,39.936252]],[[-75.098295,39.951266],[-75.09833,39.951238],[-75.098294,39.951238],[-75.098295,39.951266]],[[-75.091838,39.951244],[-75.091874,39.951271],[-75.091874,39.951244],[-75.091838,39.951244]],[[-75.092938,39.950634],[-75.09301,39.950606],[-75.092938,39.950607],[-75.092938,39.950634]],[[-75.092759,39.950553],[-75.09283,39.950525],[-75.092759,39.950525],[-75.092759,39.950553]],[[-75.092721,39.950278],[-75.092685,39.950251],[-75.092686,39.950279],[-75.092721,39.950278]],[[-75.092721,39.950251],[-75.092792,39.950196],[-75.092721,39.950224],[-75.092721,39.950251]],[[-75.095023,39.948317],[-75.095094,39.94829],[-75.095023,39.94829],[-75.095023,39.948317]],[[-75.095165,39.948289],[-75.094669,39.948621],[-75.09673,39.947732],[-75.096339,39.947899],[-75.096125,39.947873],[-75.095379,39.948233],[-75.095271,39.948179],[-75.095094,39.948262],[-75.095165,39.948289]],[[-75.095132,39.948509],[-75.094953,39.948537],[-75.094883,39.94862],[-75.095132,39.948509]],[[-75.094883,39.94862],[-75.094812,39.948675],[-75.094848,39.948675],[-75.094883,39.94862]],[[-75.094954,39.948647],[-75.093288,39.949864],[-75.093716,39.949807],[-75.093363,39.950193],[-75.093541,39.950192],[-75.095702,39.948506],[-75.095881,39.948505],[-75.096058,39.948367],[-75.095986,39.948312],[-75.096092,39.94823],[-75.095488,39.948452],[-75.095134,39.948756],[-75.095239,39.948591],[-75.094954,39.948647]],[[-75.095738,39.948561],[-75.095703,39.948588],[-75.095739,39.948588],[-75.095738,39.948561]],[[-75.095703,39.948588],[-75.095668,39.948616],[-75.095703,39.948616],[-75.095703,39.948588]],[[-75.095668,39.948616],[-75.095632,39.948644],[-75.095668,39.948644],[-75.095668,39.948616]],[[-75.095632,39.948644],[-75.095597,39.948671],[-75.095632,39.948671],[-75.095632,39.948644]],[[-75.095597,39.948671],[-75.095561,39.948699],[-75.095597,39.948699],[-75.095597,39.948671]],[[-75.095561,39.948699],[-75.095526,39.948727],[-75.095562,39.948726],[-75.095561,39.948699]],[[-75.095526,39.948727],[-75.09549,39.948754],[-75.095526,39.948754],[-75.095526,39.948727]],[[-75.09549,39.948754],[-75.095455,39.948782],[-75.095491,39.948782],[-75.09549,39.948754]],[[-75.095455,39.948782],[-75.09542,39.94881],[-75.095455,39.948809],[-75.095455,39.948782]],[[-75.09542,39.948864],[-75.095313,39.948865],[-75.095313,39.948892],[-75.09542,39.948864]],[[-75.095313,39.948892],[-75.095278,39.94892],[-75.095314,39.94892],[-75.095313,39.948892]],[[-75.095278,39.94892],[-75.095242,39.948948],[-75.095278,39.948948],[-75.095278,39.94892]],[[-75.095243,39.949003],[-75.095171,39.948976],[-75.095172,39.949003],[-75.095243,39.949003]],[[-75.095172,39.949058],[-75.094746,39.949307],[-75.094747,39.949362],[-75.095172,39.949058]],[[-75.094747,39.94939],[-75.09464,39.94939],[-75.09464,39.949445],[-75.094747,39.94939]],[[-75.094641,39.949472],[-75.094356,39.949611],[-75.094357,39.949666],[-75.094641,39.949472]],[[-75.094357,39.949666],[-75.094321,39.949694],[-75.094357,39.949694],[-75.094357,39.949666]],[[-75.094321,39.949694],[-75.094286,39.949721],[-75.094322,39.949721],[-75.094321,39.949694]],[[-75.094286,39.949721],[-75.094251,39.949749],[-75.094286,39.949749],[-75.094286,39.949721]],[[-75.094215,39.949749],[-75.093258,39.950523],[-75.093969,39.950217],[-75.096626,39.948062],[-75.096235,39.948201],[-75.096235,39.948229],[-75.096199,39.948229],[-75.0962,39.948256],[-75.096236,39.948311],[-75.095669,39.948808],[-75.093897,39.950108],[-75.094215,39.949749]],[[-75.094677,39.949527],[-75.094641,39.9495],[-75.094641,39.949527],[-75.094677,39.949527]],[[-75.096058,39.94834],[-75.096129,39.948312],[-75.096057,39.948312],[-75.096058,39.94834]],[[-75.096129,39.948312],[-75.096164,39.948284],[-75.096128,39.948284],[-75.096129,39.948312]],[[-75.096092,39.948202],[-75.096163,39.948202],[-75.096234,39.948146],[-75.096092,39.948202]],[[-75.096234,39.948119],[-75.096305,39.948119],[-75.096376,39.948063],[-75.096234,39.948119]],[[-75.096376,39.948036],[-75.096447,39.948036],[-75.096518,39.94798],[-75.096376,39.948036]],[[-75.096587,39.947733],[-75.096551,39.947706],[-75.096552,39.947733],[-75.096587,39.947733]],[[-75.096587,39.947705],[-75.096658,39.947678],[-75.096587,39.947678],[-75.096587,39.947705]],[[-75.096658,39.947678],[-75.096694,39.94765],[-75.096658,39.94765],[-75.096658,39.947678]],[[-75.096516,39.947761],[-75.09648,39.947733],[-75.096481,39.947761],[-75.096516,39.947761]],[[-75.096481,39.947761],[-75.096409,39.947789],[-75.096481,39.947788],[-75.096481,39.947761]],[[-75.096339,39.947844],[-75.096267,39.947817],[-75.096267,39.947844],[-75.096339,39.947844]],[[-75.096267,39.947844],[-75.096232,39.947872],[-75.096268,39.947872],[-75.096267,39.947844]],[[-75.095343,39.948179],[-75.095449,39.948123],[-75.095343,39.948151],[-75.095343,39.948179]],[[-75.095449,39.948123],[-75.09552,39.948095],[-75.095449,39.948096],[-75.095449,39.948123]],[[-75.09552,39.948095],[-75.095556,39.948068],[-75.09552,39.948068],[-75.09552,39.948095]],[[-75.095946,39.947764],[-75.095911,39.947846],[-75.096017,39.947818],[-75.096052,39.947736],[-75.095981,39.947736],[-75.095981,39.947763],[-75.095946,39.947764]],[[-75.096158,39.947598],[-75.096229,39.94757],[-75.096158,39.94757],[-75.096158,39.947598]],[[-75.096229,39.94757],[-75.0963,39.947542],[-75.096229,39.947543],[-75.096229,39.94757]],[[-75.0963,39.947542],[-75.096336,39.947515],[-75.0963,39.947515],[-75.0963,39.947542]],[[-75.096407,39.947459],[-75.096478,39.947486],[-75.096478,39.947459],[-75.096407,39.947459]],[[-75.096407,39.947487],[-75.096371,39.947514],[-75.096407,39.947514],[-75.096407,39.947487]],[[-75.096478,39.947459],[-75.096513,39.947431],[-75.096478,39.947431],[-75.096478,39.947459]],[[-75.097837,39.947836],[-75.097801,39.947864],[-75.097837,39.947864],[-75.097837,39.947836]],[[-75.097834,39.947479],[-75.097905,39.947452],[-75.097833,39.947452],[-75.097834,39.947479]],[[-75.097295,39.947098],[-75.097224,39.947126],[-75.097295,39.947125],[-75.097295,39.947098]],[[-75.098291,39.946708],[-75.098255,39.946736],[-75.098291,39.946736],[-75.098291,39.946708]],[[-75.099074,39.94654],[-75.099217,39.946566],[-75.099038,39.946485],[-75.099074,39.94654]],[[-75.099181,39.946512],[-75.099323,39.946538],[-75.09918,39.946457],[-75.099181,39.946512]],[[-75.099287,39.946456],[-75.099322,39.946428],[-75.099287,39.946429],[-75.099287,39.946456]],[[-75.099323,39.946456],[-75.099394,39.946483],[-75.099394,39.946456],[-75.099323,39.946456]],[[-75.098717,39.946514],[-75.098824,39.946486],[-75.098716,39.946459],[-75.098717,39.946514]],[[-75.098966,39.946485],[-75.09893,39.946376],[-75.098823,39.946376],[-75.098823,39.946404],[-75.098752,39.946404],[-75.098824,39.946486],[-75.098966,39.946485]],[[-75.09893,39.946376],[-75.098965,39.946348],[-75.098929,39.946348],[-75.09893,39.946376]],[[-75.098574,39.946487],[-75.098538,39.94646],[-75.098538,39.946487],[-75.098574,39.946487]],[[-75.098289,39.946571],[-75.098218,39.946544],[-75.098218,39.946571],[-75.098289,39.946571]],[[-75.098183,39.946599],[-75.098111,39.946572],[-75.098111,39.946599],[-75.098183,39.946599]],[[-75.098076,39.946627],[-75.09804,39.9466],[-75.09804,39.946627],[-75.098076,39.946627]],[[-75.096795,39.946991],[-75.096866,39.946963],[-75.096795,39.946963],[-75.096795,39.946991]],[[-75.096866,39.946963],[-75.096973,39.946907],[-75.096901,39.946908],[-75.096866,39.946963]],[[-75.096973,39.946907],[-75.097044,39.946879],[-75.096972,39.94688],[-75.096973,39.946907]],[[-75.097044,39.946879],[-75.097115,39.946852],[-75.097043,39.946852],[-75.097044,39.946879]],[[-75.097115,39.946852],[-75.09715,39.946824],[-75.097114,39.946824],[-75.097115,39.946852]],[[-75.09715,39.946797],[-75.097257,39.946796],[-75.097719,39.946629],[-75.09715,39.946797]],[[-75.096331,39.946965],[-75.096296,39.946993],[-75.096331,39.946993],[-75.096331,39.946965]],[[-75.096546,39.947129],[-75.096333,39.947158],[-75.096297,39.947213],[-75.096546,39.947129]],[[-75.096297,39.947213],[-75.096226,39.947241],[-75.096298,39.94724],[-75.096297,39.947213]],[[-75.096226,39.947241],[-75.096191,39.947268],[-75.096227,39.947268],[-75.096226,39.947241]],[[-75.094521,39.948073],[-75.095587,39.947573],[-75.095729,39.947463],[-75.094805,39.947852],[-75.094521,39.948073]],[[-75.095729,39.947463],[-75.0958,39.947435],[-75.095729,39.947435],[-75.095729,39.947463]],[[-75.0958,39.947435],[-75.095835,39.947407],[-75.0958,39.947407],[-75.0958,39.947435]],[[-75.087015,39.942044],[-75.08705,39.942016],[-75.087015,39.942016],[-75.087015,39.942044]],[[-75.086728,39.941826],[-75.086834,39.94177],[-75.086727,39.941798],[-75.086728,39.941826]],[[-75.089884,39.927232],[-75.089919,39.927204],[-75.089884,39.927204],[-75.089884,39.927232]],[[-75.107862,39.936034],[-75.107827,39.936089],[-75.107863,39.936089],[-75.107862,39.936034]]],[[[-75.116988,39.947516],[-75.117024,39.947489],[-75.117024,39.947516],[-75.116988,39.947516]]],[[[-75.117131,39.947543],[-75.117096,39.947571],[-75.117096,39.947543],[-75.117131,39.947543]]],[[[-75.120757,39.950132],[-75.121223,39.950349],[-75.120872,39.95101],[-75.120694,39.951011],[-75.120795,39.950406],[-75.120509,39.950243],[-75.120757,39.950132]]],[[[-75.098361,39.946626],[-75.09829,39.946653],[-75.09829,39.946626],[-75.098361,39.946626]]],[[[-75.098575,39.946652],[-75.098505,39.946707],[-75.098504,39.946652],[-75.098575,39.946652]]],[[[-75.098005,39.946655],[-75.097934,39.946683],[-75.097933,39.946655],[-75.098005,39.946655]]],[[[-75.097898,39.946738],[-75.097862,39.946683],[-75.097898,39.946683],[-75.097898,39.946738]]],[[[-75.097935,39.94682],[-75.098112,39.946682],[-75.098184,39.946709],[-75.097935,39.94682]]],[[[-75.097756,39.946766],[-75.097827,39.946711],[-75.097863,39.946793],[-75.097756,39.946766]]],[[[-75.097542,39.946795],[-75.097649,39.946821],[-75.097542,39.946822],[-75.097542,39.946795]]],[[[-75.097863,39.94682],[-75.097792,39.946848],[-75.097792,39.946821],[-75.097863,39.94682]]],[[[-75.097329,39.946905],[-75.097365,39.946878],[-75.097365,39.946905],[-75.097329,39.946905]]],[[[-75.097792,39.946848],[-75.097437,39.947042],[-75.09733,39.947043],[-75.097508,39.946959],[-75.097472,39.946905],[-75.097792,39.946848]]],[[[-75.097258,39.946906],[-75.09733,39.94696],[-75.097258,39.946961],[-75.097258,39.946906]]],[[[-75.097436,39.946932],[-75.097401,39.94696],[-75.097401,39.946933],[-75.097436,39.946932]]],[[[-75.097259,39.946988],[-75.097223,39.946961],[-75.097258,39.946961],[-75.097259,39.946988]]],[[[-75.097151,39.946961],[-75.097187,39.946989],[-75.097152,39.946989],[-75.097151,39.946961]]],[[[-75.097152,39.946989],[-75.09708,39.947017],[-75.09708,39.946989],[-75.097152,39.946989]]],[[[-75.097045,39.947044],[-75.097009,39.947017],[-75.097045,39.947017],[-75.097045,39.947044]]],[[[-75.096938,39.947072],[-75.096974,39.947045],[-75.096974,39.947072],[-75.096938,39.947072]]],[[[-75.096974,39.947099],[-75.09701,39.947072],[-75.09701,39.947099],[-75.096974,39.947099]]],[[[-75.096725,39.947183],[-75.096689,39.947156],[-75.096725,39.947156],[-75.096725,39.947183]]],[[[-75.096618,39.947211],[-75.09669,39.947183],[-75.09669,39.947211],[-75.096618,39.947211]]],[[[-75.096726,39.947238],[-75.096761,39.947183],[-75.096761,39.947238],[-75.096726,39.947238]]],[[[-75.096797,39.94721],[-75.096833,39.947237],[-75.096797,39.947238],[-75.096797,39.94721]]],[[[-75.096441,39.947294],[-75.096476,39.947267],[-75.096477,39.947294],[-75.096441,39.947294]]],[[[-75.097511,39.947316],[-75.097476,39.947344],[-75.097475,39.947316],[-75.097511,39.947316]]],[[[-75.09637,39.94735],[-75.096406,39.947377],[-75.09637,39.947377],[-75.09637,39.94735]]],[[[-75.095909,39.947681],[-75.095944,39.947626],[-75.096087,39.947598],[-75.095909,39.947681]]],[[[-75.095909,39.947709],[-75.095838,39.947682],[-75.095909,39.947681],[-75.095909,39.947709]]],[[[-75.096017,39.947791],[-75.095981,39.947763],[-75.096017,39.947763],[-75.096017,39.947791]]],[[[-75.095839,39.947764],[-75.095803,39.947792],[-75.095803,39.947764],[-75.095839,39.947764]]],[[[-75.095732,39.94782],[-75.095767,39.947792],[-75.095768,39.947819],[-75.095732,39.94782]]],[[[-75.095804,39.947847],[-75.095768,39.947819],[-75.095803,39.947819],[-75.095804,39.947847]]],[[[-75.095804,39.947874],[-75.095839,39.947847],[-75.095839,39.947874],[-75.095804,39.947874]]],[[[-75.095732,39.947847],[-75.095768,39.947874],[-75.095732,39.947875],[-75.095732,39.947847]]],[[[-75.096126,39.947955],[-75.096161,39.947927],[-75.096161,39.947955],[-75.096126,39.947955]]],[[[-75.09609,39.947955],[-75.096054,39.947983],[-75.096054,39.947955],[-75.09609,39.947955]]],[[[-75.095948,39.948011],[-75.095984,39.948038],[-75.095948,39.948038],[-75.095948,39.948011]]],[[[-75.095912,39.948066],[-75.095948,39.948038],[-75.095948,39.948066],[-75.095912,39.948066]]],[[[-75.096307,39.948256],[-75.096235,39.948229],[-75.096306,39.948228],[-75.096307,39.948256]]],[[[-75.095951,39.94834],[-75.095986,39.948367],[-75.095951,39.948368],[-75.095951,39.94834]]],[[[-75.095738,39.948478],[-75.095951,39.948368],[-75.095738,39.948506],[-75.095738,39.948478]]],[[[-75.0962,39.92363],[-75.094873,39.922759],[-75.095904,39.922424],[-75.096335,39.922751],[-75.096411,39.9233],[-75.0962,39.92363]]],[[[-75.095518,39.947821],[-75.095767,39.94771],[-75.095838,39.947709],[-75.095803,39.947764],[-75.095732,39.947765],[-75.095661,39.94782],[-75.095589,39.94782],[-75.09559,39.947848],[-75.095518,39.947821]]],[[[-75.095697,39.947847],[-75.095661,39.94782],[-75.095696,39.94782],[-75.095697,39.947847]]],[[[-75.095447,39.947849],[-75.095518,39.947876],[-75.095447,39.947876],[-75.095447,39.947849]]],[[[-75.095697,39.947875],[-75.095661,39.947902],[-75.095661,39.947875],[-75.095697,39.947875]]],[[[-75.09534,39.947904],[-75.095447,39.947903],[-75.095341,39.947931],[-75.09534,39.947904]]],[[[-75.095626,39.947903],[-75.095555,39.94793],[-75.095554,39.947903],[-75.095626,39.947903]]],[[[-75.095662,39.94793],[-75.095626,39.947957],[-75.095626,39.94793],[-75.095662,39.94793]]],[[[-75.09527,39.947959],[-75.095341,39.947931],[-75.095341,39.947959],[-75.09527,39.947959]]],[[[-75.095484,39.947958],[-75.095555,39.947985],[-75.095484,39.948013],[-75.095484,39.947958]]],[[[-75.095198,39.94796],[-75.09527,39.947987],[-75.095198,39.947987],[-75.095198,39.94796]]],[[[-75.095056,39.94796],[-75.095091,39.947988],[-75.095056,39.947988],[-75.095056,39.94796]]],[[[-75.095448,39.948013],[-75.095377,39.947959],[-75.095448,39.947958],[-75.095448,39.948013]]],[[[-75.095163,39.947987],[-75.095199,39.948015],[-75.095163,39.948015],[-75.095163,39.947987]]],[[[-75.095306,39.948014],[-75.095342,39.948041],[-75.095306,39.948041],[-75.095306,39.948014]]],[[[-75.095127,39.948015],[-75.095092,39.948043],[-75.095092,39.948015],[-75.095127,39.948015]]],[[[-75.095021,39.948043],[-75.095056,39.94807],[-75.095021,39.94807],[-75.095021,39.948043]]],[[[-75.095271,39.948097],[-75.095199,39.948069],[-75.09527,39.948042],[-75.095271,39.948097]]],[[[-75.095306,39.948069],[-75.095342,39.948096],[-75.095306,39.948096],[-75.095306,39.948069]]],[[[-75.094985,39.948071],[-75.095021,39.948098],[-75.094985,39.948098],[-75.094985,39.948071]]],[[[-75.095164,39.948097],[-75.0952,39.948124],[-75.095164,39.948125],[-75.095164,39.948097]]],[[[-75.094914,39.948098],[-75.09495,39.948126],[-75.094914,39.948126],[-75.094914,39.948098]]],[[[-75.095128,39.948125],[-75.095093,39.948152],[-75.095093,39.948125],[-75.095128,39.948125]]],[[[-75.095057,39.948153],[-75.095022,39.94818],[-75.095021,39.948153],[-75.095057,39.948153]]],[[[-75.094951,39.948208],[-75.094987,39.948235],[-75.094951,39.948235],[-75.094951,39.948208]]],[[[-75.095165,39.948289],[-75.095308,39.948234],[-75.095308,39.948261],[-75.095165,39.948289]]],[[[-75.095559,39.948479],[-75.095595,39.948452],[-75.095595,39.948479],[-75.095559,39.948479]]],[[[-75.095559,39.948479],[-75.095524,39.948507],[-75.095524,39.94848],[-75.095559,39.948479]]],[[[-75.095524,39.948534],[-75.095488,39.948507],[-75.095524,39.948507],[-75.095524,39.948534]]],[[[-75.095489,39.948562],[-75.095453,39.948535],[-75.095489,39.948535],[-75.095489,39.948562]]],[[[-75.095453,39.948562],[-75.095418,39.94859],[-75.095417,39.948562],[-75.095453,39.948562]]],[[[-75.095418,39.948617],[-75.095382,39.94859],[-75.095418,39.94859],[-75.095418,39.948617]]],[[[-75.095311,39.948645],[-75.095347,39.9487],[-75.095205,39.948756],[-75.095311,39.948645]]],[[[-75.094884,39.948785],[-75.094919,39.94873],[-75.09492,39.948785],[-75.094884,39.948785]]],[[[-75.095062,39.948756],[-75.095098,39.948784],[-75.095063,39.948784],[-75.095062,39.948756]]],[[[-75.094991,39.948784],[-75.095027,39.948839],[-75.094992,39.948839],[-75.094991,39.948784]]],[[[-75.094956,39.948867],[-75.094992,39.948839],[-75.094992,39.948867],[-75.094956,39.948867]]],[[[-75.094921,39.948867],[-75.094957,39.948894],[-75.094921,39.948894],[-75.094921,39.948867]]],[[[-75.094885,39.948895],[-75.094921,39.948922],[-75.094885,39.948922],[-75.094885,39.948895]]],[[[-75.094603,39.949253],[-75.095169,39.948756],[-75.095205,39.948756],[-75.094603,39.949253]]],[[[-75.094019,39.910546],[-75.093737,39.910932],[-75.09327,39.91055],[-75.093794,39.909284],[-75.094402,39.909474],[-75.094046,39.90964],[-75.093873,39.910245],[-75.094444,39.910297],[-75.094483,39.910654],[-75.094342,39.910819],[-75.094199,39.91082],[-75.094019,39.910546]],[[-75.093901,39.909366],[-75.09383,39.909394],[-75.093902,39.909394],[-75.093901,39.909366]],[[-75.094054,39.910519],[-75.094089,39.910491],[-75.094054,39.910491],[-75.094054,39.910519]]],[[[-75.094343,39.910956],[-75.094661,39.91068],[-75.09506,39.911419],[-75.094956,39.911749],[-75.094528,39.911724],[-75.094343,39.910956]]],[[[-75.094237,39.948184],[-75.094273,39.948211],[-75.094237,39.948212],[-75.094237,39.948184]]],[[[-75.09488,39.948318],[-75.094916,39.948373],[-75.094845,39.948373],[-75.09488,39.948318]]],[[[-75.094845,39.948373],[-75.094774,39.948401],[-75.094774,39.948374],[-75.094845,39.948373]]],[[[-75.094739,39.948429],[-75.094774,39.948401],[-75.094774,39.948429],[-75.094739,39.948429]]],[[[-75.094703,39.948429],[-75.094739,39.948456],[-75.094703,39.948456],[-75.094703,39.948429]]],[[[-75.094667,39.948457],[-75.094703,39.948484],[-75.094668,39.948484],[-75.094667,39.948457]]],[[[-75.094525,39.94854],[-75.094561,39.948567],[-75.094526,39.948567],[-75.094525,39.94854]]],[[[-75.094742,39.948868],[-75.094778,39.948895],[-75.094743,39.948895],[-75.094742,39.948868]]],[[[-75.094707,39.948896],[-75.094743,39.948923],[-75.094707,39.948923],[-75.094707,39.948896]]],[[[-75.09485,39.94895],[-75.094885,39.948922],[-75.094886,39.94895],[-75.09485,39.94895]]],[[[-75.094814,39.94895],[-75.09485,39.948977],[-75.094815,39.948977],[-75.094814,39.94895]]],[[[-75.094779,39.948978],[-75.094815,39.949005],[-75.094779,39.949005],[-75.094779,39.948978]]],[[[-75.094601,39.948978],[-75.094637,39.949006],[-75.094601,39.949006],[-75.094601,39.948978]]],[[[-75.094495,39.949089],[-75.094459,39.949116],[-75.094459,39.949089],[-75.094495,39.949089]]],[[[-75.094603,39.94928],[-75.094567,39.949253],[-75.094603,39.949253],[-75.094603,39.94928]]],[[[-75.094568,39.949281],[-75.094532,39.949308],[-75.094532,39.949281],[-75.094568,39.949281]]],[[[-75.094532,39.949336],[-75.094496,39.949308],[-75.094532,39.949308],[-75.094532,39.949336]]],[[[-75.094497,39.949363],[-75.094461,39.949336],[-75.094497,39.949336],[-75.094497,39.949363]]],[[[-75.094461,39.949364],[-75.094426,39.949391],[-75.094426,39.949364],[-75.094461,39.949364]]],[[[-75.094426,39.949419],[-75.09439,39.949391],[-75.094426,39.949391],[-75.094426,39.949419]]],[[[-75.094391,39.949446],[-75.094355,39.949419],[-75.09439,39.949419],[-75.094391,39.949446]]],[[[-75.094355,39.949474],[-75.094319,39.949447],[-75.094355,39.949446],[-75.094355,39.949474]]],[[[-75.094034,39.949448],[-75.093999,39.949476],[-75.093998,39.949448],[-75.094034,39.949448]]],[[[-75.09432,39.949502],[-75.094284,39.949474],[-75.09432,39.949474],[-75.09432,39.949502]]],[[[-75.094284,39.949529],[-75.094248,39.949502],[-75.094284,39.949502],[-75.094284,39.949529]]],[[[-75.094249,39.949529],[-75.094213,39.949557],[-75.094213,39.94953],[-75.094249,39.949529]]],[[[-75.094213,39.949584],[-75.094178,39.949557],[-75.094213,39.949557],[-75.094213,39.949584]]],[[[-75.094178,39.949612],[-75.094142,39.949585],[-75.094178,39.949585],[-75.094178,39.949612]]],[[[-75.094142,39.949612],[-75.094107,39.94964],[-75.094107,39.949612],[-75.094142,39.949612]]],[[[-75.094107,39.949667],[-75.094071,39.94964],[-75.094107,39.94964],[-75.094107,39.949667]]],[[[-75.094072,39.949695],[-75.094036,39.949668],[-75.094072,39.949668],[-75.094072,39.949695]]],[[[-75.094036,39.949695],[-75.094001,39.949723],[-75.094,39.949695],[-75.094036,39.949695]]],[[[-75.094001,39.94975],[-75.093965,39.949723],[-75.094001,39.949723],[-75.094001,39.94975]]],[[[-75.093894,39.949778],[-75.093966,39.949805],[-75.093894,39.949806],[-75.093894,39.949778]]],[[[-75.094004,39.95008],[-75.09404,39.950107],[-75.094004,39.950107],[-75.094004,39.95008]]],[[[-75.093861,39.950108],[-75.093897,39.950135],[-75.093862,39.950135],[-75.093861,39.950108]]],[[[-75.093897,39.950163],[-75.093933,39.950135],[-75.093933,39.950162],[-75.093897,39.950163]]],[[[-75.093862,39.95019],[-75.093897,39.950163],[-75.093898,39.95019],[-75.093862,39.95019]]],[[[-75.094517,39.92287],[-75.095091,39.923279],[-75.094666,39.923556],[-75.094847,39.923885],[-75.094314,39.924079],[-75.09184,39.9225],[-75.089944,39.92179],[-75.091422,39.921065],[-75.093249,39.920549],[-75.093429,39.92068],[-75.094817,39.920398],[-75.095213,39.920808],[-75.096138,39.920583],[-75.096178,39.921105],[-75.095005,39.92155],[-75.09508,39.921989],[-75.094759,39.921991],[-75.094514,39.922431],[-75.094517,39.92287]],[[-75.094062,39.923806],[-75.094097,39.923779],[-75.094062,39.923779],[-75.094062,39.923806]],[[-75.093464,39.920679],[-75.093393,39.920707],[-75.093394,39.920735],[-75.093464,39.920679]],[[-75.094733,39.923116],[-75.094662,39.923062],[-75.094662,39.923117],[-75.094733,39.923116]]],[[[-75.091662,39.922501],[-75.091519,39.922501],[-75.091518,39.922419],[-75.091662,39.922501]]],[[[-75.091842,39.922692],[-75.091841,39.922637],[-75.091948,39.922664],[-75.091949,39.922691],[-75.091842,39.922692]]],[[[-75.091062,39.923272],[-75.091023,39.922916],[-75.090343,39.92259],[-75.088737,39.922391],[-75.089909,39.921851],[-75.09188,39.922994],[-75.091523,39.922968],[-75.09167,39.923489],[-75.091062,39.923272]]],[[[-75.091985,39.922774],[-75.09202,39.922691],[-75.092092,39.922773],[-75.091985,39.922774]]],[[[-75.0854,39.924125],[-75.085612,39.923959],[-75.085436,39.924179],[-75.0854,39.924125]]],[[[-75.085294,39.924208],[-75.085258,39.924235],[-75.085258,39.924208],[-75.085294,39.924208]]],[[[-75.085259,39.92429],[-75.085223,39.924263],[-75.085258,39.924263],[-75.085259,39.92429]]],[[[-75.085187,39.924263],[-75.085152,39.924291],[-75.085151,39.924263],[-75.085187,39.924263]]],[[[-75.093786,39.949614],[-75.09375,39.949559],[-75.093821,39.949559],[-75.093786,39.949614]]],[[[-75.093858,39.949724],[-75.093822,39.949696],[-75.093858,39.949696],[-75.093858,39.949724]]],[[[-75.093823,39.949751],[-75.093787,39.949724],[-75.093822,39.949724],[-75.093823,39.949751]]],[[[-75.093787,39.949751],[-75.093751,39.949779],[-75.093751,39.949752],[-75.093787,39.949751]]],[[[-75.093752,39.949806],[-75.093716,39.949779],[-75.093751,39.949779],[-75.093752,39.949806]]],[[[-75.093537,39.94978],[-75.093502,39.949808],[-75.093502,39.94978],[-75.093537,39.94978]]],[[[-75.09354,39.950082],[-75.093682,39.949972],[-75.093894,39.949806],[-75.093611,39.950082],[-75.09354,39.950082]]],[[[-75.09354,39.95011],[-75.093504,39.950082],[-75.09354,39.950082],[-75.09354,39.95011]]],[[[-75.093505,39.950137],[-75.093469,39.95011],[-75.093505,39.95011],[-75.093505,39.950137]]],[[[-75.09379,39.950136],[-75.093862,39.950163],[-75.09379,39.950163],[-75.09379,39.950136]]],[[[-75.093755,39.950163],[-75.093791,39.950191],[-75.093755,39.950191],[-75.093755,39.950163]]],[[[-75.092722,39.950333],[-75.092757,39.950306],[-75.092757,39.950333],[-75.092722,39.950333]]],[[[-75.092686,39.950334],[-75.092722,39.950388],[-75.092687,39.950388],[-75.092686,39.950334]]],[[[-75.092545,39.950499],[-75.092581,39.950526],[-75.092545,39.950526],[-75.092545,39.950499]]],[[[-75.092652,39.950526],[-75.092688,39.950553],[-75.092652,39.950553],[-75.092652,39.950526]]],[[[-75.09251,39.950554],[-75.092545,39.950526],[-75.092545,39.950554],[-75.09251,39.950554]]],[[[-75.092474,39.950554],[-75.09251,39.950582],[-75.092474,39.950582],[-75.092474,39.950554]]],[[[-75.092368,39.950692],[-75.092403,39.950582],[-75.092474,39.950582],[-75.092368,39.950692]]],[[[-75.092261,39.95072],[-75.092297,39.950692],[-75.092297,39.95072],[-75.092261,39.95072]]],[[[-75.092832,39.950745],[-75.092868,39.950717],[-75.092868,39.950744],[-75.092832,39.950745]]],[[[-75.092119,39.950721],[-75.091941,39.950749],[-75.092118,39.950666],[-75.092119,39.950721]]],[[[-75.092761,39.950745],[-75.092797,39.950772],[-75.092761,39.950772],[-75.092761,39.950745]]],[[[-75.091905,39.950777],[-75.09187,39.950804],[-75.09187,39.950777],[-75.091905,39.950777]]],[[[-75.092261,39.95072],[-75.092049,39.950886],[-75.092084,39.950803],[-75.092261,39.95072]]],[[[-75.091906,39.950832],[-75.091942,39.950859],[-75.091906,39.950859],[-75.091906,39.950832]]],[[[-75.091799,39.950832],[-75.091835,39.950859],[-75.091799,39.95086],[-75.091799,39.950832]]],[[[-75.091906,39.950887],[-75.091622,39.951025],[-75.091763,39.95086],[-75.091906,39.950887]]],[[[-75.084455,39.955592],[-75.084663,39.954849],[-75.084164,39.954907],[-75.084018,39.954496],[-75.085118,39.953776],[-75.086366,39.953742],[-75.08662,39.95429],[-75.086374,39.954703],[-75.084885,39.955754],[-75.084455,39.955592]]]]}}]}