{"type":"FeatureCollection","features":[{"type":"Feature","properties":{"level_ft":1},"geometry":{"type":"MultiPolygon","coordinates":[[[[-75.110749,39.89967],[-75.110103,39.899152],[-75.110066,39.899078],[-75.110386,39.898985],[-75.110749,39.89967]]],[[[-75.102101,39.901225],[-75.100566,39.900931],[-75.09981,39.900166],[-75.099562,39.900277],[-75.099742,39.900469],[-75.099385,39.900416],[-75.099909,39.899232],[-75.101146,39.898882],[-75.101966,39.899057],[-75.102917,39.899882],[-75.104793,39.900527],[-75.107941,39.900238],[-75.10964,39.899265],[-75.109822,39.899675],[-75.109611,39.89995],[-75.107266,39.900869],[-75.106021,39.901122],[-75.102101,39.901225]]],[[[-75.115802,39.902718],[-75.112504,39.900594],[-75.113139,39.899904],[-75.112849,39.899357],[-75.111669,39.898869],[-75.110886,39.899065],[-75.110528,39.898905],[-75.111838,39.898569],[-75.113166,39.899305],[-75.113874,39.901102],[-75.11643,39.902191],[-75.11655,39.902879],[-75.115802,39.902718]]],[[[-75.100109,39.901675],[-75.106773,39.90153],[-75.106953,39.901749],[-75.104995,39.902006],[-75.105359,39.902828],[-75.104792,39.903188],[-75.104462,39.902146],[-75.103106,39.901989],[-75.102002,39.902132],[-75.101684,39.902435],[-75.101696,39.903835],[-75.101447,39.903892],[-75.101089,39.903756],[-75.10087,39.903181],[-75.099585,39.902968],[-75.099689,39.902583],[-75.100754,39.902138],[-75.10011,39.901812],[-75.100109,39.901675]],[[-75.100252,39.901784],[-75.100288,39.901756],[-75.100252,39.901756],[-75.100252,39.901784]]],[[[-75.116513,39.903126],[-75.1162,39.90332],[-75.116197,39.903073],[-75.116513,39.903126]]],[[[-75.113841,39.906627],[-75.114057,39.906873],[-75.11395,39.906901],[-75.113841,39.906627]]],[[[-75.117089,39.911112],[-75.117535,39.90916],[-75.114916,39.907308],[-75.114559,39.9072],[-75.11449,39.907474],[-75.113716,39.904596],[-75.113882,39.90325],[-75.115453,39.903516],[-75.116437,39.903456],[-75.11488,39.9054],[-75.114696,39.905978],[-75.115126,39.906652],[-75.116727,39.907983],[-75.117922,39.908554],[-75.117483,39.91122],[-75.117089,39.911112]]],[[[-75.119918,39.908517],[-75.119885,39.908846],[-75.118888,39.908934],[-75.118038,39.90957],[-75.117993,39.908556],[-75.119918,39.908517]]],[[[-75.109122,39.909178],[-75.108273,39.909896],[-75.109027,39.910551],[-75.109138,39.910962],[-75.109459,39.91096],[-75.109106,39.911346],[-75.107279,39.910368],[-75.105286,39.910735],[-75.104107,39.910522],[-75.104111,39.910906],[-75.103755,39.910935],[-75.103891,39.910248],[-75.103392,39.910223],[-75.101864,39.910808],[-75.101727,39.91144],[-75.102016,39.91185],[-75.101168,39.912706],[-75.10088,39.91246],[-75.099496,39.913181],[-75.099614,39.913828],[-75.098545,39.91379],[-75.098005,39.914078],[-75.097562,39.913542],[-75.096364,39.913826],[-75.095933,39.913419],[-75.096039,39.913281],[-75.098251,39.913517],[-75.099034,39.913293],[-75.09928,39.912963],[-75.099709,39.91307],[-75.099636,39.912906],[-75.100772,39.912268],[-75.100659,39.91161],[-75.101403,39.91114],[-75.101472,39.910837],[-75.10068,39.909963],[-75.100183,39.910158],[-75.09979,39.910077],[-75.099934,39.910296],[-75.099722,39.910434],[-75.099396,39.90986],[-75.10011,39.910048],[-75.10075,39.909825],[-75.10174,39.908859],[-75.104306,39.908736],[-75.105383,39.909581],[-75.106489,39.90974],[-75.107663,39.90946],[-75.108272,39.909786],[-75.108127,39.909485],[-75.109041,39.908025],[-75.110133,39.906564],[-75.111196,39.905872],[-75.111297,39.90513],[-75.112577,39.904849],[-75.1137,39.906847],[-75.11451,39.909671],[-75.113452,39.907041],[-75.111567,39.90749],[-75.112886,39.907538],[-75.112893,39.908224],[-75.112365,39.909023],[-75.111189,39.909084],[-75.111121,39.909442],[-75.110836,39.909525],[-75.109938,39.908761],[-75.110158,39.909419],[-75.109379,39.909972],[-75.108914,39.909837],[-75.109122,39.909178]],[[-75.109158,39.909177],[-75.109442,39.909066],[-75.110145,39.907882],[-75.109509,39.908544],[-75.109158,39.909177]],[[-75.110145,39.907882],[-75.11018,39.907854],[-75.110144,39.907854],[-75.110145,39.907882]],[[-75.11018,39.907854],[-75.110251,39.907799],[-75.110179,39.907799],[-75.11018,39.907854]],[[-75.110251,39.907799],[-75.110286,39.907744],[-75.11025,39.907744],[-75.110251,39.907799]]],[[[-75.127881,39.929503],[-75.127377,39.928957],[-75.126094,39.928991],[-75.125985,39.9288],[-75.127125,39.928684],[-75.126943,39.9283],[-75.127588,39.928681],[-75.128194,39.92865],[-75.127839,39.928817],[-75.128196,39.928842],[-75.127877,39.929036],[-75.127881,39.929503]]],[[[-75.13141,39.948729],[-75.132624,39.948832],[-75.132762,39.948337],[-75.130759,39.947772],[-75.130969,39.947331],[-75.131466,39.947081],[-75.132206,39.942163],[-75.131782,39.942605],[-75.13114,39.942663],[-75.130602,39.942309],[-75.130598,39.941897],[-75.131058,39.941511],[-75.131807,39.941534],[-75.132024,39.941835],[-75.132273,39.941724],[-75.132004,39.939666],[-75.131433,39.939587],[-75.131427,39.938983],[-75.13068,39.939206],[-75.130886,39.938272],[-75.131527,39.938186],[-75.131702,39.937856],[-75.132471,39.932223],[-75.131864,39.932172],[-75.131924,39.930991],[-75.131595,39.930032],[-75.132129,39.929919],[-75.131762,39.928823],[-75.130764,39.928856],[-75.130613,39.927978],[-75.131178,39.927371],[-75.130959,39.926796],[-75.130424,39.926826],[-75.129273,39.925762],[-75.127341,39.925031],[-75.126909,39.924567],[-75.127013,39.924264],[-75.128579,39.923899],[-75.128613,39.923734],[-75.127412,39.921105],[-75.126948,39.921025],[-75.127158,39.920585],[-75.127621,39.920555],[-75.127865,39.919867],[-75.12658,39.919791],[-75.126398,39.919326],[-75.126643,39.918858],[-75.126,39.918724],[-75.125819,39.918423],[-75.125879,39.91716],[-75.126303,39.916718],[-75.126292,39.915565],[-75.123618,39.91558],[-75.12326,39.915417],[-75.123255,39.91484],[-75.123503,39.914619],[-75.122539,39.914542],[-75.122714,39.914129],[-75.12464,39.914201],[-75.124663,39.912801],[-75.124092,39.912777],[-75.123982,39.912393],[-75.123625,39.912367],[-75.123435,39.911051],[-75.123789,39.910802],[-75.124644,39.910797],[-75.124495,39.910057],[-75.124737,39.909177],[-75.125019,39.908846],[-75.125661,39.908897],[-75.125232,39.908762],[-75.121489,39.908728],[-75.121484,39.908233],[-75.125406,39.908295],[-75.12569,39.908183],[-75.125084,39.908214],[-75.125082,39.907912],[-75.122656,39.907733],[-75.121517,39.907959],[-75.121024,39.908565],[-75.12017,39.908735],[-75.120132,39.908514],[-75.121403,39.907762],[-75.122836,39.907428],[-75.129344,39.907381],[-75.129091,39.911608],[-75.12984,39.915359],[-75.135874,39.927639],[-75.136463,39.929363],[-75.136806,39.935899],[-75.136556,39.941533],[-75.135631,39.947459],[-75.134194,39.952774],[-75.129264,39.95198],[-75.129333,39.951733],[-75.130547,39.951918],[-75.130539,39.950985],[-75.130967,39.950955],[-75.131274,39.949416],[-75.131523,39.949387],[-75.131376,39.948949],[-75.131625,39.948892],[-75.13141,39.948729]],[[-75.130548,39.951946],[-75.131477,39.952133],[-75.131619,39.952105],[-75.130976,39.951943],[-75.130548,39.951946]],[[-75.131626,39.94892],[-75.131662,39.948947],[-75.131661,39.94892],[-75.131626,39.94892]],[[-75.131662,39.948947],[-75.131805,39.948974],[-75.131804,39.948919],[-75.131662,39.948947]]],[[[-75.104009,39.943961],[-75.104143,39.942917],[-75.103821,39.942809],[-75.104462,39.94275],[-75.104739,39.941843],[-75.105242,39.94217],[-75.104757,39.943874],[-75.104009,39.943961]]],[[[-75.114771,39.942861],[-75.116126,39.942826],[-75.116449,39.943017],[-75.114845,39.943135],[-75.114771,39.942861]]],[[[-75.103695,39.944731],[-75.104081,39.94407],[-75.104688,39.944067],[-75.104517,39.944892],[-75.103804,39.945005],[-75.103695,39.944731]]],[[[-75.104019,39.945086],[-75.103983,39.945059],[-75.104019,39.945059],[-75.104019,39.945086]]],[[[-75.103948,39.945114],[-75.103912,39.945087],[-75.103948,39.945087],[-75.103948,39.945114]]],[[[-75.102175,39.946331],[-75.102394,39.946852],[-75.101649,39.94735],[-75.101537,39.946829],[-75.101786,39.94669],[-75.101926,39.946442],[-75.102175,39.946331]]],[[[-75.107423,39.950861],[-75.106242,39.950483],[-75.105493,39.950487],[-75.104884,39.950106],[-75.105595,39.949828],[-75.105668,39.950102],[-75.106097,39.950154],[-75.106063,39.950374],[-75.107313,39.950587],[-75.107172,39.950725],[-75.107423,39.950861]]],[[[-75.095942,39.963851],[-75.096333,39.963657],[-75.096114,39.963109],[-75.096615,39.963244],[-75.096935,39.963105],[-75.097176,39.962143],[-75.096778,39.961514],[-75.096955,39.961266],[-75.09724,39.961292],[-75.09745,39.960769],[-75.097841,39.960657],[-75.098813,39.961585],[-75.099416,39.961171],[-75.09888,39.961173],[-75.098771,39.960954],[-75.100052,39.960536],[-75.099907,39.960262],[-75.10012,39.960124],[-75.099545,39.959632],[-75.100763,39.960203],[-75.10076,39.959846],[-75.101151,39.959761],[-75.101433,39.959376],[-75.101461,39.95847],[-75.101852,39.95833],[-75.101961,39.958522],[-75.10246,39.958519],[-75.102243,39.958163],[-75.101635,39.958002],[-75.10106,39.957511],[-75.101057,39.957181],[-75.10159,39.956904],[-75.10162,39.956272],[-75.10244,39.956241],[-75.103364,39.955797],[-75.104401,39.956066],[-75.106753,39.955806],[-75.10867,39.954781],[-75.11005,39.953428],[-75.110119,39.953208],[-75.109078,39.952472],[-75.108007,39.952341],[-75.107753,39.951875],[-75.107074,39.951714],[-75.106362,39.95191],[-75.105753,39.951639],[-75.105926,39.951006],[-75.106427,39.951168],[-75.106747,39.951029],[-75.107604,39.95119],[-75.107822,39.951573],[-75.10882,39.951513],[-75.110037,39.952001],[-75.109993,39.951012],[-75.109811,39.950684],[-75.109562,39.950713],[-75.109552,39.949642],[-75.10818,39.947728],[-75.108031,39.946987],[-75.107637,39.946879],[-75.107527,39.946523],[-75.107529,39.946688],[-75.106779,39.946582],[-75.107204,39.946278],[-75.106988,39.946059],[-75.106131,39.945899],[-75.104491,39.946017],[-75.103988,39.945636],[-75.103913,39.945169],[-75.104483,39.945084],[-75.104878,39.945466],[-75.106124,39.94513],[-75.107337,39.945234],[-75.108668,39.946462],[-75.109068,39.947366],[-75.110186,39.948705],[-75.110635,39.951064],[-75.110601,39.951229],[-75.110102,39.951259],[-75.110067,39.951396],[-75.110601,39.951256],[-75.110638,39.951339],[-75.110033,39.951534],[-75.110746,39.951475],[-75.111582,39.953228],[-75.110979,39.953643],[-75.110949,39.954274],[-75.111636,39.955259],[-75.111934,39.956713],[-75.1126,39.955364],[-75.113098,39.955279],[-75.112613,39.956901],[-75.112727,39.957642],[-75.113008,39.957174],[-75.113438,39.957364],[-75.113686,39.95717],[-75.113653,39.957472],[-75.114331,39.957524],[-75.114404,39.957715],[-75.115616,39.957517],[-75.115549,39.958011],[-75.116013,39.958091],[-75.116474,39.957814],[-75.116681,39.956989],[-75.117322,39.956876],[-75.117505,39.957424],[-75.117825,39.95723],[-75.118152,39.957888],[-75.117905,39.958218],[-75.118406,39.958435],[-75.118584,39.958297],[-75.118943,39.958542],[-75.120114,39.957932],[-75.119978,39.958646],[-75.120337,39.958864],[-75.121156,39.958695],[-75.1223,39.958991],[-75.122543,39.958221],[-75.123578,39.958298],[-75.123784,39.957418],[-75.124321,39.95758],[-75.124389,39.957278],[-75.124675,39.957276],[-75.124863,39.958401],[-75.125787,39.957956],[-75.125675,39.957463],[-75.125993,39.957132],[-75.126492,39.957074],[-75.127103,39.957592],[-75.128133,39.95701],[-75.128451,39.956707],[-75.127233,39.956137],[-75.127336,39.955724],[-75.129765,39.956013],[-75.128584,39.955608],[-75.128759,39.955277],[-75.129545,39.95541],[-75.129859,39.95464],[-75.128709,39.953685],[-75.128705,39.953273],[-75.129771,39.952774],[-75.128913,39.952586],[-75.128875,39.952339],[-75.13023,39.952359],[-75.134089,39.953025],[-75.132573,39.956557],[-75.130162,39.959455],[-75.125749,39.962444],[-75.122172,39.964298],[-75.119748,39.96171],[-75.118447,39.960723],[-75.115839,39.959328],[-75.110143,39.958016],[-75.108033,39.958011],[-75.106227,39.958401],[-75.104126,39.95944],[-75.096972,39.964978],[-75.093629,39.966868],[-75.088069,39.969382],[-75.087031,39.96807],[-75.090577,39.96635],[-75.090252,39.965967],[-75.091069,39.965524],[-75.090921,39.96492],[-75.091314,39.964946],[-75.092251,39.966094],[-75.09196,39.965382],[-75.092457,39.965077],[-75.092169,39.964804],[-75.091528,39.964917],[-75.090668,39.964482],[-75.090665,39.96418],[-75.091378,39.964122],[-75.091482,39.963792],[-75.092195,39.963651],[-75.091586,39.963435],[-75.091402,39.962777],[-75.091687,39.962748],[-75.091257,39.96253],[-75.091251,39.961789],[-75.091538,39.961952],[-75.091472,39.962557],[-75.091574,39.962062],[-75.09193,39.961895],[-75.092184,39.962443],[-75.093007,39.962686],[-75.092618,39.963072],[-75.092976,39.963208],[-75.092549,39.96343],[-75.092947,39.964004],[-75.093729,39.963671],[-75.094521,39.96449],[-75.094912,39.964296],[-75.095877,39.964483],[-75.095942,39.963851]],[[-75.091688,39.962775],[-75.091723,39.962802],[-75.091723,39.962775],[-75.091688,39.962775]],[[-75.095877,39.964483],[-75.095913,39.964511],[-75.095912,39.964483],[-75.095877,39.964483]]],[[[-75.099697,39.899398],[-75.099732,39.899343],[-75.099732,39.899398],[-75.099697,39.899398]]],[[[-75.096241,39.900898],[-75.099624,39.899248],[-75.098956,39.900335],[-75.097957,39.900148],[-75.097321,39.900783],[-75.096241,39.900898]]],[[[-75.095084,39.901783],[-75.094759,39.901389],[-75.09592,39.90123],[-75.096578,39.901418],[-75.096366,39.901694],[-75.095759,39.901587],[-75.095084,39.901783]]],[[[-75.096222,39.913829],[-75.096244,39.913898],[-75.096181,39.91383],[-75.096222,39.913829]]],[[[-75.083853,39.926739],[-75.08138,39.925993],[-75.083766,39.924835],[-75.08409,39.925175],[-75.083853,39.926739]],[[-75.083707,39.926357],[-75.083707,39.926275],[-75.08367,39.92611],[-75.083707,39.926357]]],[[[-75.09338,39.927461],[-75.091484,39.926675],[-75.089773,39.926766],[-75.08945,39.92652],[-75.089446,39.926081],[-75.090622,39.925965],[-75.091545,39.925549],[-75.092552,39.926532],[-75.09366,39.926828],[-75.09338,39.927461]]],[[[-75.085919,39.931826],[-75.087243,39.92975],[-75.087435,39.927986],[-75.087271,39.927236],[-75.086743,39.926816],[-75.084246,39.92678],[-75.084486,39.925639],[-75.085048,39.924731],[-75.086368,39.924751],[-75.086478,39.925108],[-75.087336,39.925378],[-75.088233,39.92606],[-75.089018,39.926083],[-75.089524,39.926822],[-75.089422,39.927454],[-75.088858,39.928253],[-75.089614,39.929018],[-75.089799,39.92984],[-75.088811,39.930998],[-75.089034,39.932068],[-75.088215,39.932292],[-75.087109,39.93216],[-75.08664,39.931531],[-75.086251,39.931972],[-75.085919,39.931826]]],[[[-75.086287,39.931972],[-75.086654,39.933151],[-75.086399,39.933234],[-75.085962,39.932029],[-75.086287,39.931972]]],[[[-75.094573,39.937585],[-75.091824,39.937188],[-75.090933,39.937329],[-75.091073,39.936944],[-75.090216,39.936811],[-75.089459,39.935937],[-75.089246,39.935993],[-75.089268,39.935738],[-75.089851,39.936182],[-75.090135,39.936064],[-75.090057,39.935156],[-75.089724,39.934693],[-75.088721,39.934354],[-75.086531,39.934806],[-75.086413,39.933372],[-75.086907,39.933561],[-75.087402,39.933119],[-75.088151,39.933088],[-75.088367,39.933279],[-75.09218,39.933013],[-75.092939,39.934135],[-75.094661,39.935334],[-75.094963,39.937281],[-75.094573,39.937585]]],[[[-75.094874,39.939396],[-75.09491,39.939423],[-75.094875,39.939423],[-75.094874,39.939396]]],[[[-75.105667,39.941893],[-75.104879,39.941513],[-75.105719,39.939724],[-75.105391,39.938929],[-75.104147,39.939375],[-75.103765,39.940558],[-75.103341,39.940944],[-75.102768,39.940673],[-75.097558,39.94037],[-75.095831,39.93865],[-75.09577,39.93983],[-75.09498,39.939285],[-75.094874,39.939396],[-75.094803,39.939396],[-75.094839,39.939478],[-75.094589,39.939452],[-75.093837,39.939044],[-75.093727,39.938688],[-75.094189,39.938493],[-75.094693,39.939067],[-75.094727,39.93882],[-75.095228,39.939092],[-75.095544,39.938431],[-75.094681,39.937695],[-75.095249,39.937362],[-75.097295,39.938834],[-75.098473,39.93902],[-75.098715,39.938113],[-75.098688,39.939074],[-75.100008,39.939122],[-75.101691,39.93991],[-75.101903,39.939661],[-75.101679,39.938564],[-75.10193,39.9387],[-75.102081,39.939661],[-75.102511,39.939878],[-75.10308,39.939683],[-75.103041,39.939299],[-75.103715,39.938883],[-75.106135,39.938322],[-75.106515,39.940983],[-75.105667,39.941893]],[[-75.095617,39.938706],[-75.095617,39.938706],[-75.095689,39.938705],[-75.095617,39.938706]],[[-75.09498,39.939285],[-75.095015,39.939175],[-75.094979,39.939176],[-75.09498,39.939285]]],[[[-75.096027,39.940763],[-75.096493,39.94098],[-75.096425,39.94131],[-75.096031,39.941202],[-75.095886,39.9409],[-75.095853,39.941203],[-75.095281,39.941096],[-75.09567,39.940627],[-75.095273,39.94008],[-75.096381,39.940404],[-75.095989,39.940406],[-75.096027,39.940763]],[[-75.095989,39.940406],[-75.095953,39.940379],[-75.095953,39.940406],[-75.095989,39.940406]]],[[[-75.101855,39.94647],[-75.101891,39.946497],[-75.101856,39.946498],[-75.101855,39.94647]]],[[[-75.10182,39.946553],[-75.101856,39.946498],[-75.101856,39.946553],[-75.10182,39.946553]]],[[[-75.101749,39.946553],[-75.101821,39.946608],[-75.101749,39.946581],[-75.101749,39.946553]]],[[[-75.101749,39.946581],[-75.101714,39.946608],[-75.101714,39.946581],[-75.101749,39.946581]]],[[[-75.089788,39.965915],[-75.089245,39.965066],[-75.090385,39.964868],[-75.090532,39.965279],[-75.090144,39.965803],[-75.089788,39.965915]]],[[[-75.088329,39.966416],[-75.087504,39.965871],[-75.08775,39.965403],[-75.088178,39.965401],[-75.08843,39.965674],[-75.088678,39.965426],[-75.089142,39.965451],[-75.089109,39.965808],[-75.088362,39.966004],[-75.088329,39.966416]]]]}}]}