{"type":"FeatureCollection","features":[{"type":"Feature","properties":{"level_ft":16},"geometry":{"type":"MultiPolygon","coordinates":[[[[-75.099697,39.899398],[-75.099732,39.899343],[-75.099732,39.899398],[-75.099697,39.899398]]],[[[-75.099661,39.899426],[-75.099697,39.89948],[-75.099662,39.899481],[-75.099661,39.899426]]],[[[-75.110862,39.900328],[-75.112755,39.900812],[-75.115267,39.902666],[-75.115124,39.902667],[-75.11491,39.902585],[-75.114767,39.902586],[-75.114088,39.902398],[-75.112907,39.901882],[-75.110862,39.900328]]],[[[-75.113804,39.902536],[-75.113733,39.902509],[-75.113804,39.902509],[-75.113804,39.902536]]],[[[-75.113521,39.902758],[-75.112627,39.902405],[-75.113806,39.902756],[-75.113521,39.902758]]],[[[-75.115339,39.902693],[-75.115267,39.902666],[-75.115338,39.902666],[-75.115339,39.902693]]],[[[-75.106837,39.916794],[-75.106872,39.916821],[-75.106837,39.916822],[-75.106837,39.916794]]],[[[-75.107302,39.916984],[-75.107337,39.916956],[-75.107337,39.916984],[-75.107302,39.916984]]],[[[-75.112472,39.917012],[-75.112507,39.916984],[-75.112507,39.917011],[-75.112472,39.917012]]],[[[-75.12023,39.947032],[-75.119586,39.946789],[-75.119655,39.946569],[-75.120262,39.946593],[-75.120294,39.946208],[-75.120827,39.946013],[-75.120823,39.945519],[-75.12175,39.945514],[-75.122031,39.944991],[-75.121314,39.944638],[-75.121165,39.94398],[-75.120663,39.943626],[-75.120057,39.943711],[-75.119446,39.94322],[-75.118663,39.943389],[-75.118445,39.942869],[-75.116944,39.942602],[-75.116799,39.942274],[-75.118046,39.942157],[-75.118042,39.94169],[-75.117719,39.941555],[-75.117964,39.941032],[-75.117607,39.940924],[-75.117431,39.941254],[-75.117428,39.940898],[-75.117,39.940872],[-75.11732,39.940706],[-75.117102,39.94035],[-75.11735,39.940102],[-75.116814,39.939967],[-75.117164,39.939307],[-75.116663,39.939117],[-75.117055,39.939088],[-75.116697,39.938925],[-75.116906,39.938402],[-75.117512,39.938316],[-75.118084,39.938451],[-75.117657,39.93859],[-75.117986,39.939494],[-75.118629,39.939546],[-75.118698,39.939326],[-75.119162,39.939323],[-75.119195,39.939104],[-75.12066,39.939315],[-75.120761,39.938711],[-75.120228,39.938961],[-75.119764,39.938936],[-75.119584,39.93869],[-75.120115,39.938275],[-75.120473,39.938356],[-75.120718,39.937942],[-75.120467,39.937779],[-75.120859,39.937722],[-75.120892,39.937392],[-75.121358,39.937692],[-75.121426,39.93728],[-75.121067,39.937035],[-75.121457,39.936758],[-75.121419,39.936511],[-75.12092,39.936514],[-75.121271,39.935908],[-75.120556,39.935775],[-75.120874,39.935443],[-75.120407,39.935034],[-75.120618,39.934676],[-75.120365,39.934293],[-75.120611,39.93399],[-75.120181,39.933663],[-75.120392,39.933387],[-75.120071,39.933334],[-75.119743,39.932622],[-75.1191,39.932433],[-75.11924,39.932185],[-75.118813,39.93227],[-75.119237,39.931828],[-75.118879,39.931748],[-75.11835,39.932355],[-75.118202,39.931806],[-75.117956,39.932137],[-75.117774,39.931781],[-75.117742,39.932193],[-75.117489,39.931838],[-75.11642,39.931926],[-75.116247,39.932476],[-75.116854,39.93261],[-75.116213,39.932668],[-75.11611,39.93308],[-75.115857,39.932725],[-75.115539,39.933056],[-75.115146,39.932976],[-75.115471,39.933386],[-75.114794,39.933472],[-75.114511,39.933748],[-75.114224,39.933584],[-75.113833,39.933751],[-75.114728,39.934131],[-75.114123,39.934189],[-75.114054,39.934436],[-75.113447,39.934385],[-75.113487,39.934879],[-75.112705,39.935212],[-75.112564,39.935405],[-75.112887,39.935596],[-75.112496,39.935735],[-75.113249,39.936143],[-75.112858,39.936337],[-75.113075,39.93672],[-75.113397,39.936773],[-75.113502,39.936553],[-75.113646,39.936772],[-75.114039,39.93677],[-75.113648,39.936937],[-75.11376,39.937513],[-75.114436,39.937372],[-75.114831,39.937617],[-75.11394,39.937704],[-75.113587,39.938145],[-75.113086,39.937928],[-75.113341,39.938531],[-75.112947,39.938368],[-75.113099,39.939356],[-75.112631,39.938919],[-75.111634,39.935026],[-75.111728,39.933543],[-75.112358,39.932249],[-75.113488,39.931008],[-75.115295,39.929708],[-75.114868,39.92982],[-75.115924,39.928222],[-75.116174,39.92833],[-75.116208,39.928166],[-75.116746,39.916522],[-75.116517,39.914904],[-75.116902,39.914051],[-75.116651,39.913887],[-75.116863,39.913639],[-75.116505,39.913531],[-75.116143,39.912874],[-75.116129,39.911364],[-75.115625,39.910818],[-75.115381,39.911451],[-75.114991,39.911645],[-75.115385,39.911835],[-75.11564,39.912438],[-75.115544,39.913756],[-75.116218,39.917349],[-75.11598,39.918585],[-75.115734,39.926988],[-75.114496,39.928037],[-75.114852,39.928008],[-75.115069,39.928336],[-75.114862,39.929161],[-75.112458,39.931507],[-75.11137,39.93349],[-75.110945,39.933794],[-75.110824,39.93223],[-75.111102,39.931405],[-75.11163,39.930633],[-75.111879,39.930495],[-75.113859,39.928617],[-75.114317,39.928038],[-75.113998,39.928232],[-75.112655,39.929585],[-75.112513,39.929613],[-75.111276,39.930882],[-75.110648,39.932423],[-75.110808,39.934426],[-75.110416,39.934428],[-75.108975,39.932816],[-75.104352,39.930287],[-75.106064,39.930306],[-75.106739,39.929945],[-75.107666,39.92994],[-75.108835,39.929083],[-75.108541,39.928124],[-75.108964,39.92749],[-75.108712,39.927299],[-75.108996,39.927106],[-75.108734,39.925707],[-75.109444,39.925346],[-75.109157,39.925128],[-75.109797,39.924987],[-75.109867,39.924767],[-75.109472,39.924522],[-75.110041,39.9243],[-75.109749,39.923587],[-75.109285,39.92348],[-75.109318,39.923205],[-75.108032,39.922992],[-75.108208,39.92269],[-75.107781,39.922857],[-75.107458,39.922556],[-75.107209,39.922667],[-75.106494,39.922369],[-75.106667,39.921847],[-75.105554,39.920946],[-75.105866,39.919929],[-75.105505,39.919382],[-75.105113,39.919411],[-75.105073,39.918917],[-75.107426,39.918933],[-75.107817,39.918766],[-75.108032,39.918984],[-75.108067,39.918819],[-75.109064,39.918732],[-75.109419,39.918483],[-75.110381,39.918478],[-75.11074,39.918723],[-75.111415,39.918472],[-75.111631,39.918746],[-75.112267,39.918083],[-75.112944,39.918025],[-75.112516,39.917945],[-75.112656,39.917697],[-75.112943,39.917833],[-75.113119,39.91764],[-75.11323,39.918051],[-75.113619,39.917719],[-75.113729,39.918076],[-75.114083,39.917744],[-75.114193,39.918073],[-75.114401,39.917468],[-75.113904,39.917663],[-75.113866,39.917416],[-75.113545,39.917418],[-75.113864,39.917224],[-75.113719,39.916978],[-75.112329,39.916958],[-75.113254,39.916815],[-75.113288,39.916541],[-75.112893,39.916323],[-75.112252,39.916409],[-75.111712,39.915725],[-75.110928,39.915867],[-75.109394,39.915738],[-75.109074,39.915849],[-75.108688,39.916537],[-75.108084,39.916788],[-75.106337,39.916769],[-75.106694,39.916795],[-75.106338,39.916852],[-75.107443,39.916873],[-75.107586,39.916928],[-75.10527,39.917022],[-75.105132,39.917572],[-75.104702,39.917327],[-75.103173,39.917829],[-75.102562,39.917201],[-75.101536,39.917179],[-75.099865,39.913659],[-75.099497,39.913857],[-75.098545,39.91379],[-75.098005,39.914078],[-75.097647,39.913585],[-75.097222,39.913508],[-75.096244,39.913898],[-75.094602,39.912098],[-75.094746,39.912162],[-75.094307,39.910874],[-75.094242,39.911588],[-75.09327,39.91055],[-75.093618,39.909615],[-75.093133,39.909398],[-75.096955,39.908319],[-75.097411,39.907987],[-75.09691,39.906823],[-75.097049,39.906413],[-75.096615,39.905728],[-75.09664,39.906195],[-75.094606,39.901418],[-75.096076,39.901174],[-75.100285,39.901509],[-75.100569,39.90137],[-75.100318,39.901207],[-75.097999,39.900944],[-75.097818,39.900616],[-75.098207,39.900284],[-75.09771,39.900452],[-75.097536,39.901002],[-75.096217,39.900926],[-75.099414,39.89929],[-75.099624,39.899248],[-75.099519,39.899481],[-75.099698,39.89959],[-75.099909,39.899232],[-75.101289,39.898895],[-75.102259,39.899174],[-75.103243,39.900035],[-75.104877,39.900527],[-75.107941,39.900238],[-75.110063,39.89908],[-75.111838,39.898569],[-75.113326,39.899455],[-75.113874,39.901102],[-75.116358,39.902119],[-75.11655,39.902879],[-75.115194,39.902502],[-75.113112,39.900893],[-75.112397,39.900567],[-75.112822,39.90029],[-75.112745,39.899714],[-75.111742,39.899088],[-75.111386,39.899117],[-75.111994,39.899334],[-75.11264,39.899934],[-75.112574,39.900429],[-75.109648,39.900142],[-75.108369,39.900643],[-75.109046,39.900585],[-75.109121,39.900969],[-75.109544,39.900472],[-75.110826,39.900328],[-75.110829,39.900685],[-75.111513,39.90145],[-75.113733,39.902482],[-75.110587,39.901483],[-75.109695,39.901378],[-75.112768,39.902295],[-75.110841,39.90203],[-75.110201,39.902199],[-75.110593,39.902224],[-75.111026,39.902743],[-75.11095,39.902222],[-75.111949,39.902354],[-75.111956,39.90315],[-75.112749,39.904107],[-75.112241,39.903121],[-75.112343,39.902572],[-75.11363,39.902949],[-75.113672,39.903635],[-75.113774,39.903113],[-75.114308,39.903055],[-75.11402,39.9027],[-75.116513,39.903126],[-75.116286,39.90374],[-75.11488,39.9054],[-75.114715,39.906125],[-75.117488,39.90849],[-75.120177,39.908514],[-75.121403,39.907762],[-75.122836,39.907428],[-75.129344,39.907381],[-75.129091,39.911608],[-75.12984,39.915359],[-75.135874,39.927639],[-75.136621,39.93037],[-75.136805,39.937021],[-75.136556,39.941533],[-75.135631,39.947459],[-75.134194,39.952774],[-75.124119,39.951075],[-75.122224,39.950563],[-75.12079,39.949857],[-75.119713,39.949012],[-75.119493,39.948354],[-75.119667,39.947941],[-75.119023,39.947698],[-75.11952,39.947366],[-75.119232,39.947175],[-75.119982,39.947226],[-75.12023,39.947032]],[[-75.119924,39.93295],[-75.11996,39.932923],[-75.119924,39.932923],[-75.119924,39.93295]],[[-75.115259,39.929653],[-75.115294,39.929625],[-75.115259,39.929626],[-75.115259,39.929653]],[[-75.115294,39.929625],[-75.11533,39.929598],[-75.115294,39.929598],[-75.115294,39.929625]],[[-75.11533,39.929598],[-75.115365,39.92957],[-75.115329,39.92957],[-75.11533,39.929598]],[[-75.116109,39.91713],[-75.116073,39.917075],[-75.116074,39.91713],[-75.116109,39.91713]],[[-75.110861,39.932312],[-75.110896,39.932257],[-75.11086,39.932257],[-75.110861,39.932312]],[[-75.114353,39.928038],[-75.114636,39.92779],[-75.1146,39.927707],[-75.114494,39.927818],[-75.114458,39.927818],[-75.114458,39.927845],[-75.114423,39.927846],[-75.114423,39.927873],[-75.114387,39.927873],[-75.114387,39.927901],[-75.114352,39.927901],[-75.114352,39.927928],[-75.114316,39.927929],[-75.114353,39.928038]],[[-75.114636,39.927735],[-75.114671,39.927707],[-75.114635,39.927707],[-75.114636,39.927735]],[[-75.114671,39.927707],[-75.114706,39.927679],[-75.114671,39.92768],[-75.114671,39.927707]],[[-75.114706,39.927679],[-75.114742,39.927652],[-75.114706,39.927652],[-75.114706,39.927679]],[[-75.114742,39.927652],[-75.114777,39.927624],[-75.114742,39.927624],[-75.114742,39.927652]],[[-75.114282,39.928039],[-75.114246,39.928011],[-75.114246,39.928039],[-75.114282,39.928039]],[[-75.094746,39.912162],[-75.094781,39.91219],[-75.094781,39.912162],[-75.094746,39.912162]],[[-75.099734,39.899535],[-75.099769,39.899562],[-75.099769,39.899535],[-75.099734,39.899535]],[[-75.111168,39.902743],[-75.111204,39.90277],[-75.111204,39.902742],[-75.111168,39.902743]],[[-75.114273,39.903138],[-75.114309,39.903165],[-75.114309,39.903138],[-75.114273,39.903138]],[[-75.12023,39.947032],[-75.120266,39.94706],[-75.120266,39.947032],[-75.12023,39.947032]],[[-75.094342,39.910828],[-75.094342,39.910819],[-75.094342,39.910819],[-75.094342,39.910828]],[[-75.094806,39.910844],[-75.094842,39.910909],[-75.094841,39.910844],[-75.094806,39.910844]],[[-75.094806,39.910844],[-75.094769,39.910762],[-75.09477,39.910844],[-75.094806,39.910844]],[[-75.094768,39.91068],[-75.094623,39.910323],[-75.094551,39.910324],[-75.094483,39.910709],[-75.094768,39.91068]],[[-75.094483,39.910709],[-75.094448,39.910736],[-75.094484,39.910736],[-75.094483,39.910709]],[[-75.094878,39.910981],[-75.094914,39.911047],[-75.094914,39.910981],[-75.094878,39.910981]],[[-75.094878,39.910981],[-75.094842,39.910926],[-75.094842,39.910981],[-75.094878,39.910981]],[[-75.094914,39.911063],[-75.094951,39.911128],[-75.09495,39.911063],[-75.094914,39.911063]],[[-75.094921,39.911777],[-75.094921,39.911804],[-75.094921,39.911777],[-75.094921,39.911777]],[[-75.094951,39.911145],[-75.094987,39.911244],[-75.094986,39.911145],[-75.094951,39.911145]],[[-75.094956,39.911749],[-75.094956,39.911749],[-75.094992,39.911749],[-75.094956,39.911749]],[[-75.094987,39.911255],[-75.095023,39.91129],[-75.095023,39.911255],[-75.094987,39.911255]],[[-75.095024,39.911337],[-75.09506,39.911372],[-75.095059,39.911337],[-75.095024,39.911337]],[[-75.09506,39.911392],[-75.095096,39.911452],[-75.095095,39.911392],[-75.09506,39.911392]],[[-75.095096,39.911474],[-75.095169,39.911611],[-75.095132,39.911474],[-75.095096,39.911474]]],[[[-75.116163,39.927123],[-75.116092,39.927068],[-75.116161,39.926903],[-75.116163,39.927123]]],[[[-75.114494,39.927873],[-75.114458,39.927845],[-75.114494,39.927845],[-75.114494,39.927873]]],[[[-75.114459,39.9279],[-75.114423,39.927873],[-75.114458,39.927873],[-75.114459,39.9279]]],[[[-75.114423,39.927928],[-75.114387,39.927901],[-75.114423,39.9279],[-75.114423,39.927928]]],[[[-75.114105,39.928204],[-75.114069,39.928232],[-75.114069,39.928204],[-75.114105,39.928204]]],[[[-75.113929,39.928452],[-75.113965,39.928479],[-75.113929,39.92848],[-75.113929,39.928452]]],[[[-75.112762,39.929584],[-75.112727,39.929612],[-75.112726,39.929584],[-75.112762,39.929584]]],[[[-75.111836,39.93777],[-75.111873,39.937825],[-75.111837,39.937825],[-75.111836,39.93777]]],[[[-75.111873,39.937907],[-75.11191,39.937962],[-75.111874,39.937962],[-75.111873,39.937907]]],[[[-75.11191,39.938017],[-75.111946,39.938099],[-75.111911,39.938099],[-75.11191,39.938017]]],[[[-75.111947,39.938154],[-75.111983,39.938236],[-75.111948,39.938236],[-75.111947,39.938154]]],[[[-75.111984,39.938263],[-75.112019,39.938291],[-75.111984,39.938291],[-75.111984,39.938263]]],[[[-75.113137,39.939575],[-75.11296,39.939823],[-75.112993,39.939494],[-75.113137,39.939575]]],[[[-75.112571,39.9401],[-75.1125,39.940155],[-75.112499,39.940045],[-75.112571,39.9401]]],[[[-75.113984,39.942618],[-75.113627,39.942538],[-75.113911,39.942454],[-75.113984,39.942618]]],[[[-75.116303,39.942743],[-75.116339,39.94277],[-75.116304,39.94277],[-75.116303,39.942743]]],[[[-75.114023,39.94303],[-75.113664,39.942784],[-75.116196,39.942716],[-75.116448,39.942907],[-75.115844,39.943212],[-75.114023,39.94303]]],[[[-75.111566,39.943399],[-75.111567,39.943592],[-75.111247,39.943648],[-75.111566,39.943399]]],[[[-75.117726,39.954211],[-75.118155,39.954236],[-75.11847,39.953603],[-75.118288,39.953247],[-75.118573,39.953191],[-75.118462,39.952697],[-75.119424,39.95261],[-75.119244,39.952418],[-75.119707,39.952361],[-75.119027,39.952118],[-75.119097,39.951925],[-75.120274,39.951919],[-75.120273,39.951754],[-75.11963,39.951675],[-75.120162,39.951315],[-75.119518,39.951099],[-75.119729,39.950769],[-75.119836,39.950796],[-75.12005,39.950767],[-75.119976,39.95052],[-75.119477,39.950523],[-75.119545,39.950166],[-75.119331,39.950167],[-75.119429,39.949233],[-75.120973,39.950268],[-75.122834,39.951027],[-75.134099,39.953052],[-75.132573,39.956557],[-75.130162,39.959455],[-75.125749,39.962444],[-75.122172,39.964298],[-75.119748,39.96171],[-75.118447,39.960723],[-75.115839,39.959328],[-75.110143,39.958016],[-75.108033,39.958011],[-75.106227,39.958401],[-75.104126,39.95944],[-75.096972,39.964978],[-75.093629,39.966868],[-75.08807,39.969398],[-75.083416,39.963064],[-75.084413,39.963224],[-75.084914,39.963413],[-75.08506,39.963715],[-75.085344,39.963576],[-75.086276,39.96412],[-75.086597,39.964064],[-75.086524,39.963872],[-75.08706,39.963952],[-75.08699,39.964172],[-75.087638,39.964827],[-75.088101,39.96477],[-75.08881,39.964162],[-75.088197,39.963424],[-75.088407,39.963039],[-75.088122,39.962985],[-75.088263,39.962793],[-75.087973,39.9623],[-75.087969,39.961888],[-75.088435,39.96205],[-75.088182,39.961722],[-75.088356,39.9612],[-75.086884,39.960137],[-75.087095,39.959751],[-75.087381,39.959805],[-75.087379,39.959585],[-75.087022,39.959504],[-75.087375,39.959146],[-75.086295,39.957943],[-75.086575,39.957338],[-75.085964,39.956874],[-75.08614,39.956571],[-75.085497,39.95641],[-75.085393,39.956767],[-75.084925,39.95633],[-75.087334,39.954342],[-75.087761,39.95423],[-75.088015,39.95475],[-75.088587,39.954829],[-75.088769,39.95524],[-75.089946,39.955262],[-75.089914,39.955701],[-75.090631,39.956054],[-75.090741,39.956383],[-75.091097,39.956381],[-75.091207,39.95671],[-75.092561,39.956539],[-75.092285,39.957556],[-75.092716,39.957883],[-75.092685,39.95846],[-75.093043,39.958623],[-75.092801,39.959475],[-75.09323,39.959665],[-75.093018,39.959886],[-75.093381,39.960598],[-75.09317,39.960956],[-75.093676,39.961667],[-75.094391,39.961883],[-75.095247,39.961769],[-75.095244,39.961522],[-75.095847,39.961052],[-75.096416,39.960884],[-75.096261,39.95943],[-75.095867,39.959212],[-75.095282,39.957623],[-75.095914,39.956412],[-75.095837,39.955753],[-75.09771,39.953794],[-75.097312,39.953138],[-75.097561,39.953026],[-75.097486,39.952588],[-75.097094,39.952672],[-75.097125,39.952123],[-75.097375,39.952204],[-75.097479,39.951846],[-75.097195,39.95193],[-75.096871,39.951602],[-75.097406,39.951682],[-75.097046,39.951217],[-75.097547,39.951462],[-75.097618,39.951434],[-75.097115,39.95097],[-75.096794,39.950971],[-75.096358,39.950095],[-75.095932,39.950289],[-75.095858,39.950043],[-75.095185,39.950595],[-75.095927,39.94974],[-75.095148,39.950458],[-75.093444,39.951373],[-75.092088,39.95127],[-75.091447,39.951465],[-75.091304,39.951439],[-75.091305,39.951466],[-75.091233,39.951467],[-75.091234,39.951494],[-75.091091,39.951522],[-75.091091,39.95155],[-75.090983,39.95144],[-75.093853,39.949174],[-75.094384,39.948733],[-75.094348,39.948678],[-75.094774,39.948401],[-75.094773,39.948291],[-75.09488,39.948318],[-75.094951,39.94829],[-75.094914,39.948098],[-75.09502,39.947988],[-75.095127,39.948015],[-75.095447,39.947876],[-75.095695,39.947683],[-75.095838,39.947709],[-75.096762,39.947293],[-75.096797,39.94721],[-75.097908,39.947863],[-75.098157,39.94778],[-75.098444,39.947943],[-75.098515,39.947888],[-75.097942,39.947671],[-75.097511,39.947289],[-75.097333,39.94729],[-75.096544,39.946855],[-75.096367,39.946965],[-75.096689,39.947101],[-75.096761,39.947238],[-75.096583,39.947184],[-75.096512,39.947239],[-75.09644,39.947239],[-75.096441,39.947267],[-75.096369,39.947267],[-75.09637,39.947295],[-75.096298,39.947295],[-75.096263,39.94735],[-75.096192,39.947351],[-75.096192,39.947378],[-75.096156,39.947378],[-75.096157,39.947433],[-75.096085,39.947406],[-75.096014,39.947461],[-75.095943,39.947462],[-75.095943,39.947489],[-75.095907,39.947489],[-75.095908,39.947517],[-75.095836,39.947517],[-75.095766,39.947572],[-75.095694,39.947573],[-75.095659,39.947628],[-75.095374,39.947712],[-75.095339,39.947767],[-75.095126,39.947823],[-75.09509,39.947878],[-75.094948,39.947906],[-75.094806,39.948017],[-75.094628,39.948072],[-75.094452,39.948238],[-75.094416,39.948238],[-75.094416,39.948266],[-75.09399,39.948542],[-75.093424,39.949012],[-75.092569,39.949209],[-75.093811,39.948379],[-75.093065,39.948767],[-75.092993,39.948657],[-75.092743,39.948713],[-75.092637,39.948824],[-75.092849,39.948548],[-75.092136,39.948579],[-75.091274,39.947897],[-75.091164,39.947541],[-75.09099,39.948009],[-75.090843,39.947515],[-75.090521,39.947489],[-75.090732,39.947104],[-75.090411,39.947133],[-75.090374,39.946914],[-75.090836,39.946774],[-75.090946,39.947048],[-75.091231,39.946992],[-75.090905,39.946472],[-75.091044,39.946059],[-75.090723,39.946061],[-75.09062,39.946501],[-75.090328,39.945761],[-75.088899,39.945494],[-75.088969,39.945356],[-75.088182,39.945058],[-75.087816,39.943989],[-75.087502,39.944732],[-75.087357,39.94454],[-75.087109,39.944761],[-75.087385,39.943607],[-75.08703,39.943828],[-75.086851,39.943719],[-75.087027,39.943417],[-75.086775,39.943171],[-75.087168,39.943251],[-75.087202,39.943059],[-75.086197,39.942295],[-75.086372,39.941882],[-75.085907,39.94183],[-75.085333,39.941366],[-75.085048,39.94145],[-75.084974,39.941148],[-75.083721,39.940605],[-75.089268,39.935738],[-75.089851,39.936182],[-75.090135,39.936064],[-75.090084,39.935271],[-75.089724,39.934693],[-75.088931,39.934367],[-75.087064,39.93482],[-75.08639,39.934661],[-75.086313,39.932656],[-75.085922,39.931765],[-75.087362,39.929346],[-75.087435,39.927986],[-75.087105,39.927059],[-75.086365,39.926725],[-75.083626,39.926701],[-75.08138,39.925993],[-75.085629,39.923931],[-75.085579,39.924234],[-75.085937,39.924424],[-75.08715,39.9245],[-75.087295,39.924719],[-75.088653,39.925042],[-75.090043,39.925035],[-75.090724,39.925443],[-75.091111,39.924864],[-75.090325,39.924621],[-75.090251,39.92432],[-75.09114,39.924013],[-75.091856,39.924421],[-75.091859,39.924751],[-75.092218,39.924996],[-75.092117,39.925738],[-75.092582,39.925845],[-75.092728,39.926284],[-75.093194,39.926556],[-75.094336,39.926633],[-75.094624,39.926906],[-75.094447,39.927154],[-75.093593,39.927323],[-75.093811,39.927761],[-75.093563,39.927982],[-75.09317,39.927901],[-75.092709,39.928151],[-75.091566,39.927964],[-75.09192,39.927688],[-75.091669,39.927442],[-75.091353,39.928075],[-75.090105,39.928082],[-75.089603,39.927755],[-75.089179,39.928224],[-75.089864,39.929044],[-75.090013,39.929812],[-75.089131,39.930942],[-75.089741,39.931405],[-75.090169,39.931403],[-75.09157,39.932522],[-75.091854,39.932438],[-75.092356,39.932765],[-75.092756,39.933641],[-75.093619,39.934433],[-75.094438,39.934346],[-75.094689,39.93451],[-75.095098,39.936402],[-75.095631,39.936152],[-75.095917,39.936261],[-75.095461,39.937169],[-75.095823,39.937744],[-75.09696,39.937299],[-75.098246,39.937457],[-75.099064,39.937288],[-75.099629,39.936626],[-75.09981,39.936845],[-75.100916,39.936976],[-75.100199,39.936568],[-75.100449,39.936512],[-75.10034,39.936348],[-75.100982,39.936289],[-75.100517,39.936237],[-75.100655,39.935632],[-75.100369,39.935551],[-75.100543,39.935084],[-75.100217,39.934481],[-75.100574,39.934507],[-75.100426,39.933904],[-75.100819,39.934012],[-75.100744,39.9336],[-75.101456,39.933487],[-75.10148,39.932086],[-75.102084,39.931864],[-75.101939,39.931617],[-75.103045,39.931612],[-75.102792,39.931283],[-75.103145,39.930897],[-75.104036,39.93081],[-75.103996,39.930316],[-75.106968,39.931728],[-75.109085,39.933117],[-75.110309,39.934429],[-75.111217,39.936318],[-75.112735,39.942597],[-75.11256,39.942928],[-75.111776,39.943041],[-75.11089,39.943623],[-75.106476,39.944579],[-75.111853,39.943645],[-75.112527,39.94323],[-75.112807,39.942569],[-75.113235,39.942595],[-75.112923,39.943585],[-75.111712,39.943838],[-75.111573,39.944196],[-75.111145,39.944253],[-75.111041,39.944583],[-75.111581,39.945102],[-75.111155,39.945323],[-75.112653,39.945398],[-75.112218,39.944604],[-75.112751,39.944327],[-75.112972,39.945122],[-75.113688,39.945392],[-75.114054,39.946461],[-75.110661,39.945903],[-75.111662,39.946172],[-75.11131,39.946723],[-75.111384,39.946997],[-75.111772,39.946501],[-75.111708,39.947325],[-75.111066,39.94741],[-75.110855,39.947713],[-75.110637,39.947248],[-75.110064,39.947031],[-75.109883,39.946703],[-75.109917,39.94651],[-75.110561,39.946782],[-75.110882,39.946698],[-75.110806,39.946259],[-75.109521,39.946101],[-75.109416,39.946321],[-75.108916,39.946324],[-75.108883,39.946543],[-75.109241,39.946761],[-75.109065,39.946927],[-75.109463,39.947611],[-75.110108,39.947992],[-75.110003,39.948212],[-75.110399,39.948594],[-75.110553,39.949856],[-75.110912,39.950102],[-75.110811,39.950843],[-75.111276,39.950923],[-75.111708,39.951388],[-75.111103,39.951556],[-75.1118,39.953693],[-75.1128,39.95388],[-75.113018,39.954318],[-75.113446,39.954206],[-75.113879,39.954781],[-75.114053,39.954368],[-75.114091,39.954532],[-75.114626,39.95453],[-75.114808,39.954995],[-75.115772,39.955072],[-75.115918,39.955429],[-75.116309,39.955289],[-75.116208,39.955921],[-75.116458,39.955947],[-75.117098,39.955724],[-75.117309,39.955394],[-75.116986,39.955148],[-75.117091,39.954928],[-75.117518,39.954898],[-75.117231,39.954708],[-75.11773,39.954568],[-75.117726,39.954211]],[[-75.097619,39.951461],[-75.09769,39.951488],[-75.09769,39.951461],[-75.097619,39.951461]],[[-75.095927,39.94974],[-75.095962,39.949713],[-75.095927,39.949713],[-75.095927,39.94974]],[[-75.095962,39.949658],[-75.096034,39.949685],[-75.096033,39.94963],[-75.095962,39.949658]],[[-75.091483,39.95141],[-75.091447,39.951383],[-75.091447,39.951411],[-75.091483,39.95141]],[[-75.091055,39.951495],[-75.091091,39.951467],[-75.091055,39.951467],[-75.091055,39.951495]],[[-75.092047,39.950639],[-75.092083,39.950666],[-75.092082,39.950639],[-75.092047,39.950639]],[[-75.094455,39.948622],[-75.094491,39.94865],[-75.094491,39.948622],[-75.094455,39.948622]],[[-75.094985,39.948098],[-75.095093,39.94818],[-75.0952,39.948152],[-75.095163,39.948042],[-75.095092,39.948043],[-75.095092,39.94807],[-75.095056,39.94807],[-75.095057,39.948098],[-75.094985,39.948098]],[[-75.095093,39.94818],[-75.095058,39.948207],[-75.095093,39.948207],[-75.095093,39.94818]],[[-75.0952,39.948124],[-75.095235,39.948097],[-75.095199,39.948097],[-75.0952,39.948124]],[[-75.095163,39.948015],[-75.095235,39.948069],[-75.095234,39.948014],[-75.095163,39.948015]],[[-75.095234,39.948014],[-75.095305,39.947987],[-75.095234,39.947987],[-75.095234,39.948014]],[[-75.095306,39.948041],[-75.095377,39.948069],[-75.095377,39.948041],[-75.095306,39.948041]],[[-75.095306,39.948069],[-75.095271,39.948097],[-75.095306,39.948096],[-75.095306,39.948069]],[[-75.095377,39.948041],[-75.095413,39.948013],[-75.095377,39.948014],[-75.095377,39.948041]],[[-75.095305,39.947987],[-75.095412,39.947931],[-75.095305,39.947959],[-75.095305,39.947987]],[[-75.097834,39.947479],[-75.097869,39.947452],[-75.097833,39.947452],[-75.097834,39.947479]],[[-75.097511,39.947289],[-75.097546,39.947261],[-75.097511,39.947261],[-75.097511,39.947289]],[[-75.097081,39.947099],[-75.097152,39.947044],[-75.097009,39.946989],[-75.096973,39.947017],[-75.09701,39.947099],[-75.097081,39.947099]],[[-75.097187,39.946961],[-75.097259,39.947071],[-75.097366,39.946988],[-75.097187,39.946961]],[[-75.09733,39.947043],[-75.097295,39.947098],[-75.097402,39.947042],[-75.09733,39.947043]],[[-75.097295,39.947098],[-75.097224,39.947126],[-75.097295,39.947125],[-75.097295,39.947098]],[[-75.09733,39.94696],[-75.097401,39.946933],[-75.097329,39.946905],[-75.09733,39.94696]],[[-75.097365,39.946905],[-75.0974,39.946878],[-75.097365,39.946878],[-75.097365,39.946905]],[[-75.097187,39.946961],[-75.097151,39.946934],[-75.097151,39.946961],[-75.097187,39.946961]],[[-75.096795,39.946991],[-75.096866,39.946963],[-75.096795,39.946963],[-75.096795,39.946991]],[[-75.096866,39.946963],[-75.096901,39.946935],[-75.096866,39.946935],[-75.096866,39.946963]],[[-75.096546,39.947102],[-75.096475,39.947129],[-75.096546,39.947129],[-75.096546,39.947102]],[[-75.096475,39.947129],[-75.096404,39.947157],[-75.096475,39.947157],[-75.096475,39.947129]],[[-75.096404,39.947157],[-75.096369,39.947185],[-75.096404,39.947185],[-75.096404,39.947157]],[[-75.09669,39.947183],[-75.096654,39.947156],[-75.096654,39.947183],[-75.09669,39.947183]],[[-75.09381,39.948351],[-75.093989,39.948323],[-75.093988,39.948295],[-75.09381,39.948351]],[[-75.093988,39.948295],[-75.094095,39.94824],[-75.093988,39.948268],[-75.093988,39.948295]],[[-75.094095,39.94824],[-75.094166,39.948212],[-75.094095,39.948212],[-75.094095,39.94824]],[[-75.094166,39.948212],[-75.094201,39.948184],[-75.094166,39.948185],[-75.094166,39.948212]],[[-75.094201,39.948184],[-75.094272,39.948157],[-75.094201,39.948157],[-75.094201,39.948184]],[[-75.094272,39.948157],[-75.094308,39.948129],[-75.094272,39.948129],[-75.094272,39.948157]],[[-75.095098,39.936402],[-75.095063,39.93643],[-75.095098,39.93643],[-75.095098,39.936402]],[[-75.100449,39.936512],[-75.100484,39.936539],[-75.100484,39.936512],[-75.100449,39.936512]],[[-75.100819,39.934012],[-75.100855,39.934039],[-75.100855,39.934011],[-75.100819,39.934012]],[[-75.109049,39.933118],[-75.109014,39.933145],[-75.109049,39.933145],[-75.109049,39.933118]],[[-75.111224,39.945131],[-75.111153,39.945104],[-75.111153,39.945131],[-75.111224,39.945131]],[[-75.110633,39.946781],[-75.110669,39.946808],[-75.110668,39.946781],[-75.110633,39.946781]],[[-75.117518,39.954898],[-75.117699,39.95509],[-75.117625,39.954898],[-75.117518,39.954898]],[[-75.11773,39.954568],[-75.117765,39.954595],[-75.117765,39.954568],[-75.11773,39.954568]]],[[[-75.115166,39.947142],[-75.114268,39.94646],[-75.113902,39.945446],[-75.114513,39.945937],[-75.114371,39.94602],[-75.115911,39.946698],[-75.115837,39.946424],[-75.11451,39.94558],[-75.115689,39.945849],[-75.116195,39.946587],[-75.117592,39.947266],[-75.117738,39.94754],[-75.117422,39.948145],[-75.117101,39.94812],[-75.116277,39.947712],[-75.115385,39.947717],[-75.115169,39.947444],[-75.115166,39.947142]],[[-75.115203,39.947251],[-75.115274,39.947223],[-75.115202,39.947224],[-75.115203,39.947251]]],[[[-75.097045,39.947017],[-75.097009,39.947044],[-75.097009,39.947017],[-75.097045,39.947017]]],[[[-75.097045,39.947072],[-75.097081,39.947044],[-75.097081,39.947071],[-75.097045,39.947072]]],[[[-75.096583,39.947239],[-75.096618,39.947211],[-75.096619,39.947239],[-75.096583,39.947239]]],[[[-75.096548,39.947266],[-75.096584,39.947294],[-75.096548,39.947294],[-75.096548,39.947266]]],[[[-75.096477,39.947294],[-75.096441,39.947267],[-75.096476,39.947267],[-75.096477,39.947294]]],[[[-75.097475,39.947316],[-75.097511,39.947344],[-75.097476,39.947344],[-75.097475,39.947316]]],[[[-75.09637,39.947377],[-75.096406,39.947349],[-75.096406,39.947377],[-75.09637,39.947377]]],[[[-75.096299,39.947377],[-75.096263,39.94735],[-75.096299,39.94735],[-75.096299,39.947377]]],[[[-75.096228,39.947405],[-75.096192,39.947378],[-75.096228,39.947378],[-75.096228,39.947405]]],[[[-75.096086,39.947461],[-75.096121,39.947433],[-75.096121,39.947461],[-75.096086,39.947461]]],[[[-75.096193,39.94746],[-75.096228,39.947488],[-75.096193,39.947488],[-75.096193,39.94746]]],[[[-75.096014,39.947489],[-75.096014,39.947461],[-75.09605,39.947461],[-75.09605,39.947489],[-75.096014,39.947489]]],[[[-75.096086,39.947516],[-75.09605,39.947489],[-75.096086,39.947488],[-75.096086,39.947516]]],[[[-75.095979,39.947516],[-75.095943,39.947489],[-75.095979,39.947489],[-75.095979,39.947516]]],[[[-75.096015,39.947516],[-75.095979,39.947544],[-75.095979,39.947516],[-75.096015,39.947516]]],[[[-75.095801,39.9476],[-75.095766,39.947572],[-75.095801,39.947572],[-75.095801,39.9476]]],[[[-75.095162,39.947932],[-75.095127,39.94796],[-75.095127,39.947933],[-75.095162,39.947932]]],[[[-75.095056,39.947988],[-75.095091,39.947933],[-75.095127,39.947987],[-75.095056,39.947988]]],[[[-75.094807,39.948044],[-75.094806,39.948017],[-75.094842,39.948016],[-75.094842,39.948044],[-75.094807,39.948044]]],[[[-75.094878,39.948071],[-75.094842,39.948044],[-75.094878,39.948044],[-75.094878,39.948071]]],[[[-75.095128,39.948097],[-75.095092,39.94807],[-75.095128,39.94807],[-75.095128,39.948097]]],[[[-75.095093,39.948125],[-75.095057,39.948098],[-75.095092,39.948097],[-75.095093,39.948125]]],[[[-75.094736,39.948099],[-75.094772,39.948127],[-75.094736,39.948127],[-75.094736,39.948099]]],[[[-75.095093,39.948152],[-75.095128,39.948125],[-75.095129,39.948152],[-75.095093,39.948152]]],[[[-75.094843,39.948154],[-75.094914,39.948153],[-75.094808,39.948181],[-75.094843,39.948154]]],[[[-75.094772,39.948209],[-75.094808,39.948181],[-75.094808,39.948209],[-75.094772,39.948209]]],[[[-75.094629,39.948182],[-75.094665,39.948209],[-75.09463,39.94821],[-75.094629,39.948182]]],[[[-75.094701,39.948209],[-75.094737,39.948237],[-75.094701,39.948237],[-75.094701,39.948209]]],[[[-75.094915,39.948236],[-75.09488,39.948291],[-75.09488,39.948236],[-75.094915,39.948236]]],[[[-75.09463,39.948292],[-75.094666,39.948264],[-75.094666,39.948292],[-75.09463,39.948292]]],[[[-75.094587,39.912081],[-75.094602,39.912053],[-75.094602,39.912081],[-75.094587,39.912081]]],[[[-75.094558,39.94821],[-75.094594,39.948237],[-75.094559,39.948237],[-75.094558,39.94821]]],[[[-75.094487,39.948265],[-75.094452,39.948238],[-75.094487,39.948238],[-75.094487,39.948265]]],[[[-75.094702,39.948347],[-75.094632,39.948429],[-75.09456,39.948375],[-75.094702,39.948347]]],[[[-75.094596,39.948429],[-75.094632,39.948457],[-75.094596,39.948457],[-75.094596,39.948429]]],[[[-75.09456,39.94843],[-75.094525,39.948457],[-75.094525,39.94843],[-75.09456,39.94843]]],[[[-75.094525,39.948457],[-75.094489,39.948485],[-75.094489,39.948457],[-75.094525,39.948457]]],[[[-75.094489,39.948485],[-75.094454,39.948513],[-75.094454,39.948485],[-75.094489,39.948485]]],[[[-75.094454,39.948513],[-75.094418,39.94854],[-75.094418,39.948513],[-75.094454,39.948513]]],[[[-75.094418,39.94854],[-75.094383,39.948568],[-75.094383,39.94854],[-75.094418,39.94854]]],[[[-75.094383,39.948568],[-75.094348,39.948595],[-75.094347,39.948568],[-75.094383,39.948568]]],[[[-75.094348,39.948595],[-75.094312,39.948623],[-75.094312,39.948596],[-75.094348,39.948595]]],[[[-75.094312,39.948623],[-75.094277,39.948651],[-75.094277,39.948623],[-75.094312,39.948623]]],[[[-75.094277,39.948651],[-75.094241,39.948678],[-75.094241,39.948651],[-75.094277,39.948651]]],[[[-75.094206,39.948679],[-75.094242,39.948706],[-75.094206,39.948706],[-75.094206,39.948679]]],[[[-75.094349,39.948705],[-75.094313,39.948733],[-75.094313,39.948705],[-75.094349,39.948705]]],[[[-75.094206,39.948706],[-75.09417,39.948734],[-75.09417,39.948706],[-75.094206,39.948706]]],[[[-75.094313,39.948733],[-75.094278,39.948761],[-75.094277,39.948733],[-75.094313,39.948733]]],[[[-75.09417,39.948734],[-75.094135,39.948789],[-75.0941,39.948789],[-75.094099,39.948734],[-75.09417,39.948734]]],[[[-75.094278,39.948761],[-75.094242,39.948788],[-75.094242,39.948761],[-75.094278,39.948761]]],[[[-75.094171,39.948761],[-75.094207,39.948788],[-75.094171,39.948789],[-75.094171,39.948761]]],[[[-75.094242,39.948788],[-75.094207,39.948816],[-75.094207,39.948788],[-75.094242,39.948788]]],[[[-75.094064,39.948817],[-75.0941,39.948789],[-75.0941,39.948816],[-75.094064,39.948817]]],[[[-75.094171,39.948816],[-75.094207,39.948843],[-75.094171,39.948843],[-75.094171,39.948816]]],[[[-75.094029,39.948844],[-75.094065,39.948871],[-75.094029,39.948872],[-75.094029,39.948844]]],[[[-75.094136,39.948871],[-75.094101,39.948899],[-75.0941,39.948871],[-75.094136,39.948871]]],[[[-75.094101,39.948899],[-75.094065,39.948926],[-75.094065,39.948899],[-75.094101,39.948899]]],[[[-75.094029,39.948927],[-75.094065,39.948954],[-75.09403,39.948954],[-75.094029,39.948927]]],[[[-75.093958,39.948927],[-75.093994,39.948954],[-75.093958,39.948954],[-75.093958,39.948927]]],[[[-75.093923,39.949009],[-75.093959,39.949037],[-75.093923,39.949037],[-75.093923,39.949009]]],[[[-75.093082,39.909412],[-75.093047,39.909453],[-75.092836,39.909482],[-75.093082,39.909412]]],[[[-75.092798,39.909509],[-75.092737,39.90951],[-75.092797,39.909492],[-75.092798,39.909509]]],[[[-75.091912,39.922554],[-75.091591,39.922556],[-75.089944,39.92179],[-75.091422,39.921065],[-75.093889,39.920359],[-75.095707,39.920311],[-75.095813,39.920118],[-75.096172,39.920446],[-75.096204,39.920061],[-75.096489,39.920033],[-75.096457,39.920362],[-75.09685,39.920442],[-75.09646,39.920719],[-75.096674,39.920773],[-75.096641,39.921102],[-75.096001,39.921216],[-75.096038,39.921435],[-75.095328,39.921741],[-75.095295,39.922043],[-75.09544,39.922317],[-75.096367,39.922367],[-75.09655,39.92286],[-75.097051,39.92305],[-75.096912,39.923544],[-75.096058,39.923686],[-75.095448,39.923332],[-75.095558,39.923661],[-75.094809,39.923638],[-75.095169,39.923965],[-75.094673,39.924352],[-75.091985,39.922774],[-75.091912,39.922554]],[[-75.09159,39.922474],[-75.091625,39.922418],[-75.091554,39.922419],[-75.09159,39.922474]],[[-75.091483,39.922419],[-75.091518,39.922364],[-75.091447,39.922364],[-75.091483,39.922419]],[[-75.09202,39.922691],[-75.092091,39.922718],[-75.092091,39.922691],[-75.09202,39.922691]],[[-75.092091,39.922718],[-75.092127,39.922745],[-75.092127,39.922718],[-75.092091,39.922718]],[[-75.092127,39.922745],[-75.092163,39.922773],[-75.092163,39.922745],[-75.092127,39.922745]]],[[[-75.091949,39.922691],[-75.091841,39.922637],[-75.091948,39.922664],[-75.091949,39.922691]]],[[[-75.087779,39.922905],[-75.087602,39.922933],[-75.087778,39.922845],[-75.087779,39.922905]]],[[[-75.0876,39.922934],[-75.087352,39.923099],[-75.087273,39.923099],[-75.0876,39.922934]]],[[[-75.091997,39.924229],[-75.090419,39.923084],[-75.089991,39.923168],[-75.089703,39.92284],[-75.089097,39.922788],[-75.088916,39.922487],[-75.088371,39.922572],[-75.089909,39.921851],[-75.093671,39.924],[-75.094139,39.924492],[-75.093288,39.925046],[-75.092751,39.924801],[-75.09289,39.924416],[-75.091997,39.924229]],[[-75.092104,39.924146],[-75.092068,39.924118],[-75.092068,39.924146],[-75.092104,39.924146]]],[[[-75.08565,39.923921],[-75.085683,39.923904],[-75.085684,39.923931],[-75.08565,39.923921]]],[[[-75.092851,39.94874],[-75.092922,39.948713],[-75.092922,39.94874],[-75.092851,39.94874]]],[[[-75.092994,39.948795],[-75.093029,39.948767],[-75.09303,39.948794],[-75.092994,39.948795]]],[[[-75.092566,39.948824],[-75.092602,39.948797],[-75.092602,39.948824],[-75.092566,39.948824]]],[[[-75.092602,39.948851],[-75.092637,39.948824],[-75.092638,39.948851],[-75.092602,39.948851]]],[[[-75.09253,39.948824],[-75.092566,39.948852],[-75.092531,39.948852],[-75.09253,39.948824]]],[[[-75.092567,39.948879],[-75.092602,39.948851],[-75.092602,39.948879],[-75.092567,39.948879]]],[[[-75.093887,39.948955],[-75.093922,39.9489],[-75.093923,39.948955],[-75.093887,39.948955]]],[[[-75.092496,39.948934],[-75.092353,39.948908],[-75.092531,39.948852],[-75.092496,39.948934]]],[[[-75.093888,39.949037],[-75.093924,39.949064],[-75.093888,39.949064],[-75.093888,39.949037]]],[[[-75.093781,39.949038],[-75.093817,39.949065],[-75.093781,39.949065],[-75.093781,39.949038]]],[[[-75.093781,39.94912],[-75.093817,39.949147],[-75.093782,39.949147],[-75.093781,39.94912]]],[[[-75.092534,39.949236],[-75.092569,39.949209],[-75.09257,39.949236],[-75.092534,39.949236]]],[[[-75.092247,39.949045],[-75.091822,39.949405],[-75.091821,39.949295],[-75.092247,39.949045]]],[[[-75.092499,39.949264],[-75.092534,39.949236],[-75.092534,39.949264],[-75.092499,39.949264]]],[[[-75.092463,39.949291],[-75.092499,39.949264],[-75.092499,39.949291],[-75.092463,39.949291]]],[[[-75.092428,39.949319],[-75.092463,39.949291],[-75.092463,39.949319],[-75.092428,39.949319]]],[[[-75.092392,39.949347],[-75.092428,39.949319],[-75.092428,39.949347],[-75.092392,39.949347]]],[[[-75.093321,39.949507],[-75.093357,39.949534],[-75.093321,39.949534],[-75.093321,39.949507]]],[[[-75.091539,39.949626],[-75.091502,39.949571],[-75.091787,39.949432],[-75.091539,39.949626]]],[[[-75.091341,39.951493],[-75.091305,39.951466],[-75.09134,39.951466],[-75.091341,39.951493]]],[[[-75.083285,39.952276],[-75.083932,39.952849],[-75.084826,39.953064],[-75.085009,39.953585],[-75.086151,39.953661],[-75.086256,39.953468],[-75.086619,39.954098],[-75.086197,39.954869],[-75.084493,39.955893],[-75.083348,39.955405],[-75.083843,39.954963],[-75.082873,39.95409],[-75.082794,39.953184],[-75.08222,39.95283],[-75.081935,39.952914],[-75.082002,39.952337],[-75.082253,39.9525],[-75.082644,39.952389],[-75.082682,39.952581],[-75.082753,39.95258],[-75.083285,39.952276]],[[-75.082682,39.952581],[-75.082646,39.952608],[-75.082682,39.952608],[-75.082682,39.952581]],[[-75.083358,39.952467],[-75.083323,39.952495],[-75.083359,39.952495],[-75.083358,39.952467]],[[-75.083288,39.952605],[-75.083074,39.952551],[-75.083111,39.952716],[-75.083288,39.952605]]]]}}]}