{"type":"FeatureCollection","features":[{"type":"Feature","properties":{"level_ft":9},"geometry":{"type":"MultiPolygon","coordinates":[[[[-75.110751,39.899944],[-75.110067,39.899097],[-75.110351,39.898973],[-75.111396,39.900243],[-75.110751,39.899944]]],[[[-75.112253,39.900458],[-75.111211,39.89953],[-75.111386,39.8992],[-75.11264,39.899934],[-75.112715,39.900291],[-75.112253,39.900458]]],[[[-75.115588,39.902637],[-75.113112,39.900893],[-75.112397,39.900567],[-75.112822,39.90029],[-75.112565,39.899468],[-75.111706,39.899033],[-75.110924,39.899312],[-75.110528,39.898905],[-75.111838,39.898569],[-75.113166,39.899305],[-75.113874,39.901102],[-75.11643,39.902191],[-75.11655,39.902879],[-75.115588,39.902637]]],[[[-75.112406,39.901583],[-75.112153,39.901227],[-75.111147,39.900354],[-75.111683,39.900489],[-75.112406,39.901583]]],[[[-75.113733,39.902509],[-75.109944,39.901376],[-75.11005,39.901238],[-75.109549,39.901049],[-75.109545,39.900555],[-75.110256,39.900304],[-75.110797,39.90107],[-75.110615,39.900632],[-75.110721,39.900521],[-75.111514,39.901505],[-75.113733,39.902509]]],[[[-75.115267,39.902666],[-75.114017,39.902371],[-75.113477,39.901824],[-75.11312,39.901716],[-75.113122,39.901991],[-75.112764,39.901801],[-75.112004,39.900542],[-75.113114,39.90103],[-75.115267,39.902666]]],[[[-75.112549,39.901637],[-75.112584,39.901609],[-75.112584,39.901637],[-75.112549,39.901637]]],[[[-75.113407,39.901989],[-75.113623,39.90218],[-75.113229,39.902018],[-75.113407,39.901989]]],[[[-75.113768,39.902509],[-75.113733,39.902537],[-75.113733,39.902509],[-75.113768,39.902509]]],[[[-75.113521,39.902703],[-75.112698,39.902405],[-75.113735,39.902702],[-75.113521,39.902703]]],[[[-75.115267,39.902666],[-75.115339,39.902693],[-75.115267,39.902693],[-75.115267,39.902666]]],[[[-75.114522,39.903109],[-75.11402,39.902755],[-75.116513,39.903126],[-75.116378,39.903319],[-75.115665,39.903323],[-75.114522,39.903109]]],[[[-75.113885,39.915522],[-75.112455,39.91509],[-75.112731,39.914045],[-75.113548,39.913766],[-75.114075,39.912885],[-75.114468,39.912993],[-75.114534,39.912389],[-75.114429,39.912554],[-75.11432,39.91239],[-75.115171,39.911864],[-75.115677,39.912684],[-75.115434,39.913372],[-75.115773,39.915429],[-75.114809,39.915187],[-75.113885,39.915522]]],[[[-75.117632,39.915941],[-75.117596,39.915969],[-75.117596,39.915941],[-75.117632,39.915941]]],[[[-75.117561,39.915969],[-75.117597,39.916024],[-75.117561,39.916024],[-75.117561,39.915969]]],[[[-75.125592,39.948266],[-75.125199,39.948214],[-75.12516,39.947884],[-75.124552,39.94775],[-75.124657,39.947448],[-75.125336,39.947581],[-75.124761,39.947173],[-75.124828,39.946623],[-75.123576,39.946273],[-75.123467,39.946054],[-75.124751,39.94602],[-75.125176,39.945743],[-75.125605,39.945878],[-75.126031,39.945573],[-75.126638,39.945653],[-75.12542,39.945083],[-75.125701,39.944642],[-75.124843,39.944427],[-75.124913,39.944234],[-75.12559,39.944203],[-75.125693,39.943791],[-75.124801,39.943658],[-75.124411,39.94399],[-75.123731,39.943692],[-75.123759,39.942923],[-75.123296,39.942898],[-75.123193,39.943365],[-75.122765,39.943395],[-75.122476,39.94293],[-75.122014,39.943207],[-75.121585,39.943044],[-75.121582,39.94277],[-75.120476,39.942666],[-75.120753,39.941758],[-75.120253,39.941651],[-75.12064,39.941128],[-75.120315,39.940663],[-75.120706,39.940523],[-75.120809,39.940028],[-75.120308,39.939866],[-75.121342,39.939888],[-75.122799,39.939277],[-75.122655,39.939085],[-75.122974,39.938946],[-75.122723,39.9387],[-75.123256,39.93856],[-75.122861,39.93826],[-75.123467,39.93823],[-75.123393,39.937956],[-75.123607,39.937927],[-75.123459,39.937324],[-75.123673,39.937323],[-75.123706,39.93702],[-75.123241,39.936886],[-75.123809,39.936581],[-75.122524,39.936423],[-75.122303,39.935683],[-75.122017,39.935657],[-75.122155,39.935052],[-75.121904,39.934916],[-75.122187,39.934695],[-75.121827,39.934285],[-75.121961,39.933351],[-75.121494,39.932969],[-75.121669,39.932584],[-75.121098,39.93256],[-75.120882,39.932314],[-75.121057,39.932038],[-75.120838,39.931435],[-75.121192,39.931131],[-75.12076,39.930749],[-75.120937,39.930529],[-75.118795,39.930238],[-75.118899,39.929991],[-75.117826,39.929612],[-75.118357,39.929142],[-75.117822,39.929173],[-75.117684,39.92964],[-75.116472,39.929756],[-75.116405,39.930251],[-75.116656,39.930332],[-75.116337,39.930526],[-75.115155,39.929956],[-75.115685,39.929431],[-75.115187,39.929571],[-75.11536,39.929049],[-75.11582,39.928552],[-75.116141,39.928633],[-75.116244,39.928165],[-75.116467,39.921218],[-75.116728,39.918499],[-75.116977,39.918415],[-75.11662,39.918362],[-75.116618,39.918143],[-75.116903,39.918141],[-75.116612,39.917511],[-75.117048,39.91836],[-75.117298,39.918414],[-75.116609,39.917127],[-75.117108,39.917179],[-75.117293,39.917892],[-75.117322,39.917178],[-75.11789,39.916846],[-75.117528,39.916271],[-75.117597,39.916024],[-75.118064,39.916405],[-75.118132,39.916021],[-75.11902,39.915687],[-75.118805,39.915523],[-75.119087,39.915192],[-75.118693,39.915029],[-75.119155,39.914835],[-75.118901,39.914342],[-75.118508,39.914207],[-75.118506,39.914015],[-75.118862,39.913958],[-75.11896,39.912941],[-75.118246,39.912863],[-75.118216,39.913495],[-75.117824,39.913552],[-75.117679,39.91325],[-75.117648,39.913717],[-75.117364,39.913883],[-75.117395,39.913362],[-75.117112,39.91361],[-75.117252,39.913308],[-75.116646,39.913393],[-75.116142,39.912847],[-75.116349,39.911995],[-75.115476,39.910077],[-75.115191,39.910161],[-75.114595,39.911208],[-75.114552,39.910412],[-75.114046,39.909618],[-75.113223,39.909348],[-75.112725,39.909406],[-75.112479,39.909846],[-75.111945,39.909959],[-75.111947,39.910178],[-75.110591,39.910021],[-75.109597,39.910438],[-75.108954,39.910304],[-75.109565,39.910905],[-75.110114,39.912494],[-75.110116,39.912686],[-75.109547,39.912854],[-75.109518,39.913623],[-75.110304,39.913756],[-75.110623,39.913562],[-75.111022,39.914356],[-75.111771,39.91438],[-75.110882,39.914632],[-75.111952,39.914681],[-75.112164,39.914515],[-75.111849,39.915121],[-75.11135,39.915151],[-75.111454,39.914848],[-75.11067,39.914852],[-75.11028,39.915101],[-75.109103,39.91508],[-75.108637,39.914726],[-75.108353,39.914919],[-75.108382,39.914123],[-75.106954,39.913938],[-75.107057,39.913471],[-75.107942,39.912808],[-75.107616,39.91215],[-75.107185,39.911878],[-75.10458,39.911562],[-75.102869,39.911626],[-75.10135,39.913226],[-75.10146,39.913528],[-75.101885,39.913169],[-75.102099,39.91325],[-75.102067,39.913689],[-75.101712,39.913801],[-75.101892,39.913992],[-75.101393,39.914077],[-75.102395,39.914456],[-75.102433,39.914731],[-75.101614,39.91479],[-75.102365,39.915115],[-75.102154,39.915391],[-75.103083,39.915688],[-75.103114,39.915166],[-75.104434,39.915242],[-75.10355,39.916015],[-75.104335,39.916121],[-75.103909,39.916398],[-75.10334,39.916456],[-75.103409,39.916236],[-75.103017,39.916238],[-75.102835,39.915854],[-75.102409,39.916076],[-75.102442,39.915746],[-75.101408,39.915697],[-75.100795,39.914986],[-75.100588,39.915207],[-75.099865,39.913659],[-75.099497,39.913857],[-75.098463,39.913809],[-75.098089,39.914078],[-75.097455,39.913516],[-75.096329,39.913854],[-75.095104,39.912435],[-75.095855,39.912706],[-75.096675,39.912646],[-75.096308,39.91144],[-75.096698,39.911219],[-75.096483,39.911083],[-75.096945,39.910916],[-75.096691,39.910395],[-75.096085,39.910343],[-75.095766,39.910592],[-75.095692,39.910263],[-75.09626,39.910068],[-75.096507,39.909682],[-75.096904,39.910257],[-75.09715,39.909871],[-75.09672,39.909599],[-75.097146,39.909459],[-75.097032,39.908581],[-75.097352,39.90847],[-75.097171,39.908162],[-75.097351,39.908031],[-75.097993,39.908384],[-75.098883,39.908297],[-75.099496,39.90909],[-75.099852,39.908979],[-75.099493,39.908788],[-75.099346,39.908268],[-75.099843,39.907963],[-75.100133,39.908565],[-75.10056,39.908508],[-75.100242,39.908757],[-75.100668,39.908563],[-75.101098,39.908835],[-75.101774,39.908694],[-75.10199,39.908885],[-75.102416,39.908691],[-75.104163,39.908682],[-75.105489,39.909499],[-75.106346,39.909714],[-75.10702,39.909353],[-75.107949,39.909595],[-75.108126,39.909457],[-75.107942,39.908772],[-75.107551,39.908856],[-75.107582,39.908307],[-75.106966,39.907185],[-75.106752,39.907186],[-75.106825,39.907405],[-75.106574,39.907269],[-75.10647,39.907544],[-75.106111,39.907326],[-75.106217,39.907134],[-75.105968,39.907245],[-75.105466,39.906945],[-75.105075,39.907002],[-75.105,39.906591],[-75.104537,39.906676],[-75.104284,39.90632],[-75.104324,39.906814],[-75.103932,39.906816],[-75.10397,39.907063],[-75.103401,39.907231],[-75.103257,39.907039],[-75.101723,39.906965],[-75.102296,39.907209],[-75.101905,39.907293],[-75.101766,39.907706],[-75.100981,39.907628],[-75.101335,39.907379],[-75.100406,39.907109],[-75.100158,39.907357],[-75.100302,39.907521],[-75.099767,39.907414],[-75.100048,39.907001],[-75.099799,39.907057],[-75.099117,39.906484],[-75.099329,39.906318],[-75.09969,39.906783],[-75.10001,39.906672],[-75.099329,39.906291],[-75.099399,39.906098],[-75.098687,39.906267],[-75.099184,39.905962],[-75.098543,39.906048],[-75.09911,39.905743],[-75.098611,39.905718],[-75.098358,39.90528],[-75.098147,39.905638],[-75.098001,39.905227],[-75.097754,39.905585],[-75.09768,39.905174],[-75.098,39.905117],[-75.097785,39.904954],[-75.097997,39.904733],[-75.097711,39.904652],[-75.097633,39.903966],[-75.097882,39.903882],[-75.097455,39.90394],[-75.097382,39.90372],[-75.09791,39.902976],[-75.0978,39.902675],[-75.098086,39.902756],[-75.098011,39.902344],[-75.097479,39.902622],[-75.097584,39.902374],[-75.097298,39.902321],[-75.096874,39.90268],[-75.095807,39.902987],[-75.095955,39.903563],[-75.09563,39.903839],[-75.094606,39.901418],[-75.095951,39.901202],[-75.098288,39.901327],[-75.098644,39.901353],[-75.098612,39.901682],[-75.101389,39.901394],[-75.09914,39.900966],[-75.098393,39.901107],[-75.09796,39.90056],[-75.098708,39.900474],[-75.098278,39.900257],[-75.097603,39.900507],[-75.0975,39.900947],[-75.096241,39.900898],[-75.099414,39.89929],[-75.099624,39.899248],[-75.098922,39.900528],[-75.099031,39.900719],[-75.099102,39.900719],[-75.099349,39.900361],[-75.099909,39.899232],[-75.101146,39.898882],[-75.102116,39.899107],[-75.102917,39.899882],[-75.104793,39.900527],[-75.107941,39.900238],[-75.10964,39.899265],[-75.110112,39.90014],[-75.108901,39.900284],[-75.107552,39.90095],[-75.10884,39.901437],[-75.110802,39.901674],[-75.112733,39.902268],[-75.110698,39.902004],[-75.10974,39.902421],[-75.110593,39.902224],[-75.111244,39.903264],[-75.110985,39.902222],[-75.111378,39.90222],[-75.111914,39.902409],[-75.111921,39.903178],[-75.113218,39.904763],[-75.113251,39.904461],[-75.112348,39.903121],[-75.112451,39.902653],[-75.113559,39.902977],[-75.113604,39.90402],[-75.113774,39.903113],[-75.116437,39.903456],[-75.11488,39.9054],[-75.114715,39.906125],[-75.117488,39.90849],[-75.120133,39.908625],[-75.121403,39.907762],[-75.122836,39.907428],[-75.129344,39.907381],[-75.129091,39.911608],[-75.12984,39.915359],[-75.135874,39.927639],[-75.136621,39.93037],[-75.136805,39.937021],[-75.136556,39.941533],[-75.135631,39.947459],[-75.134194,39.952774],[-75.123833,39.951021],[-75.122652,39.950616],[-75.123149,39.950284],[-75.123579,39.950583],[-75.123715,39.949759],[-75.123288,39.949926],[-75.123249,39.949542],[-75.123461,39.949376],[-75.123962,39.949538],[-75.124241,39.948795],[-75.123954,39.948577],[-75.124452,39.948437],[-75.124525,39.948629],[-75.124989,39.948681],[-75.125129,39.948379],[-75.125452,39.948624],[-75.125592,39.948266]],[[-75.124658,39.947585],[-75.124694,39.947612],[-75.124694,39.947585],[-75.124658,39.947585]],[[-75.117741,39.916188],[-75.117706,39.916215],[-75.117741,39.916215],[-75.117741,39.916188]],[[-75.117813,39.916297],[-75.117778,39.916325],[-75.117814,39.916324],[-75.117813,39.916297]],[[-75.11785,39.916352],[-75.117814,39.916379],[-75.11785,39.916379],[-75.11785,39.916352]],[[-75.117359,39.913362],[-75.117323,39.913335],[-75.117324,39.913362],[-75.117359,39.913362]],[[-75.109204,39.91033],[-75.109168,39.910303],[-75.109168,39.91033],[-75.109204,39.91033]],[[-75.108954,39.910304],[-75.108918,39.910277],[-75.108918,39.910304],[-75.108954,39.910304]],[[-75.108918,39.910277],[-75.108882,39.910249],[-75.108882,39.910277],[-75.108918,39.910277]],[[-75.108882,39.910195],[-75.108629,39.909866],[-75.108344,39.90984],[-75.108632,39.910168],[-75.108882,39.910195]],[[-75.096698,39.911191],[-75.096805,39.911163],[-75.096698,39.911164],[-75.096698,39.911191]],[[-75.09715,39.909871],[-75.097185,39.909844],[-75.09715,39.909844],[-75.09715,39.909871]],[[-75.099184,39.905962],[-75.09929,39.905934],[-75.099183,39.905935],[-75.099184,39.905962]],[[-75.097477,39.90232],[-75.097441,39.902292],[-75.097441,39.90232],[-75.097477,39.90232]],[[-75.098708,39.900501],[-75.098744,39.900529],[-75.098744,39.900501],[-75.098708,39.900501]],[[-75.111342,39.902275],[-75.111378,39.902302],[-75.111378,39.902275],[-75.111342,39.902275]],[[-75.119919,39.908654],[-75.119884,39.908736],[-75.11992,39.908736],[-75.119919,39.908654]],[[-75.125381,39.948624],[-75.125203,39.94868],[-75.125381,39.948679],[-75.125381,39.948624]]],[[[-75.115695,39.926631],[-75.115732,39.926686],[-75.115696,39.926686],[-75.115695,39.926631]]],[[[-75.11566,39.926686],[-75.115696,39.926713],[-75.11566,39.926713],[-75.11566,39.926686]]],[[[-75.11566,39.926686],[-75.115554,39.926796],[-75.115519,39.926797],[-75.115519,39.926824],[-75.115483,39.926824],[-75.115483,39.926852],[-75.115448,39.926852],[-75.115448,39.926907],[-75.115413,39.926907],[-75.115413,39.926934],[-75.115377,39.926935],[-75.115377,39.926962],[-75.115342,39.926962],[-75.115342,39.92699],[-75.115306,39.92699],[-75.115343,39.927045],[-75.113255,39.928895],[-75.113009,39.929253],[-75.111664,39.930358],[-75.111099,39.931048],[-75.110578,39.932588],[-75.110772,39.934399],[-75.110416,39.934428],[-75.109082,39.932815],[-75.108222,39.932353],[-75.108363,39.93216],[-75.107003,39.931646],[-75.107396,39.931644],[-75.10743,39.931451],[-75.108177,39.931255],[-75.108281,39.930953],[-75.109382,39.93048],[-75.109554,39.929766],[-75.109912,39.929928],[-75.110659,39.929677],[-75.110193,39.929433],[-75.110582,39.929046],[-75.110116,39.928774],[-75.110327,39.928444],[-75.10986,39.928089],[-75.110392,39.927675],[-75.11021,39.927264],[-75.110382,39.926549],[-75.110094,39.926304],[-75.110378,39.926137],[-75.11062,39.925285],[-75.111118,39.925173],[-75.110972,39.924789],[-75.111364,39.924732],[-75.111254,39.924376],[-75.111789,39.924428],[-75.112036,39.924124],[-75.111962,39.923878],[-75.111427,39.923798],[-75.111783,39.923714],[-75.111781,39.923577],[-75.111282,39.923579],[-75.11103,39.923334],[-75.111846,39.922835],[-75.112062,39.923026],[-75.11206,39.922779],[-75.111594,39.922589],[-75.112129,39.922532],[-75.111807,39.922424],[-75.112126,39.922175],[-75.111019,39.922071],[-75.111268,39.921987],[-75.111006,39.920616],[-75.110578,39.920618],[-75.110515,39.921524],[-75.11012,39.92117],[-75.110296,39.920949],[-75.109834,39.921061],[-75.110116,39.920703],[-75.109689,39.920787],[-75.109756,39.920293],[-75.109145,39.919747],[-75.109818,39.919249],[-75.110315,39.919082],[-75.111066,39.91927],[-75.111389,39.919488],[-75.111536,39.920091],[-75.112249,39.92006],[-75.112331,39.921268],[-75.112582,39.921376],[-75.112119,39.921461],[-75.112009,39.92105],[-75.111689,39.921161],[-75.111472,39.920888],[-75.111515,39.921629],[-75.112334,39.921515],[-75.112408,39.921899],[-75.112729,39.921925],[-75.112411,39.922201],[-75.11259,39.922255],[-75.11298,39.922088],[-75.113801,39.922166],[-75.113549,39.921893],[-75.113868,39.921617],[-75.114084,39.921835],[-75.114331,39.921614],[-75.114761,39.921804],[-75.115438,39.921745],[-75.115398,39.921252],[-75.115219,39.921225],[-75.115187,39.92161],[-75.114651,39.921503],[-75.114683,39.921091],[-75.114288,39.920818],[-75.115287,39.92084],[-75.115637,39.920097],[-75.115417,39.919412],[-75.115843,39.919245],[-75.116075,39.921248],[-75.115644,39.924819],[-75.1158,39.926411],[-75.115766,39.926576],[-75.115731,39.926576],[-75.115731,39.926603],[-75.115695,39.926603],[-75.115695,39.926631],[-75.11566,39.926631],[-75.11566,39.926686]]],[[[-75.11559,39.926824],[-75.115554,39.926796],[-75.11559,39.926796],[-75.11559,39.926824]]],[[[-75.11552,39.926989],[-75.115661,39.926768],[-75.115732,39.92674],[-75.115734,39.926988],[-75.11552,39.926989]],[[-75.115591,39.926961],[-75.115627,39.926933],[-75.115591,39.926933],[-75.115591,39.926961]]],[[[-75.115484,39.926934],[-75.115448,39.926907],[-75.115484,39.926907],[-75.115484,39.926934]]],[[[-75.115449,39.926962],[-75.115413,39.926934],[-75.115449,39.926934],[-75.115449,39.926962]]],[[[-75.116127,39.927068],[-75.116161,39.926903],[-75.116163,39.927068],[-75.116127,39.927068]]],[[[-75.115556,39.927016],[-75.115592,39.926988],[-75.115592,39.927016],[-75.115556,39.927016]]],[[[-75.115485,39.926989],[-75.115521,39.927016],[-75.115485,39.927016],[-75.115485,39.926989]]],[[[-75.115522,39.927153],[-75.115344,39.927154],[-75.115556,39.927016],[-75.115522,39.927153]]],[[[-75.114926,39.928337],[-75.114862,39.929134],[-75.11334,39.930432],[-75.11207,39.932004],[-75.11144,39.933242],[-75.111048,39.933382],[-75.110796,39.933026],[-75.110897,39.932422],[-75.11086,39.932202],[-75.111525,39.930771],[-75.114071,39.928369],[-75.114926,39.928337]],[[-75.114392,39.928422],[-75.114358,39.928587],[-75.114394,39.928587],[-75.114392,39.928422]]],[[[-75.112464,39.932166],[-75.113276,39.931201],[-75.115085,39.930093],[-75.115122,39.930313],[-75.114802,39.930424],[-75.115131,39.931274],[-75.11449,39.931359],[-75.11435,39.931717],[-75.113955,39.931417],[-75.113674,39.931858],[-75.113819,39.932104],[-75.113213,39.93219],[-75.113002,39.932465],[-75.112857,39.932219],[-75.112465,39.932276],[-75.112292,39.932853],[-75.111972,39.932992],[-75.112464,39.932166]]],[[[-75.110825,39.932312],[-75.11086,39.932284],[-75.110861,39.932312],[-75.110825,39.932312]]],[[[-75.114699,39.942806],[-75.116375,39.942797],[-75.116449,39.943017],[-75.114523,39.943109],[-75.114699,39.942806]]],[[[-75.1108,39.94549],[-75.11294,39.945479],[-75.112616,39.945178],[-75.112791,39.944793],[-75.113116,39.945286],[-75.113688,39.945447],[-75.114054,39.946434],[-75.110731,39.945847],[-75.111051,39.945653],[-75.1108,39.94549]],[[-75.11105,39.945626],[-75.111121,39.945571],[-75.11105,39.945599],[-75.11105,39.945626]]],[[[-75.113903,39.945501],[-75.114441,39.94591],[-75.114014,39.945967],[-75.113903,39.945501]]],[[[-75.115335,39.946097],[-75.114546,39.945635],[-75.115189,39.945769],[-75.115335,39.946097]]],[[[-75.114947,39.946566],[-75.115235,39.946867],[-75.114412,39.946597],[-75.114122,39.946131],[-75.114874,39.946429],[-75.114947,39.946566]],[[-75.114552,39.946321],[-75.114517,39.946349],[-75.114552,39.946349],[-75.114552,39.946321]]],[[[-75.115018,39.946538],[-75.114982,39.946566],[-75.114982,39.946539],[-75.115018,39.946538]]],[[[-75.115054,39.946566],[-75.115018,39.946593],[-75.115018,39.946566],[-75.115054,39.946566]]],[[[-75.099696,39.899343],[-75.099732,39.899398],[-75.099697,39.899398],[-75.099696,39.899343]]],[[[-75.098995,39.900637],[-75.09903,39.90061],[-75.09903,39.900637],[-75.098995,39.900637]]],[[[-75.099066,39.900637],[-75.099102,39.900664],[-75.099066,39.900664],[-75.099066,39.900637]]],[[[-75.108767,39.901273],[-75.108732,39.9013],[-75.108731,39.901273],[-75.108767,39.901273]]],[[[-75.097442,39.902457],[-75.097513,39.902374],[-75.097478,39.902457],[-75.097442,39.902457]]],[[[-75.106933,39.931729],[-75.106862,39.931756],[-75.106861,39.931729],[-75.106933,39.931729]]],[[[-75.106898,39.931811],[-75.107148,39.931865],[-75.106863,39.931894],[-75.1069,39.932031],[-75.108151,39.932436],[-75.109193,39.933282],[-75.10884,39.933723],[-75.108588,39.933367],[-75.108161,39.933479],[-75.108201,39.933946],[-75.108593,39.933916],[-75.108238,39.934165],[-75.10842,39.934576],[-75.107886,39.934634],[-75.107598,39.934361],[-75.107102,39.93472],[-75.107282,39.934966],[-75.106677,39.935052],[-75.105818,39.934727],[-75.106179,39.935192],[-75.105642,39.935002],[-75.10493,39.935143],[-75.105362,39.935635],[-75.104789,39.935364],[-75.104649,39.935611],[-75.104434,39.935558],[-75.104431,39.935146],[-75.10397,39.935505],[-75.10415,39.935696],[-75.103581,39.935782],[-75.103898,39.935368],[-75.103579,39.935644],[-75.103436,39.935563],[-75.104073,39.934956],[-75.103714,39.934765],[-75.104208,39.934186],[-75.103919,39.933748],[-75.104526,39.933828],[-75.103912,39.932952],[-75.104376,39.932977],[-75.104833,39.932206],[-75.105974,39.9322],[-75.105685,39.93179],[-75.106539,39.931593],[-75.106898,39.931811]],[[-75.103898,39.935368],[-75.103933,39.935341],[-75.103898,39.935341],[-75.103898,39.935368]]],[[[-75.109753,39.94415],[-75.10904,39.944209],[-75.109752,39.94404],[-75.109753,39.94415]]],[[[-75.09893,39.946458],[-75.098859,39.946403],[-75.098894,39.946403],[-75.09893,39.946458]]],[[[-75.098788,39.946459],[-75.098716,39.946432],[-75.098787,39.946431],[-75.098788,39.946459]]],[[[-75.09861,39.946487],[-75.098716,39.946459],[-75.098717,39.946486],[-75.09861,39.946487]]],[[[-75.098432,39.946543],[-75.098396,39.946516],[-75.098432,39.946515],[-75.098432,39.946543]]],[[[-75.098325,39.946598],[-75.09836,39.946543],[-75.098361,39.946598],[-75.098325,39.946598]]],[[[-75.098254,39.946599],[-75.098218,39.946571],[-75.098254,39.946571],[-75.098254,39.946599]]],[[[-75.098183,39.946626],[-75.098111,39.946599],[-75.098183,39.946599],[-75.098183,39.946626]]],[[[-75.098539,39.946597],[-75.098433,39.946653],[-75.098432,39.946598],[-75.098539,39.946597]]],[[[-75.098005,39.946655],[-75.09804,39.946627],[-75.09804,39.946655],[-75.098005,39.946655]]],[[[-75.097969,39.946655],[-75.098005,39.946682],[-75.097969,39.946683],[-75.097969,39.946655]]],[[[-75.098575,39.946652],[-75.098504,39.94668],[-75.098504,39.946652],[-75.098575,39.946652]]],[[[-75.098148,39.946709],[-75.098184,39.946736],[-75.098148,39.946736],[-75.098148,39.946709]]],[[[-75.097756,39.946711],[-75.097791,39.946738],[-75.097756,39.946739],[-75.097756,39.946711]]],[[[-75.098326,39.946708],[-75.098256,39.946791],[-75.098149,39.946791],[-75.098326,39.946708]]],[[[-75.098006,39.946792],[-75.09797,39.946737],[-75.098077,39.946737],[-75.098006,39.946792]]],[[[-75.097899,39.94682],[-75.097935,39.946792],[-75.097935,39.94682],[-75.097899,39.94682]]],[[[-75.123242,39.952726],[-75.123633,39.952615],[-75.123311,39.952452],[-75.123063,39.952618],[-75.123164,39.951958],[-75.122626,39.951604],[-75.123303,39.951573],[-75.123337,39.951408],[-75.122799,39.951082],[-75.134099,39.953052],[-75.132573,39.956557],[-75.130162,39.959455],[-75.125749,39.962444],[-75.122172,39.964298],[-75.119748,39.96171],[-75.118447,39.960723],[-75.115839,39.959328],[-75.110143,39.958016],[-75.108033,39.958011],[-75.106227,39.958401],[-75.104126,39.95944],[-75.096972,39.964978],[-75.093629,39.966868],[-75.088069,39.969382],[-75.085436,39.96602],[-75.08437,39.964322],[-75.084674,39.964513],[-75.084743,39.964293],[-75.084134,39.963994],[-75.084524,39.963663],[-75.084884,39.964018],[-75.085956,39.964232],[-75.086244,39.964532],[-75.086636,39.964475],[-75.087782,39.965019],[-75.088708,39.964794],[-75.089487,39.964104],[-75.089483,39.963665],[-75.089051,39.963173],[-75.089148,39.961992],[-75.089397,39.961963],[-75.088849,39.960456],[-75.089135,39.960564],[-75.08924,39.960289],[-75.088595,39.959936],[-75.088556,39.959579],[-75.088306,39.95958],[-75.088517,39.959167],[-75.088087,39.959005],[-75.088264,39.958757],[-75.087723,39.958156],[-75.087901,39.958045],[-75.088404,39.958427],[-75.088434,39.957823],[-75.087577,39.957745],[-75.087067,39.956484],[-75.085882,39.955584],[-75.087122,39.954535],[-75.087407,39.954533],[-75.087696,39.954999],[-75.088375,39.955078],[-75.088663,39.955405],[-75.089591,39.955483],[-75.089702,39.955867],[-75.090454,39.956247],[-75.090566,39.956796],[-75.091069,39.957205],[-75.091958,39.956871],[-75.092141,39.957419],[-75.091929,39.957722],[-75.092325,39.95805],[-75.092043,39.958436],[-75.092435,39.958406],[-75.092045,39.958765],[-75.09258,39.958735],[-75.092298,39.959148],[-75.092839,39.959832],[-75.092594,39.960382],[-75.092991,39.960847],[-75.092852,39.961232],[-75.093177,39.961724],[-75.0935,39.96197],[-75.093928,39.96194],[-75.094145,39.962268],[-75.094858,39.96221],[-75.095248,39.961933],[-75.095427,39.962042],[-75.096667,39.960993],[-75.096557,39.960719],[-75.09691,39.960195],[-75.096688,39.959318],[-75.097117,39.959425],[-75.097437,39.959259],[-75.098082,39.959668],[-75.099256,39.959195],[-75.099073,39.958674],[-75.099356,39.95848],[-75.098891,39.958263],[-75.098642,39.958347],[-75.098716,39.958648],[-75.0974,39.959122],[-75.096651,39.959126],[-75.096719,39.958796],[-75.096069,39.957893],[-75.096063,39.95718],[-75.096596,39.956985],[-75.096698,39.95638],[-75.09709,39.956296],[-75.097048,39.955555],[-75.097546,39.95547],[-75.098288,39.95456],[-75.098681,39.954668],[-75.099108,39.954501],[-75.099211,39.954089],[-75.099638,39.954004],[-75.099165,39.952853],[-75.099556,39.952742],[-75.099127,39.952634],[-75.099408,39.952111],[-75.098836,39.952031],[-75.099045,39.951372],[-75.099259,39.951425],[-75.099577,39.951039],[-75.099325,39.950766],[-75.099645,39.950682],[-75.099713,39.95027],[-75.099499,39.950353],[-75.099462,39.950189],[-75.099922,39.949747],[-75.099742,39.949583],[-75.099988,39.949061],[-75.099595,39.949008],[-75.099099,39.949395],[-75.09945,39.948734],[-75.098986,39.948791],[-75.09902,39.948544],[-75.098123,39.947972],[-75.098623,39.948024],[-75.099233,39.94846],[-75.099339,39.948268],[-75.097512,39.947371],[-75.098044,39.947066],[-75.09744,39.947317],[-75.097189,39.947208],[-75.098042,39.946792],[-75.097758,39.946986],[-75.099359,39.946538],[-75.099465,39.946373],[-75.09886,39.946596],[-75.098539,39.946597],[-75.099037,39.946457],[-75.099179,39.946292],[-75.097791,39.946656],[-75.097329,39.946878],[-75.097044,39.946962],[-75.096938,39.947045],[-75.096831,39.94699],[-75.097826,39.946601],[-75.09683,39.946963],[-75.096688,39.946964],[-75.096544,39.946855],[-75.094448,39.947854],[-75.096615,39.946772],[-75.097038,39.946275],[-75.09729,39.946494],[-75.097823,39.946299],[-75.097498,39.945834],[-75.097035,39.945836],[-75.097033,39.945644],[-75.097425,39.945615],[-75.097599,39.945065],[-75.097064,39.94515],[-75.096889,39.945562],[-75.096779,39.945179],[-75.096457,39.945098],[-75.096742,39.944959],[-75.096523,39.944466],[-75.095882,39.944524],[-75.095881,39.944442],[-75.09606,39.944469],[-75.096166,39.944358],[-75.093848,39.94448],[-75.093311,39.944208],[-75.092814,39.94454],[-75.092349,39.944295],[-75.091958,39.944545],[-75.091955,39.94416],[-75.09128,39.944466],[-75.090956,39.944055],[-75.091347,39.943944],[-75.090918,39.943836],[-75.090951,39.943561],[-75.090273,39.94351],[-75.089918,39.943704],[-75.088805,39.942886],[-75.088947,39.942748],[-75.089519,39.942937],[-75.088803,39.942584],[-75.088944,39.942446],[-75.090341,39.94307],[-75.089015,39.942418],[-75.089227,39.942088],[-75.088801,39.942337],[-75.088372,39.942284],[-75.088438,39.94168],[-75.087328,39.941164],[-75.087008,39.941248],[-75.087078,39.941028],[-75.086003,39.940539],[-75.085396,39.94046],[-75.085214,39.940021],[-75.085715,39.940156],[-75.085785,39.939991],[-75.085137,39.939333],[-75.085494,39.939306],[-75.08542,39.939091],[-75.089268,39.935738],[-75.089851,39.936182],[-75.090135,39.936064],[-75.090057,39.935156],[-75.089724,39.934693],[-75.088839,39.934353],[-75.087064,39.93482],[-75.08639,39.934661],[-75.086413,39.933372],[-75.086619,39.933288],[-75.086399,39.933234],[-75.085962,39.932029],[-75.08618,39.931945],[-75.085922,39.931765],[-75.087362,39.929346],[-75.087435,39.927986],[-75.087105,39.927059],[-75.086365,39.926725],[-75.084246,39.92678],[-75.084097,39.926108],[-75.083853,39.926739],[-75.08138,39.925993],[-75.084867,39.924301],[-75.084762,39.92454],[-75.084834,39.924677],[-75.085011,39.924539],[-75.085476,39.924701],[-75.086615,39.924503],[-75.086655,39.924942],[-75.087547,39.924965],[-75.088656,39.925399],[-75.089761,39.925366],[-75.090263,39.925775],[-75.091543,39.925302],[-75.093088,39.926611],[-75.09448,39.926769],[-75.094198,39.927182],[-75.093521,39.927241],[-75.093704,39.927789],[-75.09267,39.927794],[-75.09281,39.927491],[-75.09245,39.927136],[-75.091988,39.927303],[-75.090987,39.926924],[-75.090171,39.927477],[-75.089954,39.927067],[-75.089704,39.927095],[-75.089,39.92817],[-75.089865,39.929181],[-75.089908,39.930032],[-75.088953,39.93097],[-75.088919,39.931163],[-75.089275,39.931051],[-75.089566,39.931708],[-75.090135,39.931623],[-75.091465,39.932824],[-75.092466,39.933039],[-75.092721,39.933669],[-75.093476,39.934406],[-75.094584,39.934675],[-75.094551,39.935005],[-75.094947,39.935415],[-75.094957,39.936568],[-75.095562,39.9364],[-75.095388,39.936922],[-75.094502,39.937641],[-75.092755,39.937677],[-75.0934,39.938058],[-75.092803,39.939022],[-75.093831,39.938358],[-75.094437,39.938272],[-75.094504,39.937833],[-75.09507,39.937336],[-75.095859,39.937771],[-75.096962,39.937491],[-75.097285,39.937736],[-75.097854,39.937514],[-75.099174,39.937534],[-75.099812,39.937147],[-75.099603,39.937697],[-75.101422,39.937687],[-75.101497,39.938181],[-75.101781,39.938015],[-75.102141,39.938315],[-75.102001,39.938645],[-75.102428,39.938561],[-75.10254,39.939137],[-75.102897,39.939217],[-75.10439,39.938578],[-75.104207,39.938057],[-75.104526,39.937863],[-75.10499,39.937861],[-75.105315,39.938353],[-75.105956,39.93824],[-75.106059,39.9378],[-75.107022,39.93774],[-75.107062,39.938234],[-75.106812,39.938291],[-75.10721,39.938893],[-75.107459,39.938809],[-75.107925,39.939081],[-75.107928,39.939465],[-75.107358,39.939523],[-75.107792,39.940125],[-75.107545,39.940428],[-75.107905,39.940838],[-75.108046,39.940645],[-75.108832,39.940806],[-75.108906,39.941107],[-75.108299,39.941056],[-75.108266,39.94133],[-75.109303,39.941627],[-75.109197,39.941765],[-75.109842,39.942063],[-75.109416,39.942368],[-75.109777,39.942777],[-75.10999,39.942694],[-75.109392,39.943685],[-75.109926,39.943518],[-75.110248,39.943599],[-75.109822,39.943903],[-75.10879,39.9441],[-75.108396,39.943965],[-75.107544,39.944354],[-75.105619,39.944529],[-75.104517,39.944919],[-75.106834,39.944742],[-75.107901,39.944407],[-75.108437,39.944514],[-75.108833,39.945006],[-75.109942,39.945302],[-75.108479,39.94531],[-75.108127,39.945806],[-75.108702,39.946215],[-75.108923,39.947092],[-75.110258,39.948787],[-75.110637,39.951229],[-75.111761,39.953309],[-75.111199,39.954273],[-75.112065,39.955367],[-75.112315,39.95542],[-75.112953,39.955005],[-75.113597,39.955166],[-75.113743,39.955523],[-75.114419,39.955327],[-75.114741,39.955517],[-75.114751,39.95656],[-75.115285,39.956475],[-75.115708,39.955842],[-75.115998,39.956417],[-75.117029,39.956054],[-75.117751,39.956984],[-75.118253,39.957228],[-75.118748,39.956759],[-75.119782,39.956671],[-75.119707,39.956287],[-75.118955,39.955989],[-75.119414,39.95541],[-75.120056,39.955379],[-75.119697,39.955161],[-75.120373,39.954993],[-75.120085,39.954693],[-75.12062,39.954635],[-75.12058,39.954196],[-75.121255,39.953863],[-75.121401,39.954219],[-75.122329,39.954351],[-75.122464,39.953472],[-75.122784,39.953305],[-75.122639,39.953059],[-75.122995,39.953057],[-75.122928,39.953524],[-75.123678,39.953603],[-75.123927,39.953546],[-75.123282,39.95322],[-75.123494,39.952945],[-75.123242,39.952726]],[[-75.089442,39.962979],[-75.089264,39.963117],[-75.089443,39.963116],[-75.089442,39.962979]],[[-75.089443,39.963116],[-75.089479,39.963143],[-75.089478,39.963116],[-75.089443,39.963116]],[[-75.088845,39.959989],[-75.088881,39.959962],[-75.088845,39.959962],[-75.088845,39.959989]],[[-75.099356,39.95848],[-75.099392,39.958453],[-75.099356,39.958453],[-75.099356,39.95848]],[[-75.09988,39.948979],[-75.099844,39.948951],[-75.099844,39.948979],[-75.09988,39.948979]],[[-75.099844,39.948951],[-75.099772,39.948924],[-75.099773,39.948952],[-75.099844,39.948951]],[[-75.099772,39.948924],[-75.099736,39.948897],[-75.099737,39.948925],[-75.099772,39.948924]],[[-75.097905,39.947452],[-75.097976,39.947424],[-75.097904,39.947424],[-75.097905,39.947452]],[[-75.097976,39.947424],[-75.098047,39.947396],[-75.097976,39.947396],[-75.097976,39.947424]],[[-75.098047,39.947396],[-75.098082,39.947368],[-75.098047,39.947368],[-75.098047,39.947396]],[[-75.098044,39.947094],[-75.09808,39.947121],[-75.09808,39.947094],[-75.098044,39.947094]],[[-75.098044,39.947039],[-75.098436,39.94701],[-75.098471,39.946927],[-75.098044,39.947039]],[[-75.098542,39.946872],[-75.098863,39.94687],[-75.098898,39.946815],[-75.098542,39.946872]],[[-75.098898,39.946842],[-75.098934,39.94687],[-75.098934,39.946842],[-75.098898,39.946842]],[[-75.098898,39.946815],[-75.09904,39.946759],[-75.098898,39.946788],[-75.098898,39.946815]],[[-75.097368,39.947262],[-75.097439,39.947234],[-75.097368,39.947235],[-75.097368,39.947262]],[[-75.097758,39.946986],[-75.097687,39.947013],[-75.097758,39.947013],[-75.097758,39.946986]],[[-75.097687,39.947013],[-75.097651,39.947041],[-75.097687,39.947041],[-75.097687,39.947013]],[[-75.099465,39.946455],[-75.099501,39.946482],[-75.099501,39.946455],[-75.099465,39.946455]],[[-75.099466,39.946483],[-75.09943,39.94651],[-75.099466,39.94651],[-75.099466,39.946483]],[[-75.097826,39.946601],[-75.097897,39.946573],[-75.097826,39.946573],[-75.097826,39.946601]],[[-75.096687,39.946936],[-75.096723,39.946881],[-75.096687,39.946881],[-75.096687,39.946936]],[[-75.089953,39.943566],[-75.089988,39.943539],[-75.089952,39.943539],[-75.089953,39.943566]],[[-75.084134,39.926245],[-75.08417,39.926217],[-75.084134,39.926218],[-75.084134,39.926245]],[[-75.085083,39.924621],[-75.085012,39.924593],[-75.085012,39.924648],[-75.085083,39.924621]],[[-75.092791,39.937649],[-75.092719,39.937622],[-75.092719,39.93765],[-75.092791,39.937649]],[[-75.123494,39.953],[-75.123925,39.953244],[-75.124067,39.953216],[-75.123995,39.953107],[-75.123494,39.953]]],[[[-75.097863,39.94682],[-75.097828,39.946848],[-75.097828,39.946821],[-75.097863,39.94682]]],[[[-75.097792,39.946848],[-75.097757,39.946876],[-75.097757,39.946848],[-75.097792,39.946848]]],[[[-75.097614,39.946849],[-75.09765,39.946876],[-75.097614,39.946877],[-75.097614,39.946849]]],[[[-75.09765,39.946876],[-75.097722,39.946903],[-75.09765,39.946904],[-75.09765,39.946876]]],[[[-75.097365,39.946905],[-75.097329,39.946878],[-75.097365,39.946878],[-75.097365,39.946905]]],[[[-75.097579,39.946904],[-75.09765,39.946931],[-75.097579,39.946932],[-75.097579,39.946904]]],[[[-75.097579,39.946959],[-75.097508,39.946905],[-75.097543,39.946904],[-75.097579,39.946959]]],[[[-75.0984,39.946955],[-75.098436,39.946982],[-75.0984,39.946982],[-75.0984,39.946955]]],[[[-75.097402,39.947042],[-75.097437,39.94696],[-75.097508,39.946959],[-75.097402,39.947042]]],[[[-75.097259,39.947071],[-75.09733,39.947043],[-75.097331,39.94707],[-75.097259,39.947071]]],[[[-75.097188,39.947071],[-75.097224,39.947126],[-75.097153,39.947126],[-75.097188,39.947071]]],[[[-75.097511,39.947316],[-75.097476,39.947344],[-75.097475,39.947316],[-75.097511,39.947316]]],[[[-75.096114,39.913748],[-75.096222,39.913802],[-75.096294,39.913883],[-75.096244,39.913898],[-75.096114,39.913748]]],[[[-75.09708,39.946989],[-75.097116,39.947016],[-75.09708,39.947017],[-75.09708,39.946989]]],[[[-75.097082,39.947154],[-75.097153,39.947126],[-75.097153,39.947153],[-75.097082,39.947154]]],[[[-75.096618,39.947129],[-75.096689,39.947156],[-75.096618,39.947156],[-75.096618,39.947129]]],[[[-75.096547,39.947157],[-75.096583,39.947184],[-75.096547,39.947184],[-75.096547,39.947157]]],[[[-75.096476,39.947212],[-75.096511,39.947184],[-75.096511,39.947212],[-75.096476,39.947212]]],[[[-75.09644,39.947239],[-75.096476,39.947212],[-75.096476,39.947239],[-75.09644,39.947239]]],[[[-75.096904,39.947265],[-75.096833,39.947237],[-75.096904,39.947237],[-75.096904,39.947265]]],[[[-75.096405,39.94724],[-75.096369,39.947267],[-75.096369,39.94724],[-75.096405,39.94724]]],[[[-75.096762,39.947293],[-75.096833,39.947265],[-75.096833,39.947292],[-75.096762,39.947293]]],[[[-75.096298,39.947268],[-75.096334,39.947295],[-75.096298,39.947295],[-75.096298,39.947268]]],[[[-75.096726,39.94732],[-75.096762,39.947293],[-75.096762,39.94732],[-75.096726,39.94732]]],[[[-75.096655,39.947348],[-75.096726,39.94732],[-75.096727,39.947348],[-75.096655,39.947348]]],[[[-75.096584,39.947376],[-75.096655,39.947348],[-75.096656,39.947376],[-75.096584,39.947376]]],[[[-75.096513,39.947404],[-75.096584,39.947376],[-75.096584,39.947403],[-75.096513,39.947404]]],[[[-75.096478,39.947431],[-75.096513,39.947404],[-75.096513,39.947431],[-75.096478,39.947431]]],[[[-75.096442,39.947432],[-75.096407,39.947459],[-75.096406,39.947432],[-75.096442,39.947432]]],[[[-75.097156,39.947483],[-75.097191,39.947455],[-75.097192,39.947483],[-75.097156,39.947483]]],[[[-75.096692,39.947458],[-75.096728,39.947485],[-75.096692,39.947485],[-75.096692,39.947458]]],[[[-75.096335,39.94746],[-75.096371,39.947487],[-75.096336,39.947487],[-75.096335,39.94746]]],[[[-75.09687,39.947457],[-75.096409,39.947706],[-75.096302,39.947707],[-75.096906,39.947429],[-75.096656,39.947431],[-75.096869,39.947292],[-75.097155,39.947346],[-75.09687,39.947457]],[[-75.097012,39.947319],[-75.096905,39.947374],[-75.097012,39.947346],[-75.097012,39.947319]]],[[[-75.09655,39.947541],[-75.096514,39.947459],[-75.096656,39.947431],[-75.09655,39.947541]]],[[[-75.096264,39.947515],[-75.0963,39.947487],[-75.0963,39.947515],[-75.096264,39.947515]]],[[[-75.096407,39.947542],[-75.096478,39.947514],[-75.096479,39.947541],[-75.096407,39.947542]]],[[[-75.096872,39.947622],[-75.096836,39.947594],[-75.096871,39.947594],[-75.096872,39.947622]]],[[[-75.09673,39.947677],[-75.096765,39.94765],[-75.096765,39.947677],[-75.09673,39.947677]]],[[[-75.096765,39.947677],[-75.096801,39.947704],[-75.096765,39.947704],[-75.096765,39.947677]]],[[[-75.096658,39.947678],[-75.09673,39.947732],[-75.096659,39.947732],[-75.096658,39.947678]]],[[[-75.096623,39.947733],[-75.096587,39.947705],[-75.096623,39.947705],[-75.096623,39.947733]]],[[[-75.096481,39.947761],[-75.096516,39.947788],[-75.096481,39.947788],[-75.096481,39.947761]]],[[[-75.09641,39.947816],[-75.096374,39.947844],[-75.096374,39.947816],[-75.09641,39.947816]]],[[[-75.096375,39.947954],[-75.096411,39.948008],[-75.09634,39.948009],[-75.096375,39.947954]]],[[[-75.097446,39.947976],[-75.0978,39.947754],[-75.097624,39.94803],[-75.098015,39.94789],[-75.098017,39.948055],[-75.096985,39.948335],[-75.096775,39.948775],[-75.09649,39.948859],[-75.096804,39.948006],[-75.096446,39.947926],[-75.097086,39.947675],[-75.096801,39.947677],[-75.0968,39.947622],[-75.096872,39.947649],[-75.097085,39.947566],[-75.097227,39.947455],[-75.097155,39.947428],[-75.096942,39.947511],[-75.096907,39.947594],[-75.096836,39.947567],[-75.096729,39.94765],[-75.096658,39.94765],[-75.096658,39.947678],[-75.096587,39.947678],[-75.096552,39.947733],[-75.096445,39.947734],[-75.096338,39.947817],[-75.096231,39.94779],[-75.097191,39.947373],[-75.0978,39.947672],[-75.097446,39.947976]],[[-75.096738,39.948666],[-75.096703,39.948693],[-75.096738,39.948693],[-75.096738,39.948666]],[[-75.097086,39.947648],[-75.097192,39.947592],[-75.097086,39.94762],[-75.097086,39.947648]],[[-75.097192,39.947592],[-75.097264,39.947565],[-75.097192,39.947565],[-75.097192,39.947592]],[[-75.097264,39.947565],[-75.097299,39.947537],[-75.097263,39.947537],[-75.097264,39.947565]],[[-75.097443,39.947646],[-75.097372,39.947674],[-75.097443,39.947674],[-75.097443,39.947646]],[[-75.097372,39.947701],[-75.097194,39.94773],[-75.097158,39.947785],[-75.097372,39.947701]],[[-75.097159,39.947812],[-75.097016,39.94784],[-75.097017,39.947868],[-75.097159,39.947812]],[[-75.097446,39.947976],[-75.09741,39.948003],[-75.097446,39.948003],[-75.097446,39.947976]]],[[[-75.096704,39.94883],[-75.096739,39.948803],[-75.09674,39.94883],[-75.096704,39.94883]]],[[[-75.096668,39.948858],[-75.096704,39.94883],[-75.096704,39.948858],[-75.096668,39.948858]]],[[[-75.096597,39.948858],[-75.096633,39.948886],[-75.096597,39.948886],[-75.096597,39.948858]]],[[[-75.096564,39.949161],[-75.096208,39.949245],[-75.096101,39.949245],[-75.096349,39.948997],[-75.096564,39.949161]]],[[[-75.093304,39.910413],[-75.093619,39.909725],[-75.093905,39.909806],[-75.094018,39.910464],[-75.093558,39.910851],[-75.093306,39.910605],[-75.093304,39.910413]],[[-75.093377,39.910604],[-75.093413,39.910549],[-75.093377,39.910549],[-75.093377,39.910604]]],[[[-75.096042,39.913666],[-75.096042,39.913677],[-75.096032,39.913666],[-75.096042,39.913666]]],[[[-75.096078,39.913717],[-75.096057,39.913693],[-75.096078,39.913693],[-75.096078,39.913717]]],[[[-75.096081,39.91372],[-75.096114,39.913748],[-75.096106,39.913748],[-75.096081,39.91372]]],[[[-75.092541,39.921096],[-75.092577,39.921123],[-75.092541,39.921123],[-75.092541,39.921096]]],[[[-75.090867,39.921324],[-75.090903,39.921324],[-75.090867,39.921324],[-75.090867,39.921324]]],[[[-75.090656,39.921627],[-75.090691,39.9216],[-75.090691,39.921627],[-75.090656,39.921627]]],[[[-75.093263,39.922081],[-75.092986,39.92307],[-75.092555,39.922771],[-75.0927,39.92299],[-75.092485,39.922936],[-75.09245,39.922963],[-75.092379,39.922964],[-75.092414,39.922909],[-75.092342,39.922882],[-75.092343,39.922909],[-75.092271,39.922909],[-75.092235,39.9228],[-75.092199,39.922827],[-75.092092,39.922828],[-75.092163,39.922718],[-75.091947,39.922554],[-75.09134,39.922365],[-75.090946,39.922175],[-75.09073,39.922011],[-75.090764,39.921819],[-75.090586,39.921792],[-75.091046,39.921351],[-75.090921,39.921296],[-75.092076,39.920877],[-75.092005,39.921016],[-75.093721,39.921502],[-75.093867,39.921913],[-75.093724,39.921804],[-75.093689,39.921941],[-75.093263,39.922081]],[[-75.091339,39.922338],[-75.091375,39.92231],[-75.091339,39.92231],[-75.091339,39.922338]],[[-75.090766,39.922011],[-75.090801,39.921983],[-75.090766,39.921984],[-75.090766,39.922011]],[[-75.093476,39.92197],[-75.09344,39.921942],[-75.09344,39.92197],[-75.093476,39.92197]]],[[[-75.091554,39.922446],[-75.091662,39.922528],[-75.091591,39.922556],[-75.091554,39.922446]]],[[[-75.091949,39.922691],[-75.092056,39.922746],[-75.091949,39.922746],[-75.091949,39.922691]]],[[[-75.093874,39.922736],[-75.09391,39.922764],[-75.093875,39.922764],[-75.093874,39.922736]]],[[[-75.09391,39.922764],[-75.093946,39.922791],[-75.09391,39.922791],[-75.09391,39.922764]]],[[[-75.093518,39.922766],[-75.093483,39.922793],[-75.093482,39.922766],[-75.093518,39.922766]]],[[[-75.093483,39.922793],[-75.093376,39.922849],[-75.093376,39.922821],[-75.093483,39.922793]]],[[[-75.092235,39.922855],[-75.092199,39.922827],[-75.092235,39.922827],[-75.092235,39.922855]]],[[[-75.093341,39.922876],[-75.093376,39.922849],[-75.093376,39.922876],[-75.093341,39.922876]]],[[[-75.093234,39.92285],[-75.093269,39.922877],[-75.093234,39.922877],[-75.093234,39.92285]]],[[[-75.093802,39.922654],[-75.093699,39.923094],[-75.093557,39.923095],[-75.093556,39.92304],[-75.093414,39.923068],[-75.093589,39.922683],[-75.093802,39.922654]]],[[[-75.093198,39.922905],[-75.093234,39.922877],[-75.093234,39.922904],[-75.093198,39.922905]]],[[[-75.092379,39.922936],[-75.092343,39.922909],[-75.092378,39.922909],[-75.092379,39.922936]]],[[[-75.092486,39.922991],[-75.09245,39.922963],[-75.092486,39.922963],[-75.092486,39.922991]]],[[[-75.093307,39.923069],[-75.093343,39.923096],[-75.093307,39.923096],[-75.093307,39.923069]]],[[[-75.093735,39.923121],[-75.093699,39.923094],[-75.093735,39.923094],[-75.093735,39.923121]]],[[[-75.093272,39.923124],[-75.093307,39.923096],[-75.093307,39.923124],[-75.093272,39.923124]]],[[[-75.093879,39.923313],[-75.093775,39.923615],[-75.092986,39.923125],[-75.093307,39.923151],[-75.093378,39.923096],[-75.093879,39.923313]]],[[[-75.084869,39.924622],[-75.084833,39.924594],[-75.084869,39.924594],[-75.084869,39.924622]]],[[[-75.086002,39.931974],[-75.085966,39.932001],[-75.085966,39.931974],[-75.086002,39.931974]]],[[[-75.096195,39.94779],[-75.09623,39.947707],[-75.096302,39.947707],[-75.096195,39.94779]]],[[[-75.096053,39.947818],[-75.096124,39.94779],[-75.096124,39.947818],[-75.096053,39.947818]]],[[[-75.095982,39.947846],[-75.096053,39.947818],[-75.096053,39.947845],[-75.095982,39.947846]]],[[[-75.095911,39.947846],[-75.095947,39.947901],[-75.095875,39.947901],[-75.095911,39.947846]]],[[[-75.095804,39.947902],[-75.095876,39.947929],[-75.095804,39.947929],[-75.095804,39.947902]]],[[[-75.095733,39.947957],[-75.095804,39.947929],[-75.095805,39.947957],[-75.095733,39.947957]]],[[[-75.095555,39.948013],[-75.095591,39.94804],[-75.095556,39.94804],[-75.095555,39.948013]]],[[[-75.086373,39.954621],[-75.085049,39.954106],[-75.085261,39.95383],[-75.086511,39.953989],[-75.086373,39.954621]]],[[[-75.084308,39.96424],[-75.084315,39.96424],[-75.084315,39.964249],[-75.084308,39.96424]]],[[[-75.08435,39.964295],[-75.084351,39.964295],[-75.084351,39.964297],[-75.08435,39.964295]]]]}}]}