{"type":"FeatureCollection","features":[{"type":"Feature","properties":{"level_ft":17},"geometry":{"type":"MultiPolygon","coordinates":[[[[-75.113804,39.902536],[-75.113733,39.902509],[-75.113804,39.902509],[-75.113804,39.902536]]],[[[-75.113521,39.902758],[-75.112627,39.902405],[-75.113842,39.902728],[-75.113521,39.902758]]],[[[-75.115339,39.902693],[-75.115267,39.902666],[-75.115338,39.902666],[-75.115339,39.902693]]],[[[-75.115878,39.911146],[-75.115913,39.911118],[-75.115913,39.911146],[-75.115878,39.911146]]],[[[-75.111223,39.916881],[-75.111116,39.916909],[-75.111116,39.916882],[-75.111223,39.916881]]],[[[-75.116161,39.926903],[-75.116092,39.92715],[-75.116126,39.926903],[-75.116161,39.926903]]],[[[-75.114494,39.927873],[-75.114458,39.927845],[-75.114494,39.927845],[-75.114494,39.927873]]],[[[-75.114459,39.9279],[-75.114423,39.927873],[-75.114458,39.927873],[-75.114459,39.9279]]],[[[-75.114388,39.927928],[-75.114423,39.9279],[-75.114423,39.927928],[-75.114388,39.927928]]],[[[-75.11496,39.928172],[-75.114924,39.928145],[-75.11496,39.928145],[-75.11496,39.928172]]],[[[-75.11414,39.928204],[-75.114105,39.928177],[-75.11414,39.928177],[-75.11414,39.928204]]],[[[-75.114105,39.928232],[-75.114069,39.928204],[-75.114105,39.928204],[-75.114105,39.928232]]],[[[-75.112726,39.929584],[-75.112762,39.929611],[-75.112727,39.929612],[-75.112726,39.929584]]],[[[-75.107148,39.931892],[-75.107184,39.931865],[-75.107184,39.931892],[-75.107148,39.931892]]],[[[-75.119534,39.948985],[-75.119501,39.94926],[-75.120614,39.95005],[-75.122834,39.951027],[-75.134089,39.953025],[-75.132873,39.956031],[-75.131493,39.958068],[-75.129626,39.95992],[-75.126703,39.961844],[-75.122172,39.964298],[-75.119748,39.96171],[-75.118447,39.960723],[-75.115839,39.959328],[-75.110143,39.958016],[-75.107366,39.958114],[-75.106227,39.958401],[-75.104126,39.95944],[-75.099304,39.963276],[-75.096051,39.965546],[-75.093629,39.966868],[-75.088038,39.969383],[-75.083353,39.962982],[-75.08391,39.962842],[-75.084092,39.963171],[-75.084484,39.963141],[-75.085094,39.963577],[-75.085379,39.963493],[-75.08624,39.964038],[-75.086525,39.964009],[-75.086487,39.963762],[-75.08681,39.963953],[-75.087166,39.963869],[-75.08699,39.964144],[-75.087638,39.9648],[-75.088172,39.964715],[-75.088632,39.964246],[-75.088377,39.963588],[-75.087983,39.963508],[-75.088156,39.962848],[-75.087862,39.961779],[-75.088291,39.961914],[-75.08814,39.961009],[-75.087925,39.960873],[-75.087927,39.96112],[-75.08728,39.960519],[-75.086995,39.96052],[-75.086669,39.959945],[-75.086528,39.960166],[-75.08617,39.960058],[-75.08688,39.959587],[-75.086807,39.959423],[-75.087305,39.959256],[-75.086153,39.958026],[-75.086148,39.957532],[-75.086503,39.957283],[-75.086072,39.956901],[-75.085717,39.957123],[-75.084854,39.956386],[-75.087725,39.954202],[-75.08823,39.954859],[-75.088587,39.954802],[-75.08884,39.955185],[-75.090017,39.955234],[-75.090022,39.955783],[-75.090559,39.955972],[-75.090847,39.956355],[-75.091203,39.956271],[-75.091278,39.956683],[-75.092027,39.956624],[-75.092168,39.956431],[-75.092704,39.956538],[-75.092356,39.957528],[-75.092715,39.957856],[-75.092721,39.95846],[-75.093042,39.958513],[-75.092836,39.959475],[-75.093266,39.959637],[-75.093019,39.959941],[-75.093454,39.960762],[-75.093206,39.960955],[-75.093675,39.961557],[-75.094355,39.961828],[-75.095103,39.961687],[-75.095775,39.961052],[-75.096381,39.960884],[-75.096262,39.959512],[-75.09576,39.959268],[-75.095177,39.957843],[-75.095313,39.957046],[-75.095842,39.95633],[-75.095658,39.955754],[-75.097532,39.953768],[-75.096882,39.952865],[-75.097055,39.952315],[-75.096803,39.952015],[-75.097158,39.951875],[-75.09662,39.951439],[-75.097048,39.951437],[-75.096581,39.951165],[-75.096649,39.950698],[-75.095825,39.950317],[-75.095787,39.950098],[-75.095116,39.950788],[-75.095432,39.950237],[-75.095007,39.950596],[-75.094828,39.950515],[-75.094688,39.950845],[-75.094082,39.95093],[-75.093373,39.951428],[-75.092123,39.95127],[-75.090985,39.951605],[-75.090877,39.951551],[-75.094101,39.948954],[-75.094597,39.948512],[-75.09456,39.948375],[-75.094738,39.948374],[-75.094808,39.948264],[-75.094986,39.948208],[-75.094807,39.948154],[-75.095055,39.947933],[-75.095447,39.947876],[-75.096797,39.947238],[-75.096583,39.947184],[-75.096583,39.947211],[-75.096511,39.947212],[-75.096512,39.947239],[-75.096298,39.947295],[-75.096263,39.94735],[-75.096192,39.947351],[-75.096192,39.947378],[-75.096156,39.947378],[-75.096121,39.947461],[-75.096014,39.947434],[-75.096014,39.947461],[-75.095907,39.947489],[-75.095908,39.947517],[-75.095836,39.947517],[-75.095766,39.947572],[-75.095694,39.947573],[-75.095659,39.947628],[-75.095197,39.947795],[-75.095197,39.947822],[-75.095161,39.947823],[-75.095162,39.94785],[-75.094948,39.947906],[-75.094948,39.947933],[-75.094913,39.947934],[-75.094913,39.947961],[-75.094841,39.947961],[-75.094806,39.948017],[-75.094628,39.948072],[-75.094416,39.948266],[-75.094345,39.948266],[-75.093424,39.949039],[-75.093246,39.94904],[-75.092998,39.949234],[-75.092926,39.949152],[-75.093103,39.949041],[-75.093031,39.948987],[-75.092286,39.949457],[-75.093633,39.948462],[-75.092569,39.949126],[-75.09246,39.948935],[-75.091149,39.949957],[-75.091184,39.94982],[-75.092814,39.948576],[-75.091745,39.948746],[-75.091956,39.948443],[-75.091277,39.948227],[-75.091311,39.948034],[-75.091101,39.948475],[-75.090736,39.947571],[-75.090236,39.947463],[-75.09052,39.94727],[-75.090193,39.94664],[-75.090439,39.946145],[-75.089939,39.946092],[-75.089972,39.945845],[-75.089545,39.945902],[-75.089399,39.945601],[-75.08865,39.945577],[-75.088289,39.945085],[-75.08804,39.945168],[-75.087781,39.944072],[-75.087467,39.944897],[-75.087075,39.944899],[-75.08735,39.943689],[-75.086819,39.944131],[-75.086458,39.943612],[-75.086777,39.943418],[-75.086453,39.943063],[-75.086917,39.943143],[-75.086987,39.942977],[-75.086484,39.942486],[-75.086091,39.942433],[-75.085981,39.942131],[-75.085373,39.941942],[-75.085371,39.941668],[-75.085728,39.941748],[-75.085548,39.941475],[-75.084906,39.941505],[-75.084939,39.941203],[-75.083686,39.940633],[-75.089268,39.935738],[-75.089851,39.936182],[-75.090135,39.936064],[-75.090084,39.935271],[-75.089724,39.934693],[-75.088931,39.934367],[-75.087064,39.93482],[-75.08639,39.934661],[-75.086313,39.932656],[-75.085922,39.931765],[-75.087362,39.929346],[-75.087435,39.927986],[-75.087105,39.927059],[-75.086365,39.926725],[-75.083626,39.926701],[-75.08138,39.925993],[-75.085683,39.923904],[-75.085615,39.924233],[-75.085937,39.924369],[-75.087186,39.924473],[-75.087294,39.924664],[-75.088616,39.924987],[-75.090007,39.924952],[-75.090688,39.925361],[-75.091041,39.92492],[-75.090147,39.924677],[-75.090107,39.924211],[-75.091175,39.923931],[-75.092215,39.924612],[-75.092646,39.925021],[-75.092292,39.925353],[-75.092799,39.926229],[-75.09323,39.926556],[-75.094372,39.926632],[-75.094659,39.926878],[-75.094412,39.927181],[-75.093628,39.927295],[-75.093811,39.927788],[-75.093528,39.928009],[-75.092602,39.928234],[-75.092031,39.928072],[-75.091496,39.928075],[-75.091426,39.928295],[-75.091139,39.928104],[-75.090071,39.928219],[-75.089961,39.927918],[-75.089533,39.927892],[-75.089214,39.928196],[-75.089936,39.929153],[-75.090014,39.929922],[-75.089202,39.930941],[-75.092463,39.932764],[-75.092756,39.933614],[-75.093583,39.934406],[-75.094689,39.934482],[-75.095098,39.936375],[-75.095916,39.936151],[-75.095463,39.937361],[-75.095823,39.937744],[-75.097067,39.937271],[-75.098138,39.93743],[-75.098993,39.937261],[-75.099558,39.936599],[-75.09981,39.936845],[-75.100344,39.936814],[-75.099984,39.936459],[-75.100478,39.935825],[-75.100262,39.935552],[-75.100469,39.934782],[-75.100145,39.934372],[-75.100466,39.934425],[-75.10032,39.934014],[-75.10064,39.933903],[-75.100672,39.933491],[-75.101312,39.933268],[-75.10123,39.932033],[-75.10194,39.931755],[-75.101938,39.93148],[-75.102614,39.931257],[-75.103215,39.93065],[-75.103395,39.930896],[-75.103465,39.930703],[-75.103608,39.930812],[-75.103357,39.930594],[-75.103675,39.930318],[-75.103495,39.930072],[-75.107076,39.931783],[-75.107185,39.932002],[-75.109085,39.933117],[-75.110309,39.934429],[-75.111217,39.936318],[-75.112735,39.942597],[-75.112525,39.942955],[-75.112274,39.942874],[-75.111741,39.943069],[-75.11089,39.943623],[-75.106654,39.944551],[-75.111924,39.943617],[-75.112562,39.943175],[-75.112807,39.942569],[-75.113235,39.942595],[-75.112958,39.943557],[-75.111855,39.943865],[-75.111823,39.944222],[-75.111324,39.944307],[-75.111219,39.944582],[-75.11183,39.945073],[-75.111618,39.945266],[-75.112511,39.945399],[-75.112652,39.945261],[-75.112257,39.944933],[-75.112217,39.944494],[-75.112929,39.944326],[-75.112972,39.945122],[-75.113688,39.945392],[-75.11409,39.946488],[-75.111375,39.946009],[-75.111876,39.946226],[-75.111813,39.947104],[-75.112029,39.947323],[-75.111031,39.947493],[-75.110254,39.948321],[-75.11066,39.949911],[-75.111054,39.950073],[-75.110737,39.950487],[-75.111815,39.951387],[-75.111781,39.95158],[-75.111139,39.951528],[-75.111144,39.952132],[-75.111836,39.953693],[-75.112872,39.95388],[-75.113054,39.954263],[-75.11348,39.954124],[-75.11377,39.954644],[-75.113874,39.954286],[-75.114696,39.954419],[-75.114736,39.954886],[-75.115807,39.955017],[-75.115703,39.955292],[-75.115918,39.955401],[-75.116379,39.955097],[-75.116311,39.955509],[-75.116705,39.955672],[-75.11667,39.955782],[-75.116421,39.955783],[-75.116421,39.955865],[-75.117133,39.955669],[-75.117309,39.955421],[-75.116774,39.955369],[-75.116664,39.955095],[-75.116985,39.955093],[-75.117123,39.954571],[-75.117622,39.954568],[-75.117656,39.954321],[-75.117298,39.954131],[-75.118011,39.9541],[-75.117829,39.953744],[-75.118362,39.953549],[-75.11786,39.953249],[-75.118286,39.953028],[-75.117855,39.952673],[-75.118746,39.952531],[-75.118601,39.952285],[-75.118815,39.952256],[-75.11824,39.951847],[-75.119273,39.951622],[-75.119382,39.951896],[-75.119307,39.951457],[-75.119913,39.951399],[-75.119553,39.951126],[-75.119199,39.951348],[-75.119268,39.951073],[-75.118981,39.95091],[-75.11933,39.95003],[-75.118793,39.94984],[-75.119289,39.949481],[-75.118928,39.948988],[-75.119356,39.948986],[-75.11939,39.948849],[-75.119246,39.948712],[-75.119461,39.948821],[-75.119461,39.948739],[-75.119709,39.948572],[-75.119385,39.9483],[-75.119599,39.948216],[-75.119241,39.948108],[-75.11931,39.947888],[-75.118594,39.947618],[-75.118837,39.946875],[-75.119375,39.947147],[-75.119586,39.946816],[-75.119121,39.946709],[-75.119335,39.946625],[-75.119155,39.946461],[-75.119726,39.946513],[-75.119865,39.946101],[-75.120826,39.945849],[-75.120358,39.945439],[-75.121678,39.945487],[-75.121712,39.945267],[-75.121962,39.945266],[-75.121529,39.944747],[-75.121173,39.944803],[-75.121275,39.944309],[-75.120775,39.944229],[-75.120557,39.943764],[-75.12013,39.943876],[-75.119807,39.943603],[-75.119704,39.94407],[-75.11949,39.944044],[-75.119271,39.943523],[-75.119519,39.943357],[-75.118628,39.943444],[-75.118231,39.942925],[-75.117661,39.942983],[-75.117124,39.942766],[-75.116947,39.942959],[-75.116478,39.942358],[-75.117833,39.942241],[-75.118043,39.941883],[-75.1179,39.941746],[-75.117652,39.941967],[-75.117224,39.941942],[-75.117393,39.940925],[-75.116536,39.940875],[-75.116601,39.940078],[-75.116206,39.939833],[-75.116598,39.939831],[-75.11663,39.939392],[-75.116164,39.93912],[-75.116591,39.939063],[-75.116591,39.93898],[-75.116306,39.939064],[-75.116019,39.938846],[-75.116767,39.938732],[-75.116801,39.938595],[-75.116159,39.938543],[-75.116012,39.938105],[-75.116866,39.937908],[-75.115975,39.937885],[-75.115898,39.937282],[-75.116044,39.937638],[-75.116113,39.937418],[-75.117041,39.93744],[-75.117078,39.937687],[-75.117541,39.937548],[-75.118184,39.937736],[-75.118186,39.937901],[-75.117723,39.937958],[-75.117941,39.938397],[-75.118547,39.938393],[-75.118613,39.937816],[-75.118654,39.938448],[-75.119121,39.93872],[-75.119332,39.938444],[-75.119974,39.938441],[-75.120004,39.937782],[-75.120145,39.937616],[-75.120609,39.937696],[-75.120856,39.937393],[-75.120854,39.937173],[-75.120605,39.937174],[-75.120852,39.936899],[-75.120812,39.936487],[-75.120562,39.936406],[-75.120772,39.935938],[-75.120378,39.935775],[-75.120659,39.935335],[-75.120194,39.935118],[-75.120512,39.934869],[-75.120544,39.934457],[-75.120116,39.934404],[-75.120468,39.933881],[-75.119967,39.933691],[-75.120358,39.933524],[-75.120032,39.933059],[-75.119318,39.932953],[-75.119242,39.93246],[-75.116676,39.932638],[-75.116392,39.932749],[-75.116608,39.932995],[-75.116114,39.933602],[-75.115865,39.933631],[-75.115863,39.933384],[-75.115756,39.933384],[-75.115793,39.933521],[-75.115293,39.933469],[-75.114831,39.933691],[-75.114869,39.933938],[-75.115547,39.933989],[-75.113591,39.934576],[-75.113914,39.934739],[-75.113453,39.935126],[-75.113456,39.9354],[-75.11367,39.935399],[-75.113387,39.935648],[-75.113748,39.936113],[-75.113645,39.936607],[-75.11411,39.936715],[-75.114321,39.936467],[-75.114395,39.936713],[-75.115144,39.936737],[-75.114433,39.937015],[-75.115075,39.937039],[-75.115043,39.937369],[-75.115397,39.937147],[-75.115577,39.937256],[-75.114799,39.938001],[-75.114619,39.937893],[-75.114831,39.937644],[-75.114154,39.93773],[-75.114192,39.937922],[-75.113694,39.938062],[-75.11391,39.938363],[-75.113446,39.938283],[-75.113666,39.938968],[-75.113164,39.938669],[-75.113129,39.938752],[-75.113673,39.939764],[-75.113208,39.939602],[-75.113177,39.940069],[-75.112631,39.938919],[-75.111635,39.93519],[-75.111693,39.93368],[-75.112358,39.932249],[-75.113488,39.931008],[-75.115224,39.929763],[-75.114833,39.929848],[-75.115923,39.928195],[-75.116103,39.928303],[-75.116208,39.928111],[-75.116693,39.918582],[-75.116516,39.914712],[-75.116866,39.914023],[-75.116652,39.914024],[-75.116791,39.913667],[-75.116143,39.912874],[-75.115984,39.911118],[-75.115661,39.910873],[-75.115418,39.91156],[-75.115133,39.911589],[-75.115677,39.912602],[-75.115544,39.913728],[-75.116218,39.917349],[-75.115734,39.926988],[-75.114673,39.927954],[-75.115069,39.928309],[-75.114862,39.929161],[-75.112211,39.931811],[-75.111053,39.933848],[-75.110794,39.932861],[-75.110824,39.93223],[-75.111102,39.931405],[-75.114282,39.928066],[-75.113998,39.928232],[-75.112655,39.929585],[-75.112513,39.929613],[-75.111276,39.930882],[-75.110648,39.93245],[-75.110666,39.934454],[-75.108975,39.932816],[-75.107648,39.931944],[-75.104317,39.930287],[-75.107274,39.929942],[-75.108799,39.929056],[-75.108288,39.927686],[-75.108715,39.927601],[-75.108498,39.927273],[-75.108889,39.927079],[-75.108883,39.926392],[-75.108807,39.925926],[-75.108413,39.925708],[-75.108662,39.92568],[-75.108941,39.924964],[-75.10969,39.925015],[-75.109795,39.924768],[-75.109151,39.924551],[-75.109969,39.924218],[-75.10993,39.923916],[-75.109538,39.923863],[-75.109499,39.923589],[-75.108999,39.923482],[-75.108639,39.923017],[-75.107854,39.922993],[-75.106494,39.922424],[-75.106487,39.921683],[-75.105771,39.921357],[-75.105482,39.920892],[-75.105759,39.919902],[-75.105362,39.91941],[-75.105006,39.919467],[-75.105036,39.918863],[-75.104714,39.918727],[-75.105068,39.918396],[-75.105213,39.918724],[-75.105961,39.918638],[-75.106213,39.918884],[-75.107496,39.918795],[-75.107637,39.918629],[-75.108423,39.91879],[-75.109809,39.918316],[-75.11081,39.918585],[-75.111414,39.918362],[-75.111559,39.918581],[-75.11202,39.918332],[-75.111591,39.918169],[-75.112089,39.918057],[-75.112156,39.917617],[-75.112479,39.917863],[-75.112513,39.917588],[-75.113011,39.917558],[-75.113009,39.917256],[-75.113863,39.917142],[-75.11265,39.916956],[-75.112365,39.917067],[-75.112546,39.917368],[-75.112333,39.917479],[-75.111619,39.917373],[-75.112117,39.917178],[-75.111294,39.916908],[-75.112183,39.916656],[-75.111856,39.915972],[-75.10943,39.915792],[-75.108761,39.916674],[-75.108513,39.91684],[-75.107407,39.916791],[-75.108015,39.916953],[-75.107516,39.917038],[-75.107337,39.916984],[-75.107091,39.917397],[-75.106768,39.917069],[-75.106484,39.917208],[-75.106482,39.917071],[-75.10527,39.917049],[-75.105239,39.917571],[-75.104846,39.917518],[-75.104886,39.917985],[-75.104533,39.918371],[-75.103891,39.918374],[-75.103566,39.917937],[-75.102889,39.917913],[-75.101922,39.917479],[-75.101813,39.917232],[-75.101629,39.91737],[-75.099865,39.913659],[-75.099497,39.913857],[-75.098545,39.91379],[-75.098005,39.914078],[-75.097647,39.913585],[-75.097222,39.913508],[-75.096244,39.913898],[-75.093198,39.910468],[-75.093548,39.909752],[-75.092638,39.909537],[-75.096955,39.908319],[-75.097411,39.907987],[-75.094606,39.901418],[-75.096148,39.901173],[-75.099608,39.90154],[-75.100285,39.901427],[-75.100104,39.901181],[-75.097964,39.900945],[-75.097994,39.900313],[-75.097604,39.900589],[-75.097572,39.901001],[-75.096214,39.900926],[-75.098539,39.899649],[-75.101015,39.898908],[-75.102116,39.899107],[-75.102917,39.899882],[-75.104793,39.900527],[-75.107941,39.900238],[-75.109679,39.899245],[-75.111611,39.898588],[-75.112968,39.899172],[-75.113453,39.89966],[-75.113777,39.901008],[-75.11441,39.90145],[-75.116358,39.902119],[-75.11655,39.902879],[-75.115194,39.902502],[-75.113112,39.900893],[-75.112397,39.900567],[-75.112822,39.90029],[-75.112746,39.899742],[-75.111742,39.899088],[-75.111564,39.899117],[-75.112677,39.899989],[-75.112574,39.900429],[-75.109719,39.900142],[-75.108405,39.900643],[-75.109082,39.900557],[-75.10912,39.900914],[-75.109509,39.900473],[-75.110149,39.900305],[-75.112183,39.900568],[-75.115267,39.902639],[-75.113337,39.9021],[-75.112406,39.901583],[-75.111256,39.900518],[-75.110863,39.900465],[-75.110827,39.900411],[-75.111477,39.901423],[-75.113733,39.902482],[-75.10973,39.901377],[-75.112768,39.902295],[-75.111055,39.902057],[-75.110272,39.902171],[-75.11099,39.902689],[-75.11095,39.902222],[-75.112021,39.902409],[-75.111883,39.902986],[-75.112677,39.904025],[-75.112241,39.903121],[-75.112343,39.902572],[-75.11363,39.902949],[-75.113635,39.903553],[-75.113774,39.903113],[-75.114202,39.903111],[-75.11402,39.9027],[-75.116513,39.903126],[-75.116286,39.90374],[-75.11488,39.9054],[-75.114715,39.906125],[-75.117488,39.90849],[-75.120177,39.908514],[-75.121403,39.907762],[-75.122836,39.907428],[-75.129344,39.907381],[-75.129091,39.911608],[-75.12984,39.915359],[-75.135874,39.927639],[-75.136571,39.929951],[-75.136732,39.939233],[-75.136267,39.943911],[-75.135365,39.948635],[-75.134194,39.952774],[-75.123118,39.95086],[-75.1214,39.950211],[-75.119534,39.948985]],[[-75.119534,39.948985],[-75.119498,39.94893],[-75.119498,39.948985],[-75.119534,39.948985]],[[-75.084521,39.963278],[-75.084485,39.963306],[-75.084521,39.963306],[-75.084521,39.963278]],[[-75.095431,39.950182],[-75.095609,39.950099],[-75.095609,39.950044],[-75.095431,39.950182]],[[-75.095609,39.950044],[-75.095644,39.950016],[-75.095608,39.950017],[-75.095609,39.950044]],[[-75.095644,39.949961],[-75.095857,39.949851],[-75.095856,39.949796],[-75.095644,39.949961]],[[-75.095856,39.949796],[-75.095892,39.949768],[-75.095856,39.949768],[-75.095856,39.949796]],[[-75.095892,39.949768],[-75.095927,39.94974],[-75.095891,39.949741],[-75.095892,39.949768]],[[-75.095927,39.94974],[-75.095962,39.949713],[-75.095927,39.949713],[-75.095927,39.94974]],[[-75.095962,39.949713],[-75.095998,39.949685],[-75.095962,39.949685],[-75.095962,39.949713]],[[-75.091483,39.95141],[-75.091447,39.951383],[-75.091447,39.951411],[-75.091483,39.95141]],[[-75.091376,39.951466],[-75.09134,39.951439],[-75.09134,39.951466],[-75.091376,39.951466]],[[-75.094596,39.948429],[-75.094631,39.948402],[-75.094596,39.948402],[-75.094596,39.948429]],[[-75.094632,39.948429],[-75.094667,39.948457],[-75.094667,39.948429],[-75.094632,39.948429]],[[-75.094667,39.948429],[-75.094703,39.948401],[-75.094667,39.948402],[-75.094667,39.948429]],[[-75.094915,39.948236],[-75.094951,39.948263],[-75.094951,39.948235],[-75.094915,39.948236]],[[-75.094985,39.948098],[-75.095093,39.94818],[-75.095164,39.948152],[-75.095092,39.94807],[-75.095057,39.948098],[-75.094985,39.948098]],[[-75.09669,39.947183],[-75.096654,39.947156],[-75.096654,39.947183],[-75.09669,39.947183]],[[-75.096121,39.947433],[-75.096085,39.947406],[-75.096085,39.947433],[-75.096121,39.947433]],[[-75.093633,39.948434],[-75.09374,39.948434],[-75.093811,39.948379],[-75.093633,39.948434]],[[-75.09381,39.948351],[-75.093989,39.948323],[-75.093988,39.948295],[-75.09381,39.948351]],[[-75.093988,39.948295],[-75.094059,39.948267],[-75.093988,39.948268],[-75.093988,39.948295]],[[-75.094059,39.948267],[-75.094095,39.94824],[-75.094059,39.94824],[-75.094059,39.948267]],[[-75.094095,39.94824],[-75.094166,39.948212],[-75.094095,39.948212],[-75.094095,39.94824]],[[-75.094166,39.948212],[-75.094201,39.948184],[-75.094166,39.948185],[-75.094166,39.948212]],[[-75.094201,39.948184],[-75.094272,39.948157],[-75.094201,39.948157],[-75.094201,39.948184]],[[-75.094272,39.948157],[-75.094308,39.948129],[-75.094272,39.948129],[-75.094272,39.948157]],[[-75.092283,39.949073],[-75.092247,39.949045],[-75.092247,39.949073],[-75.092283,39.949073]],[[-75.092602,39.948797],[-75.092637,39.948824],[-75.092637,39.948796],[-75.092602,39.948797]],[[-75.092602,39.948824],[-75.092566,39.948852],[-75.092602,39.948851],[-75.092602,39.948824]],[[-75.087781,39.944072],[-75.087817,39.944044],[-75.087781,39.944044],[-75.087781,39.944072]],[[-75.100466,39.934425],[-75.100538,39.934507],[-75.100537,39.934425],[-75.100466,39.934425]],[[-75.109049,39.933118],[-75.109014,39.933145],[-75.109049,39.933145],[-75.109049,39.933118]],[[-75.111926,39.943837],[-75.11189,39.94381],[-75.111891,39.943837],[-75.111926,39.943837]],[[-75.111375,39.946009],[-75.111268,39.945982],[-75.111268,39.946009],[-75.111375,39.946009]],[[-75.119567,39.94871],[-75.119603,39.948765],[-75.119603,39.94871],[-75.119567,39.94871]],[[-75.119599,39.948244],[-75.119635,39.948271],[-75.119634,39.948243],[-75.119599,39.948244]],[[-75.116392,39.932749],[-75.116321,39.932722],[-75.116321,39.93275],[-75.116392,39.932749]],[[-75.115223,39.929681],[-75.115259,39.929653],[-75.115223,39.929653],[-75.115223,39.929681]],[[-75.116145,39.917102],[-75.116073,39.917075],[-75.116074,39.917102],[-75.116145,39.917102]],[[-75.110861,39.932312],[-75.110896,39.932257],[-75.11086,39.932257],[-75.110861,39.932312]],[[-75.114282,39.928066],[-75.114317,39.928038],[-75.114282,39.928039],[-75.114282,39.928066]],[[-75.114317,39.928038],[-75.114353,39.928011],[-75.114317,39.928011],[-75.114317,39.928038]],[[-75.114388,39.92801],[-75.114601,39.927817],[-75.1146,39.927707],[-75.114316,39.927929],[-75.114388,39.92801]],[[-75.114636,39.927735],[-75.114671,39.927707],[-75.114635,39.927707],[-75.114636,39.927735]],[[-75.107587,39.916982],[-75.107551,39.916955],[-75.107551,39.916983],[-75.107587,39.916982]],[[-75.107302,39.917039],[-75.107266,39.917012],[-75.107267,39.917039],[-75.107302,39.917039]],[[-75.100214,39.901455],[-75.10025,39.901509],[-75.100249,39.901454],[-75.100214,39.901455]],[[-75.09803,39.90034],[-75.098065,39.900313],[-75.098029,39.900313],[-75.09803,39.90034]],[[-75.110934,39.900438],[-75.110898,39.90041],[-75.110898,39.900438],[-75.110934,39.900438]],[[-75.111025,39.902688],[-75.111061,39.902743],[-75.111061,39.902688],[-75.111025,39.902688]],[[-75.111132,39.902688],[-75.111168,39.902715],[-75.111168,39.902688],[-75.111132,39.902688]],[[-75.114202,39.903111],[-75.114237,39.903138],[-75.114237,39.903111],[-75.114202,39.903111]],[[-75.119749,39.949066],[-75.119713,39.949039],[-75.119713,39.949067],[-75.119749,39.949066]]],[[[-75.111837,39.937825],[-75.111872,39.93777],[-75.111873,39.937825],[-75.111837,39.937825]]],[[[-75.111873,39.937907],[-75.11191,39.937962],[-75.111874,39.937962],[-75.111873,39.937907]]],[[[-75.11191,39.938017],[-75.111946,39.938099],[-75.111911,39.938099],[-75.11191,39.938017]]],[[[-75.111983,39.938154],[-75.111948,39.938236],[-75.111947,39.938154],[-75.111983,39.938154]]],[[[-75.112019,39.938263],[-75.111984,39.938291],[-75.111984,39.938263],[-75.112019,39.938263]]],[[[-75.112572,39.940237],[-75.1125,39.940155],[-75.112499,39.940045],[-75.112572,39.940237]]],[[[-75.116449,39.943017],[-75.115381,39.943242],[-75.113846,39.943085],[-75.113659,39.942126],[-75.113942,39.941959],[-75.114446,39.942478],[-75.114127,39.9427],[-75.116268,39.942716],[-75.116233,39.942798],[-75.116449,39.943017]],[[-75.114375,39.942479],[-75.11434,39.942506],[-75.114375,39.942506],[-75.114375,39.942479]]],[[[-75.116303,39.942743],[-75.11634,39.942798],[-75.116304,39.942798],[-75.116303,39.942743]]],[[[-75.112346,39.942956],[-75.112382,39.942983],[-75.112347,39.942984],[-75.112346,39.942956]]],[[[-75.112275,39.942984],[-75.112347,39.943011],[-75.112276,39.943011],[-75.112275,39.942984]]],[[[-75.11153,39.9434],[-75.111496,39.943619],[-75.111211,39.943621],[-75.11153,39.9434]]],[[[-75.117772,39.947347],[-75.117494,39.9482],[-75.117137,39.948147],[-75.116241,39.947712],[-75.115421,39.947772],[-75.115093,39.947005],[-75.114123,39.946241],[-75.113902,39.945446],[-75.114407,39.94602],[-75.115875,39.946671],[-75.11451,39.94558],[-75.115797,39.945875],[-75.116231,39.946614],[-75.117772,39.947347]],[[-75.117493,39.948118],[-75.117457,39.948063],[-75.117457,39.948118],[-75.117493,39.948118]],[[-75.117597,39.947788],[-75.117561,39.94776],[-75.117562,39.947788],[-75.117597,39.947788]]],[[[-75.096619,39.947239],[-75.096583,39.947211],[-75.096618,39.947211],[-75.096619,39.947239]]],[[[-75.096583,39.947266],[-75.096548,39.947294],[-75.096548,39.947266],[-75.096583,39.947266]]],[[[-75.096477,39.947322],[-75.096512,39.947294],[-75.096512,39.947321],[-75.096477,39.947322]]],[[[-75.119281,39.94863],[-75.119317,39.948657],[-75.119281,39.948657],[-75.119281,39.94863]]],[[[-75.119247,39.948795],[-75.119283,39.948822],[-75.119247,39.948822],[-75.119247,39.948795]]],[[[-75.119283,39.948849],[-75.119319,39.948822],[-75.119319,39.948849],[-75.119283,39.948849]]],[[[-75.096441,39.947294],[-75.096476,39.947267],[-75.096477,39.947294],[-75.096441,39.947294]]],[[[-75.09637,39.947322],[-75.096334,39.94735],[-75.096334,39.947322],[-75.09637,39.947322]]],[[[-75.096299,39.947377],[-75.096263,39.94735],[-75.096299,39.94735],[-75.096299,39.947377]]],[[[-75.09637,39.947405],[-75.096406,39.947349],[-75.096406,39.947404],[-75.09637,39.947405]]],[[[-75.096228,39.947405],[-75.096192,39.947378],[-75.096228,39.947378],[-75.096228,39.947405]]],[[[-75.096299,39.947432],[-75.096228,39.94746],[-75.096228,39.947433],[-75.096299,39.947432]]],[[[-75.096193,39.94746],[-75.096228,39.947488],[-75.096193,39.947488],[-75.096193,39.94746]]],[[[-75.096014,39.947489],[-75.096014,39.947461],[-75.09605,39.947461],[-75.09605,39.947489],[-75.096014,39.947489]]],[[[-75.096121,39.947488],[-75.096157,39.947515],[-75.096122,39.947516],[-75.096121,39.947488]]],[[[-75.096086,39.947516],[-75.09605,39.947489],[-75.096086,39.947488],[-75.096086,39.947516]]],[[[-75.095943,39.947517],[-75.095979,39.947489],[-75.095979,39.947516],[-75.095943,39.947517]]],[[[-75.095979,39.947544],[-75.096015,39.947516],[-75.096015,39.947544],[-75.095979,39.947544]]],[[[-75.095801,39.9476],[-75.095766,39.947572],[-75.095801,39.947572],[-75.095801,39.9476]]],[[[-75.095233,39.94785],[-75.095197,39.947822],[-75.095233,39.947822],[-75.095233,39.94785]]],[[[-75.094984,39.947961],[-75.094948,39.947933],[-75.094984,39.947933],[-75.094984,39.947961]]],[[[-75.094807,39.948044],[-75.094842,39.948016],[-75.094842,39.948044],[-75.094807,39.948044]]],[[[-75.094842,39.948071],[-75.094878,39.948044],[-75.094878,39.948071],[-75.094842,39.948071]]],[[[-75.094807,39.948044],[-75.094771,39.948099],[-75.094771,39.948044],[-75.094807,39.948044]]],[[[-75.095093,39.948125],[-75.095057,39.948098],[-75.095092,39.948097],[-75.095093,39.948125]]],[[[-75.094736,39.948099],[-75.094772,39.948127],[-75.094736,39.948127],[-75.094736,39.948099]]],[[[-75.095093,39.948125],[-75.095129,39.948152],[-75.095093,39.948152],[-75.095093,39.948125]]],[[[-75.094807,39.948126],[-75.094772,39.948154],[-75.094772,39.948127],[-75.094807,39.948126]]],[[[-75.09495,39.948181],[-75.094914,39.948153],[-75.09495,39.948153],[-75.09495,39.948181]]],[[[-75.094665,39.948182],[-75.0947,39.948154],[-75.094701,39.948182],[-75.094665,39.948182]]],[[[-75.094772,39.948209],[-75.094808,39.948181],[-75.094808,39.948209],[-75.094772,39.948209]]],[[[-75.094629,39.948182],[-75.094665,39.948209],[-75.09463,39.94821],[-75.094629,39.948182]]],[[[-75.094808,39.948236],[-75.094844,39.948209],[-75.094844,39.948236],[-75.094808,39.948236]]],[[[-75.094772,39.948209],[-75.094737,39.948264],[-75.094701,39.948209],[-75.094772,39.948209]]],[[[-75.094666,39.948264],[-75.094701,39.948237],[-75.094701,39.948264],[-75.094666,39.948264]]],[[[-75.094702,39.948292],[-75.094737,39.948264],[-75.094737,39.948291],[-75.094702,39.948292]]],[[[-75.09463,39.948265],[-75.094666,39.948292],[-75.09463,39.948292],[-75.09463,39.948265]]],[[[-75.094738,39.948319],[-75.094702,39.948347],[-75.094702,39.948319],[-75.094738,39.948319]]],[[[-75.094559,39.94832],[-75.094595,39.948347],[-75.094559,39.948347],[-75.094559,39.94832]]],[[[-75.094594,39.94821],[-75.094559,39.948237],[-75.094558,39.94821],[-75.094594,39.94821]]],[[[-75.094559,39.948237],[-75.094523,39.948265],[-75.094523,39.948238],[-75.094559,39.948237]]],[[[-75.094452,39.948265],[-75.094487,39.948238],[-75.094487,39.948265],[-75.094452,39.948265]]],[[[-75.094523,39.948265],[-75.094488,39.948293],[-75.094487,39.948265],[-75.094523,39.948265]]],[[[-75.094523,39.948293],[-75.094559,39.94832],[-75.094524,39.94832],[-75.094523,39.948293]]],[[[-75.094381,39.948376],[-75.094417,39.948348],[-75.094417,39.948375],[-75.094381,39.948376]]],[[[-75.094346,39.948403],[-75.094381,39.948376],[-75.094382,39.948403],[-75.094346,39.948403]]],[[[-75.094525,39.94843],[-75.09456,39.948457],[-75.094525,39.948457],[-75.094525,39.94843]]],[[[-75.094489,39.94843],[-75.094453,39.948458],[-75.094453,39.94843],[-75.094489,39.94843]]],[[[-75.094239,39.948431],[-75.094275,39.948459],[-75.094239,39.948459],[-75.094239,39.948431]]],[[[-75.094489,39.948457],[-75.094525,39.948485],[-75.094489,39.948485],[-75.094489,39.948457]]],[[[-75.094418,39.948485],[-75.094453,39.948458],[-75.094454,39.948485],[-75.094418,39.948485]]],[[[-75.094561,39.948485],[-75.094525,39.948512],[-75.094525,39.948485],[-75.094561,39.948485]]],[[[-75.094454,39.948513],[-75.094489,39.948485],[-75.09449,39.948512],[-75.094454,39.948513]]],[[[-75.094382,39.948485],[-75.094418,39.948513],[-75.094383,39.948513],[-75.094382,39.948485]]],[[[-75.094525,39.94854],[-75.09449,39.948512],[-75.094525,39.948512],[-75.094525,39.94854]]],[[[-75.094418,39.948513],[-75.094454,39.94854],[-75.094418,39.94854],[-75.094418,39.948513]]],[[[-75.094383,39.94854],[-75.094419,39.948568],[-75.094383,39.948568],[-75.094383,39.94854]]],[[[-75.094133,39.948542],[-75.094098,39.948569],[-75.094097,39.948542],[-75.094133,39.948542]]],[[[-75.094277,39.948623],[-75.094383,39.948568],[-75.094277,39.948651],[-75.094277,39.948623]]],[[[-75.094241,39.948678],[-75.094277,39.948651],[-75.094277,39.948678],[-75.094241,39.948678]]],[[[-75.094206,39.948706],[-75.094241,39.948678],[-75.094242,39.948706],[-75.094206,39.948706]]],[[[-75.09417,39.948706],[-75.094206,39.948733],[-75.09417,39.948734],[-75.09417,39.948706]]],[[[-75.094171,39.948761],[-75.094135,39.948789],[-75.0941,39.948789],[-75.094099,39.948734],[-75.09417,39.948734],[-75.094171,39.948761]]],[[[-75.094207,39.948788],[-75.094171,39.948761],[-75.094206,39.948761],[-75.094207,39.948788]]],[[[-75.094064,39.948817],[-75.0941,39.948789],[-75.0941,39.948816],[-75.094064,39.948817]]],[[[-75.093993,39.948789],[-75.094028,39.948817],[-75.093993,39.948817],[-75.093993,39.948789]]],[[[-75.0941,39.948844],[-75.094135,39.948816],[-75.094136,39.948844],[-75.0941,39.948844]]],[[[-75.094064,39.948844],[-75.094029,39.948899],[-75.094029,39.948844],[-75.094064,39.948844]]],[[[-75.093994,39.948927],[-75.094029,39.948899],[-75.094029,39.948927],[-75.093994,39.948927]]],[[[-75.094065,39.948954],[-75.094029,39.948927],[-75.094065,39.948926],[-75.094065,39.948954]]],[[[-75.093994,39.948954],[-75.09403,39.948981],[-75.093994,39.948982],[-75.093994,39.948954]]],[[[-75.093959,39.949009],[-75.093994,39.948982],[-75.093994,39.949009],[-75.093959,39.949009]]],[[[-75.09506,39.923774],[-75.095102,39.92446],[-75.094745,39.924407],[-75.091985,39.922774],[-75.09202,39.922664],[-75.091876,39.922527],[-75.091591,39.922556],[-75.089944,39.92179],[-75.091422,39.921065],[-75.094281,39.920248],[-75.096524,39.91995],[-75.096599,39.920361],[-75.097027,39.920332],[-75.096993,39.920524],[-75.096714,39.921212],[-75.096036,39.921243],[-75.096184,39.921819],[-75.095864,39.921958],[-75.095938,39.922177],[-75.096793,39.922172],[-75.09651,39.922393],[-75.09662,39.922777],[-75.097192,39.922884],[-75.097374,39.923295],[-75.097123,39.923241],[-75.096842,39.923682],[-75.096556,39.923601],[-75.096594,39.923821],[-75.095843,39.923605],[-75.095737,39.92377],[-75.09506,39.923774]],[[-75.09202,39.922691],[-75.092091,39.922718],[-75.092091,39.922691],[-75.09202,39.922691]],[[-75.092091,39.922718],[-75.092127,39.922745],[-75.092127,39.922718],[-75.092091,39.922718]],[[-75.09159,39.922474],[-75.091625,39.922418],[-75.091554,39.922419],[-75.09159,39.922474]],[[-75.091483,39.922419],[-75.091518,39.922364],[-75.091447,39.922364],[-75.091483,39.922419]],[[-75.09506,39.923774],[-75.095024,39.923746],[-75.095024,39.923774],[-75.09506,39.923774]],[[-75.095022,39.923554],[-75.094845,39.92361],[-75.094881,39.92372],[-75.095024,39.923746],[-75.095022,39.923554]]],[[[-75.09392,39.948653],[-75.093956,39.94868],[-75.09392,39.94868],[-75.09392,39.948653]]],[[[-75.093887,39.9489],[-75.093958,39.948927],[-75.093887,39.948955],[-75.093887,39.9489]]],[[[-75.093958,39.948927],[-75.093994,39.948954],[-75.093958,39.948954],[-75.093958,39.948927]]],[[[-75.093923,39.948982],[-75.093958,39.948954],[-75.093959,39.948982],[-75.093923,39.948982]]],[[[-75.093959,39.949009],[-75.093923,39.949037],[-75.093923,39.949009],[-75.093959,39.949009]]],[[[-75.093603,39.949093],[-75.093602,39.949039],[-75.093709,39.948956],[-75.093603,39.949093]]],[[[-75.093888,39.949064],[-75.093923,39.949037],[-75.093924,39.949064],[-75.093888,39.949064]]],[[[-75.09378,39.94901],[-75.093817,39.949092],[-75.093781,39.949093],[-75.09378,39.94901]]],[[[-75.093888,39.949064],[-75.093853,39.949092],[-75.093852,39.949065],[-75.093888,39.949064]]],[[[-75.093817,39.94912],[-75.093853,39.949092],[-75.093853,39.94912],[-75.093817,39.94912]]],[[[-75.093746,39.94912],[-75.093781,39.949093],[-75.093781,39.94912],[-75.093746,39.94912]]],[[[-75.093567,39.949094],[-75.093496,39.949149],[-75.093496,39.949094],[-75.093567,39.949094]]],[[[-75.093781,39.94912],[-75.093817,39.949147],[-75.093782,39.949147],[-75.093781,39.94912]]],[[[-75.093353,39.949122],[-75.093389,39.949149],[-75.093354,39.94915],[-75.093353,39.949122]]],[[[-75.093746,39.949148],[-75.093782,39.949175],[-75.093746,39.949175],[-75.093746,39.949148]]],[[[-75.093639,39.949176],[-75.093675,39.949148],[-75.093675,39.949175],[-75.093639,39.949176]]],[[[-75.093461,39.949177],[-75.093496,39.949149],[-75.093497,39.949176],[-75.093461,39.949177]]],[[[-75.093318,39.949177],[-75.093354,39.94915],[-75.093354,39.949177],[-75.093318,39.949177]]],[[[-75.093604,39.949176],[-75.093639,39.949203],[-75.093604,39.949203],[-75.093604,39.949176]]],[[[-75.093425,39.949177],[-75.093461,39.949204],[-75.093425,39.949204],[-75.093425,39.949177]]],[[[-75.093283,39.949205],[-75.093318,39.949177],[-75.093318,39.949205],[-75.093283,39.949205]]],[[[-75.09339,39.949232],[-75.093425,39.949204],[-75.093426,39.949232],[-75.09339,39.949232]]],[[[-75.093247,39.949233],[-75.093283,39.949205],[-75.093283,39.949232],[-75.093247,39.949233]]],[[[-75.093568,39.949231],[-75.093604,39.949258],[-75.093569,39.949258],[-75.093568,39.949231]]],[[[-75.093354,39.949232],[-75.09339,39.949259],[-75.093355,39.949259],[-75.093354,39.949232]]],[[[-75.093212,39.94926],[-75.093247,39.949233],[-75.093248,39.94926],[-75.093212,39.94926]]],[[[-75.093533,39.949286],[-75.093569,39.949258],[-75.093569,39.949286],[-75.093533,39.949286]]],[[[-75.093319,39.949287],[-75.093355,39.949259],[-75.093355,39.949287],[-75.093319,39.949287]]],[[[-75.093176,39.94926],[-75.093212,39.949288],[-75.093176,39.949288],[-75.093176,39.94926]]],[[[-75.093283,39.949287],[-75.093319,39.949314],[-75.093284,39.949315],[-75.093283,39.949287]]],[[[-75.093141,39.949315],[-75.093176,39.949288],[-75.093177,39.949315],[-75.093141,39.949315]]],[[[-75.093144,39.949645],[-75.09318,39.949672],[-75.093144,39.949672],[-75.093144,39.949645]]],[[[-75.091949,39.922691],[-75.091841,39.922637],[-75.091948,39.922664],[-75.091949,39.922691]]],[[[-75.088027,39.922794],[-75.087218,39.923127],[-75.087888,39.922794],[-75.088027,39.922794]]],[[[-75.091999,39.924366],[-75.091566,39.923819],[-75.090491,39.923193],[-75.088955,39.922844],[-75.088774,39.92257],[-75.088633,39.922763],[-75.08824,39.922633],[-75.089909,39.921851],[-75.0936,39.923946],[-75.094354,39.924656],[-75.094033,39.924548],[-75.093253,39.925073],[-75.092751,39.924801],[-75.092891,39.924444],[-75.091999,39.924366]],[[-75.092248,39.924365],[-75.092212,39.92431],[-75.092213,39.924365],[-75.092248,39.924365]]],[[[-75.085754,39.923876],[-75.085739,39.923876],[-75.085754,39.923868],[-75.085754,39.923876]]],[[[-75.085719,39.923904],[-75.085684,39.923904],[-75.085719,39.923886],[-75.085719,39.923904]]],[[[-75.083806,39.94217],[-75.082907,39.941296],[-75.082544,39.940611],[-75.084086,39.941565],[-75.083661,39.941869],[-75.083806,39.94217]]],[[[-75.092426,39.949099],[-75.092462,39.949127],[-75.092426,39.949127],[-75.092426,39.949099]]],[[[-75.09239,39.949127],[-75.092426,39.949154],[-75.092391,39.949155],[-75.09239,39.949127]]],[[[-75.092355,39.949182],[-75.092391,39.949155],[-75.092391,39.949182],[-75.092355,39.949182]]],[[[-75.093034,39.949289],[-75.093282,39.949095],[-75.093176,39.949233],[-75.093034,39.949289]]],[[[-75.09289,39.949207],[-75.092926,39.949179],[-75.092926,39.949207],[-75.09289,39.949207]]],[[[-75.092319,39.949182],[-75.092355,39.94921],[-75.09232,39.94921],[-75.092319,39.949182]]],[[[-75.092855,39.949207],[-75.092891,39.949234],[-75.092855,39.949235],[-75.092855,39.949207]]],[[[-75.092284,39.949237],[-75.09232,39.94921],[-75.09232,39.949237],[-75.092284,39.949237]]],[[[-75.092962,39.949261],[-75.092998,39.949234],[-75.092998,39.949261],[-75.092962,39.949261]]],[[[-75.09282,39.949262],[-75.092855,39.949235],[-75.092855,39.949262],[-75.09282,39.949262]]],[[[-75.092927,39.949262],[-75.092962,39.949289],[-75.092927,39.949289],[-75.092927,39.949262]]],[[[-75.092784,39.949262],[-75.09282,39.94929],[-75.092784,39.94929],[-75.092784,39.949262]]],[[[-75.092891,39.949317],[-75.092927,39.949289],[-75.092927,39.949317],[-75.092891,39.949317]]],[[[-75.092749,39.949317],[-75.092784,39.94929],[-75.092784,39.949317],[-75.092749,39.949317]]],[[[-75.093034,39.949289],[-75.092963,39.949344],[-75.092963,39.949316],[-75.093034,39.949289]]],[[[-75.093105,39.949316],[-75.093141,39.949343],[-75.093106,39.949343],[-75.093105,39.949316]]],[[[-75.092713,39.949318],[-75.092749,39.949345],[-75.092713,39.949345],[-75.092713,39.949318]]],[[[-75.092251,39.949485],[-75.092286,39.949457],[-75.092286,39.949484],[-75.092251,39.949485]]],[[[-75.092215,39.949485],[-75.092251,39.949512],[-75.092215,39.949512],[-75.092215,39.949485]]],[[[-75.09218,39.949512],[-75.092216,39.94954],[-75.09218,39.94954],[-75.09218,39.949512]]],[[[-75.092144,39.949568],[-75.09218,39.94954],[-75.09218,39.949567],[-75.092144,39.949568]]],[[[-75.092109,39.949568],[-75.092145,39.949595],[-75.092109,39.949595],[-75.092109,39.949568]]],[[[-75.086148,39.953332],[-75.086586,39.954483],[-75.085133,39.955643],[-75.084458,39.955893],[-75.084206,39.95562],[-75.083348,39.955432],[-75.083737,39.955019],[-75.083269,39.954527],[-75.082984,39.954528],[-75.0828,39.953925],[-75.082406,39.953762],[-75.082369,39.953543],[-75.08269,39.953514],[-75.08222,39.952885],[-75.081686,39.952997],[-75.081933,39.952639],[-75.081786,39.952173],[-75.082216,39.952391],[-75.082357,39.952198],[-75.083285,39.952276],[-75.083931,39.952684],[-75.084967,39.952898],[-75.08515,39.953419],[-75.086148,39.953332]],[[-75.086042,39.953415],[-75.086078,39.953469],[-75.086078,39.953414],[-75.086042,39.953415]],[[-75.086114,39.953469],[-75.086115,39.953606],[-75.086186,39.953606],[-75.086114,39.953469]]]]}}]}