{"type":"FeatureCollection","features":[{"type":"Feature","properties":{"level_ft":19},"geometry":{"type":"MultiPolygon","coordinates":[[[[-75.113804,39.902509],[-75.113733,39.902537],[-75.113733,39.902509],[-75.113804,39.902509]]],[[[-75.113628,39.902784],[-75.112591,39.902406],[-75.113984,39.902728],[-75.113628,39.902784]]],[[[-75.115339,39.902693],[-75.115267,39.902666],[-75.115338,39.902666],[-75.115339,39.902693]]],[[[-75.101181,39.918307],[-75.099688,39.918836],[-75.098976,39.918976],[-75.101181,39.918307]]],[[[-75.116093,39.927178],[-75.116126,39.926903],[-75.116161,39.926903],[-75.116164,39.927177],[-75.116093,39.927178]]],[[[-75.115103,39.928199],[-75.115068,39.928227],[-75.115068,39.928199],[-75.115103,39.928199]]],[[[-75.113964,39.92837],[-75.113928,39.92837],[-75.113928,39.928342],[-75.113963,39.928342],[-75.113964,39.92837]]],[[[-75.103563,39.929769],[-75.103457,39.929852],[-75.103314,39.929743],[-75.103563,39.929769]]],[[[-75.111949,39.930357],[-75.111984,39.930329],[-75.111984,39.930357],[-75.111949,39.930357]]],[[[-75.111384,39.931046],[-75.11142,39.930991],[-75.11142,39.931046],[-75.111384,39.931046]]],[[[-75.111349,39.931074],[-75.111384,39.931046],[-75.111385,39.931074],[-75.111349,39.931074]]],[[[-75.107292,39.931974],[-75.107256,39.932001],[-75.107256,39.931974],[-75.107292,39.931974]]],[[[-75.107363,39.932028],[-75.107399,39.932056],[-75.107364,39.932056],[-75.107363,39.932028]]],[[[-75.107399,39.932056],[-75.107435,39.932083],[-75.107399,39.932083],[-75.107399,39.932056]]],[[[-75.107686,39.932219],[-75.107722,39.932246],[-75.107686,39.932246],[-75.107686,39.932219]]],[[[-75.119751,39.949286],[-75.120937,39.950241],[-75.122834,39.951027],[-75.134089,39.953025],[-75.132873,39.956031],[-75.131493,39.958068],[-75.129626,39.95992],[-75.126141,39.962205],[-75.122172,39.964298],[-75.119748,39.96171],[-75.118447,39.960723],[-75.115839,39.959328],[-75.110143,39.958016],[-75.107366,39.958114],[-75.106227,39.958401],[-75.104126,39.95944],[-75.099304,39.963276],[-75.096051,39.965546],[-75.088055,39.969404],[-75.083227,39.962818],[-75.083766,39.962651],[-75.084445,39.962812],[-75.08606,39.963874],[-75.086271,39.963516],[-75.086987,39.96387],[-75.08695,39.96365],[-75.087486,39.963757],[-75.087133,39.964198],[-75.087637,39.964717],[-75.088101,39.964688],[-75.088489,39.964219],[-75.088341,39.963588],[-75.087592,39.963674],[-75.087947,39.963371],[-75.087656,39.962823],[-75.087939,39.962465],[-75.087711,39.960901],[-75.087247,39.960821],[-75.08725,39.961178],[-75.086854,39.960796],[-75.085282,39.960556],[-75.085386,39.960172],[-75.08592,39.960059],[-75.085989,39.959729],[-75.0867,39.959451],[-75.08641,39.958931],[-75.086732,39.959067],[-75.086837,39.958846],[-75.086369,39.958327],[-75.086013,39.958411],[-75.085869,39.958192],[-75.085897,39.957369],[-75.085218,39.957235],[-75.084677,39.956524],[-75.086166,39.955363],[-75.086165,39.955253],[-75.086236,39.955308],[-75.087582,39.954176],[-75.088946,39.955102],[-75.090159,39.955151],[-75.090021,39.955728],[-75.090667,39.956109],[-75.091417,39.956188],[-75.091704,39.956461],[-75.092095,39.956239],[-75.092454,39.956512],[-75.092881,39.956372],[-75.09278,39.957059],[-75.09246,39.957143],[-75.092859,39.95791],[-75.092791,39.958404],[-75.093221,39.958567],[-75.092943,39.959419],[-75.093372,39.959582],[-75.093127,39.960132],[-75.093486,39.960323],[-75.093566,39.961283],[-75.09385,39.961227],[-75.094103,39.961527],[-75.09453,39.961388],[-75.094604,39.96169],[-75.095207,39.961275],[-75.095599,39.9613],[-75.096166,39.960803],[-75.096339,39.960198],[-75.095945,39.95998],[-75.096155,39.959595],[-75.09551,39.959269],[-75.095029,39.957295],[-75.095488,39.956688],[-75.095515,39.955672],[-75.096471,39.954899],[-75.09728,39.953604],[-75.09699,39.953057],[-75.09667,39.953086],[-75.096912,39.952261],[-75.096408,39.951715],[-75.096728,39.951631],[-75.096228,39.951496],[-75.096298,39.951331],[-75.095656,39.951416],[-75.095082,39.951035],[-75.094549,39.951257],[-75.095326,39.950347],[-75.094477,39.951148],[-75.093835,39.951234],[-75.093552,39.95151],[-75.092052,39.951298],[-75.091269,39.951466],[-75.091269,39.951494],[-75.091198,39.951494],[-75.091198,39.951522],[-75.091127,39.951522],[-75.091127,39.951549],[-75.091056,39.95155],[-75.091021,39.951605],[-75.090842,39.951633],[-75.090806,39.951524],[-75.091621,39.95097],[-75.091762,39.95075],[-75.092224,39.950473],[-75.092187,39.950418],[-75.092861,39.949948],[-75.092825,39.949894],[-75.092931,39.949811],[-75.093038,39.94981],[-75.093038,39.949728],[-75.093109,39.949755],[-75.09318,39.9497],[-75.093179,39.949617],[-75.093251,39.949644],[-75.093357,39.949561],[-75.093356,39.949479],[-75.093428,39.949506],[-75.09357,39.949368],[-75.093603,39.949148],[-75.093817,39.94912],[-75.093888,39.949064],[-75.093852,39.94901],[-75.094029,39.948899],[-75.093993,39.948844],[-75.0941,39.948844],[-75.094242,39.948761],[-75.094276,39.948568],[-75.094419,39.948595],[-75.09449,39.94854],[-75.094418,39.94843],[-75.094525,39.948485],[-75.094596,39.948457],[-75.094559,39.94832],[-75.094417,39.948403],[-75.094346,39.948376],[-75.094381,39.948293],[-75.094452,39.94832],[-75.094629,39.948127],[-75.094558,39.948128],[-75.094452,39.948238],[-75.094416,39.948238],[-75.094416,39.948266],[-75.094345,39.948266],[-75.092786,39.949537],[-75.092607,39.949455],[-75.092501,39.949538],[-75.092574,39.94973],[-75.092252,39.949677],[-75.093103,39.948986],[-75.091933,39.949871],[-75.092321,39.949347],[-75.091434,39.949928],[-75.091753,39.949707],[-75.091929,39.949431],[-75.091823,39.949514],[-75.091716,39.949515],[-75.090512,39.950509],[-75.092459,39.94877],[-75.090928,39.949107],[-75.091139,39.948804],[-75.090533,39.948807],[-75.090708,39.948504],[-75.090173,39.948479],[-75.089881,39.947657],[-75.089523,39.947549],[-75.089659,39.946807],[-75.089407,39.946534],[-75.089656,39.946423],[-75.089296,39.945958],[-75.088832,39.946015],[-75.08815,39.945442],[-75.087649,39.945335],[-75.087644,39.944649],[-75.087398,39.945172],[-75.087006,39.945146],[-75.087001,39.94457],[-75.086647,39.944846],[-75.086607,39.944352],[-75.085921,39.943477],[-75.085884,39.94323],[-75.086241,39.943311],[-75.085913,39.942434],[-75.085304,39.942162],[-75.085199,39.942355],[-75.085809,39.942791],[-75.084735,39.942385],[-75.084952,39.942686],[-75.08481,39.942796],[-75.084414,39.942332],[-75.083916,39.942471],[-75.083231,39.941679],[-75.08345,39.942282],[-75.083055,39.941982],[-75.082485,39.942012],[-75.082447,39.94171],[-75.080807,39.941828],[-75.082303,39.941546],[-75.082159,39.941382],[-75.081018,39.94147],[-75.081017,39.941333],[-75.082014,39.941191],[-75.081976,39.940861],[-75.082371,39.941161],[-75.082261,39.940832],[-75.082582,39.940886],[-75.082615,39.940501],[-75.083406,39.940809],[-75.089268,39.935738],[-75.089851,39.936182],[-75.090135,39.936064],[-75.089949,39.93492],[-75.089201,39.934448],[-75.088501,39.934362],[-75.086869,39.934835],[-75.08639,39.934661],[-75.086313,39.932656],[-75.085922,39.931765],[-75.087243,39.92975],[-75.087271,39.927236],[-75.086566,39.926761],[-75.08387,39.926742],[-75.08138,39.925993],[-75.085683,39.923904],[-75.085685,39.924151],[-75.086543,39.924311],[-75.086827,39.924172],[-75.087616,39.92469],[-75.089578,39.924845],[-75.089857,39.924102],[-75.090459,39.923632],[-75.088385,39.922957],[-75.087109,39.923183],[-75.089838,39.921844],[-75.094998,39.924817],[-75.095178,39.925091],[-75.094359,39.925232],[-75.094322,39.925013],[-75.093719,39.9254],[-75.093289,39.9251],[-75.093256,39.925485],[-75.092901,39.925652],[-75.093265,39.926528],[-75.094692,39.926631],[-75.094448,39.927181],[-75.093664,39.927322],[-75.093846,39.927761],[-75.093492,39.928064],[-75.0931,39.928066],[-75.092284,39.928565],[-75.091464,39.928514],[-75.091359,39.928734],[-75.091035,39.928379],[-75.090501,39.928574],[-75.08993,39.928494],[-75.089783,39.927919],[-75.089428,39.92814],[-75.089396,39.928525],[-75.090044,39.929317],[-75.090049,39.929866],[-75.089309,39.930941],[-75.089848,39.931377],[-75.090347,39.931293],[-75.090816,39.931922],[-75.091208,39.931947],[-75.092213,39.932711],[-75.092713,39.932736],[-75.092465,39.933011],[-75.092756,39.933586],[-75.093619,39.934406],[-75.094473,39.934291],[-75.094797,39.934537],[-75.094658,39.934949],[-75.095053,39.935304],[-75.094879,39.935827],[-75.095133,39.936347],[-75.096023,39.93615],[-75.095777,39.936508],[-75.095992,39.9367],[-75.095463,39.937361],[-75.095787,39.937716],[-75.097031,39.937243],[-75.098174,39.937375],[-75.098736,39.936438],[-75.099878,39.936542],[-75.099946,39.936158],[-75.100302,39.936018],[-75.100011,39.935361],[-75.100325,39.934673],[-75.099966,39.934318],[-75.100917,39.932968],[-75.100771,39.932639],[-75.100983,39.932418],[-75.100696,39.932145],[-75.101052,39.932089],[-75.100943,39.931842],[-75.101335,39.931813],[-75.101756,39.931069],[-75.102748,39.93035],[-75.102528,39.929665],[-75.103279,39.929853],[-75.107183,39.931837],[-75.10722,39.932002],[-75.107328,39.932083],[-75.109085,39.933117],[-75.110309,39.934429],[-75.110998,39.935688],[-75.112395,39.94043],[-75.112735,39.942597],[-75.112525,39.942955],[-75.112134,39.943095],[-75.112096,39.94293],[-75.11089,39.943623],[-75.106974,39.944494],[-75.111889,39.943617],[-75.112562,39.943147],[-75.112807,39.942569],[-75.113235,39.942595],[-75.112958,39.943584],[-75.112034,39.943919],[-75.11264,39.943943],[-75.112392,39.944081],[-75.112572,39.944245],[-75.112322,39.944247],[-75.112216,39.944384],[-75.113213,39.944159],[-75.112713,39.944025],[-75.112996,39.943804],[-75.113461,39.943911],[-75.1135,39.94435],[-75.113008,39.945121],[-75.113688,39.945365],[-75.11409,39.946516],[-75.112018,39.946115],[-75.112341,39.946305],[-75.11242,39.947211],[-75.112207,39.947322],[-75.112423,39.947595],[-75.112031,39.947543],[-75.111747,39.947791],[-75.111856,39.947983],[-75.111536,39.948067],[-75.111036,39.947987],[-75.110961,39.947658],[-75.110539,39.948292],[-75.110866,39.948976],[-75.110803,39.949937],[-75.111125,39.950018],[-75.11088,39.950514],[-75.111132,39.950732],[-75.11138,39.950593],[-75.111529,39.951306],[-75.112137,39.951468],[-75.112138,39.951633],[-75.111174,39.951528],[-75.111508,39.952954],[-75.111978,39.95361],[-75.112979,39.953907],[-75.113088,39.954126],[-75.114266,39.954202],[-75.114229,39.954037],[-75.114622,39.95409],[-75.114798,39.953842],[-75.114878,39.954858],[-75.115307,39.95491],[-75.115519,39.954662],[-75.115985,39.954907],[-75.116303,39.954658],[-75.116733,39.954793],[-75.116516,39.954492],[-75.117121,39.954379],[-75.116619,39.954025],[-75.117261,39.953994],[-75.116971,39.953501],[-75.117684,39.953497],[-75.117539,39.953224],[-75.116862,39.95331],[-75.116788,39.953063],[-75.116467,39.95301],[-75.116928,39.95276],[-75.11664,39.952432],[-75.117068,39.952375],[-75.116993,39.951964],[-75.117241,39.95177],[-75.11706,39.951552],[-75.118453,39.951681],[-75.118202,39.9516],[-75.118235,39.951271],[-75.118665,39.951543],[-75.119126,39.951184],[-75.117944,39.950696],[-75.118049,39.950393],[-75.118622,39.950665],[-75.118764,39.950554],[-75.118797,39.950362],[-75.118549,39.950445],[-75.117903,39.950092],[-75.118582,39.950198],[-75.118152,39.950036],[-75.118257,39.949761],[-75.118042,39.949652],[-75.118363,39.949623],[-75.118359,39.949184],[-75.118645,39.949292],[-75.118857,39.949044],[-75.118179,39.949047],[-75.118141,39.948718],[-75.117676,39.948583],[-75.11778,39.948281],[-75.117173,39.948229],[-75.116384,39.947767],[-75.115637,39.947935],[-75.115169,39.947526],[-75.115028,39.947637],[-75.114811,39.947391],[-75.114914,39.946923],[-75.114268,39.94646],[-75.113902,39.945446],[-75.114442,39.94602],[-75.115517,39.946536],[-75.115658,39.94637],[-75.114474,39.945553],[-75.115939,39.945902],[-75.116303,39.946641],[-75.117879,39.947347],[-75.118089,39.946989],[-75.118233,39.94707],[-75.118516,39.946877],[-75.118159,39.946824],[-75.118119,39.946275],[-75.118652,39.946052],[-75.118618,39.9463],[-75.118868,39.946326],[-75.119326,39.945664],[-75.119473,39.94613],[-75.119935,39.946018],[-75.119931,39.945579],[-75.119608,39.945306],[-75.120001,39.945331],[-75.120317,39.944836],[-75.120351,39.944588],[-75.119096,39.943854],[-75.118986,39.943552],[-75.118199,39.943364],[-75.117844,39.943503],[-75.117769,39.943092],[-75.116665,39.943235],[-75.116375,39.942715],[-75.116449,39.943017],[-75.115878,39.943075],[-75.116237,39.94332],[-75.115992,39.943843],[-75.114957,39.943684],[-75.114775,39.943328],[-75.113847,39.943305],[-75.113591,39.942565],[-75.113586,39.941961],[-75.113799,39.941905],[-75.112631,39.938919],[-75.111598,39.935026],[-75.111728,39.933543],[-75.112358,39.932249],[-75.113488,39.931008],[-75.115118,39.929846],[-75.114762,39.929903],[-75.115923,39.92814],[-75.116207,39.928056],[-75.116661,39.918966],[-75.116481,39.914822],[-75.116724,39.914079],[-75.116546,39.914107],[-75.116649,39.91364],[-75.116143,39.912874],[-75.115878,39.911173],[-75.115349,39.91178],[-75.115676,39.912547],[-75.11558,39.913756],[-75.116218,39.917349],[-75.115734,39.926988],[-75.114815,39.927898],[-75.115101,39.927979],[-75.114862,39.929161],[-75.112211,39.931811],[-75.111054,39.933958],[-75.110794,39.932861],[-75.110824,39.932202],[-75.111032,39.931542],[-75.111245,39.931404],[-75.11163,39.930633],[-75.111879,39.930495],[-75.112444,39.92986],[-75.112515,39.929887],[-75.11262,39.929667],[-75.11301,39.929418],[-75.11361,39.928701],[-75.111276,39.930882],[-75.110648,39.932478],[-75.110666,39.934454],[-75.108258,39.932353],[-75.104138,39.930178],[-75.105955,39.930004],[-75.106666,39.929753],[-75.106414,39.929562],[-75.107626,39.929501],[-75.108121,39.92895],[-75.108689,39.928727],[-75.107932,39.92777],[-75.108287,39.927576],[-75.108106,39.92733],[-75.108391,39.927246],[-75.108488,39.926092],[-75.107772,39.925849],[-75.107805,39.925547],[-75.108375,39.925489],[-75.108159,39.925188],[-75.108798,39.924938],[-75.108474,39.92461],[-75.108795,39.924526],[-75.108827,39.924114],[-75.109146,39.923948],[-75.108826,39.924004],[-75.108607,39.923511],[-75.108179,39.923404],[-75.108605,39.923291],[-75.108603,39.923044],[-75.108139,39.922992],[-75.107856,39.923241],[-75.107568,39.922913],[-75.107033,39.922943],[-75.106888,39.922669],[-75.106496,39.922644],[-75.106489,39.921875],[-75.105557,39.921276],[-75.105475,39.920096],[-75.104902,39.919742],[-75.104718,39.919194],[-75.104649,39.919414],[-75.104292,39.919388],[-75.104003,39.918978],[-75.103611,39.918898],[-75.10332,39.918268],[-75.10282,39.918243],[-75.102031,39.917725],[-75.101927,39.917973],[-75.099865,39.913659],[-75.099497,39.913857],[-75.098545,39.91379],[-75.098005,39.914078],[-75.097647,39.913585],[-75.097222,39.913508],[-75.096244,39.913898],[-75.092472,39.909584],[-75.096955,39.908319],[-75.097411,39.907987],[-75.094606,39.901418],[-75.096255,39.901173],[-75.100035,39.901428],[-75.100069,39.901208],[-75.097964,39.900972],[-75.097888,39.900396],[-75.097608,39.901001],[-75.096214,39.900926],[-75.098539,39.899649],[-75.101015,39.898908],[-75.102116,39.899107],[-75.102917,39.899882],[-75.104793,39.900527],[-75.107941,39.900238],[-75.109679,39.899245],[-75.111611,39.898588],[-75.112968,39.899172],[-75.113453,39.89966],[-75.113777,39.901008],[-75.11441,39.90145],[-75.116358,39.902119],[-75.11655,39.902879],[-75.115194,39.902502],[-75.113112,39.900893],[-75.112397,39.900567],[-75.112822,39.90029],[-75.11271,39.899714],[-75.111813,39.899115],[-75.112677,39.899989],[-75.112574,39.900429],[-75.109826,39.900141],[-75.108583,39.90056],[-75.109117,39.90053],[-75.109155,39.900749],[-75.109544,39.900445],[-75.110648,39.900302],[-75.112183,39.900568],[-75.115267,39.902639],[-75.113337,39.9021],[-75.111363,39.900628],[-75.1109,39.900575],[-75.111585,39.901477],[-75.113733,39.902482],[-75.110016,39.901431],[-75.112768,39.902295],[-75.110379,39.902143],[-75.110917,39.902579],[-75.11095,39.902222],[-75.112056,39.902381],[-75.11192,39.903041],[-75.112604,39.903888],[-75.112205,39.903039],[-75.112343,39.902544],[-75.113594,39.902922],[-75.113671,39.903525],[-75.11402,39.9027],[-75.116513,39.903126],[-75.116286,39.90374],[-75.11488,39.9054],[-75.114715,39.906125],[-75.117488,39.90849],[-75.120177,39.908514],[-75.121403,39.907762],[-75.122836,39.907428],[-75.129344,39.907381],[-75.129091,39.911608],[-75.12984,39.915359],[-75.135874,39.927639],[-75.136571,39.929951],[-75.136732,39.939233],[-75.136267,39.943911],[-75.135365,39.948635],[-75.134194,39.952774],[-75.123225,39.950887],[-75.1214,39.950211],[-75.119928,39.949203],[-75.119751,39.949286]],[[-75.119716,39.949369],[-75.11968,39.949341],[-75.11968,39.949369],[-75.119716,39.949369]],[[-75.087946,39.963316],[-75.087981,39.963288],[-75.087946,39.963288],[-75.087946,39.963316]],[[-75.087894,39.961449],[-75.088001,39.961394],[-75.08793,39.961394],[-75.087894,39.961449]],[[-75.086736,39.959451],[-75.086737,39.959561],[-75.086772,39.959561],[-75.086736,39.959451]],[[-75.086772,39.959561],[-75.086808,39.959588],[-75.086808,39.95956],[-75.086772,39.959561]],[[-75.093009,39.958815],[-75.092974,39.958843],[-75.093009,39.958843],[-75.093009,39.958815]],[[-75.092896,39.949866],[-75.092932,39.949893],[-75.092932,39.949866],[-75.092896,39.949866]],[[-75.093605,39.949286],[-75.09364,39.949313],[-75.09364,39.949285],[-75.093605,39.949286]],[[-75.09371,39.949148],[-75.093746,39.949175],[-75.093746,39.949148],[-75.09371,39.949148]],[[-75.093711,39.949175],[-75.093675,39.949203],[-75.093711,39.949203],[-75.093711,39.949175]],[[-75.093675,39.949203],[-75.09364,39.94923],[-75.093675,39.94923],[-75.093675,39.949203]],[[-75.093958,39.948954],[-75.093994,39.948982],[-75.093994,39.948954],[-75.093958,39.948954]],[[-75.094277,39.948651],[-75.094313,39.948705],[-75.094312,39.948651],[-75.094277,39.948651]],[[-75.094596,39.948429],[-75.094631,39.948402],[-75.094596,39.948402],[-75.094596,39.948429]],[[-75.094629,39.948127],[-75.094664,39.9481],[-75.094629,39.9481],[-75.094629,39.948127]],[[-75.094664,39.948072],[-75.094735,39.948072],[-75.094806,39.948017],[-75.094664,39.948072]],[[-75.094806,39.948017],[-75.094842,39.947989],[-75.094806,39.947989],[-75.094806,39.948017]],[[-75.09275,39.949482],[-75.092786,39.949454],[-75.09275,39.949455],[-75.09275,39.949482]],[[-75.092786,39.949454],[-75.092821,39.949427],[-75.092785,39.949427],[-75.092786,39.949454]],[[-75.092821,39.949427],[-75.092856,39.949399],[-75.092821,39.949399],[-75.092821,39.949427]],[[-75.092856,39.949399],[-75.092892,39.949372],[-75.092856,39.949372],[-75.092856,39.949399]],[[-75.092643,39.949455],[-75.092678,39.949428],[-75.092643,39.949428],[-75.092643,39.949455]],[[-75.092678,39.9494],[-75.092785,39.9494],[-75.092785,39.949345],[-75.092678,39.9494]],[[-75.092785,39.949345],[-75.09282,39.949317],[-75.092784,39.949317],[-75.092785,39.949345]],[[-75.09282,39.949317],[-75.092855,39.949289],[-75.09282,39.94929],[-75.09282,39.949317]],[[-75.092855,39.949289],[-75.092891,39.949262],[-75.092855,39.949262],[-75.092855,39.949289]],[[-75.092891,39.949262],[-75.092926,39.949234],[-75.092891,39.949234],[-75.092891,39.949262]],[[-75.092926,39.949234],[-75.092962,39.949207],[-75.092926,39.949207],[-75.092926,39.949234]],[[-75.092962,39.949207],[-75.092997,39.949179],[-75.092962,39.949179],[-75.092962,39.949207]],[[-75.092501,39.949566],[-75.092466,39.949593],[-75.092501,39.949593],[-75.092501,39.949566]],[[-75.092467,39.949703],[-75.092502,39.949676],[-75.092466,39.949676],[-75.092467,39.949703]],[[-75.092502,39.949676],[-75.092538,39.949648],[-75.092502,39.949648],[-75.092502,39.949676]],[[-75.09232,39.949292],[-75.092392,39.949292],[-75.092817,39.94896],[-75.09232,39.949292]],[[-75.092817,39.94896],[-75.092852,39.948933],[-75.092817,39.948933],[-75.092817,39.94896]],[[-75.092852,39.948933],[-75.092888,39.948905],[-75.092852,39.948905],[-75.092852,39.948933]],[[-75.092888,39.948877],[-75.093137,39.948794],[-75.093243,39.948683],[-75.092888,39.948877]],[[-75.093349,39.948573],[-75.093562,39.948545],[-75.093633,39.948462],[-75.093349,39.948573]],[[-75.093633,39.948434],[-75.093704,39.948434],[-75.093811,39.948379],[-75.093633,39.948434]],[[-75.093811,39.948379],[-75.093882,39.948351],[-75.09381,39.948351],[-75.093811,39.948379]],[[-75.093882,39.948351],[-75.093917,39.948323],[-75.093882,39.948323],[-75.093882,39.948351]],[[-75.093917,39.948323],[-75.093953,39.948295],[-75.093917,39.948296],[-75.093917,39.948323]],[[-75.091823,39.949487],[-75.091787,39.94946],[-75.091787,39.949487],[-75.091823,39.949487]],[[-75.083195,39.941679],[-75.083159,39.941624],[-75.08316,39.941679],[-75.083195,39.941679]],[[-75.083159,39.941624],[-75.083123,39.941569],[-75.083124,39.941624],[-75.083159,39.941624]],[[-75.083123,39.941569],[-75.083087,39.941542],[-75.083088,39.94157],[-75.083123,39.941569]],[[-75.083087,39.941542],[-75.083051,39.941515],[-75.083052,39.941542],[-75.083087,39.941542]],[[-75.082582,39.940886],[-75.082619,39.94094],[-75.082618,39.940886],[-75.082582,39.940886]],[[-75.082619,39.94094],[-75.082654,39.940968],[-75.082654,39.94094],[-75.082619,39.94094]],[[-75.095777,39.936536],[-75.095741,39.936564],[-75.095777,39.936563],[-75.095777,39.936536]],[[-75.100301,39.935909],[-75.100336,39.935881],[-75.1003,39.935881],[-75.100301,39.935909]],[[-75.100336,39.935881],[-75.100371,39.935853],[-75.100336,39.935854],[-75.100336,39.935881]],[[-75.100371,39.935853],[-75.100407,39.935826],[-75.100371,39.935826],[-75.100371,39.935853]],[[-75.100179,39.934235],[-75.100215,39.934262],[-75.100215,39.934234],[-75.100179,39.934235]],[[-75.100215,39.934262],[-75.100251,39.934289],[-75.100251,39.934262],[-75.100215,39.934262]],[[-75.100251,39.934289],[-75.100287,39.934316],[-75.100286,39.934289],[-75.100251,39.934289]],[[-75.100287,39.934316],[-75.100323,39.934344],[-75.100322,39.934316],[-75.100287,39.934316]],[[-75.107184,39.931919],[-75.107149,39.931947],[-75.107184,39.931947],[-75.107184,39.931919]],[[-75.109049,39.933118],[-75.109014,39.933145],[-75.109049,39.933145],[-75.109049,39.933118]],[[-75.112018,39.946115],[-75.111946,39.946088],[-75.111946,39.946115],[-75.112018,39.946115]],[[-75.11789,39.94861],[-75.117925,39.948582],[-75.11789,39.948582],[-75.11789,39.94861]],[[-75.115134,39.947526],[-75.115098,39.947499],[-75.115098,39.947526],[-75.115134,39.947526]],[[-75.116375,39.942715],[-75.11641,39.942688],[-75.116374,39.942688],[-75.116375,39.942715]],[[-75.11641,39.942688],[-75.116481,39.94266],[-75.11641,39.94266],[-75.11641,39.942688]],[[-75.116269,39.942826],[-75.116303,39.942743],[-75.116268,39.942743],[-75.116269,39.942826]],[[-75.1138,39.941988],[-75.113836,39.94207],[-75.113836,39.941987],[-75.1138,39.941988]],[[-75.116649,39.913668],[-75.116685,39.913695],[-75.116685,39.913667],[-75.116649,39.913668]],[[-75.115349,39.91178],[-75.115313,39.911753],[-75.115313,39.91178],[-75.115349,39.91178]],[[-75.116145,39.917102],[-75.116073,39.917075],[-75.116074,39.917102],[-75.116145,39.917102]],[[-75.110861,39.932312],[-75.110896,39.932284],[-75.11086,39.932284],[-75.110861,39.932312]],[[-75.112727,39.929612],[-75.112763,39.929639],[-75.112762,39.929611],[-75.112727,39.929612]],[[-75.113434,39.928949],[-75.11347,39.928976],[-75.11347,39.928949],[-75.113434,39.928949]],[[-75.11347,39.928949],[-75.113505,39.928921],[-75.113469,39.928921],[-75.11347,39.928949]],[[-75.113505,39.928866],[-75.11354,39.928893],[-75.11354,39.928866],[-75.113505,39.928866]],[[-75.113574,39.928646],[-75.113752,39.928618],[-75.113751,39.928563],[-75.113574,39.928646]],[[-75.113751,39.928563],[-75.113787,39.928535],[-75.113751,39.928535],[-75.113751,39.928563]],[[-75.113786,39.92848],[-75.113929,39.928452],[-75.113928,39.928397],[-75.113786,39.92848]],[[-75.113964,39.928397],[-75.11407,39.928314],[-75.114105,39.928232],[-75.113892,39.928343],[-75.113892,39.92837],[-75.113964,39.928397]],[[-75.114105,39.928232],[-75.11414,39.928204],[-75.114105,39.928204],[-75.114105,39.928232]],[[-75.11414,39.928204],[-75.114176,39.928176],[-75.11414,39.928177],[-75.11414,39.928204]],[[-75.114176,39.928176],[-75.114211,39.928149],[-75.114176,39.928149],[-75.114176,39.928176]],[[-75.114105,39.928204],[-75.114069,39.928177],[-75.114069,39.928204],[-75.114105,39.928204]],[[-75.113751,39.928535],[-75.113715,39.928508],[-75.113716,39.928536],[-75.113751,39.928535]],[[-75.097887,39.900368],[-75.097959,39.900423],[-75.09803,39.90034],[-75.097887,39.900368]],[[-75.09803,39.90034],[-75.098065,39.900313],[-75.098029,39.900313],[-75.09803,39.90034]],[[-75.111742,39.899116],[-75.111706,39.899088],[-75.111706,39.899116],[-75.111742,39.899116]],[[-75.109119,39.900749],[-75.109083,39.900777],[-75.109119,39.900777],[-75.109119,39.900749]],[[-75.110016,39.901431],[-75.10998,39.901404],[-75.10998,39.901431],[-75.110016,39.901431]],[[-75.111024,39.902551],[-75.11106,39.902578],[-75.11106,39.902551],[-75.111024,39.902551]],[[-75.119893,39.949203],[-75.119857,39.949176],[-75.119857,39.949203],[-75.119893,39.949203]]],[[[-75.111579,39.93692],[-75.111615,39.936948],[-75.11158,39.936948],[-75.111579,39.93692]]],[[[-75.111616,39.937003],[-75.111652,39.937057],[-75.111616,39.937057],[-75.111616,39.937003]]],[[[-75.111836,39.93777],[-75.111873,39.937825],[-75.111837,39.937825],[-75.111836,39.93777]]],[[[-75.111874,39.937989],[-75.111909,39.937879],[-75.11191,39.937989],[-75.111874,39.937989]]],[[[-75.11191,39.938017],[-75.111946,39.938099],[-75.111911,39.938099],[-75.11191,39.938017]]],[[[-75.111948,39.938236],[-75.111982,39.938126],[-75.111983,39.938236],[-75.111948,39.938236]]],[[[-75.111984,39.938263],[-75.11202,39.938318],[-75.111984,39.938318],[-75.111984,39.938263]]],[[[-75.112572,39.940237],[-75.1125,39.940182],[-75.112499,39.940045],[-75.112572,39.940237]]],[[[-75.11153,39.9434],[-75.111496,39.943619],[-75.111211,39.943621],[-75.11153,39.9434]]],[[[-75.114531,39.943988],[-75.114567,39.94396],[-75.114567,39.943988],[-75.114531,39.943988]]],[[[-75.114248,39.944181],[-75.114713,39.944344],[-75.114714,39.944508],[-75.114037,39.944539],[-75.113893,39.944376],[-75.113853,39.943909],[-75.114458,39.943741],[-75.114602,39.943905],[-75.114424,39.943961],[-75.114497,39.944125],[-75.114248,39.944181]]],[[[-75.094487,39.948265],[-75.094452,39.948238],[-75.094487,39.948238],[-75.094487,39.948265]]],[[[-75.09456,39.948457],[-75.094525,39.94843],[-75.09456,39.94843],[-75.09456,39.948457]]],[[[-75.09394,39.91137],[-75.093954,39.911343],[-75.093954,39.91137],[-75.09394,39.91137]]],[[[-75.096879,39.923847],[-75.096703,39.924122],[-75.096311,39.924069],[-75.095744,39.924511],[-75.096607,39.925303],[-75.096394,39.925441],[-75.091842,39.922692],[-75.091876,39.922527],[-75.089944,39.92179],[-75.091422,39.921065],[-75.095814,39.919816],[-75.09663,39.919812],[-75.097241,39.920303],[-75.097245,39.92077],[-75.096716,39.921432],[-75.09611,39.921517],[-75.096364,39.921955],[-75.096683,39.921843],[-75.09722,39.922033],[-75.097366,39.922471],[-75.09794,39.92288],[-75.097657,39.923129],[-75.097626,39.923678],[-75.096879,39.923847]],[[-75.091984,39.922636],[-75.091949,39.922691],[-75.09202,39.922691],[-75.091984,39.922636]],[[-75.097057,39.923763],[-75.097092,39.923736],[-75.097056,39.923736],[-75.097057,39.923763]]],[[[-75.094452,39.948293],[-75.094416,39.948266],[-75.094452,39.948265],[-75.094452,39.948293]]],[[[-75.094346,39.948458],[-75.094382,39.948485],[-75.094347,39.948486],[-75.094346,39.948458]]],[[[-75.094383,39.948513],[-75.094418,39.948485],[-75.094418,39.948513],[-75.094383,39.948513]]],[[[-75.09424,39.948541],[-75.094098,39.948597],[-75.094346,39.948403],[-75.094346,39.948458],[-75.09424,39.948541]]],[[[-75.094454,39.94854],[-75.094418,39.948513],[-75.094454,39.948513],[-75.094454,39.94854]]],[[[-75.094347,39.948541],[-75.094383,39.948513],[-75.094383,39.94854],[-75.094347,39.948541]]],[[[-75.094383,39.94854],[-75.094419,39.948568],[-75.094383,39.948568],[-75.094383,39.94854]]],[[[-75.094276,39.948568],[-75.09424,39.948541],[-75.094276,39.948541],[-75.094276,39.948568]]],[[[-75.094063,39.948652],[-75.094098,39.948597],[-75.094098,39.948652],[-75.094063,39.948652]]],[[[-75.094134,39.948651],[-75.09417,39.948624],[-75.09417,39.948651],[-75.094134,39.948651]]],[[[-75.093992,39.94868],[-75.094027,39.948652],[-75.094027,39.948679],[-75.093992,39.94868]]],[[[-75.09392,39.94868],[-75.093956,39.948652],[-75.093956,39.94868],[-75.09392,39.94868]]],[[[-75.093956,39.948707],[-75.093992,39.94868],[-75.093992,39.948707],[-75.093956,39.948707]]],[[[-75.093921,39.94879],[-75.093885,39.948735],[-75.093956,39.948735],[-75.093921,39.94879]]],[[[-75.094064,39.948817],[-75.09417,39.948734],[-75.0941,39.948816],[-75.094064,39.948817]]],[[[-75.093993,39.948789],[-75.094028,39.948817],[-75.093993,39.948817],[-75.093993,39.948789]]],[[[-75.093814,39.948818],[-75.09385,39.94879],[-75.09385,39.948818],[-75.093814,39.948818]]],[[[-75.093743,39.948846],[-75.093815,39.948873],[-75.093744,39.948873],[-75.093743,39.948846]]],[[[-75.093672,39.948873],[-75.093708,39.948901],[-75.093673,39.948901],[-75.093672,39.948873]]],[[[-75.093923,39.948955],[-75.093851,39.948873],[-75.093993,39.948872],[-75.093923,39.948955]]],[[[-75.093851,39.948955],[-75.093887,39.948982],[-75.093852,39.948982],[-75.093851,39.948955]]],[[[-75.093566,39.948984],[-75.093602,39.949011],[-75.093566,39.949011],[-75.093566,39.948984]]],[[[-75.09378,39.948983],[-75.093852,39.949065],[-75.093781,39.949093],[-75.09378,39.948983]]],[[[-75.093177,39.949398],[-75.093709,39.948956],[-75.093426,39.949259],[-75.093177,39.949398]]],[[[-75.093533,39.949286],[-75.093569,39.949258],[-75.093569,39.949286],[-75.093533,39.949286]]],[[[-75.093426,39.949286],[-75.093533,39.949313],[-75.093426,39.949314],[-75.093426,39.949286]]],[[[-75.093427,39.949369],[-75.093462,39.949341],[-75.093463,39.949369],[-75.093427,39.949369]]],[[[-75.093424,39.949094],[-75.09339,39.949177],[-75.093283,39.949205],[-75.093424,39.949094]]],[[[-75.093283,39.949205],[-75.093247,39.949233],[-75.093247,39.949205],[-75.093283,39.949205]]],[[[-75.093247,39.949233],[-75.093212,39.94926],[-75.093212,39.949233],[-75.093247,39.949233]]],[[[-75.093212,39.949315],[-75.092929,39.949509],[-75.093212,39.94926],[-75.093212,39.949315]]],[[[-75.093391,39.949396],[-75.093321,39.949452],[-75.09332,39.949397],[-75.093391,39.949396]]],[[[-75.093071,39.949453],[-75.093178,39.949452],[-75.093071,39.94948],[-75.093071,39.949453]]],[[[-75.093321,39.949479],[-75.093285,39.949452],[-75.093321,39.949452],[-75.093321,39.949479]]],[[[-75.093178,39.949507],[-75.093249,39.94948],[-75.093179,39.949535],[-75.093178,39.949507]]],[[[-75.092608,39.949538],[-75.092643,39.94951],[-75.092644,39.949538],[-75.092608,39.949538]]],[[[-75.093286,39.949562],[-75.093321,39.949534],[-75.093322,39.949562],[-75.093286,39.949562]]],[[[-75.093107,39.949535],[-75.093143,39.949562],[-75.093108,39.949563],[-75.093107,39.949535]]],[[[-75.092751,39.949537],[-75.092715,39.949565],[-75.092715,39.949537],[-75.092751,39.949537]]],[[[-75.09325,39.949562],[-75.093286,39.949589],[-75.09325,39.949589],[-75.09325,39.949562]]],[[[-75.093179,39.94959],[-75.093143,39.949562],[-75.093179,39.949562],[-75.093179,39.94959]]],[[[-75.093072,39.94959],[-75.093108,39.949563],[-75.093108,39.94959],[-75.093072,39.94959]]],[[[-75.093072,39.949535],[-75.092823,39.949674],[-75.093071,39.94948],[-75.093072,39.949535]]],[[[-75.092715,39.949565],[-75.09268,39.949592],[-75.092679,39.949565],[-75.092715,39.949565]]],[[[-75.093215,39.949617],[-75.09325,39.949589],[-75.093251,39.949617],[-75.093215,39.949617]]],[[[-75.09268,39.949592],[-75.092644,39.94962],[-75.092644,39.949592],[-75.09268,39.949592]]],[[[-75.093073,39.949645],[-75.093108,39.949618],[-75.093108,39.949645],[-75.093073,39.949645]]],[[[-75.092716,39.949647],[-75.092751,39.949619],[-75.092752,39.949647],[-75.092716,39.949647]]],[[[-75.093001,39.949646],[-75.093037,39.9497],[-75.093002,39.9497],[-75.093001,39.949646]]],[[[-75.093109,39.9497],[-75.093144,39.949672],[-75.093144,39.9497],[-75.093109,39.9497]]],[[[-75.093073,39.9497],[-75.093109,39.949727],[-75.093073,39.949728],[-75.093073,39.9497]]],[[[-75.092681,39.949757],[-75.092717,39.949784],[-75.092681,39.949784],[-75.092681,39.949757]]],[[[-75.092967,39.949783],[-75.093003,39.94981],[-75.092967,39.94981],[-75.092967,39.949783]]],[[[-75.092789,39.949811],[-75.092825,39.949839],[-75.092789,39.949839],[-75.092789,39.949811]]],[[[-75.092683,39.949922],[-75.092718,39.949894],[-75.092718,39.949922],[-75.092683,39.949922]]],[[[-75.09279,39.949949],[-75.092825,39.949921],[-75.092825,39.949948],[-75.09279,39.949949]]],[[[-75.08579,39.92385],[-75.085755,39.923903],[-75.085684,39.923904],[-75.08579,39.92385]]],[[[-75.092608,39.949538],[-75.092572,39.949565],[-75.092572,39.949538],[-75.092608,39.949538]]],[[[-75.091753,39.949624],[-75.091788,39.949597],[-75.091788,39.949624],[-75.091753,39.949624]]],[[[-75.092324,39.949759],[-75.09236,39.949731],[-75.09236,39.949759],[-75.092324,39.949759]]],[[[-75.092182,39.94976],[-75.092253,39.949732],[-75.092253,39.949759],[-75.092182,39.94976]]],[[[-75.092467,39.949786],[-75.092431,39.949758],[-75.092467,39.949758],[-75.092467,39.949786]]],[[[-75.092289,39.949786],[-75.092324,39.949759],[-75.092325,39.949786],[-75.092289,39.949786]]],[[[-75.092432,39.949786],[-75.092361,39.949841],[-75.092361,39.949814],[-75.092432,39.949786]]],[[[-75.092075,39.949842],[-75.092146,39.949787],[-75.092147,39.949842],[-75.092075,39.949842]]],[[[-75.092183,39.949869],[-75.092289,39.949786],[-75.092218,39.949869],[-75.092183,39.949869]]],[[[-75.092468,39.94984],[-75.092504,39.949868],[-75.092468,39.949868],[-75.092468,39.94984]]],[[[-75.092325,39.949869],[-75.092361,39.949841],[-75.092361,39.949868],[-75.092325,39.949869]]],[[[-75.092183,39.949897],[-75.092147,39.94987],[-75.092183,39.949869],[-75.092183,39.949897]]],[[[-75.091826,39.949871],[-75.091862,39.949898],[-75.091826,39.949899],[-75.091826,39.949871]]],[[[-75.091399,39.949956],[-75.091434,39.949928],[-75.091434,39.949956],[-75.091399,39.949956]]],[[[-75.091363,39.949983],[-75.091399,39.949956],[-75.091399,39.949983],[-75.091363,39.949983]]],[[[-75.091292,39.950011],[-75.091328,39.950038],[-75.091292,39.950039],[-75.091292,39.950011]]],[[[-75.092152,39.950474],[-75.092188,39.950446],[-75.092188,39.950473],[-75.092152,39.950474]]],[[[-75.091305,39.951521],[-75.091269,39.951494],[-75.091305,39.951494],[-75.091305,39.951521]]],[[[-75.091234,39.951549],[-75.091198,39.951522],[-75.091234,39.951521],[-75.091234,39.951549]]],[[[-75.090665,39.951771],[-75.090629,39.951717],[-75.0907,39.951716],[-75.090665,39.951771]]],[[[-75.090558,39.951799],[-75.090594,39.951772],[-75.090594,39.951799],[-75.090558,39.951799]]],[[[-75.077616,39.952606],[-75.077577,39.952167],[-75.077146,39.95184],[-75.077539,39.951838],[-75.077322,39.951482],[-75.078361,39.952053],[-75.078645,39.951914],[-75.077854,39.95115],[-75.078102,39.950984],[-75.07893,39.951858],[-75.079322,39.951829],[-75.079363,39.952432],[-75.079044,39.952709],[-75.077973,39.952577],[-75.077582,39.952798],[-75.077402,39.952552],[-75.077616,39.952606]]],[[[-75.080756,39.9527],[-75.080469,39.952427],[-75.079792,39.952568],[-75.079358,39.951883],[-75.079969,39.952375],[-75.080108,39.951962],[-75.080466,39.952125],[-75.081498,39.951763],[-75.083036,39.952277],[-75.08475,39.952543],[-75.085325,39.953061],[-75.086147,39.953167],[-75.086692,39.954345],[-75.085133,39.955643],[-75.084422,39.955894],[-75.084027,39.955566],[-75.083742,39.95565],[-75.083348,39.955432],[-75.083631,39.955184],[-75.083198,39.95461],[-75.082517,39.954229],[-75.082587,39.953981],[-75.081938,39.953188],[-75.081726,39.953409],[-75.081403,39.953246],[-75.081328,39.952807],[-75.081579,39.95297],[-75.081648,39.952723],[-75.081396,39.952422],[-75.081221,39.952753],[-75.08079,39.952508],[-75.080756,39.9527]],[[-75.080755,39.952508],[-75.080682,39.952398],[-75.080719,39.952508],[-75.080755,39.952508]]],[[[-75.086519,39.954977],[-75.086555,39.955004],[-75.086519,39.955005],[-75.086519,39.954977]]],[[[-75.085952,39.955447],[-75.085988,39.955474],[-75.085953,39.955474],[-75.085952,39.955447]]],[[[-75.085917,39.955502],[-75.085953,39.955474],[-75.085953,39.955502],[-75.085917,39.955502]]]]}}]}