{"type":"FeatureCollection","features":[{"type":"Feature","properties":{"level_ft":2},"geometry":{"type":"MultiPolygon","coordinates":[[[[-75.115267,39.902666],[-75.115231,39.902639],[-75.115267,39.902639],[-75.115267,39.902666]]],[[[-75.115338,39.902666],[-75.115267,39.902693],[-75.115267,39.902666],[-75.115338,39.902666]]],[[[-75.1152,39.903188],[-75.114163,39.902754],[-75.116513,39.903126],[-75.116378,39.903319],[-75.1152,39.903188]]],[[[-75.113983,39.906599],[-75.11395,39.906901],[-75.113876,39.906599],[-75.113983,39.906599]]],[[[-75.117088,39.910947],[-75.1175,39.909161],[-75.114916,39.907308],[-75.114559,39.907227],[-75.11449,39.907474],[-75.113716,39.904596],[-75.113846,39.903223],[-75.11556,39.903515],[-75.116437,39.903456],[-75.11488,39.9054],[-75.114696,39.905978],[-75.115126,39.906652],[-75.116727,39.907983],[-75.117922,39.908554],[-75.117449,39.911467],[-75.117088,39.910947]]],[[[-75.117933,39.90979],[-75.117993,39.908556],[-75.119918,39.908517],[-75.119709,39.909039],[-75.119458,39.908876],[-75.119424,39.909068],[-75.118676,39.909154],[-75.117933,39.90979]]],[[[-75.119682,39.909973],[-75.118431,39.909677],[-75.118749,39.909374],[-75.119854,39.90934],[-75.119682,39.909973]]],[[[-75.117874,39.91119],[-75.117902,39.910257],[-75.117866,39.910229],[-75.117898,39.909845],[-75.117973,39.910256],[-75.117874,39.91119]]],[[[-75.123795,39.927192],[-75.123793,39.926944],[-75.124291,39.926805],[-75.12465,39.92705],[-75.124546,39.927407],[-75.125367,39.927485],[-75.125404,39.927677],[-75.124265,39.92793],[-75.124125,39.928178],[-75.123403,39.927166],[-75.123189,39.927195],[-75.123149,39.926701],[-75.123721,39.926863],[-75.123795,39.927192]],[[-75.123542,39.926863],[-75.123507,39.926891],[-75.123543,39.926891],[-75.123542,39.926863]]],[[[-75.12731,39.929451],[-75.127379,39.929204],[-75.126917,39.929398],[-75.12552,39.928692],[-75.124377,39.928424],[-75.12441,39.928204],[-75.126478,39.928083],[-75.125868,39.927729],[-75.125649,39.927127],[-75.126833,39.927999],[-75.127261,39.928024],[-75.127121,39.928272],[-75.127552,39.928599],[-75.128658,39.928648],[-75.128374,39.928787],[-75.128625,39.928923],[-75.127985,39.929201],[-75.127955,39.929722],[-75.12731,39.929451]]],[[[-75.130512,39.951891],[-75.130539,39.950957],[-75.130967,39.950955],[-75.131274,39.949416],[-75.131523,39.94936],[-75.131445,39.948646],[-75.132624,39.948832],[-75.132762,39.948337],[-75.130759,39.947772],[-75.130969,39.947331],[-75.131466,39.947081],[-75.132206,39.942163],[-75.131782,39.942605],[-75.13114,39.942663],[-75.130602,39.942309],[-75.130598,39.94187],[-75.131023,39.941511],[-75.131843,39.941506],[-75.132024,39.941835],[-75.132272,39.941614],[-75.132004,39.939666],[-75.131433,39.939587],[-75.131499,39.939065],[-75.130717,39.939316],[-75.130465,39.939015],[-75.130853,39.938602],[-75.130634,39.938054],[-75.130884,39.938052],[-75.130882,39.93786],[-75.13063,39.93756],[-75.130915,39.937531],[-75.130734,39.93723],[-75.131049,39.936624],[-75.130657,39.936626],[-75.130367,39.936161],[-75.131579,39.936127],[-75.131236,39.937611],[-75.131452,39.93783],[-75.131204,39.937941],[-75.131527,39.938186],[-75.132472,39.932333],[-75.131864,39.932172],[-75.131887,39.930827],[-75.131559,39.930032],[-75.132129,39.929947],[-75.131762,39.928823],[-75.130764,39.928856],[-75.130613,39.927978],[-75.131178,39.927371],[-75.13096,39.926878],[-75.130424,39.926826],[-75.12913,39.92568],[-75.126588,39.924596],[-75.128613,39.923734],[-75.127376,39.92105],[-75.126948,39.921052],[-75.127122,39.92053],[-75.127586,39.920582],[-75.127829,39.919895],[-75.12658,39.919791],[-75.126398,39.919326],[-75.126572,39.918886],[-75.126,39.918724],[-75.125783,39.918423],[-75.125843,39.917187],[-75.126303,39.916718],[-75.126292,39.915565],[-75.123619,39.915607],[-75.12326,39.915417],[-75.123255,39.91484],[-75.123503,39.914647],[-75.122539,39.914542],[-75.122714,39.914129],[-75.12464,39.914201],[-75.124663,39.912801],[-75.124056,39.912777],[-75.123982,39.912393],[-75.123625,39.912367],[-75.123434,39.911023],[-75.123931,39.910773],[-75.124644,39.910797],[-75.124493,39.90981],[-75.124742,39.909753],[-75.124702,39.909232],[-75.125019,39.908846],[-75.125234,39.908927],[-75.125661,39.90887],[-75.121453,39.9087],[-75.121484,39.908233],[-75.12537,39.908295],[-75.125654,39.908156],[-75.125084,39.908214],[-75.125082,39.907912],[-75.122086,39.907791],[-75.121517,39.907959],[-75.120882,39.908648],[-75.120133,39.908652],[-75.121403,39.907762],[-75.122836,39.907428],[-75.129344,39.907381],[-75.129091,39.911608],[-75.12984,39.915359],[-75.135874,39.927639],[-75.136523,39.929656],[-75.136806,39.935899],[-75.13666,39.940342],[-75.136082,39.945097],[-75.134849,39.950658],[-75.134194,39.952774],[-75.129264,39.95198],[-75.129297,39.951733],[-75.130512,39.951891]],[[-75.130512,39.951891],[-75.130547,39.951918],[-75.130547,39.951891],[-75.130512,39.951891]]],[[[-75.128937,39.931831],[-75.127546,39.931866],[-75.127509,39.931701],[-75.128396,39.93123],[-75.128719,39.931448],[-75.129003,39.931309],[-75.129279,39.930292],[-75.127746,39.930355],[-75.127777,39.929778],[-75.127994,39.930134],[-75.129239,39.929798],[-75.129455,39.929989],[-75.13031,39.929957],[-75.130277,39.930176],[-75.129457,39.930236],[-75.129052,39.932764],[-75.128937,39.931831]]],[[[-75.114773,39.943135],[-75.114913,39.942778],[-75.116126,39.942826],[-75.116449,39.943017],[-75.114773,39.943135]]],[[[-75.129091,39.944788],[-75.129127,39.944815],[-75.129091,39.944816],[-75.129091,39.944788]]],[[[-75.128669,39.945422],[-75.128704,39.945394],[-75.128704,39.945422],[-75.128669,39.945422]]],[[[-75.128634,39.945532],[-75.12867,39.945504],[-75.12867,39.945532],[-75.128634,39.945532]]],[[[-75.128599,39.945642],[-75.128635,39.945614],[-75.128635,39.945642],[-75.128599,39.945642]]],[[[-75.128745,39.945998],[-75.12871,39.946026],[-75.12871,39.945998],[-75.128745,39.945998]]],[[[-75.12871,39.946053],[-75.128675,39.946081],[-75.128675,39.946053],[-75.12871,39.946053]]],[[[-75.129192,39.944156],[-75.129167,39.945309],[-75.128882,39.945338],[-75.128639,39.946054],[-75.128784,39.946355],[-75.128534,39.946329],[-75.128396,39.946769],[-75.129077,39.947204],[-75.128328,39.947208],[-75.128121,39.947923],[-75.127978,39.947924],[-75.128016,39.948171],[-75.128124,39.948308],[-75.127665,39.948722],[-75.127626,39.948393],[-75.127268,39.94823],[-75.127624,39.948228],[-75.127444,39.948064],[-75.127729,39.947953],[-75.127937,39.947265],[-75.126827,39.946805],[-75.127111,39.946721],[-75.128182,39.946852],[-75.12874,39.945422],[-75.128703,39.945312],[-75.12849,39.945423],[-75.128417,39.945231],[-75.128805,39.944735],[-75.127912,39.94463],[-75.12791,39.94441],[-75.12891,39.94446],[-75.129192,39.944156]],[[-75.128328,39.947208],[-75.128292,39.947181],[-75.128293,39.947208],[-75.128328,39.947208]],[[-75.128259,39.947401],[-75.128223,39.947374],[-75.128223,39.947401],[-75.128259,39.947401]],[[-75.126969,39.946804],[-75.127005,39.946831],[-75.127005,39.946804],[-75.126969,39.946804]]],[[[-75.12805,39.948006],[-75.128015,39.948034],[-75.128015,39.948006],[-75.12805,39.948006]]],[[[-75.110965,39.899943],[-75.110067,39.899097],[-75.110351,39.898973],[-75.110965,39.899943]]],[[[-75.100389,39.901069],[-75.099102,39.900692],[-75.099909,39.899232],[-75.101146,39.898882],[-75.102116,39.899107],[-75.102917,39.899882],[-75.104793,39.900527],[-75.107941,39.900238],[-75.10964,39.899265],[-75.109858,39.899702],[-75.109718,39.899977],[-75.106199,39.901121],[-75.102743,39.901249],[-75.100389,39.901069]]],[[[-75.111822,39.900131],[-75.111964,39.899965],[-75.11268,39.900346],[-75.112253,39.900458],[-75.111822,39.900131]]],[[[-75.115731,39.902691],[-75.112397,39.900567],[-75.112752,39.900401],[-75.113139,39.899877],[-75.112778,39.89933],[-75.111669,39.898869],[-75.110958,39.89912],[-75.110528,39.898905],[-75.111838,39.898569],[-75.113166,39.899305],[-75.113874,39.901102],[-75.11643,39.902191],[-75.11655,39.902879],[-75.115731,39.902691]]],[[[-75.11441,39.902478],[-75.113083,39.901552],[-75.113151,39.901195],[-75.112364,39.900897],[-75.112111,39.900569],[-75.113114,39.90103],[-75.11516,39.902667],[-75.11441,39.902478]]],[[[-75.107134,39.902022],[-75.107521,39.901499],[-75.109983,39.901678],[-75.109735,39.901899],[-75.108985,39.901738],[-75.107596,39.90191],[-75.107313,39.902131],[-75.107134,39.902022]],[[-75.107312,39.902049],[-75.107277,39.902022],[-75.107277,39.902049],[-75.107312,39.902049]]],[[[-75.101016,39.903482],[-75.100549,39.903127],[-75.099586,39.902995],[-75.099653,39.902501],[-75.10008,39.902416],[-75.099111,39.901735],[-75.106952,39.901557],[-75.106673,39.902272],[-75.105459,39.902086],[-75.105539,39.903102],[-75.104968,39.903022],[-75.104724,39.903572],[-75.10408,39.903384],[-75.104644,39.902612],[-75.104498,39.902283],[-75.103035,39.902016],[-75.10179,39.902297],[-75.101874,39.903834],[-75.101591,39.90411],[-75.101235,39.904112],[-75.101016,39.903482]]],[[[-75.110088,39.909502],[-75.109308,39.910028],[-75.10877,39.909619],[-75.108273,39.909868],[-75.109138,39.910907],[-75.109494,39.910933],[-75.109497,39.911235],[-75.108893,39.91143],[-75.108896,39.911759],[-75.108285,39.911241],[-75.108317,39.910829],[-75.107997,39.91094],[-75.107532,39.910751],[-75.106465,39.911003],[-75.105821,39.910815],[-75.105574,39.911118],[-75.104287,39.910658],[-75.104148,39.91107],[-75.103437,39.911266],[-75.103753,39.91077],[-75.103427,39.910223],[-75.103322,39.910416],[-75.102645,39.910419],[-75.102541,39.910749],[-75.102183,39.910641],[-75.101864,39.910808],[-75.101799,39.911522],[-75.101943,39.911658],[-75.102297,39.911409],[-75.102442,39.911683],[-75.10159,39.912127],[-75.101169,39.912815],[-75.100845,39.912488],[-75.100136,39.912986],[-75.099531,39.913153],[-75.099614,39.913828],[-75.098545,39.91379],[-75.098005,39.914078],[-75.09735,39.913506],[-75.096364,39.913826],[-75.095645,39.913064],[-75.096218,39.913418],[-75.098001,39.913491],[-75.099069,39.913238],[-75.09928,39.912963],[-75.099709,39.91307],[-75.099672,39.912878],[-75.100772,39.912268],[-75.100659,39.911583],[-75.101403,39.911112],[-75.101437,39.910865],[-75.101005,39.910455],[-75.09976,39.910709],[-75.099144,39.909559],[-75.100146,39.91002],[-75.100678,39.909743],[-75.100641,39.909524],[-75.100927,39.909605],[-75.101704,39.908777],[-75.102062,39.90894],[-75.102309,39.908746],[-75.104306,39.908736],[-75.105418,39.909581],[-75.106453,39.909741],[-75.107699,39.90946],[-75.108272,39.909786],[-75.108091,39.909512],[-75.108972,39.908355],[-75.108899,39.908135],[-75.110097,39.906564],[-75.111196,39.905845],[-75.111261,39.905131],[-75.112541,39.904822],[-75.113627,39.906655],[-75.114727,39.910081],[-75.11415,39.909288],[-75.113452,39.907041],[-75.111567,39.90749],[-75.112886,39.90751],[-75.112928,39.908197],[-75.112578,39.908912],[-75.112223,39.909106],[-75.111189,39.909112],[-75.110979,39.909525],[-75.110623,39.909527],[-75.110191,39.909062],[-75.110088,39.909502]],[[-75.10877,39.909619],[-75.108805,39.909591],[-75.108769,39.909591],[-75.10877,39.909619]],[[-75.110191,39.909062],[-75.110155,39.909035],[-75.110155,39.909062],[-75.110191,39.909062]]],[[[-75.106929,39.943451],[-75.106965,39.943424],[-75.106965,39.943451],[-75.106929,39.943451]]],[[[-75.10704,39.94389],[-75.107005,39.943918],[-75.107005,39.94389],[-75.10704,39.94389]]],[[[-75.106933,39.943891],[-75.106969,39.943918],[-75.106933,39.943918],[-75.106933,39.943891]]],[[[-75.107648,39.944024],[-75.107472,39.944354],[-75.106974,39.944439],[-75.106539,39.9437],[-75.107292,39.944136],[-75.107111,39.943835],[-75.106933,39.943836],[-75.106965,39.943451],[-75.107286,39.943422],[-75.107717,39.943749],[-75.10754,39.943887],[-75.107289,39.943834],[-75.107648,39.944024]],[[-75.10733,39.944355],[-75.107294,39.944328],[-75.107294,39.944355],[-75.10733,39.944355]],[[-75.10679,39.943864],[-75.106756,39.944001],[-75.106899,39.944083],[-75.10679,39.943864]],[[-75.106899,39.944083],[-75.106935,39.94411],[-75.106935,39.944083],[-75.106899,39.944083]],[[-75.107432,39.94386],[-75.107468,39.943833],[-75.107432,39.943833],[-75.107432,39.94386]],[[-75.10729,39.943889],[-75.107219,39.943971],[-75.107434,39.944108],[-75.10729,39.943889]],[[-75.107434,39.944108],[-75.10747,39.944135],[-75.10747,39.944107],[-75.107434,39.944108]],[[-75.107507,39.94419],[-75.107471,39.944162],[-75.107471,39.94419],[-75.107507,39.94419]]],[[[-75.103659,39.944704],[-75.103944,39.94462],[-75.104081,39.94407],[-75.104688,39.944067],[-75.104517,39.944892],[-75.103804,39.945005],[-75.103659,39.944704]]],[[[-75.107296,39.944548],[-75.107331,39.94452],[-75.107331,39.944547],[-75.107296,39.944548]]],[[[-75.107296,39.944548],[-75.107082,39.944604],[-75.107117,39.944548],[-75.107296,39.944548]]],[[[-75.104019,39.945059],[-75.103983,39.945086],[-75.103983,39.945059],[-75.104019,39.945059]]],[[[-75.103912,39.945087],[-75.103948,39.945114],[-75.103912,39.945114],[-75.103912,39.945087]]],[[[-75.102067,39.946249],[-75.103352,39.946298],[-75.104354,39.946677],[-75.103498,39.946654],[-75.103464,39.946929],[-75.102821,39.946712],[-75.102006,39.947403],[-75.101292,39.947297],[-75.101324,39.946857],[-75.101537,39.946829],[-75.101501,39.946719],[-75.101536,39.946609],[-75.101393,39.946582],[-75.101676,39.946306],[-75.101748,39.946443],[-75.101961,39.946277],[-75.101819,39.946443],[-75.101856,39.946498],[-75.102067,39.946249]],[[-75.101326,39.947104],[-75.101361,39.947077],[-75.101326,39.947077],[-75.101326,39.947104]],[[-75.101361,39.946994],[-75.101396,39.947022],[-75.101432,39.946967],[-75.101361,39.946994]],[[-75.101432,39.946967],[-75.101467,39.946939],[-75.101431,39.946939],[-75.101432,39.946967]],[[-75.101537,39.946774],[-75.101608,39.946746],[-75.101537,39.946746],[-75.101537,39.946774]],[[-75.101713,39.946498],[-75.101535,39.946554],[-75.101571,39.946609],[-75.101713,39.946498]]],[[[-75.104767,39.948981],[-75.102977,39.948249],[-75.102331,39.947786],[-75.103401,39.947862],[-75.103469,39.94745],[-75.103897,39.947393],[-75.104112,39.947584],[-75.103971,39.947777],[-75.104399,39.947692],[-75.105938,39.948288],[-75.105476,39.948538],[-75.105621,39.948839],[-75.105907,39.948838],[-75.105731,39.949113],[-75.104983,39.949282],[-75.104767,39.948981]]],[[[-75.105172,39.950406],[-75.104169,39.949972],[-75.104955,39.950105],[-75.105626,39.949361],[-75.106124,39.949221],[-75.106376,39.949439],[-75.107011,39.94864],[-75.107085,39.948941],[-75.106205,39.950319],[-75.107419,39.950449],[-75.107995,39.95105],[-75.105565,39.950541],[-75.105177,39.951065],[-75.105172,39.950406]]],[[[-75.088105,39.969382],[-75.087023,39.968042],[-75.090434,39.966405],[-75.090252,39.96594],[-75.091069,39.965524],[-75.090957,39.964893],[-75.09135,39.964973],[-75.092144,39.966067],[-75.092251,39.966094],[-75.091961,39.965574],[-75.091959,39.965327],[-75.092386,39.965105],[-75.092169,39.964804],[-75.091206,39.964809],[-75.090668,39.964537],[-75.090486,39.964099],[-75.091552,39.963627],[-75.091584,39.963215],[-75.091226,39.963052],[-75.091366,39.962694],[-75.091045,39.962751],[-75.090828,39.962395],[-75.090862,39.962148],[-75.091182,39.962091],[-75.091255,39.962283],[-75.091251,39.961789],[-75.091964,39.96173],[-75.09254,39.962386],[-75.093148,39.962521],[-75.092937,39.962906],[-75.093153,39.963042],[-75.092907,39.96351],[-75.092622,39.963567],[-75.092982,39.963949],[-75.093765,39.96367],[-75.094592,39.96449],[-75.094842,39.964489],[-75.09448,39.963914],[-75.094726,39.963501],[-75.095154,39.963416],[-75.094867,39.963308],[-75.095114,39.962922],[-75.095617,39.963359],[-75.095909,39.964099],[-75.096115,39.963137],[-75.095573,39.962398],[-75.095929,39.962342],[-75.096292,39.962999],[-75.096433,39.962778],[-75.096968,39.96283],[-75.097069,39.962061],[-75.096637,39.961652],[-75.097269,39.960523],[-75.097911,39.960492],[-75.098307,39.960874],[-75.099305,39.960787],[-75.100016,39.960536],[-75.099872,39.96029],[-75.100084,39.960124],[-75.099545,39.959605],[-75.100548,39.960094],[-75.10058,39.959655],[-75.101398,39.959458],[-75.101426,39.958552],[-75.100563,39.957788],[-75.101241,39.957784],[-75.101529,39.958057],[-75.10095,39.957099],[-75.101483,39.956905],[-75.10162,39.956217],[-75.102369,39.956241],[-75.103542,39.955768],[-75.104365,39.956038],[-75.106824,39.955779],[-75.108741,39.954725],[-75.109909,39.953648],[-75.110048,39.953208],[-75.109007,39.952473],[-75.107971,39.952368],[-75.107753,39.951875],[-75.107003,39.951742],[-75.106291,39.95191],[-75.105718,39.951639],[-75.105891,39.951034],[-75.106318,39.951004],[-75.107568,39.951162],[-75.107822,39.951573],[-75.10882,39.951485],[-75.109607,39.951811],[-75.109998,39.951644],[-75.109993,39.951067],[-75.109812,39.950711],[-75.10949,39.950713],[-75.109552,39.949642],[-75.108144,39.9477],[-75.107959,39.946933],[-75.107424,39.946935],[-75.107565,39.94677],[-75.107135,39.946525],[-75.106779,39.946582],[-75.107204,39.946278],[-75.107024,39.946086],[-75.106166,39.945926],[-75.104491,39.946072],[-75.104061,39.945827],[-75.103948,39.945142],[-75.106441,39.944744],[-75.10452,39.945276],[-75.105235,39.945464],[-75.106088,39.94513],[-75.107194,39.94518],[-75.108668,39.946435],[-75.108924,39.947147],[-75.110186,39.948678],[-75.110635,39.951064],[-75.110601,39.951229],[-75.110102,39.951259],[-75.110067,39.951396],[-75.110601,39.951256],[-75.110638,39.951339],[-75.110033,39.951534],[-75.110746,39.951448],[-75.111582,39.9532],[-75.11098,39.953753],[-75.110949,39.954274],[-75.111635,39.955204],[-75.11197,39.956712],[-75.1126,39.955364],[-75.113098,39.955279],[-75.11272,39.956901],[-75.113183,39.956761],[-75.113152,39.957255],[-75.113509,39.957336],[-75.113721,39.957142],[-75.113653,39.957472],[-75.11419,39.957634],[-75.114402,39.957413],[-75.114368,39.957688],[-75.115651,39.957462],[-75.11562,39.958038],[-75.116368,39.957924],[-75.116473,39.957677],[-75.116149,39.957322],[-75.116893,39.956796],[-75.117537,39.957012],[-75.117541,39.957452],[-75.11786,39.95723],[-75.118188,39.95797],[-75.118294,39.957777],[-75.118652,39.957967],[-75.118476,39.958188],[-75.118655,39.958352],[-75.119048,39.958404],[-75.120113,39.95774],[-75.119978,39.958619],[-75.120372,39.958864],[-75.121227,39.958695],[-75.122264,39.958991],[-75.122787,39.957643],[-75.122935,39.958246],[-75.123542,39.958298],[-75.123749,39.957446],[-75.124285,39.95758],[-75.124389,39.95725],[-75.124675,39.957276],[-75.124863,39.958401],[-75.125681,39.958067],[-75.12564,39.95749],[-75.126029,39.957104],[-75.126564,39.957101],[-75.127103,39.957565],[-75.12838,39.956789],[-75.127197,39.956109],[-75.127266,39.955834],[-75.127015,39.955753],[-75.127942,39.955639],[-75.128046,39.955364],[-75.127617,39.955229],[-75.127436,39.9549],[-75.129616,39.955328],[-75.129823,39.954585],[-75.128745,39.953767],[-75.12867,39.953301],[-75.129416,39.95305],[-75.129699,39.952719],[-75.128877,39.952586],[-75.128875,39.952339],[-75.13023,39.952359],[-75.134089,39.953025],[-75.132573,39.956557],[-75.130162,39.959455],[-75.125749,39.962444],[-75.122172,39.964298],[-75.119748,39.96171],[-75.118447,39.960723],[-75.115839,39.959328],[-75.110143,39.958016],[-75.108033,39.958011],[-75.106227,39.958401],[-75.104126,39.95944],[-75.099304,39.963276],[-75.096051,39.965546],[-75.088105,39.969382]]],[[[-75.099732,39.899343],[-75.099697,39.899398],[-75.099696,39.899343],[-75.099732,39.899343]]],[[[-75.096241,39.900898],[-75.099624,39.899248],[-75.098921,39.900363],[-75.097921,39.900176],[-75.097356,39.900783],[-75.096241,39.900898]]],[[[-75.095902,39.901669],[-75.095048,39.901811],[-75.094759,39.901389],[-75.095934,39.901229],[-75.096899,39.901444],[-75.096403,39.901804],[-75.095975,39.901833],[-75.095902,39.901669]]],[[[-75.096244,39.913898],[-75.096181,39.91383],[-75.09629,39.913884],[-75.096244,39.913898]]],[[[-75.084443,39.924788],[-75.084122,39.924845],[-75.084268,39.925174],[-75.083853,39.926739],[-75.08138,39.925993],[-75.084371,39.924542],[-75.084443,39.924788]]],[[[-75.093452,39.927488],[-75.0917,39.926948],[-75.091519,39.926702],[-75.090237,39.926873],[-75.089451,39.926657],[-75.089458,39.927536],[-75.088858,39.928253],[-75.089577,39.928935],[-75.0898,39.929895],[-75.088811,39.930998],[-75.089103,39.931793],[-75.088786,39.932289],[-75.089004,39.932782],[-75.088186,39.933033],[-75.092431,39.933149],[-75.092974,39.934134],[-75.09448,39.935033],[-75.094733,39.935416],[-75.094815,39.936651],[-75.095139,39.937006],[-75.094573,39.937585],[-75.093786,39.937315],[-75.090684,39.937358],[-75.091073,39.936944],[-75.08993,39.936813],[-75.088998,39.936269],[-75.089268,39.935738],[-75.089851,39.936182],[-75.090135,39.936064],[-75.089949,39.93492],[-75.089201,39.934448],[-75.088501,39.934362],[-75.087064,39.93482],[-75.086473,39.934766],[-75.086413,39.933372],[-75.08687,39.933479],[-75.087473,39.933092],[-75.087074,39.932243],[-75.087787,39.932212],[-75.087073,39.932188],[-75.08664,39.931586],[-75.086251,39.931972],[-75.085919,39.93187],[-75.087243,39.92975],[-75.087358,39.927442],[-75.086566,39.926761],[-75.084246,39.92678],[-75.084243,39.926492],[-75.084977,39.924758],[-75.086332,39.924669],[-75.086979,39.925325],[-75.087406,39.92524],[-75.087909,39.925677],[-75.088229,39.925538],[-75.088303,39.925895],[-75.089017,39.925946],[-75.089199,39.926351],[-75.089197,39.926137],[-75.089588,39.925998],[-75.090515,39.925966],[-75.091545,39.925521],[-75.092552,39.926504],[-75.093804,39.926937],[-75.093379,39.927269],[-75.093452,39.927488]],[[-75.087909,39.925677],[-75.087874,39.925705],[-75.08791,39.925759],[-75.087909,39.925677]],[[-75.089199,39.926384],[-75.089234,39.926357],[-75.089199,39.926357],[-75.089199,39.926384]],[[-75.089235,39.926439],[-75.089271,39.926411],[-75.089235,39.926411],[-75.089235,39.926439]],[[-75.089343,39.926493],[-75.089307,39.926521],[-75.089343,39.926548],[-75.089343,39.926493]],[[-75.089307,39.926493],[-75.089271,39.926466],[-75.089271,39.926494],[-75.089307,39.926493]]],[[[-75.086395,39.932054],[-75.086648,39.932492],[-75.086619,39.933233],[-75.086399,39.933234],[-75.085962,39.932029],[-75.086395,39.932054]]],[[[-75.094726,39.938738],[-75.094762,39.938765],[-75.094726,39.938765],[-75.094726,39.938738]]],[[[-75.095092,39.939806],[-75.095056,39.939779],[-75.095092,39.939779],[-75.095092,39.939806]]],[[[-75.101759,39.939552],[-75.101785,39.938399],[-75.102117,39.939688],[-75.102618,39.93985],[-75.103185,39.939463],[-75.102827,39.939272],[-75.103254,39.939243],[-75.103608,39.938911],[-75.106207,39.938349],[-75.106407,39.940873],[-75.106908,39.94109],[-75.106408,39.941011],[-75.105632,39.941921],[-75.104844,39.941568],[-75.105685,39.939889],[-75.105391,39.938929],[-75.104183,39.939348],[-75.103765,39.940558],[-75.103305,39.940944],[-75.102661,39.940701],[-75.097558,39.94037],[-75.096696,39.939771],[-75.095938,39.938704],[-75.095724,39.938705],[-75.09609,39.939774],[-75.097343,39.940289],[-75.096665,39.940238],[-75.096631,39.940403],[-75.099024,39.940802],[-75.098884,39.941132],[-75.099172,39.941488],[-75.098713,39.941984],[-75.099144,39.942311],[-75.098148,39.942591],[-75.097503,39.94232],[-75.097283,39.941635],[-75.097638,39.941413],[-75.097494,39.941222],[-75.096174,39.941256],[-75.095963,39.941586],[-75.095499,39.941506],[-75.0955,39.941671],[-75.095108,39.941701],[-75.094927,39.941372],[-75.095318,39.941151],[-75.095066,39.94096],[-75.094246,39.940936],[-75.09424,39.940332],[-75.093527,39.940364],[-75.093488,39.939979],[-75.092776,39.940065],[-75.092346,39.93982],[-75.092521,39.939518],[-75.093345,39.93987],[-75.093806,39.939538],[-75.095271,39.939943],[-75.095091,39.939752],[-75.094698,39.939644],[-75.094661,39.939507],[-75.094232,39.939372],[-75.094266,39.939207],[-75.093693,39.938935],[-75.093975,39.938494],[-75.094403,39.938492],[-75.094619,39.938738],[-75.095012,39.938846],[-75.095439,39.938706],[-75.095471,39.938295],[-75.094682,39.93775],[-75.095106,39.937363],[-75.09733,39.938834],[-75.098473,39.938993],[-75.098394,39.93806],[-75.098784,39.937866],[-75.098866,39.939046],[-75.100436,39.939202],[-75.100903,39.939584],[-75.101151,39.939308],[-75.101759,39.939552]],[[-75.094805,39.939643],[-75.094841,39.939616],[-75.094805,39.939616],[-75.094805,39.939643]],[[-75.094762,39.938792],[-75.094798,39.93882],[-75.094798,39.938792],[-75.094762,39.938792]],[[-75.101759,39.939552],[-75.101831,39.939607],[-75.10183,39.939552],[-75.101759,39.939552]]],[[[-75.096701,39.940292],[-75.096665,39.940293],[-75.096665,39.940265],[-75.096701,39.940265],[-75.096701,39.940292]]],[[[-75.096773,39.940319],[-75.096701,39.940292],[-75.096772,39.940292],[-75.096773,39.940319]]],[[[-75.104075,39.943329],[-75.103575,39.943222],[-75.103537,39.943002],[-75.102825,39.943116],[-75.102644,39.94287],[-75.10172,39.943231],[-75.101615,39.943506],[-75.101363,39.943233],[-75.101079,39.943372],[-75.10097,39.943125],[-75.100114,39.943157],[-75.100042,39.942993],[-75.10054,39.942853],[-75.100072,39.942416],[-75.099787,39.942473],[-75.099613,39.942968],[-75.09939,39.941898],[-75.099714,39.942281],[-75.100926,39.94222],[-75.100919,39.941314],[-75.101596,39.94131],[-75.101741,39.941584],[-75.10135,39.941696],[-75.101963,39.942434],[-75.102892,39.942676],[-75.103568,39.942481],[-75.103855,39.942671],[-75.104425,39.942613],[-75.104739,39.941843],[-75.105278,39.942252],[-75.104722,39.943902],[-75.104009,39.943961],[-75.104075,39.943329]]],[[[-75.101961,39.946277],[-75.102032,39.94625],[-75.102032,39.946277],[-75.101961,39.946277]]],[[[-75.101429,39.946665],[-75.101393,39.946637],[-75.101429,39.946637],[-75.101429,39.946665]]],[[[-75.101395,39.946802],[-75.10143,39.946829],[-75.101395,39.94683],[-75.101395,39.946802]]],[[[-75.101252,39.946858],[-75.101323,39.94683],[-75.101324,39.946857],[-75.101252,39.946858]]],[[[-75.101217,39.94694],[-75.101253,39.946968],[-75.101218,39.946968],[-75.101217,39.94694]]],[[[-75.091493,39.960882],[-75.092204,39.960631],[-75.092282,39.961427],[-75.091249,39.961624],[-75.091493,39.960882]]],[[[-75.089174,39.965094],[-75.090493,39.964923],[-75.090567,39.965252],[-75.090179,39.965803],[-75.089824,39.965942],[-75.089464,39.965587],[-75.089148,39.966137],[-75.088612,39.966113],[-75.088545,39.966552],[-75.087794,39.966391],[-75.087289,39.965762],[-75.087536,39.965377],[-75.088142,39.965346],[-75.088501,39.965592],[-75.088606,39.965344],[-75.089248,39.965341],[-75.089174,39.965094]],[[-75.089248,39.965341],[-75.089284,39.965368],[-75.089283,39.965341],[-75.089248,39.965341]]]]}}]}