{"type":"FeatureCollection","features":[{"type":"Feature","properties":{"level_ft":7},"geometry":{"type":"MultiPolygon","coordinates":[[[[-75.111716,39.900186],[-75.111247,39.899557],[-75.111351,39.899227],[-75.112102,39.899526],[-75.112715,39.900291],[-75.112253,39.900458],[-75.111716,39.900186]]],[[[-75.115588,39.902637],[-75.113112,39.900893],[-75.112397,39.900567],[-75.112822,39.90029],[-75.112853,39.899796],[-75.112421,39.899359],[-75.111599,39.899007],[-75.110888,39.899285],[-75.110528,39.898905],[-75.111838,39.898569],[-75.113166,39.899305],[-75.113874,39.901102],[-75.11643,39.902191],[-75.11655,39.902879],[-75.115588,39.902637]]],[[[-75.115267,39.902666],[-75.114017,39.902371],[-75.113728,39.90196],[-75.112726,39.901499],[-75.112004,39.900542],[-75.113114,39.90103],[-75.115267,39.902666]]],[[[-75.112728,39.901773],[-75.113156,39.901826],[-75.113158,39.901963],[-75.112728,39.901773]]],[[[-75.113515,39.902044],[-75.113623,39.90218],[-75.113265,39.902018],[-75.113515,39.902044]]],[[[-75.113017,39.902184],[-75.113697,39.902455],[-75.113733,39.902509],[-75.113054,39.902321],[-75.113017,39.902184]]],[[[-75.11302,39.902568],[-75.112735,39.902487],[-75.112734,39.902405],[-75.113019,39.902458],[-75.11302,39.902568]]],[[[-75.113126,39.902458],[-75.113662,39.90262],[-75.113699,39.902674],[-75.113092,39.902595],[-75.113126,39.902458]]],[[[-75.115267,39.902666],[-75.115339,39.902693],[-75.115267,39.902693],[-75.115267,39.902666]]],[[[-75.114558,39.903082],[-75.114056,39.902727],[-75.116513,39.903126],[-75.116378,39.903319],[-75.115665,39.903323],[-75.114558,39.903082]]],[[[-75.11339,39.903994],[-75.113107,39.904297],[-75.112384,39.90312],[-75.112452,39.902736],[-75.112807,39.902652],[-75.113523,39.902977],[-75.113497,39.904103],[-75.11339,39.903994]],[[-75.113497,39.904021],[-75.113461,39.903993],[-75.113461,39.904021],[-75.113497,39.904021]]],[[[-75.11402,39.906681],[-75.113914,39.906874],[-75.113841,39.906599],[-75.11402,39.906681]]],[[[-75.115397,39.913262],[-75.115699,39.9151],[-75.115234,39.914883],[-75.115196,39.914636],[-75.114879,39.915105],[-75.114167,39.915218],[-75.112666,39.914842],[-75.113015,39.913989],[-75.114223,39.913488],[-75.11415,39.913297],[-75.114824,39.912936],[-75.114751,39.912689],[-75.115035,39.912605],[-75.114781,39.912113],[-75.114993,39.911947],[-75.11564,39.912492],[-75.115397,39.913262]],[[-75.115432,39.913125],[-75.115396,39.91307],[-75.115396,39.913125],[-75.115432,39.913125]]],[[[-75.118247,39.916926],[-75.118282,39.916898],[-75.118283,39.916926],[-75.118247,39.916926]]],[[[-75.116987,39.919596],[-75.117023,39.919623],[-75.116988,39.919623],[-75.116987,39.919596]]],[[[-75.116988,39.919706],[-75.117024,39.91976],[-75.116989,39.919761],[-75.116988,39.919706]]],[[[-75.116957,39.920145],[-75.116992,39.92009],[-75.116992,39.920145],[-75.116957,39.920145]]],[[[-75.117028,39.920117],[-75.117064,39.920145],[-75.117028,39.920145],[-75.117028,39.920117]]],[[[-75.116957,39.920173],[-75.116993,39.9202],[-75.116957,39.9202],[-75.116957,39.920173]]],[[[-75.115696,39.926658],[-75.115731,39.926631],[-75.115731,39.926658],[-75.115696,39.926658]]],[[[-75.115662,39.926878],[-75.115733,39.92685],[-75.115662,39.926906],[-75.115662,39.926878]]],[[[-75.116126,39.926903],[-75.116163,39.92704],[-75.116127,39.92704],[-75.116126,39.926903]]],[[[-75.122104,39.941339],[-75.121387,39.940904],[-75.121884,39.940599],[-75.121842,39.939941],[-75.1222,39.940021],[-75.122946,39.939742],[-75.122766,39.939524],[-75.123299,39.939384],[-75.123294,39.938752],[-75.123896,39.938337],[-75.124431,39.938334],[-75.124107,39.938034],[-75.124784,39.937893],[-75.124746,39.937646],[-75.124281,39.937539],[-75.124526,39.936989],[-75.123954,39.936854],[-75.124199,39.936359],[-75.123343,39.936281],[-75.123341,39.936116],[-75.124124,39.935975],[-75.124014,39.935646],[-75.123873,39.935839],[-75.123161,39.93587],[-75.122873,39.935625],[-75.122553,39.935764],[-75.122374,39.935627],[-75.122407,39.935353],[-75.122907,39.93546],[-75.122869,39.93524],[-75.122477,39.935188],[-75.122436,39.934611],[-75.122652,39.934802],[-75.123006,39.934553],[-75.122471,39.934501],[-75.122396,39.934172],[-75.123678,39.933946],[-75.123712,39.933781],[-75.123532,39.933617],[-75.122284,39.933624],[-75.122282,39.933404],[-75.122924,39.933346],[-75.122886,39.933154],[-75.122527,39.932909],[-75.122137,39.933076],[-75.121885,39.932885],[-75.121987,39.932308],[-75.121595,39.932282],[-75.121593,39.93209],[-75.121949,39.932006],[-75.121698,39.931897],[-75.121795,39.930771],[-75.12104,39.930116],[-75.120077,39.930067],[-75.120218,39.929956],[-75.119822,39.929519],[-75.119363,39.930043],[-75.119288,39.929632],[-75.119002,39.929523],[-75.118861,39.929744],[-75.11875,39.92925],[-75.1185,39.929197],[-75.118604,39.928867],[-75.116645,39.929097],[-75.116505,39.929427],[-75.116864,39.929699],[-75.116438,39.929894],[-75.116185,39.929483],[-75.115367,39.929762],[-75.115826,39.929266],[-75.115507,39.92946],[-75.115292,39.929406],[-75.115466,39.928883],[-75.11582,39.928634],[-75.116142,39.928715],[-75.116245,39.92822],[-75.116467,39.921246],[-75.116816,39.920393],[-75.116926,39.920694],[-75.116886,39.9202],[-75.117033,39.920694],[-75.117781,39.920662],[-75.117493,39.920334],[-75.117778,39.920251],[-75.117597,39.919977],[-75.117774,39.919811],[-75.11731,39.919786],[-75.117164,39.91943],[-75.117805,39.919317],[-75.117653,39.918247],[-75.11804,39.917696],[-75.118035,39.917147],[-75.118712,39.917116],[-75.118066,39.91668],[-75.118459,39.916678],[-75.118348,39.916239],[-75.118666,39.915936],[-75.119093,39.915906],[-75.11906,39.916153],[-75.118562,39.91632],[-75.118852,39.916786],[-75.119744,39.916946],[-75.119883,39.916451],[-75.120202,39.916284],[-75.120049,39.915159],[-75.119622,39.915189],[-75.119543,39.914366],[-75.119114,39.914204],[-75.119539,39.913899],[-75.119429,39.91357],[-75.119712,39.913322],[-75.119638,39.91302],[-75.119281,39.912995],[-75.119384,39.912582],[-75.119669,39.912498],[-75.119665,39.912032],[-75.119168,39.912336],[-75.118666,39.91201],[-75.12009,39.911727],[-75.120413,39.911973],[-75.120981,39.91175],[-75.122728,39.911741],[-75.122369,39.911523],[-75.122326,39.910617],[-75.12179,39.910565],[-75.121865,39.910949],[-75.121368,39.911144],[-75.121082,39.911118],[-75.120791,39.910461],[-75.119257,39.910332],[-75.119434,39.910139],[-75.118401,39.910281],[-75.118174,39.912808],[-75.117818,39.912865],[-75.117636,39.912427],[-75.11717,39.912182],[-75.117031,39.912513],[-75.117531,39.912592],[-75.11696,39.912623],[-75.117353,39.912676],[-75.117391,39.91295],[-75.117214,39.913116],[-75.11707,39.912924],[-75.117145,39.913281],[-75.116752,39.913283],[-75.116142,39.912819],[-75.116386,39.912132],[-75.116056,39.911118],[-75.116414,39.91128],[-75.116982,39.911085],[-75.117095,39.911716],[-75.117382,39.911907],[-75.117052,39.910948],[-75.117435,39.909902],[-75.117357,39.909189],[-75.115922,39.908098],[-75.115317,39.908266],[-75.115063,39.907801],[-75.115311,39.907607],[-75.114631,39.907254],[-75.115619,39.910159],[-75.115294,39.909721],[-75.114905,39.910053],[-75.115013,39.910135],[-75.114946,39.910574],[-75.114698,39.910823],[-75.113937,39.909427],[-75.113151,39.909211],[-75.112652,39.909269],[-75.111875,39.910014],[-75.110983,39.910019],[-75.110731,39.909718],[-75.109632,39.91041],[-75.108415,39.909785],[-75.108417,39.910032],[-75.109565,39.910905],[-75.109571,39.911509],[-75.109932,39.912056],[-75.109901,39.912523],[-75.109366,39.912526],[-75.109616,39.912607],[-75.109511,39.912772],[-75.108691,39.912859],[-75.108515,39.913107],[-75.107803,39.913165],[-75.108334,39.912751],[-75.108084,39.912752],[-75.107327,39.911795],[-75.10301,39.911433],[-75.101382,39.912732],[-75.101491,39.912979],[-75.101069,39.91364],[-75.101214,39.913996],[-75.100406,39.914824],[-75.099865,39.913659],[-75.099497,39.913857],[-75.098463,39.913809],[-75.098089,39.914078],[-75.097455,39.913516],[-75.096364,39.913826],[-75.095357,39.912791],[-75.095499,39.912653],[-75.096,39.912952],[-75.09639,39.912703],[-75.096357,39.913032],[-75.097393,39.913192],[-75.097313,39.912259],[-75.096664,39.911356],[-75.097196,39.911051],[-75.097153,39.910173],[-75.097975,39.910416],[-75.098043,39.910031],[-75.097361,39.909486],[-75.097531,39.908551],[-75.098566,39.908683],[-75.099604,39.9092],[-75.100031,39.909088],[-75.099776,39.90854],[-75.099882,39.908347],[-75.100244,39.909032],[-75.100069,39.909417],[-75.100461,39.909332],[-75.100565,39.90903],[-75.101172,39.909109],[-75.101596,39.908723],[-75.102061,39.908885],[-75.103485,39.90863],[-75.104484,39.908763],[-75.105417,39.909499],[-75.106311,39.909714],[-75.107164,39.909407],[-75.108056,39.909567],[-75.1079,39.908086],[-75.108295,39.908303],[-75.108506,39.908],[-75.108247,39.906986],[-75.108425,39.90693],[-75.108681,39.90767],[-75.109069,39.907229],[-75.109179,39.907585],[-75.109428,39.907501],[-75.109743,39.906841],[-75.110841,39.906039],[-75.111225,39.905103],[-75.112254,39.904604],[-75.111071,39.903841],[-75.111785,39.903975],[-75.111713,39.903865],[-75.111319,39.903675],[-75.111284,39.903675],[-75.111284,39.903703],[-75.111248,39.903703],[-75.111177,39.903676],[-75.111312,39.902906],[-75.111021,39.902222],[-75.111879,39.902437],[-75.111921,39.903205],[-75.113472,39.905201],[-75.113656,39.905941],[-75.112357,39.904109],[-75.113627,39.906655],[-75.114542,39.909286],[-75.11471,39.908187],[-75.113534,39.904158],[-75.113774,39.903141],[-75.116437,39.903456],[-75.11488,39.9054],[-75.114715,39.906125],[-75.117488,39.90849],[-75.119918,39.908517],[-75.120099,39.908762],[-75.120132,39.908514],[-75.121403,39.907762],[-75.122836,39.907428],[-75.129344,39.907381],[-75.129091,39.911608],[-75.12984,39.915359],[-75.135874,39.927639],[-75.136621,39.93037],[-75.136805,39.937021],[-75.136556,39.941533],[-75.135631,39.947459],[-75.134194,39.952774],[-75.125012,39.951234],[-75.12376,39.950829],[-75.123758,39.950665],[-75.124615,39.95066],[-75.124682,39.950275],[-75.125181,39.950163],[-75.124214,39.949756],[-75.125285,39.949833],[-75.125314,39.949174],[-75.125528,39.94909],[-75.12474,39.948793],[-75.125596,39.94876],[-75.12584,39.948128],[-75.125373,39.947746],[-75.126013,39.947523],[-75.125118,39.947171],[-75.125291,39.946621],[-75.124754,39.946404],[-75.125038,39.946265],[-75.125646,39.946399],[-75.126106,39.945985],[-75.127102,39.94576],[-75.127099,39.945376],[-75.12624,39.945051],[-75.126487,39.944775],[-75.125734,39.944285],[-75.126624,39.944143],[-75.128802,39.944378],[-75.129172,39.941988],[-75.128457,39.941772],[-75.128885,39.941769],[-75.128847,39.941495],[-75.129061,39.941466],[-75.12888,39.94122],[-75.129273,39.941273],[-75.129591,39.940997],[-75.131342,39.941289],[-75.13187,39.940573],[-75.131828,39.939941],[-75.130969,39.939562],[-75.128399,39.939329],[-75.128186,39.939467],[-75.1283,39.940208],[-75.127979,39.940182],[-75.127833,39.939853],[-75.127585,39.939992],[-75.127368,39.939691],[-75.126976,39.939776],[-75.126595,39.941013],[-75.126708,39.941589],[-75.12739,39.942107],[-75.127256,39.943096],[-75.126045,39.943212],[-75.125944,39.943927],[-75.125656,39.943626],[-75.124051,39.943553],[-75.123763,39.943362],[-75.123759,39.942868],[-75.122833,39.943065],[-75.122724,39.942846],[-75.122224,39.942766],[-75.122264,39.94315],[-75.121978,39.943179],[-75.121439,39.942688],[-75.121723,39.942494],[-75.121365,39.942359],[-75.121757,39.94233],[-75.121826,39.94211],[-75.122006,39.942301],[-75.122861,39.942214],[-75.122109,39.941806],[-75.121932,39.941944],[-75.121963,39.94145],[-75.122321,39.941585],[-75.122603,39.941199],[-75.122316,39.941119],[-75.122104,39.941339]],[[-75.115862,39.929293],[-75.115897,39.929265],[-75.115862,39.929266],[-75.115862,39.929293]],[[-75.115897,39.929265],[-75.115933,39.929238],[-75.115897,39.929238],[-75.115897,39.929265]],[[-75.116364,39.925666],[-75.116399,39.925584],[-75.116364,39.925584],[-75.116364,39.925666]],[[-75.114977,39.910135],[-75.114942,39.910163],[-75.114978,39.910162],[-75.114977,39.910135]],[[-75.108334,39.912751],[-75.108441,39.912723],[-75.108334,39.912723],[-75.108334,39.912751]],[[-75.108441,39.912723],[-75.108512,39.912695],[-75.10844,39.912695],[-75.108441,39.912723]],[[-75.111928,39.903974],[-75.111857,39.904002],[-75.112,39.904056],[-75.111928,39.903974]],[[-75.112,39.904056],[-75.112107,39.90411],[-75.112142,39.904055],[-75.112,39.904056]],[[-75.122603,39.941199],[-75.122638,39.941172],[-75.122602,39.941172],[-75.122603,39.941199]]],[[[-75.1158,39.926411],[-75.111028,39.931076],[-75.110576,39.932368],[-75.110698,39.934042],[-75.110233,39.933962],[-75.10987,39.933141],[-75.109335,39.933226],[-75.109082,39.932788],[-75.108689,39.932708],[-75.108683,39.931994],[-75.108006,39.932107],[-75.108004,39.931833],[-75.107574,39.931643],[-75.109317,39.931194],[-75.109565,39.931001],[-75.109314,39.930783],[-75.10999,39.930614],[-75.110056,39.93001],[-75.110768,39.929896],[-75.111121,39.92951],[-75.110727,39.92932],[-75.110869,39.92921],[-75.110436,39.92869],[-75.11079,39.928414],[-75.110752,39.928085],[-75.110431,39.928059],[-75.110785,39.92781],[-75.110567,39.927372],[-75.110815,39.927123],[-75.110627,39.926109],[-75.110976,39.925256],[-75.111653,39.92517],[-75.111936,39.924894],[-75.111578,39.924731],[-75.112253,39.924425],[-75.112245,39.923574],[-75.111815,39.923329],[-75.112207,39.9233],[-75.11231,39.92286],[-75.112526,39.923106],[-75.112989,39.923049],[-75.112914,39.92261],[-75.113344,39.922855],[-75.113663,39.922633],[-75.113843,39.922825],[-75.11391,39.922358],[-75.114125,39.922521],[-75.115409,39.922514],[-75.115339,39.922707],[-75.114128,39.922768],[-75.114201,39.923042],[-75.115414,39.923091],[-75.115696,39.922732],[-75.115518,39.922788],[-75.115443,39.922322],[-75.114943,39.922215],[-75.115442,39.922185],[-75.115046,39.921857],[-75.115509,39.921773],[-75.115396,39.921087],[-75.115716,39.920975],[-75.11604,39.921358],[-75.115826,39.921359],[-75.115953,39.923555],[-75.115642,39.924654],[-75.1158,39.926411]]],[[[-75.111367,39.933133],[-75.110796,39.933026],[-75.110899,39.932586],[-75.11086,39.932202],[-75.111489,39.930826],[-75.113965,39.928479],[-75.114394,39.928587],[-75.114533,39.928284],[-75.114819,39.92831],[-75.114862,39.929134],[-75.113199,39.93057],[-75.111754,39.932554],[-75.111185,39.932667],[-75.111367,39.933133]],[[-75.111295,39.932996],[-75.111259,39.933024],[-75.111295,39.933023],[-75.111295,39.932996]]],[[[-75.112958,39.931505],[-75.113488,39.931035],[-75.11434,39.930591],[-75.113636,39.931638],[-75.113171,39.931476],[-75.113281,39.93175],[-75.112855,39.931972],[-75.112958,39.931505]]],[[[-75.115127,39.942777],[-75.115163,39.942804],[-75.115127,39.942804],[-75.115127,39.942777]]],[[[-75.115342,39.942885],[-75.116376,39.942825],[-75.116449,39.943017],[-75.114595,39.943136],[-75.11477,39.942779],[-75.115342,39.942885]]],[[[-75.113903,39.945529],[-75.114298,39.945828],[-75.114441,39.945883],[-75.113977,39.945858],[-75.113903,39.945529]]],[[[-75.113157,39.945889],[-75.114018,39.946406],[-75.11191,39.946006],[-75.11223,39.945922],[-75.112085,39.945703],[-75.112263,39.945647],[-75.111978,39.945594],[-75.113369,39.945586],[-75.112831,39.945315],[-75.112865,39.945122],[-75.113688,39.945447],[-75.113763,39.945776],[-75.113157,39.945889]],[[-75.11223,39.945894],[-75.112337,39.945866],[-75.11223,39.945867],[-75.11223,39.945894]]],[[[-75.114546,39.945635],[-75.114975,39.945715],[-75.114977,39.945935],[-75.114834,39.945935],[-75.114546,39.945635]]],[[[-75.113765,39.946078],[-75.113659,39.946106],[-75.113658,39.946079],[-75.113765,39.946078]]],[[[-75.113801,39.946106],[-75.113766,39.946133],[-75.113766,39.946106],[-75.113801,39.946106]]],[[[-75.114231,39.94635],[-75.114518,39.946459],[-75.114662,39.946595],[-75.114231,39.94635]]],[[[-75.099696,39.899343],[-75.099732,39.899398],[-75.099697,39.899398],[-75.099696,39.899343]]],[[[-75.111324,39.900216],[-75.110427,39.899589],[-75.110066,39.899078],[-75.110386,39.898985],[-75.111324,39.900216]]],[[[-75.111901,39.900954],[-75.111183,39.900354],[-75.111575,39.900407],[-75.111901,39.900954]]],[[[-75.109655,39.900939],[-75.109617,39.900609],[-75.110221,39.900414],[-75.110584,39.901181],[-75.109655,39.900939]]],[[[-75.107625,39.901086],[-75.107661,39.901114],[-75.107625,39.901114],[-75.107625,39.901086]]],[[[-75.107696,39.901114],[-75.107661,39.901141],[-75.107661,39.901114],[-75.107696,39.901114]]],[[[-75.112875,39.902212],[-75.110051,39.901376],[-75.11005,39.901293],[-75.110727,39.901262],[-75.110979,39.901536],[-75.11076,39.90096],[-75.110866,39.900822],[-75.111406,39.901451],[-75.11248,39.901885],[-75.112875,39.902212]]],[[[-75.111378,39.902247],[-75.111342,39.902275],[-75.111342,39.902247],[-75.111378,39.902247]]],[[[-75.111446,39.901863],[-75.112769,39.902322],[-75.110876,39.901948],[-75.109526,39.902394],[-75.110629,39.902251],[-75.111135,39.903017],[-75.110924,39.903375],[-75.110568,39.90335],[-75.110713,39.903678],[-75.110106,39.903572],[-75.110175,39.903242],[-75.109569,39.903245],[-75.109852,39.903079],[-75.109599,39.902668],[-75.109532,39.903136],[-75.109315,39.902752],[-75.10864,39.902975],[-75.109144,39.903577],[-75.108502,39.903498],[-75.108499,39.903223],[-75.108465,39.903388],[-75.107717,39.903474],[-75.108177,39.903115],[-75.107644,39.903255],[-75.107607,39.903118],[-75.107361,39.903559],[-75.107147,39.90345],[-75.106436,39.903701],[-75.106757,39.903727],[-75.106403,39.903976],[-75.106511,39.904195],[-75.105903,39.903896],[-75.105943,39.90439],[-75.105054,39.904641],[-75.1047,39.904918],[-75.104738,39.905192],[-75.104346,39.905194],[-75.103879,39.904757],[-75.103563,39.905363],[-75.103524,39.904979],[-75.103383,39.905144],[-75.102669,39.905011],[-75.103135,39.905365],[-75.102635,39.905258],[-75.102318,39.905617],[-75.102534,39.90589],[-75.102854,39.905779],[-75.103033,39.905887],[-75.102606,39.906027],[-75.102716,39.906328],[-75.102393,39.90611],[-75.101469,39.906417],[-75.10158,39.906856],[-75.101366,39.906857],[-75.101292,39.906528],[-75.100722,39.906641],[-75.101111,39.906282],[-75.100471,39.906395],[-75.100434,39.90623],[-75.101004,39.906172],[-75.10082,39.905624],[-75.101395,39.906061],[-75.101325,39.906253],[-75.102321,39.905973],[-75.102103,39.905508],[-75.102421,39.905204],[-75.101496,39.905374],[-75.101281,39.905238],[-75.100641,39.905488],[-75.100391,39.905462],[-75.100423,39.905022],[-75.100069,39.905244],[-75.100174,39.905024],[-75.099211,39.905029],[-75.099036,39.905441],[-75.098926,39.90503],[-75.098248,39.904951],[-75.098924,39.904838],[-75.098988,39.904014],[-75.100346,39.904336],[-75.099879,39.903982],[-75.10045,39.903979],[-75.100447,39.90365],[-75.100235,39.90387],[-75.100161,39.903541],[-75.100093,39.903953],[-75.0997,39.903873],[-75.099805,39.903598],[-75.09952,39.903709],[-75.099268,39.903381],[-75.098948,39.90352],[-75.099053,39.903272],[-75.098266,39.902975],[-75.09905,39.902888],[-75.099225,39.902503],[-75.099012,39.902586],[-75.098974,39.902339],[-75.098762,39.902533],[-75.098795,39.902313],[-75.09833,39.902041],[-75.098506,39.901848],[-75.098149,39.901767],[-75.101675,39.901392],[-75.099032,39.900802],[-75.099909,39.899232],[-75.101015,39.898908],[-75.102116,39.899107],[-75.102917,39.899882],[-75.104793,39.900527],[-75.107941,39.900238],[-75.10964,39.899265],[-75.110075,39.900085],[-75.109363,39.900116],[-75.106485,39.901202],[-75.107553,39.901059],[-75.107661,39.901169],[-75.108196,39.901248],[-75.108412,39.901439],[-75.109232,39.901462],[-75.111446,39.901863]],[[-75.107678,39.903118],[-75.107714,39.90309],[-75.107678,39.90309],[-75.107678,39.903118]],[[-75.101387,39.905237],[-75.101459,39.905209],[-75.101387,39.90521],[-75.101387,39.905237]],[[-75.110946,39.901783],[-75.110911,39.90181],[-75.110946,39.90181],[-75.110946,39.901783]]],[[[-75.11114,39.903539],[-75.111176,39.903566],[-75.11114,39.903566],[-75.11114,39.903539]]],[[[-75.111141,39.903704],[-75.111177,39.903676],[-75.111177,39.903703],[-75.111141,39.903704]]],[[[-75.11132,39.90373],[-75.111284,39.903703],[-75.111319,39.903703],[-75.11132,39.90373]]],[[[-75.110825,39.932312],[-75.11086,39.932284],[-75.110861,39.932312],[-75.110825,39.932312]]],[[[-75.10552,39.933273],[-75.105056,39.933248],[-75.10516,39.932891],[-75.10473,39.932701],[-75.105334,39.932451],[-75.10619,39.932446],[-75.106259,39.932116],[-75.106546,39.932389],[-75.106832,39.932388],[-75.106865,39.932141],[-75.107435,39.93211],[-75.108009,39.932437],[-75.108013,39.932958],[-75.108369,39.932792],[-75.108763,39.933009],[-75.108445,39.933368],[-75.10798,39.933233],[-75.107984,39.933617],[-75.107731,39.933262],[-75.106734,39.933404],[-75.107347,39.93417],[-75.106631,39.933954],[-75.107063,39.934309],[-75.106599,39.934284],[-75.106886,39.934474],[-75.106674,39.934695],[-75.105993,39.934342],[-75.105852,39.934562],[-75.105635,39.934206],[-75.105138,39.934428],[-75.1051,39.934236],[-75.104887,39.93432],[-75.105168,39.933852],[-75.10488,39.933551],[-75.10552,39.933273]],[[-75.1051,39.934236],[-75.105136,39.934209],[-75.1051,39.934209],[-75.1051,39.934236]],[[-75.105136,39.934209],[-75.105171,39.934181],[-75.105136,39.934181],[-75.105136,39.934209]],[[-75.10552,39.933273],[-75.105556,39.933301],[-75.105556,39.933273],[-75.10552,39.933273]]],[[[-75.106101,39.942495],[-75.106065,39.942522],[-75.106065,39.942495],[-75.106101,39.942495]]],[[[-75.106173,39.942632],[-75.106167,39.941945],[-75.10684,39.941448],[-75.107445,39.941307],[-75.107549,39.940977],[-75.108013,39.941002],[-75.107872,39.941168],[-75.108124,39.941386],[-75.108695,39.941493],[-75.10889,39.943386],[-75.108503,39.943937],[-75.10765,39.944326],[-75.106118,39.944526],[-75.105296,39.944283],[-75.105864,39.944006],[-75.10561,39.943486],[-75.106106,39.943126],[-75.105747,39.942826],[-75.106173,39.942632]],[[-75.106139,39.942769],[-75.106175,39.942796],[-75.106174,39.942769],[-75.106139,39.942769]]],[[[-75.105506,39.943816],[-75.10547,39.943788],[-75.105506,39.943788],[-75.105506,39.943816]]],[[[-75.10547,39.943843],[-75.105435,39.943816],[-75.10547,39.943816],[-75.10547,39.943843]]],[[[-75.1054,39.943899],[-75.105364,39.943871],[-75.105399,39.943871],[-75.1054,39.943899]]],[[[-75.105364,39.943926],[-75.105328,39.943899],[-75.105364,39.943899],[-75.105364,39.943926]]],[[[-75.107659,39.945287],[-75.107335,39.944904],[-75.106979,39.944988],[-75.106904,39.944605],[-75.107865,39.944407],[-75.10937,39.945196],[-75.108014,39.945065],[-75.10823,39.945366],[-75.107659,39.945287]]],[[[-75.104339,39.94503],[-75.104375,39.945002],[-75.104375,39.94503],[-75.104339,39.94503]]],[[[-75.104161,39.945031],[-75.104268,39.945058],[-75.104161,39.945058],[-75.104161,39.945031]]],[[[-75.103129,39.945256],[-75.1032,39.945228],[-75.1032,39.945255],[-75.103129,39.945256]]],[[[-75.1032,39.945283],[-75.103129,39.945311],[-75.103129,39.945283],[-75.1032,39.945283]]],[[[-75.103415,39.945364],[-75.10345,39.945336],[-75.103451,39.945364],[-75.103415,39.945364]]],[[[-75.100033,39.946095],[-75.100175,39.946067],[-75.100176,39.946095],[-75.100033,39.946095]]],[[[-75.099926,39.946123],[-75.100033,39.946095],[-75.100033,39.946123],[-75.099926,39.946123]]],[[[-75.099891,39.946124],[-75.099641,39.94618],[-75.099641,39.946152],[-75.099891,39.946124]]],[[[-75.099608,39.9464],[-75.099572,39.946372],[-75.099607,39.946372],[-75.099608,39.9464]]],[[[-75.099465,39.946428],[-75.099501,39.946455],[-75.099465,39.946455],[-75.099465,39.946428]]],[[[-75.098894,39.946431],[-75.098859,39.946458],[-75.098859,39.946431],[-75.098894,39.946431]]],[[[-75.099394,39.946456],[-75.099466,39.946483],[-75.099394,39.946483],[-75.099394,39.946456]]],[[[-75.122773,39.956106],[-75.122167,39.956109],[-75.122134,39.956466],[-75.12292,39.956517],[-75.123557,39.955964],[-75.12335,39.956789],[-75.123925,39.957198],[-75.124456,39.956783],[-75.124778,39.956836],[-75.124858,39.957769],[-75.124883,39.956589],[-75.124525,39.956508],[-75.124665,39.956233],[-75.123736,39.956018],[-75.12427,39.955933],[-75.124195,39.955467],[-75.124692,39.955299],[-75.124011,39.954864],[-75.124545,39.954778],[-75.124796,39.954942],[-75.124828,39.954557],[-75.124542,39.954449],[-75.12479,39.95431],[-75.124324,39.954011],[-75.124076,39.954177],[-75.123715,39.953712],[-75.125036,39.953815],[-75.125431,39.954087],[-75.125506,39.954581],[-75.125783,39.953646],[-75.124602,39.953186],[-75.124282,39.953297],[-75.123743,39.952916],[-75.124277,39.952748],[-75.123773,39.952312],[-75.124342,39.952089],[-75.123626,39.951736],[-75.124411,39.951759],[-75.124516,39.951594],[-75.123835,39.951268],[-75.134089,39.953025],[-75.132573,39.956557],[-75.130162,39.959455],[-75.125749,39.962444],[-75.122172,39.964298],[-75.119748,39.96171],[-75.118447,39.960723],[-75.115839,39.959328],[-75.110143,39.958016],[-75.108033,39.958011],[-75.106227,39.958401],[-75.104126,39.95944],[-75.096972,39.964978],[-75.093629,39.966868],[-75.088069,39.969382],[-75.085495,39.966102],[-75.084964,39.96506],[-75.085959,39.964616],[-75.086708,39.964612],[-75.087711,39.965074],[-75.088602,39.96496],[-75.089667,39.96424],[-75.089482,39.963528],[-75.089724,39.962675],[-75.089439,39.962732],[-75.089331,39.96254],[-75.089472,39.96232],[-75.089757,39.962373],[-75.08943,39.961579],[-75.08975,39.961522],[-75.08957,39.961276],[-75.089855,39.961247],[-75.089603,39.960946],[-75.089778,39.960643],[-75.08935,39.960563],[-75.089418,39.960261],[-75.088594,39.959798],[-75.088334,39.958619],[-75.088655,39.958618],[-75.088793,39.958095],[-75.08829,39.957604],[-75.087789,39.957496],[-75.087352,39.956483],[-75.086741,39.955854],[-75.086204,39.955692],[-75.086094,39.955391],[-75.087229,39.954617],[-75.087516,39.954752],[-75.087663,39.955301],[-75.088985,39.955514],[-75.089813,39.956361],[-75.090383,39.956303],[-75.090567,39.956933],[-75.091069,39.957233],[-75.091709,39.95701],[-75.091998,39.957365],[-75.091751,39.957778],[-75.092038,39.957887],[-75.091541,39.958164],[-75.092183,39.958133],[-75.091829,39.958547],[-75.092257,39.958462],[-75.091974,39.958765],[-75.092368,39.958956],[-75.092269,39.95989],[-75.092627,39.95997],[-75.092487,39.960273],[-75.092919,39.96082],[-75.092745,39.961287],[-75.093179,39.961916],[-75.09411,39.962323],[-75.095002,39.962346],[-75.095784,39.962068],[-75.096703,39.96102],[-75.096941,39.959646],[-75.097761,39.959614],[-75.09787,39.959806],[-75.098652,39.959555],[-75.099153,39.959689],[-75.099401,39.959551],[-75.099115,39.959415],[-75.09929,39.959057],[-75.099471,39.959386],[-75.099613,39.95922],[-75.100077,39.959328],[-75.09918,39.958701],[-75.099571,39.958589],[-75.099498,39.958315],[-75.100105,39.958367],[-75.100315,39.957981],[-75.099711,39.958286],[-75.099138,39.957932],[-75.098429,39.958458],[-75.097679,39.958379],[-75.096933,39.958822],[-75.096894,39.958438],[-75.096535,39.958166],[-75.096889,39.957834],[-75.096493,39.957397],[-75.097131,39.956982],[-75.097165,39.95679],[-75.096669,39.957149],[-75.097552,39.956101],[-75.09737,39.955745],[-75.098081,39.955467],[-75.098041,39.954946],[-75.098719,39.954997],[-75.099074,39.954721],[-75.098969,39.954996],[-75.099326,39.955021],[-75.099677,39.954361],[-75.100357,39.954577],[-75.100065,39.953892],[-75.099639,39.954114],[-75.099741,39.953537],[-75.100097,39.95348],[-75.099633,39.9534],[-75.099558,39.952989],[-75.100058,39.953041],[-75.099734,39.952713],[-75.100091,39.952684],[-75.099733,39.952603],[-75.099981,39.952437],[-75.099836,39.952136],[-75.099371,39.952001],[-75.09962,39.95189],[-75.099476,39.951699],[-75.099829,39.95134],[-75.09979,39.950956],[-75.100252,39.950706],[-75.100176,39.950213],[-75.100532,39.950128],[-75.101141,39.950482],[-75.101635,39.949793],[-75.100809,39.949194],[-75.100313,39.949553],[-75.100342,39.948839],[-75.100735,39.948837],[-75.100519,39.948673],[-75.10066,39.948508],[-75.100053,39.948374],[-75.099872,39.948045],[-75.099623,39.948211],[-75.098837,39.948023],[-75.09844,39.947504],[-75.097942,39.947671],[-75.097905,39.947452],[-75.097512,39.947371],[-75.100001,39.946507],[-75.098079,39.947011],[-75.099004,39.946705],[-75.098541,39.946789],[-75.097545,39.947151],[-75.097475,39.947234],[-75.097368,39.947262],[-75.097225,39.947181],[-75.097828,39.946875],[-75.097687,39.947013],[-75.099644,39.946454],[-75.099608,39.9464],[-75.09975,39.946316],[-75.098611,39.946624],[-75.099002,39.946485],[-75.098965,39.946375],[-75.100959,39.945981],[-75.10103,39.945898],[-75.100175,39.945985],[-75.097683,39.946602],[-75.098536,39.946268],[-75.098144,39.946297],[-75.096473,39.946882],[-75.098073,39.94627],[-75.098603,39.945691],[-75.098138,39.945556],[-75.098026,39.945008],[-75.097741,39.945009],[-75.097703,39.944817],[-75.098095,39.944733],[-75.098092,39.944376],[-75.097092,39.944271],[-75.097447,39.944077],[-75.097229,39.943612],[-75.096553,39.943752],[-75.096081,39.942794],[-75.095977,39.943179],[-75.095727,39.94318],[-75.095652,39.942659],[-75.095296,39.94277],[-75.095877,39.94392],[-75.095556,39.943977],[-75.095589,39.943702],[-75.095196,39.94354],[-75.094662,39.943735],[-75.094239,39.944258],[-75.093416,39.943961],[-75.093096,39.944072],[-75.093022,39.94377],[-75.092234,39.94339],[-75.091843,39.943557],[-75.091948,39.943282],[-75.091482,39.943037],[-75.091162,39.943148],[-75.090945,39.94282],[-75.090235,39.943263],[-75.090623,39.942684],[-75.089906,39.942249],[-75.089193,39.94228],[-75.089262,39.942033],[-75.088977,39.942089],[-75.089011,39.941924],[-75.088762,39.94198],[-75.088223,39.941544],[-75.088434,39.941186],[-75.087255,39.940917],[-75.087289,39.94067],[-75.086643,39.940289],[-75.085859,39.940293],[-75.085638,39.93947],[-75.086101,39.93944],[-75.085562,39.93897],[-75.089268,39.935738],[-75.089851,39.936182],[-75.090135,39.936064],[-75.090057,39.935156],[-75.089724,39.934693],[-75.088839,39.934353],[-75.087064,39.93482],[-75.08639,39.934661],[-75.086413,39.933372],[-75.086619,39.933288],[-75.086399,39.933234],[-75.085962,39.932029],[-75.086251,39.931972],[-75.085931,39.931946],[-75.085922,39.931765],[-75.087362,39.929346],[-75.087435,39.927986],[-75.087105,39.927059],[-75.086365,39.926725],[-75.084246,39.92678],[-75.084347,39.926134],[-75.084131,39.925861],[-75.083853,39.926739],[-75.08138,39.925993],[-75.084796,39.924336],[-75.084693,39.924842],[-75.08658,39.924503],[-75.086511,39.924833],[-75.08687,39.925106],[-75.08744,39.92502],[-75.088442,39.925455],[-75.089762,39.925503],[-75.090193,39.925885],[-75.091544,39.925384],[-75.093052,39.926612],[-75.094373,39.926742],[-75.094269,39.9271],[-75.093486,39.927268],[-75.093668,39.927707],[-75.092883,39.927656],[-75.092486,39.927136],[-75.091881,39.927222],[-75.091093,39.926841],[-75.090206,39.927367],[-75.089704,39.927041],[-75.088965,39.92817],[-75.089901,39.929291],[-75.089872,39.930032],[-75.088883,39.93108],[-75.089244,39.931683],[-75.089531,39.931818],[-75.089993,39.931651],[-75.091251,39.932853],[-75.092466,39.933094],[-75.09344,39.934407],[-75.094477,39.934731],[-75.094911,39.935442],[-75.094921,39.936595],[-75.095491,39.936482],[-75.095388,39.936895],[-75.094538,39.937613],[-75.092433,39.937514],[-75.093401,39.938113],[-75.092731,39.938967],[-75.092981,39.939049],[-75.094009,39.938302],[-75.094509,39.938437],[-75.094504,39.937833],[-75.09507,39.937336],[-75.095966,39.937798],[-75.096357,39.937604],[-75.096964,39.937765],[-75.09711,39.938094],[-75.098104,39.937595],[-75.099495,39.93756],[-75.099783,39.93786],[-75.101104,39.938018],[-75.101214,39.938375],[-75.101819,39.938234],[-75.102002,39.938728],[-75.102429,39.938643],[-75.102541,39.939191],[-75.102933,39.939244],[-75.10471,39.938494],[-75.104742,39.938054],[-75.105173,39.938436],[-75.106951,39.937796],[-75.107062,39.938234],[-75.106347,39.938073],[-75.106384,39.938265],[-75.107173,39.938701],[-75.107104,39.939003],[-75.107818,39.939027],[-75.107963,39.9393],[-75.107322,39.939496],[-75.107401,39.940319],[-75.106938,39.940431],[-75.107265,39.941061],[-75.106445,39.941065],[-75.105597,39.941976],[-75.104808,39.941541],[-75.105019,39.941155],[-75.104514,39.940526],[-75.104482,39.940911],[-75.103663,39.941162],[-75.103736,39.941272],[-75.103629,39.941272],[-75.104099,39.941984],[-75.104598,39.942036],[-75.104668,39.941816],[-75.105278,39.942197],[-75.104862,39.943572],[-75.10547,39.943788],[-75.105328,39.943817],[-75.105293,39.943954],[-75.104152,39.94396],[-75.104723,39.944039],[-75.104693,39.944616],[-75.104906,39.944533],[-75.104795,39.944121],[-75.105044,39.944065],[-75.105229,39.944751],[-75.103412,39.945035],[-75.102488,39.945396],[-75.102986,39.945284],[-75.103129,39.945338],[-75.102489,39.945479],[-75.101636,39.945895],[-75.103771,39.945307],[-75.103912,39.945059],[-75.104305,39.945112],[-75.106797,39.94466],[-75.106728,39.944853],[-75.105588,39.945078],[-75.105376,39.945326],[-75.104805,39.945192],[-75.104663,39.94533],[-75.10527,39.945409],[-75.106052,39.945103],[-75.107194,39.945125],[-75.10863,39.946243],[-75.108851,39.94701],[-75.110185,39.948623],[-75.110369,39.949199],[-75.110709,39.951366],[-75.110033,39.951534],[-75.110817,39.95142],[-75.111725,39.953282],[-75.111087,39.953752],[-75.110984,39.954219],[-75.112175,39.95575],[-75.111969,39.956685],[-75.112599,39.955281],[-75.113061,39.955087],[-75.113564,39.955441],[-75.113531,39.955743],[-75.114315,39.955657],[-75.114112,39.956893],[-75.114506,39.957083],[-75.115643,39.956611],[-75.116036,39.956663],[-75.115967,39.956911],[-75.116217,39.95691],[-75.116035,39.956499],[-75.11703,39.956082],[-75.117752,39.957066],[-75.118539,39.957309],[-75.118821,39.956978],[-75.120103,39.956642],[-75.120207,39.956367],[-75.119956,39.956231],[-75.120349,39.956229],[-75.120418,39.956036],[-75.12013,39.955763],[-75.120487,39.955789],[-75.120662,39.955376],[-75.120912,39.955375],[-75.120807,39.955622],[-75.121379,39.955729],[-75.121556,39.955646],[-75.120984,39.955511],[-75.121089,39.955291],[-75.122019,39.955478],[-75.121265,39.954988],[-75.120766,39.955073],[-75.12087,39.954743],[-75.122442,39.955009],[-75.122447,39.955504],[-75.122805,39.955666],[-75.122486,39.95586],[-75.122807,39.955886],[-75.122773,39.956106]],[[-75.096671,39.957341],[-75.096707,39.957368],[-75.096706,39.957341],[-75.096671,39.957341]],[[-75.096707,39.957368],[-75.096743,39.957396],[-75.096742,39.957368],[-75.096707,39.957368]],[[-75.097131,39.956982],[-75.097239,39.957036],[-75.097274,39.956954],[-75.097131,39.956982]],[[-75.097165,39.95679],[-75.097201,39.956762],[-75.097165,39.956762],[-75.097165,39.95679]],[[-75.100091,39.952766],[-75.100163,39.952793],[-75.100163,39.952766],[-75.100091,39.952766]],[[-75.097905,39.947452],[-75.097976,39.947424],[-75.097904,39.947424],[-75.097905,39.947452]],[[-75.097976,39.947424],[-75.098047,39.947396],[-75.097976,39.947396],[-75.097976,39.947424]],[[-75.098047,39.947396],[-75.098118,39.947368],[-75.098047,39.947368],[-75.098047,39.947396]],[[-75.098118,39.947368],[-75.098189,39.94734],[-75.098118,39.947341],[-75.098118,39.947368]],[[-75.098189,39.947313],[-75.098545,39.947229],[-75.09858,39.947174],[-75.098189,39.947313]],[[-75.09858,39.947174],[-75.098615,39.947146],[-75.09858,39.947146],[-75.09858,39.947174]],[[-75.099859,39.946618],[-75.099824,39.946673],[-75.099931,39.946617],[-75.099859,39.946618]],[[-75.099824,39.946673],[-75.099753,39.946701],[-75.099824,39.9467],[-75.099824,39.946673]],[[-75.099753,39.946701],[-75.099682,39.946729],[-75.099753,39.946728],[-75.099753,39.946701]],[[-75.099966,39.94659],[-75.100002,39.946617],[-75.100002,39.94659],[-75.099966,39.94659]],[[-75.100002,39.94659],[-75.100073,39.946562],[-75.100001,39.946562],[-75.100002,39.94659]],[[-75.100073,39.946562],[-75.100108,39.946534],[-75.100072,39.946534],[-75.100073,39.946562]],[[-75.097687,39.947013],[-75.097651,39.947041],[-75.097687,39.947041],[-75.097687,39.947013]],[[-75.099679,39.946399],[-75.099715,39.946426],[-75.099715,39.946399],[-75.099679,39.946399]],[[-75.084621,39.924815],[-75.084586,39.924843],[-75.084622,39.924842],[-75.084621,39.924815]],[[-75.103806,39.941107],[-75.10377,39.941079],[-75.10377,39.941107],[-75.103806,39.941107]],[[-75.1037,39.941217],[-75.103664,39.941245],[-75.1037,39.941244],[-75.1037,39.941217]],[[-75.101637,39.945922],[-75.101352,39.945979],[-75.101316,39.946034],[-75.101637,39.945922]],[[-75.101316,39.946034],[-75.101245,39.946062],[-75.101317,39.946061],[-75.101316,39.946034]],[[-75.101245,39.946062],[-75.101174,39.946089],[-75.101246,39.946089],[-75.101245,39.946062]],[[-75.101174,39.946089],[-75.101139,39.946117],[-75.101175,39.946117],[-75.101174,39.946089]],[[-75.101139,39.946117],[-75.100997,39.946173],[-75.101139,39.946144],[-75.101139,39.946117]],[[-75.100997,39.946173],[-75.100926,39.946201],[-75.100997,39.9462],[-75.100997,39.946173]],[[-75.100926,39.946201],[-75.100855,39.946228],[-75.100926,39.946228],[-75.100926,39.946201]],[[-75.100855,39.946256],[-75.100321,39.946423],[-75.100286,39.946478],[-75.100855,39.946256]],[[-75.100286,39.946478],[-75.100215,39.946506],[-75.100286,39.946506],[-75.100286,39.946478]],[[-75.100215,39.946506],[-75.100144,39.946534],[-75.100215,39.946534],[-75.100215,39.946506]],[[-75.103912,39.945142],[-75.103948,39.945114],[-75.103912,39.945114],[-75.103912,39.945142]],[[-75.115894,39.956719],[-75.115858,39.956747],[-75.115894,39.956747],[-75.115894,39.956719]],[[-75.122485,39.955805],[-75.122449,39.955778],[-75.12245,39.955806],[-75.122485,39.955805]]],[[[-75.096241,39.900898],[-75.098539,39.899649],[-75.099624,39.899248],[-75.098887,39.900555],[-75.097993,39.900258],[-75.097464,39.90092],[-75.096241,39.900898]]],[[[-75.098535,39.901051],[-75.098464,39.901107],[-75.098464,39.901052],[-75.098535,39.901051]]],[[[-75.098289,39.901492],[-75.098325,39.901519],[-75.098289,39.901519],[-75.098289,39.901492]]],[[[-75.098432,39.901519],[-75.098468,39.901546],[-75.098432,39.901546],[-75.098432,39.901519]]],[[[-75.09829,39.901547],[-75.098254,39.90152],[-75.098289,39.901519],[-75.09829,39.901547]]],[[[-75.098397,39.901574],[-75.098432,39.901546],[-75.098432,39.901574],[-75.098397,39.901574]]],[[[-75.09822,39.901684],[-75.098256,39.901739],[-75.09822,39.901739],[-75.09822,39.901684]]],[[[-75.098751,39.946376],[-75.099641,39.94618],[-75.098787,39.946376],[-75.098716,39.946432],[-75.098609,39.946432],[-75.098609,39.94646],[-75.098502,39.94646],[-75.098503,39.946488],[-75.098396,39.946488],[-75.098396,39.946516],[-75.098182,39.946544],[-75.098111,39.946599],[-75.09772,39.946684],[-75.097933,39.946573],[-75.098751,39.946376]]],[[[-75.098788,39.946459],[-75.098716,39.946432],[-75.098787,39.946431],[-75.098788,39.946459]]],[[[-75.098539,39.946515],[-75.098503,39.946488],[-75.098538,39.946487],[-75.098539,39.946515]]],[[[-75.098325,39.946543],[-75.098361,39.946571],[-75.098325,39.946571],[-75.098325,39.946543]]],[[[-75.098147,39.946599],[-75.098183,39.946626],[-75.098147,39.946627],[-75.098147,39.946599]]],[[[-75.097648,39.946629],[-75.097683,39.946602],[-75.097683,39.946629],[-75.097648,39.946629]]],[[[-75.098432,39.946598],[-75.098468,39.946652],[-75.098433,39.946653],[-75.098432,39.946598]]],[[[-75.09854,39.946652],[-75.098576,39.946679],[-75.09854,39.94668],[-75.09854,39.946652]]],[[[-75.097648,39.946684],[-75.09772,39.946711],[-75.097649,39.946712],[-75.097648,39.946684]]],[[[-75.097577,39.946739],[-75.097649,39.946712],[-75.097649,39.946739],[-75.097577,39.946739]]],[[[-75.098326,39.946708],[-75.098256,39.946791],[-75.098149,39.946791],[-75.098326,39.946708]]],[[[-75.097506,39.946767],[-75.097577,39.946739],[-75.097578,39.946767],[-75.097506,39.946767]]],[[[-75.09797,39.946792],[-75.098006,39.946765],[-75.098006,39.946792],[-75.09797,39.946792]]],[[[-75.097435,39.946795],[-75.097506,39.946767],[-75.097507,39.946795],[-75.097435,39.946795]]],[[[-75.097899,39.946793],[-75.097935,39.94682],[-75.097899,39.94682],[-75.097899,39.946793]]],[[[-75.098077,39.946819],[-75.098006,39.94682],[-75.098149,39.946791],[-75.098077,39.946819]]],[[[-75.097828,39.946821],[-75.097864,39.946848],[-75.097828,39.946848],[-75.097828,39.946821]]],[[[-75.098006,39.946847],[-75.097935,39.946875],[-75.097935,39.946847],[-75.098006,39.946847]]],[[[-75.097757,39.946848],[-75.097793,39.946876],[-75.097757,39.946876],[-75.097757,39.946848]]],[[[-75.09765,39.946904],[-75.097721,39.946876],[-75.097722,39.946903],[-75.09765,39.946904]]],[[[-75.097579,39.946932],[-75.09765,39.946904],[-75.09765,39.946931],[-75.097579,39.946932]]],[[[-75.097508,39.946959],[-75.097579,39.946932],[-75.097579,39.946959],[-75.097508,39.946959]]],[[[-75.0984,39.946955],[-75.098436,39.946982],[-75.0984,39.946982],[-75.0984,39.946955]]],[[[-75.097473,39.946987],[-75.097508,39.946959],[-75.097508,39.946987],[-75.097473,39.946987]]],[[[-75.097973,39.947067],[-75.097866,39.947067],[-75.098079,39.947011],[-75.097973,39.947067]]],[[[-75.097866,39.947095],[-75.097617,39.947233],[-75.097546,39.947234],[-75.097759,39.947095],[-75.097866,39.947095]]],[[[-75.097546,39.947261],[-75.097475,39.947234],[-75.097546,39.947234],[-75.097546,39.947261]]],[[[-75.098361,39.901546],[-75.098397,39.901629],[-75.098326,39.901602],[-75.09836,39.901492],[-75.098289,39.901437],[-75.09804,39.901548],[-75.097369,39.902238],[-75.096765,39.902488],[-75.095662,39.902658],[-75.095847,39.903454],[-75.095502,39.903538],[-75.094606,39.901418],[-75.095934,39.901219],[-75.098573,39.901381],[-75.098575,39.901518],[-75.098432,39.901491],[-75.098432,39.901519],[-75.098396,39.901519],[-75.098397,39.901546],[-75.098361,39.901546]],[[-75.094981,39.902278],[-75.095053,39.902332],[-75.09498,39.902223],[-75.094981,39.902278]]],[[[-75.093657,39.909917],[-75.093906,39.909943],[-75.093911,39.910492],[-75.093558,39.910851],[-75.093306,39.910605],[-75.093305,39.91044],[-75.093657,39.909917]],[[-75.093377,39.910604],[-75.093413,39.910549],[-75.093377,39.910549],[-75.093377,39.910604]]],[[[-75.096258,39.913884],[-75.096244,39.913898],[-75.096156,39.913802],[-75.096258,39.913884]]],[[[-75.0974,39.946823],[-75.097435,39.946795],[-75.097435,39.946823],[-75.0974,39.946823]]],[[[-75.097257,39.946851],[-75.097293,39.946878],[-75.097258,39.946878],[-75.097257,39.946851]]],[[[-75.097437,39.946987],[-75.097401,39.947015],[-75.097401,39.946987],[-75.097437,39.946987]]],[[[-75.09733,39.947043],[-75.097401,39.947015],[-75.097402,39.947042],[-75.09733,39.947043]]],[[[-75.097295,39.94707],[-75.09733,39.947043],[-75.097331,39.94707],[-75.097295,39.94707]]],[[[-75.097224,39.947071],[-75.09726,39.947098],[-75.097224,39.947098],[-75.097224,39.947071]]],[[[-75.097153,39.947126],[-75.097188,39.947098],[-75.097188,39.947126],[-75.097153,39.947126]]],[[[-75.097081,39.947126],[-75.097117,39.947154],[-75.097082,39.947154],[-75.097081,39.947126]]],[[[-75.097404,39.947262],[-75.09744,39.947289],[-75.097404,39.947317],[-75.097404,39.947262]]],[[[-75.097119,39.947373],[-75.096905,39.947374],[-75.097083,39.947319],[-75.097119,39.947373]]],[[[-75.09712,39.947428],[-75.097191,39.9474],[-75.097263,39.947455],[-75.09712,39.947428]]],[[[-75.09712,39.947428],[-75.097049,39.947456],[-75.097048,39.947429],[-75.09712,39.947428]]],[[[-75.097156,39.947455],[-75.097192,39.947483],[-75.097156,39.947483],[-75.097156,39.947455]]],[[[-75.097013,39.947484],[-75.097049,39.947456],[-75.097049,39.947483],[-75.097013,39.947484]]],[[[-75.096799,39.947485],[-75.09687,39.947457],[-75.096871,39.947484],[-75.096799,39.947485]]],[[[-75.096942,39.947484],[-75.096978,39.947511],[-75.096942,39.947511],[-75.096942,39.947484]]],[[[-75.096728,39.947513],[-75.096799,39.947485],[-75.096799,39.947512],[-75.096728,39.947513]]],[[[-75.096693,39.94754],[-75.096728,39.947513],[-75.096728,39.94754],[-75.096693,39.94754]]],[[[-75.097335,39.947537],[-75.096943,39.947649],[-75.09737,39.947454],[-75.097335,39.947537]]],[[[-75.096622,39.947568],[-75.096693,39.94754],[-75.096693,39.947568],[-75.096622,39.947568]]],[[[-75.09655,39.947596],[-75.096622,39.947568],[-75.096622,39.947595],[-75.09655,39.947596]]],[[[-75.096515,39.947623],[-75.09655,39.947596],[-75.096551,39.947623],[-75.096515,39.947623]]],[[[-75.096444,39.947624],[-75.09648,39.947651],[-75.096444,39.947651],[-75.096444,39.947624]]],[[[-75.096373,39.947679],[-75.096408,39.947651],[-75.096409,39.947679],[-75.096373,39.947679]]],[[[-75.096302,39.947679],[-75.096337,39.947707],[-75.096302,39.947707],[-75.096302,39.947679]]],[[[-75.097442,39.947591],[-75.097017,39.947868],[-75.097585,39.94759],[-75.0978,39.947699],[-75.096807,39.948391],[-75.096873,39.947759],[-75.097442,39.947591]],[[-75.096913,39.948225],[-75.096949,39.948253],[-75.096948,39.948225],[-75.096913,39.948225]],[[-75.096946,39.948006],[-75.096982,39.948033],[-75.096982,39.948005],[-75.096946,39.948006]]],[[[-75.097056,39.948334],[-75.097092,39.948307],[-75.097092,39.948334],[-75.097056,39.948334]]],[[[-75.096949,39.948362],[-75.096985,39.94839],[-75.09695,39.94839],[-75.096949,39.948362]]],[[[-75.09695,39.948417],[-75.096915,39.948445],[-75.096914,39.948418],[-75.09695,39.948417]]],[[[-75.096879,39.9485],[-75.096915,39.948527],[-75.09688,39.948528],[-75.096879,39.9485]]]]}}]}