{"type":"FeatureCollection","features":[{"type":"Feature","properties":{"level_ft":8},"geometry":{"type":"MultiPolygon","coordinates":[[[[-75.112253,39.900458],[-75.111211,39.899503],[-75.111422,39.8992],[-75.112677,39.899989],[-75.112715,39.900291],[-75.112253,39.900458]]],[[[-75.112009,39.901036],[-75.111148,39.900409],[-75.111147,39.900354],[-75.111575,39.900407],[-75.112009,39.901036]]],[[[-75.115588,39.902637],[-75.113112,39.900893],[-75.112397,39.900567],[-75.112822,39.90029],[-75.112853,39.899769],[-75.112421,39.899359],[-75.111706,39.899033],[-75.110888,39.899285],[-75.110528,39.898905],[-75.111838,39.898569],[-75.113166,39.899305],[-75.113874,39.901102],[-75.11643,39.902191],[-75.11655,39.902879],[-75.115588,39.902637]]],[[[-75.113733,39.902509],[-75.10998,39.901376],[-75.110299,39.901237],[-75.109692,39.901103],[-75.109581,39.900582],[-75.110256,39.900359],[-75.110871,39.901317],[-75.110686,39.900659],[-75.111586,39.90156],[-75.113733,39.902509]],[[-75.110763,39.901207],[-75.110727,39.901235],[-75.110763,39.901235],[-75.110763,39.901207]]],[[[-75.115267,39.902666],[-75.114017,39.902371],[-75.11362,39.901906],[-75.112833,39.901581],[-75.112004,39.900542],[-75.113114,39.90103],[-75.115267,39.902666]]],[[[-75.112691,39.901609],[-75.113156,39.901799],[-75.113229,39.901935],[-75.112764,39.901801],[-75.112691,39.901609]]],[[[-75.113265,39.902018],[-75.113586,39.902071],[-75.113623,39.90218],[-75.113265,39.902018]]],[[[-75.111378,39.902247],[-75.111342,39.902275],[-75.111342,39.902247],[-75.111378,39.902247]]],[[[-75.113019,39.902458],[-75.112699,39.90246],[-75.112698,39.902405],[-75.113019,39.902458]]],[[[-75.113733,39.902509],[-75.113769,39.902537],[-75.113733,39.902537],[-75.113733,39.902509]]],[[[-75.113056,39.902595],[-75.113662,39.90262],[-75.113699,39.902702],[-75.113056,39.902595]]],[[[-75.115267,39.902666],[-75.115339,39.902693],[-75.115267,39.902693],[-75.115267,39.902666]]],[[[-75.115665,39.903323],[-75.114057,39.902919],[-75.114056,39.902727],[-75.116513,39.903126],[-75.116378,39.903319],[-75.115665,39.903323]]],[[[-75.11402,39.906681],[-75.113914,39.906874],[-75.113841,39.906599],[-75.11402,39.906681]]],[[[-75.117503,39.913443],[-75.117536,39.913251],[-75.117538,39.913443],[-75.117503,39.913443]]],[[[-75.114893,39.912689],[-75.114568,39.912224],[-75.114783,39.912332],[-75.11478,39.91203],[-75.115243,39.911945],[-75.115678,39.912739],[-75.115434,39.9134],[-75.115736,39.915237],[-75.115272,39.91513],[-75.115305,39.914938],[-75.114062,39.915411],[-75.113346,39.915113],[-75.113026,39.915197],[-75.113166,39.914894],[-75.112488,39.914843],[-75.112943,39.913934],[-75.113655,39.913711],[-75.113936,39.91327],[-75.114539,39.912992],[-75.114537,39.91269],[-75.114893,39.912689]],[[-75.114893,39.912689],[-75.115,39.912715],[-75.115,39.912688],[-75.114893,39.912689]]],[[[-75.117922,39.916461],[-75.117886,39.916434],[-75.117922,39.916434],[-75.117922,39.916461]]],[[[-75.117636,39.916353],[-75.117743,39.916407],[-75.117816,39.916572],[-75.117636,39.916353]]],[[[-75.117815,39.916434],[-75.117887,39.916544],[-75.117851,39.916544],[-75.117815,39.916434]]],[[[-75.117958,39.916543],[-75.117994,39.916516],[-75.117994,39.916543],[-75.117958,39.916543]]],[[[-75.118177,39.917091],[-75.118248,39.917063],[-75.118248,39.917091],[-75.118177,39.917091]]],[[[-75.117054,39.919074],[-75.11709,39.919101],[-75.117054,39.919101],[-75.117054,39.919074]]],[[[-75.111147,39.920423],[-75.110503,39.920152],[-75.11033,39.920702],[-75.110289,39.920125],[-75.109823,39.919881],[-75.110287,39.919878],[-75.110176,39.919495],[-75.109926,39.919468],[-75.110103,39.919248],[-75.110996,39.919408],[-75.110533,39.919548],[-75.110823,39.920013],[-75.111319,39.919736],[-75.11143,39.920092],[-75.11193,39.920254],[-75.111432,39.920367],[-75.111401,39.920943],[-75.111147,39.920423]]],[[[-75.124827,39.946541],[-75.124183,39.94638],[-75.124074,39.946161],[-75.124895,39.946184],[-75.125214,39.94599],[-75.125609,39.94629],[-75.125927,39.945903],[-75.126959,39.945706],[-75.125847,39.945025],[-75.12613,39.944749],[-75.125986,39.944585],[-75.125235,39.944315],[-75.125768,39.944147],[-75.125764,39.943736],[-75.123837,39.943636],[-75.123688,39.942868],[-75.12326,39.942898],[-75.123369,39.943144],[-75.122763,39.943203],[-75.122332,39.942848],[-75.122299,39.943123],[-75.121943,39.94318],[-75.121582,39.942715],[-75.120868,39.942664],[-75.121081,39.942498],[-75.120759,39.942417],[-75.120757,39.942252],[-75.121507,39.942276],[-75.121647,39.942056],[-75.121395,39.941755],[-75.121038,39.941702],[-75.120861,39.941922],[-75.12061,39.941677],[-75.120891,39.941291],[-75.121,39.94151],[-75.121677,39.941451],[-75.121353,39.941069],[-75.120995,39.940961],[-75.12089,39.941154],[-75.12071,39.940935],[-75.120813,39.940495],[-75.12142,39.940547],[-75.121271,39.939889],[-75.122624,39.939662],[-75.122515,39.939415],[-75.123403,39.938999],[-75.122973,39.938809],[-75.12347,39.938559],[-75.123255,39.938396],[-75.12411,39.938309],[-75.123786,39.938008],[-75.124071,39.937979],[-75.12414,39.937732],[-75.124426,39.937813],[-75.123889,39.937514],[-75.124208,39.93732],[-75.124028,39.937129],[-75.123815,39.937267],[-75.123669,39.936938],[-75.123986,39.936497],[-75.122879,39.936311],[-75.123375,39.935979],[-75.122696,39.935818],[-75.122591,39.936011],[-75.122196,39.935656],[-75.122408,39.935435],[-75.122154,39.93497],[-75.122255,39.934283],[-75.121969,39.934257],[-75.122217,39.934118],[-75.121927,39.933543],[-75.122029,39.933049],[-75.1216,39.932886],[-75.121811,39.932528],[-75.121274,39.932284],[-75.121699,39.931952],[-75.121092,39.931873],[-75.121409,39.93146],[-75.121194,39.931406],[-75.121333,39.930966],[-75.121583,39.930965],[-75.121617,39.930855],[-75.121333,39.930938],[-75.120434,39.930175],[-75.119258,39.930208],[-75.119146,39.929687],[-75.118541,39.929828],[-75.118646,39.92958],[-75.118182,39.9295],[-75.118501,39.929361],[-75.118463,39.929114],[-75.117856,39.928925],[-75.116717,39.929206],[-75.117327,39.929642],[-75.116472,39.929729],[-75.116405,39.930224],[-75.11526,39.929818],[-75.115756,39.929376],[-75.115258,39.929516],[-75.11536,39.929049],[-75.115856,39.928579],[-75.116142,39.92866],[-75.116244,39.928165],[-75.116467,39.921218],[-75.116602,39.920394],[-75.117027,39.920007],[-75.1167,39.91935],[-75.116976,39.918388],[-75.117056,39.919266],[-75.11777,39.919399],[-75.117832,39.918383],[-75.117405,39.918441],[-75.117296,39.918249],[-75.117759,39.918164],[-75.118035,39.917147],[-75.118569,39.917117],[-75.118283,39.917008],[-75.117927,39.917038],[-75.11814,39.916899],[-75.117816,39.916572],[-75.118029,39.916543],[-75.117957,39.916406],[-75.118243,39.916514],[-75.118275,39.91613],[-75.118914,39.915797],[-75.1192,39.91585],[-75.118777,39.916429],[-75.118958,39.91673],[-75.119708,39.916863],[-75.120131,39.91634],[-75.119983,39.915709],[-75.119699,39.915875],[-75.119233,39.915603],[-75.119408,39.91519],[-75.119085,39.915027],[-75.119548,39.914915],[-75.119437,39.914504],[-75.118614,39.914179],[-75.119077,39.914039],[-75.119067,39.912941],[-75.118175,39.912863],[-75.117857,39.913167],[-75.117641,39.912949],[-75.117679,39.913195],[-75.117356,39.913032],[-75.117393,39.913197],[-75.117218,39.913472],[-75.11725,39.913143],[-75.11711,39.913391],[-75.116717,39.913365],[-75.116142,39.912847],[-75.116349,39.911995],[-75.115983,39.910953],[-75.116307,39.911281],[-75.11691,39.911031],[-75.117201,39.911606],[-75.117272,39.911578],[-75.117052,39.91092],[-75.117435,39.909875],[-75.117358,39.909216],[-75.115922,39.908098],[-75.115281,39.908266],[-75.115063,39.907746],[-75.114705,39.907611],[-75.115946,39.910816],[-75.115368,39.909941],[-75.114905,39.910053],[-75.115155,39.910079],[-75.114664,39.911015],[-75.114551,39.910329],[-75.114009,39.909536],[-75.113187,39.909266],[-75.111875,39.910069],[-75.110483,39.909884],[-75.109668,39.91041],[-75.108415,39.909785],[-75.108345,39.90995],[-75.109565,39.910905],[-75.109936,39.912523],[-75.109512,39.912882],[-75.108941,39.912885],[-75.108837,39.913215],[-75.10841,39.913272],[-75.108377,39.913629],[-75.107485,39.913496],[-75.107201,39.913663],[-75.108085,39.912834],[-75.107292,39.911878],[-75.103438,39.911431],[-75.102833,39.911599],[-75.101772,39.912483],[-75.101244,39.913282],[-75.101212,39.913749],[-75.10157,39.913912],[-75.10125,39.914023],[-75.101292,39.914737],[-75.100544,39.914795],[-75.100582,39.915015],[-75.099865,39.913659],[-75.099497,39.913857],[-75.098463,39.913809],[-75.098089,39.914078],[-75.097455,39.913516],[-75.096364,39.913826],[-75.095897,39.913419],[-75.095393,39.912873],[-75.095176,39.912517],[-75.095999,39.912842],[-75.096425,39.912648],[-75.096535,39.912922],[-75.096995,39.912562],[-75.096486,39.911385],[-75.097159,39.910914],[-75.097009,39.910092],[-75.097686,39.910033],[-75.097504,39.909567],[-75.097005,39.90957],[-75.097393,39.909074],[-75.097421,39.90825],[-75.09803,39.908549],[-75.098957,39.908626],[-75.099532,39.909173],[-75.099995,39.909033],[-75.099598,39.908568],[-75.099845,39.90821],[-75.100353,39.909251],[-75.100706,39.908837],[-75.100991,39.908836],[-75.100815,39.909056],[-75.100958,39.909138],[-75.101561,39.908723],[-75.102061,39.908885],[-75.10352,39.90863],[-75.104484,39.908763],[-75.105346,39.909444],[-75.106311,39.909714],[-75.107199,39.90938],[-75.107985,39.909595],[-75.108048,39.908689],[-75.107727,39.908663],[-75.107364,39.907869],[-75.107867,39.908306],[-75.107647,39.90762],[-75.108043,39.90803],[-75.108076,39.90781],[-75.10764,39.906852],[-75.108251,39.907425],[-75.108211,39.906931],[-75.107853,39.906741],[-75.108317,39.906766],[-75.109062,39.906405],[-75.108531,39.906874],[-75.108572,39.907396],[-75.108751,39.90756],[-75.108712,39.907148],[-75.108963,39.907311],[-75.109528,39.906677],[-75.109319,39.907227],[-75.109463,39.907419],[-75.109884,39.90662],[-75.111017,39.905791],[-75.111225,39.905103],[-75.112147,39.904604],[-75.109677,39.903354],[-75.109464,39.903548],[-75.109859,39.903848],[-75.109075,39.903824],[-75.109001,39.903578],[-75.108219,39.903829],[-75.108573,39.903525],[-75.108004,39.903665],[-75.107432,39.903531],[-75.107684,39.903804],[-75.107292,39.903751],[-75.106869,39.904357],[-75.106584,39.904277],[-75.106443,39.904524],[-75.105411,39.904749],[-75.105413,39.904969],[-75.105983,39.904856],[-75.105558,39.905243],[-75.104563,39.905523],[-75.104631,39.905193],[-75.104098,39.90536],[-75.103747,39.906048],[-75.104351,39.905826],[-75.104426,39.906237],[-75.104069,39.906184],[-75.104179,39.906485],[-75.103789,39.906762],[-75.102825,39.906575],[-75.10272,39.906822],[-75.103114,39.906985],[-75.101688,39.906938],[-75.101833,39.907294],[-75.101548,39.907268],[-75.101478,39.90746],[-75.101331,39.906939],[-75.100546,39.906889],[-75.100156,39.90711],[-75.100332,39.906807],[-75.099901,39.90648],[-75.100544,39.906642],[-75.101112,39.906309],[-75.100436,39.906505],[-75.100326,39.906149],[-75.099898,39.906096],[-75.100538,39.9059],[-75.100648,39.906229],[-75.100968,39.906145],[-75.100714,39.905652],[-75.099576,39.90596],[-75.09993,39.905711],[-75.099466,39.905659],[-75.100461,39.905297],[-75.100459,39.905077],[-75.099678,39.905411],[-75.099498,39.905192],[-75.100138,39.905051],[-75.099248,39.905111],[-75.099394,39.905549],[-75.099146,39.905715],[-75.098891,39.905058],[-75.098213,39.905034],[-75.098073,39.905282],[-75.097853,39.904679],[-75.098131,39.903744],[-75.09913,39.903904],[-75.098129,39.903524],[-75.098555,39.903385],[-75.098624,39.903137],[-75.098232,39.903112],[-75.097665,39.903472],[-75.09798,39.902866],[-75.098265,39.902837],[-75.098157,39.902673],[-75.098657,39.90278],[-75.098724,39.902341],[-75.098475,39.902397],[-75.098188,39.902096],[-75.097832,39.902181],[-75.09783,39.902016],[-75.097973,39.901988],[-75.097901,39.901933],[-75.097722,39.901907],[-75.097157,39.902431],[-75.095948,39.902794],[-75.095736,39.902988],[-75.095883,39.903536],[-75.095741,39.903564],[-75.095741,39.903592],[-75.095705,39.903592],[-75.095705,39.903619],[-75.09567,39.903619],[-75.09567,39.903674],[-75.095572,39.903702],[-75.094606,39.901418],[-75.095951,39.901202],[-75.098644,39.901353],[-75.098505,39.90171],[-75.101355,39.901504],[-75.101532,39.901365],[-75.101281,39.901257],[-75.098961,39.900884],[-75.099909,39.899232],[-75.101146,39.898882],[-75.101966,39.899057],[-75.102917,39.899882],[-75.104793,39.900527],[-75.107941,39.900238],[-75.10964,39.899265],[-75.110076,39.900113],[-75.108865,39.900284],[-75.107339,39.901006],[-75.108626,39.901438],[-75.110874,39.901701],[-75.112768,39.902295],[-75.110805,39.901976],[-75.109633,39.902421],[-75.110593,39.902224],[-75.11121,39.903374],[-75.111312,39.902906],[-75.111021,39.902222],[-75.111878,39.902409],[-75.111885,39.903123],[-75.11358,39.905338],[-75.113729,39.906106],[-75.112717,39.904574],[-75.113189,39.905505],[-75.114396,39.908875],[-75.114354,39.908162],[-75.114425,39.908134],[-75.11457,39.90849],[-75.114637,39.907968],[-75.113752,39.904678],[-75.113465,39.904487],[-75.113434,39.905009],[-75.112384,39.903175],[-75.112487,39.902681],[-75.113559,39.903004],[-75.113604,39.904102],[-75.113809,39.903113],[-75.116437,39.903456],[-75.11488,39.9054],[-75.114715,39.906125],[-75.117488,39.90849],[-75.119918,39.908517],[-75.119884,39.908736],[-75.120169,39.908707],[-75.120132,39.908514],[-75.121403,39.907762],[-75.122836,39.907428],[-75.129344,39.907381],[-75.129091,39.911608],[-75.12984,39.915359],[-75.135874,39.927639],[-75.136621,39.93037],[-75.136805,39.937021],[-75.136556,39.941533],[-75.135631,39.947459],[-75.134194,39.952774],[-75.124119,39.951075],[-75.123153,39.950723],[-75.12358,39.950638],[-75.12379,39.950253],[-75.123901,39.950664],[-75.124257,39.950552],[-75.124503,39.950194],[-75.124143,39.949839],[-75.123825,39.950115],[-75.12382,39.949621],[-75.125105,39.949697],[-75.125136,39.949147],[-75.125457,39.949146],[-75.124419,39.948822],[-75.12506,39.948626],[-75.125453,39.948734],[-75.125734,39.948266],[-75.124909,39.947721],[-75.125763,39.947552],[-75.125834,39.947441],[-75.125047,39.947226],[-75.124827,39.946541]],[[-75.117163,39.91932],[-75.117128,39.919348],[-75.117163,39.919348],[-75.117163,39.91932]],[[-75.11796,39.916708],[-75.117995,39.91668],[-75.117959,39.916681],[-75.11796,39.916708]],[[-75.117392,39.913032],[-75.117427,39.913005],[-75.117392,39.913005],[-75.117392,39.913032]],[[-75.117392,39.913005],[-75.117356,39.912978],[-75.117356,39.913005],[-75.117392,39.913005]],[[-75.114977,39.910107],[-75.115013,39.910135],[-75.115013,39.910107],[-75.114977,39.910107]],[[-75.114977,39.910135],[-75.114942,39.910163],[-75.114978,39.910162],[-75.114977,39.910135]],[[-75.115015,39.910327],[-75.114979,39.9103],[-75.114979,39.910327],[-75.115015,39.910327]],[[-75.096328,39.913774],[-75.096364,39.913746],[-75.096328,39.913746],[-75.096328,39.913774]],[[-75.096221,39.913692],[-75.096256,39.913664],[-75.09622,39.913665],[-75.096221,39.913692]],[[-75.09993,39.905711],[-75.100001,39.905684],[-75.09993,39.905684],[-75.09993,39.905711]],[[-75.100001,39.905684],[-75.100108,39.905656],[-75.100001,39.905656],[-75.100001,39.905684]],[[-75.100108,39.905656],[-75.100179,39.905628],[-75.100108,39.905628],[-75.100108,39.905656]],[[-75.100179,39.905628],[-75.10025,39.9056],[-75.100179,39.9056],[-75.100179,39.905628]],[[-75.097902,39.902043],[-75.097866,39.902071],[-75.097902,39.90207],[-75.097902,39.902043]],[[-75.097973,39.901988],[-75.098008,39.90196],[-75.097972,39.90196],[-75.097973,39.901988]],[[-75.097758,39.901906],[-75.097794,39.901879],[-75.097758,39.901879],[-75.097758,39.901906]],[[-75.10748,39.900868],[-75.107444,39.90084],[-75.107445,39.900868],[-75.10748,39.900868]],[[-75.113045,39.905313],[-75.112974,39.905341],[-75.113045,39.905341],[-75.113045,39.905313]],[[-75.114425,39.908216],[-75.11439,39.908244],[-75.114426,39.908244],[-75.114425,39.908216]],[[-75.113532,39.90402],[-75.113497,39.904048],[-75.113533,39.904048],[-75.113532,39.90402]],[[-75.113497,39.904021],[-75.113461,39.903993],[-75.113461,39.904021],[-75.113497,39.904021]],[[-75.125044,39.946869],[-75.125256,39.946703],[-75.125149,39.946704],[-75.125044,39.946869]]],[[[-75.115695,39.926631],[-75.115731,39.926658],[-75.115696,39.926658],[-75.115695,39.926631]]],[[[-75.11566,39.926713],[-75.115696,39.926686],[-75.115696,39.926713],[-75.11566,39.926713]]],[[[-75.115591,39.926906],[-75.115734,39.926988],[-75.115592,39.926988],[-75.115591,39.926906]]],[[[-75.116126,39.926903],[-75.116163,39.92704],[-75.116127,39.92704],[-75.116126,39.926903]]],[[[-75.11566,39.926631],[-75.111099,39.931048],[-75.110577,39.932478],[-75.11077,39.934179],[-75.110629,39.934372],[-75.11052,39.934071],[-75.109947,39.933882],[-75.109907,39.93336],[-75.109479,39.93339],[-75.109082,39.932788],[-75.108258,39.932381],[-75.108578,39.932296],[-75.108505,39.932132],[-75.108006,39.932107],[-75.107396,39.931671],[-75.10793,39.931559],[-75.10839,39.931144],[-75.109139,39.931223],[-75.109244,39.930975],[-75.108958,39.930867],[-75.109846,39.930533],[-75.109987,39.930257],[-75.109558,39.93015],[-75.109556,39.929958],[-75.110376,39.929926],[-75.110908,39.929649],[-75.110442,39.929349],[-75.11069,39.929128],[-75.110294,39.928773],[-75.110435,39.928526],[-75.110144,39.927951],[-75.110676,39.927536],[-75.110353,39.927318],[-75.110562,39.926823],[-75.110165,39.926303],[-75.110486,39.926247],[-75.110763,39.925339],[-75.111439,39.925116],[-75.111257,39.924787],[-75.112217,39.924398],[-75.111926,39.923796],[-75.112138,39.923575],[-75.111317,39.923497],[-75.11128,39.923332],[-75.112099,39.923246],[-75.111741,39.923083],[-75.112169,39.923026],[-75.111951,39.922588],[-75.11227,39.922394],[-75.112735,39.922556],[-75.113232,39.922279],[-75.11327,39.922608],[-75.113482,39.922387],[-75.113769,39.922578],[-75.113908,39.922138],[-75.114123,39.922219],[-75.114048,39.921863],[-75.115438,39.921773],[-75.115505,39.921306],[-75.114826,39.921145],[-75.114646,39.920899],[-75.115503,39.921031],[-75.115606,39.920592],[-75.11582,39.92059],[-75.116075,39.921248],[-75.115863,39.921496],[-75.115953,39.923555],[-75.115643,39.924737],[-75.1158,39.926411],[-75.115766,39.926576],[-75.115731,39.926576],[-75.115731,39.926603],[-75.115695,39.926603],[-75.115695,39.926631],[-75.11566,39.926631]]],[[[-75.110868,39.933108],[-75.111032,39.93157],[-75.111666,39.930606],[-75.114035,39.928424],[-75.114394,39.928587],[-75.114569,39.928257],[-75.114855,39.92831],[-75.114862,39.929134],[-75.113199,39.930597],[-75.111684,39.932692],[-75.111435,39.932721],[-75.111614,39.93283],[-75.111298,39.933325],[-75.110868,39.933108]]],[[[-75.112358,39.932304],[-75.113488,39.931035],[-75.114836,39.930232],[-75.114768,39.930534],[-75.114553,39.93048],[-75.114129,39.930922],[-75.114453,39.93125],[-75.114312,39.93147],[-75.113635,39.931474],[-75.113674,39.931858],[-75.113387,39.931667],[-75.113353,39.931914],[-75.113068,39.931943],[-75.113284,39.932107],[-75.112358,39.932304]]],[[[-75.11477,39.942779],[-75.116376,39.942825],[-75.116449,39.943017],[-75.114559,39.943137],[-75.11477,39.942779]]],[[[-75.113981,39.946324],[-75.113804,39.946408],[-75.111303,39.945927],[-75.111765,39.945814],[-75.111765,39.945759],[-75.111228,39.945515],[-75.113118,39.945533],[-75.112651,39.945151],[-75.112863,39.944903],[-75.113045,39.945259],[-75.113688,39.945447],[-75.113763,39.945859],[-75.113407,39.945861],[-75.113837,39.946078],[-75.113981,39.946324]],[[-75.113407,39.945861],[-75.113371,39.945888],[-75.113407,39.945888],[-75.113407,39.945861]],[[-75.113837,39.946133],[-75.113802,39.946161],[-75.113837,39.94616],[-75.113837,39.946133]]],[[[-75.113903,39.945501],[-75.114226,39.945746],[-75.114441,39.945883],[-75.113978,39.945885],[-75.113903,39.945501]]],[[[-75.11512,39.946016],[-75.114546,39.945635],[-75.115154,39.945769],[-75.11512,39.946016]]],[[[-75.114409,39.946322],[-75.114374,39.946295],[-75.114409,39.946295],[-75.114409,39.946322]]],[[[-75.114481,39.946349],[-75.114445,39.946322],[-75.114481,39.946322],[-75.114481,39.946349]]],[[[-75.114302,39.946323],[-75.114877,39.946731],[-75.114412,39.946597],[-75.114159,39.946186],[-75.114302,39.946323]]],[[[-75.099696,39.899343],[-75.099732,39.899398],[-75.099697,39.899398],[-75.099696,39.899343]]],[[[-75.110751,39.899917],[-75.110067,39.899097],[-75.110351,39.898973],[-75.11136,39.900243],[-75.110751,39.899917]]],[[[-75.096241,39.900898],[-75.098539,39.899649],[-75.099624,39.899248],[-75.098887,39.900583],[-75.098029,39.900258],[-75.097603,39.900507],[-75.097465,39.900947],[-75.096241,39.900898]]],[[[-75.098856,39.901132],[-75.09807,39.900862],[-75.097996,39.900533],[-75.098423,39.900448],[-75.098852,39.900665],[-75.098818,39.900858],[-75.098712,39.900913],[-75.098961,39.900912],[-75.098856,39.901132]],[[-75.098891,39.901022],[-75.098855,39.900967],[-75.098855,39.901022],[-75.098891,39.901022]]],[[[-75.098925,39.90083],[-75.098961,39.900857],[-75.098925,39.900857],[-75.098925,39.90083]]],[[[-75.098854,39.900885],[-75.098818,39.900858],[-75.098854,39.900858],[-75.098854,39.900885]]],[[[-75.09783,39.901961],[-75.097901,39.901988],[-75.09783,39.901988],[-75.09783,39.901961]]],[[[-75.09783,39.901988],[-75.097795,39.902016],[-75.097794,39.901989],[-75.09783,39.901988]]],[[[-75.097759,39.902044],[-75.097795,39.902016],[-75.097795,39.902044],[-75.097759,39.902044]]],[[[-75.108951,39.905939],[-75.108345,39.905969],[-75.108807,39.905747],[-75.108412,39.905475],[-75.108334,39.904679],[-75.10959,39.905633],[-75.109164,39.905855],[-75.109239,39.906212],[-75.108951,39.905939]]],[[[-75.106035,39.906778],[-75.104639,39.906154],[-75.105066,39.906069],[-75.104636,39.905769],[-75.105207,39.905821],[-75.105489,39.905463],[-75.105989,39.90557],[-75.106415,39.905348],[-75.106418,39.905732],[-75.106954,39.905812],[-75.106777,39.905978],[-75.107136,39.90625],[-75.107034,39.9068],[-75.106604,39.906637],[-75.10671,39.906527],[-75.106638,39.906445],[-75.106535,39.906912],[-75.106321,39.906804],[-75.106216,39.907051],[-75.106035,39.906778]]],[[[-75.109598,39.914583],[-75.10956,39.914282],[-75.108953,39.914202],[-75.108634,39.914479],[-75.108632,39.914177],[-75.107631,39.913935],[-75.109162,39.913707],[-75.11002,39.913895],[-75.110624,39.913699],[-75.110772,39.914358],[-75.111022,39.914356],[-75.110846,39.914659],[-75.111382,39.914766],[-75.110172,39.914965],[-75.110206,39.914827],[-75.108922,39.914724],[-75.109598,39.914583]]],[[[-75.110825,39.932285],[-75.110861,39.932312],[-75.110825,39.932312],[-75.110825,39.932285]]],[[[-75.104251,39.934955],[-75.104638,39.934376],[-75.104245,39.934268],[-75.10467,39.933909],[-75.104489,39.933691],[-75.104739,39.933689],[-75.10445,39.933279],[-75.104983,39.933084],[-75.104518,39.932894],[-75.104941,39.932343],[-75.106047,39.932365],[-75.106328,39.931869],[-75.106509,39.932225],[-75.107399,39.932083],[-75.108116,39.932491],[-75.107905,39.932822],[-75.108475,39.932736],[-75.109013,39.93309],[-75.108125,39.933452],[-75.108094,39.933974],[-75.107731,39.933262],[-75.107697,39.933509],[-75.107376,39.933456],[-75.10738,39.933923],[-75.107772,39.933838],[-75.108024,39.934166],[-75.107064,39.934501],[-75.106961,39.934886],[-75.106319,39.934916],[-75.105745,39.93448],[-75.105426,39.934811],[-75.10489,39.934677],[-75.104609,39.935118],[-75.104288,39.935119],[-75.104428,39.934871],[-75.104251,39.934955]],[[-75.104428,39.934871],[-75.104499,39.934816],[-75.104428,39.934816],[-75.104428,39.934871]]],[[[-75.100175,39.946067],[-75.099926,39.946123],[-75.099926,39.946096],[-75.100175,39.946067]]],[[[-75.099608,39.9464],[-75.099572,39.946372],[-75.099607,39.946372],[-75.099608,39.9464]]],[[[-75.09893,39.946458],[-75.098859,39.946403],[-75.098894,39.946403],[-75.09893,39.946458]]],[[[-75.098716,39.946459],[-75.098787,39.946431],[-75.098788,39.946459],[-75.098716,39.946459]]],[[[-75.099429,39.946428],[-75.099394,39.946483],[-75.099394,39.946428],[-75.099429,39.946428]]],[[[-75.098681,39.946487],[-75.098716,39.946459],[-75.098717,39.946486],[-75.098681,39.946487]]],[[[-75.098645,39.946487],[-75.098609,39.94646],[-75.098645,39.946459],[-75.098645,39.946487]]],[[[-75.098574,39.946515],[-75.098503,39.946488],[-75.098574,39.946487],[-75.098574,39.946515]]],[[[-75.098432,39.946543],[-75.098396,39.946516],[-75.098432,39.946515],[-75.098432,39.946543]]],[[[-75.098325,39.946543],[-75.098361,39.946598],[-75.098325,39.946598],[-75.098325,39.946543]]],[[[-75.098254,39.946599],[-75.098218,39.946571],[-75.098254,39.946571],[-75.098254,39.946599]]],[[[-75.098111,39.946627],[-75.098183,39.946599],[-75.098183,39.946626],[-75.098111,39.946627]]],[[[-75.098539,39.946625],[-75.098432,39.946598],[-75.098539,39.946597],[-75.098539,39.946625]]],[[[-75.09854,39.946652],[-75.098576,39.946679],[-75.09854,39.94668],[-75.09854,39.946652]]],[[[-75.097969,39.946655],[-75.098005,39.946682],[-75.097969,39.946683],[-75.097969,39.946655]]],[[[-75.098326,39.946708],[-75.098256,39.946791],[-75.098149,39.946791],[-75.098326,39.946708]]],[[[-75.098041,39.946737],[-75.098077,39.946764],[-75.098041,39.946764],[-75.098041,39.946737]]],[[[-75.098006,39.946765],[-75.09797,39.946792],[-75.09797,39.946765],[-75.098006,39.946765]]],[[[-75.097899,39.946793],[-75.097935,39.94682],[-75.097899,39.94682],[-75.097899,39.946793]]],[[[-75.098077,39.946819],[-75.098006,39.94682],[-75.098149,39.946791],[-75.098077,39.946819]]],[[[-75.097828,39.946821],[-75.097864,39.946848],[-75.097828,39.946848],[-75.097828,39.946821]]],[[[-75.116248,39.956415],[-75.117065,39.956081],[-75.118182,39.957256],[-75.119783,39.956781],[-75.119958,39.95645],[-75.119742,39.956204],[-75.120062,39.956065],[-75.119489,39.955849],[-75.120129,39.955653],[-75.119485,39.955437],[-75.120485,39.955487],[-75.120268,39.955213],[-75.120661,39.955239],[-75.120658,39.954937],[-75.120407,39.954746],[-75.120799,39.954771],[-75.120759,39.954305],[-75.12115,39.954138],[-75.122331,39.954488],[-75.122719,39.954075],[-75.122939,39.954732],[-75.122547,39.954762],[-75.122553,39.955448],[-75.122839,39.955447],[-75.123049,39.955061],[-75.122948,39.955693],[-75.124054,39.955715],[-75.12416,39.955549],[-75.123801,39.955386],[-75.124087,39.95544],[-75.124263,39.955192],[-75.124083,39.955028],[-75.123763,39.95514],[-75.12344,39.954839],[-75.123866,39.9547],[-75.123897,39.954123],[-75.123502,39.953878],[-75.123221,39.954346],[-75.123255,39.954099],[-75.122898,39.954074],[-75.123325,39.953989],[-75.123286,39.953632],[-75.124177,39.953572],[-75.123712,39.953355],[-75.124138,39.953133],[-75.123529,39.952945],[-75.123846,39.952476],[-75.123238,39.952315],[-75.123807,39.952037],[-75.123484,39.951902],[-75.123166,39.952178],[-75.123264,39.951161],[-75.134099,39.953052],[-75.132573,39.956557],[-75.130162,39.959455],[-75.125749,39.962444],[-75.122172,39.964298],[-75.119748,39.96171],[-75.118447,39.960723],[-75.115839,39.959328],[-75.110143,39.958016],[-75.108033,39.958011],[-75.106227,39.958401],[-75.104126,39.95944],[-75.096972,39.964978],[-75.093629,39.966868],[-75.088069,39.969382],[-75.084685,39.964732],[-75.08507,39.964978],[-75.085603,39.964645],[-75.085458,39.964372],[-75.085778,39.964288],[-75.085958,39.964534],[-75.086708,39.964557],[-75.087818,39.965046],[-75.088637,39.964877],[-75.089453,39.964324],[-75.089591,39.963774],[-75.089266,39.963309],[-75.089586,39.96317],[-75.089224,39.962568],[-75.089577,39.9621],[-75.089284,39.961277],[-75.089353,39.96092],[-75.089636,39.960644],[-75.089207,39.960619],[-75.089204,39.960207],[-75.088558,39.959799],[-75.088588,39.95914],[-75.088266,39.959004],[-75.088047,39.958483],[-75.088583,39.958563],[-75.088541,39.957849],[-75.087791,39.957689],[-75.087209,39.956401],[-75.085953,39.955529],[-75.087336,39.954561],[-75.087623,39.954807],[-75.087519,39.955082],[-75.089236,39.955595],[-75.089484,39.955484],[-75.08963,39.955895],[-75.089918,39.956195],[-75.090419,39.956275],[-75.090566,39.956851],[-75.091069,39.957205],[-75.091816,39.956954],[-75.092069,39.95742],[-75.091823,39.95775],[-75.092072,39.957749],[-75.091932,39.957997],[-75.092254,39.95816],[-75.091829,39.958519],[-75.092364,39.958434],[-75.091974,39.958765],[-75.092473,39.958763],[-75.092299,39.959176],[-75.092769,39.959887],[-75.092486,39.960245],[-75.092955,39.960792],[-75.092816,39.961205],[-75.09325,39.961889],[-75.094109,39.962296],[-75.094965,39.962264],[-75.095142,39.962016],[-75.095783,39.961931],[-75.096703,39.960992],[-75.096833,39.959537],[-75.09819,39.959722],[-75.099256,39.959222],[-75.099144,39.958701],[-75.099391,39.958343],[-75.098855,39.958236],[-75.098501,39.958567],[-75.097929,39.95846],[-75.098038,39.958707],[-75.097325,39.958711],[-75.096792,39.958988],[-75.096679,39.95833],[-75.096248,39.957975],[-75.096604,39.957918],[-75.096566,39.957644],[-75.096171,39.957289],[-75.096668,39.957012],[-75.096948,39.956406],[-75.097304,39.956322],[-75.097192,39.955719],[-75.097866,39.955331],[-75.09797,39.954919],[-75.098398,39.954999],[-75.098503,39.954669],[-75.098753,39.95475],[-75.099674,39.954004],[-75.099271,39.952798],[-75.099736,39.95296],[-75.099411,39.952523],[-75.099838,39.952356],[-75.09941,39.952358],[-75.099476,39.951809],[-75.099189,39.951536],[-75.099474,39.951561],[-75.099539,39.95082],[-75.100072,39.95057],[-75.099887,39.949802],[-75.100415,39.949031],[-75.099733,39.948513],[-75.099943,39.9481],[-75.09916,39.948214],[-75.098263,39.947587],[-75.097942,39.947671],[-75.097905,39.947452],[-75.097511,39.947344],[-75.098044,39.947066],[-75.09744,39.947317],[-75.097189,39.947208],[-75.097899,39.946848],[-75.097758,39.946986],[-75.099644,39.946454],[-75.099714,39.946317],[-75.09886,39.946596],[-75.098539,39.946597],[-75.099002,39.946485],[-75.099215,39.946319],[-75.098894,39.946348],[-75.097791,39.946656],[-75.097044,39.946962],[-75.097364,39.946768],[-75.098111,39.946545],[-75.097221,39.946769],[-75.097647,39.946574],[-75.09754,39.946493],[-75.095478,39.947354],[-75.09793,39.946298],[-75.09764,39.945751],[-75.09707,39.945781],[-75.097603,39.945614],[-75.097706,39.945064],[-75.097135,39.945094],[-75.097169,39.944902],[-75.097739,39.944789],[-75.097417,39.944736],[-75.097378,39.944352],[-75.096667,39.94463],[-75.096554,39.943944],[-75.096094,39.944331],[-75.09506,39.944419],[-75.094666,39.944229],[-75.094062,39.944396],[-75.093381,39.944071],[-75.093026,39.944237],[-75.093022,39.943825],[-75.092523,39.943828],[-75.092521,39.943553],[-75.092235,39.943472],[-75.092058,39.943665],[-75.092598,39.944267],[-75.092026,39.944077],[-75.091599,39.944272],[-75.091064,39.944192],[-75.091489,39.943915],[-75.090915,39.943479],[-75.090379,39.943345],[-75.089881,39.943512],[-75.089415,39.943212],[-75.089554,39.942772],[-75.090305,39.94307],[-75.09034,39.942933],[-75.089157,39.942335],[-75.089262,39.942033],[-75.088942,39.942199],[-75.088585,39.942118],[-75.088438,39.94168],[-75.087436,39.941218],[-75.087182,39.940698],[-75.086608,39.940344],[-75.085645,39.940294],[-75.085856,39.940018],[-75.085387,39.939334],[-75.085743,39.939278],[-75.085456,39.939061],[-75.089268,39.935738],[-75.089851,39.936182],[-75.090135,39.936064],[-75.090057,39.935156],[-75.089724,39.934693],[-75.088839,39.934353],[-75.087064,39.93482],[-75.08639,39.934661],[-75.086413,39.933372],[-75.086619,39.933288],[-75.086399,39.933234],[-75.085962,39.932029],[-75.086251,39.931972],[-75.085931,39.931946],[-75.085922,39.931765],[-75.087362,39.929346],[-75.087435,39.927986],[-75.087105,39.927059],[-75.086365,39.926725],[-75.084246,39.92678],[-75.084132,39.925998],[-75.083853,39.926739],[-75.08138,39.925993],[-75.084831,39.924318],[-75.084726,39.924567],[-75.084764,39.924787],[-75.085083,39.924593],[-75.085405,39.924729],[-75.086615,39.924503],[-75.086619,39.924942],[-75.087475,39.924993],[-75.088585,39.925426],[-75.089868,39.925447],[-75.090157,39.925858],[-75.091508,39.925329],[-75.093124,39.926639],[-75.094444,39.926769],[-75.094304,39.927099],[-75.093486,39.927268],[-75.093704,39.927761],[-75.092812,39.927738],[-75.092593,39.92719],[-75.091881,39.927249],[-75.091129,39.926896],[-75.090666,39.926981],[-75.090242,39.927422],[-75.089704,39.927068],[-75.088965,39.928197],[-75.089865,39.929181],[-75.089907,39.929922],[-75.088955,39.931245],[-75.08953,39.931763],[-75.090064,39.931651],[-75.091537,39.932934],[-75.092394,39.933012],[-75.093548,39.934461],[-75.094548,39.934675],[-75.094947,39.935469],[-75.094921,39.936568],[-75.095526,39.936427],[-75.095352,39.93695],[-75.094538,39.937613],[-75.092576,39.937596],[-75.093401,39.938086],[-75.092731,39.938967],[-75.092981,39.939049],[-75.093902,39.93833],[-75.094402,39.938382],[-75.094504,39.937833],[-75.09507,39.937336],[-75.095859,39.937771],[-75.096677,39.937547],[-75.096679,39.937767],[-75.097179,39.937819],[-75.099565,39.937395],[-75.099782,39.937833],[-75.101282,39.93799],[-75.101499,39.938346],[-75.101818,39.938124],[-75.102001,39.938673],[-75.102428,39.938588],[-75.102541,39.939191],[-75.102969,39.939244],[-75.104568,39.938549],[-75.104458,39.938193],[-75.104741,39.937945],[-75.105315,39.938381],[-75.105956,39.938268],[-75.10606,39.93791],[-75.106986,39.937768],[-75.107062,39.938234],[-75.106741,39.938264],[-75.107172,39.938673],[-75.107104,39.938948],[-75.107817,39.938999],[-75.107962,39.939273],[-75.107323,39.939523],[-75.107614,39.940236],[-75.107297,39.940622],[-75.107585,39.940977],[-75.108262,39.940919],[-75.108159,39.941331],[-75.109054,39.941683],[-75.108991,39.942699],[-75.109457,39.942889],[-75.109104,39.94333],[-75.109495,39.943191],[-75.10925,39.943686],[-75.109679,39.943821],[-75.109395,39.943987],[-75.108574,39.943855],[-75.106974,39.944467],[-75.105547,39.944474],[-75.1053,39.94475],[-75.103876,39.94506],[-75.106548,39.944661],[-75.106797,39.94466],[-75.106657,39.944935],[-75.106835,39.944934],[-75.106868,39.944605],[-75.107865,39.944407],[-75.109656,39.945249],[-75.109585,39.945332],[-75.1093,39.945333],[-75.108121,39.945147],[-75.108338,39.945448],[-75.107983,39.945642],[-75.108666,39.946242],[-75.108924,39.94712],[-75.110258,39.948787],[-75.110637,39.951229],[-75.111725,39.953255],[-75.111018,39.954],[-75.111057,39.954329],[-75.112283,39.955805],[-75.112634,39.955171],[-75.113061,39.955087],[-75.113562,39.955249],[-75.113565,39.955578],[-75.114384,39.955437],[-75.114611,39.956836],[-75.115605,39.956364],[-75.116248,39.956415]],[[-75.08946,39.96092],[-75.089496,39.960947],[-75.089495,39.960919],[-75.08946,39.96092]],[[-75.097905,39.947452],[-75.097976,39.947424],[-75.097904,39.947424],[-75.097905,39.947452]],[[-75.097976,39.947424],[-75.098047,39.947396],[-75.097976,39.947396],[-75.097976,39.947424]],[[-75.098047,39.947396],[-75.098082,39.947368],[-75.098047,39.947368],[-75.098047,39.947396]],[[-75.098044,39.947094],[-75.09808,39.947121],[-75.09808,39.947094],[-75.098044,39.947094]],[[-75.098115,39.947066],[-75.099361,39.946758],[-75.099432,39.946675],[-75.098257,39.946956],[-75.098115,39.947066]],[[-75.099432,39.946702],[-75.099468,39.94673],[-75.099468,39.946702],[-75.099432,39.946702]],[[-75.099467,39.946647],[-75.09993,39.94659],[-75.100001,39.946507],[-75.099467,39.946647]],[[-75.097475,39.947234],[-75.09751,39.947206],[-75.097474,39.947207],[-75.097475,39.947234]],[[-75.09751,39.947206],[-75.097581,39.947179],[-75.09751,39.947179],[-75.09751,39.947206]],[[-75.097581,39.947179],[-75.097652,39.947151],[-75.097581,39.947151],[-75.097581,39.947179]],[[-75.097652,39.947151],[-75.097723,39.947123],[-75.097652,39.947123],[-75.097652,39.947151]],[[-75.097723,39.947123],[-75.097759,39.947095],[-75.097723,39.947096],[-75.097723,39.947123]],[[-75.097759,39.947095],[-75.097794,39.947068],[-75.097759,39.947068],[-75.097759,39.947095]],[[-75.097758,39.946986],[-75.097687,39.947013],[-75.097758,39.947013],[-75.097758,39.946986]],[[-75.097687,39.947013],[-75.097651,39.947041],[-75.097687,39.947041],[-75.097687,39.947013]],[[-75.099679,39.946399],[-75.099715,39.946426],[-75.099715,39.946399],[-75.099679,39.946399]],[[-75.099357,39.946318],[-75.100674,39.946037],[-75.100781,39.945954],[-75.099819,39.946069],[-75.099926,39.946151],[-75.099357,39.946318]],[[-75.099748,39.946124],[-75.099605,39.946152],[-75.099748,39.946152],[-75.099748,39.946124]],[[-75.099605,39.946152],[-75.099463,39.946181],[-75.099606,39.94618],[-75.099605,39.946152]],[[-75.099463,39.946181],[-75.099356,39.946209],[-75.099463,39.946208],[-75.099463,39.946181]],[[-75.098111,39.946517],[-75.098217,39.946489],[-75.09811,39.94649],[-75.098111,39.946517]],[[-75.098217,39.946489],[-75.098324,39.946461],[-75.098217,39.946462],[-75.098217,39.946489]],[[-75.098324,39.946461],[-75.098431,39.946433],[-75.098324,39.946434],[-75.098324,39.946461]],[[-75.098431,39.946406],[-75.098538,39.946405],[-75.098644,39.946377],[-75.098431,39.946406]],[[-75.098644,39.94635],[-75.098751,39.946349],[-75.098858,39.946321],[-75.098644,39.94635]],[[-75.098858,39.946321],[-75.098965,39.946293],[-75.098858,39.946294],[-75.098858,39.946321]],[[-75.098965,39.946293],[-75.099214,39.946237],[-75.098964,39.946266],[-75.098965,39.946293]],[[-75.099214,39.946237],[-75.099321,39.946209],[-75.099214,39.946209],[-75.099214,39.946237]],[[-75.089662,39.942936],[-75.089914,39.943237],[-75.090092,39.943209],[-75.089662,39.942936]],[[-75.088834,39.94209],[-75.08887,39.942062],[-75.088834,39.942062],[-75.088834,39.94209]],[[-75.084764,39.924787],[-75.084728,39.924814],[-75.084764,39.924814],[-75.084764,39.924787]],[[-75.109104,39.94333],[-75.108997,39.943386],[-75.109069,39.943413],[-75.109104,39.94333]],[[-75.108858,39.943798],[-75.108894,39.94377],[-75.108858,39.943771],[-75.108858,39.943798]],[[-75.104518,39.945029],[-75.104554,39.945056],[-75.104553,39.945029],[-75.104518,39.945029]],[[-75.104625,39.945028],[-75.104589,39.945056],[-75.104625,39.945056],[-75.104625,39.945028]],[[-75.109585,39.945304],[-75.109549,39.945277],[-75.109549,39.945304],[-75.109585,39.945304]],[[-75.115963,39.956472],[-75.115928,39.956609],[-75.115964,39.956609],[-75.115963,39.956472]],[[-75.115928,39.956609],[-75.115893,39.956664],[-75.115929,39.956664],[-75.115928,39.956609]]],[[[-75.097792,39.946848],[-75.097757,39.946876],[-75.097757,39.946848],[-75.097792,39.946848]]],[[[-75.0984,39.946955],[-75.098436,39.946982],[-75.0984,39.946982],[-75.0984,39.946955]]],[[[-75.097504,39.946548],[-75.09754,39.946575],[-75.097505,39.946575],[-75.097504,39.946548]]],[[[-75.09715,39.946797],[-75.097185,39.946769],[-75.097186,39.946796],[-75.09715,39.946797]]],[[[-75.097114,39.946824],[-75.09715,39.946797],[-75.09715,39.946824],[-75.097114,39.946824]]],[[[-75.097043,39.946825],[-75.097079,39.946852],[-75.097043,39.946852],[-75.097043,39.946825]]],[[[-75.09765,39.946904],[-75.097721,39.946876],[-75.097722,39.946903],[-75.09765,39.946904]]],[[[-75.097579,39.946932],[-75.09765,39.946904],[-75.09765,39.946931],[-75.097579,39.946932]]],[[[-75.097508,39.946932],[-75.097579,39.946959],[-75.097508,39.946959],[-75.097508,39.946932]]],[[[-75.097437,39.94696],[-75.097508,39.946987],[-75.097437,39.946987],[-75.097437,39.94696]]],[[[-75.096973,39.94699],[-75.097044,39.946962],[-75.097045,39.946989],[-75.096973,39.94699]]],[[[-75.097401,39.947015],[-75.097437,39.946987],[-75.097437,39.947015],[-75.097401,39.947015]]],[[[-75.096902,39.947017],[-75.096973,39.94699],[-75.096973,39.947017],[-75.096902,39.947017]]],[[[-75.09733,39.947043],[-75.097401,39.947015],[-75.097402,39.947042],[-75.09733,39.947043]]],[[[-75.096867,39.947045],[-75.096902,39.947017],[-75.096902,39.947045],[-75.096867,39.947045]]],[[[-75.097259,39.947071],[-75.09733,39.947043],[-75.097331,39.94707],[-75.097259,39.947071]]],[[[-75.097224,39.947098],[-75.097259,39.947071],[-75.09726,39.947098],[-75.097224,39.947098]]],[[[-75.097153,39.947099],[-75.097224,39.947126],[-75.097153,39.947126],[-75.097153,39.947099]]],[[[-75.097081,39.947126],[-75.097153,39.947153],[-75.097082,39.947154],[-75.097081,39.947126]]],[[[-75.096833,39.947265],[-75.096904,39.947237],[-75.096904,39.947265],[-75.096833,39.947265]]],[[[-75.096798,39.947293],[-75.096833,39.947265],[-75.096833,39.947292],[-75.096798,39.947293]]],[[[-75.09694,39.947264],[-75.097012,39.947319],[-75.096905,39.947319],[-75.09694,39.947264]]],[[[-75.096726,39.947293],[-75.096762,39.94732],[-75.096726,39.94732],[-75.096726,39.947293]]],[[[-75.097475,39.947316],[-75.097511,39.947344],[-75.097476,39.947344],[-75.097475,39.947316]]],[[[-75.096905,39.947319],[-75.096834,39.947347],[-75.096833,39.94732],[-75.096905,39.947319]]],[[[-75.09687,39.947457],[-75.097012,39.947319],[-75.097119,39.947346],[-75.09687,39.947457]]],[[[-75.096763,39.947375],[-75.096834,39.947402],[-75.096763,39.94743],[-75.096763,39.947375]]],[[[-75.097156,39.947483],[-75.097191,39.947455],[-75.097192,39.947483],[-75.097156,39.947483]]],[[[-75.096799,39.947485],[-75.09687,39.947457],[-75.096871,39.947484],[-75.096799,39.947485]]],[[[-75.097013,39.947484],[-75.096658,39.947678],[-75.096551,39.947678],[-75.097155,39.947373],[-75.097262,39.947427],[-75.097013,39.947484]]],[[[-75.096693,39.947568],[-75.096728,39.947485],[-75.096799,39.947485],[-75.096693,39.947568]]],[[[-75.097335,39.947537],[-75.096907,39.947621],[-75.09737,39.947454],[-75.097335,39.947537]]],[[[-75.096765,39.94765],[-75.09673,39.947677],[-75.096729,39.94765],[-75.096765,39.94765]]],[[[-75.096658,39.947678],[-75.09673,39.947732],[-75.096659,39.947732],[-75.096658,39.947678]]],[[[-75.097406,39.947509],[-75.0978,39.947699],[-75.096738,39.948611],[-75.096593,39.948337],[-75.096874,39.947896],[-75.096624,39.947842],[-75.097406,39.947509]],[[-75.096628,39.948337],[-75.096664,39.948364],[-75.096664,39.948336],[-75.096628,39.948337]],[[-75.097443,39.947674],[-75.097229,39.947702],[-75.097158,39.947785],[-75.097443,39.947674]],[[-75.097159,39.947812],[-75.097016,39.94784],[-75.097017,39.947868],[-75.097159,39.947812]]],[[[-75.096558,39.948419],[-75.096593,39.948392],[-75.096593,39.948419],[-75.096558,39.948419]]],[[[-75.096629,39.948474],[-75.096666,39.948529],[-75.09663,39.948529],[-75.096629,39.948474]]],[[[-75.096594,39.948529],[-75.09663,39.948556],[-75.096594,39.948556],[-75.096594,39.948529]]],[[[-75.096774,39.948693],[-75.096809,39.948638],[-75.09681,39.948693],[-75.096774,39.948693]]],[[[-75.096703,39.948748],[-75.096774,39.948693],[-75.096775,39.948775],[-75.096703,39.948748]]],[[[-75.095777,39.903619],[-75.095741,39.903592],[-75.095777,39.903591],[-75.095777,39.903619]]],[[[-75.09355,39.90989],[-75.09387,39.909888],[-75.093946,39.910354],[-75.093593,39.91085],[-75.093306,39.910605],[-75.09355,39.90989]],[[-75.093377,39.910604],[-75.093413,39.910549],[-75.093377,39.910549],[-75.093377,39.910604]]],[[[-75.096042,39.913677],[-75.096032,39.913666],[-75.096042,39.913666],[-75.096042,39.913677]]],[[[-75.096078,39.913717],[-75.096057,39.913693],[-75.096078,39.913693],[-75.096078,39.913717]]],[[[-75.096258,39.913884],[-75.096244,39.913898],[-75.096156,39.913802],[-75.096258,39.913884]]],[[[-75.091506,39.921046],[-75.0912,39.921158],[-75.091422,39.921065],[-75.091506,39.921046]]],[[[-75.091187,39.921164],[-75.091151,39.921185],[-75.091151,39.921181],[-75.091187,39.921164]]],[[[-75.091187,39.921213],[-75.091222,39.921185],[-75.091223,39.921213],[-75.091187,39.921213]]],[[[-75.091224,39.921322],[-75.091259,39.92135],[-75.091224,39.92135],[-75.091224,39.921322]]],[[[-75.091259,39.92135],[-75.091295,39.921377],[-75.09126,39.921377],[-75.091259,39.92135]]],[[[-75.093224,39.921724],[-75.093043,39.921478],[-75.093292,39.921394],[-75.093688,39.921777],[-75.093224,39.921724]]],[[[-75.091013,39.921708],[-75.090977,39.921708],[-75.090977,39.921681],[-75.091013,39.92168],[-75.091013,39.921708]]],[[[-75.093581,39.921832],[-75.093617,39.921804],[-75.093617,39.921832],[-75.093581,39.921832]]],[[[-75.093048,39.922054],[-75.092728,39.922111],[-75.092764,39.922166],[-75.092872,39.92222],[-75.092801,39.922303],[-75.09291,39.922549],[-75.092733,39.922742],[-75.091658,39.922089],[-75.091194,39.922036],[-75.091051,39.921955],[-75.090835,39.921764],[-75.090834,39.921626],[-75.090869,39.921544],[-75.090975,39.921461],[-75.09126,39.921432],[-75.091507,39.921156],[-75.09222,39.921125],[-75.092224,39.921592],[-75.09194,39.921758],[-75.091618,39.921595],[-75.091513,39.921788],[-75.092335,39.922058],[-75.092191,39.921867],[-75.092406,39.921948],[-75.092403,39.921673],[-75.092723,39.921534],[-75.093152,39.921724],[-75.093048,39.922054]],[[-75.092801,39.922275],[-75.092765,39.922248],[-75.092765,39.922275],[-75.092801,39.922275]],[[-75.09273,39.922303],[-75.092657,39.922194],[-75.092658,39.922276],[-75.09273,39.922303]],[[-75.092657,39.922194],[-75.092621,39.922166],[-75.092622,39.922194],[-75.092657,39.922194]],[[-75.09255,39.922167],[-75.092585,39.922112],[-75.092514,39.922112],[-75.09255,39.922167]],[[-75.092514,39.922112],[-75.092478,39.922085],[-75.092478,39.922112],[-75.092514,39.922112]],[[-75.092478,39.922085],[-75.092442,39.922057],[-75.092442,39.922085],[-75.092478,39.922085]],[[-75.091765,39.922116],[-75.091837,39.922198],[-75.092015,39.922169],[-75.091765,39.922116]],[[-75.091944,39.922197],[-75.091909,39.922225],[-75.091944,39.922225],[-75.091944,39.922197]],[[-75.091301,39.922008],[-75.091265,39.921981],[-75.091265,39.922009],[-75.091301,39.922008]],[[-75.091194,39.921981],[-75.091229,39.921926],[-75.091157,39.921927],[-75.091194,39.921981]],[[-75.091157,39.921927],[-75.091122,39.921899],[-75.091122,39.921927],[-75.091157,39.921927]],[[-75.090906,39.921763],[-75.090942,39.921736],[-75.090906,39.921736],[-75.090906,39.921763]],[[-75.091013,39.921735],[-75.091048,39.921653],[-75.090941,39.921653],[-75.090942,39.921736],[-75.091013,39.921735]],[[-75.090906,39.921736],[-75.09087,39.921709],[-75.090871,39.921736],[-75.090906,39.921736]],[[-75.090905,39.921544],[-75.090976,39.921571],[-75.090976,39.921543],[-75.090905,39.921544]],[[-75.09126,39.921432],[-75.091296,39.921459],[-75.091296,39.921432],[-75.09126,39.921432]],[[-75.091367,39.921377],[-75.091404,39.921514],[-75.09151,39.921486],[-75.091367,39.921377]],[[-75.091402,39.921321],[-75.091438,39.921349],[-75.091438,39.921321],[-75.091402,39.921321]],[[-75.091833,39.921649],[-75.091868,39.921566],[-75.091796,39.921594],[-75.091833,39.921649]],[[-75.091547,39.921623],[-75.09144,39.921568],[-75.091404,39.921623],[-75.091547,39.921623]],[[-75.092121,39.922059],[-75.092086,39.922087],[-75.092122,39.922087],[-75.092121,39.922059]],[[-75.092371,39.92203],[-75.092407,39.922058],[-75.092406,39.92203],[-75.092371,39.92203]],[[-75.093081,39.921725],[-75.093046,39.921752],[-75.093081,39.921752],[-75.093081,39.921725]]],[[[-75.092764,39.922138],[-75.092799,39.92211],[-75.092799,39.922138],[-75.092764,39.922138]]],[[[-75.092837,39.922302],[-75.092872,39.922275],[-75.092872,39.922302],[-75.092837,39.922302]]],[[[-75.09141,39.92231],[-75.091482,39.922337],[-75.091411,39.922337],[-75.09141,39.92231]]],[[[-75.091874,39.922335],[-75.09191,39.922362],[-75.091874,39.922362],[-75.091874,39.922335]]],[[[-75.091375,39.922365],[-75.091411,39.922337],[-75.091411,39.922365],[-75.091375,39.922365]]],[[[-75.092017,39.922362],[-75.09209,39.922526],[-75.091982,39.922389],[-75.09191,39.922417],[-75.09191,39.922362],[-75.092017,39.922362]]],[[[-75.092126,39.922608],[-75.092234,39.922745],[-75.092163,39.922745],[-75.092055,39.922691],[-75.091804,39.922472],[-75.091625,39.922446],[-75.091517,39.922309],[-75.092126,39.922608]]],[[[-75.09202,39.922691],[-75.091949,39.922746],[-75.091949,39.922691],[-75.09202,39.922691]]],[[[-75.09227,39.922772],[-75.092234,39.922745],[-75.09227,39.922745],[-75.09227,39.922772]]],[[[-75.084763,39.924705],[-75.084799,39.924732],[-75.084763,39.924732],[-75.084763,39.924705]]],[[[-75.086002,39.931974],[-75.085966,39.932001],[-75.085966,39.931974],[-75.086002,39.931974]]],[[[-75.094401,39.938327],[-75.094366,39.938355],[-75.094366,39.938328],[-75.094401,39.938327]]],[[[-75.096515,39.947651],[-75.09655,39.947568],[-75.096622,39.947568],[-75.096515,39.947651]]],[[[-75.096373,39.947679],[-75.096444,39.947651],[-75.096444,39.947679],[-75.096373,39.947679]]],[[[-75.096302,39.947707],[-75.096373,39.947679],[-75.096373,39.947707],[-75.096302,39.947707]]],[[[-75.09623,39.947707],[-75.096267,39.947762],[-75.096195,39.947762],[-75.09623,39.947707]]],[[[-75.096124,39.947763],[-75.096195,39.94779],[-75.096124,39.94779],[-75.096124,39.947763]]],[[[-75.096053,39.947818],[-75.096124,39.94779],[-75.096124,39.947818],[-75.096053,39.947818]]],[[[-75.096018,39.947846],[-75.096053,39.947818],[-75.096053,39.947845],[-75.096018,39.947846]]],[[[-75.095875,39.947901],[-75.095911,39.947874],[-75.095911,39.947901],[-75.095875,39.947901]]],[[[-75.086373,39.954593],[-75.085297,39.953858],[-75.086046,39.953854],[-75.086547,39.954126],[-75.086373,39.954593]]],[[[-75.084664,39.964705],[-75.084676,39.964705],[-75.084676,39.96472],[-75.084664,39.964705]]]]}}]}