{"type":"FeatureCollection","features":[{"type":"Feature","properties":{"level_ft":10},"geometry":{"type":"MultiPolygon","coordinates":[[[[-75.110022,39.899097],[-75.110031,39.899093],[-75.110031,39.899097],[-75.110022,39.899097]]],[[[-75.110031,39.899125],[-75.110067,39.899097],[-75.110067,39.899124],[-75.110031,39.899125]]],[[[-75.110176,39.899316],[-75.110211,39.899343],[-75.110176,39.899343],[-75.110176,39.899316]]],[[[-75.110428,39.899672],[-75.110212,39.899398],[-75.110247,39.899288],[-75.110067,39.899097],[-75.110351,39.898973],[-75.111431,39.900243],[-75.110932,39.900191],[-75.110499,39.899616],[-75.110428,39.899672]],[[-75.110356,39.899535],[-75.110391,39.899507],[-75.110355,39.899507],[-75.110356,39.899535]],[[-75.110391,39.899535],[-75.110427,39.899562],[-75.110427,39.899534],[-75.110391,39.899535]],[[-75.11032,39.89948],[-75.110355,39.899452],[-75.110319,39.899453],[-75.11032,39.89948]],[[-75.110463,39.899617],[-75.110427,39.899589],[-75.110428,39.899617],[-75.110463,39.899617]]],[[[-75.110464,39.899671],[-75.1105,39.899699],[-75.110464,39.899699],[-75.110464,39.899671]]],[[[-75.112253,39.900458],[-75.111212,39.899585],[-75.111351,39.8992],[-75.112138,39.899525],[-75.112715,39.900291],[-75.112253,39.900458]]],[[[-75.115588,39.902637],[-75.113112,39.900893],[-75.112397,39.900567],[-75.112822,39.90029],[-75.112817,39.899741],[-75.112386,39.899359],[-75.11167,39.899034],[-75.110888,39.899312],[-75.110528,39.898905],[-75.111838,39.898569],[-75.113166,39.899305],[-75.113874,39.901102],[-75.11643,39.902191],[-75.11655,39.902879],[-75.115588,39.902637]]],[[[-75.113733,39.902509],[-75.109479,39.901214],[-75.109474,39.90061],[-75.110256,39.900304],[-75.110474,39.90077],[-75.110688,39.900796],[-75.110542,39.900495],[-75.110649,39.900439],[-75.111442,39.901451],[-75.113733,39.902509]]],[[[-75.115267,39.902666],[-75.114017,39.902371],[-75.113442,39.901825],[-75.113227,39.901771],[-75.113694,39.902208],[-75.113337,39.9021],[-75.112406,39.901583],[-75.111147,39.900354],[-75.111683,39.900461],[-75.112511,39.901445],[-75.112004,39.900542],[-75.112899,39.900894],[-75.115267,39.902666]],[[-75.113336,39.90199],[-75.113265,39.902018],[-75.113336,39.902017],[-75.113336,39.90199]],[[-75.112547,39.901445],[-75.112583,39.901472],[-75.112583,39.901445],[-75.112547,39.901445]]],[[[-75.113733,39.902509],[-75.113804,39.902536],[-75.113733,39.902537],[-75.113733,39.902509]]],[[[-75.112734,39.90246],[-75.113126,39.902458],[-75.113735,39.902702],[-75.113485,39.902703],[-75.112734,39.90246]]],[[[-75.115267,39.902666],[-75.115339,39.902693],[-75.115267,39.902693],[-75.115267,39.902666]]],[[[-75.115344,39.903352],[-75.114201,39.903001],[-75.11402,39.902727],[-75.116513,39.903126],[-75.116449,39.903401],[-75.116165,39.903402],[-75.116307,39.903319],[-75.115344,39.903352]]],[[[-75.115843,39.903349],[-75.116129,39.903375],[-75.115844,39.903377],[-75.115843,39.903349]]],[[[-75.115299,39.910243],[-75.115335,39.91027],[-75.115299,39.910271],[-75.115299,39.910243]]],[[[-75.117386,39.916354],[-75.117422,39.916381],[-75.117386,39.916382],[-75.117386,39.916354]]],[[[-75.117388,39.916629],[-75.117353,39.916656],[-75.117353,39.916629],[-75.117388,39.916629]]],[[[-75.117389,39.916711],[-75.117354,39.916766],[-75.117354,39.916711],[-75.117389,39.916711]]],[[[-75.123596,39.936664],[-75.122845,39.936449],[-75.122597,39.936697],[-75.122237,39.936287],[-75.122341,39.93593],[-75.121839,39.93563],[-75.122159,39.935491],[-75.122048,39.93508],[-75.121726,39.935],[-75.121863,39.93434],[-75.121648,39.934204],[-75.121932,39.934147],[-75.121752,39.933956],[-75.121929,39.933763],[-75.121534,39.933491],[-75.121783,39.933434],[-75.121816,39.933105],[-75.121315,39.93297],[-75.121385,39.932723],[-75.120561,39.932315],[-75.120809,39.932149],[-75.120553,39.931519],[-75.120731,39.931381],[-75.120225,39.930725],[-75.120581,39.930641],[-75.119154,39.930511],[-75.119294,39.930263],[-75.118118,39.930297],[-75.11865,39.929992],[-75.118077,39.929748],[-75.117579,39.929943],[-75.117541,39.929668],[-75.116508,39.929756],[-75.11644,39.930141],[-75.117155,39.930302],[-75.116407,39.930443],[-75.116198,39.930938],[-75.115728,39.930282],[-75.115409,39.930531],[-75.11498,39.930368],[-75.11495,39.930973],[-75.11563,39.931243],[-75.114455,39.931469],[-75.114353,39.932019],[-75.11332,39.932189],[-75.11304,39.932712],[-75.112788,39.932439],[-75.112575,39.932632],[-75.112827,39.932878],[-75.112115,39.933047],[-75.111976,39.933404],[-75.112191,39.933568],[-75.111765,39.933762],[-75.112605,39.931918],[-75.115614,39.929486],[-75.115116,39.929626],[-75.115501,39.928828],[-75.115855,39.928497],[-75.116141,39.928578],[-75.116731,39.918828],[-75.116608,39.9171],[-75.117,39.917015],[-75.116892,39.916878],[-75.117285,39.917014],[-75.117282,39.916657],[-75.117392,39.917013],[-75.117488,39.915805],[-75.118093,39.915637],[-75.118095,39.915911],[-75.118736,39.915853],[-75.118376,39.91547],[-75.118768,39.915358],[-75.11855,39.915003],[-75.118905,39.914809],[-75.118364,39.914098],[-75.118574,39.913712],[-75.118217,39.913659],[-75.118079,39.914127],[-75.117718,39.913607],[-75.117476,39.914459],[-75.1173,39.91468],[-75.117325,39.913554],[-75.117076,39.913638],[-75.117217,39.91339],[-75.116683,39.913448],[-75.116142,39.912847],[-75.116349,39.912022],[-75.115512,39.910132],[-75.115227,39.910161],[-75.115196,39.910683],[-75.11456,39.911318],[-75.114353,39.91206],[-75.115171,39.911836],[-75.11564,39.912465],[-75.115434,39.913345],[-75.115844,39.915319],[-75.115597,39.915622],[-75.115347,39.915569],[-75.115344,39.915212],[-75.114987,39.915214],[-75.114848,39.915599],[-75.113957,39.915686],[-75.113421,39.915497],[-75.113455,39.915304],[-75.112528,39.915309],[-75.112418,39.914953],[-75.111849,39.915176],[-75.110315,39.914991],[-75.108997,39.915218],[-75.109067,39.915025],[-75.108567,39.914946],[-75.10843,39.915523],[-75.108073,39.915497],[-75.108005,39.915855],[-75.107577,39.915884],[-75.107148,39.915694],[-75.107324,39.915419],[-75.107034,39.914926],[-75.107029,39.914377],[-75.10742,39.914183],[-75.106242,39.914052],[-75.106169,39.913833],[-75.107022,39.913609],[-75.106767,39.912924],[-75.107198,39.913306],[-75.107338,39.91303],[-75.107624,39.913056],[-75.107475,39.912371],[-75.107906,39.91278],[-75.10758,39.912178],[-75.10715,39.911878],[-75.103332,39.911569],[-75.10287,39.911681],[-75.101739,39.912813],[-75.101778,39.913224],[-75.102135,39.91325],[-75.101855,39.9138],[-75.102606,39.914098],[-75.104531,39.914116],[-75.104966,39.914965],[-75.104933,39.915212],[-75.104186,39.915463],[-75.104046,39.915711],[-75.104192,39.916094],[-75.104585,39.916229],[-75.103876,39.916617],[-75.103162,39.916539],[-75.101445,39.915916],[-75.10076,39.915069],[-75.100705,39.915453],[-75.099865,39.913659],[-75.099497,39.913857],[-75.098545,39.91379],[-75.098005,39.914078],[-75.097647,39.913585],[-75.097222,39.913508],[-75.096244,39.913898],[-75.095825,39.913255],[-75.094961,39.912353],[-75.09614,39.912649],[-75.096636,39.912317],[-75.09606,39.911579],[-75.096236,39.911386],[-75.095167,39.911364],[-75.094912,39.910734],[-75.095088,39.910513],[-75.095338,39.910622],[-75.096008,39.909767],[-75.096896,39.909406],[-75.097106,39.908856],[-75.096747,39.90861],[-75.097411,39.907987],[-75.097334,39.907811],[-75.097991,39.908192],[-75.098311,39.908136],[-75.098379,39.907751],[-75.099129,39.907884],[-75.099203,39.908158],[-75.099949,39.90788],[-75.100165,39.908181],[-75.100915,39.908259],[-75.100668,39.908535],[-75.10113,39.908451],[-75.10199,39.908858],[-75.102273,39.908692],[-75.10427,39.908681],[-75.105524,39.909498],[-75.106275,39.909687],[-75.106773,39.909602],[-75.106877,39.909272],[-75.107375,39.909104],[-75.10691,39.908942],[-75.107122,39.908721],[-75.106975,39.908228],[-75.106361,39.90738],[-75.106077,39.907464],[-75.105646,39.907054],[-75.105075,39.90703],[-75.104894,39.906674],[-75.104969,39.907168],[-75.103507,39.907093],[-75.103333,39.907588],[-75.103082,39.90737],[-75.102226,39.907347],[-75.102156,39.907484],[-75.102835,39.907673],[-75.101695,39.907816],[-75.099911,39.907633],[-75.099838,39.907441],[-75.099303,39.907362],[-75.098978,39.906869],[-75.099514,39.907086],[-75.099584,39.906949],[-75.098975,39.906595],[-75.099008,39.90632],[-75.098688,39.906322],[-75.098689,39.906514],[-75.098332,39.906378],[-75.09804,39.905584],[-75.097864,39.905942],[-75.097635,39.904103],[-75.097387,39.904324],[-75.097063,39.903997],[-75.097419,39.903857],[-75.096884,39.90386],[-75.097488,39.903583],[-75.097377,39.903226],[-75.097557,39.903363],[-75.097693,39.902675],[-75.097021,39.903173],[-75.096877,39.903064],[-75.096983,39.903009],[-75.096946,39.902817],[-75.097016,39.902624],[-75.095807,39.903042],[-75.095918,39.903426],[-75.096273,39.903314],[-75.096203,39.903424],[-75.096132,39.90348],[-75.096096,39.90348],[-75.096133,39.903535],[-75.096097,39.903535],[-75.096098,39.903617],[-75.096062,39.903645],[-75.096205,39.903726],[-75.096205,39.903644],[-75.096311,39.903616],[-75.096312,39.903643],[-75.096276,39.903644],[-75.096276,39.903671],[-75.096312,39.903726],[-75.096242,39.903809],[-75.096349,39.903863],[-75.096069,39.904386],[-75.095855,39.904371],[-75.095816,39.90403],[-75.095887,39.903948],[-75.095709,39.904026],[-75.094606,39.901418],[-75.096077,39.901201],[-75.098644,39.901353],[-75.098683,39.901655],[-75.101105,39.901477],[-75.100853,39.901204],[-75.099176,39.900993],[-75.098393,39.901107],[-75.097925,39.900588],[-75.098672,39.900419],[-75.098207,39.900257],[-75.097639,39.900479],[-75.0975,39.900947],[-75.096241,39.900898],[-75.099414,39.89929],[-75.099624,39.899248],[-75.099028,39.900362],[-75.099029,39.900527],[-75.099172,39.900581],[-75.099909,39.899232],[-75.101146,39.898882],[-75.102116,39.899107],[-75.102917,39.899882],[-75.104793,39.900527],[-75.107941,39.900238],[-75.109782,39.8992],[-75.110183,39.90014],[-75.108937,39.900283],[-75.107835,39.900728],[-75.107802,39.900948],[-75.10894,39.900723],[-75.108979,39.901079],[-75.108232,39.901193],[-75.112733,39.902268],[-75.110734,39.902004],[-75.109775,39.902338],[-75.110593,39.902224],[-75.111279,39.903181],[-75.110985,39.902222],[-75.111878,39.902382],[-75.111884,39.903096],[-75.113146,39.904654],[-75.112349,39.903176],[-75.112415,39.902654],[-75.113594,39.902977],[-75.113603,39.903965],[-75.113774,39.903113],[-75.115345,39.903434],[-75.116437,39.903456],[-75.11488,39.9054],[-75.114715,39.906125],[-75.117488,39.90849],[-75.119954,39.908571],[-75.121403,39.907762],[-75.122836,39.907428],[-75.129344,39.907381],[-75.129091,39.911608],[-75.12984,39.915359],[-75.135874,39.927639],[-75.136621,39.93037],[-75.136805,39.937021],[-75.136556,39.941533],[-75.135631,39.947459],[-75.134194,39.952774],[-75.124119,39.951075],[-75.122295,39.95059],[-75.122399,39.95026],[-75.122686,39.950423],[-75.123183,39.950174],[-75.123072,39.94968],[-75.122643,39.949627],[-75.122605,39.949381],[-75.123531,39.949156],[-75.123632,39.948524],[-75.124274,39.948548],[-75.124415,39.9483],[-75.124517,39.947778],[-75.124266,39.947642],[-75.12448,39.947641],[-75.123694,39.947453],[-75.124621,39.947475],[-75.124727,39.94731],[-75.124616,39.946899],[-75.123974,39.946875],[-75.124005,39.946381],[-75.123583,39.947097],[-75.123369,39.947043],[-75.123433,39.946274],[-75.123004,39.946139],[-75.123038,39.945974],[-75.123644,39.945943],[-75.12396,39.945338],[-75.124071,39.945776],[-75.125176,39.945688],[-75.125495,39.945467],[-75.126102,39.945546],[-75.125422,39.945357],[-75.125384,39.945055],[-75.124633,39.944895],[-75.125272,39.944534],[-75.124415,39.944402],[-75.124197,39.943991],[-75.123732,39.943856],[-75.123724,39.94295],[-75.123403,39.942952],[-75.123264,39.943392],[-75.122765,39.943422],[-75.122405,39.942985],[-75.122157,39.943233],[-75.121658,39.943236],[-75.121548,39.942907],[-75.120083,39.942668],[-75.120296,39.94253],[-75.120152,39.942366],[-75.120544,39.942309],[-75.12072,39.942006],[-75.119861,39.941763],[-75.119788,39.941516],[-75.120287,39.941486],[-75.120178,39.941295],[-75.120497,39.941018],[-75.119853,39.940885],[-75.120027,39.940362],[-75.119705,39.940254],[-75.119666,39.93987],[-75.121235,39.939834],[-75.122797,39.939002],[-75.122402,39.93873],[-75.122864,39.938617],[-75.122648,39.938344],[-75.12293,39.937931],[-75.123286,39.937901],[-75.123138,39.937298],[-75.123565,39.937159],[-75.12292,39.93686],[-75.123596,39.936664]],[[-75.120808,39.932067],[-75.120843,39.932039],[-75.120808,39.932039],[-75.120808,39.932067]],[[-75.116683,39.917511],[-75.116719,39.917538],[-75.116719,39.917511],[-75.116683,39.917511]],[[-75.116719,39.917511],[-75.116754,39.917456],[-75.116719,39.917456],[-75.116719,39.917511]],[[-75.117596,39.915886],[-75.11756,39.915914],[-75.117596,39.915914],[-75.117596,39.915886]],[[-75.117404,39.914405],[-75.117368,39.91435],[-75.117369,39.914405],[-75.117404,39.914405]],[[-75.117404,39.91435],[-75.117439,39.914322],[-75.117403,39.914322],[-75.117404,39.91435]],[[-75.101778,39.913224],[-75.101743,39.913252],[-75.101778,39.913252],[-75.101778,39.913224]],[[-75.096186,39.913775],[-75.096222,39.913802],[-75.096221,39.913774],[-75.096186,39.913775]],[[-75.096236,39.911386],[-75.096272,39.911358],[-75.096236,39.911358],[-75.096236,39.911386]],[[-75.096982,39.902871],[-75.097018,39.902844],[-75.096982,39.902844],[-75.096982,39.902871]],[[-75.097016,39.902624],[-75.097051,39.902596],[-75.097016,39.902597],[-75.097016,39.902624]],[[-75.096062,39.903645],[-75.095992,39.903728],[-75.096027,39.903727],[-75.096062,39.903645]],[[-75.095992,39.903728],[-75.095956,39.903755],[-75.095992,39.903755],[-75.095992,39.903728]],[[-75.095956,39.903755],[-75.095921,39.903783],[-75.095956,39.903783],[-75.095956,39.903755]],[[-75.095921,39.903783],[-75.095886,39.903838],[-75.095921,39.903838],[-75.095921,39.903783]],[[-75.096277,39.903726],[-75.096241,39.903699],[-75.096241,39.903726],[-75.096277,39.903726]],[[-75.096242,39.903781],[-75.096206,39.903754],[-75.096206,39.903781],[-75.096242,39.903781]],[[-75.096068,39.904331],[-75.096032,39.904304],[-75.096032,39.904331],[-75.096068,39.904331]],[[-75.09589,39.904332],[-75.095854,39.904305],[-75.095854,39.904332],[-75.09589,39.904332]],[[-75.095887,39.903975],[-75.095923,39.904002],[-75.095922,39.903975],[-75.095887,39.903975]],[[-75.095922,39.903975],[-75.095958,39.903947],[-75.095922,39.903947],[-75.095922,39.903975]],[[-75.099172,39.900581],[-75.099137,39.900609],[-75.099173,39.900609],[-75.099172,39.900581]],[[-75.123596,39.936664],[-75.123632,39.936691],[-75.123631,39.936664],[-75.123596,39.936664]]],[[[-75.1158,39.926411],[-75.115554,39.926769],[-75.115554,39.926796],[-75.115519,39.926797],[-75.115519,39.926824],[-75.115483,39.926824],[-75.115483,39.926852],[-75.115448,39.926852],[-75.115449,39.926962],[-75.115306,39.92699],[-75.115378,39.927044],[-75.115165,39.927128],[-75.115165,39.927183],[-75.114741,39.927542],[-75.114741,39.927597],[-75.113821,39.928398],[-75.113822,39.928453],[-75.113432,39.928729],[-75.113009,39.929253],[-75.111628,39.930414],[-75.111382,39.930827],[-75.111275,39.930827],[-75.110612,39.932396],[-75.110772,39.934399],[-75.110416,39.934428],[-75.109046,39.932788],[-75.106824,39.931509],[-75.107288,39.931617],[-75.107179,39.931343],[-75.10814,39.931118],[-75.107568,39.930984],[-75.109275,39.930481],[-75.109309,39.930234],[-75.108987,39.930098],[-75.109517,39.929601],[-75.110445,39.929679],[-75.109908,39.929462],[-75.110404,39.929047],[-75.109831,39.928803],[-75.110112,39.928335],[-75.109575,39.928063],[-75.109893,39.927732],[-75.110178,39.927758],[-75.10996,39.927265],[-75.110243,39.926989],[-75.109848,39.926662],[-75.110094,39.926304],[-75.109878,39.92603],[-75.110303,39.925753],[-75.109909,39.925481],[-75.110688,39.924955],[-75.111046,39.925091],[-75.110829,39.92479],[-75.111327,39.924567],[-75.111112,39.924514],[-75.110998,39.923718],[-75.11139,39.923689],[-75.110746,39.92339],[-75.111137,39.923278],[-75.110921,39.923087],[-75.111313,39.92303],[-75.111309,39.922618],[-75.111736,39.922451],[-75.111343,39.922426],[-75.11127,39.922152],[-75.110415,39.922266],[-75.110338,39.92169],[-75.109911,39.921692],[-75.109944,39.921418],[-75.109513,39.92109],[-75.109122,39.921175],[-75.109402,39.920679],[-75.108727,39.920902],[-75.108695,39.921314],[-75.108513,39.920876],[-75.107907,39.920879],[-75.107876,39.921428],[-75.107374,39.921157],[-75.107621,39.920881],[-75.106838,39.921022],[-75.106694,39.920803],[-75.107619,39.920661],[-75.107615,39.920112],[-75.107758,39.920249],[-75.107756,39.920029],[-75.108468,39.919833],[-75.108394,39.919559],[-75.109179,39.919582],[-75.109105,39.919336],[-75.110314,39.918972],[-75.112315,39.919456],[-75.112321,39.920142],[-75.112681,39.920442],[-75.112325,39.920554],[-75.112364,39.920883],[-75.112649,39.920937],[-75.112367,39.92124],[-75.112795,39.921293],[-75.112441,39.921514],[-75.112551,39.921898],[-75.113048,39.921703],[-75.113157,39.921895],[-75.113763,39.921864],[-75.113897,39.920903],[-75.11419,39.921807],[-75.114684,39.921173],[-75.114039,39.920819],[-75.114429,39.920625],[-75.115073,39.920841],[-75.115245,39.920182],[-75.11553,39.920098],[-75.115525,39.919576],[-75.114954,39.919469],[-75.115628,39.919081],[-75.115406,39.918149],[-75.115863,39.917488],[-75.115904,39.918092],[-75.116226,39.918145],[-75.115871,39.918394],[-75.116075,39.921248],[-75.115644,39.924847],[-75.1158,39.926411]],[[-75.109117,39.920681],[-75.109153,39.920653],[-75.109117,39.920653],[-75.109117,39.920681]],[[-75.109153,39.920653],[-75.109223,39.920598],[-75.109152,39.920598],[-75.109153,39.920653]]],[[[-75.11566,39.926686],[-75.115696,39.926713],[-75.11566,39.926713],[-75.11566,39.926686]]],[[[-75.115625,39.926741],[-75.11566,39.926713],[-75.115661,39.926741],[-75.115625,39.926741]]],[[[-75.11559,39.926824],[-75.115554,39.926796],[-75.11559,39.926796],[-75.11559,39.926824]]],[[[-75.115555,39.926851],[-75.115519,39.926879],[-75.115519,39.926851],[-75.115555,39.926851]]],[[[-75.115519,39.926879],[-75.115484,39.926907],[-75.115484,39.926879],[-75.115519,39.926879]]],[[[-75.116161,39.926903],[-75.116127,39.927068],[-75.116126,39.926903],[-75.116161,39.926903]]],[[[-75.115696,39.926741],[-75.115734,39.926988],[-75.115238,39.92732],[-75.115308,39.927127],[-75.115696,39.926741]],[[-75.115308,39.927209],[-75.115344,39.927237],[-75.115344,39.927209],[-75.115308,39.927209]]],[[[-75.115201,39.92721],[-75.115165,39.927183],[-75.115201,39.927183],[-75.115201,39.92721]]],[[[-75.114035,39.928397],[-75.114998,39.928364],[-75.114862,39.929134],[-75.112458,39.931507],[-75.111405,39.93338],[-75.110942,39.93341],[-75.11086,39.932202],[-75.111454,39.930854],[-75.114035,39.928397]],[[-75.114392,39.928422],[-75.114358,39.928587],[-75.114394,39.928587],[-75.114392,39.928422]]],[[[-75.110825,39.932312],[-75.11086,39.932257],[-75.110861,39.932312],[-75.110825,39.932312]]],[[[-75.116197,39.942771],[-75.116233,39.942798],[-75.116197,39.942798],[-75.116197,39.942771]]],[[[-75.11477,39.942779],[-75.116018,39.942744],[-75.116449,39.943017],[-75.114595,39.943164],[-75.11477,39.942779]]],[[[-75.110409,39.945657],[-75.110444,39.945629],[-75.110444,39.945657],[-75.110409,39.945657]]],[[[-75.115728,39.946233],[-75.11451,39.945608],[-75.115261,39.945768],[-75.115728,39.946233]]],[[[-75.11559,39.946755],[-75.115484,39.946865],[-75.115772,39.947111],[-75.114448,39.946624],[-75.114123,39.946241],[-75.113903,39.945501],[-75.114441,39.945855],[-75.114121,39.946022],[-75.114944,39.946292],[-75.115912,39.946781],[-75.115769,39.946809],[-75.11559,39.946755]],[[-75.114551,39.946184],[-75.114516,39.946239],[-75.114551,39.946239],[-75.114551,39.946184]],[[-75.115733,39.946699],[-75.115697,39.946727],[-75.115733,39.946727],[-75.115733,39.946699]],[[-75.11584,39.946754],[-75.115805,39.946781],[-75.11584,39.946781],[-75.11584,39.946754]]],[[[-75.115555,39.94681],[-75.115591,39.946865],[-75.115556,39.946865],[-75.115555,39.94681]]],[[[-75.099696,39.899343],[-75.099732,39.899398],[-75.099697,39.899398],[-75.099696,39.899343]]],[[[-75.0991,39.900499],[-75.099065,39.900527],[-75.099065,39.9005],[-75.0991,39.900499]]],[[[-75.10603,39.914328],[-75.106744,39.914406],[-75.10682,39.914955],[-75.105823,39.915015],[-75.105747,39.914576],[-75.10603,39.914328]]],[[[-75.102447,39.91635],[-75.102483,39.916323],[-75.102483,39.91635],[-75.102447,39.91635]]],[[[-75.109445,39.933555],[-75.109948,39.933991],[-75.109878,39.934102],[-75.109735,39.934102],[-75.109445,39.933555]]],[[[-75.103455,39.933723],[-75.103095,39.933313],[-75.103882,39.933556],[-75.103701,39.9332],[-75.104165,39.933335],[-75.10341,39.932653],[-75.104268,39.932868],[-75.104337,39.932593],[-75.104764,39.932454],[-75.104865,39.931822],[-75.106255,39.931677],[-75.106182,39.93154],[-75.106217,39.93143],[-75.108116,39.932409],[-75.109301,39.933363],[-75.1092,39.934105],[-75.108701,39.934108],[-75.108454,39.934329],[-75.109415,39.934131],[-75.10974,39.934569],[-75.10803,39.93477],[-75.107527,39.934443],[-75.107317,39.934801],[-75.107533,39.93513],[-75.10693,39.935407],[-75.107212,39.935104],[-75.106499,39.935135],[-75.10661,39.935546],[-75.106109,39.935357],[-75.105825,39.935496],[-75.105001,39.935143],[-75.10615,39.936015],[-75.106647,39.935711],[-75.10626,39.936262],[-75.105975,39.936401],[-75.106044,39.936126],[-75.104754,39.935419],[-75.105083,39.936296],[-75.104618,39.936133],[-75.104298,39.936272],[-75.103617,39.935864],[-75.10344,39.936057],[-75.103764,39.93633],[-75.103515,39.936386],[-75.102906,39.936142],[-75.103365,39.935618],[-75.102903,39.935758],[-75.103219,39.935262],[-75.103075,39.935071],[-75.103396,39.935096],[-75.103643,39.934793],[-75.103211,39.934356],[-75.10321,39.934191],[-75.103674,39.934189],[-75.10317,39.933752],[-75.103455,39.933723]],[[-75.10312,39.936086],[-75.103155,39.936059],[-75.103119,39.936059],[-75.10312,39.936086]],[[-75.103155,39.936059],[-75.10319,39.936003],[-75.103155,39.936004],[-75.103155,39.936059]],[[-75.103455,39.933723],[-75.103491,39.933751],[-75.103491,39.933723],[-75.103455,39.933723]],[[-75.103491,39.933751],[-75.103527,39.933778],[-75.103527,39.93375],[-75.103491,39.933751]]],[[[-75.109005,39.944182],[-75.110144,39.943956],[-75.110074,39.944176],[-75.109042,39.944374],[-75.109005,39.944182]]],[[[-75.09893,39.946458],[-75.098859,39.946403],[-75.098894,39.946403],[-75.09893,39.946458]]],[[[-75.098787,39.946431],[-75.098716,39.946459],[-75.098716,39.946432],[-75.098787,39.946431]]],[[[-75.098717,39.946486],[-75.098609,39.94646],[-75.098716,39.946459],[-75.098717,39.946486]]],[[[-75.099074,39.94654],[-75.09911,39.946567],[-75.099074,39.946567],[-75.099074,39.94654]]],[[[-75.098254,39.946599],[-75.098218,39.946571],[-75.098254,39.946571],[-75.098254,39.946599]]],[[[-75.098896,39.946623],[-75.09886,39.946596],[-75.098896,39.946595],[-75.098896,39.946623]]],[[[-75.098183,39.946626],[-75.098111,39.946599],[-75.098183,39.946599],[-75.098183,39.946626]]],[[[-75.098397,39.946653],[-75.098539,39.946597],[-75.098539,39.946625],[-75.098397,39.946653]]],[[[-75.097969,39.946683],[-75.098005,39.946655],[-75.098005,39.946682],[-75.097969,39.946683]]],[[[-75.098575,39.946652],[-75.098504,39.94668],[-75.098504,39.946652],[-75.098575,39.946652]]],[[[-75.098254,39.946654],[-75.098219,39.946709],[-75.098219,39.946654],[-75.098254,39.946654]]],[[[-75.098148,39.946709],[-75.098184,39.946736],[-75.098148,39.946736],[-75.098148,39.946709]]],[[[-75.098112,39.946709],[-75.098077,39.946737],[-75.098077,39.946709],[-75.098112,39.946709]]],[[[-75.097756,39.946711],[-75.097791,39.946738],[-75.097756,39.946739],[-75.097756,39.946711]]],[[[-75.097935,39.946792],[-75.098077,39.946737],[-75.098077,39.946764],[-75.097935,39.946792]]],[[[-75.097899,39.94682],[-75.097935,39.946792],[-75.097935,39.94682],[-75.097899,39.94682]]],[[[-75.122836,39.951191],[-75.122263,39.950975],[-75.134099,39.953052],[-75.132873,39.956031],[-75.131076,39.958545],[-75.129626,39.95992],[-75.124368,39.963202],[-75.122172,39.964298],[-75.119748,39.96171],[-75.118447,39.960723],[-75.115839,39.959328],[-75.110143,39.958016],[-75.107366,39.958114],[-75.106227,39.958401],[-75.104126,39.95944],[-75.099304,39.963276],[-75.096051,39.965546],[-75.088069,39.969382],[-75.083998,39.96383],[-75.084595,39.963635],[-75.084848,39.96399],[-75.085884,39.964122],[-75.087746,39.964964],[-75.088672,39.964767],[-75.08938,39.964105],[-75.088835,39.962982],[-75.089117,39.962541],[-75.08904,39.961883],[-75.089289,39.961826],[-75.089067,39.960867],[-75.088096,39.959993],[-75.088267,39.959141],[-75.087946,39.959088],[-75.08805,39.958813],[-75.087727,39.958513],[-75.087504,39.95758],[-75.087218,39.957444],[-75.087357,39.957004],[-75.086421,39.955993],[-75.085776,39.955667],[-75.087157,39.954507],[-75.087694,39.954697],[-75.087696,39.954916],[-75.088374,39.955023],[-75.088663,39.955405],[-75.089591,39.955428],[-75.08981,39.955976],[-75.090526,39.956275],[-75.090817,39.956959],[-75.091317,39.957094],[-75.092101,39.956898],[-75.092247,39.957309],[-75.091929,39.957695],[-75.092396,39.958104],[-75.092078,39.958408],[-75.09247,39.958351],[-75.092258,39.958654],[-75.092687,39.958679],[-75.092369,39.959093],[-75.092911,39.959804],[-75.092631,39.960492],[-75.093392,39.96186],[-75.094358,39.962212],[-75.096065,39.961545],[-75.096062,39.961215],[-75.096631,39.96102],[-75.096557,39.960664],[-75.096805,39.96047],[-75.096648,39.958851],[-75.096218,39.958606],[-75.096213,39.95803],[-75.09589,39.957784],[-75.096027,39.95718],[-75.096661,39.956243],[-75.097053,39.956186],[-75.096839,39.95616],[-75.096799,39.955666],[-75.097969,39.954864],[-75.097789,39.954618],[-75.098357,39.95434],[-75.098822,39.95453],[-75.099141,39.954281],[-75.099032,39.95398],[-75.099459,39.95395],[-75.09899,39.953239],[-75.099273,39.95299],[-75.098915,39.952855],[-75.099161,39.952497],[-75.098763,39.951757],[-75.098937,39.951317],[-75.09947,39.951122],[-75.099144,39.95052],[-75.099529,39.949667],[-75.098525,39.949041],[-75.098168,39.94907],[-75.098309,39.94885],[-75.097987,39.948769],[-75.097948,39.948385],[-75.097273,39.948663],[-75.097591,39.948277],[-75.096985,39.948335],[-75.096775,39.948803],[-75.096668,39.948776],[-75.096419,39.948942],[-75.096564,39.949188],[-75.096101,39.949245],[-75.096626,39.948117],[-75.096412,39.948091],[-75.096554,39.947953],[-75.096234,39.948092],[-75.096162,39.948064],[-75.097015,39.947676],[-75.096801,39.947677],[-75.096729,39.947622],[-75.096551,39.947706],[-75.096552,39.94776],[-75.096445,39.947734],[-75.096409,39.947789],[-75.096338,39.947789],[-75.096267,39.947844],[-75.096196,39.947845],[-75.096125,39.9479],[-75.096195,39.94779],[-75.095876,39.947929],[-75.095804,39.947902],[-75.096266,39.947707],[-75.096194,39.947598],[-75.096976,39.947264],[-75.097835,39.947672],[-75.097801,39.947864],[-75.098193,39.947807],[-75.098981,39.948187],[-75.097547,39.947398],[-75.097653,39.947233],[-75.097404,39.947317],[-75.097189,39.947208],[-75.097189,39.947153],[-75.098397,39.94668],[-75.098576,39.946734],[-75.099359,39.946511],[-75.099251,39.946429],[-75.099038,39.946485],[-75.098967,39.946568],[-75.09886,39.946568],[-75.098825,39.946623],[-75.098539,39.946597],[-75.099037,39.946457],[-75.098965,39.946348],[-75.098787,39.946376],[-75.098538,39.94646],[-75.098574,39.946515],[-75.098396,39.946543],[-75.098325,39.946516],[-75.098361,39.946598],[-75.098218,39.946544],[-75.09804,39.9466],[-75.098076,39.946682],[-75.098004,39.946627],[-75.097897,39.946628],[-75.09772,39.946684],[-75.097329,39.946878],[-75.097258,39.946878],[-75.097258,39.946906],[-75.097187,39.946906],[-75.097187,39.946934],[-75.097115,39.946934],[-75.09708,39.946989],[-75.096938,39.947045],[-75.096544,39.946855],[-75.096297,39.947213],[-75.095622,39.947436],[-75.095514,39.947354],[-75.094058,39.948048],[-75.095939,39.94705],[-75.094837,39.94744],[-75.095261,39.947026],[-75.09469,39.946946],[-75.094444,39.947414],[-75.094298,39.947031],[-75.093479,39.9472],[-75.093512,39.946815],[-75.095614,39.946557],[-75.096472,39.946827],[-75.09693,39.946084],[-75.096854,39.945618],[-75.09578,39.945184],[-75.096635,39.94496],[-75.096313,39.944852],[-75.096345,39.944522],[-75.093707,39.944673],[-75.093311,39.944263],[-75.092603,39.944788],[-75.092563,39.944377],[-75.091996,39.944736],[-75.090674,39.944551],[-75.090959,39.944412],[-75.090241,39.943949],[-75.090136,39.944169],[-75.089743,39.944062],[-75.089741,39.943869],[-75.089384,39.943844],[-75.088379,39.94308],[-75.089058,39.943214],[-75.088664,39.943051],[-75.088803,39.942639],[-75.088339,39.942586],[-75.088409,39.942394],[-75.088124,39.94245],[-75.087908,39.942177],[-75.088407,39.942147],[-75.088403,39.941707],[-75.087329,39.941191],[-75.086937,39.94133],[-75.087078,39.941028],[-75.085968,39.940539],[-75.085612,39.940651],[-75.085075,39.940406],[-75.085252,39.940213],[-75.085035,39.93994],[-75.085463,39.939855],[-75.085031,39.939423],[-75.089268,39.935738],[-75.089851,39.936182],[-75.090135,39.936064],[-75.090057,39.935156],[-75.089724,39.934693],[-75.088839,39.934353],[-75.087064,39.93482],[-75.08639,39.934661],[-75.086402,39.933262],[-75.086583,39.933233],[-75.085922,39.931765],[-75.087362,39.929346],[-75.087435,39.927986],[-75.087105,39.927059],[-75.086365,39.926725],[-75.084266,39.926782],[-75.084244,39.926547],[-75.084174,39.926773],[-75.084028,39.926301],[-75.083853,39.926739],[-75.083626,39.926701],[-75.08138,39.925993],[-75.084902,39.924284],[-75.084798,39.924567],[-75.085224,39.924428],[-75.085298,39.924674],[-75.086615,39.924476],[-75.086655,39.924915],[-75.087546,39.924938],[-75.08862,39.925344],[-75.089903,39.925337],[-75.090263,39.925747],[-75.091507,39.925247],[-75.091724,39.92563],[-75.092512,39.92601],[-75.092658,39.926394],[-75.094516,39.926796],[-75.094305,39.927154],[-75.093521,39.927268],[-75.093633,39.927844],[-75.093097,39.92771],[-75.092599,39.927849],[-75.09281,39.927491],[-75.092415,39.927137],[-75.091917,39.927331],[-75.091022,39.926951],[-75.090635,39.927475],[-75.0901,39.927505],[-75.089811,39.927095],[-75.089036,39.92817],[-75.089865,39.929154],[-75.089941,39.929757],[-75.089732,39.93028],[-75.088988,39.930943],[-75.088919,39.931135],[-75.089274,39.931023],[-75.089601,39.931681],[-75.090135,39.931596],[-75.0915,39.932769],[-75.09243,39.933012],[-75.092757,39.933696],[-75.093547,39.934433],[-75.094619,39.93462],[-75.094551,39.934977],[-75.094947,39.935415],[-75.094957,39.93654],[-75.095633,39.936399],[-75.095388,39.936922],[-75.094502,39.937641],[-75.092898,39.937704],[-75.093438,39.938277],[-75.092803,39.939022],[-75.093866,39.93833],[-75.094223,39.938328],[-75.09507,39.937336],[-75.096037,39.93777],[-75.096819,39.937491],[-75.099173,39.937507],[-75.099846,39.936899],[-75.10156,39.937192],[-75.101457,39.937632],[-75.102248,39.938314],[-75.102142,39.938535],[-75.102428,39.938533],[-75.102575,39.939081],[-75.102897,39.939135],[-75.10407,39.938772],[-75.103922,39.938114],[-75.104275,39.937727],[-75.104917,39.937669],[-75.105243,39.938244],[-75.105671,39.938269],[-75.105956,39.93824],[-75.105987,39.937691],[-75.107021,39.937686],[-75.106884,39.938345],[-75.107174,39.93881],[-75.107817,39.938917],[-75.107962,39.939218],[-75.107964,39.939493],[-75.107429,39.939495],[-75.107396,39.939715],[-75.108042,39.940206],[-75.107902,39.940481],[-75.108974,39.94075],[-75.109013,39.941162],[-75.109658,39.94146],[-75.109878,39.942118],[-75.109524,39.942477],[-75.1102,39.942226],[-75.11045,39.942335],[-75.110241,39.942885],[-75.10985,39.942969],[-75.109745,39.943272],[-75.110602,39.943377],[-75.109822,39.943903],[-75.108361,39.943993],[-75.107686,39.944326],[-75.105904,39.9445],[-75.105015,39.944834],[-75.108472,39.944432],[-75.108654,39.944897],[-75.109334,39.945168],[-75.112726,39.945507],[-75.112543,39.944959],[-75.11279,39.944711],[-75.112937,39.945149],[-75.113688,39.94542],[-75.114054,39.946406],[-75.110196,39.945768],[-75.110587,39.945656],[-75.110193,39.945466],[-75.109373,39.945498],[-75.108837,39.945391],[-75.108552,39.945447],[-75.108923,39.947065],[-75.110258,39.94876],[-75.110636,39.951201],[-75.111797,39.953309],[-75.111304,39.954108],[-75.11217,39.955229],[-75.113095,39.954922],[-75.113596,39.955029],[-75.113741,39.955385],[-75.114239,39.95519],[-75.115382,39.955322],[-75.115885,39.955703],[-75.116069,39.956389],[-75.117029,39.956027],[-75.118217,39.957201],[-75.118852,39.956456],[-75.119316,39.956399],[-75.118956,39.956099],[-75.119232,39.955082],[-75.120052,39.955022],[-75.119692,39.954612],[-75.120263,39.954609],[-75.120511,39.954416],[-75.120294,39.954142],[-75.120758,39.95414],[-75.120825,39.953728],[-75.122109,39.953666],[-75.121679,39.953476],[-75.122214,39.953391],[-75.12221,39.952979],[-75.122708,39.952839],[-75.122781,39.953003],[-75.12285,39.952811],[-75.122421,39.952649],[-75.12274,39.952482],[-75.12256,39.952236],[-75.123057,39.951986],[-75.122269,39.951634],[-75.12273,39.951274],[-75.122944,39.951355],[-75.122836,39.951191]],[[-75.091175,39.957067],[-75.091139,39.957095],[-75.091175,39.957095],[-75.091175,39.957067]],[[-75.092259,39.958709],[-75.092188,39.958709],[-75.092081,39.958737],[-75.092259,39.958709]],[[-75.096809,39.948638],[-75.096773,39.94861],[-75.096774,39.948638],[-75.096809,39.948638]],[[-75.096774,39.948638],[-75.096738,39.948666],[-75.096774,39.948665],[-75.096774,39.948638]],[[-75.096738,39.948666],[-75.096703,39.948693],[-75.096738,39.948693],[-75.096738,39.948666]],[[-75.096703,39.948776],[-75.096739,39.948748],[-75.096703,39.948748],[-75.096703,39.948776]],[[-75.096278,39.94908],[-75.096313,39.949052],[-75.096278,39.949052],[-75.096278,39.94908]],[[-75.097015,39.947676],[-75.097086,39.947648],[-75.097015,39.947648],[-75.097015,39.947676]],[[-75.097086,39.947648],[-75.097121,39.94762],[-75.097086,39.94762],[-75.097086,39.947648]],[[-75.097121,39.94762],[-75.097157,39.947593],[-75.097121,39.947593],[-75.097121,39.94762]],[[-75.096764,39.947595],[-75.096872,39.947649],[-75.097085,39.947566],[-75.09712,39.94751],[-75.097013,39.947484],[-75.096764,39.947595]],[[-75.09712,39.94751],[-75.097156,39.947483],[-75.09712,39.947483],[-75.09712,39.94751]],[[-75.096337,39.947679],[-75.096728,39.947513],[-75.096834,39.94743],[-75.096727,39.947403],[-75.096478,39.947514],[-75.096337,39.947679]],[[-75.096834,39.94743],[-75.09687,39.947375],[-75.096834,39.947375],[-75.096834,39.94743]],[[-75.097443,39.947646],[-75.097478,39.947591],[-75.097442,39.947591],[-75.097443,39.947646]],[[-75.097443,39.947646],[-75.097372,39.947674],[-75.097443,39.947674],[-75.097443,39.947646]],[[-75.097372,39.947701],[-75.097194,39.94773],[-75.097194,39.947757],[-75.097372,39.947701]],[[-75.097194,39.947757],[-75.097158,39.947785],[-75.097194,39.947785],[-75.097194,39.947757]],[[-75.097159,39.947812],[-75.097052,39.947813],[-75.097052,39.94784],[-75.097159,39.947812]],[[-75.097052,39.94784],[-75.097017,39.947868],[-75.097052,39.947868],[-75.097052,39.94784]],[[-75.097908,39.947891],[-75.097873,39.947946],[-75.097909,39.947946],[-75.097908,39.947891]],[[-75.097905,39.947452],[-75.097976,39.947424],[-75.097904,39.947424],[-75.097905,39.947452]],[[-75.097976,39.947424],[-75.098047,39.947396],[-75.097976,39.947396],[-75.097976,39.947424]],[[-75.098047,39.947396],[-75.098082,39.947368],[-75.098047,39.947368],[-75.098047,39.947396]],[[-75.097902,39.947095],[-75.097725,39.94726],[-75.098009,39.947122],[-75.097902,39.947095]],[[-75.097973,39.947094],[-75.098044,39.947066],[-75.097973,39.947067],[-75.097973,39.947094]],[[-75.098044,39.947094],[-75.09808,39.947121],[-75.09808,39.947094],[-75.098044,39.947094]],[[-75.098044,39.947039],[-75.098151,39.947093],[-75.098186,39.947011],[-75.098044,39.947039]],[[-75.098186,39.946983],[-75.0984,39.94701],[-75.098471,39.946927],[-75.098186,39.946983]],[[-75.098542,39.946872],[-75.098756,39.946898],[-75.098898,39.946815],[-75.098542,39.946872]],[[-75.098898,39.946815],[-75.099005,39.946787],[-75.098898,39.946788],[-75.098898,39.946815]],[[-75.099005,39.946787],[-75.09904,39.946759],[-75.099004,39.94676],[-75.099005,39.946787]],[[-75.09726,39.947208],[-75.097296,39.94718],[-75.09726,39.94718],[-75.09726,39.947208]],[[-75.098469,39.946735],[-75.098291,39.946791],[-75.098469,39.946762],[-75.098469,39.946735]],[[-75.098291,39.946791],[-75.098184,39.946819],[-75.098291,39.946818],[-75.098291,39.946791]],[[-75.098184,39.946819],[-75.098113,39.946846],[-75.098185,39.946846],[-75.098184,39.946819]],[[-75.098114,39.946874],[-75.097793,39.94693],[-75.097758,39.946986],[-75.098114,39.946874]],[[-75.099323,39.946456],[-75.099394,39.946483],[-75.099394,39.946428],[-75.099323,39.946456]],[[-75.099394,39.946401],[-75.099465,39.946455],[-75.099465,39.946373],[-75.099394,39.946401]],[[-75.098467,39.946515],[-75.098431,39.946488],[-75.098432,39.946515],[-75.098467,39.946515]],[[-75.096972,39.94688],[-75.097684,39.946684],[-75.097719,39.946629],[-75.096972,39.94688]],[[-75.096331,39.946965],[-75.096296,39.946993],[-75.096331,39.946993],[-75.096331,39.946965]],[[-75.09555,39.947354],[-75.095585,39.947326],[-75.095549,39.947326],[-75.09555,39.947354]],[[-75.0841,39.926465],[-75.084136,39.926437],[-75.0841,39.926437],[-75.0841,39.926465]],[[-75.084028,39.926301],[-75.084063,39.926245],[-75.084027,39.926246],[-75.084028,39.926301]],[[-75.109013,39.941162],[-75.108978,39.941189],[-75.109014,39.941189],[-75.109013,39.941162]],[[-75.108978,39.941189],[-75.108478,39.94111],[-75.108444,39.941357],[-75.108945,39.941437],[-75.108978,39.941189]],[[-75.105515,39.944859],[-75.105551,39.944886],[-75.105551,39.944859],[-75.105515,39.944859]],[[-75.110338,39.945767],[-75.110374,39.945739],[-75.110338,39.94574],[-75.110338,39.945767]],[[-75.109515,39.945469],[-75.109408,39.945442],[-75.109408,39.94547],[-75.109515,39.945469]],[[-75.120015,39.954803],[-75.12005,39.954775],[-75.120014,39.954775],[-75.120015,39.954803]],[[-75.12274,39.952482],[-75.122776,39.952509],[-75.122776,39.952482],[-75.12274,39.952482]],[[-75.122943,39.951246],[-75.122979,39.951218],[-75.122943,39.951218],[-75.122943,39.951246]]],[[[-75.097828,39.946821],[-75.097864,39.946848],[-75.097828,39.946848],[-75.097828,39.946821]]],[[[-75.097793,39.946876],[-75.097721,39.946849],[-75.097792,39.946848],[-75.097793,39.946876]]],[[[-75.09765,39.946849],[-75.097614,39.946877],[-75.097614,39.946849],[-75.09765,39.946849]]],[[[-75.097721,39.946876],[-75.09765,39.946904],[-75.09765,39.946876],[-75.097721,39.946876]]],[[[-75.097365,39.946905],[-75.097329,39.946878],[-75.097365,39.946878],[-75.097365,39.946905]]],[[[-75.09765,39.946904],[-75.097579,39.946932],[-75.097579,39.946904],[-75.09765,39.946904]]],[[[-75.097294,39.946933],[-75.097258,39.946906],[-75.097294,39.946906],[-75.097294,39.946933]]],[[[-75.097508,39.946959],[-75.097579,39.946959],[-75.09733,39.947043],[-75.097508,39.946959]]],[[[-75.09733,39.947043],[-75.097259,39.947071],[-75.097259,39.947043],[-75.09733,39.947043]]],[[[-75.097117,39.947099],[-75.097259,39.947071],[-75.097082,39.947154],[-75.097117,39.947099]]],[[[-75.097902,39.94715],[-75.097937,39.947122],[-75.097938,39.947149],[-75.097902,39.94715]]],[[[-75.097511,39.947316],[-75.097476,39.947344],[-75.097475,39.947316],[-75.097511,39.947316]]],[[[-75.096912,39.902982],[-75.096948,39.903009],[-75.096912,39.903009],[-75.096912,39.902982]]],[[[-75.096168,39.903507],[-75.096132,39.90348],[-75.096168,39.90348],[-75.096168,39.903507]]],[[[-75.096346,39.903534],[-75.096382,39.903561],[-75.096347,39.903561],[-75.096346,39.903534]]],[[[-75.096382,39.903561],[-75.096418,39.903588],[-75.096383,39.903588],[-75.096382,39.903561]]],[[[-75.096205,39.903617],[-75.096169,39.903644],[-75.096169,39.903617],[-75.096205,39.903617]]],[[[-75.096133,39.903644],[-75.096098,39.903617],[-75.096133,39.903617],[-75.096133,39.903644]]],[[[-75.096348,39.903671],[-75.096312,39.903643],[-75.096347,39.903643],[-75.096348,39.903671]]],[[[-75.09621,39.904303],[-75.096175,39.904276],[-75.09621,39.904275],[-75.09621,39.904303]]],[[[-75.096139,39.904331],[-75.096175,39.904303],[-75.096175,39.904331],[-75.096139,39.904331]]],[[[-75.096081,39.91372],[-75.096114,39.913748],[-75.096106,39.913748],[-75.096081,39.91372]]],[[[-75.097116,39.947016],[-75.09708,39.946989],[-75.097116,39.946989],[-75.097116,39.947016]]],[[[-75.096833,39.947265],[-75.096904,39.947237],[-75.096904,39.947265],[-75.096833,39.947265]]],[[[-75.096297,39.947213],[-75.096689,39.947156],[-75.096049,39.947406],[-75.096297,39.947213]]],[[[-75.096762,39.947293],[-75.096833,39.947265],[-75.096833,39.947292],[-75.096762,39.947293]]],[[[-75.096726,39.94732],[-75.096762,39.947293],[-75.096762,39.94732],[-75.096726,39.94732]]],[[[-75.096655,39.947348],[-75.096726,39.94732],[-75.096727,39.947348],[-75.096655,39.947348]]],[[[-75.096584,39.947349],[-75.096656,39.947376],[-75.096584,39.947376],[-75.096584,39.947349]]],[[[-75.096513,39.947376],[-75.096549,39.947431],[-75.096478,39.947431],[-75.096513,39.947376]]],[[[-75.096407,39.947459],[-75.096478,39.947431],[-75.096478,39.947459],[-75.096407,39.947459]]],[[[-75.096692,39.947458],[-75.096728,39.947485],[-75.096692,39.947485],[-75.096692,39.947458]]],[[[-75.096336,39.947487],[-75.096407,39.947459],[-75.096407,39.947487],[-75.096336,39.947487]]],[[[-75.096264,39.947515],[-75.096336,39.947487],[-75.096336,39.947515],[-75.096264,39.947515]]],[[[-75.096229,39.947543],[-75.096264,39.947515],[-75.096265,39.947542],[-75.096229,39.947543]]],[[[-75.096158,39.94757],[-75.096193,39.947543],[-75.096194,39.94757],[-75.096158,39.94757]]],[[[-75.096087,39.947598],[-75.096158,39.94757],[-75.096158,39.947598],[-75.096087,39.947598]]],[[[-75.096836,39.947622],[-75.096871,39.947594],[-75.096872,39.947622],[-75.096836,39.947622]]],[[[-75.09673,39.947677],[-75.096765,39.94765],[-75.096765,39.947677],[-75.09673,39.947677]]],[[[-75.096087,39.947681],[-75.096159,39.947653],[-75.096159,39.94768],[-75.096087,39.947681]]],[[[-75.096765,39.947704],[-75.096801,39.947677],[-75.096801,39.947704],[-75.096765,39.947704]]],[[[-75.096694,39.947677],[-75.096623,39.94776],[-75.096587,39.947705],[-75.096694,39.947677]]],[[[-75.096481,39.947788],[-75.096516,39.947761],[-75.096516,39.947788],[-75.096481,39.947788]]],[[[-75.096374,39.947816],[-75.09641,39.947844],[-75.096374,39.947844],[-75.096374,39.947816]]],[[[-75.096303,39.947872],[-75.096267,39.947844],[-75.096303,39.947844],[-75.096303,39.947872]]],[[[-75.096232,39.947899],[-75.096268,39.947872],[-75.096268,39.947899],[-75.096232,39.947899]]],[[[-75.096668,39.948831],[-75.096704,39.948858],[-75.096668,39.948858],[-75.096668,39.948831]]],[[[-75.096598,39.948996],[-75.096562,39.948968],[-75.096598,39.948968],[-75.096598,39.948996]]],[[[-75.093833,39.909696],[-75.093869,39.909723],[-75.093833,39.909724],[-75.093833,39.909696]]],[[[-75.093838,39.910273],[-75.094089,39.910436],[-75.093558,39.910851],[-75.093306,39.910605],[-75.093304,39.910413],[-75.093689,39.909587],[-75.093834,39.909751],[-75.093976,39.90975],[-75.093838,39.910273]],[[-75.093377,39.910604],[-75.093413,39.910549],[-75.093377,39.910549],[-75.093377,39.910604]],[[-75.093941,39.90986],[-75.093906,39.909833],[-75.093906,39.90986],[-75.093941,39.90986]]],[[[-75.095754,39.913283],[-75.095789,39.913255],[-75.095789,39.913282],[-75.095754,39.913283]]],[[[-75.095789,39.91331],[-75.095825,39.913337],[-75.09579,39.913337],[-75.095789,39.91331]]],[[[-75.095934,39.913556],[-75.095934,39.913559],[-75.095932,39.913556],[-75.095934,39.913556]]],[[[-75.09597,39.913584],[-75.09597,39.913598],[-75.095957,39.913584],[-75.09597,39.913584]]],[[[-75.096006,39.913611],[-75.096006,39.913638],[-75.095982,39.913611],[-75.096006,39.913611]]],[[[-75.096032,39.913666],[-75.096042,39.913666],[-75.096042,39.913677],[-75.096032,39.913666]]],[[[-75.096057,39.913693],[-75.096078,39.913693],[-75.096078,39.913717],[-75.096057,39.913693]]],[[[-75.092467,39.920767],[-75.092464,39.920767],[-75.092467,39.920766],[-75.092467,39.920767]]],[[[-75.092396,39.920822],[-75.092431,39.920776],[-75.092432,39.920822],[-75.092396,39.920822]]],[[[-75.090319,39.921602],[-75.090335,39.921594],[-75.090335,39.921601],[-75.090319,39.921602]]],[[[-75.090335,39.921629],[-75.09037,39.921601],[-75.09037,39.921629],[-75.090335,39.921629]]],[[[-75.089838,39.921844],[-75.090126,39.922179],[-75.089376,39.9221],[-75.089838,39.921844]]],[[[-75.094023,39.923449],[-75.093954,39.923752],[-75.092092,39.922828],[-75.092163,39.922718],[-75.091732,39.922445],[-75.08998,39.921772],[-75.090407,39.921683],[-75.091278,39.921121],[-75.09236,39.920796],[-75.092361,39.920905],[-75.093433,39.921119],[-75.093648,39.921337],[-75.09386,39.921089],[-75.094113,39.921472],[-75.094968,39.921358],[-75.094119,39.922159],[-75.093691,39.922106],[-75.093158,39.922356],[-75.093161,39.922713],[-75.094016,39.922571],[-75.09416,39.922735],[-75.094342,39.923228],[-75.094128,39.923257],[-75.094023,39.923449]],[[-75.092522,39.923018],[-75.092557,39.92299],[-75.092522,39.92299],[-75.092522,39.923018]],[[-75.092379,39.922936],[-75.092414,39.922909],[-75.092378,39.922909],[-75.092379,39.922936]],[[-75.092235,39.922855],[-75.092271,39.922827],[-75.092235,39.922827],[-75.092235,39.922855]],[[-75.093159,39.922466],[-75.093123,39.922438],[-75.093123,39.922466],[-75.093159,39.922466]],[[-75.093376,39.922794],[-75.093056,39.922988],[-75.093165,39.923124],[-75.093307,39.923069],[-75.093376,39.922794]],[[-75.093236,39.923124],[-75.093272,39.923151],[-75.093272,39.923124],[-75.093236,39.923124]],[[-75.093983,39.922873],[-75.094018,39.922846],[-75.093982,39.922818],[-75.093983,39.922873]]],[[[-75.091519,39.922446],[-75.091554,39.922419],[-75.091554,39.922446],[-75.091519,39.922446]]],[[[-75.091662,39.922501],[-75.091555,39.922529],[-75.091554,39.922446],[-75.091662,39.922501]]],[[[-75.09202,39.922691],[-75.091985,39.922774],[-75.091949,39.922691],[-75.09202,39.922691]]],[[[-75.094059,39.923449],[-75.094095,39.923477],[-75.094059,39.923477],[-75.094059,39.923449]]],[[[-75.095978,39.947434],[-75.096014,39.947406],[-75.096014,39.947434],[-75.095978,39.947434]]],[[[-75.095514,39.947409],[-75.09555,39.947436],[-75.095515,39.947436],[-75.095514,39.947409]]],[[[-75.095943,39.947462],[-75.095978,39.947434],[-75.095979,39.947461],[-75.095943,39.947462]]],[[[-75.096051,39.947626],[-75.096087,39.947598],[-75.096087,39.947626],[-75.096051,39.947626]]],[[[-75.095909,39.947654],[-75.095945,39.947681],[-75.095909,39.947681],[-75.095909,39.947654]]],[[[-75.095838,39.947682],[-75.095874,39.947709],[-75.095838,39.947709],[-75.095838,39.947682]]],[[[-75.096088,39.947708],[-75.096017,39.947736],[-75.096016,39.947708],[-75.096088,39.947708]]],[[[-75.095982,39.947901],[-75.096054,39.947928],[-75.095983,39.947928],[-75.095982,39.947901]]],[[[-75.095947,39.947956],[-75.095983,39.947928],[-75.095983,39.947956],[-75.095947,39.947956]]],[[[-75.095698,39.948012],[-75.095733,39.947929],[-75.095804,39.947929],[-75.095698,39.948012]]],[[[-75.095556,39.94804],[-75.095627,39.948012],[-75.095627,39.94804],[-75.095556,39.94804]]],[[[-75.095484,39.948068],[-75.095556,39.94804],[-75.095556,39.948068],[-75.095484,39.948068]]],[[[-75.095449,39.948096],[-75.095484,39.948068],[-75.095485,39.948095],[-75.095449,39.948096]]],[[[-75.095378,39.948096],[-75.095414,39.948123],[-75.095378,39.948123],[-75.095378,39.948096]]],[[[-75.095307,39.948151],[-75.095342,39.948124],[-75.095343,39.948151],[-75.095307,39.948151]]],[[[-75.095271,39.948151],[-75.095307,39.948179],[-75.095271,39.948179],[-75.095271,39.948151]]],[[[-75.086409,39.954648],[-75.085406,39.954132],[-75.084943,39.954244],[-75.0848,39.954162],[-75.08526,39.953803],[-75.08651,39.953961],[-75.086409,39.954648]]]]}}]}