{"type":"FeatureCollection","features":[{"type":"Feature","properties":{"level_ft":4},"geometry":{"type":"MultiPolygon","coordinates":[[[[-75.115339,39.902693],[-75.115267,39.902666],[-75.115338,39.902666],[-75.115339,39.902693]]],[[[-75.114736,39.903108],[-75.114091,39.902727],[-75.116513,39.903126],[-75.116128,39.90332],[-75.114736,39.903108]]],[[[-75.113983,39.906599],[-75.113914,39.906874],[-75.113841,39.906599],[-75.113983,39.906599]]],[[[-75.113304,39.914372],[-75.113834,39.91382],[-75.114298,39.913955],[-75.115009,39.913731],[-75.115007,39.913484],[-75.114615,39.913431],[-75.114683,39.913156],[-75.115219,39.913208],[-75.115288,39.912988],[-75.115513,39.914195],[-75.115121,39.914197],[-75.114768,39.914693],[-75.114342,39.914805],[-75.113485,39.914728],[-75.113304,39.914372]]],[[[-75.119674,39.917056],[-75.11971,39.917083],[-75.119674,39.917083],[-75.119674,39.917056]]],[[[-75.119675,39.917193],[-75.11939,39.917167],[-75.11914,39.917086],[-75.119674,39.917028],[-75.119674,39.917056],[-75.119639,39.917056],[-75.119639,39.917083],[-75.119675,39.917193]]],[[[-75.119569,39.917221],[-75.119604,39.917193],[-75.119604,39.917221],[-75.119569,39.917221]]],[[[-75.119819,39.917275],[-75.119855,39.917329],[-75.119747,39.917248],[-75.119819,39.917275]]],[[[-75.12243,39.918167],[-75.122465,39.918194],[-75.12243,39.918194],[-75.12243,39.918167]]],[[[-75.122074,39.918223],[-75.122145,39.918196],[-75.122074,39.918251],[-75.122074,39.918223]]],[[[-75.123556,39.920494],[-75.122412,39.920198],[-75.122236,39.920446],[-75.121914,39.920283],[-75.122016,39.919789],[-75.121554,39.919873],[-75.121342,39.920177],[-75.121267,39.91971],[-75.120197,39.919634],[-75.120195,39.919469],[-75.120872,39.919383],[-75.121362,39.918447],[-75.121041,39.918394],[-75.121253,39.918173],[-75.120753,39.918121],[-75.120714,39.917654],[-75.120284,39.917492],[-75.120072,39.917658],[-75.119995,39.917054],[-75.121672,39.917182],[-75.122208,39.917372],[-75.121352,39.917239],[-75.122893,39.918164],[-75.122537,39.918248],[-75.122249,39.91792],[-75.122286,39.918085],[-75.122466,39.918249],[-75.122216,39.91825],[-75.121821,39.917895],[-75.121679,39.917951],[-75.121822,39.917978],[-75.122073,39.918196],[-75.122074,39.918223],[-75.122038,39.918224],[-75.122038,39.918251],[-75.121896,39.918279],[-75.122289,39.918414],[-75.122966,39.918301],[-75.123366,39.919232],[-75.123225,39.91937],[-75.123226,39.919508],[-75.123332,39.91937],[-75.124154,39.919612],[-75.123621,39.919753],[-75.124017,39.920245],[-75.124515,39.920132],[-75.124697,39.920488],[-75.125014,39.920102],[-75.125265,39.920183],[-75.125045,39.919553],[-75.125508,39.91955],[-75.125551,39.920264],[-75.126087,39.920426],[-75.125517,39.920456],[-75.125455,39.9215],[-75.1246,39.921559],[-75.123275,39.92099],[-75.123556,39.920494]],[[-75.120141,39.91741],[-75.120177,39.917437],[-75.120177,39.91741],[-75.120141,39.91741]],[[-75.121501,39.917979],[-75.121607,39.917896],[-75.121213,39.917734],[-75.121501,39.917979]],[[-75.121428,39.917815],[-75.121463,39.917787],[-75.121428,39.917788],[-75.121428,39.917815]],[[-75.121858,39.91806],[-75.121823,39.918087],[-75.121858,39.918087],[-75.121858,39.91806]],[[-75.121896,39.918252],[-75.12186,39.918225],[-75.12186,39.918252],[-75.121896,39.918252]],[[-75.123197,39.920276],[-75.123267,39.920084],[-75.123231,39.920084],[-75.123197,39.920276]]],[[[-75.11684,39.923028],[-75.116875,39.923001],[-75.116875,39.923028],[-75.11684,39.923028]]],[[[-75.116769,39.923056],[-75.116805,39.923083],[-75.116769,39.923084],[-75.116769,39.923056]]],[[[-75.11339,39.92398],[-75.113636,39.923567],[-75.115204,39.923504],[-75.115206,39.923751],[-75.11574,39.923611],[-75.115708,39.924023],[-75.115353,39.924189],[-75.113962,39.924197],[-75.11339,39.92398]]],[[[-75.124414,39.924717],[-75.12509,39.924549],[-75.125087,39.92422],[-75.125483,39.924547],[-75.125839,39.924545],[-75.125272,39.924905],[-75.124414,39.924717]]],[[[-75.116572,39.924952],[-75.116328,39.925639],[-75.116534,39.92476],[-75.116572,39.924952]],[[-75.116502,39.925117],[-75.116466,39.925089],[-75.116466,39.925117],[-75.116502,39.925117]]],[[[-75.115506,39.925342],[-75.115824,39.925093],[-75.115799,39.926273],[-75.115439,39.925864],[-75.115506,39.925342]]],[[[-75.128149,39.935432],[-75.127509,39.9356],[-75.128154,39.935953],[-75.127262,39.935903],[-75.127087,39.936234],[-75.126985,39.936838],[-75.127451,39.93711],[-75.12706,39.937249],[-75.12799,39.937464],[-75.128027,39.937656],[-75.127066,39.937881],[-75.127428,39.938455],[-75.127071,39.938457],[-75.126862,39.93898],[-75.127434,39.939087],[-75.127436,39.939279],[-75.126794,39.93931],[-75.126346,39.941014],[-75.126299,39.939807],[-75.12658,39.939311],[-75.126151,39.939176],[-75.125901,39.939177],[-75.125722,39.939124],[-75.125294,39.939098],[-75.125257,39.938906],[-75.12572,39.938876],[-75.125183,39.93866],[-75.125217,39.93844],[-75.12614,39.937996],[-75.126138,39.937804],[-75.125458,39.937505],[-75.125987,39.936898],[-75.125344,39.936765],[-75.125842,39.936597],[-75.125731,39.936213],[-75.125053,39.936162],[-75.126013,39.935828],[-75.125867,39.935471],[-75.125047,39.935421],[-75.125794,39.935252],[-75.125826,39.934813],[-75.124756,39.934791],[-75.125715,39.934402],[-75.125605,39.934073],[-75.12482,39.934022],[-75.125354,39.933882],[-75.1256,39.933551],[-75.125563,39.933387],[-75.125135,39.933389],[-75.125024,39.932895],[-75.125274,39.932949],[-75.125276,39.933223],[-75.125774,39.933111],[-75.125699,39.932699],[-75.124664,39.932595],[-75.125484,39.932536],[-75.12566,39.932343],[-75.125018,39.932291],[-75.124873,39.932073],[-75.124411,39.932157],[-75.124515,39.931855],[-75.125227,39.931769],[-75.125261,39.931604],[-75.124938,39.931303],[-75.124547,39.931498],[-75.124153,39.931308],[-75.124506,39.930839],[-75.125433,39.930834],[-75.125359,39.93056],[-75.124503,39.930565],[-75.125143,39.930341],[-75.12539,39.930011],[-75.125351,39.929709],[-75.124958,39.929601],[-75.125204,39.929243],[-75.123741,39.929086],[-75.124559,39.928835],[-75.124556,39.92856],[-75.123772,39.928592],[-75.123634,39.929059],[-75.123202,39.928677],[-75.122526,39.928818],[-75.121919,39.928684],[-75.121888,39.929233],[-75.121603,39.929235],[-75.121313,39.928742],[-75.120314,39.92872],[-75.120241,39.928528],[-75.121274,39.928413],[-75.121235,39.927974],[-75.120734,39.927839],[-75.121411,39.927726],[-75.121408,39.927397],[-75.120373,39.927347],[-75.120513,39.927044],[-75.120228,39.927101],[-75.120226,39.926854],[-75.120439,39.926688],[-75.119762,39.926801],[-75.119627,39.927653],[-75.118201,39.927688],[-75.117877,39.927361],[-75.11763,39.927636],[-75.11752,39.927308],[-75.117234,39.927254],[-75.117169,39.927886],[-75.116563,39.927889],[-75.116281,39.928275],[-75.116226,39.926189],[-75.116608,39.925061],[-75.116743,39.924127],[-75.116634,39.923935],[-75.116499,39.924732],[-75.116379,39.92336],[-75.116588,39.922728],[-75.116701,39.923496],[-75.116808,39.92344],[-75.116944,39.922753],[-75.11741,39.922943],[-75.117411,39.92308],[-75.117197,39.923081],[-75.116985,39.923275],[-75.117021,39.923357],[-75.11777,39.923408],[-75.116918,39.923769],[-75.117133,39.92396],[-75.116923,39.924318],[-75.117493,39.924315],[-75.117425,39.924645],[-75.117886,39.924423],[-75.117925,39.924697],[-75.118389,39.924777],[-75.119492,39.924579],[-75.120563,39.924683],[-75.121095,39.924406],[-75.12098,39.9235],[-75.121301,39.923499],[-75.121261,39.92295],[-75.121514,39.923333],[-75.121719,39.922343],[-75.12261,39.922366],[-75.121873,39.92366],[-75.122269,39.924097],[-75.122769,39.924205],[-75.123096,39.924779],[-75.123376,39.924256],[-75.123415,39.92464],[-75.123736,39.924666],[-75.123523,39.924777],[-75.124523,39.924936],[-75.123312,39.92508],[-75.124857,39.926362],[-75.126216,39.926794],[-75.126899,39.927367],[-75.127327,39.927365],[-75.127616,39.927775],[-75.12858,39.92788],[-75.128903,39.928152],[-75.129417,39.929714],[-75.131094,39.929897],[-75.131171,39.930501],[-75.130857,39.931299],[-75.129789,39.931442],[-75.129898,39.931661],[-75.129224,39.932104],[-75.129159,39.932791],[-75.129341,39.933201],[-75.130589,39.93314],[-75.130873,39.932946],[-75.130991,39.934236],[-75.131598,39.934315],[-75.131673,39.934644],[-75.130851,39.934484],[-75.130607,39.935144],[-75.130683,39.935555],[-75.131361,39.935634],[-75.131214,39.935223],[-75.131571,39.935221],[-75.131924,39.934807],[-75.131705,39.934259],[-75.131909,39.933133],[-75.131156,39.93278],[-75.131798,39.932721],[-75.129765,39.93276],[-75.130505,39.931795],[-75.131904,39.932638],[-75.131888,39.930909],[-75.131416,39.930005],[-75.132058,39.930002],[-75.132092,39.92981],[-75.131762,39.928823],[-75.130728,39.928856],[-75.130614,39.928116],[-75.131178,39.927316],[-75.129345,39.925816],[-75.126517,39.924596],[-75.127226,39.924098],[-75.128613,39.923761],[-75.127376,39.921077],[-75.126949,39.92108],[-75.126946,39.920778],[-75.126876,39.92097],[-75.126626,39.920889],[-75.126764,39.920422],[-75.127336,39.920611],[-75.12762,39.920417],[-75.127048,39.920256],[-75.126937,39.91979],[-75.12658,39.919791],[-75.12643,39.918914],[-75.125783,39.918423],[-75.125843,39.91716],[-75.126302,39.916636],[-75.126296,39.916032],[-75.125938,39.915787],[-75.124618,39.915711],[-75.123942,39.91588],[-75.123191,39.915637],[-75.123046,39.91539],[-75.123364,39.915004],[-75.123149,39.914951],[-75.123467,39.914647],[-75.122539,39.914542],[-75.122678,39.91413],[-75.12464,39.914201],[-75.124627,39.912801],[-75.123985,39.912777],[-75.123625,39.912367],[-75.123363,39.911024],[-75.123967,39.910746],[-75.124644,39.910797],[-75.124493,39.90981],[-75.124706,39.909753],[-75.124701,39.909204],[-75.125019,39.908846],[-75.125234,39.908927],[-75.125625,39.90887],[-75.125232,39.908762],[-75.121417,39.908728],[-75.121449,39.908261],[-75.12537,39.908295],[-75.12544,39.908157],[-75.125049,39.908214],[-75.125046,39.907912],[-75.122834,39.907759],[-75.121553,39.907958],[-75.121059,39.908565],[-75.120597,39.908705],[-75.121418,39.908865],[-75.121391,39.909799],[-75.121999,39.909933],[-75.121824,39.9104],[-75.121183,39.910376],[-75.120464,39.909749],[-75.119965,39.909806],[-75.11979,39.910109],[-75.11854,39.909896],[-75.118326,39.909815],[-75.1185,39.909375],[-75.118286,39.909404],[-75.118005,39.909899],[-75.117897,39.90979],[-75.117946,39.91119],[-75.117876,39.911355],[-75.117661,39.911219],[-75.117452,39.911796],[-75.117088,39.91092],[-75.117429,39.909188],[-75.114595,39.907227],[-75.114964,39.908598],[-75.114894,39.90879],[-75.113753,39.904815],[-75.113846,39.903168],[-75.116437,39.903456],[-75.11488,39.9054],[-75.114774,39.906262],[-75.117488,39.90849],[-75.119918,39.908517],[-75.119817,39.909176],[-75.120562,39.90876],[-75.12017,39.908735],[-75.120132,39.908514],[-75.121403,39.907762],[-75.122702,39.907449],[-75.129344,39.907381],[-75.129091,39.911608],[-75.12984,39.915359],[-75.135874,39.927639],[-75.136621,39.93037],[-75.136805,39.937021],[-75.136556,39.941533],[-75.135631,39.947459],[-75.134194,39.952774],[-75.129335,39.952007],[-75.129084,39.951816],[-75.130297,39.951837],[-75.131167,39.949472],[-75.131523,39.949332],[-75.131303,39.948784],[-75.131659,39.948645],[-75.132624,39.948832],[-75.132762,39.94831],[-75.130759,39.947772],[-75.130934,39.947359],[-75.131466,39.947081],[-75.132206,39.942163],[-75.131889,39.942604],[-75.131176,39.942718],[-75.130639,39.942474],[-75.130492,39.94198],[-75.131093,39.941455],[-75.131986,39.941505],[-75.132024,39.941835],[-75.132236,39.941614],[-75.132004,39.939666],[-75.130004,39.939293],[-75.129928,39.938826],[-75.130142,39.938853],[-75.130033,39.938661],[-75.130352,39.93844],[-75.130135,39.938029],[-75.130383,39.937835],[-75.130025,39.937728],[-75.130019,39.937069],[-75.130553,39.936929],[-75.129905,39.936301],[-75.130259,39.936079],[-75.130427,39.934953],[-75.129747,39.934682],[-75.129323,39.935041],[-75.128892,39.934714],[-75.128543,39.935567],[-75.128149,39.935432]],[[-75.119413,39.927599],[-75.119305,39.927545],[-75.11927,39.9276],[-75.119413,39.927599]],[[-75.116401,39.925804],[-75.116437,39.925831],[-75.116437,39.925803],[-75.116401,39.925804]],[[-75.116437,39.925803],[-75.116472,39.925748],[-75.116436,39.925748],[-75.116437,39.925803]],[[-75.126946,39.920778],[-75.126981,39.920723],[-75.126945,39.920723],[-75.126946,39.920778]],[[-75.126981,39.920723],[-75.127016,39.920695],[-75.126981,39.920695],[-75.126981,39.920723]],[[-75.127016,39.92064],[-75.127087,39.920667],[-75.127087,39.920612],[-75.127016,39.92064]],[[-75.123875,39.912421],[-75.12391,39.912393],[-75.123875,39.912394],[-75.123875,39.912421]],[[-75.1185,39.909375],[-75.118535,39.909347],[-75.1185,39.909347],[-75.1185,39.909375]],[[-75.128363,39.935376],[-75.128398,39.93532],[-75.128362,39.935321],[-75.128363,39.935376]]],[[[-75.113474,39.92947],[-75.11287,39.929638],[-75.113788,39.928673],[-75.114216,39.928725],[-75.114219,39.929],[-75.114576,39.929108],[-75.113586,39.929991],[-75.11337,39.929828],[-75.113474,39.92947]],[[-75.113474,39.92947],[-75.11351,39.929443],[-75.113474,39.929443],[-75.113474,39.92947]]],[[[-75.123858,39.941934],[-75.124211,39.94163],[-75.124569,39.941738],[-75.1246,39.941244],[-75.124135,39.941081],[-75.12467,39.941024],[-75.1247,39.940502],[-75.124486,39.940421],[-75.12477,39.940282],[-75.124657,39.939623],[-75.125687,39.939124],[-75.125832,39.939452],[-75.125587,39.939893],[-75.125802,39.940057],[-75.125482,39.940196],[-75.125392,39.941981],[-75.125034,39.941845],[-75.125202,39.940719],[-75.125022,39.94061],[-75.124787,39.942176],[-75.123858,39.941934]]],[[[-75.11463,39.943054],[-75.114806,39.942778],[-75.116304,39.942825],[-75.116449,39.943017],[-75.114881,39.943162],[-75.11463,39.943054]]],[[[-75.126373,39.947878],[-75.127619,39.947679],[-75.12758,39.947267],[-75.126829,39.947079],[-75.126225,39.947357],[-75.126292,39.946835],[-75.125968,39.946535],[-75.126325,39.94656],[-75.126498,39.945955],[-75.126783,39.945899],[-75.127034,39.946035],[-75.126968,39.946612],[-75.127966,39.946634],[-75.128282,39.946083],[-75.127994,39.945783],[-75.128386,39.945698],[-75.128384,39.945506],[-75.127811,39.945262],[-75.127915,39.944877],[-75.127128,39.944607],[-75.127161,39.944387],[-75.128802,39.944433],[-75.129044,39.943581],[-75.129294,39.943552],[-75.129347,39.945446],[-75.129849,39.945745],[-75.129431,39.946845],[-75.130292,39.947417],[-75.129829,39.947502],[-75.129654,39.94786],[-75.128441,39.947812],[-75.128944,39.948221],[-75.128912,39.948605],[-75.127912,39.948473],[-75.127741,39.949243],[-75.127992,39.949461],[-75.127601,39.949546],[-75.127113,39.950811],[-75.127153,39.951305],[-75.127513,39.95166],[-75.125332,39.95115],[-75.126221,39.950816],[-75.126003,39.950405],[-75.126287,39.950239],[-75.125822,39.950077],[-75.126247,39.94969],[-75.126286,39.950075],[-75.12675,39.950127],[-75.126815,39.949385],[-75.126098,39.949032],[-75.12724,39.949054],[-75.127448,39.948421],[-75.126591,39.948316],[-75.126374,39.948015],[-75.126373,39.947878]],[[-75.126409,39.947932],[-75.12648,39.94796],[-75.12648,39.947932],[-75.126409,39.947932]]],[[[-75.125837,39.951669],[-75.125621,39.951533],[-75.125871,39.951587],[-75.125837,39.951669]]],[[[-75.127692,39.951714],[-75.127834,39.951631],[-75.127835,39.951713],[-75.127692,39.951714]]],[[[-75.111253,39.900216],[-75.11039,39.899397],[-75.110066,39.899078],[-75.110386,39.898985],[-75.111253,39.900216]]],[[[-75.111752,39.900186],[-75.11139,39.899584],[-75.11153,39.899364],[-75.112715,39.900291],[-75.112253,39.900458],[-75.111752,39.900186]]],[[[-75.101923,39.901281],[-75.099067,39.900719],[-75.099909,39.899232],[-75.101146,39.898882],[-75.102116,39.899107],[-75.102917,39.899882],[-75.104793,39.900527],[-75.107941,39.900238],[-75.10964,39.899265],[-75.109967,39.899866],[-75.109861,39.900059],[-75.106057,39.901177],[-75.101923,39.901281]]],[[[-75.115588,39.902664],[-75.113112,39.900893],[-75.112397,39.900567],[-75.112752,39.900401],[-75.112962,39.900043],[-75.112636,39.89944],[-75.111741,39.899006],[-75.110887,39.899202],[-75.110528,39.898905],[-75.111838,39.898569],[-75.113166,39.899305],[-75.113874,39.901102],[-75.11643,39.902191],[-75.11655,39.902879],[-75.115588,39.902664]]],[[[-75.115267,39.902666],[-75.114088,39.902398],[-75.113656,39.901878],[-75.112833,39.901526],[-75.112076,39.900569],[-75.113114,39.90103],[-75.115267,39.902666]]],[[[-75.107166,39.901665],[-75.107699,39.901443],[-75.108804,39.901437],[-75.110662,39.901894],[-75.109881,39.902283],[-75.109771,39.901954],[-75.107173,39.902379],[-75.107166,39.901665]]],[[[-75.103198,39.904431],[-75.103731,39.904182],[-75.10362,39.903716],[-75.104081,39.903493],[-75.103264,39.903745],[-75.103267,39.904102],[-75.102979,39.903856],[-75.102552,39.903886],[-75.102799,39.90361],[-75.102514,39.903666],[-75.101626,39.903973],[-75.101699,39.904192],[-75.10138,39.904386],[-75.101093,39.904168],[-75.101051,39.903482],[-75.100407,39.903156],[-75.099586,39.903078],[-75.099295,39.902393],[-75.099471,39.902117],[-75.098755,39.901737],[-75.107094,39.901501],[-75.106884,39.901941],[-75.107031,39.902462],[-75.105613,39.903348],[-75.106008,39.903676],[-75.105048,39.903983],[-75.105334,39.904091],[-75.104412,39.904562],[-75.103521,39.904649],[-75.103769,39.904429],[-75.103198,39.904431]]],[[[-75.111727,39.909438],[-75.110374,39.909638],[-75.110373,39.909473],[-75.109701,39.910135],[-75.10913,39.910083],[-75.108771,39.909756],[-75.108308,39.909841],[-75.10953,39.910932],[-75.109533,39.911262],[-75.109001,39.911649],[-75.109183,39.911977],[-75.108682,39.911843],[-75.107937,39.912204],[-75.107932,39.911682],[-75.107215,39.911192],[-75.10572,39.911501],[-75.10504,39.911148],[-75.10276,39.911407],[-75.101238,39.912568],[-75.101206,39.91298],[-75.10081,39.91257],[-75.100242,39.912903],[-75.100067,39.913288],[-75.100572,39.913889],[-75.100395,39.91411],[-75.10006,39.914084],[-75.099865,39.913659],[-75.099497,39.913857],[-75.098463,39.913809],[-75.098089,39.914078],[-75.097455,39.913516],[-75.096364,39.913826],[-75.095537,39.912954],[-75.095643,39.912844],[-75.096182,39.91339],[-75.098001,39.913436],[-75.098783,39.91313],[-75.098673,39.912773],[-75.099139,39.913073],[-75.10063,39.912352],[-75.100623,39.91161],[-75.101153,39.911004],[-75.099582,39.910765],[-75.098824,39.90967],[-75.098891,39.909203],[-75.099748,39.909391],[-75.10011,39.909938],[-75.101668,39.90875],[-75.102061,39.908912],[-75.103592,39.908657],[-75.104448,39.908763],[-75.105418,39.909554],[-75.106418,39.909741],[-75.107378,39.909434],[-75.107985,39.909623],[-75.10848,39.909071],[-75.108262,39.90866],[-75.108829,39.908328],[-75.110097,39.906537],[-75.111089,39.905818],[-75.111225,39.905131],[-75.112577,39.904767],[-75.113627,39.906655],[-75.114837,39.910438],[-75.114043,39.909289],[-75.113417,39.907041],[-75.111603,39.90749],[-75.112814,39.907401],[-75.113033,39.908031],[-75.112578,39.90894],[-75.111939,39.909245],[-75.111801,39.909795],[-75.111727,39.909438]],[[-75.111727,39.909438],[-75.111762,39.909383],[-75.111726,39.909383],[-75.111727,39.909438]]],[[[-75.113185,39.92906],[-75.112902,39.929254],[-75.112722,39.92909],[-75.113185,39.92906]]],[[[-75.111105,39.931707],[-75.111494,39.93132],[-75.111561,39.930826],[-75.111815,39.931346],[-75.11164,39.931731],[-75.111531,39.93154],[-75.111105,39.931707]]],[[[-75.111032,39.93157],[-75.111068,39.931597],[-75.111033,39.931597],[-75.111032,39.93157]]],[[[-75.109715,39.931796],[-75.109357,39.931606],[-75.10989,39.931466],[-75.110243,39.930997],[-75.110496,39.931353],[-75.11085,39.931131],[-75.110996,39.931488],[-75.110606,39.931737],[-75.110718,39.932258],[-75.110471,39.932616],[-75.109719,39.93229],[-75.109715,39.931796]]],[[[-75.102662,39.940865],[-75.102698,39.940838],[-75.102698,39.940865],[-75.102662,39.940865]]],[[[-75.102663,39.940975],[-75.102699,39.940948],[-75.102699,39.940975],[-75.102663,39.940975]]],[[[-75.106819,39.943095],[-75.107177,39.94323],[-75.107742,39.942596],[-75.107313,39.942461],[-75.106637,39.942712],[-75.106492,39.94241],[-75.107376,39.9415],[-75.108125,39.941523],[-75.107955,39.942513],[-75.10839,39.943279],[-75.108253,39.943939],[-75.10765,39.944326],[-75.106617,39.944441],[-75.106579,39.944167],[-75.105792,39.943897],[-75.10579,39.943677],[-75.106323,39.943454],[-75.106286,39.94329],[-75.106714,39.943343],[-75.106819,39.943095]],[[-75.106608,39.943371],[-75.106644,39.943398],[-75.106643,39.94337],[-75.106608,39.943371]],[[-75.106644,39.943398],[-75.106679,39.943425],[-75.106679,39.943398],[-75.106644,39.943398]]],[[[-75.108726,39.945007],[-75.107655,39.944793],[-75.107799,39.944957],[-75.107549,39.945013],[-75.107047,39.944631],[-75.107865,39.944435],[-75.108726,39.945007]],[[-75.108191,39.9449],[-75.108226,39.944872],[-75.10819,39.944872],[-75.108191,39.9449]]],[[[-75.104019,39.945059],[-75.103983,39.945086],[-75.103983,39.945059],[-75.104019,39.945059]]],[[[-75.103877,39.945114],[-75.103983,39.945086],[-75.103984,39.945114],[-75.103877,39.945114]]],[[[-75.10178,39.946004],[-75.101745,39.946032],[-75.101744,39.946004],[-75.10178,39.946004]]],[[[-75.10089,39.946228],[-75.101104,39.9462],[-75.100855,39.946283],[-75.10089,39.946228]]],[[[-75.101079,39.94738],[-75.10083,39.947491],[-75.100829,39.947409],[-75.101079,39.94738]]],[[[-75.101259,39.947626],[-75.101295,39.947599],[-75.101295,39.947626],[-75.101259,39.947626]]],[[[-75.101331,39.947653],[-75.101366,39.947626],[-75.101366,39.947653],[-75.101331,39.947653]]],[[[-75.129373,39.952199],[-75.134089,39.953025],[-75.132573,39.956557],[-75.131076,39.958545],[-75.129626,39.95992],[-75.125749,39.962444],[-75.122172,39.964298],[-75.119748,39.96171],[-75.118447,39.960723],[-75.115839,39.959328],[-75.110143,39.958016],[-75.108033,39.958011],[-75.106227,39.958401],[-75.104126,39.95944],[-75.096972,39.964978],[-75.093629,39.966868],[-75.088105,39.969382],[-75.08701,39.968043],[-75.087663,39.967737],[-75.086987,39.96796],[-75.085508,39.966119],[-75.085614,39.965936],[-75.086405,39.966673],[-75.086796,39.966479],[-75.086788,39.965573],[-75.086039,39.965577],[-75.085858,39.965303],[-75.088854,39.965205],[-75.088959,39.96493],[-75.089705,39.964542],[-75.089955,39.964623],[-75.089565,39.964845],[-75.090601,39.965004],[-75.090003,39.965996],[-75.091033,39.965524],[-75.090992,39.964865],[-75.09135,39.964973],[-75.092071,39.965848],[-75.091528,39.964917],[-75.09074,39.964619],[-75.090341,39.96388],[-75.09002,39.963854],[-75.090007,39.962399],[-75.091821,39.961676],[-75.093184,39.96252],[-75.093287,39.962081],[-75.093897,39.962434],[-75.095396,39.962591],[-75.095973,39.963275],[-75.095501,39.962289],[-75.096177,39.962148],[-75.096068,39.961819],[-75.096669,39.961267],[-75.097157,39.959947],[-75.098051,39.960134],[-75.099127,39.96076],[-75.099766,39.960455],[-75.09987,39.96007],[-75.099509,39.959605],[-75.100547,39.960039],[-75.100256,39.959354],[-75.100754,39.959187],[-75.101034,39.958582],[-75.100313,39.957679],[-75.099417,39.957272],[-75.099027,39.957521],[-75.098704,39.957358],[-75.098565,39.957716],[-75.09757,39.958188],[-75.097673,39.957748],[-75.0981,39.957553],[-75.097916,39.956978],[-75.098416,39.957058],[-75.098771,39.956836],[-75.098376,39.956536],[-75.098406,39.955822],[-75.099333,39.955763],[-75.100002,39.954743],[-75.100717,39.954932],[-75.101143,39.95471],[-75.10125,39.954792],[-75.099872,39.956227],[-75.099874,39.956529],[-75.101582,39.955971],[-75.102333,39.956241],[-75.103506,39.955741],[-75.104436,39.956011],[-75.106753,39.955779],[-75.108741,39.95467],[-75.109732,39.953787],[-75.110048,39.953263],[-75.109043,39.952527],[-75.108079,39.95245],[-75.107753,39.951903],[-75.10711,39.951741],[-75.106148,39.951884],[-75.105501,39.951393],[-75.105535,39.951118],[-75.106246,39.95095],[-75.107532,39.951135],[-75.107785,39.951518],[-75.108462,39.95135],[-75.109428,39.951674],[-75.109962,39.951562],[-75.109922,39.951095],[-75.109601,39.951097],[-75.109777,39.950849],[-75.10942,39.950796],[-75.109592,39.950136],[-75.109226,39.949012],[-75.108251,39.947755],[-75.108002,39.947756],[-75.108212,39.947343],[-75.107887,39.946905],[-75.107246,39.947046],[-75.106893,39.94746],[-75.106759,39.948366],[-75.107395,39.947759],[-75.107716,39.947675],[-75.107825,39.947894],[-75.10719,39.948694],[-75.106841,39.949574],[-75.107092,39.949765],[-75.10663,39.949932],[-75.106916,39.95004],[-75.106668,39.950206],[-75.10699,39.950369],[-75.107023,39.95004],[-75.10738,39.95001],[-75.107198,39.9496],[-75.107696,39.949432],[-75.10784,39.949679],[-75.10877,39.949893],[-75.108917,39.950359],[-75.108669,39.95058],[-75.109209,39.951126],[-75.108604,39.951349],[-75.106209,39.950703],[-75.10539,39.950927],[-75.103869,39.952335],[-75.103802,39.952829],[-75.104054,39.953157],[-75.103666,39.953599],[-75.10295,39.953328],[-75.102207,39.954018],[-75.102063,39.953909],[-75.10224,39.953743],[-75.102239,39.953579],[-75.101742,39.953856],[-75.101023,39.953283],[-75.101413,39.952924],[-75.102129,39.953305],[-75.102555,39.953055],[-75.102017,39.952756],[-75.101698,39.952895],[-75.101481,39.952567],[-75.100912,39.952844],[-75.100909,39.952487],[-75.101194,39.952431],[-75.100621,39.952187],[-75.100727,39.952022],[-75.100012,39.951916],[-75.100366,39.951529],[-75.100937,39.951554],[-75.100685,39.951308],[-75.101145,39.950921],[-75.102181,39.951108],[-75.101856,39.950616],[-75.101427,39.950508],[-75.101143,39.950674],[-75.101884,39.949792],[-75.101455,39.949657],[-75.101488,39.949272],[-75.101987,39.949242],[-75.10206,39.949462],[-75.102343,39.949213],[-75.102203,39.949516],[-75.102594,39.949322],[-75.102524,39.949459],[-75.102596,39.949541],[-75.10302,39.949155],[-75.10281,39.949622],[-75.103592,39.949261],[-75.103382,39.949757],[-75.103984,39.949232],[-75.103739,39.949755],[-75.103881,39.949727],[-75.104198,39.949258],[-75.103731,39.948849],[-75.103518,39.94896],[-75.103876,39.949123],[-75.102448,39.948938],[-75.102481,39.948663],[-75.102695,39.948662],[-75.103376,39.948988],[-75.103515,39.948603],[-75.103196,39.948852],[-75.103335,39.948467],[-75.103088,39.948715],[-75.103014,39.948386],[-75.10273,39.948552],[-75.102835,39.948305],[-75.102444,39.948526],[-75.102442,39.948252],[-75.102229,39.948363],[-75.102332,39.947978],[-75.102119,39.948061],[-75.102046,39.947842],[-75.101762,39.948063],[-75.101902,39.947705],[-75.101264,39.948148],[-75.101509,39.94768],[-75.101294,39.947544],[-75.101508,39.947543],[-75.101078,39.947353],[-75.101076,39.947133],[-75.100222,39.94733],[-75.100225,39.947659],[-75.099835,39.947881],[-75.098725,39.94742],[-75.098013,39.947643],[-75.097834,39.947507],[-75.100927,39.946338],[-75.101423,39.946006],[-75.101852,39.946058],[-75.102278,39.945837],[-75.102103,39.946194],[-75.10253,39.946165],[-75.102989,39.945586],[-75.103597,39.945802],[-75.103948,39.945142],[-75.106762,39.94466],[-75.104556,39.945276],[-75.10527,39.945437],[-75.106195,39.945102],[-75.107194,39.945152],[-75.108019,39.945669],[-75.110186,39.94865],[-75.110673,39.951338],[-75.110033,39.951534],[-75.110781,39.95142],[-75.111617,39.953228],[-75.111619,39.95342],[-75.111157,39.95356],[-75.110949,39.954219],[-75.111961,39.955779],[-75.111969,39.956685],[-75.112635,39.955309],[-75.113098,39.955251],[-75.112962,39.956021],[-75.113319,39.956074],[-75.113328,39.957035],[-75.113613,39.957033],[-75.113723,39.957307],[-75.114329,39.957249],[-75.114795,39.957466],[-75.115401,39.957408],[-75.115719,39.957132],[-75.11569,39.957901],[-75.116225,39.957898],[-75.115933,39.957131],[-75.116432,39.957046],[-75.116889,39.956357],[-75.117609,39.957012],[-75.117576,39.957287],[-75.11786,39.95723],[-75.117972,39.957696],[-75.11797,39.957504],[-75.118757,39.957692],[-75.119251,39.95714],[-75.119574,39.957358],[-75.120322,39.95719],[-75.119977,39.958564],[-75.120444,39.958864],[-75.121156,39.958668],[-75.122264,39.958964],[-75.123067,39.95701],[-75.123041,39.958081],[-75.123469,39.958106],[-75.123748,39.957418],[-75.124176,39.957389],[-75.124459,39.957085],[-75.124674,39.957194],[-75.124684,39.958347],[-75.125326,39.958233],[-75.125786,39.957901],[-75.125809,39.956474],[-75.124913,39.956067],[-75.12559,39.955926],[-75.125763,39.955376],[-75.125547,39.95513],[-75.125868,39.955156],[-75.126007,39.954688],[-75.126575,39.954466],[-75.125895,39.95414],[-75.126714,39.953998],[-75.126419,39.952984],[-75.126002,39.954112],[-75.12596,39.953426],[-75.125066,39.953183],[-75.125378,39.952276],[-75.125019,39.952003],[-75.125448,39.952056],[-75.125695,39.951807],[-75.126019,39.952162],[-75.1263,39.951639],[-75.127801,39.951906],[-75.127054,39.952129],[-75.126948,39.952322],[-75.127306,39.952403],[-75.128055,39.952426],[-75.128017,39.952152],[-75.129373,39.952199]],[[-75.109777,39.950876],[-75.109813,39.950904],[-75.109813,39.950876],[-75.109777,39.950876]],[[-75.100652,39.951583],[-75.100616,39.951638],[-75.100688,39.951638],[-75.100652,39.951583]],[[-75.103131,39.949593],[-75.103096,39.949621],[-75.103131,39.949621],[-75.103131,39.949593]],[[-75.102518,39.948773],[-75.102554,39.9488],[-75.102553,39.948773],[-75.102518,39.948773]],[[-75.102441,39.948197],[-75.102548,39.948224],[-75.102547,39.948114],[-75.102441,39.948197]],[[-75.101509,39.94768],[-75.101545,39.947707],[-75.101545,39.94768],[-75.101509,39.94768]],[[-75.100613,39.947218],[-75.100685,39.94719],[-75.100613,39.94719],[-75.100613,39.947218]],[[-75.100684,39.947108],[-75.100898,39.947134],[-75.100933,39.947024],[-75.100684,39.947108]],[[-75.100933,39.947024],[-75.101004,39.946996],[-75.100933,39.946997],[-75.100933,39.947024]],[[-75.100151,39.947412],[-75.100115,39.94733],[-75.10008,39.947413],[-75.100151,39.947412]],[[-75.100223,39.947385],[-75.100187,39.947412],[-75.100223,39.947412],[-75.100223,39.947385]],[[-75.09812,39.94756],[-75.098084,39.947533],[-75.098084,39.94756],[-75.09812,39.94756]],[[-75.102103,39.946194],[-75.102067,39.946249],[-75.102103,39.946249],[-75.102103,39.946194]],[[-75.118007,39.957696],[-75.118043,39.957723],[-75.118043,39.957696],[-75.118007,39.957696]],[[-75.129017,39.952283],[-75.129089,39.952311],[-75.129088,39.952283],[-75.129017,39.952283]],[[-75.102274,39.953579],[-75.10231,39.953523],[-75.102274,39.953524],[-75.102274,39.953579]]],[[[-75.099697,39.899398],[-75.099732,39.899343],[-75.099732,39.899398],[-75.099697,39.899398]]],[[[-75.10007,39.946232],[-75.100034,39.94626],[-75.100034,39.946233],[-75.10007,39.946232]]],[[[-75.099393,39.946318],[-75.099428,39.946291],[-75.099429,39.946318],[-75.099393,39.946318]]],[[[-75.099536,39.946372],[-75.099037,39.94643],[-75.099678,39.946289],[-75.099536,39.946372]]],[[[-75.101458,39.945896],[-75.100142,39.946369],[-75.099466,39.946565],[-75.099645,39.946619],[-75.099182,39.946731],[-75.099039,39.946677],[-75.098256,39.946873],[-75.099608,39.946482],[-75.099785,39.946261],[-75.100034,39.94626],[-75.099821,39.946343],[-75.099928,39.94637],[-75.101458,39.945896]],[[-75.099467,39.946592],[-75.099396,39.94662],[-75.099467,39.94662],[-75.099467,39.946592]],[[-75.099146,39.946676],[-75.099217,39.946649],[-75.099146,39.946649],[-75.099146,39.946676]],[[-75.099679,39.946399],[-75.099715,39.946426],[-75.099715,39.946399],[-75.099679,39.946399]],[[-75.099821,39.946371],[-75.099786,39.946399],[-75.099822,39.946398],[-75.099821,39.946371]]],[[[-75.099572,39.946455],[-75.099536,39.946427],[-75.099572,39.946427],[-75.099572,39.946455]]],[[[-75.09943,39.946483],[-75.099465,39.946455],[-75.099466,39.946483],[-75.09943,39.946483]]],[[[-75.099894,39.946508],[-75.099716,39.946564],[-75.099716,39.946536],[-75.099894,39.946508]]],[[[-75.098895,39.946486],[-75.099002,39.94654],[-75.098718,39.946596],[-75.098895,39.946486]]],[[[-75.099966,39.94659],[-75.100001,39.946562],[-75.100002,39.94659],[-75.099966,39.94659]]],[[[-75.099895,39.94659],[-75.099931,39.946617],[-75.099895,39.946618],[-75.099895,39.94659]]],[[[-75.099788,39.946618],[-75.099823,39.946591],[-75.099824,39.946618],[-75.099788,39.946618]]],[[[-75.098646,39.946624],[-75.098682,39.946596],[-75.098682,39.946624],[-75.098646,39.946624]]],[[[-75.099824,39.946645],[-75.099859,39.946618],[-75.099859,39.946645],[-75.099824,39.946645]]],[[[-75.099717,39.946646],[-75.099788,39.946673],[-75.099717,39.946673],[-75.099717,39.946646]]],[[[-75.09904,39.946732],[-75.098969,39.94676],[-75.098968,39.946732],[-75.09904,39.946732]]],[[[-75.098826,39.94676],[-75.098969,39.946787],[-75.098826,39.946788],[-75.098826,39.94676]]],[[[-75.098827,39.946815],[-75.098755,39.946788],[-75.098826,39.946788],[-75.098827,39.946815]]],[[[-75.098648,39.946816],[-75.09872,39.946843],[-75.098648,39.946844],[-75.098648,39.946816]]],[[[-75.098542,39.946872],[-75.098613,39.946844],[-75.098613,39.946871],[-75.098542,39.946872]]],[[[-75.098435,39.946872],[-75.098506,39.946899],[-75.098435,39.9469],[-75.098435,39.946872]]],[[[-75.098579,39.947064],[-75.09865,39.947036],[-75.09865,39.947063],[-75.098579,39.947064]]],[[[-75.099717,39.946673],[-75.097905,39.947452],[-75.09769,39.947398],[-75.098473,39.947147],[-75.098508,39.947064],[-75.098651,39.947091],[-75.098721,39.946981],[-75.097618,39.947343],[-75.098613,39.946899],[-75.099717,39.946673]],[[-75.098508,39.947092],[-75.098544,39.947119],[-75.098544,39.947091],[-75.098508,39.947092]],[[-75.098721,39.946953],[-75.099077,39.946924],[-75.099148,39.946869],[-75.098721,39.946953]]],[[[-75.100579,39.9473],[-75.100507,39.947273],[-75.100578,39.947273],[-75.100579,39.9473]]],[[[-75.096241,39.900898],[-75.099624,39.899248],[-75.098886,39.900446],[-75.097886,39.900231],[-75.097357,39.900838],[-75.096241,39.900898]]],[[[-75.09516,39.902414],[-75.094759,39.901389],[-75.09597,39.901229],[-75.097648,39.901523],[-75.097152,39.901882],[-75.096582,39.901913],[-75.096619,39.902077],[-75.09523,39.902221],[-75.09516,39.902414]],[[-75.095195,39.902249],[-75.095158,39.902194],[-75.095159,39.902249],[-75.095195,39.902249]]],[[[-75.095017,39.90236],[-75.095016,39.902387],[-75.095004,39.90236],[-75.095017,39.90236]]],[[[-75.096181,39.91383],[-75.096222,39.913857],[-75.09629,39.913884],[-75.096244,39.913898],[-75.096181,39.91383]]],[[[-75.084412,39.92531],[-75.084447,39.925338],[-75.084412,39.925338],[-75.084412,39.92531]]],[[[-75.084689,39.924403],[-75.083853,39.926739],[-75.08138,39.925993],[-75.084689,39.924403]]],[[[-75.102485,39.940976],[-75.102879,39.941139],[-75.103887,39.942259],[-75.104493,39.942256],[-75.104739,39.941843],[-75.105278,39.942279],[-75.104722,39.943902],[-75.103152,39.943828],[-75.103225,39.94402],[-75.103617,39.94399],[-75.103655,39.944292],[-75.104081,39.944043],[-75.104688,39.944067],[-75.104552,39.944864],[-75.103269,39.944953],[-75.103302,39.944706],[-75.10298,39.94457],[-75.103443,39.94443],[-75.103227,39.944267],[-75.102693,39.944379],[-75.103021,39.945146],[-75.101988,39.945316],[-75.101661,39.944687],[-75.102302,39.944546],[-75.10237,39.944161],[-75.102726,39.944077],[-75.102544,39.943639],[-75.10208,39.943669],[-75.102191,39.944053],[-75.101836,39.944219],[-75.102121,39.944218],[-75.102123,39.94441],[-75.101482,39.944523],[-75.101664,39.944934],[-75.101378,39.94488],[-75.101339,39.944551],[-75.0997,39.944724],[-75.099983,39.944476],[-75.099873,39.944065],[-75.09948,39.944012],[-75.099442,39.943737],[-75.099761,39.943571],[-75.099252,39.942475],[-75.098972,39.943053],[-75.097797,39.943279],[-75.09686,39.942158],[-75.096929,39.941911],[-75.097464,39.941853],[-75.097211,39.941553],[-75.096392,39.941667],[-75.096145,39.941942],[-75.094967,39.941866],[-75.094715,39.941648],[-75.09454,39.941951],[-75.093962,39.941157],[-75.093645,39.941571],[-75.09336,39.941572],[-75.093357,39.94127],[-75.093712,39.941049],[-75.093282,39.940804],[-75.093421,39.940419],[-75.093065,39.940503],[-75.093205,39.940173],[-75.092347,39.93993],[-75.092696,39.939105],[-75.092268,39.93908],[-75.091872,39.938642],[-75.0923,39.938613],[-75.092083,39.938312],[-75.092546,39.938282],[-75.092294,39.938009],[-75.091689,39.938149],[-75.090939,39.937988],[-75.091049,39.938317],[-75.091442,39.938398],[-75.091086,39.938482],[-75.09091,39.938812],[-75.09202,39.939301],[-75.091562,39.939962],[-75.091812,39.93996],[-75.092135,39.940206],[-75.091747,39.940702],[-75.09132,39.940842],[-75.091679,39.941059],[-75.091609,39.941252],[-75.091037,39.94109],[-75.09114,39.940595],[-75.090643,39.9409],[-75.091001,39.94109],[-75.090753,39.941256],[-75.091469,39.941582],[-75.0914,39.941802],[-75.090327,39.941451],[-75.090609,39.941092],[-75.090111,39.941232],[-75.090252,39.941067],[-75.090216,39.940984],[-75.089825,39.941151],[-75.090072,39.940875],[-75.089679,39.940822],[-75.089641,39.940521],[-75.089998,39.940491],[-75.088922,39.939893],[-75.088602,39.940004],[-75.089283,39.940385],[-75.088246,39.940061],[-75.087963,39.940337],[-75.08861,39.940855],[-75.087107,39.940286],[-75.08707,39.940094],[-75.087642,39.940284],[-75.087888,39.939898],[-75.086991,39.939299],[-75.088029,39.939705],[-75.087632,39.939131],[-75.088277,39.939429],[-75.088347,39.939374],[-75.087021,39.938612],[-75.088595,39.939126],[-75.087877,39.93858],[-75.088485,39.938769],[-75.088556,39.938714],[-75.087479,39.937978],[-75.088696,39.938384],[-75.087474,39.937345],[-75.088153,39.937453],[-75.088223,39.937288],[-75.088974,39.937559],[-75.089043,39.937339],[-75.08797,39.936933],[-75.088415,39.936574],[-75.08954,39.937089],[-75.08979,39.937088],[-75.088536,39.93645],[-75.089268,39.935738],[-75.089851,39.936182],[-75.090135,39.936064],[-75.090104,39.935397],[-75.089724,39.934693],[-75.088931,39.934367],[-75.087064,39.93482],[-75.08639,39.934661],[-75.086413,39.933372],[-75.086834,39.933369],[-75.087081,39.933094],[-75.086789,39.932354],[-75.087751,39.932212],[-75.086895,39.932216],[-75.086965,39.931969],[-75.086393,39.931834],[-75.086689,39.933123],[-75.086655,39.933315],[-75.086399,39.933234],[-75.085962,39.932029],[-75.086251,39.931972],[-75.085931,39.931946],[-75.085922,39.931765],[-75.087243,39.92975],[-75.087435,39.927986],[-75.087271,39.927236],[-75.086743,39.926816],[-75.084246,39.92678],[-75.084377,39.92542],[-75.085013,39.924703],[-75.086545,39.924586],[-75.0868,39.925188],[-75.087441,39.925103],[-75.088049,39.925292],[-75.08941,39.926054],[-75.089694,39.925888],[-75.090514,39.925938],[-75.091545,39.925466],[-75.092298,39.925984],[-75.092516,39.926422],[-75.093947,39.927019],[-75.093414,39.927269],[-75.093524,39.92757],[-75.093239,39.927572],[-75.091199,39.926731],[-75.090274,39.926955],[-75.090169,39.927203],[-75.089525,39.926932],[-75.089495,39.927591],[-75.088893,39.92817],[-75.089686,39.9291],[-75.089835,39.929813],[-75.088882,39.930998],[-75.08914,39.931958],[-75.088858,39.932426],[-75.08929,39.932808],[-75.089212,39.93204],[-75.089887,39.931734],[-75.090715,39.932691],[-75.090574,39.932911],[-75.092323,39.93304],[-75.093082,39.934161],[-75.094479,39.93495],[-75.09484,39.93547],[-75.09485,39.936623],[-75.095314,39.936593],[-75.095281,39.93695],[-75.094538,39.937613],[-75.093679,39.937315],[-75.091719,39.937408],[-75.091755,39.937462],[-75.092219,39.93757],[-75.092721,39.937814],[-75.092759,39.938171],[-75.092972,39.93795],[-75.093329,39.938031],[-75.093332,39.938388],[-75.09294,39.938472],[-75.093085,39.938719],[-75.092731,39.938967],[-75.093123,39.938993],[-75.094045,39.938329],[-75.094654,39.938656],[-75.094899,39.938078],[-75.095293,39.938295],[-75.094646,39.93775],[-75.09507,39.937336],[-75.097545,39.93886],[-75.097934,39.938556],[-75.097575,39.938311],[-75.098181,39.938253],[-75.098285,39.937923],[-75.098748,39.937756],[-75.099071,39.938001],[-75.099713,39.938026],[-75.099753,39.938547],[-75.100577,39.939009],[-75.101077,39.939007],[-75.100966,39.938623],[-75.101182,39.938842],[-75.101574,39.938812],[-75.101749,39.938372],[-75.102043,39.939414],[-75.102546,39.939823],[-75.103042,39.939408],[-75.102434,39.939192],[-75.103219,39.939243],[-75.103679,39.938856],[-75.104675,39.938549],[-75.105992,39.938295],[-75.106638,39.938731],[-75.106321,39.939144],[-75.106366,39.940215],[-75.106443,39.940873],[-75.106908,39.94109],[-75.106409,39.941038],[-75.105632,39.941921],[-75.104808,39.941541],[-75.105685,39.939861],[-75.105427,39.938957],[-75.104183,39.939348],[-75.103938,39.939925],[-75.104512,39.940279],[-75.103945,39.940749],[-75.103695,39.940668],[-75.103483,39.940944],[-75.102947,39.940837],[-75.102448,39.940812],[-75.102627,39.940921],[-75.102592,39.941003],[-75.102485,39.940976]],[[-75.093205,39.940173],[-75.09324,39.940145],[-75.093205,39.940146],[-75.093205,39.940173]],[[-75.0923,39.938613],[-75.092336,39.93864],[-75.092335,39.938613],[-75.0923,39.938613]],[[-75.091777,39.940016],[-75.091741,39.940043],[-75.091777,39.940043],[-75.091777,39.940016]],[[-75.088803,39.938383],[-75.088768,39.938466],[-75.088982,39.93852],[-75.088803,39.938383]],[[-75.088153,39.937453],[-75.088189,39.937481],[-75.088188,39.937453],[-75.088153,39.937453]],[[-75.088218,39.936739],[-75.088254,39.936767],[-75.088253,39.936739],[-75.088218,39.936739]],[[-75.084413,39.92542],[-75.084448,39.925447],[-75.084448,39.92542],[-75.084413,39.92542]],[[-75.091557,39.926866],[-75.091592,39.926839],[-75.091556,39.926839],[-75.091557,39.926866]],[[-75.102592,39.940976],[-75.102556,39.940948],[-75.102556,39.940976],[-75.102592,39.940976]],[[-75.102586,39.944325],[-75.102621,39.944325],[-75.102586,39.944325],[-75.102586,39.944325]]],[[[-75.091754,39.937408],[-75.091826,39.937435],[-75.091755,39.937435],[-75.091754,39.937408]]],[[[-75.094582,39.938601],[-75.094618,39.938573],[-75.094618,39.938601],[-75.094582,39.938601]]],[[[-75.094618,39.938601],[-75.094654,39.938628],[-75.094618,39.938628],[-75.094618,39.938601]]],[[[-75.098362,39.946735],[-75.098398,39.946708],[-75.098398,39.946735],[-75.098362,39.946735]]],[[[-75.098114,39.946929],[-75.098149,39.946874],[-75.098256,39.946873],[-75.098114,39.946929]]],[[[-75.098328,39.9469],[-75.098435,39.946927],[-75.098328,39.946928],[-75.098328,39.9469]]],[[[-75.098257,39.946956],[-75.098328,39.946928],[-75.098328,39.946955],[-75.098257,39.946956]]],[[[-75.098079,39.946956],[-75.098007,39.946929],[-75.098078,39.946929],[-75.098079,39.946956]]],[[[-75.098186,39.946983],[-75.098221,39.946956],[-75.098222,39.946983],[-75.098186,39.946983]]],[[[-75.098401,39.94712],[-75.098437,39.947092],[-75.098437,39.947119],[-75.098401,39.94712]]],[[[-75.09833,39.947147],[-75.098365,39.94712],[-75.098366,39.947147],[-75.09833,39.947147]]],[[[-75.097903,39.947287],[-75.097939,39.947314],[-75.097903,39.947314],[-75.097903,39.947287]]],[[[-75.09755,39.947646],[-75.097585,39.947618],[-75.097585,39.947645],[-75.09755,39.947646]]],[[[-75.097621,39.947673],[-75.097728,39.9477],[-75.097621,39.9477],[-75.097621,39.947673]]],[[[-75.097586,39.947728],[-75.097621,39.9477],[-75.097622,39.947728],[-75.097586,39.947728]]],[[[-75.089946,39.959407],[-75.089654,39.958613],[-75.090044,39.958309],[-75.0899,39.958172],[-75.089438,39.958367],[-75.089648,39.957899],[-75.089214,39.957297],[-75.090354,39.957044],[-75.090892,39.957371],[-75.091177,39.957314],[-75.091144,39.957699],[-75.091607,39.957587],[-75.091288,39.957836],[-75.091543,39.958411],[-75.090967,39.95781],[-75.090362,39.95795],[-75.090581,39.958525],[-75.090407,39.959021],[-75.090911,39.959567],[-75.091124,39.959511],[-75.090978,39.959073],[-75.091303,39.959538],[-75.091873,39.959425],[-75.09184,39.959727],[-75.092595,39.960492],[-75.092496,39.961426],[-75.091178,39.961652],[-75.091245,39.96113],[-75.090813,39.960611],[-75.091562,39.960634],[-75.091807,39.960057],[-75.091447,39.959702],[-75.091521,39.960058],[-75.0907,39.95998],[-75.090525,39.960365],[-75.090094,39.96001],[-75.089774,39.960122],[-75.089519,39.959547],[-75.089946,39.959407]],[[-75.089944,39.95916],[-75.08998,39.959187],[-75.08998,39.95916],[-75.089944,39.95916]]]]}}]}