{"type":"FeatureCollection","features":[{"type":"Feature","properties":{"level_ft":3},"geometry":{"type":"MultiPolygon","coordinates":[[[[-75.122642,39.917973],[-75.122678,39.918001],[-75.122642,39.918001],[-75.122642,39.917973]]],[[[-75.122678,39.918001],[-75.122714,39.918055],[-75.122678,39.918055],[-75.122678,39.918001]]],[[[-75.122714,39.918055],[-75.12275,39.918083],[-75.122714,39.918083],[-75.122714,39.918055]]],[[[-75.122821,39.91811],[-75.12275,39.918137],[-75.12275,39.918083],[-75.122821,39.91811]]],[[[-75.122857,39.918164],[-75.122822,39.918192],[-75.122822,39.918164],[-75.122857,39.918164]]],[[[-75.122858,39.918247],[-75.122893,39.918192],[-75.122894,39.918246],[-75.122858,39.918247]]],[[[-75.122894,39.918301],[-75.12293,39.918274],[-75.12293,39.918301],[-75.122894,39.918301]]],[[[-75.122787,39.918302],[-75.122823,39.918274],[-75.122896,39.918439],[-75.122787,39.918302]]],[[[-75.123002,39.918411],[-75.122967,39.918411],[-75.122966,39.918356],[-75.123002,39.918356],[-75.123002,39.918411]]],[[[-75.122717,39.918412],[-75.122752,39.918357],[-75.122824,39.918439],[-75.122717,39.918412]]],[[[-75.123038,39.918465],[-75.123002,39.918411],[-75.123038,39.91841],[-75.123038,39.918465]]],[[[-75.122825,39.918494],[-75.12286,39.918466],[-75.12286,39.918494],[-75.122825,39.918494]]],[[[-75.122932,39.918493],[-75.122932,39.918548],[-75.122896,39.918439],[-75.122932,39.918493]]],[[[-75.123039,39.918493],[-75.123075,39.91852],[-75.123039,39.91852],[-75.123039,39.918493]]],[[[-75.123075,39.918547],[-75.123111,39.918575],[-75.123075,39.918575],[-75.123075,39.918547]]],[[[-75.122969,39.91863],[-75.123003,39.918548],[-75.123004,39.91863],[-75.122969,39.91863]]],[[[-75.123112,39.918685],[-75.123147,39.918657],[-75.123147,39.918684],[-75.123112,39.918685]]],[[[-75.123005,39.918713],[-75.12304,39.918657],[-75.123041,39.918712],[-75.123005,39.918713]]],[[[-75.122862,39.918713],[-75.122898,39.918741],[-75.122863,39.918741],[-75.122862,39.918713]]],[[[-75.123148,39.918739],[-75.123184,39.918821],[-75.123149,39.918822],[-75.123148,39.918739]]],[[[-75.122686,39.918879],[-75.122721,39.918851],[-75.122721,39.918879],[-75.122686,39.918879]]],[[[-75.123079,39.918987],[-75.123078,39.918849],[-75.123041,39.918767],[-75.123113,39.918822],[-75.123079,39.918987]]],[[[-75.123221,39.918931],[-75.123187,39.919178],[-75.123185,39.918931],[-75.123221,39.918931]]],[[[-75.123115,39.919069],[-75.123151,39.919124],[-75.123116,39.919124],[-75.123115,39.919069]]],[[[-75.122937,39.919097],[-75.122867,39.919207],[-75.122866,39.91907],[-75.122937,39.919097]]],[[[-75.123224,39.91926],[-75.123081,39.919234],[-75.123152,39.919151],[-75.123224,39.91926]]],[[[-75.122974,39.919262],[-75.123009,39.919207],[-75.12301,39.919262],[-75.122974,39.919262]]],[[[-75.124169,39.921205],[-75.123346,39.920989],[-75.12377,39.92052],[-75.12388,39.920877],[-75.124734,39.920653],[-75.124772,39.920899],[-75.124273,39.92093],[-75.124489,39.921203],[-75.124773,39.921037],[-75.124847,39.921338],[-75.125058,39.921008],[-75.125308,39.921034],[-75.125312,39.921473],[-75.12435,39.921506],[-75.124169,39.921205]]],[[[-75.134194,39.952774],[-75.129228,39.95198],[-75.129297,39.951733],[-75.13044,39.951891],[-75.130539,39.950957],[-75.130967,39.950955],[-75.131274,39.949416],[-75.131557,39.94925],[-75.131445,39.948646],[-75.132624,39.948832],[-75.132762,39.948337],[-75.130759,39.947772],[-75.130969,39.947331],[-75.131466,39.947081],[-75.132206,39.942163],[-75.131817,39.942605],[-75.131105,39.942691],[-75.130602,39.942364],[-75.130562,39.94187],[-75.131094,39.941483],[-75.13195,39.941533],[-75.132024,39.941835],[-75.132272,39.941614],[-75.132004,39.939666],[-75.131433,39.939614],[-75.1315,39.939092],[-75.131146,39.939396],[-75.130468,39.939372],[-75.130501,39.939043],[-75.130109,39.939155],[-75.130422,39.938274],[-75.13034,39.937122],[-75.130767,39.936982],[-75.130227,39.936436],[-75.130433,39.935584],[-75.131397,39.935661],[-75.131571,39.935166],[-75.131858,39.935357],[-75.131656,39.936703],[-75.131407,39.936759],[-75.131555,39.937307],[-75.131272,39.937638],[-75.131702,39.937828],[-75.132471,39.932223],[-75.131864,39.932172],[-75.131888,39.930854],[-75.131559,39.930032],[-75.132129,39.929947],[-75.131762,39.928823],[-75.130764,39.928883],[-75.130613,39.927978],[-75.131178,39.927371],[-75.130924,39.926906],[-75.130424,39.926854],[-75.129991,39.926252],[-75.129094,39.92568],[-75.126588,39.924596],[-75.128613,39.923734],[-75.127376,39.92105],[-75.126949,39.92108],[-75.12705,39.920503],[-75.127586,39.920582],[-75.127404,39.920226],[-75.127758,39.919867],[-75.12658,39.919791],[-75.126537,39.918941],[-75.125783,39.918423],[-75.125843,39.917187],[-75.126303,39.916718],[-75.126292,39.915565],[-75.123619,39.915607],[-75.12326,39.915417],[-75.123255,39.91484],[-75.123503,39.914647],[-75.122539,39.914542],[-75.122714,39.914129],[-75.12464,39.914201],[-75.124663,39.912829],[-75.124021,39.912777],[-75.123982,39.912393],[-75.123625,39.912367],[-75.123363,39.911051],[-75.124038,39.910745],[-75.124644,39.910797],[-75.124493,39.90981],[-75.124742,39.909753],[-75.124702,39.909232],[-75.125019,39.908846],[-75.125234,39.908927],[-75.125625,39.90887],[-75.125232,39.908762],[-75.121417,39.908728],[-75.121519,39.908206],[-75.12537,39.908295],[-75.125654,39.908156],[-75.125084,39.908214],[-75.125082,39.907912],[-75.122086,39.907791],[-75.121517,39.907959],[-75.120917,39.908648],[-75.120133,39.908652],[-75.121403,39.907762],[-75.122836,39.907428],[-75.129344,39.907381],[-75.129091,39.911608],[-75.12984,39.915359],[-75.135874,39.927639],[-75.136463,39.929363],[-75.136805,39.937021],[-75.136267,39.943911],[-75.135365,39.948635],[-75.134194,39.952774]]],[[[-75.126785,39.938377],[-75.126649,39.939036],[-75.127149,39.939171],[-75.126759,39.93942],[-75.126579,39.939201],[-75.125865,39.939123],[-75.126363,39.938955],[-75.126495,39.937802],[-75.125493,39.937423],[-75.126419,39.93728],[-75.126599,39.937444],[-75.126665,39.936895],[-75.125842,39.936652],[-75.126662,39.936565],[-75.126696,39.936373],[-75.12573,39.936049],[-75.126121,39.935909],[-75.12619,39.935634],[-75.125688,39.935335],[-75.126113,39.935086],[-75.126258,39.93525],[-75.126827,39.935109],[-75.126895,39.93478],[-75.125969,39.934922],[-75.125503,39.934595],[-75.12593,39.934538],[-75.125999,39.93429],[-75.12618,39.934536],[-75.126964,39.93445],[-75.126889,39.934066],[-75.126138,39.933905],[-75.126958,39.933846],[-75.126954,39.933352],[-75.126025,39.933247],[-75.1272,39.933021],[-75.126766,39.932392],[-75.127266,39.932389],[-75.127333,39.932004],[-75.126726,39.931898],[-75.125766,39.932178],[-75.125657,39.931986],[-75.125265,39.932015],[-75.125655,39.931766],[-75.12537,39.931768],[-75.125258,39.931274],[-75.12483,39.931194],[-75.125505,39.930889],[-75.125463,39.93023],[-75.126747,39.930223],[-75.126884,39.929618],[-75.126384,39.929566],[-75.126595,39.929235],[-75.12588,39.929047],[-75.125631,39.929076],[-75.125564,39.929571],[-75.125275,39.929133],[-75.124419,39.929165],[-75.124346,39.928946],[-75.125094,39.928832],[-75.124665,39.928807],[-75.124627,39.928505],[-75.123736,39.92851],[-75.123524,39.928813],[-75.123344,39.928539],[-75.121811,39.928657],[-75.121707,39.928932],[-75.121562,39.928659],[-75.120919,39.92858],[-75.121524,39.928439],[-75.121483,39.927863],[-75.121987,39.928382],[-75.122342,39.928215],[-75.12209,39.927915],[-75.121769,39.927916],[-75.121978,39.927366],[-75.122158,39.927612],[-75.123515,39.927742],[-75.123191,39.927387],[-75.122372,39.927529],[-75.122011,39.927091],[-75.122653,39.92706],[-75.122506,39.926622],[-75.122855,39.925742],[-75.12307,39.925933],[-75.123028,39.925164],[-75.123566,39.925573],[-75.123958,39.925543],[-75.125791,39.927126],[-75.126468,39.926985],[-75.126864,39.927395],[-75.127291,39.927365],[-75.127331,39.927859],[-75.128509,39.927935],[-75.129668,39.92996],[-75.130737,39.929817],[-75.131059,39.929953],[-75.13099,39.930145],[-75.129885,39.930206],[-75.129566,39.93051],[-75.128914,39.933286],[-75.127559,39.933266],[-75.127355,39.934393],[-75.128532,39.934414],[-75.128534,39.934578],[-75.127465,39.934639],[-75.127288,39.934887],[-75.126848,39.937388],[-75.12742,39.937604],[-75.126781,39.93791],[-75.127071,39.938402],[-75.126785,39.938377]],[[-75.125571,39.930394],[-75.125679,39.930421],[-75.125678,39.930393],[-75.125571,39.930394]],[[-75.126785,39.938377],[-75.126749,39.938349],[-75.12675,39.938377],[-75.126785,39.938377]]],[[[-75.12896,39.934411],[-75.129385,39.934052],[-75.129275,39.933723],[-75.130059,39.933664],[-75.129707,39.934215],[-75.129852,39.934434],[-75.129496,39.934546],[-75.129463,39.934821],[-75.12896,39.934411]]],[[[-75.1293,39.944265],[-75.12916,39.944486],[-75.129408,39.944402],[-75.129202,39.945254],[-75.129421,39.945802],[-75.129033,39.946244],[-75.12925,39.946572],[-75.12886,39.946794],[-75.129541,39.947202],[-75.129365,39.947395],[-75.129545,39.947613],[-75.128262,39.947758],[-75.12834,39.948499],[-75.127912,39.948473],[-75.127814,39.949435],[-75.127111,39.950647],[-75.127083,39.951443],[-75.126656,39.951528],[-75.125939,39.951175],[-75.126793,39.950895],[-75.126931,39.950373],[-75.126715,39.950237],[-75.127,39.950208],[-75.127103,39.949741],[-75.126992,39.949329],[-75.126598,39.949084],[-75.127205,39.949164],[-75.12752,39.948558],[-75.127519,39.948366],[-75.126661,39.948178],[-75.12666,39.948096],[-75.126801,39.947958],[-75.127621,39.947816],[-75.12783,39.947321],[-75.127328,39.947022],[-75.126614,39.946998],[-75.126255,39.946698],[-75.126575,39.946559],[-75.128074,39.946715],[-75.128493,39.94567],[-75.128133,39.945315],[-75.128378,39.944847],[-75.127484,39.944605],[-75.127518,39.944385],[-75.128838,39.94446],[-75.129012,39.94391],[-75.129261,39.943909],[-75.1293,39.944265]],[[-75.126838,39.948013],[-75.126874,39.94804],[-75.126873,39.948012],[-75.126838,39.948013]],[[-75.129263,39.944128],[-75.129192,39.944156],[-75.129264,39.944156],[-75.129263,39.944128]]],[[[-75.126588,39.95194],[-75.126764,39.951719],[-75.126731,39.951939],[-75.126588,39.95194]]],[[[-75.118396,39.90976],[-75.119105,39.909262],[-75.120104,39.909394],[-75.119646,39.910028],[-75.118396,39.90976]]],[[[-75.119675,39.917138],[-75.119568,39.917166],[-75.119568,39.917139],[-75.119675,39.917138]]],[[[-75.120105,39.917355],[-75.12014,39.917328],[-75.12014,39.917355],[-75.120105,39.917355]]],[[[-75.121353,39.917349],[-75.121388,39.917376],[-75.121353,39.917376],[-75.121353,39.917349]]],[[[-75.121531,39.917375],[-75.121567,39.917403],[-75.121531,39.917403],[-75.121531,39.917375]]],[[[-75.121424,39.917376],[-75.12146,39.917403],[-75.121424,39.917403],[-75.121424,39.917376]]],[[[-75.121638,39.91743],[-75.121603,39.917402],[-75.121638,39.917402],[-75.121638,39.91743]]],[[[-75.12146,39.917403],[-75.121496,39.91743],[-75.12146,39.917431],[-75.12146,39.917403]]],[[[-75.120391,39.917436],[-75.120426,39.917409],[-75.120426,39.917436],[-75.120391,39.917436]]],[[[-75.121674,39.917429],[-75.12171,39.917457],[-75.121674,39.917457],[-75.121674,39.917429]]],[[[-75.121532,39.91743],[-75.121603,39.917457],[-75.121532,39.917458],[-75.121532,39.91743]]],[[[-75.121318,39.917459],[-75.121282,39.917432],[-75.121318,39.917431],[-75.121318,39.917459]]],[[[-75.120498,39.917436],[-75.120534,39.917463],[-75.120498,39.917463],[-75.120498,39.917436]]],[[[-75.121603,39.917485],[-75.121674,39.917457],[-75.121675,39.917484],[-75.121603,39.917485]]],[[[-75.121854,39.917566],[-75.12171,39.917457],[-75.121853,39.917483],[-75.121818,39.917538],[-75.121854,39.917566]]],[[[-75.121853,39.917511],[-75.121925,39.917538],[-75.121853,39.917538],[-75.121853,39.917511]]],[[[-75.120926,39.917516],[-75.120962,39.917543],[-75.120926,39.917543],[-75.120926,39.917516]]],[[[-75.121996,39.917537],[-75.121925,39.917565],[-75.121925,39.917538],[-75.121996,39.917537]]],[[[-75.12189,39.917593],[-75.121925,39.917565],[-75.121925,39.917593],[-75.12189,39.917593]]],[[[-75.121818,39.917621],[-75.121854,39.917648],[-75.121819,39.917648],[-75.121818,39.917621]]],[[[-75.121855,39.917676],[-75.12189,39.917648],[-75.12189,39.917675],[-75.121855,39.917676]]],[[[-75.12132,39.917733],[-75.121391,39.917678],[-75.121427,39.917733],[-75.12132,39.917733]]],[[[-75.121568,39.917567],[-75.12243,39.918249],[-75.121319,39.917569],[-75.120319,39.917354],[-75.120176,39.917383],[-75.120211,39.917327],[-75.119961,39.917246],[-75.11996,39.917164],[-75.121568,39.917567]]],[[[-75.122462,39.917837],[-75.122498,39.917864],[-75.122462,39.917864],[-75.122462,39.917837]]],[[[-75.12257,39.917919],[-75.122498,39.917864],[-75.122569,39.917864],[-75.12257,39.917919]]],[[[-75.122428,39.917947],[-75.122787,39.918247],[-75.122537,39.918248],[-75.121925,39.917593],[-75.122462,39.917782],[-75.122462,39.917837],[-75.122427,39.917865],[-75.122428,39.917947]],[[-75.122715,39.91822],[-75.122679,39.918193],[-75.12268,39.91822],[-75.122715,39.91822]]],[[[-75.122606,39.917919],[-75.12257,39.917946],[-75.12257,39.917919],[-75.122606,39.917919]]],[[[-75.122499,39.917919],[-75.122463,39.917947],[-75.122463,39.917919],[-75.122499,39.917919]]],[[[-75.122606,39.917946],[-75.122642,39.917973],[-75.122606,39.917973],[-75.122606,39.917946]]],[[[-75.122866,39.91907],[-75.122575,39.918468],[-75.122288,39.918277],[-75.122718,39.918494],[-75.122866,39.91907]]],[[[-75.121329,39.926573],[-75.120935,39.926411],[-75.120508,39.926523],[-75.120577,39.926248],[-75.120222,39.926415],[-75.119651,39.926308],[-75.119649,39.926143],[-75.12054,39.926029],[-75.120465,39.925672],[-75.120748,39.925396],[-75.120318,39.925179],[-75.120494,39.924931],[-75.119602,39.924853],[-75.12092,39.924736],[-75.121272,39.924213],[-75.121382,39.924514],[-75.121667,39.924485],[-75.121553,39.923799],[-75.121839,39.923798],[-75.122771,39.924342],[-75.122989,39.924835],[-75.122813,39.925055],[-75.121386,39.924953],[-75.121513,39.927204],[-75.121329,39.926573]]],[[[-75.116717,39.925225],[-75.116742,39.9241],[-75.116781,39.924374],[-75.117783,39.924863],[-75.117645,39.92533],[-75.116719,39.925445],[-75.11662,39.926351],[-75.116906,39.926377],[-75.117231,39.926842],[-75.116733,39.927037],[-75.116231,39.92671],[-75.116226,39.926189],[-75.116472,39.925803],[-75.116435,39.925639],[-75.116574,39.925226],[-75.116717,39.925225]],[[-75.116471,39.925638],[-75.116507,39.925666],[-75.116507,39.925638],[-75.116471,39.925638]]],[[[-75.117626,39.92717],[-75.117752,39.925302],[-75.117969,39.925658],[-75.119288,39.925651],[-75.119402,39.926446],[-75.117906,39.926592],[-75.117626,39.92717]]],[[[-75.111109,39.90008],[-75.110426,39.899425],[-75.110066,39.899078],[-75.110386,39.898985],[-75.111109,39.90008]]],[[[-75.111787,39.900104],[-75.111567,39.899501],[-75.112715,39.900291],[-75.112253,39.900458],[-75.111787,39.900104]]],[[[-75.103278,39.901274],[-75.099103,39.900829],[-75.099102,39.900664],[-75.099909,39.899232],[-75.101146,39.898882],[-75.102116,39.899107],[-75.102917,39.899882],[-75.104793,39.900527],[-75.107941,39.900238],[-75.10964,39.899265],[-75.109894,39.899729],[-75.109754,39.900032],[-75.106128,39.901149],[-75.103278,39.901274]]],[[[-75.115588,39.902637],[-75.113112,39.900893],[-75.112397,39.900567],[-75.112752,39.900401],[-75.113068,39.89996],[-75.1126,39.899358],[-75.111633,39.898897],[-75.110994,39.899147],[-75.110528,39.898905],[-75.111838,39.898569],[-75.113166,39.899305],[-75.113874,39.901102],[-75.11643,39.902191],[-75.11655,39.902879],[-75.115588,39.902637]]],[[[-75.115267,39.902666],[-75.114124,39.902397],[-75.11362,39.901851],[-75.11294,39.90158],[-75.112866,39.901196],[-75.112076,39.900569],[-75.113114,39.90103],[-75.115267,39.902666]]],[[[-75.107203,39.90172],[-75.107557,39.901471],[-75.109018,39.901464],[-75.110304,39.901704],[-75.110412,39.901895],[-75.110019,39.901815],[-75.109273,39.902094],[-75.10888,39.901931],[-75.107208,39.902352],[-75.107203,39.90172]]],[[[-75.115267,39.902693],[-75.115338,39.902666],[-75.115339,39.902693],[-75.115267,39.902693]]],[[[-75.114772,39.903108],[-75.114091,39.902727],[-75.116513,39.903126],[-75.116128,39.90332],[-75.114772,39.903108]]],[[[-75.113983,39.906599],[-75.113914,39.906874],[-75.113876,39.906599],[-75.113983,39.906599]]],[[[-75.117875,39.911273],[-75.117691,39.91067],[-75.117627,39.911411],[-75.117307,39.91155],[-75.117088,39.910947],[-75.117464,39.909161],[-75.114595,39.907227],[-75.114819,39.908324],[-75.114711,39.908269],[-75.113716,39.904596],[-75.113846,39.903195],[-75.116437,39.903456],[-75.114714,39.905734],[-75.115126,39.906652],[-75.117488,39.90849],[-75.119918,39.908517],[-75.11978,39.909066],[-75.118676,39.909182],[-75.118038,39.909597],[-75.118005,39.909872],[-75.117897,39.909708],[-75.11797,39.909954],[-75.117975,39.910448],[-75.117875,39.911273]],[[-75.117727,39.910669],[-75.117763,39.910642],[-75.117727,39.910642],[-75.117727,39.910669]],[[-75.117935,39.910037],[-75.117899,39.91001],[-75.1179,39.910037],[-75.117935,39.910037]]],[[[-75.110124,39.909557],[-75.109344,39.910055],[-75.108806,39.909728],[-75.108273,39.909868],[-75.109137,39.910852],[-75.10953,39.91096],[-75.109533,39.911234],[-75.108929,39.911567],[-75.10904,39.911923],[-75.108645,39.911706],[-75.108648,39.91198],[-75.108184,39.911928],[-75.108465,39.911487],[-75.107535,39.911053],[-75.106287,39.911059],[-75.105684,39.911419],[-75.105253,39.911065],[-75.104254,39.910933],[-75.104291,39.911179],[-75.104007,39.911291],[-75.103294,39.911294],[-75.10315,39.911103],[-75.103681,39.910716],[-75.103608,39.910497],[-75.102716,39.910419],[-75.102576,39.910749],[-75.101864,39.910808],[-75.10176,39.911193],[-75.101907,39.911604],[-75.102154,39.911383],[-75.102619,39.911518],[-75.101876,39.91218],[-75.10159,39.912127],[-75.101169,39.912925],[-75.100809,39.912515],[-75.100137,39.913068],[-75.099531,39.913153],[-75.099856,39.913618],[-75.099614,39.913828],[-75.098545,39.91379],[-75.098005,39.914078],[-75.09735,39.913506],[-75.096364,39.913826],[-75.095609,39.913009],[-75.096218,39.913418],[-75.098108,39.91349],[-75.09928,39.912963],[-75.099709,39.91307],[-75.099672,39.912878],[-75.100665,39.912351],[-75.100659,39.911583],[-75.101368,39.911112],[-75.101364,39.910755],[-75.100153,39.910872],[-75.099653,39.910709],[-75.099112,39.909998],[-75.098999,39.90934],[-75.099535,39.90942],[-75.100146,39.909993],[-75.101668,39.90875],[-75.102026,39.90894],[-75.102309,39.908746],[-75.103556,39.908658],[-75.104377,39.908736],[-75.105454,39.909581],[-75.106453,39.909741],[-75.107378,39.909434],[-75.108092,39.909595],[-75.108515,39.909043],[-75.108476,39.908659],[-75.108937,39.908355],[-75.110097,39.906537],[-75.111089,39.905845],[-75.111225,39.905131],[-75.112577,39.904794],[-75.113627,39.906655],[-75.114764,39.910218],[-75.114151,39.909398],[-75.113452,39.907041],[-75.111603,39.90749],[-75.112778,39.907401],[-75.112994,39.907647],[-75.112507,39.908967],[-75.111582,39.909219],[-75.111225,39.909112],[-75.111157,39.909469],[-75.110837,39.909608],[-75.110264,39.909336],[-75.110227,39.909089],[-75.110124,39.909557]],[[-75.108106,39.911214],[-75.108142,39.911187],[-75.108106,39.911187],[-75.108106,39.911214]],[[-75.100881,39.912515],[-75.100916,39.912487],[-75.10088,39.912488],[-75.100881,39.912515]],[[-75.108163,39.909567],[-75.108201,39.909786],[-75.108343,39.909731],[-75.108163,39.909567]],[[-75.110227,39.909089],[-75.110191,39.909062],[-75.110191,39.90909],[-75.110227,39.909089]]],[[[-75.113657,39.913985],[-75.114974,39.913759],[-75.11512,39.914142],[-75.114873,39.914391],[-75.114372,39.914256],[-75.114659,39.914419],[-75.114554,39.914612],[-75.114232,39.914477],[-75.113663,39.914617],[-75.113446,39.914343],[-75.113661,39.914397],[-75.113657,39.913985]]],[[[-75.113745,39.923896],[-75.11492,39.923697],[-75.115563,39.923776],[-75.115565,39.923996],[-75.115317,39.924189],[-75.113855,39.92417],[-75.113745,39.923896]]],[[[-75.116492,39.923964],[-75.116603,39.924485],[-75.116532,39.924485],[-75.116492,39.923964]]],[[[-75.116712,39.924731],[-75.116677,39.924786],[-75.116677,39.924731],[-75.116712,39.924731]]],[[[-75.116715,39.924978],[-75.116678,39.924896],[-75.116714,39.924896],[-75.116715,39.924978]]],[[[-75.116679,39.924978],[-75.116644,39.925061],[-75.116643,39.924979],[-75.116679,39.924978]]],[[[-75.116608,39.925061],[-75.116645,39.925198],[-75.11661,39.925198],[-75.116608,39.925061]]],[[[-75.116537,39.925089],[-75.116292,39.925612],[-75.116501,39.924979],[-75.116537,39.925089]]],[[[-75.115825,39.925175],[-75.115688,39.925752],[-75.115754,39.925176],[-75.115825,39.925175]]],[[[-75.116436,39.925748],[-75.116401,39.925804],[-75.116401,39.925749],[-75.116436,39.925748]]],[[[-75.115652,39.925807],[-75.115797,39.926054],[-75.11569,39.926054],[-75.115652,39.925807]]],[[[-75.106529,39.942602],[-75.107165,39.94183],[-75.107698,39.941663],[-75.107704,39.942322],[-75.106529,39.942602]]],[[[-75.114881,39.943162],[-75.114877,39.942778],[-75.116269,39.942826],[-75.116449,39.943017],[-75.114881,39.943162]]],[[[-75.106821,39.94326],[-75.10732,39.943312],[-75.107639,39.943091],[-75.107393,39.943504],[-75.108145,39.943802],[-75.10765,39.944326],[-75.106938,39.944467],[-75.106361,39.943701],[-75.106466,39.943509],[-75.106859,39.943589],[-75.106821,39.94326]],[[-75.106788,39.943589],[-75.106752,39.943617],[-75.106788,39.943617],[-75.106788,39.943589]],[[-75.106857,39.943342],[-75.106893,39.943369],[-75.106893,39.943342],[-75.106857,39.943342]]],[[[-75.107687,39.944463],[-75.107652,39.944491],[-75.107652,39.944463],[-75.107687,39.944463]]],[[[-75.107724,39.944545],[-75.10776,39.944573],[-75.107724,39.944573],[-75.107724,39.944545]]],[[[-75.10776,39.9446],[-75.107795,39.944572],[-75.107796,39.9446],[-75.10776,39.9446]]],[[[-75.107724,39.944628],[-75.10776,39.9446],[-75.10776,39.944627],[-75.107724,39.944628]]],[[[-75.107724,39.9446],[-75.107475,39.944711],[-75.10762,39.944903],[-75.107083,39.944658],[-75.107474,39.944492],[-75.107723,39.94449],[-75.107724,39.944545],[-75.107688,39.944573],[-75.107724,39.9446]],[[-75.107582,39.944601],[-75.107546,39.944574],[-75.107546,39.944601],[-75.107582,39.944601]],[[-75.107546,39.944574],[-75.10751,39.944546],[-75.10751,39.944574],[-75.107546,39.944574]]],[[[-75.107547,39.944711],[-75.107511,39.944739],[-75.107511,39.944711],[-75.107547,39.944711]]],[[[-75.107583,39.944738],[-75.107547,39.944766],[-75.107547,39.944738],[-75.107583,39.944738]]],[[[-75.12678,39.95732],[-75.127387,39.957344],[-75.12838,39.956762],[-75.127555,39.9563],[-75.127163,39.956329],[-75.127059,39.956604],[-75.126129,39.95639],[-75.12623,39.95573],[-75.126801,39.955672],[-75.126264,39.95551],[-75.126226,39.955291],[-75.126512,39.955289],[-75.126295,39.954961],[-75.126722,39.954904],[-75.126823,39.954217],[-75.127363,39.954763],[-75.129472,39.955273],[-75.12972,39.95508],[-75.129823,39.95464],[-75.128673,39.953685],[-75.128669,39.953274],[-75.129593,39.952829],[-75.128842,39.952696],[-75.128875,39.952339],[-75.129373,39.952199],[-75.134089,39.953025],[-75.132573,39.956557],[-75.130162,39.959455],[-75.125749,39.962444],[-75.122172,39.964298],[-75.119748,39.96171],[-75.118447,39.960723],[-75.115839,39.959328],[-75.110143,39.958016],[-75.108033,39.958011],[-75.106227,39.958401],[-75.104126,39.95944],[-75.096972,39.964978],[-75.093629,39.966868],[-75.088105,39.969382],[-75.087023,39.96806],[-75.087735,39.967792],[-75.087128,39.96774],[-75.086951,39.967906],[-75.085868,39.966483],[-75.086334,39.966701],[-75.08683,39.966259],[-75.087223,39.966422],[-75.087113,39.966038],[-75.086899,39.966066],[-75.087147,39.965791],[-75.086752,39.965546],[-75.086893,39.96538],[-75.087891,39.965265],[-75.088392,39.965427],[-75.08914,39.965259],[-75.089493,39.964845],[-75.090421,39.964841],[-75.090601,39.965059],[-75.089968,39.966106],[-75.091069,39.965524],[-75.090853,39.965278],[-75.090992,39.964865],[-75.09135,39.964973],[-75.091891,39.965739],[-75.092143,39.96593],[-75.091959,39.965245],[-75.091637,39.965136],[-75.092133,39.964832],[-75.091671,39.964971],[-75.090812,39.964646],[-75.090447,39.963742],[-75.090091,39.963772],[-75.090121,39.96314],[-75.09037,39.963029],[-75.089976,39.962839],[-75.090008,39.962454],[-75.090543,39.962424],[-75.090647,39.962067],[-75.091146,39.962092],[-75.091286,39.961761],[-75.091892,39.961703],[-75.093256,39.962602],[-75.093575,39.962381],[-75.09529,39.962702],[-75.095472,39.963113],[-75.096081,39.963411],[-75.095537,39.962371],[-75.095893,39.962287],[-75.096396,39.962669],[-75.096465,39.962449],[-75.096894,39.962446],[-75.096322,39.962312],[-75.096209,39.961626],[-75.096495,39.961735],[-75.097302,39.960193],[-75.097661,39.960438],[-75.09798,39.960162],[-75.098271,39.960847],[-75.098484,39.960681],[-75.099234,39.960787],[-75.099874,39.960537],[-75.100013,39.960179],[-75.09958,39.959577],[-75.100512,39.960094],[-75.100506,39.959353],[-75.101146,39.95913],[-75.101184,39.959377],[-75.101398,39.959431],[-75.101175,39.958444],[-75.100026,39.957544],[-75.100631,39.957403],[-75.100705,39.95765],[-75.101097,39.957648],[-75.100947,39.956852],[-75.100518,39.956717],[-75.099808,39.957133],[-75.099022,39.956917],[-75.098065,39.957691],[-75.098132,39.957224],[-75.098489,39.957222],[-75.098843,39.956836],[-75.098697,39.956535],[-75.099054,39.956505],[-75.098768,39.956479],[-75.098729,39.956095],[-75.099621,39.956063],[-75.099685,39.955239],[-75.100004,39.955018],[-75.10036,39.954934],[-75.100471,39.955372],[-75.100612,39.955234],[-75.100756,39.955316],[-75.099553,39.956503],[-75.099982,39.956638],[-75.100944,39.956496],[-75.101375,39.956823],[-75.101299,39.956302],[-75.10244,39.956213],[-75.103221,39.955797],[-75.104078,39.95582],[-75.104401,39.956038],[-75.106753,39.955779],[-75.108741,39.954698],[-75.109909,39.953621],[-75.110048,39.953236],[-75.108971,39.952473],[-75.108115,39.95245],[-75.107717,39.951875],[-75.107003,39.951742],[-75.106398,39.951937],[-75.105609,39.951502],[-75.105855,39.951034],[-75.106247,39.950977],[-75.107568,39.951162],[-75.107821,39.951545],[-75.108462,39.951405],[-75.109392,39.951674],[-75.109962,39.951589],[-75.109812,39.950711],[-75.109455,39.950768],[-75.109592,39.950054],[-75.109226,39.949012],[-75.108037,39.947673],[-75.108212,39.947316],[-75.107851,39.946878],[-75.107069,39.947129],[-75.106611,39.947791],[-75.106792,39.948092],[-75.106548,39.948724],[-75.107255,39.948062],[-75.107472,39.948335],[-75.106631,39.950097],[-75.106277,39.950318],[-75.106885,39.950507],[-75.107382,39.950312],[-75.107456,39.950587],[-75.108279,39.950829],[-75.108456,39.950691],[-75.108461,39.95124],[-75.106601,39.950728],[-75.105602,39.950706],[-75.103797,39.952308],[-75.103658,39.952748],[-75.104019,39.953213],[-75.1037,39.953489],[-75.103056,39.953218],[-75.103017,39.952833],[-75.102662,39.953],[-75.102194,39.952591],[-75.101768,39.952812],[-75.101445,39.95254],[-75.102118,39.952014],[-75.10169,39.952044],[-75.102079,39.951603],[-75.101899,39.951412],[-75.10222,39.951465],[-75.102503,39.951161],[-75.102607,39.950886],[-75.102392,39.950778],[-75.102713,39.950749],[-75.102887,39.950199],[-75.102241,39.94979],[-75.101709,39.950122],[-75.101884,39.949737],[-75.101668,39.949546],[-75.102383,39.949734],[-75.101917,39.94949],[-75.103132,39.949731],[-75.103381,39.949565],[-75.10349,39.949784],[-75.103808,39.949453],[-75.103668,39.949838],[-75.103988,39.949726],[-75.103954,39.949891],[-75.104383,39.949971],[-75.104771,39.94942],[-75.104054,39.949039],[-75.104625,39.949091],[-75.10473,39.948926],[-75.103659,39.948767],[-75.103585,39.94852],[-75.103122,39.948495],[-75.102869,39.948195],[-75.10262,39.948278],[-75.102654,39.948058],[-75.102117,39.947842],[-75.102115,39.947649],[-75.102759,39.947811],[-75.103257,39.947616],[-75.103365,39.94778],[-75.102965,39.946931],[-75.102788,39.947069],[-75.103039,39.947233],[-75.102325,39.947099],[-75.101795,39.947733],[-75.101757,39.947459],[-75.101256,39.947297],[-75.101254,39.946995],[-75.100753,39.946888],[-75.100931,39.946859],[-75.100751,39.946668],[-75.100929,39.946612],[-75.100928,39.946502],[-75.100394,39.946643],[-75.09979,39.94692],[-75.099899,39.947057],[-75.099328,39.947115],[-75.099009,39.947281],[-75.099584,39.947745],[-75.098903,39.947391],[-75.098155,39.94756],[-75.098546,39.947366],[-75.09819,39.94745],[-75.098083,39.947396],[-75.099506,39.947059],[-75.099256,39.946978],[-75.100181,39.946671],[-75.100428,39.946423],[-75.101246,39.946171],[-75.101638,39.946142],[-75.101497,39.94628],[-75.101533,39.946335],[-75.101994,39.945975],[-75.102032,39.94625],[-75.102531,39.946275],[-75.102955,39.945806],[-75.103031,39.946272],[-75.103672,39.946159],[-75.103888,39.94646],[-75.105245,39.946562],[-75.105282,39.946754],[-75.104604,39.946703],[-75.104146,39.947337],[-75.104717,39.947361],[-75.104893,39.947113],[-75.104861,39.947498],[-75.106114,39.94804],[-75.107316,39.946881],[-75.107099,39.946525],[-75.106743,39.946555],[-75.107168,39.946223],[-75.105632,39.945956],[-75.105563,39.946231],[-75.104922,39.946344],[-75.104028,39.946075],[-75.103704,39.945774],[-75.103948,39.945142],[-75.106726,39.944688],[-75.104556,39.945303],[-75.105306,39.945436],[-75.106052,39.945131],[-75.107194,39.945152],[-75.107983,39.94567],[-75.10849,39.946463],[-75.108703,39.946434],[-75.108815,39.946983],[-75.110222,39.948787],[-75.110635,39.951091],[-75.110102,39.951259],[-75.110067,39.951396],[-75.110601,39.951256],[-75.110673,39.951338],[-75.110033,39.951534],[-75.110745,39.95142],[-75.111618,39.953255],[-75.111051,39.95367],[-75.110949,39.954247],[-75.112036,39.956136],[-75.11197,39.956712],[-75.112529,39.955447],[-75.113062,39.955252],[-75.112791,39.956763],[-75.113288,39.956568],[-75.113223,39.957255],[-75.113721,39.957142],[-75.113868,39.957553],[-75.114401,39.957386],[-75.114583,39.957714],[-75.115686,39.957407],[-75.11562,39.958011],[-75.116262,39.957953],[-75.116041,39.95724],[-75.116855,39.956549],[-75.117573,39.957012],[-75.117541,39.957424],[-75.11786,39.95723],[-75.11808,39.957806],[-75.118436,39.957721],[-75.11883,39.957939],[-75.11862,39.958324],[-75.119332,39.958183],[-75.119398,39.957606],[-75.120037,39.957301],[-75.120122,39.958756],[-75.120658,39.958862],[-75.121263,39.958695],[-75.122157,39.958992],[-75.122962,39.957285],[-75.12297,39.958081],[-75.123578,39.95827],[-75.123748,39.957418],[-75.124284,39.957498],[-75.124639,39.957249],[-75.124721,39.958401],[-75.125822,39.957901],[-75.12564,39.95749],[-75.126136,39.957103],[-75.126025,39.956637],[-75.126811,39.95677],[-75.12678,39.95732]],[[-75.08914,39.965259],[-75.089176,39.965286],[-75.089176,39.965259],[-75.08914,39.965259]],[[-75.096894,39.962446],[-75.096929,39.962474],[-75.096929,39.962446],[-75.096894,39.962446]],[[-75.096821,39.962337],[-75.096857,39.962309],[-75.096821,39.96231],[-75.096821,39.962337]],[[-75.106612,39.947928],[-75.106541,39.947983],[-75.106577,39.947983],[-75.106612,39.947928]],[[-75.103587,39.952721],[-75.103514,39.952584],[-75.103372,39.952667],[-75.103587,39.952721]],[[-75.103017,39.952833],[-75.103052,39.952806],[-75.103017,39.952806],[-75.103017,39.952833]],[[-75.102874,39.952834],[-75.102803,39.952807],[-75.102803,39.952835],[-75.102874,39.952834]],[[-75.100643,39.946559],[-75.100607,39.946532],[-75.100608,39.946559],[-75.100643,39.946559]],[[-75.099009,39.947336],[-75.098974,39.947364],[-75.09901,39.947363],[-75.099009,39.947336]],[[-75.099506,39.947004],[-75.099541,39.946976],[-75.099506,39.946977],[-75.099506,39.947004]],[[-75.099542,39.947004],[-75.099577,39.947031],[-75.099577,39.947004],[-75.099542,39.947004]],[[-75.100393,39.946478],[-75.100358,39.946533],[-75.100535,39.94645],[-75.100393,39.946478]],[[-75.101283,39.946254],[-75.10082,39.946393],[-75.100785,39.946476],[-75.101283,39.946254]],[[-75.101426,39.946335],[-75.101,39.946502],[-75.100895,39.94675],[-75.101286,39.946638],[-75.101569,39.946389],[-75.101426,39.946335]],[[-75.105004,39.947579],[-75.104969,39.947607],[-75.105004,39.947607],[-75.105004,39.947579]],[[-75.103916,39.945554],[-75.103952,39.945608],[-75.103952,39.945553],[-75.103916,39.945554]],[[-75.126672,39.957183],[-75.1266,39.957156],[-75.1266,39.957183],[-75.126672,39.957183]]],[[[-75.099697,39.899398],[-75.099732,39.899343],[-75.099732,39.899398],[-75.099697,39.899398]]],[[[-75.104463,39.902311],[-75.101896,39.902242],[-75.101862,39.902434],[-75.10265,39.902869],[-75.102689,39.903199],[-75.101766,39.90367],[-75.102264,39.903613],[-75.101626,39.903945],[-75.101663,39.904165],[-75.101236,39.904167],[-75.101015,39.903427],[-75.09955,39.902995],[-75.099722,39.902253],[-75.099004,39.901735],[-75.107022,39.901501],[-75.106888,39.902408],[-75.106496,39.902438],[-75.106569,39.902602],[-75.106071,39.902769],[-75.105826,39.90321],[-75.10554,39.903184],[-75.105578,39.903486],[-75.105185,39.903378],[-75.104547,39.903711],[-75.104584,39.903903],[-75.105438,39.903706],[-75.104623,39.904232],[-75.103661,39.904319],[-75.104334,39.903849],[-75.10412,39.903823],[-75.104117,39.903493],[-75.103512,39.903661],[-75.103262,39.903553],[-75.104186,39.903246],[-75.10397,39.902972],[-75.104325,39.902806],[-75.104463,39.902311]],[[-75.103963,39.902231],[-75.103927,39.902204],[-75.103928,39.902231],[-75.103963,39.902231]]],[[[-75.103756,39.943605],[-75.103219,39.943306],[-75.102974,39.943829],[-75.102292,39.943338],[-75.1019,39.943423],[-75.102045,39.943696],[-75.101724,39.943726],[-75.101657,39.944138],[-75.101368,39.943782],[-75.101266,39.944304],[-75.101083,39.943811],[-75.100334,39.943843],[-75.101008,39.943372],[-75.100115,39.943212],[-75.099797,39.943598],[-75.09943,39.942447],[-75.098967,39.942532],[-75.098971,39.942916],[-75.098508,39.943056],[-75.097327,39.942568],[-75.096965,39.941993],[-75.097499,39.941853],[-75.097211,39.941553],[-75.095038,39.941838],[-75.094786,39.94151],[-75.094924,39.941043],[-75.094609,39.941676],[-75.093998,39.94113],[-75.093571,39.941324],[-75.093531,39.94083],[-75.093888,39.940828],[-75.093602,39.940693],[-75.093706,39.940418],[-75.093385,39.940364],[-75.093311,39.940063],[-75.092382,39.93993],[-75.092768,39.939214],[-75.092194,39.938723],[-75.093554,39.939348],[-75.092982,39.939213],[-75.092878,39.939516],[-75.094233,39.939509],[-75.093693,39.93888],[-75.093588,39.939073],[-75.093193,39.938828],[-75.094009,39.938357],[-75.094726,39.93871],[-75.095509,39.938596],[-75.095363,39.938185],[-75.094682,39.93775],[-75.095177,39.937335],[-75.097473,39.938861],[-75.097973,39.938913],[-75.098434,39.938664],[-75.098251,39.938061],[-75.098677,39.937811],[-75.099572,39.938246],[-75.099292,39.938824],[-75.100185,39.938957],[-75.10083,39.939365],[-75.101044,39.939364],[-75.101006,39.93909],[-75.101649,39.939224],[-75.101785,39.938399],[-75.10208,39.939578],[-75.102511,39.93985],[-75.103149,39.939435],[-75.102505,39.939247],[-75.103183,39.93927],[-75.104283,39.938661],[-75.106171,39.938321],[-75.106505,39.939802],[-75.106406,39.940764],[-75.106908,39.94109],[-75.106409,39.941038],[-75.105632,39.941921],[-75.104844,39.941568],[-75.105685,39.939889],[-75.105427,39.938957],[-75.104183,39.939348],[-75.103938,39.939925],[-75.104476,39.940307],[-75.103765,39.940503],[-75.103483,39.940944],[-75.101983,39.940732],[-75.101914,39.940979],[-75.102201,39.94117],[-75.101989,39.941336],[-75.101772,39.941062],[-75.101273,39.941037],[-75.101274,39.941202],[-75.101738,39.941172],[-75.101633,39.941392],[-75.102027,39.94161],[-75.102316,39.942075],[-75.102176,39.942323],[-75.102463,39.942514],[-75.102784,39.94254],[-75.102885,39.941908],[-75.10317,39.941796],[-75.103747,39.942562],[-75.104459,39.942366],[-75.104668,39.941843],[-75.105278,39.942197],[-75.104757,39.943874],[-75.103973,39.943961],[-75.104148,39.943521],[-75.103756,39.943605]],[[-75.094233,39.939509],[-75.094305,39.939536],[-75.094305,39.939508],[-75.094233,39.939509]],[[-75.094305,39.939536],[-75.094341,39.939563],[-75.094341,39.939536],[-75.094305,39.939536]],[[-75.094726,39.93871],[-75.09469,39.938738],[-75.094726,39.938738],[-75.094726,39.93871]],[[-75.094761,39.93871],[-75.094797,39.938737],[-75.094797,39.93871],[-75.094761,39.93871]],[[-75.101273,39.941037],[-75.101237,39.94101],[-75.101237,39.941038],[-75.101273,39.941037]],[[-75.104148,39.943521],[-75.104183,39.943466],[-75.104147,39.943466],[-75.104148,39.943521]],[[-75.104183,39.943466],[-75.104218,39.943411],[-75.104183,39.943411],[-75.104183,39.943466]]],[[[-75.103769,39.945005],[-75.103478,39.944458],[-75.103908,39.94462],[-75.103725,39.944154],[-75.104688,39.944067],[-75.104517,39.944892],[-75.103769,39.945005]]],[[[-75.103983,39.945086],[-75.104019,39.945059],[-75.104019,39.945086],[-75.103983,39.945086]]],[[[-75.103948,39.945114],[-75.103876,39.945087],[-75.103948,39.945087],[-75.103948,39.945114]]],[[[-75.099679,39.946399],[-75.099644,39.946427],[-75.099643,39.946399],[-75.099679,39.946399]]],[[[-75.10132,39.946446],[-75.101284,39.946418],[-75.10132,39.946418],[-75.10132,39.946446]]],[[[-75.100108,39.946507],[-75.1,39.946452],[-75.10057,39.946312],[-75.100108,39.946507]]],[[[-75.101284,39.946446],[-75.101249,39.946473],[-75.101249,39.946446],[-75.101284,39.946446]]],[[[-75.10132,39.946473],[-75.101427,39.946472],[-75.101321,39.9465],[-75.10132,39.946473]]],[[[-75.101249,39.946501],[-75.101178,39.946474],[-75.101249,39.946473],[-75.101249,39.946501]]],[[[-75.099894,39.946508],[-75.099965,39.94648],[-75.099965,39.946507],[-75.099894,39.946508]]],[[[-75.099823,39.946536],[-75.099858,39.946508],[-75.099858,39.946535],[-75.099823,39.946536]]],[[[-75.101142,39.946529],[-75.101071,39.946529],[-75.101178,39.946501],[-75.101142,39.946529]]],[[[-75.099787,39.946536],[-75.099716,39.946564],[-75.099716,39.946536],[-75.099787,39.946536]]],[[[-75.100786,39.946586],[-75.10075,39.946558],[-75.100786,39.946558],[-75.100786,39.946586]]],[[[-75.100108,39.946562],[-75.10018,39.946589],[-75.100109,39.946589],[-75.100108,39.946562]]],[[[-75.100035,39.94637],[-75.099537,39.946537],[-75.099396,39.94662],[-75.098541,39.946789],[-75.100035,39.94637]]],[[[-75.101143,39.946584],[-75.101179,39.946611],[-75.101143,39.946611],[-75.101143,39.946584]]],[[[-75.100858,39.946585],[-75.100894,39.946612],[-75.100858,39.946613],[-75.100858,39.946585]]],[[[-75.100679,39.946586],[-75.100751,39.946613],[-75.10068,39.946614],[-75.100679,39.946586]]],[[[-75.099895,39.94659],[-75.099931,39.946617],[-75.099895,39.946618],[-75.099895,39.94659]]],[[[-75.099716,39.946564],[-75.099432,39.946675],[-75.099289,39.946676],[-75.099716,39.946564]]],[[[-75.100608,39.946641],[-75.100644,39.946614],[-75.100644,39.946641],[-75.100608,39.946641]]],[[[-75.099824,39.946645],[-75.099859,39.946618],[-75.099859,39.946645],[-75.099824,39.946645]]],[[[-75.099788,39.946646],[-75.099717,39.946673],[-75.099717,39.946646],[-75.099788,39.946646]]],[[[-75.100824,39.946805],[-75.100752,39.946778],[-75.100823,39.94675],[-75.100824,39.946805]]],[[[-75.100825,39.946915],[-75.100861,39.946942],[-75.100825,39.946942],[-75.100825,39.946915]]],[[[-75.100861,39.947024],[-75.100897,39.946997],[-75.100897,39.947024],[-75.100861,39.947024]]],[[[-75.10072,39.947108],[-75.100791,39.94708],[-75.100791,39.947107],[-75.10072,39.947108]]],[[[-75.099685,39.947113],[-75.099721,39.947085],[-75.099721,39.947113],[-75.099685,39.947113]]],[[[-75.101687,39.947569],[-75.101615,39.947487],[-75.101722,39.947487],[-75.101687,39.947569]]],[[[-75.096241,39.900898],[-75.099624,39.899248],[-75.098886,39.900391],[-75.097957,39.900176],[-75.097356,39.90081],[-75.096241,39.900898]]],[[[-75.094977,39.901838],[-75.094759,39.901389],[-75.09597,39.901229],[-75.097148,39.90147],[-75.095977,39.902053],[-75.094977,39.901838]]],[[[-75.096181,39.91383],[-75.096222,39.913857],[-75.09629,39.913884],[-75.096244,39.913898],[-75.096181,39.91383]]],[[[-75.084695,39.925089],[-75.08473,39.925007],[-75.084731,39.925089],[-75.084695,39.925089]]],[[[-75.084618,39.924458],[-75.08423,39.924899],[-75.083853,39.926739],[-75.08138,39.925993],[-75.084618,39.924458]]],[[[-75.092292,39.937679],[-75.092615,39.93798],[-75.091865,39.937819],[-75.09151,39.938013],[-75.091329,39.937767],[-75.09076,39.937907],[-75.090508,39.937661],[-75.090115,39.937581],[-75.089505,39.937172],[-75.090507,39.937524],[-75.090147,39.937086],[-75.090288,39.936893],[-75.089968,39.937005],[-75.088785,39.936379],[-75.089268,39.935738],[-75.089851,39.936182],[-75.090135,39.936064],[-75.090057,39.935156],[-75.089605,39.934621],[-75.088721,39.934354],[-75.087064,39.93482],[-75.08639,39.934661],[-75.086413,39.933372],[-75.086799,39.933425],[-75.087224,39.933093],[-75.086896,39.932326],[-75.087751,39.932212],[-75.087038,39.932188],[-75.086606,39.931723],[-75.086251,39.931972],[-75.085919,39.93187],[-75.087243,39.92975],[-75.087435,39.927986],[-75.087271,39.927236],[-75.086743,39.926816],[-75.084246,39.92678],[-75.084413,39.925502],[-75.084589,39.925172],[-75.084731,39.925171],[-75.085013,39.924703],[-75.086509,39.924613],[-75.086728,39.925161],[-75.087158,39.925379],[-75.087298,39.925131],[-75.08762,39.925184],[-75.089375,39.926109],[-75.09055,39.925938],[-75.091545,39.925494],[-75.092552,39.926477],[-75.093804,39.926937],[-75.093274,39.927544],[-75.092665,39.927163],[-75.091629,39.926948],[-75.09152,39.926729],[-75.090664,39.926761],[-75.090061,39.927094],[-75.089594,39.926739],[-75.089494,39.927563],[-75.088858,39.92817],[-75.089577,39.928935],[-75.089833,39.929648],[-75.089554,39.930308],[-75.088846,39.930998],[-75.089105,39.932013],[-75.088823,39.932426],[-75.089145,39.932589],[-75.089112,39.932919],[-75.090005,39.933079],[-75.092287,39.93304],[-75.093118,39.934243],[-75.094516,39.935032],[-75.094953,39.936128],[-75.094815,39.936623],[-75.095278,39.936621],[-75.095245,39.93695],[-75.094573,39.937585],[-75.093751,39.937315],[-75.091896,39.93727],[-75.091541,39.937491],[-75.091685,39.9376],[-75.092292,39.937679]],[[-75.091257,39.937657],[-75.091472,39.937711],[-75.091506,39.937601],[-75.091328,39.937602],[-75.091257,39.937657]],[[-75.091472,39.937711],[-75.091508,39.937738],[-75.091507,39.937711],[-75.091472,39.937711]],[[-75.091506,39.937601],[-75.091542,39.937573],[-75.091506,39.937574],[-75.091506,39.937601]],[[-75.090258,39.93758],[-75.090293,39.937525],[-75.090257,39.937525],[-75.090258,39.93758]],[[-75.089125,39.926028],[-75.089019,39.926138],[-75.089126,39.926192],[-75.089125,39.926028]],[[-75.089126,39.926192],[-75.089162,39.92622],[-75.089162,39.926192],[-75.089126,39.926192]]],[[[-75.08939,39.932039],[-75.089887,39.931789],[-75.090321,39.932528],[-75.090111,39.932941],[-75.089325,39.932753],[-75.08939,39.932039]]],[[[-75.08643,39.932054],[-75.086685,39.932629],[-75.086655,39.933315],[-75.086399,39.933234],[-75.085962,39.932029],[-75.08643,39.932054]]],[[[-75.09172,39.937545],[-75.091684,39.937573],[-75.091684,39.937545],[-75.09172,39.937545]]],[[[-75.091328,39.937657],[-75.091364,39.937629],[-75.091364,39.937657],[-75.091328,39.937657]]],[[[-75.090258,39.937635],[-75.090294,39.937662],[-75.090259,39.937662],[-75.090258,39.937635]]],[[[-75.09033,39.937689],[-75.090366,39.937662],[-75.090366,39.937689],[-75.09033,39.937689]]],[[[-75.090797,39.938044],[-75.090761,39.938017],[-75.090797,39.938016],[-75.090797,39.938044]]],[[[-75.089293,39.937365],[-75.09076,39.937934],[-75.090726,39.938044],[-75.090797,39.938099],[-75.089975,39.937883],[-75.089762,39.938022],[-75.090374,39.938595],[-75.089517,39.93849],[-75.090485,39.939116],[-75.089268,39.938601],[-75.089378,39.93893],[-75.088666,39.939098],[-75.088842,39.938768],[-75.088375,39.938468],[-75.088947,39.938602],[-75.089017,39.938492],[-75.087939,39.937482],[-75.088476,39.937699],[-75.088653,39.937561],[-75.088905,39.937834],[-75.089189,39.937695],[-75.089405,39.937969],[-75.089652,39.937638],[-75.089258,39.937448],[-75.089293,39.937365]],[[-75.090617,39.93788],[-75.090582,39.937908],[-75.090617,39.937908],[-75.090617,39.93788]],[[-75.089517,39.93849],[-75.089445,39.938463],[-75.089445,39.93849],[-75.089517,39.93849]]],[[[-75.092801,39.938857],[-75.092477,39.938447],[-75.092762,39.938418],[-75.09305,39.938746],[-75.092801,39.938857]],[[-75.092693,39.938693],[-75.092764,39.938665],[-75.092692,39.938666],[-75.092693,39.938693]],[[-75.092764,39.938693],[-75.0928,39.93872],[-75.0928,39.938693],[-75.092764,39.938693]],[[-75.0928,39.938693],[-75.092835,39.938665],[-75.092799,39.938665],[-75.0928,39.938693]]],[[[-75.093123,39.938965],[-75.093159,39.938993],[-75.093123,39.938993],[-75.093123,39.938965]]],[[[-75.091171,39.940128],[-75.091202,39.939497],[-75.090665,39.93928],[-75.090805,39.93895],[-75.091914,39.939383],[-75.091171,39.940128]]],[[[-75.099182,39.946704],[-75.099289,39.946676],[-75.099289,39.946703],[-75.099182,39.946704]]],[[[-75.099075,39.946732],[-75.099147,39.946704],[-75.099147,39.946731],[-75.099075,39.946732]]],[[[-75.099004,39.94676],[-75.09904,39.946732],[-75.09904,39.946759],[-75.099004,39.94676]]],[[[-75.098434,39.946817],[-75.098505,39.94679],[-75.098505,39.946817],[-75.098434,39.946817]]],[[[-75.098363,39.946845],[-75.098398,39.946818],[-75.098399,39.946845],[-75.098363,39.946845]]],[[[-75.099717,39.946673],[-75.098758,39.94709],[-75.098686,39.947091],[-75.098686,39.947008],[-75.099077,39.946924],[-75.099148,39.946841],[-75.098045,39.947176],[-75.098969,39.946815],[-75.099717,39.946673]],[[-75.098757,39.947063],[-75.098721,39.947036],[-75.098722,39.947063],[-75.098757,39.947063]]],[[[-75.098579,39.947064],[-75.09865,39.947036],[-75.09865,39.947063],[-75.098579,39.947064]]],[[[-75.098936,39.947062],[-75.098972,39.947089],[-75.098936,39.947089],[-75.098936,39.947062]]],[[[-75.098544,39.947091],[-75.098508,39.947064],[-75.098543,39.947064],[-75.098544,39.947091]]],[[[-75.09833,39.947147],[-75.098365,39.94712],[-75.098366,39.947147],[-75.09833,39.947147]]],[[[-75.098045,39.947204],[-75.097973,39.947149],[-75.098009,39.947149],[-75.098045,39.947204]]],[[[-75.098686,39.947091],[-75.098224,39.947313],[-75.097904,39.947397],[-75.098472,39.947092],[-75.098508,39.947119],[-75.098686,39.947091]]],[[[-75.097869,39.947424],[-75.097904,39.947397],[-75.097904,39.947424],[-75.097869,39.947424]]],[[[-75.098012,39.947451],[-75.098048,39.947478],[-75.098012,39.947478],[-75.098012,39.947451]]],[[[-75.091214,39.961624],[-75.091916,39.960303],[-75.092379,39.960246],[-75.092596,39.960574],[-75.092425,39.961426],[-75.091214,39.961624]]]]}}]}