{
"type": "FeatureCollection",
"name": "assets",
"crs": { "type": "name", "properties": { "name": "urn:ogc:def:crs:OGC:1.3:CRS84" } },
"features": [
{ "type": "Feature", "properties": { "id": "w396126616", "name": "Pershing Field Community Center", "category": "community", "address": "", "ground_elev_ft": 124.15, "elev_source": "epqs", "ffo_ft": 1.0, "source": "OpenStreetMap" }, "geometry": { "type": "Point", "coordinates": [ -74.053743, 40.742378 ] } },
{ "type": "Feature", "properties": { "id": "w410313071", "name": "Jersey City Medical Center EMS", "category": "ems", "address": "415 Montgomery Street, Jersey City", "ground_elev_ft": 9.94, "elev_source": "epqs", "ffo_ft": 1.0, "source": "OpenStreetMap" }, "geometry": { "type": "Point", "coordinates": [ -74.054478, 40.720491 ] } },
{ "type": "Feature", "properties": { "id": "w401830680", "name": "Jersey City Gong Club Car 26", "category": "fire", "address": "666 Summit Avenue, Jersey City", "ground_elev_ft": 103.02, "elev_source": "epqs", "ffo_ft": 1.0, "source": "OpenStreetMap" }, "geometry": { "type": "Point", "coordinates": [ -74.058584, 40.737663 ] } },
{ "type": "Feature", "properties": { "id": "w353916023", "name": "Fire Department of Jersey City Engine 7 Ladder 3", "category": "fire", "address": "715 Summit Avenue, Jersey City", "ground_elev_ft": 114.04, "elev_source": "epqs", "ffo_ft": 1.0, "source": "OpenStreetMap" }, "geometry": { "type": "Point", "coordinates": [ -74.057362, 40.740184 ] } },
{ "type": "Feature", "properties": { "id": "w265560953", "name": "FDJC Palisade Ave. Firehouse", "category": "fire", "address": "", "ground_elev_ft": 135.63, "elev_source": "epqs", "ffo_ft": 1.0, "source": "OpenStreetMap" }, "geometry": { "type": "Point", "coordinates": [ -74.041545, 40.748904 ] } },
{ "type": "Feature", "properties": { "id": "n7978845876", "name": "Fire Rescue Squad", "category": "fire", "address": "582 Communipaw Avenue, Jersey City", "ground_elev_ft": 65.72, "elev_source": "epqs", "ffo_ft": 1.0, "source": "OpenStreetMap" }, "geometry": { "type": "Point", "coordinates": [ -74.071907, 40.717224 ] } },
{ "type": "Feature", "properties": { "id": "n9661577660", "name": "Fire Department of Jersey City", "category": "fire", "address": "", "ground_elev_ft": 7.61, "elev_source": "epqs", "ffo_ft": 1.0, "source": "OpenStreetMap" }, "geometry": { "type": "Point", "coordinates": [ -74.041143, 40.715831 ] } },
{ "type": "Feature", "properties": { "id": "w415378887", "name": "Jesey City Fire Department Engine 9", "category": "fire", "address": "697 Bergen Avenue, Jersey City", "ground_elev_ft": 73.85, "elev_source": "epqs", "ffo_ft": 1.0, "source": "OpenStreetMap" }, "geometry": { "type": "Point", "coordinates": [ -74.070358, 40.724094 ] } },
{ "type": "Feature", "properties": { "id": "w409635076", "name": "Fire Fighters Memorial Station", "category": "fire", "address": "", "ground_elev_ft": 13.55, "elev_source": "epqs", "ffo_ft": 1.0, "source": "OpenStreetMap" }, "geometry": { "type": "Point", "coordinates": [ -74.040664, 40.726188 ] } },
{ "type": "Feature", "properties": { "id": "n3579497747", "name": "Engine No. 15", "category": "fire", "address": "", "ground_elev_ft": 75.89, "elev_source": "epqs", "ffo_ft": 1.0, "source": "OpenStreetMap" }, "geometry": { "type": "Point", "coordinates": [ -74.068913, 40.731806 ] } },
{ "type": "Feature", "properties": { "id": "n7978858311", "name": "Unnamed fire", "category": "fire", "address": "", "ground_elev_ft": 76.94, "elev_source": "epqs", "ffo_ft": 1.0, "source": "OpenStreetMap" }, "geometry": { "type": "Point", "coordinates": [ -74.089714, 40.703738 ] } },
{ "type": "Feature", "properties": { "id": "w409846066", "name": "Unnamed fire", "category": "fire", "address": "", "ground_elev_ft": 6.46, "elev_source": "epqs", "ffo_ft": 1.0, "source": "OpenStreetMap" }, "geometry": { "type": "Point", "coordinates": [ -74.052333, 40.725458 ] } },
{ "type": "Feature", "properties": { "id": "w405835399", "name": "Jersey City Medical Center", "category": "hospital", "address": "355 Grand Street, Jersey City", "ground_elev_ft": 5.35, "elev_source": "epqs", "ffo_ft": 1.0, "source": "OpenStreetMap" }, "geometry": { "type": "Point", "coordinates": [ -74.050859, 40.71525 ] } },
{ "type": "Feature", "properties": { "id": "w484453822", "name": "Christ Hospital", "category": "hospital", "address": "176 Palisade Avenue, Jersey City", "ground_elev_ft": 105.97, "elev_source": "epqs", "ffo_ft": 1.0, "source": "OpenStreetMap" }, "geometry": { "type": "Point", "coordinates": [ -74.049948, 40.734019 ] } },
{ "type": "Feature", "properties": { "id": "n10726449507", "name": "Jersey City Free Public Library", "category": "library", "address": "326 8th Street, Jersey City", "ground_elev_ft": 10.17, "elev_source": "epqs", "ffo_ft": 1.0, "source": "OpenStreetMap" }, "geometry": { "type": "Point", "coordinates": [ -74.047948, 40.727307 ] } },
{ "type": "Feature", "properties": { "id": "w406324292", "name": "Jersey City Free Public Library", "category": "library", "address": "472 Jersey Avenue, Jersey City", "ground_elev_ft": 14.17, "elev_source": "epqs", "ffo_ft": 1.0, "source": "OpenStreetMap" }, "geometry": { "type": "Point", "coordinates": [ -74.04732, 40.718918 ] } },
{ "type": "Feature", "properties": { "id": "w424833228", "name": "Jersey City Public Library: Earl A. Morgan Branch", "category": "library", "address": "1841 John F. Kennedy Boulevard, Jersey City", "ground_elev_ft": 76.67, "elev_source": "epqs", "ffo_ft": 1.0, "source": "OpenStreetMap" }, "geometry": { "type": "Point", "coordinates": [ -74.091404, 40.703085 ] } },
{ "type": "Feature", "properties": { "id": "w418127937", "name": "Jersey City Public Library", "category": "library", "address": "", "ground_elev_ft": 85.3, "elev_source": "epqs", "ffo_ft": 1.0, "source": "OpenStreetMap" }, "geometry": { "type": "Point", "coordinates": [ -74.07658, 40.717986 ] } },
{ "type": "Feature", "properties": { "id": "w410105231", "name": "Gabert Library", "category": "library", "address": "71 Sip Avenue, Jersey City", "ground_elev_ft": 91.9, "elev_source": "epqs", "ffo_ft": 1.0, "source": "OpenStreetMap" }, "geometry": { "type": "Point", "coordinates": [ -74.062706, 40.730284 ] } },
{ "type": "Feature", "properties": { "id": "w409876647", "name": "Jersey City Public Library, Five Corners Branch", "category": "library", "address": "678 Newark Avenue, Jersey City", "ground_elev_ft": 99.87, "elev_source": "epqs", "ffo_ft": 1.0, "source": "OpenStreetMap" }, "geometry": { "type": "Point", "coordinates": [ -74.059541, 40.735267 ] } },
{ "type": "Feature", "properties": { "id": "w140838259", "name": "Jersey City City Hall", "category": "municipal", "address": "280 Grove Street, Jersey City", "ground_elev_ft": 5.91, "elev_source": "epqs", "ffo_ft": 1.0, "source": "OpenStreetMap" }, "geometry": { "type": "Point", "coordinates": [ -74.043101, 40.717755 ] } },
{ "type": "Feature", "properties": { "id": "w1361244701", "name": "Jersey City Public Safety", "category": "municipal", "address": "356 Martin Luther King Drive, Jersey City", "ground_elev_ft": 75.03, "elev_source": "epqs", "ffo_ft": 1.0, "source": "OpenStreetMap" }, "geometry": { "type": "Point", "coordinates": [ -74.078875, 40.710645 ] } },
{ "type": "Feature", "properties": { "id": "n2525734176", "name": "NJ Motor Vehicle Commission", "category": "municipal", "address": "438 Summit Avenue, Jersey City", "ground_elev_ft": 93.24, "elev_source": "epqs", "ffo_ft": 1.0, "source": "OpenStreetMap" }, "geometry": { "type": "Point", "coordinates": [ -74.061075, 40.73017 ] } },
{ "type": "Feature", "properties": { "id": "w654086960", "name": "Security and Police Substation", "category": "police", "address": "", "ground_elev_ft": 10.93, "elev_source": "epqs", "ffo_ft": 1.0, "source": "OpenStreetMap" }, "geometry": { "type": "Point", "coordinates": [ -74.038548, 40.726532 ] } },
{ "type": "Feature", "properties": { "id": "w419162203", "name": "JCPD West District", "category": "police", "address": "1 Jackson Street", "ground_elev_ft": 71.03, "elev_source": "epqs", "ffo_ft": 1.0, "source": "OpenStreetMap" }, "geometry": { "type": "Point", "coordinates": [ -74.074155, 40.716932 ] } },
{ "type": "Feature", "properties": { "id": "w412224333", "name": "JCPD South District", "category": "police", "address": "191 Bergen Avenue, Jersey City", "ground_elev_ft": 89.27, "elev_source": "epqs", "ffo_ft": 1.0, "source": "OpenStreetMap" }, "geometry": { "type": "Point", "coordinates": [ -74.084983, 40.709095 ] } },
{ "type": "Feature", "properties": { "id": "n5047028049", "name": "JCPD East District", "category": "police", "address": "207 7th Street", "ground_elev_ft": 14.8, "elev_source": "epqs", "ffo_ft": 1.0, "source": "OpenStreetMap" }, "geometry": { "type": "Point", "coordinates": [ -74.0427, 40.725886 ] } },
{ "type": "Feature", "properties": { "id": "n2636098702", "name": "JCPD North District", "category": "police", "address": "282 Central Avenue, Jersey City", "ground_elev_ft": 120.37, "elev_source": "epqs", "ffo_ft": 1.0, "source": "OpenStreetMap" }, "geometry": { "type": "Point", "coordinates": [ -74.050241, 40.744437 ] } },
{ "type": "Feature", "properties": { "id": "n357724124", "name": "New Jersey City University", "category": "school", "address": "", "ground_elev_ft": 59.06, "elev_source": "epqs", "ffo_ft": 1.0, "source": "OpenStreetMap" }, "geometry": { "type": "Point", "coordinates": [ -74.086248, 40.709818 ] } },
{ "type": "Feature", "properties": { "id": "w404028573", "name": "James J. Ferris High School", "category": "school", "address": "35 Colgate Street, Jersey City", "ground_elev_ft": 10.24, "elev_source": "epqs", "ffo_ft": 1.0, "source": "OpenStreetMap" }, "geometry": { "type": "Point", "coordinates": [ -74.053143, 40.721428 ] } },
{ "type": "Feature", "properties": { "id": "w403575686", "name": "Frank R. Conwell Middle School", "category": "school", "address": "107 Bright Street, Jersey City", "ground_elev_ft": 9.91, "elev_source": "epqs", "ffo_ft": 1.0, "source": "OpenStreetMap" }, "geometry": { "type": "Point", "coordinates": [ -74.050462, 40.717185 ] } },
{ "type": "Feature", "properties": { "id": "w396843275", "name": "Saint Nicholas School", "category": "school", "address": "", "ground_elev_ft": 118.67, "elev_source": "epqs", "ffo_ft": 1.0, "source": "OpenStreetMap" }, "geometry": { "type": "Point", "coordinates": [ -74.05102, 40.741931 ] } },
{ "type": "Feature", "properties": { "id": "w354423205", "name": "Jersey City Regional Day School", "category": "school", "address": "", "ground_elev_ft": 12.66, "elev_source": "epqs", "ffo_ft": 1.0, "source": "OpenStreetMap" }, "geometry": { "type": "Point", "coordinates": [ -74.062004, 40.715768 ] } },
{ "type": "Feature", "properties": { "id": "w353916024", "name": "St. Joseph's School for the Blind", "category": "school", "address": "761", "ground_elev_ft": 119.69, "elev_source": "epqs", "ffo_ft": 1.0, "source": "OpenStreetMap" }, "geometry": { "type": "Point", "coordinates": [ -74.056944, 40.741 ] } },
{ "type": "Feature", "properties": { "id": "w353912002", "name": "Franklin L. Williams Middle School", "category": "school", "address": "", "ground_elev_ft": 113.78, "elev_source": "epqs", "ffo_ft": 1.0, "source": "OpenStreetMap" }, "geometry": { "type": "Point", "coordinates": [ -74.059014, 40.740967 ] } },
{ "type": "Feature", "properties": { "id": "w404322230", "name": "Kenmare High School", "category": "school", "address": "", "ground_elev_ft": 18.08, "elev_source": "epqs", "ffo_ft": 1.0, "source": "OpenStreetMap" }, "geometry": { "type": "Point", "coordinates": [ -74.03701, 40.715765 ] } },
{ "type": "Feature", "properties": { "id": "n7762363385", "name": "Hudson Catholic High School", "category": "school", "address": "790 Bergen Avenue, Jersey City", "ground_elev_ft": 80.74, "elev_source": "epqs", "ffo_ft": 1.0, "source": "OpenStreetMap" }, "geometry": { "type": "Point", "coordinates": [ -74.066874, 40.72592 ] } },
{ "type": "Feature", "properties": { "id": "n7738642485", "name": "Martin Luther King Jr.", "category": "school", "address": "", "ground_elev_ft": 87.04, "elev_source": "epqs", "ffo_ft": 1.0, "source": "OpenStreetMap" }, "geometry": { "type": "Point", "coordinates": [ -74.065234, 40.729347 ] } },
{ "type": "Feature", "properties": { "id": "n7661260386", "name": "Patricia M. Noonan Elementary School", "category": "school", "address": "", "ground_elev_ft": 103.94, "elev_source": "epqs", "ffo_ft": 1.0, "source": "OpenStreetMap" }, "geometry": { "type": "Point", "coordinates": [ -74.05696, 40.739483 ] } },
{ "type": "Feature", "properties": { "id": "n6848314185", "name": "Primary Prep", "category": "school", "address": "", "ground_elev_ft": 80.87, "elev_source": "epqs", "ffo_ft": 1.0, "source": "OpenStreetMap" }, "geometry": { "type": "Point", "coordinates": [ -74.066232, 40.72669 ] } },
{ "type": "Feature", "properties": { "id": "n5349867977", "name": "Hudson Montessori", "category": "school", "address": "", "ground_elev_ft": 12.17, "elev_source": "epqs", "ffo_ft": 1.0, "source": "OpenStreetMap" }, "geometry": { "type": "Point", "coordinates": [ -74.046478, 40.715426 ] } },
{ "type": "Feature", "properties": { "id": "n5349867976", "name": "Hudson Montessori", "category": "school", "address": "", "ground_elev_ft": 12.8, "elev_source": "epqs", "ffo_ft": 1.0, "source": "OpenStreetMap" }, "geometry": { "type": "Point", "coordinates": [ -74.047307, 40.715354 ] } },
{ "type": "Feature", "properties": { "id": "n5349867975", "name": "Hudson Montessori", "category": "school", "address": "", "ground_elev_ft": 11.12, "elev_source": "epqs", "ffo_ft": 1.0, "source": "OpenStreetMap" }, "geometry": { "type": "Point", "coordinates": [ -74.048393, 40.715332 ] } },
{ "type": "Feature", "properties": { "id": "n5157829629", "name": "The Academy I Middle School", "category": "school", "address": "209 Bergen Avenue, Jersey City", "ground_elev_ft": 90.06, "elev_source": "epqs", "ffo_ft": 1.0, "source": "OpenStreetMap" }, "geometry": { "type": "Point", "coordinates": [ -74.084579, 40.709593 ] } },
{ "type": "Feature", "properties": { "id": "w404717961", "name": "Our Lady of Czestochowa School", "category": "school", "address": "", "ground_elev_ft": 5.54, "elev_source": "epqs", "ffo_ft": 1.0, "source": "OpenStreetMap" }, "geometry": { "type": "Point", "coordinates": [ -74.04226, 40.716228 ] } },
{ "type": "Feature", "properties": { "id": "w1076715745", "name": "Cornelia F. Bradford Elementary", "category": "school", "address": "", "ground_elev_ft": 23.13, "elev_source": "epqs", "ffo_ft": 1.0, "source": "OpenStreetMap" }, "geometry": { "type": "Point", "coordinates": [ -74.038174, 40.714973 ] } },
{ "type": "Feature", "properties": { "id": "w806577359", "name": "Ezra L. Nolan Number 40 Elementary School", "category": "school", "address": "", "ground_elev_ft": 40.35, "elev_source": "epqs", "ffo_ft": 1.0, "source": "OpenStreetMap" }, "geometry": { "type": "Point", "coordinates": [ -74.095449, 40.690786 ] } },
{ "type": "Feature", "properties": { "id": "w802238344", "name": "Number 22 Elementary School", "category": "school", "address": "", "ground_elev_ft": 6.5, "elev_source": "epqs", "ffo_ft": 1.0, "source": "OpenStreetMap" }, "geometry": { "type": "Point", "coordinates": [ -74.061617, 40.713699 ] } },
{ "type": "Feature", "properties": { "id": "w690614510", "name": "Lincoln High School", "category": "school", "address": "", "ground_elev_ft": 23.95, "elev_source": "epqs", "ffo_ft": 1.0, "source": "OpenStreetMap" }, "geometry": { "type": "Point", "coordinates": [ -74.074144, 40.732365 ] } },
{ "type": "Feature", "properties": { "id": "w601172646", "name": "Charles E. Trefurt School - PS 8", "category": "school", "address": "", "ground_elev_ft": 105.81, "elev_source": "epqs", "ffo_ft": 1.0, "source": "OpenStreetMap" }, "geometry": { "type": "Point", "coordinates": [ -74.048588, 40.742889 ] } },
{ "type": "Feature", "properties": { "id": "w484528828", "name": "Frank R. Conwell Number 3 Elementary School", "category": "school", "address": "111 Bright Street, Jersey City", "ground_elev_ft": 9.74, "elev_source": "epqs", "ffo_ft": 1.0, "source": "OpenStreetMap" }, "geometry": { "type": "Point", "coordinates": [ -74.05094, 40.717631 ] } },
{ "type": "Feature", "properties": { "id": "w469900698", "name": "Christa McAuliffe School - PS 28", "category": "school", "address": "", "ground_elev_ft": 141.31, "elev_source": "epqs", "ffo_ft": 1.0, "source": "OpenStreetMap" }, "geometry": { "type": "Point", "coordinates": [ -74.046307, 40.748018 ] } },
{ "type": "Feature", "properties": { "id": "w469277036", "name": "Alfred E. Zampella Elementary School #27", "category": "school", "address": "", "ground_elev_ft": 154.07, "elev_source": "epqs", "ffo_ft": 1.0, "source": "OpenStreetMap" }, "geometry": { "type": "Point", "coordinates": [ -74.050406, 40.753958 ] } },
{ "type": "Feature", "properties": { "id": "w410994382", "name": "William L. Dickinson High School", "category": "school", "address": "2 Palisade Avenue, Jersey City", "ground_elev_ft": 100.49, "elev_source": "epqs", "ffo_ft": 1.0, "source": "OpenStreetMap" }, "geometry": { "type": "Point", "coordinates": [ -74.053746, 40.729923 ] } },
{ "type": "Feature", "properties": { "id": "w410993606", "name": "County Prep High School", "category": "school", "address": "", "ground_elev_ft": 15.88, "elev_source": "epqs", "ffo_ft": 1.0, "source": "OpenStreetMap" }, "geometry": { "type": "Point", "coordinates": [ -74.058871, 40.721318 ] } },
{ "type": "Feature", "properties": { "id": "w409967266", "name": "McNair Academic High School", "category": "school", "address": "", "ground_elev_ft": 7.71, "elev_source": "epqs", "ffo_ft": 1.0, "source": "OpenStreetMap" }, "geometry": { "type": "Point", "coordinates": [ -74.0474, 40.726757 ] } },
{ "type": "Feature", "properties": { "id": "w407329922", "name": "Public School #5", "category": "school", "address": "", "ground_elev_ft": 6.96, "elev_source": "epqs", "ffo_ft": 1.0, "source": "OpenStreetMap" }, "geometry": { "type": "Point", "coordinates": [ -74.052306, 40.724445 ] } },
{ "type": "Feature", "properties": { "id": "w406957187", "name": "Rafael de J. Cordero Elementary School - PS 37", "category": "school", "address": "", "ground_elev_ft": 14.53, "elev_source": "epqs", "ffo_ft": 1.0, "source": "OpenStreetMap" }, "geometry": { "type": "Point", "coordinates": [ -74.042969, 40.72783 ] } },
{ "type": "Feature", "properties": { "id": "n5157829627", "name": "Henry Snyder High School", "category": "school", "address": "239 Bergen Avenue, Jersey City", "ground_elev_ft": 78.25, "elev_source": "epqs", "ffo_ft": 1.0, "source": "OpenStreetMap" }, "geometry": { "type": "Point", "coordinates": [ -74.084725, 40.710504 ] } },
{ "type": "Feature", "properties": { "id": "n5157829628", "name": "A Harry Moore School", "category": "school", "address": "2078 John F. Kennedy Boulevard, Jersey City", "ground_elev_ft": 71.78, "elev_source": "epqs", "ffo_ft": 1.0, "source": "OpenStreetMap" }, "geometry": { "type": "Point", "coordinates": [ -74.085336, 40.709519 ] } },
{ "type": "Feature", "properties": { "id": "n4697550989", "name": "Karnautsos Building", "category": "school", "address": "", "ground_elev_ft": 47.18, "elev_source": "epqs", "ffo_ft": 1.0, "source": "OpenStreetMap" }, "geometry": { "type": "Point", "coordinates": [ -74.087259, 40.709925 ] } },
{ "type": "Feature", "properties": { "id": "n357729773", "name": "Doctor Charles P DeFuccio Number 39 Elementary School", "category": "school", "address": "", "ground_elev_ft": 17.68, "elev_source": "epqs", "ffo_ft": 1.0, "source": "OpenStreetMap" }, "geometry": { "type": "Point", "coordinates": [ -74.08042, 40.730102 ] } },
{ "type": "Feature", "properties": { "id": "n357729764", "name": "James F Murray Number 38 Elementary School", "category": "school", "address": "", "ground_elev_ft": 36.35, "elev_source": "epqs", "ffo_ft": 1.0, "source": "OpenStreetMap" }, "geometry": { "type": "Point", "coordinates": [ -74.090975, 40.708436 ] } },
{ "type": "Feature", "properties": { "id": "n357729751", "name": "PS 34: Barack Obama Elementary School", "category": "school", "address": "1830 John F. Kennedy Boulevard, Jersey City", "ground_elev_ft": 81.33, "elev_source": "epqs", "ffo_ft": 1.0, "source": "OpenStreetMap" }, "geometry": { "type": "Point", "coordinates": [ -74.090876, 40.702192 ] } },
{ "type": "Feature", "properties": { "id": "n357729748", "name": "Alexander D. Sullivan Number 30 Elementary School", "category": "school", "address": "", "ground_elev_ft": 62.6, "elev_source": "epqs", "ffo_ft": 1.0, "source": "OpenStreetMap" }, "geometry": { "type": "Point", "coordinates": [ -74.097642, 40.693714 ] } },
{ "type": "Feature", "properties": { "id": "n357729709", "name": "Anthony J Infante Number 31 Elementary School", "category": "school", "address": "", "ground_elev_ft": 76.97, "elev_source": "epqs", "ffo_ft": 1.0, "source": "OpenStreetMap" }, "geometry": { "type": "Point", "coordinates": [ -74.063029, 40.738088 ] } },
{ "type": "Feature", "properties": { "id": "n357729675", "name": "Nicolas Copernicus Number 25 Elementary School", "category": "school", "address": "", "ground_elev_ft": 135.83, "elev_source": "epqs", "ffo_ft": 1.0, "source": "OpenStreetMap" }, "geometry": { "type": "Point", "coordinates": [ -74.056252, 40.748157 ] } },
{ "type": "Feature", "properties": { "id": "n357729671", "name": "Number 24 Elementary School", "category": "school", "address": "", "ground_elev_ft": 34.12, "elev_source": "epqs", "ffo_ft": 1.0, "source": "OpenStreetMap" }, "geometry": { "type": "Point", "coordinates": [ -74.084864, 40.716213 ] } },
{ "type": "Feature", "properties": { "id": "n357729668", "name": "Number 23 Elementary School", "category": "school", "address": "", "ground_elev_ft": 53.97, "elev_source": "epqs", "ffo_ft": 1.0, "source": "OpenStreetMap" }, "geometry": { "type": "Point", "coordinates": [ -74.068197, 40.734824 ] } },
{ "type": "Feature", "properties": { "id": "n357729661", "name": "Number 20 Elementary School", "category": "school", "address": "", "ground_elev_ft": 68.54, "elev_source": "epqs", "ffo_ft": 1.0, "source": "OpenStreetMap" }, "geometry": { "type": "Point", "coordinates": [ -74.091253, 40.697325 ] } },
{ "type": "Feature", "properties": { "id": "n357729633", "name": "School Number 2", "category": "school", "address": "", "ground_elev_ft": 12.83, "elev_source": "epqs", "ffo_ft": 1.0, "source": "OpenStreetMap" }, "geometry": { "type": "Point", "coordinates": [ -74.043196, 40.725658 ] } },
{ "type": "Feature", "properties": { "id": "n357729617", "name": "School Number 18", "category": "school", "address": "", "ground_elev_ft": 69.06, "elev_source": "epqs", "ffo_ft": 1.0, "source": "OpenStreetMap" }, "geometry": { "type": "Point", "coordinates": [ -74.067919, 40.72288 ] } },
{ "type": "Feature", "properties": { "id": "n357729613", "name": "Joseph H Brensinger Number 17 Elementary School", "category": "school", "address": "", "ground_elev_ft": 48.39, "elev_source": "epqs", "ffo_ft": 1.0, "source": "OpenStreetMap" }, "geometry": { "type": "Point", "coordinates": [ -74.074864, 40.726491 ] } },
{ "type": "Feature", "properties": { "id": "n357729605", "name": "Cornelia F. Bradford Number 16 Elementary School", "category": "school", "address": "", "ground_elev_ft": 9.91, "elev_source": "epqs", "ffo_ft": 1.0, "source": "OpenStreetMap" }, "geometry": { "type": "Point", "coordinates": [ -74.038196, 40.723158 ] } },
{ "type": "Feature", "properties": { "id": "n357729599", "name": "Whitney M Young Junior Middle School", "category": "school", "address": "", "ground_elev_ft": 73.39, "elev_source": "epqs", "ffo_ft": 1.0, "source": "OpenStreetMap" }, "geometry": { "type": "Point", "coordinates": [ -74.082364, 40.703436 ] } },
{ "type": "Feature", "properties": { "id": "n357729592", "name": "Number 14 Elementary School", "category": "school", "address": "", "ground_elev_ft": 19.72, "elev_source": "epqs", "ffo_ft": 1.0, "source": "OpenStreetMap" }, "geometry": { "type": "Point", "coordinates": [ -74.09088, 40.711796 ] } },
{ "type": "Feature", "properties": { "id": "n357729585", "name": "Julia A Barnes Number 12 Elementary School", "category": "school", "address": "", "ground_elev_ft": 59.88, "elev_source": "epqs", "ffo_ft": 1.0, "source": "OpenStreetMap" }, "geometry": { "type": "Point", "coordinates": [ -74.070142, 40.718713 ] } },
{ "type": "Feature", "properties": { "id": "n357729506", "name": "Number 1 Elementary School", "category": "school", "address": "", "ground_elev_ft": 8.69, "elev_source": "epqs", "ffo_ft": 1.0, "source": "OpenStreetMap" }, "geometry": { "type": "Point", "coordinates": [ -74.038196, 40.724547 ] } },
{ "type": "Feature", "properties": { "id": "n357729212", "name": "Saint Pauls School", "category": "school", "address": "", "ground_elev_ft": 66.27, "elev_source": "epqs", "ffo_ft": 1.0, "source": "OpenStreetMap" }, "geometry": { "type": "Point", "coordinates": [ -74.093753, 40.70288 ] } },
{ "type": "Feature", "properties": { "id": "n357729162", "name": "Saint Patricks School", "category": "school", "address": "", "ground_elev_ft": 67.13, "elev_source": "epqs", "ffo_ft": 1.0, "source": "OpenStreetMap" }, "geometry": { "type": "Point", "coordinates": [ -74.072364, 40.713713 ] } },
{ "type": "Feature", "properties": { "id": "n357728280", "name": "Saint Aloysius School", "category": "school", "address": "", "ground_elev_ft": 38.91, "elev_source": "epqs", "ffo_ft": 1.0, "source": "OpenStreetMap" }, "geometry": { "type": "Point", "coordinates": [ -74.077919, 40.725102 ] } },
{ "type": "Feature", "properties": { "id": "n357728277", "name": "Saint Aloysius Academy", "category": "school", "address": "", "ground_elev_ft": 85.1, "elev_source": "epqs", "ffo_ft": 1.0, "source": "OpenStreetMap" }, "geometry": { "type": "Point", "coordinates": [ -74.075393, 40.722915 ] } },
{ "type": "Feature", "properties": { "id": "n357728260", "name": "Saint Aedans School", "category": "school", "address": "", "ground_elev_ft": 85.93, "elev_source": "epqs", "ffo_ft": 1.0, "source": "OpenStreetMap" }, "geometry": { "type": "Point", "coordinates": [ -74.065975, 40.72788 ] } },
{ "type": "Feature", "properties": { "id": "n357728226", "name": "Sacred Heart School", "category": "school", "address": "", "ground_elev_ft": 88.22, "elev_source": "epqs", "ffo_ft": 1.0, "source": "OpenStreetMap" }, "geometry": { "type": "Point", "coordinates": [ -74.08292, 40.707047 ] } },
{ "type": "Feature", "properties": { "id": "n357726931", "name": "Our Lady of Mercy School", "category": "school", "address": "", "ground_elev_ft": 13.48, "elev_source": "epqs", "ffo_ft": 1.0, "source": "OpenStreetMap" }, "geometry": { "type": "Point", "coordinates": [ -74.099031, 40.701491 ] } },
{ "type": "Feature", "properties": { "id": "n357724743", "name": "Lincoln High School", "category": "school", "address": "", "ground_elev_ft": 75.39, "elev_source": "epqs", "ffo_ft": 1.0, "source": "OpenStreetMap" }, "geometry": { "type": "Point", "coordinates": [ -74.069864, 40.725935 ] } },
{ "type": "Feature", "properties": { "id": "n357729866", "name": "Jotham W. Wakeman No. 6. Elementary School", "category": "school", "address": "", "ground_elev_ft": 101.21, "elev_source": "epqs", "ffo_ft": 1.0, "source": "OpenStreetMap" }, "geometry": { "type": "Point", "coordinates": [ -74.054974, 40.736151 ] } },
{ "type": "Feature", "properties": { "id": "n357729821", "name": "School Number 41", "category": "school", "address": "", "ground_elev_ft": 88.12, "elev_source": "epqs", "ffo_ft": 1.0, "source": "OpenStreetMap" }, "geometry": { "type": "Point", "coordinates": [ -74.081808, 40.708991 ] } },
{ "type": "Feature", "properties": { "id": "n357744906", "name": "Saint John's School", "category": "school", "address": "", "ground_elev_ft": 100.23, "elev_source": "epqs", "ffo_ft": 1.0, "source": "OpenStreetMap" }, "geometry": { "type": "Point", "coordinates": [ -74.062256, 40.737209 ] } },
{ "type": "Feature", "properties": { "id": "n4697548889", "name": "Vodra Hall", "category": "school", "address": "", "ground_elev_ft": 53.64, "elev_source": "epqs", "ffo_ft": 1.0, "source": "OpenStreetMap" }, "geometry": { "type": "Point", "coordinates": [ -74.088266, 40.709096 ] } },
{ "type": "Feature", "properties": { "id": "n4697533792", "name": "Grossnickle Hall", "category": "school", "address": "", "ground_elev_ft": 63.65, "elev_source": "epqs", "ffo_ft": 1.0, "source": "OpenStreetMap" }, "geometry": { "type": "Point", "coordinates": [ -74.086725, 40.70884 ] } },
{ "type": "Feature", "properties": { "id": "n4697533790", "name": "Rossey Hall", "category": "school", "address": "", "ground_elev_ft": 52.82, "elev_source": "epqs", "ffo_ft": 1.0, "source": "OpenStreetMap" }, "geometry": { "type": "Point", "coordinates": [ -74.087761, 40.709633 ] } },
{ "type": "Feature", "properties": { "id": "n4697492005", "name": "Gilligan Student Union Building", "category": "school", "address": "", "ground_elev_ft": 31.14, "elev_source": "epqs", "ffo_ft": 1.0, "source": "OpenStreetMap" }, "geometry": { "type": "Point", "coordinates": [ -74.087754, 40.710661 ] } },
{ "type": "Feature", "properties": { "id": "n4697460698", "name": "Professional Studies Building", "category": "school", "address": "", "ground_elev_ft": 42.42, "elev_source": "epqs", "ffo_ft": 1.0, "source": "OpenStreetMap" }, "geometry": { "type": "Point", "coordinates": [ -74.088744, 40.709569 ] } },
{ "type": "Feature", "properties": { "id": "n4697408003", "name": "Science Building", "category": "school", "address": "", "ground_elev_ft": 43.24, "elev_source": "epqs", "ffo_ft": 1.0, "source": "OpenStreetMap" }, "geometry": { "type": "Point", "coordinates": [ -74.088333, 40.709986 ] } },
{ "type": "Feature", "properties": { "id": "n357730262", "name": "Henry Snyder High School", "category": "school", "address": "", "ground_elev_ft": 92.81, "elev_source": "epqs", "ffo_ft": 1.0, "source": "OpenStreetMap" }, "geometry": { "type": "Point", "coordinates": [ -74.081808, 40.71038 ] } },
{ "type": "Feature", "properties": { "id": "n357745384", "name": "Saint Anne's School", "category": "school", "address": "", "ground_elev_ft": 150.16, "elev_source": "epqs", "ffo_ft": 1.0, "source": "OpenStreetMap" }, "geometry": { "type": "Point", "coordinates": [ -74.052119, 40.753326 ] } },
{ "type": "Feature", "properties": { "id": "n357745231", "name": "Saint Mary's Junior-Senior High School", "category": "school", "address": "", "ground_elev_ft": 10.76, "elev_source": "epqs", "ffo_ft": 1.0, "source": "OpenStreetMap" }, "geometry": { "type": "Point", "coordinates": [ -74.043359, 40.722986 ] } },
{ "type": "Feature", "properties": { "id": "n357745228", "name": "Hamilton Park Montessori School", "category": "school", "address": "175 8th Street", "ground_elev_ft": 15.98, "elev_source": "epqs", "ffo_ft": 1.0, "source": "OpenStreetMap" }, "geometry": { "type": "Point", "coordinates": [ -74.041072, 40.726419 ] } },
{ "type": "Feature", "properties": { "id": "n357745226", "name": "Resurrection School", "category": "school", "address": "", "ground_elev_ft": 6.99, "elev_source": "epqs", "ffo_ft": 1.0, "source": "OpenStreetMap" }, "geometry": { "type": "Point", "coordinates": [ -74.050419, 40.726491 ] } },
{ "type": "Feature", "properties": { "id": "n357745224", "name": "Resurrection Parish School", "category": "school", "address": "", "ground_elev_ft": 10.99, "elev_source": "epqs", "ffo_ft": 1.0, "source": "OpenStreetMap" }, "geometry": { "type": "Point", "coordinates": [ -74.050974, 40.720102 ] } },
{ "type": "Feature", "properties": { "id": "n357745002", "name": "Saint Paul of the Cross School", "category": "school", "address": "", "ground_elev_ft": 127.4, "elev_source": "epqs", "ffo_ft": 1.0, "source": "OpenStreetMap" }, "geometry": { "type": "Point", "coordinates": [ -74.044863, 40.747879 ] } },
{ "type": "Feature", "properties": { "id": "n357744997", "name": "Saint Joseph's Grammar School", "category": "school", "address": "", "ground_elev_ft": 82.38, "elev_source": "epqs", "ffo_ft": 1.0, "source": "OpenStreetMap" }, "geometry": { "type": "Point", "coordinates": [ -74.056808, 40.730102 ] } },
{ "type": "Feature", "properties": { "id": "n357744995", "name": "Saint Dominic Academy", "category": "school", "address": "", "ground_elev_ft": 91.99, "elev_source": "epqs", "ffo_ft": 1.0, "source": "OpenStreetMap" }, "geometry": { "type": "Point", "coordinates": [ -74.072919, 40.724824 ] } },
{ "type": "Feature", "properties": { "id": "n357744990", "name": "Academy II School", "category": "school", "address": "", "ground_elev_ft": 87.66, "elev_source": "epqs", "ffo_ft": 1.0, "source": "OpenStreetMap" }, "geometry": { "type": "Point", "coordinates": [ -74.074308, 40.72038 ] } },
{ "type": "Feature", "properties": { "id": "n357744949", "name": "Number 33 Elementary School", "category": "school", "address": "", "ground_elev_ft": 28.15, "elev_source": "epqs", "ffo_ft": 1.0, "source": "OpenStreetMap" }, "geometry": { "type": "Point", "coordinates": [ -74.084309, 40.719269 ] } },
{ "type": "Feature", "properties": { "id": "n357744946", "name": "Number 29 Elementary School", "category": "school", "address": "", "ground_elev_ft": 72.21, "elev_source": "epqs", "ffo_ft": 1.0, "source": "OpenStreetMap" }, "geometry": { "type": "Point", "coordinates": [ -74.078753, 40.708713 ] } },
{ "type": "Feature", "properties": { "id": "n357745233", "name": "Saint Peter's Preparatory School", "category": "school", "address": "135 York Street", "ground_elev_ft": 11.12, "elev_source": "epqs", "ffo_ft": 1.0, "source": "OpenStreetMap" }, "geometry": { "type": "Point", "coordinates": [ -74.039445, 40.715921 ] } },
{ "type": "Feature", "properties": { "id": "w690615853", "name": "Unnamed school", "category": "school", "address": "", "ground_elev_ft": 16.6, "elev_source": "epqs", "ffo_ft": 1.0, "source": "OpenStreetMap" }, "geometry": { "type": "Point", "coordinates": [ -74.040693, 40.728416 ] } },
{ "type": "Feature", "properties": { "id": "r12871832", "name": "Unnamed school", "category": "school", "address": "", "ground_elev_ft": 4.89, "elev_source": "epqs", "ffo_ft": 1.0, "source": "OpenStreetMap" }, "geometry": { "type": "Point", "coordinates": [ -74.040622, 40.715374 ] } },
{ "type": "Feature", "properties": { "id": "w409705888", "name": "St. Lucy's Emergency Shelter", "category": "shelter", "address": "612 Grove Street, Jersey City", "ground_elev_ft": 7.22, "elev_source": "epqs", "ffo_ft": 1.0, "source": "OpenStreetMap" }, "geometry": { "type": "Point", "coordinates": [ -74.040717, 40.732624 ] } }
]
}
