{"type":"FeatureCollection","features":[{"type":"Feature","properties":{"level_ft":18},"geometry":{"type":"Polygon","coordinates":[[[-74.421669,39.386033],[-74.420176,39.382313],[-74.417861,39.380023],[-74.415446,39.379354],[-74.413408,39.377974],[-74.410193,39.373375],[-74.409178,39.371338],[-74.406138,39.368506],[-74.407066,39.363904],[-74.407569,39.364421],[-74.408389,39.364213],[-74.410282,39.363112],[-74.410308,39.362686],[-74.411876,39.362059],[-74.412953,39.361104],[-74.41355,39.361267],[-74.414135,39.361054],[-74.414926,39.360428],[-74.414738,39.360141],[-74.41532,39.359907],[-74.415421,39.360053],[-74.418368,39.358626],[-74.419088,39.358031],[-74.417962,39.356358],[-74.418441,39.356169],[-74.419504,39.357753],[-74.423468,39.356355],[-74.423876,39.355819],[-74.424357,39.355639],[-74.425032,39.356399],[-74.427982,39.355148],[-74.428514,39.355655],[-74.430889,39.355444],[-74.433991,39.354094],[-74.433104,39.352752],[-74.43375,39.352493],[-74.434715,39.353934],[-74.439198,39.352923],[-74.44263,39.351873],[-74.453,39.347715],[-74.464029,39.342759],[-74.476539,39.358296],[-74.479019,39.358539],[-74.481241,39.358305],[-74.481926,39.35805],[-74.488672,39.353538],[-74.489385,39.353176],[-74.490866,39.352985],[-74.492072,39.353155],[-74.494786,39.354369],[-74.501398,39.358618],[-74.492581,39.365072],[-74.492193,39.366598],[-74.492286,39.368192],[-74.492899,39.370338],[-74.492689,39.371967],[-74.492341,39.372483],[-74.490192,39.373961],[-74.488486,39.375656],[-74.487426,39.378109],[-74.487124,39.378471],[-74.486386,39.378715],[-74.485824,39.379459],[-74.486014,39.380492],[-74.487119,39.382042],[-74.487155,39.382532],[-74.486411,39.383789],[-74.486506,39.384157],[-74.48681,39.384647],[-74.488321,39.385193],[-74.488731,39.385675],[-74.488155,39.385994],[-74.487262,39.386015],[-74.486485,39.386472],[-74.486548,39.388073],[-74.487517,39.388824],[-74.489834,39.389174],[-74.490836,39.389784],[-74.490329,39.390934],[-74.48887,39.392255],[-74.488895,39.393242],[-74.489684,39.395362],[-74.489553,39.396304],[-74.489012,39.397326],[-74.488249,39.398066],[-74.470449,39.408804],[-74.457073,39.416523],[-74.45436,39.416119],[-74.451216,39.414673],[-74.449902,39.414938],[-74.448232,39.416639],[-74.447276,39.416969],[-74.442708,39.417612],[-74.440483,39.417443],[-74.439718,39.417048],[-74.438794,39.415934],[-74.437853,39.411946],[-74.437108,39.410148],[-74.435635,39.408353],[-74.433799,39.406781],[-74.431967,39.405671],[-74.429226,39.404485],[-74.424604,39.40293],[-74.417967,39.401229],[-74.415981,39.400175],[-74.414694,39.398672],[-74.413864,39.39708],[-74.415504,39.395241],[-74.415481,39.39203],[-74.413727,39.389645],[-74.421669,39.386033]]]}}]}