{"type":"FeatureCollection","features":[{"type":"Feature","properties":{"level_ft":2},"geometry":{"type":"MultiPolygon","coordinates":[[[[-74.482534,39.37449],[-74.481155,39.373556],[-74.481155,39.373474],[-74.482676,39.373996],[-74.482534,39.37449]]],[[[-74.482038,39.376933],[-74.479208,39.375807],[-74.480164,39.374187],[-74.481579,39.375231],[-74.482003,39.375286],[-74.482039,39.375725],[-74.481685,39.375698],[-74.481685,39.375725],[-74.482038,39.376933]]],[[[-74.479031,39.377015],[-74.478748,39.376768],[-74.47889,39.376082],[-74.48126,39.377208],[-74.479031,39.377015]]],[[[-74.486,39.377154],[-74.48639,39.377483],[-74.486849,39.377318],[-74.487592,39.37762],[-74.487316,39.378252],[-74.485328,39.377291],[-74.485151,39.377401],[-74.483913,39.376934],[-74.48363,39.376632],[-74.482357,39.377043],[-74.482074,39.376219],[-74.482604,39.375972],[-74.482286,39.375753],[-74.483029,39.375314],[-74.484232,39.376247],[-74.486,39.377154]],[[-74.485081,39.377263],[-74.485116,39.377291],[-74.485116,39.377263],[-74.485081,39.377263]],[[-74.483489,39.376631],[-74.483453,39.376604],[-74.483453,39.376631],[-74.483489,39.376631]],[[-74.485788,39.377071],[-74.485753,39.377099],[-74.485788,39.377099],[-74.485788,39.377071]]],[[[-74.486354,39.378746],[-74.482923,39.377428],[-74.482816,39.377208],[-74.48455,39.377236],[-74.487273,39.378307],[-74.486354,39.378746]]],[[[-74.478288,39.379074],[-74.478323,39.379102],[-74.478287,39.379102],[-74.478288,39.379074]]],[[[-74.478358,39.379239],[-74.478394,39.379267],[-74.478358,39.379266],[-74.478358,39.379239]]],[[[-74.479738,39.380036],[-74.479702,39.380008],[-74.479738,39.380008],[-74.479738,39.380036]]],[[[-74.47995,39.380173],[-74.479915,39.3802],[-74.479915,39.380173],[-74.47995,39.380173]]],[[[-74.480198,39.380365],[-74.480162,39.380338],[-74.480198,39.380338],[-74.480198,39.380365]]],[[[-74.481719,39.381409],[-74.481683,39.381381],[-74.481719,39.381381],[-74.481719,39.381409]]],[[[-74.484372,39.383166],[-74.480728,39.38064],[-74.480622,39.380667],[-74.480445,39.380557],[-74.48041,39.38042],[-74.480198,39.38031],[-74.480127,39.380338],[-74.479879,39.380063],[-74.479384,39.379843],[-74.478747,39.379294],[-74.478535,39.379267],[-74.47804,39.37869],[-74.479207,39.378827],[-74.480057,39.378663],[-74.482109,39.377565],[-74.486035,39.379213],[-74.48582,39.379503],[-74.485959,39.380343],[-74.487012,39.381786],[-74.487156,39.382427],[-74.486524,39.383427],[-74.486506,39.384157],[-74.48681,39.384647],[-74.488321,39.385193],[-74.488731,39.385675],[-74.488299,39.385908],[-74.487166,39.385034],[-74.486424,39.384622],[-74.486424,39.384539],[-74.485079,39.383716],[-74.485079,39.383633],[-74.484973,39.383633],[-74.484973,39.383551],[-74.484832,39.383523],[-74.484832,39.383441],[-74.484442,39.383166],[-74.484407,39.383166],[-74.484407,39.383221],[-74.484372,39.383221],[-74.484372,39.383166]],[[-74.483558,39.38259],[-74.483593,39.382562],[-74.483558,39.382562],[-74.483558,39.38259]],[[-74.480693,39.38064],[-74.480657,39.380612],[-74.480657,39.38064],[-74.480693,39.38064]],[[-74.479526,39.379898],[-74.479561,39.379871],[-74.479526,39.379871],[-74.479526,39.379898]]],[[[-74.482992,39.382233],[-74.482957,39.38226],[-74.482957,39.382233],[-74.482992,39.382233]]],[[[-74.483134,39.38237],[-74.483169,39.382397],[-74.483134,39.382397],[-74.483134,39.38237]]],[[[-74.484442,39.383249],[-74.484407,39.383221],[-74.484442,39.383221],[-74.484442,39.383249]]],[[[-74.457252,39.354165],[-74.457217,39.354193],[-74.457217,39.354165],[-74.457252,39.354165]]],[[[-74.462518,39.360564],[-74.462483,39.360592],[-74.462483,39.360564],[-74.462518,39.360564]]],[[[-74.462943,39.360702],[-74.462907,39.360674],[-74.462943,39.360674],[-74.462943,39.360702]]],[[[-74.443311,39.362808],[-74.442993,39.362259],[-74.443524,39.362177],[-74.44409,39.362479],[-74.444372,39.363001],[-74.443311,39.362808]]],[[[-74.442777,39.367283],[-74.442105,39.366706],[-74.441256,39.366926],[-74.442035,39.366514],[-74.441611,39.366047],[-74.441717,39.365773],[-74.442282,39.366404],[-74.443132,39.36613],[-74.442919,39.366432],[-74.442388,39.366569],[-74.442706,39.367064],[-74.443485,39.366762],[-74.443449,39.366982],[-74.442777,39.367283]]],[[[-74.462196,39.368609],[-74.455582,39.367454],[-74.455157,39.367151],[-74.461276,39.36817],[-74.462161,39.368417],[-74.462196,39.368609]]],[[[-74.478323,39.379266],[-74.488192,39.38594],[-74.487262,39.386015],[-74.486545,39.38642],[-74.486369,39.387406],[-74.486645,39.388231],[-74.487465,39.388803],[-74.489834,39.389174],[-74.490836,39.389784],[-74.490329,39.390934],[-74.489182,39.391825],[-74.488333,39.390992],[-74.488262,39.390141],[-74.487307,39.389756],[-74.487201,39.390058],[-74.486812,39.390003],[-74.486883,39.389564],[-74.485892,39.389207],[-74.484335,39.389234],[-74.48568,39.389536],[-74.485396,39.389701],[-74.483344,39.389344],[-74.483273,39.389179],[-74.482672,39.389234],[-74.478886,39.388547],[-74.478638,39.388245],[-74.477825,39.388355],[-74.47365,39.387612],[-74.473402,39.38753],[-74.473473,39.386871],[-74.46898,39.386101],[-74.467069,39.385359],[-74.46622,39.385441],[-74.465512,39.386128],[-74.463531,39.38577],[-74.464203,39.385551],[-74.463213,39.385331],[-74.46194,39.384534],[-74.461692,39.384616],[-74.461727,39.384397],[-74.460171,39.383051],[-74.460242,39.383627],[-74.460631,39.383627],[-74.460525,39.384039],[-74.461762,39.384863],[-74.461444,39.385001],[-74.460277,39.383902],[-74.458404,39.380469],[-74.458687,39.380085],[-74.45943,39.379893],[-74.459714,39.378932],[-74.460209,39.378465],[-74.460103,39.378163],[-74.458582,39.377778],[-74.458299,39.378218],[-74.456813,39.378052],[-74.456389,39.378217],[-74.456495,39.378025],[-74.456176,39.377997],[-74.45561,39.378272],[-74.455398,39.378162],[-74.455717,39.377503],[-74.455505,39.377311],[-74.455115,39.378079],[-74.453594,39.377337],[-74.453099,39.377529],[-74.451861,39.377144],[-74.452038,39.37676],[-74.453454,39.375772],[-74.453383,39.375607],[-74.454268,39.375306],[-74.454339,39.375086],[-74.455046,39.375004],[-74.455153,39.37473],[-74.455789,39.37473],[-74.456497,39.374373],[-74.457877,39.374236],[-74.457877,39.373907],[-74.458125,39.373962],[-74.457241,39.372671],[-74.454872,39.370858],[-74.454519,39.370226],[-74.453811,39.370281],[-74.453669,39.370748],[-74.453386,39.37083],[-74.450658,39.376759],[-74.450057,39.376594],[-74.450129,39.375441],[-74.448537,39.374864],[-74.450341,39.375139],[-74.450447,39.374837],[-74.449882,39.374618],[-74.450554,39.374673],[-74.450695,39.374343],[-74.449316,39.373958],[-74.449316,39.373794],[-74.450766,39.374151],[-74.450908,39.373822],[-74.449741,39.373409],[-74.451014,39.373657],[-74.451121,39.3733],[-74.449458,39.372778],[-74.449635,39.372641],[-74.451262,39.373108],[-74.451298,39.372751],[-74.450697,39.372504],[-74.45151,39.372614],[-74.451617,39.372257],[-74.451298,39.372339],[-74.451298,39.372174],[-74.450131,39.371762],[-74.451617,39.372065],[-74.451865,39.37179],[-74.450308,39.371295],[-74.450131,39.371433],[-74.450203,39.370966],[-74.449212,39.371075],[-74.449141,39.370938],[-74.450839,39.370692],[-74.450804,39.370499],[-74.449283,39.370773],[-74.447585,39.370745],[-74.446241,39.370388],[-74.445852,39.370717],[-74.44415,39.374752],[-74.443655,39.374615],[-74.445604,39.370168],[-74.445569,39.369838],[-74.445428,39.369701],[-74.445498,39.370168],[-74.445074,39.370167],[-74.444721,39.369069],[-74.44511,39.36863],[-74.444651,39.367806],[-74.444653,39.3655],[-74.4443,39.36528],[-74.4443,39.364868],[-74.444406,39.364566],[-74.444937,39.364347],[-74.445008,39.363605],[-74.44455,39.361958],[-74.444904,39.361464],[-74.445222,39.361464],[-74.445152,39.361079],[-74.445789,39.360146],[-74.445294,39.359679],[-74.445082,39.359816],[-74.445365,39.360311],[-74.444799,39.359953],[-74.4448,39.359157],[-74.44395,39.359404],[-74.444268,39.359981],[-74.443597,39.359431],[-74.444729,39.3588],[-74.444694,39.358471],[-74.445118,39.358691],[-74.446038,39.358224],[-74.445791,39.35773],[-74.446321,39.358169],[-74.446958,39.357785],[-74.447241,39.357868],[-74.447171,39.357374],[-74.44763,39.357676],[-74.448125,39.357649],[-74.447842,39.357896],[-74.448196,39.358005],[-74.447983,39.358225],[-74.449009,39.357869],[-74.450495,39.358116],[-74.452617,39.357596],[-74.454387,39.355757],[-74.454599,39.355043],[-74.454953,39.354988],[-74.456086,39.353286],[-74.457642,39.3526],[-74.457466,39.352353],[-74.457218,39.352408],[-74.45736,39.352188],[-74.457041,39.352188],[-74.457183,39.351969],[-74.456441,39.35098],[-74.457078,39.350761],[-74.457042,39.35098],[-74.458491,39.352546],[-74.459234,39.352491],[-74.4598,39.352079],[-74.459659,39.351695],[-74.459093,39.351338],[-74.460013,39.350679],[-74.459695,39.350597],[-74.459766,39.350267],[-74.460154,39.350542],[-74.460402,39.350487],[-74.460331,39.350295],[-74.460543,39.350515],[-74.460933,39.35035],[-74.460897,39.350734],[-74.461463,39.351009],[-74.46164,39.350872],[-74.461215,39.35035],[-74.461322,39.35024],[-74.462099,39.350982],[-74.461993,39.350597],[-74.462453,39.35079],[-74.462771,39.35057],[-74.462241,39.349719],[-74.463019,39.350378],[-74.463797,39.349967],[-74.463621,39.349637],[-74.463974,39.349829],[-74.464363,39.349747],[-74.464788,39.349143],[-74.465778,39.348649],[-74.465708,39.348073],[-74.467406,39.34703],[-74.473627,39.354692],[-74.468321,39.357354],[-74.473697,39.35478],[-74.476539,39.358296],[-74.480363,39.358497],[-74.481926,39.35805],[-74.489385,39.353176],[-74.491441,39.353006],[-74.494786,39.354369],[-74.501398,39.358618],[-74.492581,39.365072],[-74.492194,39.366679],[-74.492286,39.368192],[-74.492899,39.370338],[-74.492718,39.371899],[-74.492341,39.372483],[-74.490192,39.373961],[-74.488486,39.375656],[-74.487739,39.377456],[-74.484586,39.376137],[-74.483065,39.374929],[-74.483277,39.374435],[-74.482747,39.373776],[-74.480907,39.373281],[-74.47974,39.37243],[-74.480129,39.372046],[-74.47974,39.371551],[-74.478538,39.370673],[-74.47783,39.371029],[-74.475425,39.369134],[-74.477336,39.368888],[-74.479105,39.367982],[-74.479741,39.368064],[-74.480166,39.367708],[-74.481121,39.367488],[-74.47815,39.365346],[-74.477478,39.365373],[-74.476806,39.365099],[-74.476877,39.364934],[-74.475533,39.363918],[-74.474048,39.363505],[-74.473518,39.362407],[-74.473447,39.361309],[-74.472952,39.360622],[-74.472457,39.360375],[-74.472104,39.360457],[-74.471219,39.36172],[-74.472315,39.362819],[-74.470971,39.361912],[-74.470051,39.362598],[-74.468141,39.362955],[-74.467186,39.362872],[-74.465489,39.361581],[-74.462908,39.36062],[-74.462625,39.360619],[-74.462094,39.36029],[-74.461988,39.36007],[-74.462413,39.360098],[-74.46213,39.359658],[-74.462519,39.360015],[-74.462766,39.359878],[-74.462731,39.359549],[-74.463191,39.359686],[-74.462944,39.359192],[-74.463828,39.359549],[-74.465101,39.358918],[-74.4645,39.358067],[-74.465137,39.358753],[-74.46542,39.358588],[-74.464784,39.357765],[-74.465597,39.358479],[-74.465844,39.358396],[-74.465668,39.358122],[-74.465774,39.358039],[-74.466021,39.358314],[-74.466552,39.358342],[-74.466693,39.358644],[-74.466587,39.358204],[-74.467684,39.357711],[-74.468038,39.357299],[-74.467295,39.35642],[-74.467225,39.355706],[-74.466765,39.355596],[-74.46627,39.355074],[-74.466023,39.354305],[-74.465033,39.353783],[-74.46528,39.354278],[-74.465033,39.354442],[-74.464785,39.354085],[-74.464609,39.354058],[-74.464962,39.354689],[-74.464537,39.354882],[-74.464679,39.354662],[-74.463619,39.353426],[-74.463406,39.353591],[-74.463795,39.35414],[-74.46323,39.353563],[-74.462982,39.35392],[-74.462169,39.353096],[-74.46185,39.353178],[-74.461992,39.352931],[-74.461462,39.352272],[-74.458066,39.353726],[-74.457535,39.354193],[-74.457217,39.354138],[-74.45704,39.35422],[-74.456686,39.355291],[-74.45566,39.356196],[-74.453783,39.359216],[-74.453323,39.359628],[-74.452828,39.3596],[-74.452439,39.359902],[-74.451696,39.359792],[-74.451483,39.360533],[-74.452473,39.360863],[-74.451942,39.362318],[-74.452331,39.362455],[-74.452579,39.362071],[-74.453392,39.362071],[-74.456929,39.362594],[-74.457565,39.363006],[-74.460466,39.3632],[-74.462659,39.362459],[-74.463296,39.361169],[-74.465241,39.361773],[-74.464993,39.36246],[-74.466761,39.363696],[-74.467575,39.363504],[-74.468035,39.363943],[-74.467893,39.36463],[-74.469095,39.365207],[-74.469696,39.365179],[-74.469944,39.366168],[-74.470439,39.366745],[-74.470616,39.36658],[-74.470934,39.366717],[-74.470863,39.366278],[-74.471146,39.366278],[-74.471358,39.366525],[-74.471287,39.367678],[-74.471605,39.368035],[-74.472914,39.3682],[-74.472985,39.368393],[-74.473445,39.368118],[-74.476628,39.370398],[-74.475885,39.370672],[-74.474753,39.370589],[-74.473727,39.370836],[-74.47316,39.371962],[-74.473797,39.372786],[-74.474363,39.372896],[-74.474717,39.372539],[-74.475035,39.372539],[-74.474858,39.373006],[-74.47507,39.37317],[-74.475672,39.373061],[-74.475919,39.373363],[-74.477547,39.372073],[-74.477335,39.371716],[-74.477653,39.371578],[-74.478113,39.371963],[-74.478608,39.371908],[-74.479811,39.372897],[-74.480022,39.37416],[-74.478784,39.375478],[-74.467925,39.37067],[-74.462232,39.367703],[-74.456431,39.36663],[-74.448545,39.364376],[-74.448722,39.363936],[-74.44851,39.363717],[-74.448864,39.36325],[-74.447733,39.362563],[-74.447166,39.363936],[-74.446458,39.364155],[-74.447094,39.364622],[-74.450454,39.36531],[-74.455759,39.366822],[-74.460463,39.367757],[-74.455936,39.366987],[-74.4501,39.365337],[-74.446917,39.364649],[-74.445927,39.364622],[-74.447377,39.365089],[-74.447306,39.365364],[-74.446386,39.365308],[-74.446244,39.365912],[-74.454238,39.367343],[-74.454061,39.367645],[-74.453424,39.36781],[-74.452469,39.3677],[-74.452645,39.367947],[-74.453494,39.368194],[-74.454945,39.36792],[-74.455476,39.367563],[-74.461241,39.368609],[-74.46361,39.369378],[-74.466404,39.371082],[-74.470436,39.373966],[-74.47086,39.374158],[-74.474397,39.376657],[-74.474609,39.376712],[-74.475422,39.377344],[-74.477863,39.378964],[-74.477969,39.379019],[-74.47804,39.378992],[-74.478181,39.379157],[-74.478287,39.379157],[-74.478358,39.379212],[-74.478358,39.379239],[-74.478323,39.379239],[-74.478323,39.379266]],[[-74.464203,39.385633],[-74.464239,39.38566],[-74.464239,39.385633],[-74.464203,39.385633]],[[-74.457983,39.374099],[-74.458018,39.374072],[-74.457983,39.374072],[-74.457983,39.374099]],[[-74.445506,39.359816],[-74.445542,39.359844],[-74.445542,39.359816],[-74.445506,39.359816]],[[-74.445224,39.359679],[-74.445153,39.359624],[-74.445153,39.359679],[-74.445224,39.359679]],[[-74.468321,39.357354],[-74.468214,39.357381],[-74.468321,39.357381],[-74.468321,39.357354]],[[-74.46266,39.360565],[-74.462695,39.36051],[-74.46266,39.36051],[-74.46266,39.360565]],[[-74.463757,39.359549],[-74.463722,39.359576],[-74.463757,39.359576],[-74.463757,39.359549]],[[-74.466269,39.358342],[-74.466233,39.358369],[-74.466269,39.358369],[-74.466269,39.358342]],[[-74.466693,39.358644],[-74.466728,39.358671],[-74.466728,39.358644],[-74.466693,39.358644]],[[-74.466728,39.358671],[-74.466764,39.358699],[-74.466764,39.358671],[-74.466728,39.358671]],[[-74.466764,39.358699],[-74.466799,39.358726],[-74.466799,39.358699],[-74.466764,39.358699]],[[-74.465528,39.353976],[-74.465493,39.353921],[-74.465493,39.353976],[-74.465528,39.353976]],[[-74.46482,39.354662],[-74.464785,39.354635],[-74.464785,39.354662],[-74.46482,39.354662]]],[[[-74.467996,39.372016],[-74.46796,39.372043],[-74.46796,39.372016],[-74.467996,39.372016]]],[[[-74.477403,39.378278],[-74.474008,39.376081],[-74.474008,39.376136],[-74.473972,39.376136],[-74.471886,39.374735],[-74.471108,39.374103],[-74.470966,39.374103],[-74.470931,39.373966],[-74.470471,39.373773],[-74.469764,39.373197],[-74.469304,39.372977],[-74.468278,39.37218],[-74.468172,39.372208],[-74.468031,39.372016],[-74.467536,39.371658],[-74.467288,39.371604],[-74.467253,39.371384],[-74.466475,39.371054],[-74.464283,39.369214],[-74.478253,39.375725],[-74.478288,39.376548],[-74.478996,39.377207],[-74.481189,39.377345],[-74.481224,39.37751],[-74.479774,39.378223],[-74.478535,39.378415],[-74.477403,39.378278]],[[-74.473902,39.376053],[-74.473937,39.375998],[-74.473902,39.375998],[-74.473902,39.376053]],[[-74.4733,39.375641],[-74.473336,39.375614],[-74.4733,39.375614],[-74.4733,39.375641]],[[-74.472876,39.375367],[-74.472911,39.375339],[-74.472876,39.375339],[-74.472876,39.375367]],[[-74.472345,39.375009],[-74.472381,39.374982],[-74.472345,39.374982],[-74.472345,39.375009]],[[-74.469233,39.372894],[-74.469269,39.372867],[-74.469233,39.372867],[-74.469233,39.372894]]],[[[-74.474079,39.376163],[-74.474008,39.376136],[-74.474079,39.376136],[-74.474079,39.376163]]],[[[-74.474079,39.37619],[-74.474114,39.376163],[-74.474114,39.37619],[-74.474079,39.37619]]],[[[-74.477934,39.378964],[-74.477969,39.378937],[-74.477969,39.378964],[-74.477934,39.378964]]],[[[-74.478004,39.378992],[-74.477969,39.378964],[-74.478005,39.378964],[-74.478004,39.378992]]],[[[-74.478252,39.379074],[-74.478288,39.379047],[-74.478288,39.379074],[-74.478252,39.379074]]],[[[-74.423055,39.384789],[-74.424931,39.383775],[-74.424896,39.384049],[-74.424329,39.384268],[-74.424435,39.384516],[-74.423904,39.385202],[-74.424753,39.385147],[-74.425744,39.384709],[-74.426239,39.385203],[-74.425602,39.385175],[-74.425567,39.38534],[-74.426592,39.385615],[-74.428149,39.385534],[-74.429105,39.385178],[-74.429883,39.3857],[-74.430979,39.385947],[-74.433032,39.3854],[-74.435333,39.383753],[-74.436856,39.381887],[-74.436999,39.380926],[-74.436293,39.379388],[-74.43693,39.378483],[-74.438028,39.377879],[-74.439336,39.378484],[-74.439372,39.37766],[-74.440397,39.379226],[-74.440821,39.379226],[-74.440256,39.377853],[-74.438914,39.376068],[-74.439126,39.375409],[-74.440153,39.37497],[-74.44132,39.375135],[-74.441851,39.374861],[-74.442947,39.375191],[-74.443514,39.374834],[-74.444044,39.375027],[-74.443442,39.376427],[-74.443582,39.377525],[-74.44482,39.377581],[-74.446165,39.377334],[-74.446979,39.37706],[-74.447156,39.37673],[-74.447757,39.376813],[-74.448005,39.376319],[-74.448359,39.376347],[-74.450481,39.376952],[-74.451295,39.377391],[-74.451719,39.377337],[-74.453099,39.377776],[-74.45324,39.378326],[-74.452531,39.379561],[-74.452849,39.380302],[-74.454548,39.379864],[-74.455397,39.380441],[-74.456848,39.3797],[-74.457449,39.3797],[-74.460065,39.384121],[-74.461125,39.38511],[-74.462363,39.385742],[-74.485538,39.389921],[-74.487095,39.39036],[-74.48897,39.391953],[-74.488895,39.393242],[-74.489656,39.395047],[-74.489553,39.396304],[-74.489012,39.397326],[-74.488249,39.398066],[-74.464921,39.412096],[-74.457073,39.416523],[-74.45436,39.416119],[-74.451622,39.414742],[-74.450965,39.414688],[-74.449902,39.414938],[-74.448232,39.416639],[-74.447276,39.416969],[-74.442836,39.417603],[-74.440811,39.417528],[-74.439766,39.417087],[-74.438878,39.41611],[-74.437802,39.411776],[-74.436962,39.409921],[-74.435635,39.408353],[-74.433987,39.406917],[-74.431967,39.405671],[-74.429041,39.404417],[-74.424604,39.40293],[-74.417129,39.40091],[-74.41578,39.399989],[-74.414568,39.398482],[-74.413864,39.39708],[-74.415504,39.395241],[-74.415481,39.39203],[-74.413991,39.389862],[-74.414345,39.389643],[-74.415194,39.389671],[-74.415124,39.389397],[-74.415513,39.389314],[-74.416114,39.390331],[-74.416361,39.390276],[-74.416432,39.39066],[-74.416007,39.390715],[-74.41675,39.3911],[-74.416784,39.391539],[-74.417528,39.39154],[-74.417493,39.390524],[-74.417777,39.39025],[-74.417494,39.390222],[-74.417459,39.389673],[-74.417814,39.388767],[-74.418416,39.388465],[-74.418487,39.388246],[-74.418204,39.388081],[-74.419337,39.38745],[-74.419443,39.387114],[-74.421718,39.386107],[-74.420176,39.382313],[-74.417861,39.380023],[-74.415446,39.379354],[-74.413408,39.377974],[-74.410193,39.373375],[-74.409178,39.371338],[-74.406138,39.368506],[-74.407066,39.363904],[-74.407656,39.364405],[-74.410133,39.363228],[-74.408646,39.364708],[-74.409493,39.365944],[-74.409245,39.366136],[-74.409705,39.366192],[-74.410587,39.367593],[-74.411469,39.369543],[-74.411894,39.369461],[-74.412352,39.370504],[-74.413553,39.371988],[-74.413659,39.372482],[-74.413446,39.372537],[-74.413799,39.373141],[-74.414295,39.373142],[-74.414966,39.374131],[-74.415424,39.375284],[-74.415352,39.3763],[-74.415741,39.376685],[-74.416767,39.376575],[-74.417545,39.376768],[-74.418747,39.377291],[-74.419313,39.377785],[-74.420622,39.377621],[-74.420693,39.377374],[-74.420268,39.377264],[-74.420588,39.376276],[-74.421119,39.376276],[-74.42119,39.376029],[-74.420871,39.375947],[-74.421085,39.374849],[-74.419884,39.373036],[-74.41946,39.372816],[-74.419213,39.372129],[-74.418506,39.371552],[-74.418683,39.371415],[-74.419001,39.371772],[-74.419497,39.371553],[-74.419921,39.371937],[-74.420162,39.371938],[-74.419462,39.371031],[-74.418436,39.37125],[-74.419285,39.370811],[-74.418897,39.369987],[-74.419569,39.370619],[-74.419922,39.370565],[-74.419852,39.370125],[-74.42017,39.3704],[-74.420382,39.370318],[-74.419959,39.369576],[-74.420206,39.369686],[-74.420277,39.369494],[-74.420772,39.370098],[-74.421586,39.369852],[-74.421763,39.369605],[-74.421445,39.369028],[-74.421622,39.369193],[-74.422188,39.368644],[-74.422542,39.368644],[-74.422436,39.368342],[-74.423391,39.368343],[-74.423922,39.368124],[-74.423852,39.367877],[-74.424523,39.368289],[-74.424452,39.368536],[-74.423993,39.368288],[-74.423073,39.368672],[-74.423178,39.369359],[-74.422364,39.369825],[-74.422399,39.370045],[-74.422753,39.369935],[-74.422434,39.370155],[-74.422788,39.370292],[-74.422752,39.370924],[-74.422363,39.370594],[-74.421478,39.370978],[-74.421761,39.371609],[-74.421266,39.371389],[-74.421195,39.371087],[-74.420487,39.371389],[-74.420558,39.371554],[-74.420346,39.371416],[-74.420133,39.371553],[-74.420487,39.371663],[-74.420451,39.37202],[-74.420982,39.371938],[-74.421264,39.372488],[-74.421724,39.372378],[-74.421441,39.372707],[-74.422183,39.373751],[-74.423598,39.373368],[-74.424412,39.373451],[-74.425082,39.374796],[-74.42448,39.375373],[-74.423808,39.375619],[-74.424303,39.376004],[-74.42494,39.375757],[-74.424834,39.375565],[-74.425507,39.374632],[-74.426321,39.374276],[-74.426428,39.373232],[-74.425898,39.37304],[-74.42498,39.371529],[-74.425157,39.371172],[-74.425935,39.37109],[-74.42756,39.37359],[-74.427736,39.374386],[-74.428937,39.375815],[-74.428972,39.376282],[-74.428548,39.376583],[-74.429466,39.377984],[-74.427873,39.378642],[-74.42759,39.378532],[-74.426918,39.378779],[-74.426811,39.379081],[-74.425254,39.379711],[-74.423523,39.377788],[-74.422461,39.378172],[-74.42352,39.379793],[-74.423803,39.379875],[-74.423944,39.380671],[-74.425075,39.381963],[-74.424861,39.383582],[-74.423657,39.384241],[-74.423055,39.384789]],[[-74.417707,39.389343],[-74.417742,39.389371],[-74.417742,39.389343],[-74.417707,39.389343]],[[-74.419337,39.38745],[-74.419372,39.387478],[-74.419372,39.38745],[-74.419337,39.38745]],[[-74.407656,39.364405],[-74.407691,39.364433],[-74.407691,39.364405],[-74.407656,39.364405]],[[-74.40921,39.366054],[-74.409174,39.365944],[-74.409139,39.365944],[-74.40921,39.366054]],[[-74.409139,39.365944],[-74.409104,39.365917],[-74.409104,39.365944],[-74.409139,39.365944]],[[-74.409104,39.365917],[-74.409068,39.365862],[-74.409068,39.365916],[-74.409104,39.365917]],[[-74.422648,39.368452],[-74.422684,39.36848],[-74.422684,39.368452],[-74.422648,39.368452]],[[-74.423002,39.368974],[-74.422966,39.368947],[-74.422966,39.368974],[-74.423002,39.368974]],[[-74.423055,39.384789],[-74.42302,39.384817],[-74.423055,39.384817],[-74.423055,39.384789]],[[-74.42302,39.384817],[-74.422984,39.384844],[-74.42302,39.384844],[-74.42302,39.384817]],[[-74.420204,39.37202],[-74.420239,39.372075],[-74.420239,39.37202],[-74.420204,39.37202]]],[[[-74.434312,39.353331],[-74.433734,39.353705],[-74.433104,39.352752],[-74.43375,39.352493],[-74.434312,39.353331]]],[[[-74.428197,39.355189],[-74.427756,39.355386],[-74.42729,39.355523],[-74.428197,39.355189]]],[[[-74.427237,39.355551],[-74.42726,39.355538],[-74.42726,39.355551],[-74.427237,39.355551]]],[[[-74.42719,39.355575],[-74.42719,39.355578],[-74.427184,39.355578],[-74.42719,39.355575]]],[[[-74.427077,39.355633],[-74.427083,39.35563],[-74.427083,39.355633],[-74.427077,39.355633]]],[[[-74.424685,39.356126],[-74.419229,39.358209],[-74.418025,39.359224],[-74.41569,39.360348],[-74.415407,39.360155],[-74.414912,39.36032],[-74.415017,39.360594],[-74.414164,39.361033],[-74.414926,39.360428],[-74.414738,39.360141],[-74.41532,39.359907],[-74.415421,39.360053],[-74.418267,39.358683],[-74.419088,39.358031],[-74.417962,39.356358],[-74.418441,39.356169],[-74.419504,39.357753],[-74.423468,39.356355],[-74.423876,39.355819],[-74.424357,39.355639],[-74.424685,39.356126]]],[[[-74.413637,39.361246],[-74.413637,39.361252],[-74.413611,39.361252],[-74.413637,39.361246]]],[[[-74.413566,39.36128],[-74.413425,39.361272],[-74.413566,39.361263],[-74.413566,39.36128]]],[[[-74.411708,39.362174],[-74.41269,39.36146],[-74.413027,39.361069],[-74.413126,39.361197],[-74.412115,39.362047],[-74.411407,39.362431],[-74.410664,39.362623],[-74.410629,39.362815],[-74.410452,39.36287],[-74.410416,39.363035],[-74.410276,39.363117],[-74.410308,39.362686],[-74.411708,39.362174]]],[[[-74.410275,39.363118],[-74.410275,39.363172],[-74.410206,39.363172],[-74.410275,39.363118]]],[[[-74.410204,39.363227],[-74.410135,39.363227],[-74.410204,39.363173],[-74.410204,39.363227]]],[[[-74.426009,39.368619],[-74.425301,39.368564],[-74.425549,39.368235],[-74.425373,39.367932],[-74.424913,39.367685],[-74.425055,39.367273],[-74.425868,39.368152],[-74.426752,39.367851],[-74.425974,39.368345],[-74.426009,39.368619]]],[[[-74.415464,39.371825],[-74.414934,39.371083],[-74.415571,39.370562],[-74.415925,39.370534],[-74.415784,39.370122],[-74.416314,39.370342],[-74.417022,39.370206],[-74.416314,39.370562],[-74.416808,39.371414],[-74.416208,39.370864],[-74.415642,39.370836],[-74.415217,39.371303],[-74.415464,39.371825]]],[[[-74.433715,39.373621],[-74.433716,39.372742],[-74.434106,39.372633],[-74.434671,39.373265],[-74.433715,39.373621]]],[[[-74.43113,39.376804],[-74.431627,39.375377],[-74.43244,39.375378],[-74.431731,39.37686],[-74.43113,39.376804]]]]}}]}