{"type":"FeatureCollection","features":[{"type":"Feature","properties":{"level_ft":3},"geometry":{"type":"MultiPolygon","coordinates":[[[[-74.482534,39.374545],[-74.481084,39.373529],[-74.481084,39.373446],[-74.482534,39.373831],[-74.482534,39.374545]]],[[[-74.486036,39.377044],[-74.486319,39.377456],[-74.486849,39.377318],[-74.487592,39.37762],[-74.487316,39.378252],[-74.483878,39.376824],[-74.482357,39.377071],[-74.482038,39.376357],[-74.482286,39.375753],[-74.482923,39.375231],[-74.484267,39.376247],[-74.486036,39.377044]]],[[[-74.482286,39.377071],[-74.482321,39.377043],[-74.482321,39.377071],[-74.482286,39.377071]]],[[[-74.486107,39.377071],[-74.486142,39.377099],[-74.486107,39.377099],[-74.486107,39.377071]]],[[[-74.486142,39.377099],[-74.486177,39.377126],[-74.486142,39.377126],[-74.486142,39.377099]]],[[[-74.486283,39.378719],[-74.482923,39.377428],[-74.482781,39.377208],[-74.484267,39.377153],[-74.487273,39.378307],[-74.486283,39.378719]]],[[[-74.481153,39.381052],[-74.481188,39.381024],[-74.481188,39.381052],[-74.481153,39.381052]]],[[[-74.481188,39.381079],[-74.481223,39.381052],[-74.481223,39.381079],[-74.481188,39.381079]]],[[[-74.481506,39.381271],[-74.481471,39.381244],[-74.481506,39.381244],[-74.481506,39.381271]]],[[[-74.481825,39.381601],[-74.481789,39.381573],[-74.481825,39.381573],[-74.481825,39.381601]]],[[[-74.487237,39.385198],[-74.487202,39.385061],[-74.486813,39.384924],[-74.486671,39.384814],[-74.486707,39.384732],[-74.486636,39.384732],[-74.486636,39.384759],[-74.4866,39.384759],[-74.486494,39.384622],[-74.486459,39.384622],[-74.486459,39.384649],[-74.486424,39.384649],[-74.486388,39.384622],[-74.486424,39.384539],[-74.486282,39.384539],[-74.486282,39.384457],[-74.485893,39.384292],[-74.485716,39.384073],[-74.48561,39.3841],[-74.485539,39.383963],[-74.485327,39.383908],[-74.485327,39.38377],[-74.485079,39.383743],[-74.484725,39.383359],[-74.484372,39.383249],[-74.484336,39.383084],[-74.484195,39.383139],[-74.483912,39.382809],[-74.483593,39.382727],[-74.482992,39.382178],[-74.482815,39.382178],[-74.482851,39.382095],[-74.482709,39.381985],[-74.481577,39.381354],[-74.481542,39.381216],[-74.481436,39.381244],[-74.481294,39.381052],[-74.481117,39.380942],[-74.481082,39.380942],[-74.481082,39.380969],[-74.481047,39.380969],[-74.480976,39.380914],[-74.480976,39.380832],[-74.48087,39.380859],[-74.480905,39.380777],[-74.480799,39.38075],[-74.480799,39.380777],[-74.480764,39.380777],[-74.480516,39.380612],[-74.480516,39.38053],[-74.48041,39.380557],[-74.48041,39.38042],[-74.480339,39.380475],[-74.480304,39.380475],[-74.480127,39.380365],[-74.480127,39.380255],[-74.479879,39.380063],[-74.479738,39.379981],[-74.479702,39.379981],[-74.479702,39.380008],[-74.479667,39.380008],[-74.479667,39.379953],[-74.479561,39.379981],[-74.479066,39.379514],[-74.478747,39.379294],[-74.478606,39.379321],[-74.478535,39.379157],[-74.478288,39.378992],[-74.478252,39.379047],[-74.478217,39.379047],[-74.478217,39.378964],[-74.477792,39.37869],[-74.479243,39.3788],[-74.480021,39.378635],[-74.482073,39.377537],[-74.486035,39.379213],[-74.48582,39.379503],[-74.485959,39.380343],[-74.487012,39.381786],[-74.487156,39.382427],[-74.486524,39.383427],[-74.486506,39.384157],[-74.48681,39.384647],[-74.488321,39.385193],[-74.488731,39.385675],[-74.488263,39.385912],[-74.487237,39.385198]],[[-74.486777,39.384869],[-74.486813,39.384841],[-74.486777,39.384841],[-74.486777,39.384869]],[[-74.485858,39.384237],[-74.485893,39.38421],[-74.485858,39.38421],[-74.485858,39.384237]],[[-74.481648,39.381326],[-74.481613,39.381271],[-74.481613,39.381326],[-74.481648,39.381326]],[[-74.480268,39.38042],[-74.480304,39.380365],[-74.480268,39.380365],[-74.480268,39.38042]],[[-74.480198,39.380338],[-74.480162,39.38031],[-74.480162,39.380338],[-74.480198,39.380338]],[[-74.479455,39.379871],[-74.47949,39.379843],[-74.479455,39.379843],[-74.479455,39.379871]],[[-74.487449,39.385308],[-74.487485,39.385281],[-74.487449,39.385281],[-74.487449,39.385308]]],[[[-74.482391,39.381876],[-74.482426,39.381848],[-74.482426,39.381876],[-74.482391,39.381876]]],[[[-74.482568,39.382013],[-74.482638,39.381985],[-74.482638,39.382013],[-74.482568,39.382013]]],[[[-74.482674,39.38204],[-74.482709,39.382013],[-74.482709,39.38204],[-74.482674,39.38204]]],[[[-74.482744,39.382123],[-74.48278,39.382095],[-74.48278,39.382123],[-74.482744,39.382123]]],[[[-74.482992,39.382233],[-74.482921,39.38226],[-74.482921,39.382233],[-74.482992,39.382233]]],[[[-74.48324,39.38248],[-74.483275,39.382452],[-74.483275,39.38248],[-74.48324,39.38248]]],[[[-74.483735,39.382809],[-74.48377,39.382782],[-74.48377,39.382809],[-74.483735,39.382809]]],[[[-74.48377,39.382837],[-74.483806,39.382809],[-74.483806,39.382837],[-74.48377,39.382837]]],[[[-74.483841,39.382864],[-74.483806,39.382837],[-74.483841,39.382837],[-74.483841,39.382864]]],[[[-74.483841,39.382864],[-74.483912,39.382919],[-74.483841,39.382892],[-74.483841,39.382864]]],[[[-74.484619,39.383413],[-74.484655,39.383386],[-74.484655,39.383413],[-74.484619,39.383413]]],[[[-74.484725,39.383468],[-74.484761,39.383496],[-74.484725,39.383496],[-74.484725,39.383468]]],[[[-74.484761,39.383523],[-74.484796,39.383496],[-74.484796,39.383523],[-74.484761,39.383523]]],[[[-74.485504,39.384018],[-74.485539,39.38399],[-74.485539,39.384018],[-74.485504,39.384018]]],[[[-74.486211,39.384484],[-74.486247,39.384512],[-74.486211,39.384512],[-74.486211,39.384484]]],[[[-74.486494,39.384677],[-74.486459,39.384649],[-74.486494,39.384649],[-74.486494,39.384677]]],[[[-74.486671,39.384787],[-74.486636,39.384759],[-74.486671,39.384759],[-74.486671,39.384787]]],[[[-74.48699,39.385034],[-74.487025,39.385006],[-74.487025,39.385034],[-74.48699,39.385034]]],[[[-74.487096,39.385089],[-74.487131,39.385061],[-74.487131,39.385089],[-74.487096,39.385089]]],[[[-74.487166,39.385116],[-74.487202,39.385144],[-74.487166,39.385144],[-74.487166,39.385116]]],[[[-74.489076,39.391788],[-74.489111,39.391816],[-74.489076,39.391816],[-74.489076,39.391788]]],[[[-74.482074,39.377043],[-74.479208,39.375807],[-74.480164,39.37416],[-74.481649,39.375258],[-74.482039,39.375313],[-74.481897,39.376384],[-74.482074,39.377043]]],[[[-74.479243,39.377152],[-74.478713,39.376631],[-74.479031,39.376082],[-74.481295,39.377235],[-74.479243,39.377152]]],[[[-74.477828,39.378772],[-74.477863,39.3788],[-74.477828,39.3788],[-74.477828,39.378772]]],[[[-74.47804,39.378909],[-74.478075,39.378937],[-74.47804,39.378937],[-74.47804,39.378909]]],[[[-74.478075,39.378937],[-74.478111,39.378964],[-74.478075,39.378964],[-74.478075,39.378937]]],[[[-74.478111,39.378992],[-74.478146,39.378964],[-74.478146,39.378992],[-74.478111,39.378992]]],[[[-74.478252,39.379074],[-74.478252,39.379047],[-74.478288,39.379047],[-74.478288,39.379074],[-74.478252,39.379074]]],[[[-74.478287,39.379102],[-74.478288,39.379074],[-74.478323,39.379074],[-74.478323,39.379102],[-74.478287,39.379102]]],[[[-74.478358,39.379129],[-74.478323,39.379102],[-74.478358,39.379102],[-74.478358,39.379129]]],[[[-74.478358,39.379157],[-74.478429,39.379184],[-74.478394,39.379184],[-74.478358,39.379157]]],[[[-74.478464,39.379212],[-74.478429,39.379184],[-74.478464,39.379184],[-74.478464,39.379212]]],[[[-74.478677,39.379349],[-74.478712,39.379376],[-74.478677,39.379376],[-74.478677,39.379349]]],[[[-74.478783,39.379404],[-74.478818,39.379431],[-74.478783,39.379431],[-74.478783,39.379404]]],[[[-74.478853,39.379486],[-74.478889,39.379459],[-74.478889,39.379486],[-74.478853,39.379486]]],[[[-74.478924,39.379541],[-74.47896,39.379514],[-74.47896,39.379541],[-74.478924,39.379541]]],[[[-74.479136,39.379651],[-74.479172,39.379678],[-74.479136,39.379678],[-74.479136,39.379651]]],[[[-74.479172,39.379678],[-74.479207,39.379706],[-74.479172,39.379706],[-74.479172,39.379678]]],[[[-74.479738,39.380063],[-74.479702,39.380008],[-74.479738,39.380008],[-74.479738,39.380063]]],[[[-74.479773,39.38009],[-74.479808,39.380118],[-74.479773,39.380118],[-74.479773,39.38009]]],[[[-74.479808,39.380145],[-74.479844,39.380118],[-74.479844,39.380145],[-74.479808,39.380145]]],[[[-74.479879,39.380173],[-74.479915,39.380145],[-74.479915,39.380173],[-74.479879,39.380173]]],[[[-74.479915,39.3802],[-74.47995,39.380173],[-74.47995,39.3802],[-74.479915,39.3802]]],[[[-74.47995,39.380228],[-74.47995,39.3802],[-74.479985,39.3802],[-74.479985,39.380228],[-74.47995,39.380228]]],[[[-74.479985,39.380255],[-74.479985,39.380228],[-74.480021,39.380228],[-74.480021,39.380255],[-74.479985,39.380255]]],[[[-74.480021,39.380283],[-74.480021,39.380255],[-74.480056,39.380255],[-74.480056,39.380283],[-74.480021,39.380283]]],[[[-74.480091,39.38031],[-74.480056,39.380283],[-74.480091,39.380283],[-74.480091,39.38031]]],[[[-74.480374,39.380502],[-74.480339,39.380475],[-74.480374,39.380475],[-74.480374,39.380502]]],[[[-74.480374,39.380502],[-74.48041,39.38053],[-74.480374,39.38053],[-74.480374,39.380502]]],[[[-74.480834,39.380805],[-74.480799,39.380777],[-74.480834,39.380777],[-74.480834,39.380805]]],[[[-74.480834,39.380805],[-74.48087,39.380832],[-74.480834,39.380832],[-74.480834,39.380805]]],[[[-74.481117,39.380997],[-74.481082,39.380969],[-74.481117,39.380969],[-74.481117,39.380997]]],[[[-74.481117,39.381024],[-74.481153,39.380997],[-74.481153,39.381024],[-74.481117,39.381024]]],[[[-74.459831,39.360179],[-74.459972,39.360014],[-74.459689,39.359822],[-74.460255,39.359795],[-74.460821,39.360509],[-74.46075,39.360756],[-74.460078,39.360728],[-74.460078,39.360289],[-74.459831,39.360179]],[[-74.460078,39.360289],[-74.460114,39.360262],[-74.460078,39.360262],[-74.460078,39.360289]]],[[[-74.459512,39.361305],[-74.458875,39.360508],[-74.459335,39.360728],[-74.459229,39.360426],[-74.459583,39.360179],[-74.459618,39.360481],[-74.460714,39.361278],[-74.459512,39.361305]]],[[[-74.463438,39.361086],[-74.463473,39.361059],[-74.463473,39.361086],[-74.463438,39.361086]]],[[[-74.489182,39.391825],[-74.48805,39.390635],[-74.487166,39.390058],[-74.473048,39.387502],[-74.473438,39.387255],[-74.473402,39.386926],[-74.472765,39.387008],[-74.472624,39.386706],[-74.472306,39.386651],[-74.47135,39.386761],[-74.47089,39.386431],[-74.469015,39.386156],[-74.46714,39.385387],[-74.466256,39.385441],[-74.465689,39.38588],[-74.466609,39.386128],[-74.466361,39.386293],[-74.463213,39.385742],[-74.461479,39.385028],[-74.460206,39.383847],[-74.458333,39.380387],[-74.458546,39.380195],[-74.458298,39.380222],[-74.459395,39.379893],[-74.460139,39.378218],[-74.459537,39.377889],[-74.458547,39.377806],[-74.458264,39.378245],[-74.456813,39.37808],[-74.456353,39.378299],[-74.456424,39.378025],[-74.456176,39.377997],[-74.45561,39.378272],[-74.453524,39.377392],[-74.453099,39.377529],[-74.451861,39.377144],[-74.452003,39.376788],[-74.453454,39.375772],[-74.453489,39.375498],[-74.454339,39.375223],[-74.453985,39.375113],[-74.45264,39.375827],[-74.453171,39.375086],[-74.452747,39.374838],[-74.453242,39.374866],[-74.453384,39.374592],[-74.452889,39.374289],[-74.45349,39.374344],[-74.453632,39.374043],[-74.452889,39.373713],[-74.453738,39.373823],[-74.45388,39.373521],[-74.453173,39.373136],[-74.453986,39.373301],[-74.454128,39.372972],[-74.453739,39.373136],[-74.45381,39.372889],[-74.453067,39.372642],[-74.452748,39.372971],[-74.452642,39.372861],[-74.453067,39.372175],[-74.453067,39.372505],[-74.454199,39.372725],[-74.454588,39.371984],[-74.454093,39.371709],[-74.454695,39.371764],[-74.454872,39.371325],[-74.454695,39.371133],[-74.454978,39.371078],[-74.45466,39.370721],[-74.454412,39.370748],[-74.454412,39.370501],[-74.454094,39.370446],[-74.453422,39.370857],[-74.45204,39.37363],[-74.45204,39.374262],[-74.451757,39.374399],[-74.450658,39.376759],[-74.450057,39.376594],[-74.450058,39.375441],[-74.448891,39.375194],[-74.448713,39.375605],[-74.449067,39.37577],[-74.448466,39.375633],[-74.448076,39.375825],[-74.4479,39.37555],[-74.447617,39.375825],[-74.445459,39.375137],[-74.446167,39.375192],[-74.445955,39.374808],[-74.445106,39.374808],[-74.444964,39.37456],[-74.444292,39.37445],[-74.44415,39.374752],[-74.443655,39.374615],[-74.445604,39.370168],[-74.445569,39.369866],[-74.445428,39.369701],[-74.445498,39.370168],[-74.445074,39.370167],[-74.444686,39.369014],[-74.44511,39.36863],[-74.444546,39.367312],[-74.444653,39.3655],[-74.444264,39.365307],[-74.444442,39.364484],[-74.444937,39.364347],[-74.445009,39.363001],[-74.44455,39.361958],[-74.444904,39.361436],[-74.445222,39.361464],[-74.445116,39.361107],[-74.44547,39.36064],[-74.445223,39.360695],[-74.445294,39.360475],[-74.444975,39.36042],[-74.444552,39.359679],[-74.444374,39.360036],[-74.444869,39.360365],[-74.444798,39.36053],[-74.444162,39.360255],[-74.443809,39.359651],[-74.443667,39.359596],[-74.443738,39.359788],[-74.443243,39.359706],[-74.442818,39.359952],[-74.442889,39.360447],[-74.442464,39.36009],[-74.441509,39.360419],[-74.44211,39.361215],[-74.441968,39.361297],[-74.44158,39.360748],[-74.441473,39.360913],[-74.441155,39.360885],[-74.441049,39.360638],[-74.440059,39.360857],[-74.441014,39.360363],[-74.440661,39.359677],[-74.441545,39.360171],[-74.442182,39.359815],[-74.442182,39.359321],[-74.442606,39.359733],[-74.443455,39.359321],[-74.44342,39.358937],[-74.44388,39.359157],[-74.444411,39.358882],[-74.444623,39.358333],[-74.445401,39.358471],[-74.445508,39.358196],[-74.445083,39.358279],[-74.445119,39.358059],[-74.445649,39.357812],[-74.445226,39.357126],[-74.446287,39.356714],[-74.446499,39.356522],[-74.446358,39.356193],[-74.447242,39.35633],[-74.447844,39.355974],[-74.447773,39.355781],[-74.448445,39.355754],[-74.448197,39.356029],[-74.448409,39.356495],[-74.447879,39.356166],[-74.446924,39.35655],[-74.4471,39.356852],[-74.447949,39.356742],[-74.447383,39.357072],[-74.447454,39.357319],[-74.448126,39.357099],[-74.44763,39.357648],[-74.448727,39.357292],[-74.448762,39.357072],[-74.449611,39.356908],[-74.449011,39.35559],[-74.450638,39.354712],[-74.450639,39.354327],[-74.451028,39.354657],[-74.451523,39.354218],[-74.451735,39.354383],[-74.45216,39.354218],[-74.452195,39.353806],[-74.452796,39.354054],[-74.453468,39.353807],[-74.453044,39.35312],[-74.453327,39.35312],[-74.453787,39.353642],[-74.45453,39.353286],[-74.454247,39.352819],[-74.454777,39.353066],[-74.455662,39.352737],[-74.455379,39.352188],[-74.455768,39.35249],[-74.455556,39.352105],[-74.455804,39.352243],[-74.456051,39.352106],[-74.456016,39.35238],[-74.456228,39.352408],[-74.456511,39.352133],[-74.456476,39.351694],[-74.456193,39.351721],[-74.456264,39.351364],[-74.45683,39.351557],[-74.45637,39.351117],[-74.457113,39.350706],[-74.457042,39.350513],[-74.457644,39.350541],[-74.457431,39.350788],[-74.458138,39.351585],[-74.458916,39.351118],[-74.45821,39.350102],[-74.458881,39.350761],[-74.459235,39.350597],[-74.459129,39.350322],[-74.459589,39.350459],[-74.459165,39.349416],[-74.459907,39.350185],[-74.460013,39.350267],[-74.460119,39.350267],[-74.459872,39.349581],[-74.460261,39.34991],[-74.460685,39.349801],[-74.460473,39.350185],[-74.460897,39.349993],[-74.460544,39.349444],[-74.461322,39.349993],[-74.461322,39.349581],[-74.461675,39.349856],[-74.461959,39.349554],[-74.461535,39.348868],[-74.462454,39.349472],[-74.462772,39.349335],[-74.462525,39.348978],[-74.463161,39.349143],[-74.462914,39.348758],[-74.463338,39.349033],[-74.46355,39.348868],[-74.463762,39.348978],[-74.464187,39.348621],[-74.46401,39.348182],[-74.464399,39.348512],[-74.464894,39.348457],[-74.465212,39.348869],[-74.465637,39.348759],[-74.465496,39.34832],[-74.465885,39.347688],[-74.466274,39.347606],[-74.466062,39.347222],[-74.466451,39.347386],[-74.466698,39.347112],[-74.467229,39.34703],[-74.467123,39.346618],[-74.476539,39.358296],[-74.479019,39.358539],[-74.481241,39.358305],[-74.481926,39.35805],[-74.488672,39.353538],[-74.489385,39.353176],[-74.490866,39.352985],[-74.492072,39.353155],[-74.494786,39.354369],[-74.501398,39.358618],[-74.492581,39.365072],[-74.492194,39.366679],[-74.492286,39.368192],[-74.492899,39.370338],[-74.492718,39.371899],[-74.492341,39.372483],[-74.490192,39.373961],[-74.488486,39.375656],[-74.487739,39.377456],[-74.484126,39.375835],[-74.483029,39.374929],[-74.483277,39.37449],[-74.48264,39.373721],[-74.480766,39.373199],[-74.479386,39.372183],[-74.479811,39.372265],[-74.480129,39.372046],[-74.479705,39.371551],[-74.478502,39.370673],[-74.47783,39.371057],[-74.475425,39.369134],[-74.477406,39.368805],[-74.47914,39.367954],[-74.479812,39.367982],[-74.480449,39.367625],[-74.48052,39.367323],[-74.478115,39.365428],[-74.477514,39.365428],[-74.475569,39.364055],[-74.473977,39.363588],[-74.473305,39.362709],[-74.473412,39.361309],[-74.473023,39.360732],[-74.472104,39.36054],[-74.471396,39.361748],[-74.472421,39.362929],[-74.471007,39.361912],[-74.470299,39.362571],[-74.46807,39.363092],[-74.467186,39.3629],[-74.465312,39.361499],[-74.46266,39.360729],[-74.462059,39.360345],[-74.461741,39.359795],[-74.462165,39.35996],[-74.462201,39.359796],[-74.461388,39.358752],[-74.460999,39.358944],[-74.460822,39.358642],[-74.461423,39.358532],[-74.462413,39.359603],[-74.462166,39.359027],[-74.462555,39.359219],[-74.462838,39.359137],[-74.462131,39.358231],[-74.463085,39.358972],[-74.462732,39.358039],[-74.463121,39.357984],[-74.463192,39.357764],[-74.463475,39.358176],[-74.463864,39.358231],[-74.463475,39.357709],[-74.463192,39.357709],[-74.463334,39.357544],[-74.463086,39.357242],[-74.463546,39.357462],[-74.463793,39.357325],[-74.463157,39.356391],[-74.464076,39.35716],[-74.463299,39.355732],[-74.464006,39.356446],[-74.464289,39.356474],[-74.464466,39.356199],[-74.464077,39.35554],[-74.463264,39.355677],[-74.463441,39.355321],[-74.46238,39.35414],[-74.462168,39.354167],[-74.463158,39.35554],[-74.462415,39.355128],[-74.461991,39.354387],[-74.461744,39.354469],[-74.462521,39.355595],[-74.46139,39.354496],[-74.461213,39.354551],[-74.461496,39.355128],[-74.461036,39.354716],[-74.460753,39.354743],[-74.461743,39.356116],[-74.460435,39.354908],[-74.461212,39.356089],[-74.460965,39.356116],[-74.460046,39.3551],[-74.45994,39.355292],[-74.460576,39.355841],[-74.46054,39.356088],[-74.459657,39.355292],[-74.45948,39.355649],[-74.459232,39.355511],[-74.458666,39.355786],[-74.458913,39.356143],[-74.458666,39.356088],[-74.458807,39.35628],[-74.458701,39.35639],[-74.458383,39.356033],[-74.457923,39.355978],[-74.458171,39.355703],[-74.457358,39.354769],[-74.457358,39.355318],[-74.456544,39.355483],[-74.45396,39.359243],[-74.453465,39.359655],[-74.452793,39.359627],[-74.452403,39.359929],[-74.451696,39.359792],[-74.451483,39.360533],[-74.452191,39.360643],[-74.452509,39.361],[-74.451977,39.36229],[-74.452331,39.3624],[-74.452367,39.361989],[-74.452862,39.362126],[-74.452791,39.361824],[-74.453286,39.361797],[-74.453321,39.362044],[-74.453746,39.362209],[-74.45555,39.362182],[-74.455797,39.362402],[-74.456293,39.361853],[-74.456611,39.36199],[-74.457248,39.361579],[-74.458061,39.361496],[-74.458344,39.361854],[-74.45746,39.362265],[-74.457636,39.36265],[-74.457495,39.362869],[-74.458343,39.362979],[-74.458733,39.362815],[-74.458627,39.362211],[-74.458875,39.361964],[-74.459087,39.362266],[-74.459299,39.362211],[-74.459157,39.362732],[-74.459652,39.362458],[-74.460147,39.363007],[-74.460572,39.363117],[-74.461173,39.362733],[-74.461315,39.362321],[-74.462624,39.362239],[-74.462624,39.361471],[-74.463296,39.361361],[-74.463155,39.361169],[-74.465241,39.361773],[-74.465595,39.362268],[-74.46517,39.362515],[-74.465983,39.363174],[-74.466514,39.363174],[-74.466514,39.362927],[-74.466762,39.362954],[-74.466974,39.363366],[-74.466514,39.363558],[-74.466974,39.363696],[-74.467575,39.363476],[-74.46807,39.363916],[-74.467857,39.364575],[-74.469131,39.365207],[-74.46959,39.365097],[-74.470014,39.366223],[-74.47058,39.366388],[-74.47058,39.366058],[-74.470793,39.366058],[-74.471217,39.366333],[-74.471323,39.367706],[-74.471676,39.368063],[-74.472419,39.368228],[-74.473409,39.368036],[-74.476628,39.370398],[-74.475885,39.370672],[-74.474505,39.370672],[-74.474328,39.370919],[-74.473798,39.370781],[-74.47316,39.371962],[-74.473832,39.372758],[-74.474221,39.372868],[-74.474858,39.372457],[-74.475141,39.372566],[-74.475389,39.37221],[-74.475424,39.372869],[-74.475778,39.372841],[-74.477511,39.3721],[-74.477335,39.371716],[-74.477618,39.371551],[-74.478148,39.371963],[-74.478573,39.371881],[-74.479775,39.372842],[-74.480093,39.373528],[-74.480022,39.37416],[-74.478713,39.375532],[-74.467925,39.37067],[-74.462196,39.367731],[-74.456184,39.366575],[-74.448227,39.364293],[-74.44812,39.364156],[-74.448686,39.364211],[-74.448722,39.363964],[-74.448404,39.363909],[-74.448086,39.362893],[-74.448015,39.363057],[-74.447555,39.363002],[-74.447166,39.363936],[-74.446458,39.364155],[-74.4472,39.36465],[-74.450242,39.365255],[-74.455688,39.366795],[-74.46064,39.367758],[-74.459013,39.367565],[-74.456891,39.367207],[-74.456785,39.367125],[-74.456714,39.367125],[-74.456714,39.367152],[-74.456643,39.367152],[-74.456608,39.367125],[-74.456572,39.367152],[-74.456572,39.367097],[-74.455547,39.366877],[-74.45537,39.366904],[-74.455299,39.366822],[-74.453,39.366272],[-74.45293,39.36619],[-74.452823,39.366217],[-74.45155,39.365887],[-74.451515,39.365805],[-74.451373,39.365832],[-74.451409,39.365777],[-74.451161,39.365777],[-74.451091,39.365695],[-74.450949,39.365722],[-74.450914,39.36564],[-74.450772,39.365612],[-74.450666,39.36564],[-74.450702,39.365585],[-74.45056,39.365612],[-74.450383,39.365557],[-74.450383,39.365502],[-74.450242,39.365475],[-74.450136,39.365502],[-74.449747,39.365392],[-74.449782,39.365282],[-74.449641,39.365365],[-74.445927,39.364622],[-74.447448,39.365199],[-74.447306,39.365391],[-74.446351,39.365391],[-74.446386,39.365638],[-74.447235,39.365858],[-74.446244,39.365912],[-74.454273,39.367343],[-74.454096,39.367645],[-74.452822,39.367974],[-74.45353,39.368167],[-74.454273,39.368085],[-74.455476,39.367536],[-74.461771,39.368719],[-74.464636,39.3699],[-74.470436,39.373966],[-74.470648,39.373993],[-74.474185,39.376383],[-74.474291,39.376465],[-74.474255,39.376547],[-74.476094,39.377701],[-74.476236,39.377893],[-74.477191,39.378415],[-74.477156,39.378497],[-74.477262,39.378443],[-74.477509,39.378607],[-74.480799,39.380969],[-74.481153,39.381107],[-74.481683,39.381573],[-74.482744,39.382178],[-74.488192,39.38594],[-74.487262,39.386015],[-74.486472,39.386487],[-74.486362,39.387351],[-74.486645,39.388231],[-74.487853,39.388951],[-74.489834,39.389174],[-74.490836,39.389784],[-74.490232,39.391039],[-74.489182,39.391825]],[[-74.465689,39.385908],[-74.465654,39.385935],[-74.465689,39.385935],[-74.465689,39.385908]],[[-74.458546,39.380195],[-74.458581,39.380167],[-74.458546,39.380167],[-74.458546,39.380195]],[[-74.44547,39.36064],[-74.445506,39.360613],[-74.44547,39.360613],[-74.44547,39.36064]],[[-74.454495,39.352984],[-74.45453,39.353011],[-74.45453,39.352984],[-74.454495,39.352984]],[[-74.455768,39.35249],[-74.455803,39.352545],[-74.455803,39.35249],[-74.455768,39.35249]],[[-74.455803,39.352545],[-74.455839,39.352572],[-74.455839,39.352545],[-74.455803,39.352545]],[[-74.473662,39.354747],[-74.473627,39.354774],[-74.473662,39.354774],[-74.473662,39.354747]],[[-74.46266,39.360702],[-74.462695,39.360674],[-74.46266,39.360674],[-74.46266,39.360702]],[[-74.463227,39.358972],[-74.463262,39.359],[-74.463262,39.358972],[-74.463227,39.358972]],[[-74.46139,39.354496],[-74.461496,39.354441],[-74.46139,39.354469],[-74.46139,39.354496]],[[-74.458666,39.356088],[-74.458631,39.35606],[-74.45863,39.356088],[-74.458666,39.356088]],[[-74.457495,39.362842],[-74.457424,39.362814],[-74.457424,39.362842],[-74.457495,39.362842]],[[-74.46036,39.363117],[-74.460253,39.363145],[-74.460359,39.363145],[-74.46036,39.363117]],[[-74.457032,39.367207],[-74.457068,39.36718],[-74.457032,39.36718],[-74.457032,39.367207]],[[-74.45537,39.366877],[-74.455441,39.36685],[-74.45537,39.36685],[-74.45537,39.366877]],[[-74.452364,39.36608],[-74.452434,39.366052],[-74.452364,39.366052],[-74.452364,39.36608]],[[-74.452187,39.366025],[-74.452222,39.365997],[-74.452187,39.365997],[-74.452187,39.366025]],[[-74.451975,39.36597],[-74.45201,39.365942],[-74.451975,39.365942],[-74.451975,39.36597]],[[-74.45155,39.36586],[-74.451621,39.365832],[-74.45155,39.365832],[-74.45155,39.36586]],[[-74.451161,39.36575],[-74.451197,39.365722],[-74.451161,39.365722],[-74.451161,39.36575]],[[-74.45056,39.365585],[-74.450595,39.365557],[-74.45056,39.365557],[-74.45056,39.365585]],[[-74.450454,39.365557],[-74.450489,39.36553],[-74.450454,39.36553],[-74.450454,39.365557]],[[-74.450136,39.365475],[-74.450171,39.365447],[-74.450136,39.365447],[-74.450136,39.365475]],[[-74.450065,39.365447],[-74.4501,39.36542],[-74.450065,39.36542],[-74.450065,39.365447]],[[-74.449853,39.365392],[-74.449924,39.365365],[-74.449853,39.365365],[-74.449853,39.365392]],[[-74.449535,39.365282],[-74.449499,39.365255],[-74.449499,39.365282],[-74.449535,39.365282]],[[-74.449535,39.365255],[-74.44957,39.365227],[-74.449535,39.365227],[-74.449535,39.365255]],[[-74.453247,39.36781],[-74.453105,39.367782],[-74.453105,39.36781],[-74.453247,39.36781]],[[-74.473795,39.376163],[-74.47376,39.37619],[-74.473795,39.37619],[-74.473795,39.376163]],[[-74.473972,39.376273],[-74.473937,39.3763],[-74.473972,39.3763],[-74.473972,39.376273]],[[-74.474078,39.376355],[-74.474043,39.376383],[-74.474078,39.376383],[-74.474078,39.376355]],[[-74.474255,39.37652],[-74.47422,39.376493],[-74.47422,39.37652],[-74.474255,39.37652]],[[-74.477226,39.378497],[-74.477262,39.378525],[-74.477262,39.378498],[-74.477226,39.378497]],[[-74.47758,39.37869],[-74.477545,39.378717],[-74.47758,39.378717],[-74.47758,39.37869]],[[-74.482851,39.382287],[-74.482815,39.382315],[-74.482851,39.382315],[-74.482851,39.382287]]],[[[-74.465096,39.37001],[-74.465131,39.369983],[-74.465131,39.37001],[-74.465096,39.37001]]],[[[-74.465202,39.370093],[-74.465237,39.370065],[-74.465237,39.370093],[-74.465202,39.370093]]],[[[-74.465591,39.370395],[-74.465662,39.370367],[-74.465662,39.370395],[-74.465591,39.370395]]],[[[-74.465662,39.370422],[-74.465697,39.37045],[-74.465662,39.37045],[-74.465662,39.370422]]],[[[-74.465732,39.370505],[-74.465768,39.370477],[-74.465768,39.370505],[-74.465732,39.370505]]],[[[-74.465838,39.370587],[-74.465874,39.37056],[-74.465874,39.370587],[-74.465838,39.370587]]],[[[-74.465909,39.370642],[-74.465944,39.370615],[-74.465944,39.370642],[-74.465909,39.370642]]],[[[-74.46743,39.371686],[-74.467465,39.371658],[-74.467465,39.371686],[-74.46743,39.371686]]],[[[-74.467465,39.371713],[-74.4675,39.371686],[-74.4675,39.371713],[-74.467465,39.371713]]],[[[-74.4675,39.371713],[-74.467536,39.371741],[-74.4675,39.371741],[-74.4675,39.371713]]],[[[-74.467536,39.371768],[-74.467571,39.371741],[-74.467571,39.371768],[-74.467536,39.371768]]],[[[-74.467571,39.371796],[-74.467607,39.371768],[-74.467606,39.371796],[-74.467571,39.371796]]],[[[-74.467606,39.371823],[-74.467642,39.371796],[-74.467642,39.371823],[-74.467606,39.371823]]],[[[-74.467748,39.371906],[-74.467783,39.371878],[-74.467783,39.371906],[-74.467748,39.371906]]],[[[-74.467783,39.371933],[-74.467819,39.371906],[-74.467819,39.371933],[-74.467783,39.371933]]],[[[-74.467819,39.371961],[-74.467854,39.371933],[-74.467854,39.371961],[-74.467819,39.371961]]],[[[-74.467854,39.371988],[-74.467889,39.371961],[-74.467889,39.371988],[-74.467854,39.371988]]],[[[-74.467889,39.371988],[-74.467925,39.372016],[-74.467889,39.372016],[-74.467889,39.371988]]],[[[-74.468385,39.372318],[-74.468349,39.37229],[-74.468385,39.37229],[-74.468385,39.372318]]],[[[-74.468491,39.3724],[-74.468455,39.372373],[-74.468491,39.372373],[-74.468491,39.3724]]],[[[-74.477474,39.378305],[-74.468491,39.372428],[-74.468491,39.372345],[-74.468384,39.372345],[-74.468385,39.372263],[-74.468278,39.37229],[-74.467995,39.372098],[-74.46796,39.371961],[-74.467783,39.371851],[-74.467677,39.371878],[-74.467677,39.371796],[-74.467571,39.371686],[-74.467253,39.371576],[-74.467253,39.371384],[-74.467076,39.371466],[-74.466475,39.371054],[-74.46552,39.370175],[-74.464141,39.369159],[-74.47843,39.375807],[-74.478288,39.376466],[-74.478925,39.377152],[-74.48126,39.377482],[-74.479208,39.378388],[-74.477474,39.378305]],[[-74.468774,39.372592],[-74.468809,39.372565],[-74.468774,39.372565],[-74.468774,39.372592]],[[-74.468632,39.372482],[-74.468667,39.372455],[-74.468632,39.372455],[-74.468632,39.372482]],[[-74.468349,39.372263],[-74.468314,39.372235],[-74.468314,39.372263],[-74.468349,39.372263]],[[-74.469233,39.372894],[-74.469269,39.372867],[-74.469233,39.372867],[-74.469233,39.372894]]],[[[-74.474361,39.37652],[-74.474326,39.376547],[-74.474326,39.37652],[-74.474361,39.37652]]],[[[-74.477545,39.378498],[-74.477509,39.378525],[-74.477509,39.378498],[-74.477545,39.378498]]],[[[-74.477474,39.378552],[-74.477509,39.378525],[-74.477509,39.378552],[-74.477474,39.378552]]],[[[-74.477651,39.37858],[-74.477686,39.378607],[-74.477651,39.378607],[-74.477651,39.37858]]],[[[-74.477615,39.378635],[-74.477651,39.378607],[-74.477651,39.378635],[-74.477615,39.378635]]],[[[-74.477722,39.378717],[-74.477686,39.378607],[-74.477792,39.378635],[-74.477757,39.378717],[-74.477722,39.378717]]],[[[-74.477792,39.378745],[-74.477757,39.378717],[-74.477792,39.378717],[-74.477792,39.378745]]],[[[-74.434371,39.35342],[-74.433759,39.353742],[-74.433104,39.352752],[-74.43375,39.352493],[-74.434371,39.35342]]],[[[-74.439251,39.354322],[-74.440135,39.354185],[-74.439923,39.353883],[-74.440241,39.353883],[-74.440453,39.354295],[-74.439887,39.354789],[-74.440028,39.355201],[-74.439427,39.355201],[-74.439251,39.354322]]],[[[-74.428257,39.355277],[-74.42729,39.355523],[-74.427982,39.355148],[-74.428257,39.355277]]],[[[-74.42726,39.355551],[-74.427237,39.355551],[-74.42726,39.355538],[-74.42726,39.355551]]],[[[-74.42719,39.355578],[-74.427184,39.355578],[-74.42719,39.355575],[-74.42719,39.355578]]],[[[-74.427083,39.355633],[-74.427077,39.355633],[-74.427083,39.35563],[-74.427083,39.355633]]],[[[-74.424685,39.356126],[-74.419866,39.357935],[-74.417778,39.359361],[-74.41569,39.360348],[-74.415442,39.360183],[-74.415053,39.360292],[-74.415053,39.360567],[-74.414164,39.361033],[-74.414926,39.360428],[-74.414738,39.360141],[-74.41532,39.359907],[-74.415421,39.360053],[-74.418267,39.358683],[-74.419088,39.358031],[-74.417962,39.356358],[-74.418441,39.356169],[-74.419504,39.357753],[-74.423468,39.356355],[-74.423876,39.355819],[-74.424357,39.355639],[-74.424685,39.356126]]],[[[-74.422659,39.359145],[-74.421599,39.357881],[-74.422943,39.357525],[-74.422342,39.357854],[-74.422271,39.358101],[-74.422837,39.357827],[-74.423155,39.358321],[-74.423685,39.358486],[-74.423649,39.359008],[-74.423119,39.35887],[-74.42333,39.359667],[-74.423083,39.359172],[-74.422659,39.359145]]],[[[-74.413673,39.361252],[-74.413611,39.361252],[-74.413673,39.361238],[-74.413673,39.361252]]],[[[-74.413283,39.361275],[-74.41355,39.361267],[-74.413602,39.361255],[-74.413566,39.361307],[-74.413283,39.361275]]],[[[-74.44324,39.362781],[-74.442958,39.362314],[-74.443488,39.362149],[-74.44416,39.362534],[-74.444407,39.363001],[-74.44324,39.362781]]],[[[-74.441116,39.365004],[-74.437756,39.364425],[-74.437686,39.364206],[-74.440869,39.364756],[-74.441116,39.365004]]],[[[-74.450242,39.36553],[-74.450277,39.365502],[-74.450277,39.36553],[-74.450242,39.36553]]],[[[-74.450772,39.365667],[-74.450808,39.36564],[-74.450808,39.365667],[-74.450772,39.365667]]],[[[-74.450878,39.365695],[-74.450914,39.365667],[-74.450914,39.365695],[-74.450878,39.365695]]],[[[-74.451055,39.36575],[-74.451091,39.365722],[-74.451091,39.36575],[-74.451055,39.36575]]],[[[-74.45491,39.366794],[-74.454945,39.366767],[-74.454945,39.366794],[-74.45491,39.366794]]],[[[-74.455264,39.366877],[-74.455299,39.36685],[-74.455299,39.366877],[-74.455264,39.366877]]],[[[-74.456148,39.367069],[-74.456219,39.367042],[-74.456219,39.36707],[-74.456148,39.367069]]],[[[-74.41087,39.36762],[-74.410341,39.366631],[-74.409917,39.366302],[-74.410129,39.366055],[-74.410695,39.366412],[-74.411012,39.367373],[-74.41087,39.36762]]],[[[-74.456289,39.367097],[-74.456325,39.36707],[-74.456325,39.367097],[-74.456289,39.367097]]],[[[-74.456749,39.36718],[-74.456714,39.367152],[-74.456749,39.367152],[-74.456749,39.36718]]],[[[-74.462585,39.368747],[-74.455652,39.367481],[-74.455051,39.367206],[-74.461701,39.368252],[-74.462585,39.368747]]],[[[-74.424522,39.369579],[-74.424841,39.369497],[-74.42484,39.369525],[-74.424522,39.369579]]],[[[-74.437858,39.36956],[-74.438388,39.370439],[-74.43807,39.370082],[-74.437716,39.370191],[-74.43715,39.37074],[-74.437326,39.370877],[-74.438282,39.370603],[-74.437397,39.371042],[-74.437786,39.371262],[-74.437644,39.371482],[-74.437962,39.372141],[-74.437114,39.371152],[-74.436193,39.37192],[-74.435946,39.3717],[-74.435486,39.371837],[-74.436193,39.372085],[-74.435945,39.372222],[-74.434036,39.371534],[-74.4334,39.370326],[-74.432904,39.37093],[-74.432586,39.370765],[-74.432763,39.370573],[-74.432055,39.370902],[-74.432126,39.371039],[-74.431242,39.370737],[-74.430677,39.369775],[-74.430358,39.369885],[-74.430606,39.370324],[-74.430252,39.369857],[-74.429792,39.369967],[-74.429475,39.368814],[-74.430217,39.369693],[-74.430783,39.369528],[-74.43149,39.370599],[-74.431843,39.370682],[-74.431561,39.369886],[-74.43241,39.37049],[-74.433259,39.370134],[-74.433047,39.369722],[-74.432799,39.369749],[-74.432906,39.369475],[-74.433436,39.369997],[-74.434568,39.36964],[-74.43425,39.369146],[-74.433366,39.369447],[-74.433755,39.369063],[-74.434215,39.368981],[-74.433826,39.368542],[-74.433366,39.368624],[-74.433791,39.368377],[-74.433509,39.367937],[-74.433615,39.367855],[-74.434286,39.368899],[-74.434887,39.368707],[-74.435382,39.369284],[-74.435913,39.369202],[-74.434957,39.369668],[-74.434957,39.369943],[-74.434639,39.369805],[-74.43425,39.36997],[-74.434568,39.370217],[-74.434461,39.370382],[-74.434214,39.370381],[-74.434073,39.370079],[-74.433613,39.370244],[-74.434319,39.37126],[-74.434779,39.370931],[-74.435027,39.371068],[-74.435416,39.370904],[-74.435416,39.370684],[-74.435664,39.370849],[-74.436194,39.370657],[-74.436335,39.371261],[-74.436725,39.370877],[-74.437008,39.371014],[-74.436796,39.370575],[-74.436407,39.370685],[-74.436407,39.37052],[-74.436655,39.370438],[-74.436513,39.370108],[-74.436867,39.370328],[-74.437292,39.370163],[-74.436867,39.369669],[-74.437044,39.369532],[-74.437504,39.370054],[-74.437928,39.369917],[-74.437752,39.369642],[-74.437858,39.36956]],[[-74.429581,39.369088],[-74.429616,39.369143],[-74.429616,39.369088],[-74.429581,39.369088]],[[-74.429616,39.369143],[-74.429652,39.369198],[-74.429652,39.369143],[-74.429616,39.369143]],[[-74.429687,39.369198],[-74.429687,39.369253],[-74.429722,39.369281],[-74.429687,39.369198]],[[-74.429722,39.369281],[-74.429758,39.369335],[-74.429758,39.369281],[-74.429722,39.369281]],[[-74.434215,39.368981],[-74.434286,39.369036],[-74.43425,39.368981],[-74.434215,39.368981]],[[-74.434285,39.370134],[-74.434249,39.370162],[-74.434285,39.370162],[-74.434285,39.370134]]],[[[-74.430358,39.370407],[-74.429934,39.370049],[-74.430146,39.37005],[-74.430358,39.370407]]],[[[-74.429934,39.370324],[-74.430004,39.370269],[-74.430004,39.370324],[-74.429934,39.370324]]],[[[-74.442949,39.37283],[-74.442489,39.372994],[-74.442595,39.373269],[-74.442312,39.373104],[-74.441888,39.373214],[-74.442171,39.372912],[-74.441394,39.371703],[-74.442101,39.371347],[-74.441748,39.37077],[-74.442278,39.371264],[-74.442526,39.371182],[-74.442067,39.369891],[-74.442986,39.37099],[-74.443199,39.370688],[-74.442669,39.369645],[-74.443588,39.370743],[-74.444083,39.370524],[-74.443589,39.369618],[-74.444119,39.370112],[-74.444402,39.37003],[-74.443907,39.369453],[-74.444226,39.369288],[-74.444296,39.369508],[-74.444685,39.369453],[-74.444897,39.369701],[-74.445003,39.370634],[-74.443762,39.373571],[-74.443231,39.374038],[-74.443267,39.373187],[-74.442949,39.37283]]],[[[-74.433574,39.373237],[-74.433504,39.372495],[-74.434247,39.37266],[-74.434671,39.373155],[-74.433857,39.373703],[-74.433256,39.373593],[-74.433221,39.373264],[-74.433574,39.373237]]],[[[-74.431095,39.376777],[-74.431485,39.375432],[-74.432334,39.375213],[-74.432511,39.375515],[-74.431696,39.376887],[-74.431095,39.376777]]],[[[-74.486776,39.390195],[-74.487944,39.390855],[-74.48897,39.391953],[-74.488895,39.393242],[-74.489549,39.394579],[-74.489676,39.395679],[-74.489371,39.396758],[-74.488662,39.397715],[-74.464921,39.412096],[-74.457073,39.416523],[-74.45436,39.416119],[-74.451216,39.414673],[-74.449902,39.414938],[-74.448232,39.416639],[-74.447276,39.416969],[-74.442708,39.417612],[-74.440538,39.417462],[-74.439718,39.417048],[-74.438794,39.415934],[-74.437853,39.411946],[-74.437108,39.410148],[-74.435803,39.408526],[-74.433987,39.406917],[-74.431967,39.405671],[-74.429041,39.404417],[-74.424604,39.40293],[-74.417129,39.40091],[-74.41578,39.399989],[-74.414568,39.398482],[-74.413864,39.39708],[-74.415504,39.395241],[-74.415481,39.39203],[-74.413991,39.389835],[-74.414629,39.389479],[-74.415088,39.389589],[-74.414912,39.389232],[-74.41523,39.389095],[-74.415797,39.389177],[-74.416185,39.389562],[-74.416822,39.389617],[-74.417672,39.389124],[-74.417779,39.388685],[-74.418345,39.388465],[-74.417992,39.388163],[-74.419443,39.387114],[-74.421718,39.386107],[-74.420176,39.382313],[-74.417861,39.380023],[-74.415446,39.379354],[-74.413408,39.377974],[-74.410193,39.373375],[-74.409178,39.371338],[-74.406138,39.368506],[-74.407066,39.363904],[-74.407569,39.364421],[-74.408389,39.364213],[-74.410282,39.363112],[-74.410308,39.362686],[-74.411708,39.362174],[-74.413102,39.361158],[-74.412115,39.362047],[-74.410735,39.362623],[-74.410026,39.363556],[-74.408858,39.364351],[-74.408716,39.364708],[-74.409564,39.365999],[-74.409245,39.366109],[-74.409669,39.366137],[-74.410058,39.366686],[-74.41154,39.369515],[-74.411894,39.369461],[-74.413624,39.371988],[-74.413729,39.372537],[-74.413482,39.372619],[-74.413799,39.373086],[-74.414224,39.373059],[-74.415107,39.37435],[-74.41546,39.375119],[-74.415423,39.375833],[-74.416131,39.375587],[-74.414966,39.373856],[-74.415284,39.374103],[-74.41624,39.37372],[-74.41624,39.373418],[-74.416452,39.3735],[-74.41624,39.373033],[-74.416735,39.373528],[-74.418894,39.372568],[-74.418117,39.371524],[-74.416064,39.372347],[-74.416135,39.372786],[-74.415498,39.372538],[-74.415462,39.372923],[-74.414896,39.372977],[-74.414719,39.373389],[-74.414366,39.372922],[-74.414012,39.373004],[-74.414296,39.3724],[-74.414826,39.372181],[-74.415215,39.372456],[-74.415428,39.372346],[-74.414721,39.37133],[-74.413624,39.371631],[-74.414509,39.371028],[-74.414156,39.370533],[-74.414157,39.370313],[-74.414369,39.370396],[-74.414228,39.370039],[-74.415254,39.369765],[-74.415113,39.369436],[-74.414653,39.369572],[-74.415113,39.369188],[-74.414901,39.368667],[-74.41529,39.369106],[-74.415679,39.368969],[-74.415574,39.368667],[-74.415821,39.368887],[-74.416246,39.368722],[-74.415716,39.367514],[-74.415221,39.367349],[-74.415823,39.367157],[-74.415717,39.367377],[-74.416317,39.368256],[-74.4166,39.368531],[-74.416918,39.368476],[-74.418546,39.367681],[-74.417946,39.3665],[-74.417592,39.366472],[-74.41777,39.36628],[-74.418194,39.36617],[-74.418759,39.367214],[-74.419218,39.367544],[-74.420103,39.36716],[-74.419432,39.365924],[-74.420068,39.366693],[-74.420316,39.366639],[-74.420422,39.367023],[-74.4212,39.366722],[-74.420741,39.36587],[-74.420281,39.366035],[-74.420565,39.365541],[-74.420883,39.36587],[-74.420989,39.365651],[-74.421519,39.366502],[-74.422333,39.366256],[-74.422545,39.366009],[-74.421804,39.364827],[-74.422016,39.364828],[-74.422687,39.365817],[-74.423076,39.365954],[-74.42389,39.365653],[-74.42389,39.365405],[-74.424739,39.365433],[-74.425093,39.365159],[-74.424987,39.364857],[-74.425482,39.365022],[-74.426367,39.364666],[-74.42619,39.364309],[-74.426438,39.364254],[-74.426685,39.364529],[-74.42757,39.364172],[-74.42757,39.36398],[-74.427888,39.364035],[-74.427606,39.363239],[-74.428278,39.363898],[-74.428879,39.363624],[-74.428773,39.363185],[-74.429198,39.363514],[-74.430613,39.363076],[-74.431248,39.364312],[-74.432274,39.363901],[-74.431886,39.363186],[-74.432239,39.363461],[-74.432523,39.363406],[-74.432522,39.363791],[-74.433088,39.363736],[-74.432663,39.364038],[-74.432981,39.364478],[-74.433229,39.364478],[-74.433441,39.365082],[-74.434396,39.364698],[-74.433901,39.364258],[-74.433796,39.363654],[-74.434043,39.363847],[-74.434114,39.363517],[-74.435317,39.36371],[-74.434928,39.363078],[-74.43461,39.363215],[-74.434504,39.363133],[-74.435353,39.362777],[-74.435494,39.362859],[-74.43514,39.363024],[-74.435741,39.36382],[-74.436024,39.363848],[-74.43613,39.363903],[-74.436307,39.363903],[-74.436908,39.364068],[-74.437049,39.364068],[-74.437049,39.364095],[-74.437191,39.364095],[-74.437191,39.364123],[-74.437297,39.364123],[-74.436802,39.363738],[-74.436237,39.362585],[-74.43553,39.362667],[-74.43599,39.362365],[-74.435707,39.361816],[-74.435849,39.361651],[-74.436238,39.3622],[-74.43691,39.362201],[-74.436414,39.362612],[-74.437333,39.363684],[-74.437368,39.364233],[-74.436165,39.364342],[-74.436553,39.365386],[-74.437189,39.366072],[-74.438321,39.365716],[-74.43733,39.366265],[-74.437683,39.367034],[-74.438355,39.367638],[-74.438638,39.367556],[-74.438568,39.367281],[-74.438744,39.367501],[-74.439381,39.367309],[-74.439311,39.367089],[-74.43977,39.367474],[-74.44069,39.367063],[-74.440549,39.366706],[-74.440124,39.36665],[-74.440408,39.366404],[-74.440161,39.365744],[-74.440585,39.366321],[-74.441575,39.365855],[-74.441505,39.365471],[-74.442035,39.36569],[-74.442035,39.365992],[-74.442424,39.36624],[-74.443238,39.366103],[-74.44352,39.367037],[-74.442918,39.367311],[-74.443166,39.36786],[-74.442139,39.368354],[-74.442705,39.368354],[-74.44267,39.368684],[-74.443236,39.368629],[-74.442422,39.369013],[-74.442598,39.36948],[-74.442952,39.369507],[-74.442492,39.369644],[-74.442103,39.36915],[-74.441785,39.369315],[-74.442138,39.369836],[-74.441855,39.369809],[-74.441572,39.369369],[-74.441254,39.369452],[-74.441714,39.369122],[-74.441644,39.368875],[-74.440724,39.368847],[-74.440865,39.369204],[-74.440476,39.368957],[-74.439875,39.369341],[-74.43991,39.369808],[-74.440794,39.369589],[-74.439874,39.370055],[-74.440086,39.370659],[-74.439626,39.370165],[-74.4386,39.370521],[-74.437858,39.369422],[-74.438424,39.369752],[-74.438071,39.368928],[-74.437435,39.368242],[-74.437258,39.368543],[-74.436798,39.367857],[-74.437151,39.368598],[-74.436763,39.368131],[-74.436126,39.368241],[-74.435702,39.367746],[-74.435242,39.367911],[-74.434994,39.367773],[-74.435808,39.367444],[-74.435667,39.36717],[-74.435985,39.36739],[-74.435985,39.367088],[-74.435455,39.366977],[-74.43496,39.367142],[-74.435597,39.366676],[-74.435456,39.366236],[-74.434854,39.366373],[-74.435279,39.365961],[-74.434537,39.364918],[-74.433546,39.365302],[-74.433935,39.36618],[-74.433475,39.366098],[-74.433617,39.365851],[-74.433299,39.365411],[-74.432308,39.365823],[-74.432555,39.366289],[-74.432944,39.366262],[-74.432696,39.366427],[-74.432873,39.366839],[-74.432413,39.366536],[-74.431387,39.367003],[-74.430716,39.366426],[-74.429972,39.366837],[-74.430113,39.367249],[-74.431033,39.366947],[-74.430785,39.367359],[-74.430219,39.367469],[-74.430502,39.367936],[-74.431174,39.367826],[-74.430643,39.368128],[-74.430784,39.36865],[-74.430395,39.36821],[-74.430006,39.368512],[-74.42944,39.368566],[-74.430254,39.368045],[-74.430042,39.367716],[-74.429016,39.367907],[-74.429016,39.368374],[-74.428733,39.368072],[-74.427813,39.368291],[-74.428592,39.367907],[-74.428168,39.367467],[-74.428061,39.367714],[-74.427248,39.367851],[-74.427389,39.368318],[-74.426929,39.367961],[-74.426115,39.3684],[-74.426468,39.369086],[-74.427211,39.369499],[-74.426433,39.369306],[-74.425691,39.368482],[-74.424735,39.368866],[-74.425088,39.369497],[-74.424876,39.369525],[-74.424417,39.368975],[-74.423744,39.369249],[-74.424204,39.369442],[-74.42385,39.369496],[-74.424097,39.369689],[-74.423638,39.369579],[-74.423673,39.369743],[-74.422682,39.3701],[-74.42346,39.3701],[-74.422894,39.370567],[-74.423318,39.370512],[-74.423566,39.370787],[-74.423176,39.371253],[-74.423423,39.37161],[-74.423848,39.371611],[-74.423529,39.371803],[-74.423812,39.372297],[-74.424873,39.371886],[-74.424768,39.371611],[-74.425051,39.371227],[-74.4259,39.37109],[-74.42583,39.370898],[-74.425405,39.371008],[-74.42583,39.370651],[-74.42696,39.372354],[-74.427736,39.374386],[-74.428973,39.375842],[-74.42876,39.376501],[-74.429466,39.377792],[-74.429324,39.378066],[-74.427873,39.378642],[-74.42759,39.378532],[-74.426989,39.378751],[-74.426811,39.379081],[-74.425254,39.379711],[-74.424512,39.379134],[-74.424336,39.37853],[-74.423946,39.378502],[-74.423982,39.3782],[-74.423523,39.377788],[-74.422461,39.378172],[-74.423556,39.37982],[-74.424617,39.379683],[-74.424051,39.38004],[-74.42398,39.380287],[-74.424333,39.380479],[-74.42398,39.380452],[-74.423979,39.380699],[-74.425004,39.381743],[-74.425074,39.383033],[-74.424861,39.383582],[-74.423055,39.384734],[-74.424967,39.383747],[-74.424966,39.384022],[-74.424329,39.384268],[-74.424435,39.384516],[-74.423974,39.385229],[-74.424753,39.385147],[-74.425744,39.384709],[-74.426345,39.385258],[-74.425567,39.38534],[-74.426698,39.385615],[-74.427725,39.385479],[-74.427831,39.384957],[-74.428114,39.384902],[-74.42822,39.385424],[-74.429105,39.38515],[-74.429883,39.385672],[-74.430979,39.38592],[-74.433315,39.385235],[-74.435263,39.383808],[-74.436927,39.381723],[-74.436999,39.380981],[-74.436257,39.379526],[-74.436895,39.37851],[-74.438028,39.377879],[-74.439336,39.378484],[-74.439372,39.377633],[-74.440361,39.379143],[-74.440857,39.379144],[-74.438843,39.375985],[-74.439091,39.375436],[-74.440294,39.37497],[-74.440294,39.374805],[-74.440719,39.375053],[-74.44132,39.375108],[-74.441462,39.374971],[-74.441037,39.374915],[-74.441143,39.374778],[-74.442912,39.375136],[-74.443514,39.374834],[-74.444044,39.375027],[-74.443547,39.376811],[-74.444467,39.377306],[-74.444467,39.377553],[-74.44567,39.377279],[-74.445776,39.376977],[-74.446554,39.376922],[-74.446979,39.376209],[-74.446697,39.375962],[-74.446272,39.376071],[-74.44606,39.375742],[-74.445918,39.376236],[-74.445423,39.376181],[-74.445388,39.375659],[-74.44514,39.375631],[-74.445247,39.375357],[-74.447475,39.376044],[-74.447156,39.376181],[-74.446944,39.376923],[-74.447191,39.376676],[-74.447757,39.376813],[-74.448112,39.376292],[-74.453099,39.377776],[-74.453311,39.378271],[-74.452638,39.379588],[-74.452885,39.380275],[-74.45476,39.379836],[-74.455467,39.380386],[-74.456989,39.379672],[-74.456388,39.379096],[-74.4566,39.379013],[-74.457838,39.380085],[-74.460383,39.384479],[-74.462399,39.385742],[-74.465017,39.386292],[-74.485963,39.389976],[-74.486776,39.390195]],[[-74.409245,39.366054],[-74.409174,39.365999],[-74.409174,39.366026],[-74.409245,39.366054]],[[-74.41154,39.369515],[-74.411505,39.369543],[-74.41154,39.369543],[-74.41154,39.369515]],[[-74.415423,39.375833],[-74.415388,39.375888],[-74.415423,39.375888],[-74.415423,39.375833]],[[-74.416452,39.3735],[-74.416523,39.373555],[-74.416488,39.3735],[-74.416452,39.3735]],[[-74.415887,39.372649],[-74.415852,39.372621],[-74.415852,39.372648],[-74.415887,39.372649]],[[-74.420316,39.366913],[-74.420245,39.366941],[-74.420316,39.366941],[-74.420316,39.366913]],[[-74.420918,39.36587],[-74.420953,39.365925],[-74.420953,39.36587],[-74.420918,39.36587]],[[-74.426332,39.364336],[-74.426367,39.364391],[-74.426367,39.364336],[-74.426332,39.364336]],[[-74.426367,39.364391],[-74.426402,39.364419],[-74.426402,39.364391],[-74.426367,39.364391]],[[-74.435317,39.36371],[-74.435352,39.363738],[-74.435352,39.36371],[-74.435317,39.36371]],[[-74.43991,39.369808],[-74.439874,39.369835],[-74.43991,39.369835],[-74.43991,39.369808]],[[-74.436763,39.367857],[-74.436728,39.367802],[-74.436728,39.367857],[-74.436763,39.367857]],[[-74.436728,39.367802],[-74.436692,39.367774],[-74.436692,39.367802],[-74.436728,39.367802]],[[-74.435738,39.366978],[-74.435632,39.366923],[-74.435632,39.366978],[-74.435738,39.366978]],[[-74.42398,39.380287],[-74.423944,39.380314],[-74.42398,39.380314],[-74.42398,39.380287]],[[-74.423055,39.384789],[-74.42302,39.384817],[-74.423055,39.384817],[-74.423055,39.384789]],[[-74.42302,39.384817],[-74.422984,39.384844],[-74.42302,39.384844],[-74.42302,39.384817]],[[-74.486422,39.390113],[-74.486387,39.390141],[-74.486422,39.390141],[-74.486422,39.390113]]]]}}]}