{"type":"FeatureCollection","features":[{"type":"Feature","properties":{"level_ft":6},"geometry":{"type":"MultiPolygon","coordinates":[[[[-74.460051,39.345929],[-74.459627,39.346094],[-74.459874,39.346176],[-74.460086,39.347],[-74.459167,39.346011],[-74.458353,39.346368],[-74.45906,39.347412],[-74.458141,39.346917],[-74.458247,39.347356],[-74.457681,39.347384],[-74.457928,39.347823],[-74.457186,39.347411],[-74.457433,39.347795],[-74.457256,39.347905],[-74.456514,39.347218],[-74.456231,39.347438],[-74.45669,39.348097],[-74.455948,39.347493],[-74.455276,39.347795],[-74.455382,39.347987],[-74.454958,39.347932],[-74.453295,39.348727],[-74.4528,39.348755],[-74.460051,39.345188],[-74.464437,39.343295],[-74.464437,39.343514],[-74.463588,39.343844],[-74.463447,39.344255],[-74.46281,39.344173],[-74.460688,39.345216],[-74.460865,39.34538],[-74.461218,39.345271],[-74.461183,39.34571],[-74.460723,39.345737],[-74.461112,39.346341],[-74.460228,39.34549],[-74.460016,39.3456],[-74.46051,39.346369],[-74.460051,39.345929]],[[-74.45715,39.347411],[-74.457257,39.347274],[-74.45708,39.347219],[-74.45715,39.347411]],[[-74.459627,39.345902],[-74.45991,39.345682],[-74.459662,39.345764],[-74.459627,39.345902]],[[-74.457009,39.347164],[-74.456974,39.347136],[-74.456974,39.347164],[-74.457009,39.347164]],[[-74.456974,39.347136],[-74.456938,39.347081],[-74.456938,39.347136],[-74.456974,39.347136]],[[-74.45761,39.347219],[-74.457646,39.347274],[-74.457646,39.347219],[-74.45761,39.347219]],[[-74.459768,39.346368],[-74.459732,39.346341],[-74.459732,39.346368],[-74.459768,39.346368]]],[[[-74.44644,39.350433],[-74.463834,39.342841],[-74.464029,39.342759],[-74.464217,39.342993],[-74.462704,39.343569],[-74.461643,39.344282],[-74.461466,39.344145],[-74.459839,39.344748],[-74.459061,39.345435],[-74.458142,39.345654],[-74.457682,39.346093],[-74.455524,39.346943],[-74.454852,39.347575],[-74.451775,39.348452],[-74.450819,39.349138],[-74.449157,39.349687],[-74.448662,39.349659],[-74.448272,39.349988],[-74.446468,39.350591],[-74.44644,39.350433]]],[[[-74.446327,39.350564],[-74.446176,39.350564],[-74.446362,39.350472],[-74.446327,39.350564]]],[[[-74.446121,39.350591],[-74.44615,39.350591],[-74.446121,39.350591],[-74.446121,39.350591]]],[[[-74.445867,39.350701],[-74.445089,39.351112],[-74.444877,39.351085],[-74.445867,39.350701]]],[[[-74.444275,39.351277],[-74.444245,39.351277],[-74.444275,39.351267],[-74.444275,39.351277]]],[[[-74.481967,39.377263],[-74.482038,39.377235],[-74.482038,39.377263],[-74.481967,39.377263]]],[[[-74.477262,39.378333],[-74.477297,39.378305],[-74.477297,39.378333],[-74.477262,39.378333]]],[[[-74.483948,39.377922],[-74.486272,39.378883],[-74.486071,39.379075],[-74.48363,39.378087],[-74.486064,39.37924],[-74.485824,39.379459],[-74.485959,39.380343],[-74.487012,39.381786],[-74.487156,39.382427],[-74.486524,39.383427],[-74.486506,39.384157],[-74.48681,39.384647],[-74.488321,39.385193],[-74.488714,39.3856],[-74.488175,39.385988],[-74.487262,39.386015],[-74.486472,39.386487],[-74.486574,39.388122],[-74.487517,39.388824],[-74.489834,39.389174],[-74.490836,39.389784],[-74.490329,39.390934],[-74.48887,39.392255],[-74.488895,39.393242],[-74.489549,39.394579],[-74.489676,39.395679],[-74.489371,39.396758],[-74.488531,39.397837],[-74.464921,39.412096],[-74.457073,39.416523],[-74.45436,39.416119],[-74.451622,39.414742],[-74.450965,39.414688],[-74.449902,39.414938],[-74.448232,39.416639],[-74.447276,39.416969],[-74.442836,39.417603],[-74.440811,39.417528],[-74.439766,39.417087],[-74.438878,39.41611],[-74.437802,39.411776],[-74.436962,39.409921],[-74.435635,39.408353],[-74.433987,39.406917],[-74.431967,39.405671],[-74.429041,39.404417],[-74.424604,39.40293],[-74.417129,39.40091],[-74.41578,39.399989],[-74.414568,39.398482],[-74.413864,39.39708],[-74.415504,39.395241],[-74.415481,39.39203],[-74.413727,39.389645],[-74.416894,39.388327],[-74.41785,39.388218],[-74.419408,39.38713],[-74.421718,39.386107],[-74.420176,39.382313],[-74.417861,39.380023],[-74.415446,39.379354],[-74.413408,39.377974],[-74.410193,39.373375],[-74.409178,39.371338],[-74.406138,39.368506],[-74.407066,39.363904],[-74.407569,39.364421],[-74.408389,39.364213],[-74.410282,39.363112],[-74.410308,39.362686],[-74.411876,39.362059],[-74.412953,39.361104],[-74.413708,39.361226],[-74.411266,39.362459],[-74.410451,39.363227],[-74.409778,39.36405],[-74.409459,39.365121],[-74.409387,39.365642],[-74.409528,39.365917],[-74.40967,39.365999],[-74.410203,39.364133],[-74.411195,39.362843],[-74.411832,39.362322],[-74.412362,39.362459],[-74.412186,39.36224],[-74.412787,39.361993],[-74.413565,39.362515],[-74.413565,39.362131],[-74.412929,39.361801],[-74.415265,39.360814],[-74.414911,39.360622],[-74.414663,39.360841],[-74.413926,39.361143],[-74.414926,39.360428],[-74.414738,39.360141],[-74.41532,39.359907],[-74.415421,39.360053],[-74.418914,39.358238],[-74.419088,39.358031],[-74.417962,39.356358],[-74.418441,39.356169],[-74.419504,39.357753],[-74.423468,39.356355],[-74.423876,39.355819],[-74.424357,39.355639],[-74.424869,39.356361],[-74.425173,39.356385],[-74.420786,39.357716],[-74.415654,39.360348],[-74.415831,39.360458],[-74.419582,39.358648],[-74.419617,39.35884],[-74.419264,39.358923],[-74.41944,39.359142],[-74.419121,39.359774],[-74.419863,39.36057],[-74.419897,39.361394],[-74.420746,39.361916],[-74.420392,39.362136],[-74.420993,39.362493],[-74.421418,39.362109],[-74.421312,39.361807],[-74.421595,39.361752],[-74.422231,39.362247],[-74.42308,39.361781],[-74.42354,39.361863],[-74.424283,39.361589],[-74.424036,39.361095],[-74.423117,39.360463],[-74.422692,39.361314],[-74.421312,39.36123],[-74.421313,39.360846],[-74.420606,39.360049],[-74.420608,39.358759],[-74.421068,39.358539],[-74.420042,39.358731],[-74.42029,39.358484],[-74.419936,39.358566],[-74.419901,39.358401],[-74.420714,39.358374],[-74.420927,39.3581],[-74.422944,39.357305],[-74.4268,39.356319],[-74.42733,39.356402],[-74.427755,39.356128],[-74.430903,39.355663],[-74.434122,39.354841],[-74.434546,39.355225],[-74.435148,39.354622],[-74.436669,39.354211],[-74.436882,39.353964],[-74.437094,39.354266],[-74.43674,39.354376],[-74.436846,39.354623],[-74.437235,39.354678],[-74.437305,39.355254],[-74.438861,39.355667],[-74.439462,39.355228],[-74.439039,39.354075],[-74.439464,39.353745],[-74.438544,39.35391],[-74.438332,39.353525],[-74.440667,39.352867],[-74.441091,39.35295],[-74.441586,39.352538],[-74.442365,39.352511],[-74.443108,39.352072],[-74.446539,39.350866],[-74.447105,39.350839],[-74.447176,39.350619],[-74.448838,39.350043],[-74.449263,39.349961],[-74.449404,39.350153],[-74.449864,39.349961],[-74.449934,39.350126],[-74.450006,39.349605],[-74.452517,39.348782],[-74.452764,39.348892],[-74.451986,39.349276],[-74.453189,39.348947],[-74.453683,39.349633],[-74.453436,39.349908],[-74.453612,39.350045],[-74.452834,39.350374],[-74.453011,39.350649],[-74.4534,39.350402],[-74.453011,39.350896],[-74.452975,39.351034],[-74.453471,39.350512],[-74.453577,39.350594],[-74.452798,39.351555],[-74.454248,39.351226],[-74.454496,39.351254],[-74.45446,39.351446],[-74.454849,39.351391],[-74.454955,39.351226],[-74.454531,39.351007],[-74.454143,39.350348],[-74.454814,39.350869],[-74.455132,39.350952],[-74.454921,39.350348],[-74.455416,39.350458],[-74.455204,39.350046],[-74.455982,39.350348],[-74.455982,39.350101],[-74.456406,39.349937],[-74.456336,39.349635],[-74.456866,39.349772],[-74.456831,39.349223],[-74.457114,39.349443],[-74.457397,39.34936],[-74.45722,39.348921],[-74.457927,39.349086],[-74.457892,39.348784],[-74.458458,39.348894],[-74.458175,39.34818],[-74.458776,39.348702],[-74.458635,39.34818],[-74.459519,39.348592],[-74.459201,39.347659],[-74.460085,39.348455],[-74.459732,39.347769],[-74.460474,39.348098],[-74.460403,39.348291],[-74.460615,39.348208],[-74.45998,39.34722],[-74.460298,39.346973],[-74.461111,39.347769],[-74.461076,39.347],[-74.461641,39.347357],[-74.461324,39.346671],[-74.462066,39.34733],[-74.462243,39.347303],[-74.46196,39.346726],[-74.462667,39.347166],[-74.462173,39.346067],[-74.46242,39.346067],[-74.463162,39.346836],[-74.462738,39.346067],[-74.463658,39.346562],[-74.463587,39.346727],[-74.464117,39.346809],[-74.463693,39.346123],[-74.464259,39.34648],[-74.464542,39.346095],[-74.464083,39.345299],[-74.464896,39.346041],[-74.464224,39.345079],[-74.464542,39.34497],[-74.464896,39.345519],[-74.465249,39.345437],[-74.46578,39.345162],[-74.465432,39.344503],[-74.476539,39.358296],[-74.479019,39.358539],[-74.481241,39.358305],[-74.481926,39.35805],[-74.488672,39.353538],[-74.489385,39.353176],[-74.490866,39.352985],[-74.492072,39.353155],[-74.494786,39.354369],[-74.501398,39.358618],[-74.492581,39.365072],[-74.492194,39.366679],[-74.492286,39.368192],[-74.492899,39.370338],[-74.492718,39.371899],[-74.492341,39.372483],[-74.490192,39.373961],[-74.488486,39.375656],[-74.487761,39.377423],[-74.487309,39.377456],[-74.487611,39.377648],[-74.487316,39.378252],[-74.484515,39.377098],[-74.483524,39.376824],[-74.481967,39.377208],[-74.479278,39.378498],[-74.478111,39.378525],[-74.477368,39.378278],[-74.476661,39.377811],[-74.476484,39.377783],[-74.477368,39.378415],[-74.479278,39.378745],[-74.480517,39.378333],[-74.482286,39.377208],[-74.483559,39.377071],[-74.484868,39.377318],[-74.487273,39.378307],[-74.486354,39.378746],[-74.483948,39.377922]],[[-74.415974,39.388738],[-74.416009,39.388766],[-74.416009,39.388738],[-74.415974,39.388738]],[[-74.416045,39.388711],[-74.41608,39.388738],[-74.41608,39.388711],[-74.416045,39.388711]],[[-74.412362,39.36235],[-74.412433,39.362322],[-74.412363,39.362322],[-74.412362,39.36235]],[[-74.452975,39.351034],[-74.45294,39.351061],[-74.452975,39.351061],[-74.452975,39.351034]],[[-74.452798,39.351555],[-74.452763,39.351583],[-74.452798,39.351583],[-74.452798,39.351555]],[[-74.462667,39.347166],[-74.462702,39.347221],[-74.462702,39.347166],[-74.462667,39.347166]],[[-74.483948,39.377949],[-74.483913,39.377977],[-74.483948,39.377977],[-74.483948,39.377949]]],[[[-74.44384,39.351399],[-74.444099,39.351324],[-74.44424,39.351278],[-74.444063,39.351387],[-74.44384,39.351399]]],[[[-74.443738,39.351437],[-74.443745,39.351441],[-74.443727,39.351441],[-74.443738,39.351437]]],[[[-74.443235,39.351622],[-74.443568,39.3515],[-74.443461,39.351771],[-74.443235,39.351622]]],[[[-74.441976,39.35206],[-74.438792,39.353223],[-74.436599,39.353579],[-74.436139,39.353854],[-74.436563,39.353909],[-74.435927,39.35421],[-74.435184,39.35388],[-74.441976,39.35206]]],[[[-74.434689,39.354182],[-74.434087,39.354209],[-74.433875,39.354649],[-74.433268,39.354538],[-74.433991,39.354094],[-74.433104,39.352752],[-74.43375,39.352493],[-74.43483,39.353922],[-74.434689,39.354182]]],[[[-74.43292,39.354785],[-74.432495,39.35484],[-74.433097,39.354611],[-74.43292,39.354785]]],[[[-74.42871,39.355689],[-74.428003,39.355716],[-74.428109,39.355441],[-74.427897,39.355414],[-74.426199,39.356127],[-74.427982,39.355148],[-74.42871,39.355689]]],[[[-74.41392,39.361198],[-74.413912,39.361149],[-74.41392,39.361145],[-74.41392,39.361198]]],[[[-74.413743,39.361212],[-74.413743,39.361225],[-74.41371,39.361225],[-74.413743,39.361212]]]]}}]}