{"type":"FeatureCollection","features":[{"type":"Feature","properties":{"level_ft":0},"geometry":{"type":"MultiPolygon","coordinates":[[[[-74.468988,39.348925],[-74.467546,39.349721],[-74.466839,39.34972],[-74.466874,39.349199],[-74.468183,39.349144],[-74.468112,39.34887],[-74.468784,39.348672],[-74.468988,39.348925]]],[[[-74.474753,39.356092],[-74.474723,39.356092],[-74.474723,39.356054],[-74.474753,39.356092]]],[[[-74.474758,39.35612],[-74.474758,39.356098],[-74.474775,39.35612],[-74.474758,39.35612]]],[[[-74.474793,39.356147],[-74.474793,39.356142],[-74.474797,39.356147],[-74.474793,39.356147]]],[[[-74.475922,39.36389],[-74.476135,39.362902],[-74.476488,39.363341],[-74.47709,39.363451],[-74.477125,39.363781],[-74.47663,39.364055],[-74.476559,39.36422],[-74.475922,39.36389]]],[[[-74.477762,39.362216],[-74.478293,39.361749],[-74.47801,39.361557],[-74.477621,39.361886],[-74.478116,39.360953],[-74.47748,39.360706],[-74.47709,39.36238],[-74.476913,39.362023],[-74.475958,39.36249],[-74.475923,39.361447],[-74.475464,39.361062],[-74.474791,39.361337],[-74.475393,39.361364],[-74.475216,39.361556],[-74.475711,39.36227],[-74.475852,39.363478],[-74.474366,39.363121],[-74.47419,39.362462],[-74.473871,39.362297],[-74.47366,39.361117],[-74.473165,39.36065],[-74.473377,39.360293],[-74.473306,39.360183],[-74.472953,39.36043],[-74.472174,39.36032],[-74.471431,39.360924],[-74.471396,39.361446],[-74.471113,39.361665],[-74.471926,39.362462],[-74.470901,39.36183],[-74.470157,39.362461],[-74.46899,39.362598],[-74.468636,39.362873],[-74.467434,39.362845],[-74.465418,39.361526],[-74.462908,39.360592],[-74.463297,39.359878],[-74.466304,39.358451],[-74.467329,39.35933],[-74.467577,39.359852],[-74.46793,39.359907],[-74.468072,39.359358],[-74.468497,39.359248],[-74.468001,39.359083],[-74.467966,39.358864],[-74.468567,39.358782],[-74.468568,39.35848],[-74.468285,39.358177],[-74.467896,39.35837],[-74.467471,39.358287],[-74.467436,39.357985],[-74.470974,39.356119],[-74.471292,39.356092],[-74.471751,39.356668],[-74.47207,39.356558],[-74.471928,39.35697],[-74.471468,39.357135],[-74.471504,39.357355],[-74.472918,39.357684],[-74.473024,39.357273],[-74.472352,39.357272],[-74.472282,39.356751],[-74.47306,39.357135],[-74.473272,39.356861],[-74.47359,39.356943],[-74.473732,39.356586],[-74.473414,39.356394],[-74.473095,39.356888],[-74.472777,39.356888],[-74.472742,39.356339],[-74.472318,39.356009],[-74.472495,39.35557],[-74.472778,39.35568],[-74.473273,39.355488],[-74.473591,39.355515],[-74.473308,39.3559],[-74.473838,39.356065],[-74.473909,39.355708],[-74.473344,39.355241],[-74.473697,39.354802],[-74.47444,39.35623],[-74.474722,39.356422],[-74.47482,39.356175],[-74.476539,39.358296],[-74.479019,39.358539],[-74.481241,39.358305],[-74.481926,39.35805],[-74.488672,39.353538],[-74.490071,39.353006],[-74.492072,39.353155],[-74.494786,39.354369],[-74.501398,39.358618],[-74.492581,39.365072],[-74.492194,39.366679],[-74.492286,39.368192],[-74.492899,39.370338],[-74.492718,39.371899],[-74.492341,39.372483],[-74.490192,39.373961],[-74.488486,39.375656],[-74.487739,39.377456],[-74.484586,39.376137],[-74.483348,39.375204],[-74.483454,39.374243],[-74.482393,39.373556],[-74.48119,39.373336],[-74.480695,39.373034],[-74.481084,39.372375],[-74.480483,39.372183],[-74.480412,39.372513],[-74.480165,39.371936],[-74.481261,39.372238],[-74.481226,39.371661],[-74.481615,39.371332],[-74.482747,39.371689],[-74.482889,39.37114],[-74.482429,39.370783],[-74.482075,39.370673],[-74.481155,39.371469],[-74.481155,39.371716],[-74.480625,39.371387],[-74.480342,39.371689],[-74.480554,39.371854],[-74.480094,39.371881],[-74.480412,39.371387],[-74.480129,39.371249],[-74.479705,39.371497],[-74.479846,39.37114],[-74.479351,39.371194],[-74.479776,39.370728],[-74.479564,39.37059],[-74.479316,39.370728],[-74.479528,39.370453],[-74.477901,39.3707],[-74.477759,39.370974],[-74.475461,39.369162],[-74.477265,39.368997],[-74.47914,39.368009],[-74.479741,39.368147],[-74.48059,39.36768],[-74.481616,39.367571],[-74.48098,39.366911],[-74.481015,39.366307],[-74.480378,39.366856],[-74.478681,39.365483],[-74.478362,39.365593],[-74.47815,39.365264],[-74.477549,39.365236],[-74.477832,39.364687],[-74.477584,39.364934],[-74.477125,39.364934],[-74.47663,39.364494],[-74.477337,39.364385],[-74.477266,39.364083],[-74.476736,39.364165],[-74.476948,39.364],[-74.477479,39.363946],[-74.477655,39.364275],[-74.477585,39.363781],[-74.476913,39.363204],[-74.47663,39.363231],[-74.47663,39.362984],[-74.476772,39.362682],[-74.477055,39.362765],[-74.477691,39.362298],[-74.478116,39.362271],[-74.477762,39.362216]],[[-74.471822,39.35697],[-74.471787,39.356943],[-74.471787,39.35697],[-74.471822,39.35697]],[[-74.477337,39.363534],[-74.477373,39.363506],[-74.477337,39.363506],[-74.477337,39.363534]],[[-74.477302,39.363396],[-74.47755,39.363204],[-74.477514,39.363067],[-74.477337,39.363067],[-74.477302,39.363396]],[[-74.478116,39.362188],[-74.478222,39.362216],[-74.478222,39.362161],[-74.478116,39.362188]]],[[[-74.4866,39.389015],[-74.485538,39.388877],[-74.48476,39.388246],[-74.484335,39.388767],[-74.483132,39.388603],[-74.48299,39.388877],[-74.482637,39.388767],[-74.482177,39.389097],[-74.480231,39.388767],[-74.480231,39.388575],[-74.479841,39.388684],[-74.479877,39.388163],[-74.480195,39.388218],[-74.480726,39.387916],[-74.480514,39.387614],[-74.48062,39.387092],[-74.480231,39.3869],[-74.480302,39.387174],[-74.480019,39.387147],[-74.479346,39.387806],[-74.475773,39.387228],[-74.475737,39.387009],[-74.474782,39.387118],[-74.474782,39.387503],[-74.474499,39.38753],[-74.474145,39.386981],[-74.473615,39.386898],[-74.473615,39.386404],[-74.47319,39.386294],[-74.473438,39.386541],[-74.473155,39.386541],[-74.472907,39.386377],[-74.472801,39.38569],[-74.47227,39.386212],[-74.472412,39.386459],[-74.471563,39.386321],[-74.47135,39.386459],[-74.471209,39.386239],[-74.468838,39.386046],[-74.467105,39.385359],[-74.466185,39.385441],[-74.4653,39.3861],[-74.464592,39.385963],[-74.463956,39.385221],[-74.463213,39.385303],[-74.461763,39.384452],[-74.460277,39.383051],[-74.459782,39.383051],[-74.45904,39.38165],[-74.459642,39.381431],[-74.460491,39.381705],[-74.460986,39.381156],[-74.460349,39.381403],[-74.460102,39.381184],[-74.459748,39.381348],[-74.458969,39.381266],[-74.459218,39.380058],[-74.46028,39.378411],[-74.460634,39.378356],[-74.459997,39.378054],[-74.460104,39.377779],[-74.459891,39.377669],[-74.459927,39.377916],[-74.459714,39.377916],[-74.459644,39.377504],[-74.459113,39.377779],[-74.458299,39.377778],[-74.458476,39.377339],[-74.458229,39.377312],[-74.457769,39.377833],[-74.456601,39.37764],[-74.456636,39.37786],[-74.45561,39.378272],[-74.455752,39.377421],[-74.455505,39.377173],[-74.455044,39.377942],[-74.454549,39.377667],[-74.454231,39.377749],[-74.454231,39.377502],[-74.453665,39.377227],[-74.453099,39.377529],[-74.451896,39.377144],[-74.453454,39.375607],[-74.455223,39.374812],[-74.457983,39.374209],[-74.45816,39.373934],[-74.457383,39.372753],[-74.455261,39.371078],[-74.454519,39.370199],[-74.453882,39.370226],[-74.453599,39.370446],[-74.450658,39.376759],[-74.450128,39.376595],[-74.450057,39.376292],[-74.450943,39.375002],[-74.453068,39.370528],[-74.452998,39.370171],[-74.448929,39.370746],[-74.447585,39.370745],[-74.446241,39.370388],[-74.445852,39.370717],[-74.444682,39.373544],[-74.444258,39.373544],[-74.444505,39.373874],[-74.44415,39.374725],[-74.44362,39.374587],[-74.445604,39.370223],[-74.445428,39.369646],[-74.445498,39.370168],[-74.445074,39.370167],[-74.444756,39.369124],[-74.44511,39.36863],[-74.444546,39.367312],[-74.444653,39.3655],[-74.44437,39.36528],[-74.444371,39.364676],[-74.444972,39.364319],[-74.445044,39.363001],[-74.444585,39.36193],[-74.444939,39.361464],[-74.445222,39.361464],[-74.445541,39.36053],[-74.447311,39.359186],[-74.44724,39.358582],[-74.447665,39.358637],[-74.448019,39.358225],[-74.449115,39.357869],[-74.450495,39.358116],[-74.452688,39.357568],[-74.454387,39.355757],[-74.456086,39.353286],[-74.457642,39.352628],[-74.457324,39.352161],[-74.457041,39.352188],[-74.457218,39.351969],[-74.456441,39.35109],[-74.456618,39.350898],[-74.456901,39.350815],[-74.457325,39.351172],[-74.458526,39.352601],[-74.459163,39.352519],[-74.4598,39.352107],[-74.459305,39.351146],[-74.46026,39.350899],[-74.46072,39.351558],[-74.461781,39.351064],[-74.462135,39.351147],[-74.465,39.34939],[-74.464929,39.349198],[-74.465849,39.348594],[-74.465708,39.3481],[-74.467486,39.347057],[-74.468038,39.347744],[-74.467158,39.34821],[-74.466344,39.349281],[-74.465353,39.349994],[-74.465247,39.350626],[-74.465706,39.351038],[-74.466131,39.35112],[-74.466803,39.350791],[-74.467616,39.351231],[-74.468076,39.350792],[-74.467899,39.350187],[-74.468536,39.350188],[-74.468783,39.3506],[-74.4685,39.350819],[-74.469066,39.351561],[-74.469313,39.351259],[-74.469278,39.351094],[-74.468995,39.351149],[-74.469172,39.350847],[-74.469703,39.351067],[-74.469384,39.350792],[-74.469632,39.350572],[-74.469385,39.350325],[-74.469668,39.34977],[-74.471992,39.35266],[-74.471718,39.352605],[-74.471718,39.352797],[-74.472213,39.352934],[-74.472672,39.353868],[-74.473415,39.354554],[-74.472955,39.354609],[-74.473025,39.354884],[-74.472353,39.355296],[-74.471717,39.35524],[-74.471717,39.355433],[-74.471115,39.355542],[-74.470868,39.355982],[-74.470372,39.355927],[-74.470373,39.355405],[-74.469772,39.355075],[-74.470125,39.355734],[-74.469736,39.355981],[-74.470266,39.356311],[-74.468285,39.357189],[-74.468144,39.357024],[-74.468427,39.356969],[-74.468462,39.35664],[-74.468144,39.356722],[-74.468038,39.35653],[-74.468639,39.355899],[-74.468569,39.355295],[-74.467473,39.354635],[-74.466978,39.354937],[-74.466554,39.354388],[-74.46627,39.354717],[-74.466235,39.354196],[-74.465811,39.354196],[-74.465316,39.353646],[-74.46567,39.353591],[-74.465458,39.353207],[-74.465811,39.353097],[-74.465282,39.352054],[-74.464574,39.351944],[-74.464751,39.352658],[-74.464539,39.352658],[-74.463761,39.351724],[-74.464044,39.351477],[-74.463867,39.351092],[-74.458066,39.353726],[-74.457535,39.354165],[-74.457217,39.354138],[-74.456969,39.354247],[-74.457075,39.354604],[-74.455624,39.356196],[-74.453429,39.359545],[-74.452757,39.3596],[-74.452333,39.359902],[-74.451696,39.359792],[-74.451483,39.360533],[-74.452438,39.360835],[-74.451942,39.362318],[-74.452331,39.362455],[-74.452579,39.362098],[-74.453357,39.362099],[-74.456964,39.362704],[-74.457424,39.363006],[-74.460466,39.363227],[-74.462659,39.362486],[-74.463048,39.362157],[-74.463049,39.361526],[-74.463332,39.361169],[-74.465171,39.361746],[-74.464958,39.36246],[-74.465983,39.363311],[-74.466797,39.363723],[-74.467504,39.363531],[-74.467893,39.364657],[-74.468954,39.365179],[-74.469767,39.365289],[-74.469979,39.366333],[-74.469696,39.366497],[-74.470297,39.366717],[-74.470332,39.367156],[-74.47157,39.368118],[-74.47394,39.368448],[-74.476628,39.370398],[-74.475885,39.370672],[-74.473727,39.370754],[-74.473125,39.371825],[-74.473089,39.372484],[-74.473726,39.372676],[-74.473797,39.373005],[-74.47415,39.372923],[-74.474186,39.37328],[-74.474539,39.37328],[-74.474575,39.373472],[-74.475212,39.37328],[-74.475459,39.37361],[-74.476414,39.373775],[-74.475919,39.373967],[-74.476273,39.374242],[-74.476733,39.373912],[-74.476556,39.374242],[-74.477511,39.374626],[-74.477369,39.374324],[-74.477864,39.374461],[-74.477511,39.374791],[-74.478749,39.375038],[-74.478925,39.375285],[-74.478607,39.375478],[-74.478678,39.375258],[-74.478006,39.375258],[-74.47797,39.375038],[-74.477475,39.375011],[-74.466299,39.369846],[-74.466122,39.369626],[-74.470896,39.371522],[-74.471144,39.371852],[-74.471781,39.371907],[-74.47217,39.372154],[-74.472842,39.372374],[-74.472983,39.372319],[-74.472064,39.371687],[-74.471427,39.371714],[-74.471215,39.37111],[-74.470508,39.371165],[-74.470791,39.370945],[-74.470543,39.370698],[-74.46881,39.370176],[-74.468138,39.369599],[-74.46789,39.370039],[-74.46743,39.370039],[-74.467077,39.369819],[-74.467112,39.369572],[-74.466582,39.369572],[-74.467431,39.369078],[-74.466476,39.368446],[-74.465274,39.368143],[-74.465344,39.367841],[-74.46591,39.368116],[-74.465981,39.367704],[-74.465486,39.367704],[-74.465062,39.367292],[-74.464779,39.367594],[-74.464885,39.3671],[-74.464637,39.366963],[-74.464354,39.36699],[-74.464142,39.367512],[-74.464142,39.367731],[-74.464602,39.367896],[-74.46354,39.367951],[-74.463222,39.367841],[-74.463258,39.367621],[-74.462692,39.367484],[-74.46393,39.367319],[-74.463364,39.366907],[-74.462586,39.367127],[-74.46255,39.367456],[-74.462267,39.367017],[-74.461701,39.367566],[-74.454592,39.366135],[-74.450808,39.365063],[-74.450737,39.364871],[-74.451126,39.364981],[-74.451409,39.364926],[-74.449253,39.363717],[-74.449182,39.363387],[-74.447697,39.362453],[-74.446918,39.3641],[-74.446529,39.36399],[-74.446352,39.364155],[-74.446776,39.364265],[-74.446776,39.364594],[-74.445856,39.364594],[-74.447094,39.365061],[-74.446351,39.365308],[-74.446174,39.365775],[-74.446775,39.36616],[-74.446527,39.366709],[-74.446703,39.367285],[-74.447269,39.367313],[-74.44688,39.367175],[-74.447411,39.366983],[-74.448472,39.367011],[-74.450452,39.367699],[-74.452716,39.367974],[-74.453494,39.368277],[-74.454803,39.36803],[-74.455051,39.36836],[-74.45643,39.368744],[-74.457491,39.369541],[-74.458198,39.369706],[-74.46039,39.371299],[-74.460921,39.371382],[-74.461877,39.3699],[-74.462478,39.369845],[-74.463539,39.370147],[-74.464034,39.37012],[-74.463999,39.369873],[-74.46163,39.369021],[-74.459401,39.369102],[-74.458552,39.368388],[-74.456713,39.367948],[-74.459119,39.368251],[-74.459401,39.368526],[-74.461276,39.368664],[-74.463964,39.369598],[-74.488192,39.38594],[-74.487262,39.386015],[-74.486472,39.386487],[-74.486528,39.38803],[-74.487517,39.388824],[-74.489768,39.389157],[-74.490652,39.389613],[-74.490836,39.389784],[-74.490329,39.390934],[-74.489147,39.391816],[-74.489253,39.391459],[-74.488899,39.391514],[-74.488828,39.391321],[-74.489642,39.390827],[-74.489749,39.390278],[-74.490067,39.390361],[-74.490138,39.390333],[-74.48798,39.389372],[-74.488015,39.389564],[-74.487307,39.389454],[-74.487201,39.389015],[-74.486777,39.38885],[-74.4866,39.389015]],[[-74.48062,39.387614],[-74.480762,39.387531],[-74.48062,39.387586],[-74.48062,39.387614]],[[-74.47319,39.386294],[-74.473119,39.386267],[-74.473119,39.386294],[-74.47319,39.386294]],[[-74.463744,39.385166],[-74.463673,39.385139],[-74.463673,39.385166],[-74.463744,39.385166]],[[-74.469771,39.355844],[-74.469842,39.355789],[-74.469771,39.355789],[-74.469771,39.355844]],[[-74.469842,39.356146],[-74.469806,39.356174],[-74.469842,39.356174],[-74.469842,39.356146]],[[-74.467438,39.354635],[-74.467402,39.354608],[-74.467402,39.354635],[-74.467438,39.354635]],[[-74.466235,39.354196],[-74.466377,39.354141],[-74.466235,39.354168],[-74.466235,39.354196]],[[-74.464503,39.352328],[-74.464468,39.352301],[-74.464468,39.352328],[-74.464503,39.352328]],[[-74.464468,39.352301],[-74.464433,39.352218],[-74.464433,39.352301],[-74.464468,39.352301]],[[-74.464433,39.352218],[-74.464397,39.352191],[-74.464397,39.352218],[-74.464433,39.352218]],[[-74.471427,39.371934],[-74.471392,39.371962],[-74.471427,39.371962],[-74.471427,39.371934]],[[-74.463258,39.367621],[-74.463293,39.367594],[-74.463258,39.367594],[-74.463258,39.367621]],[[-74.486635,39.388823],[-74.4866,39.388795],[-74.4866,39.388823],[-74.486635,39.388823]]],[[[-74.478962,39.372457],[-74.47829,39.372183],[-74.478077,39.372347],[-74.477971,39.372265],[-74.478148,39.372018],[-74.478537,39.37221],[-74.47836,39.371908],[-74.478573,39.371908],[-74.479881,39.373089],[-74.480022,39.374132],[-74.479421,39.374819],[-74.479279,39.374709],[-74.479739,39.374132],[-74.479527,39.373885],[-74.479067,39.374654],[-74.478218,39.374462],[-74.478077,39.37394],[-74.477617,39.373912],[-74.477511,39.37372],[-74.477759,39.373693],[-74.477369,39.37361],[-74.477829,39.373583],[-74.477971,39.373308],[-74.477546,39.373144],[-74.477157,39.373473],[-74.477299,39.373089],[-74.476698,39.372896],[-74.477193,39.372787],[-74.478325,39.373281],[-74.478679,39.372924],[-74.479138,39.373144],[-74.478997,39.373418],[-74.479846,39.373913],[-74.47974,39.373199],[-74.479563,39.372924],[-74.479315,39.373144],[-74.478855,39.372704],[-74.478962,39.372457]],[[-74.479068,39.37254],[-74.479103,39.372567],[-74.479103,39.37254],[-74.479068,39.37254]]],[[[-74.4785,39.378141],[-74.477156,39.377482],[-74.476696,39.377564],[-74.475953,39.377097],[-74.47422,39.375806],[-74.473902,39.375284],[-74.473796,39.375586],[-74.473265,39.375284],[-74.473017,39.375421],[-74.467253,39.371384],[-74.466475,39.371054],[-74.466581,39.37067],[-74.466263,39.370725],[-74.465131,39.369736],[-74.478218,39.375752],[-74.478076,39.376438],[-74.47797,39.375834],[-74.475812,39.375065],[-74.472452,39.373335],[-74.472028,39.373582],[-74.47224,39.373994],[-74.473761,39.374872],[-74.475741,39.376438],[-74.475989,39.376383],[-74.474751,39.375312],[-74.476413,39.376191],[-74.476802,39.376795],[-74.47613,39.376548],[-74.476059,39.376658],[-74.4785,39.378141]]],[[[-74.480836,39.375945],[-74.480659,39.375588],[-74.480977,39.375862],[-74.481331,39.375807],[-74.481437,39.375423],[-74.480694,39.375176],[-74.480765,39.374929],[-74.480624,39.375121],[-74.480234,39.374956],[-74.480199,39.374187],[-74.481579,39.375258],[-74.482003,39.375313],[-74.482003,39.375753],[-74.48172,39.37556],[-74.481508,39.375808],[-74.481684,39.376686],[-74.481366,39.376741],[-74.481154,39.376357],[-74.48034,39.376329],[-74.479279,39.37567],[-74.479633,39.375286],[-74.480376,39.37545],[-74.480305,39.375972],[-74.480836,39.375945]],[[-74.480836,39.375945],[-74.480871,39.375972],[-74.480871,39.375945],[-74.480836,39.375945]]],[[[-74.485505,39.377181],[-74.484479,39.376851],[-74.484055,39.376989],[-74.484161,39.376549],[-74.483843,39.376549],[-74.483524,39.376165],[-74.484409,39.376247],[-74.485399,39.376824],[-74.485505,39.377181]]],[[[-74.486283,39.378691],[-74.486212,39.378499],[-74.486708,39.378279],[-74.486283,39.378032],[-74.487273,39.378307],[-74.486283,39.378691]]],[[[-74.480268,39.380338],[-74.480233,39.380365],[-74.480233,39.380338],[-74.480268,39.380338]]],[[[-74.482603,39.381931],[-74.47903,39.379486],[-74.478924,39.379184],[-74.479384,39.379074],[-74.479596,39.379239],[-74.480092,39.378718],[-74.481436,39.378279],[-74.481967,39.377867],[-74.48179,39.377647],[-74.482286,39.377675],[-74.482852,39.378114],[-74.483418,39.378114],[-74.486035,39.379213],[-74.48582,39.379503],[-74.485959,39.380343],[-74.487012,39.381786],[-74.487156,39.382427],[-74.486524,39.383427],[-74.486506,39.384157],[-74.48681,39.384647],[-74.488321,39.385193],[-74.488731,39.385675],[-74.488299,39.385908],[-74.488369,39.385638],[-74.487697,39.385446],[-74.484301,39.383084],[-74.483523,39.38215],[-74.482603,39.381931]]],[[[-74.489642,39.394963],[-74.489684,39.395362],[-74.489684,39.395522],[-74.489642,39.394963]]],[[[-74.433841,39.353358],[-74.433734,39.353705],[-74.433104,39.352752],[-74.43375,39.352493],[-74.434312,39.353331],[-74.433841,39.353358]]],[[[-74.457217,39.354165],[-74.457252,39.354193],[-74.457217,39.354193],[-74.457217,39.354165]]],[[[-74.427473,39.355496],[-74.427982,39.355148],[-74.428257,39.355277],[-74.427473,39.355496]]],[[[-74.42726,39.355551],[-74.427237,39.355551],[-74.42726,39.355538],[-74.42726,39.355551]]],[[[-74.427184,39.355578],[-74.42719,39.355575],[-74.42719,39.355578],[-74.427184,39.355578]]],[[[-74.427077,39.355633],[-74.427083,39.35563],[-74.427083,39.355633],[-74.427077,39.355633]]],[[[-74.424685,39.356126],[-74.419548,39.357962],[-74.418025,39.359224],[-74.41569,39.360348],[-74.415372,39.3601],[-74.414982,39.36021],[-74.415017,39.360594],[-74.414164,39.361033],[-74.414926,39.360428],[-74.414738,39.360141],[-74.41532,39.359907],[-74.415421,39.360053],[-74.418267,39.358683],[-74.419088,39.358031],[-74.417962,39.356358],[-74.418441,39.356169],[-74.419504,39.357753],[-74.423468,39.356355],[-74.423876,39.355819],[-74.424357,39.355639],[-74.424685,39.356126]]],[[[-74.413027,39.361069],[-74.411726,39.362267],[-74.410947,39.362596],[-74.410571,39.362623],[-74.411708,39.362174],[-74.413027,39.361069]]],[[[-74.443276,39.362753],[-74.442993,39.362259],[-74.443453,39.362177],[-74.44416,39.362589],[-74.444337,39.362973],[-74.443276,39.362753]]],[[[-74.4104,39.362815],[-74.410308,39.362686],[-74.410381,39.362678],[-74.4104,39.362815]]],[[[-74.410416,39.362897],[-74.41041,39.362897],[-74.410416,39.362877],[-74.410416,39.362897]]],[[[-74.410135,39.363227],[-74.410168,39.363201],[-74.410168,39.363227],[-74.410135,39.363227]]],[[[-74.410098,39.363254],[-74.409106,39.364242],[-74.407903,39.36468],[-74.407671,39.364378],[-74.408389,39.364213],[-74.410098,39.363254]]],[[[-74.484547,39.390058],[-74.484724,39.390278],[-74.485219,39.389948],[-74.486847,39.390333],[-74.487838,39.390937],[-74.488616,39.391953],[-74.48897,39.391953],[-74.488895,39.393242],[-74.489623,39.394863],[-74.489359,39.394808],[-74.487837,39.395605],[-74.488332,39.395797],[-74.488332,39.396016],[-74.488863,39.395907],[-74.489146,39.396071],[-74.489146,39.396538],[-74.489394,39.396648],[-74.488249,39.398066],[-74.464921,39.412096],[-74.457073,39.416523],[-74.45436,39.416119],[-74.451216,39.414673],[-74.449902,39.414938],[-74.448232,39.416639],[-74.447276,39.416969],[-74.442708,39.417612],[-74.440538,39.417462],[-74.439718,39.417048],[-74.438794,39.415934],[-74.437853,39.411946],[-74.437108,39.410148],[-74.435803,39.408526],[-74.433987,39.406917],[-74.431967,39.405671],[-74.429041,39.404417],[-74.424604,39.40293],[-74.417129,39.40091],[-74.41578,39.399989],[-74.414568,39.398482],[-74.413864,39.39708],[-74.415504,39.395241],[-74.415481,39.39203],[-74.413991,39.389972],[-74.414451,39.389725],[-74.415619,39.389946],[-74.415937,39.390303],[-74.4159,39.391072],[-74.416254,39.391209],[-74.416713,39.391924],[-74.417421,39.391979],[-74.418802,39.390827],[-74.418769,39.389262],[-74.419265,39.388576],[-74.418841,39.387724],[-74.419301,39.38756],[-74.419372,39.388109],[-74.419619,39.388137],[-74.419479,39.387098],[-74.421718,39.386107],[-74.420176,39.382313],[-74.417861,39.380023],[-74.415446,39.379354],[-74.413408,39.377974],[-74.410193,39.373375],[-74.409178,39.371338],[-74.406138,39.368506],[-74.407066,39.363904],[-74.410058,39.366714],[-74.411469,39.36957],[-74.411894,39.369488],[-74.412353,39.370285],[-74.412246,39.370559],[-74.412494,39.370559],[-74.413235,39.371548],[-74.413094,39.371768],[-74.413553,39.372153],[-74.413411,39.372537],[-74.413764,39.373169],[-74.414259,39.373114],[-74.414966,39.374185],[-74.415353,39.375366],[-74.415246,39.3763],[-74.415706,39.376602],[-74.41567,39.376822],[-74.416484,39.376575],[-74.417368,39.376741],[-74.419313,39.377785],[-74.420657,39.377567],[-74.420304,39.3771],[-74.420623,39.376221],[-74.421154,39.376222],[-74.42119,39.376029],[-74.420871,39.375947],[-74.421085,39.374849],[-74.418577,39.371415],[-74.419001,39.371772],[-74.419603,39.37158],[-74.420274,39.372295],[-74.420486,39.372267],[-74.423206,39.375866],[-74.422251,39.376277],[-74.422215,39.376497],[-74.421862,39.376304],[-74.421684,39.376908],[-74.422179,39.376964],[-74.422675,39.37647],[-74.423489,39.37647],[-74.42363,39.376306],[-74.423065,39.375317],[-74.423349,39.374905],[-74.42395,39.374741],[-74.423244,39.373834],[-74.423457,39.373477],[-74.424376,39.373478],[-74.425083,39.374714],[-74.42448,39.375373],[-74.423808,39.375674],[-74.424161,39.376004],[-74.424905,39.375785],[-74.425365,39.374797],[-74.426357,39.374248],[-74.426464,39.37326],[-74.425863,39.37293],[-74.425015,39.371556],[-74.425086,39.371227],[-74.425935,39.37109],[-74.42756,39.37359],[-74.427736,39.374386],[-74.428973,39.375925],[-74.428548,39.376583],[-74.429466,39.377984],[-74.427873,39.378642],[-74.427449,39.378559],[-74.426776,39.378861],[-74.426811,39.379081],[-74.425254,39.379711],[-74.423523,39.377761],[-74.422425,39.378199],[-74.423733,39.379902],[-74.423873,39.380754],[-74.424404,39.381001],[-74.42504,39.381825],[-74.424825,39.38361],[-74.422949,39.384817],[-74.424825,39.383829],[-74.42479,39.384077],[-74.424329,39.384268],[-74.424435,39.384516],[-74.423974,39.385229],[-74.424788,39.385147],[-74.425673,39.384736],[-74.426062,39.384846],[-74.426098,39.385121],[-74.425602,39.385175],[-74.425567,39.385368],[-74.426592,39.385615],[-74.428149,39.385589],[-74.429069,39.385232],[-74.4296,39.385562],[-74.42914,39.385782],[-74.42921,39.385946],[-74.429917,39.386551],[-74.430271,39.386222],[-74.429741,39.385974],[-74.429741,39.385755],[-74.431156,39.386002],[-74.433351,39.38529],[-74.435404,39.383726],[-74.436963,39.38186],[-74.437034,39.380981],[-74.436293,39.379526],[-74.43693,39.378483],[-74.438028,39.377907],[-74.43923,39.378539],[-74.439619,39.378182],[-74.440715,39.379803],[-74.441139,39.379748],[-74.440327,39.377853],[-74.438949,39.376068],[-74.439197,39.375464],[-74.439728,39.375354],[-74.440364,39.375711],[-74.441639,39.374916],[-74.442983,39.375218],[-74.443584,39.374862],[-74.444009,39.375191],[-74.443371,39.376564],[-74.443441,39.37758],[-74.446165,39.377389],[-74.446979,39.377087],[-74.447156,39.37673],[-74.447687,39.376841],[-74.448359,39.376374],[-74.450552,39.376979],[-74.451012,39.377474],[-74.45179,39.377364],[-74.452957,39.377721],[-74.453205,39.378298],[-74.452496,39.379506],[-74.452779,39.38033],[-74.453769,39.380056],[-74.454335,39.380083],[-74.454441,39.380385],[-74.454901,39.380248],[-74.455397,39.380578],[-74.454936,39.380715],[-74.455432,39.380852],[-74.455644,39.381182],[-74.455361,39.38099],[-74.454724,39.381017],[-74.454335,39.381264],[-74.454405,39.381593],[-74.455396,39.381813],[-74.455714,39.381429],[-74.455714,39.381759],[-74.45628,39.381759],[-74.45674,39.382198],[-74.457448,39.381842],[-74.457342,39.381677],[-74.457023,39.381841],[-74.456882,39.381457],[-74.457024,39.3811],[-74.4572,39.381238],[-74.457448,39.38099],[-74.456918,39.380716],[-74.456741,39.381265],[-74.456174,39.381374],[-74.455715,39.38099],[-74.455644,39.380578],[-74.456494,39.380029],[-74.45759,39.380112],[-74.458085,39.380551],[-74.460277,39.384478],[-74.462682,39.385934],[-74.462717,39.386237],[-74.462257,39.386456],[-74.462363,39.386868],[-74.462717,39.386923],[-74.462646,39.386648],[-74.463142,39.386017],[-74.464026,39.3861],[-74.474251,39.388107],[-74.475808,39.388189],[-74.47648,39.388519],[-74.47694,39.388409],[-74.478214,39.388821],[-74.479806,39.388931],[-74.480054,39.389206],[-74.480478,39.389041],[-74.483026,39.389481],[-74.483946,39.389838],[-74.483981,39.390223],[-74.484547,39.390058]],[[-74.410234,39.367373],[-74.410198,39.3674],[-74.410234,39.3674],[-74.410234,39.367373]],[[-74.413094,39.371768],[-74.412952,39.371823],[-74.413094,39.371795],[-74.413094,39.371768]],[[-74.422949,39.384844],[-74.422913,39.384872],[-74.422949,39.384872],[-74.422949,39.384844]],[[-74.422913,39.384872],[-74.422878,39.384899],[-74.422913,39.384899],[-74.422913,39.384872]],[[-74.422878,39.384899],[-74.422843,39.384926],[-74.422878,39.384926],[-74.422878,39.384899]],[[-74.454936,39.38077],[-74.454583,39.380852],[-74.454583,39.38088],[-74.454936,39.38077]],[[-74.484335,39.390195],[-74.484299,39.390223],[-74.484335,39.390223],[-74.484335,39.390195]]]]}}]}