{"type":"FeatureCollection","features":[{"type":"Feature","properties":{"level_ft":8},"geometry":{"type":"MultiPolygon","coordinates":[[[[-74.439818,39.352709],[-74.445918,39.350685],[-74.464029,39.342759],[-74.464261,39.343048],[-74.462775,39.343624],[-74.462068,39.344173],[-74.459769,39.344941],[-74.459096,39.345544],[-74.45563,39.347026],[-74.454887,39.347602],[-74.452234,39.34859],[-74.451774,39.348562],[-74.451138,39.349083],[-74.438863,39.353278],[-74.4372,39.353497],[-74.436209,39.354183],[-74.435537,39.354293],[-74.435007,39.353908],[-74.439818,39.352709]]],[[[-74.43375,39.352493],[-74.435219,39.354265],[-74.434971,39.354677],[-74.434087,39.354539],[-74.433981,39.354731],[-74.431474,39.355251],[-74.433991,39.354094],[-74.433104,39.352752],[-74.43375,39.352493]]],[[[-74.429205,39.355689],[-74.429312,39.355663],[-74.429312,39.355689],[-74.429205,39.355689]]],[[[-74.429099,39.355662],[-74.427401,39.356072],[-74.425397,39.356346],[-74.427982,39.355148],[-74.428514,39.355655],[-74.429099,39.355662]]],[[[-74.417602,39.388163],[-74.421718,39.386107],[-74.420479,39.382709],[-74.417861,39.380023],[-74.415446,39.379354],[-74.413408,39.377974],[-74.410193,39.373375],[-74.409178,39.371338],[-74.406138,39.368506],[-74.407066,39.363904],[-74.407569,39.364421],[-74.408389,39.364213],[-74.410282,39.363112],[-74.410308,39.362686],[-74.411876,39.362059],[-74.412953,39.361104],[-74.41355,39.361267],[-74.414135,39.361054],[-74.414926,39.360428],[-74.414738,39.360141],[-74.41532,39.359907],[-74.415421,39.360053],[-74.418368,39.358626],[-74.419088,39.358031],[-74.417962,39.356358],[-74.418441,39.356169],[-74.419504,39.357753],[-74.423468,39.356355],[-74.423876,39.355819],[-74.424357,39.355639],[-74.424892,39.356378],[-74.425385,39.356348],[-74.419866,39.358209],[-74.419972,39.358374],[-74.420714,39.358347],[-74.420715,39.358072],[-74.422024,39.357744],[-74.423156,39.357168],[-74.425703,39.356511],[-74.430656,39.355663],[-74.434122,39.354813],[-74.434617,39.355033],[-74.435113,39.354594],[-74.436775,39.354156],[-74.437519,39.353607],[-74.438261,39.353608],[-74.442329,39.352402],[-74.451774,39.349111],[-74.464394,39.343212],[-74.476539,39.358296],[-74.479019,39.358539],[-74.481241,39.358305],[-74.481926,39.35805],[-74.488672,39.353538],[-74.489385,39.353176],[-74.490866,39.352985],[-74.492072,39.353155],[-74.494786,39.354369],[-74.501398,39.358618],[-74.49265,39.364981],[-74.492193,39.366598],[-74.492286,39.368192],[-74.492899,39.370338],[-74.492581,39.372181],[-74.490044,39.374084],[-74.488486,39.375656],[-74.487124,39.378471],[-74.486354,39.378746],[-74.485328,39.378416],[-74.486272,39.378883],[-74.486159,39.379075],[-74.484762,39.378636],[-74.486064,39.37924],[-74.48582,39.379503],[-74.486014,39.380492],[-74.487119,39.382042],[-74.487155,39.382532],[-74.486411,39.383789],[-74.486617,39.384361],[-74.487329,39.384972],[-74.488345,39.385206],[-74.488731,39.385675],[-74.488155,39.385994],[-74.487262,39.386015],[-74.486485,39.386472],[-74.486574,39.388122],[-74.487517,39.388824],[-74.489834,39.389174],[-74.490836,39.389784],[-74.490329,39.390934],[-74.48887,39.392255],[-74.488895,39.393242],[-74.489684,39.395362],[-74.489553,39.396304],[-74.489012,39.397326],[-74.488249,39.398066],[-74.470449,39.408804],[-74.457073,39.416523],[-74.45436,39.416119],[-74.451216,39.414673],[-74.449902,39.414938],[-74.448232,39.416639],[-74.447276,39.416969],[-74.442708,39.417612],[-74.440483,39.417443],[-74.439718,39.417048],[-74.438794,39.415934],[-74.437853,39.411946],[-74.437108,39.410148],[-74.435478,39.408195],[-74.433586,39.406631],[-74.431967,39.405671],[-74.429041,39.404417],[-74.424604,39.40293],[-74.418173,39.401294],[-74.416288,39.400424],[-74.414891,39.398952],[-74.413864,39.39708],[-74.415504,39.395241],[-74.415481,39.39203],[-74.413727,39.389645],[-74.417138,39.388135],[-74.417602,39.388163]],[[-74.417178,39.388162],[-74.417142,39.38819],[-74.417178,39.38819],[-74.417178,39.388162]]],[[[-74.417673,39.387998],[-74.417709,39.388026],[-74.417673,39.388026],[-74.417673,39.387998]]],[[[-74.417638,39.388053],[-74.417673,39.388026],[-74.417673,39.388053],[-74.417638,39.388053]]],[[[-74.417602,39.38808],[-74.417638,39.388053],[-74.417638,39.38808],[-74.417602,39.38808]]]]}}]}