{"type":"FeatureCollection","features":[{"type":"Feature","properties":{"level_ft":1},"geometry":{"type":"MultiPolygon","coordinates":[[[[-74.457217,39.354165],[-74.457252,39.354193],[-74.457217,39.354193],[-74.457217,39.354165]]],[[[-74.473662,39.354802],[-74.476539,39.358296],[-74.477429,39.358411],[-74.479019,39.358539],[-74.481241,39.358305],[-74.481926,39.35805],[-74.488672,39.353538],[-74.490071,39.353006],[-74.491441,39.353006],[-74.494786,39.354369],[-74.501398,39.358618],[-74.492581,39.365072],[-74.492194,39.366679],[-74.492286,39.368192],[-74.492899,39.370338],[-74.492718,39.371899],[-74.492341,39.372483],[-74.490192,39.373961],[-74.488486,39.375656],[-74.487739,39.377456],[-74.484586,39.376137],[-74.483277,39.375176],[-74.4831,39.374847],[-74.483312,39.374764],[-74.483277,39.374188],[-74.48264,39.373694],[-74.480942,39.373281],[-74.479846,39.372512],[-74.480129,39.371908],[-74.47875,39.370782],[-74.478396,39.370645],[-74.477795,39.371002],[-74.475425,39.369134],[-74.477336,39.368915],[-74.479069,39.368009],[-74.479706,39.368092],[-74.480237,39.367708],[-74.481227,39.367516],[-74.478645,39.365566],[-74.477301,39.365263],[-74.475356,39.363643],[-74.474225,39.363423],[-74.473659,39.362407],[-74.473412,39.361172],[-74.472952,39.360595],[-74.472139,39.360402],[-74.471184,39.361693],[-74.472138,39.362626],[-74.470936,39.361857],[-74.470051,39.362571],[-74.468636,39.3629],[-74.467257,39.362872],[-74.465489,39.361581],[-74.462908,39.360647],[-74.463155,39.359878],[-74.466233,39.358451],[-74.467329,39.359275],[-74.466693,39.358397],[-74.46687,39.358095],[-74.473662,39.354802]]],[[[-74.459897,39.367647],[-74.455193,39.366822],[-74.450242,39.36531],[-74.455724,39.366822],[-74.459897,39.367647]]],[[[-74.4797,39.387943],[-74.475313,39.387201],[-74.474817,39.387201],[-74.474817,39.387777],[-74.474287,39.387722],[-74.473756,39.387585],[-74.473933,39.387338],[-74.473508,39.387393],[-74.473332,39.386789],[-74.469015,39.386101],[-74.467105,39.385359],[-74.466397,39.385359],[-74.465442,39.3861],[-74.464982,39.386045],[-74.464557,39.385963],[-74.464239,39.385523],[-74.463248,39.385331],[-74.461763,39.384479],[-74.460277,39.383051],[-74.459782,39.383051],[-74.458439,39.380552],[-74.458722,39.380112],[-74.459466,39.379865],[-74.459714,39.37896],[-74.460209,39.378493],[-74.460033,39.378108],[-74.459431,39.377834],[-74.458547,39.377778],[-74.458158,39.37819],[-74.456318,39.377915],[-74.45561,39.378272],[-74.45554,39.377201],[-74.455257,39.378024],[-74.454974,39.378052],[-74.453877,39.377612],[-74.453771,39.377365],[-74.453099,39.377529],[-74.451861,39.377117],[-74.453454,39.375772],[-74.453383,39.375607],[-74.455188,39.374784],[-74.457983,39.374209],[-74.45816,39.373907],[-74.457383,39.372781],[-74.455332,39.37116],[-74.454519,39.370199],[-74.453811,39.370281],[-74.453669,39.370748],[-74.453351,39.370885],[-74.450658,39.376759],[-74.450092,39.376595],[-74.450057,39.376238],[-74.450978,39.37492],[-74.452997,39.370583],[-74.452927,39.370198],[-74.448858,39.370773],[-74.447585,39.370745],[-74.446241,39.370388],[-74.445852,39.370717],[-74.444576,39.373737],[-74.444258,39.373544],[-74.444505,39.373874],[-74.44415,39.374752],[-74.44362,39.374587],[-74.445604,39.370195],[-74.445463,39.369701],[-74.445498,39.370168],[-74.445074,39.370167],[-74.444756,39.369151],[-74.44511,39.36863],[-74.444546,39.367312],[-74.444653,39.3655],[-74.444335,39.36528],[-74.444335,39.364758],[-74.444937,39.364374],[-74.445044,39.363029],[-74.444585,39.36193],[-74.444904,39.361464],[-74.445222,39.361464],[-74.445541,39.36053],[-74.447275,39.359186],[-74.447205,39.358582],[-74.447665,39.358637],[-74.447771,39.358252],[-74.449045,39.357869],[-74.450495,39.358116],[-74.452688,39.357568],[-74.454387,39.355757],[-74.454599,39.355125],[-74.454953,39.354988],[-74.456086,39.353286],[-74.457642,39.352628],[-74.45736,39.352188],[-74.457041,39.352188],[-74.457183,39.351969],[-74.456441,39.35098],[-74.457007,39.350788],[-74.458491,39.352573],[-74.459234,39.352491],[-74.4598,39.352079],[-74.45927,39.351146],[-74.459977,39.350899],[-74.460826,39.351366],[-74.461781,39.351037],[-74.462135,39.351147],[-74.465,39.34939],[-74.464929,39.349198],[-74.465849,39.348594],[-74.465708,39.3481],[-74.467476,39.347057],[-74.473521,39.354719],[-74.468568,39.357162],[-74.468073,39.357189],[-74.467331,39.355953],[-74.467791,39.355596],[-74.467579,39.355459],[-74.46719,39.355596],[-74.466836,39.355129],[-74.466942,39.354882],[-74.466589,39.355047],[-74.466306,39.3548],[-74.463337,39.351312],[-74.458066,39.353726],[-74.457571,39.354165],[-74.457005,39.354248],[-74.457075,39.354604],[-74.455518,39.356361],[-74.453429,39.359545],[-74.452793,39.3596],[-74.452403,39.359902],[-74.451696,39.359792],[-74.451483,39.360533],[-74.452473,39.36089],[-74.451942,39.362318],[-74.452331,39.362455],[-74.452579,39.362071],[-74.453357,39.362071],[-74.456646,39.362622],[-74.457495,39.363006],[-74.460466,39.363227],[-74.462694,39.362459],[-74.463296,39.361169],[-74.465171,39.361746],[-74.464958,39.362432],[-74.466125,39.363394],[-74.466797,39.363723],[-74.467469,39.363476],[-74.467999,39.363971],[-74.467787,39.36419],[-74.467928,39.364685],[-74.469131,39.365234],[-74.469626,39.365152],[-74.469838,39.365317],[-74.470085,39.366552],[-74.470934,39.367513],[-74.471287,39.367102],[-74.471252,39.367706],[-74.471535,39.368035],[-74.473091,39.36842],[-74.473339,39.3682],[-74.473869,39.368365],[-74.476628,39.370398],[-74.475885,39.370672],[-74.474647,39.370589],[-74.473727,39.370809],[-74.473125,39.371934],[-74.473832,39.372813],[-74.475318,39.373335],[-74.475424,39.373198],[-74.47599,39.373363],[-74.477582,39.372045],[-74.477512,39.371578],[-74.478184,39.37199],[-74.478537,39.371881],[-74.479598,39.372705],[-74.479917,39.373089],[-74.480022,39.37416],[-74.479385,39.374874],[-74.478501,39.374626],[-74.479209,39.374928],[-74.478784,39.37545],[-74.467784,39.370588],[-74.466051,39.369736],[-74.46598,39.369544],[-74.466511,39.369489],[-74.465485,39.368857],[-74.465415,39.369132],[-74.464778,39.368994],[-74.462267,39.367648],[-74.456325,39.366603],[-74.449005,39.364486],[-74.448651,39.363799],[-74.449147,39.363607],[-74.449147,39.36336],[-74.447733,39.362481],[-74.446918,39.3641],[-74.446458,39.364155],[-74.446776,39.364265],[-74.446811,39.364594],[-74.445927,39.364622],[-74.447094,39.364979],[-74.447306,39.365281],[-74.446386,39.365281],[-74.446174,39.365857],[-74.447482,39.366132],[-74.447482,39.366325],[-74.446562,39.366736],[-74.446668,39.367203],[-74.447376,39.366956],[-74.448366,39.366956],[-74.453494,39.368222],[-74.454768,39.367948],[-74.455015,39.368332],[-74.456465,39.368744],[-74.46085,39.371327],[-74.460532,39.370915],[-74.461488,39.369762],[-74.463327,39.37012],[-74.464034,39.370092],[-74.464035,39.369928],[-74.461665,39.369048],[-74.459543,39.369157],[-74.458411,39.368388],[-74.455546,39.367838],[-74.455015,39.368057],[-74.455086,39.367838],[-74.455546,39.367591],[-74.461276,39.368636],[-74.464247,39.369708],[-74.488192,39.38594],[-74.487262,39.386015],[-74.486472,39.386487],[-74.486362,39.387351],[-74.486645,39.388231],[-74.487853,39.388951],[-74.489834,39.389174],[-74.490836,39.389784],[-74.490329,39.390934],[-74.489182,39.391825],[-74.488758,39.391349],[-74.489359,39.390855],[-74.488298,39.389949],[-74.488015,39.390086],[-74.488156,39.389839],[-74.487519,39.389729],[-74.487343,39.389482],[-74.483238,39.388685],[-74.482813,39.389207],[-74.482495,39.389206],[-74.479664,39.388684],[-74.479417,39.388465],[-74.479806,39.38841],[-74.479594,39.3883],[-74.4797,39.387943]],[[-74.445428,39.369701],[-74.445393,39.369646],[-74.445393,39.369701],[-74.445428,39.369701]],[[-74.467858,39.364053],[-74.467787,39.364026],[-74.467787,39.364053],[-74.467858,39.364053]],[[-74.466405,39.369599],[-74.46644,39.369626],[-74.46644,39.369599],[-74.466405,39.369599]],[[-74.466511,39.369517],[-74.466546,39.369544],[-74.466546,39.369517],[-74.466511,39.369517]],[[-74.479735,39.388108],[-74.479771,39.388135],[-74.479771,39.388108],[-74.479735,39.388108]]],[[[-74.475812,39.377179],[-74.474963,39.376383],[-74.474609,39.376218],[-74.474574,39.37641],[-74.473831,39.375971],[-74.467253,39.371384],[-74.466475,39.371054],[-74.464389,39.369296],[-74.478324,39.375779],[-74.478218,39.376493],[-74.47889,39.37718],[-74.481118,39.377345],[-74.481189,39.37751],[-74.480092,39.378059],[-74.478005,39.378305],[-74.477403,39.378168],[-74.475812,39.377179]],[[-74.474609,39.376218],[-74.474574,39.376191],[-74.474574,39.376218],[-74.474609,39.376218]],[[-74.475953,39.377152],[-74.475918,39.377124],[-74.475918,39.377152],[-74.475953,39.377152]],[[-74.475918,39.377124],[-74.475882,39.377097],[-74.475882,39.377124],[-74.475918,39.377124]]],[[[-74.481225,39.376714],[-74.481012,39.376357],[-74.480411,39.376356],[-74.479244,39.375807],[-74.479562,39.375121],[-74.481366,39.37578],[-74.480624,39.375258],[-74.479633,39.375038],[-74.480164,39.374187],[-74.481614,39.375258],[-74.482003,39.375313],[-74.482003,39.375753],[-74.48172,39.375643],[-74.481508,39.375808],[-74.481897,39.376],[-74.481967,39.376823],[-74.481225,39.376714]]],[[[-74.485611,39.377318],[-74.482711,39.376274],[-74.483524,39.376769],[-74.482357,39.376961],[-74.482109,39.376247],[-74.482604,39.376274],[-74.482711,39.375972],[-74.482322,39.375725],[-74.483029,39.375341],[-74.484126,39.376192],[-74.485753,39.376934],[-74.485611,39.377318]]],[[[-74.479102,39.377043],[-74.478784,39.376768],[-74.478925,39.376137],[-74.481118,39.377153],[-74.479102,39.377043]]],[[[-74.485045,39.377318],[-74.484939,39.377263],[-74.485045,39.377263],[-74.485045,39.377318]]],[[[-74.487203,39.378224],[-74.487097,39.378005],[-74.486283,39.377758],[-74.486708,39.377785],[-74.486354,39.377483],[-74.486814,39.377318],[-74.487592,39.37762],[-74.487203,39.378224]]],[[[-74.486386,39.378715],[-74.483559,39.377675],[-74.482993,39.377263],[-74.484868,39.377318],[-74.485328,39.37762],[-74.485045,39.377785],[-74.487273,39.378307],[-74.486386,39.378715]]],[[[-74.484867,39.383496],[-74.479313,39.379761],[-74.478323,39.37891],[-74.480127,39.37869],[-74.482144,39.377592],[-74.486035,39.379213],[-74.48582,39.379503],[-74.485959,39.380343],[-74.487012,39.381786],[-74.487156,39.382427],[-74.486524,39.383427],[-74.486506,39.384157],[-74.48681,39.384647],[-74.488321,39.385193],[-74.488731,39.385675],[-74.488299,39.385908],[-74.484867,39.383496]]],[[[-74.484973,39.383606],[-74.484938,39.383578],[-74.484973,39.383578],[-74.484973,39.383606]]],[[[-74.484973,39.383633],[-74.485008,39.383606],[-74.485008,39.383633],[-74.484973,39.383633]]],[[[-74.434312,39.353331],[-74.433734,39.353705],[-74.433104,39.352752],[-74.43375,39.352493],[-74.434312,39.353331]]],[[[-74.428257,39.355277],[-74.427685,39.355441],[-74.42729,39.355523],[-74.427982,39.355148],[-74.428257,39.355277]]],[[[-74.42726,39.355538],[-74.42726,39.355551],[-74.427237,39.355551],[-74.42726,39.355538]]],[[[-74.42719,39.355575],[-74.42719,39.355578],[-74.427184,39.355578],[-74.42719,39.355575]]],[[[-74.427083,39.35563],[-74.427083,39.355633],[-74.427077,39.355633],[-74.427083,39.35563]]],[[[-74.424685,39.356126],[-74.419583,39.358017],[-74.418025,39.359224],[-74.41569,39.360348],[-74.415372,39.3601],[-74.414912,39.360292],[-74.415017,39.360594],[-74.414164,39.361033],[-74.414926,39.360428],[-74.414738,39.360141],[-74.41532,39.359907],[-74.415421,39.360053],[-74.418267,39.358683],[-74.419088,39.358031],[-74.417962,39.356358],[-74.418441,39.356169],[-74.419504,39.357753],[-74.423468,39.356355],[-74.423876,39.355819],[-74.424357,39.355639],[-74.424685,39.356126]]],[[[-74.411708,39.362174],[-74.413027,39.361069],[-74.413126,39.361197],[-74.412115,39.362047],[-74.411124,39.362541],[-74.41077,39.362623],[-74.410571,39.362623],[-74.411708,39.362174]]],[[[-74.444372,39.362973],[-74.443028,39.362588],[-74.442993,39.362259],[-74.443701,39.362259],[-74.444372,39.362973]]],[[[-74.410308,39.362686],[-74.410417,39.362705],[-74.410416,39.362834],[-74.410308,39.362686]]],[[[-74.410415,39.362883],[-74.410416,39.362897],[-74.41041,39.362897],[-74.410415,39.362883]]],[[[-74.410168,39.363201],[-74.410168,39.363227],[-74.410135,39.363227],[-74.410168,39.363201]]],[[[-74.453424,39.367782],[-74.448508,39.366902],[-74.448048,39.366325],[-74.454096,39.367371],[-74.454061,39.36759],[-74.453424,39.367782]]],[[[-74.431165,39.376777],[-74.431343,39.375926],[-74.432015,39.375624],[-74.431696,39.37686],[-74.431165,39.376777]]],[[[-74.423197,39.384734],[-74.424931,39.383775],[-74.424825,39.384077],[-74.424329,39.384268],[-74.424435,39.384516],[-74.423904,39.385202],[-74.424753,39.385147],[-74.42585,39.384736],[-74.426168,39.385148],[-74.425602,39.385175],[-74.425567,39.385368],[-74.426592,39.385615],[-74.428149,39.385561],[-74.42907,39.385178],[-74.429812,39.3857],[-74.431085,39.385975],[-74.433032,39.385427],[-74.435263,39.383836],[-74.436927,39.381805],[-74.436999,39.380926],[-74.436293,39.379553],[-74.43693,39.378483],[-74.438028,39.377907],[-74.439407,39.378484],[-74.439513,39.378264],[-74.43923,39.378045],[-74.439372,39.37766],[-74.440538,39.379528],[-74.440892,39.379226],[-74.440292,39.377853],[-74.438914,39.37604],[-74.439162,39.375381],[-74.440895,39.375327],[-74.441639,39.374888],[-74.442983,39.375191],[-74.443514,39.374834],[-74.444009,39.374999],[-74.443406,39.376454],[-74.443511,39.377552],[-74.446094,39.377389],[-74.447014,39.37706],[-74.447156,39.37673],[-74.447757,39.376813],[-74.448147,39.376319],[-74.450481,39.376952],[-74.451012,39.377419],[-74.451719,39.377337],[-74.453099,39.377776],[-74.453204,39.378353],[-74.452531,39.379533],[-74.452814,39.38033],[-74.454583,39.379919],[-74.455432,39.380468],[-74.456706,39.37981],[-74.457484,39.37981],[-74.460277,39.384424],[-74.461408,39.385303],[-74.463,39.385962],[-74.462292,39.386483],[-74.462328,39.386786],[-74.462611,39.386758],[-74.463283,39.385962],[-74.485821,39.389976],[-74.486104,39.39025],[-74.486706,39.39025],[-74.487378,39.390552],[-74.48897,39.391953],[-74.488895,39.393242],[-74.489656,39.395047],[-74.489553,39.396304],[-74.489012,39.397326],[-74.488249,39.398066],[-74.464921,39.412096],[-74.457073,39.416523],[-74.45436,39.416119],[-74.451622,39.414742],[-74.450965,39.414688],[-74.449902,39.414938],[-74.448232,39.416639],[-74.447276,39.416969],[-74.442836,39.417603],[-74.440811,39.417528],[-74.439766,39.417087],[-74.438878,39.41611],[-74.437802,39.411776],[-74.436962,39.409921],[-74.435635,39.408353],[-74.433987,39.406917],[-74.431967,39.405671],[-74.429041,39.404417],[-74.424604,39.40293],[-74.417129,39.40091],[-74.41578,39.399989],[-74.414568,39.398482],[-74.413864,39.39708],[-74.415504,39.395241],[-74.415481,39.39203],[-74.413991,39.38989],[-74.414947,39.389671],[-74.415654,39.389946],[-74.415972,39.390276],[-74.415971,39.391017],[-74.417067,39.392006],[-74.417244,39.391704],[-74.417634,39.391705],[-74.418059,39.391211],[-74.418448,39.391156],[-74.418271,39.390991],[-74.418767,39.390717],[-74.418767,39.390305],[-74.418414,39.390003],[-74.418095,39.390222],[-74.417778,39.389536],[-74.418522,39.388356],[-74.418558,39.387834],[-74.419266,39.387477],[-74.419548,39.388137],[-74.419479,39.387098],[-74.421718,39.386107],[-74.420176,39.382313],[-74.417861,39.380023],[-74.415446,39.379354],[-74.413408,39.377974],[-74.410193,39.373375],[-74.409178,39.371338],[-74.406138,39.368506],[-74.407066,39.363904],[-74.407656,39.364405],[-74.410133,39.363228],[-74.408504,39.364708],[-74.409457,39.365944],[-74.409245,39.366136],[-74.409669,39.366164],[-74.410058,39.366714],[-74.411469,39.36957],[-74.411894,39.369461],[-74.412352,39.370504],[-74.413235,39.371548],[-74.413764,39.373141],[-74.414259,39.373114],[-74.414966,39.374158],[-74.415354,39.375119],[-74.415246,39.3763],[-74.415705,39.376685],[-74.416731,39.376575],[-74.417403,39.376741],[-74.418712,39.377291],[-74.419313,39.377785],[-74.420657,39.377567],[-74.420304,39.3771],[-74.420623,39.376194],[-74.421154,39.376194],[-74.420871,39.375947],[-74.421085,39.374849],[-74.418577,39.371415],[-74.419001,39.371772],[-74.419709,39.371608],[-74.420522,39.372295],[-74.423206,39.375948],[-74.422889,39.374987],[-74.423243,39.374878],[-74.423066,39.37507],[-74.423207,39.375207],[-74.423562,39.374576],[-74.423844,39.374768],[-74.423951,39.374713],[-74.423209,39.373752],[-74.423881,39.373368],[-74.424412,39.373478],[-74.425082,39.374796],[-74.423808,39.375674],[-74.424197,39.376004],[-74.424905,39.375785],[-74.425365,39.374797],[-74.426215,39.374385],[-74.426392,39.374056],[-74.426428,39.373205],[-74.425863,39.372957],[-74.425015,39.371556],[-74.425192,39.371172],[-74.425935,39.37109],[-74.42756,39.37359],[-74.427736,39.374386],[-74.428937,39.375842],[-74.428831,39.376419],[-74.428548,39.376583],[-74.429466,39.377984],[-74.427873,39.378642],[-74.42759,39.378532],[-74.426918,39.378779],[-74.426811,39.379081],[-74.425254,39.379711],[-74.423523,39.377788],[-74.422425,39.378199],[-74.423768,39.379902],[-74.423909,39.380726],[-74.424333,39.380919],[-74.425075,39.381963],[-74.424825,39.38361],[-74.423197,39.384734]],[[-74.417067,39.392006],[-74.417138,39.392034],[-74.417138,39.392006],[-74.417067,39.392006]],[[-74.407656,39.364405],[-74.407691,39.364433],[-74.407691,39.364405],[-74.407656,39.364405]],[[-74.407691,39.364433],[-74.407726,39.364488],[-74.407726,39.364433],[-74.407691,39.364433]],[[-74.407726,39.364488],[-74.407761,39.364543],[-74.407762,39.364488],[-74.407726,39.364488]],[[-74.407761,39.364543],[-74.407832,39.364598],[-74.407832,39.364543],[-74.407761,39.364543]],[[-74.407832,39.364598],[-74.407903,39.36468],[-74.407867,39.364598],[-74.407832,39.364598]],[[-74.407938,39.36468],[-74.407938,39.364735],[-74.407973,39.364762],[-74.407938,39.36468]],[[-74.408044,39.364763],[-74.408009,39.36479],[-74.408044,39.364817],[-74.408044,39.364763]],[[-74.408115,39.364817],[-74.408079,39.364872],[-74.408115,39.364872],[-74.408115,39.364817]],[[-74.408115,39.364872],[-74.408185,39.364955],[-74.40815,39.364872],[-74.408115,39.364872]],[[-74.408185,39.364955],[-74.408221,39.36501],[-74.408221,39.364955],[-74.408185,39.364955]],[[-74.409174,39.366054],[-74.409175,39.365917],[-74.409104,39.365917],[-74.409174,39.366054]],[[-74.409104,39.365917],[-74.409033,39.365834],[-74.409033,39.365889],[-74.409104,39.365917]],[[-74.409033,39.365834],[-74.408998,39.365807],[-74.408998,39.365834],[-74.409033,39.365834]],[[-74.408998,39.365807],[-74.408963,39.365752],[-74.408962,39.365807],[-74.408998,39.365807]],[[-74.408963,39.365752],[-74.408927,39.365724],[-74.408927,39.365752],[-74.408963,39.365752]],[[-74.408892,39.365724],[-74.408892,39.365669],[-74.408857,39.365642],[-74.408892,39.365724]],[[-74.408857,39.365642],[-74.408786,39.365587],[-74.408786,39.365642],[-74.408857,39.365642]],[[-74.408786,39.365587],[-74.408715,39.365504],[-74.408715,39.365559],[-74.408786,39.365587]],[[-74.40868,39.365504],[-74.40868,39.365449],[-74.408574,39.365367],[-74.40868,39.365504]],[[-74.408539,39.365367],[-74.408503,39.365285],[-74.408362,39.365147],[-74.408539,39.365367]],[[-74.408362,39.365147],[-74.408291,39.365065],[-74.408291,39.36512],[-74.408362,39.365147]],[[-74.408291,39.365065],[-74.408256,39.36501],[-74.408256,39.365065],[-74.408291,39.365065]],[[-74.423055,39.384789],[-74.42302,39.384817],[-74.423055,39.384817],[-74.423055,39.384789]],[[-74.42302,39.384817],[-74.422984,39.384844],[-74.42302,39.384844],[-74.42302,39.384817]]]]}}]}