{"type":"FeatureCollection","features":[{"type":"Feature","properties":{"level_ft":4},"geometry":{"type":"MultiPolygon","coordinates":[[[[-74.480023,39.373062],[-74.480058,39.373007],[-74.480094,39.373062],[-74.480023,39.373062]]],[[[-74.486602,39.377181],[-74.487611,39.377648],[-74.487316,39.378252],[-74.483595,39.376796],[-74.48218,39.377153],[-74.479208,39.375807],[-74.480199,39.374023],[-74.4802,39.373391],[-74.480058,39.373089],[-74.481614,39.37416],[-74.481084,39.374352],[-74.480553,39.37383],[-74.480306,39.374023],[-74.481579,39.375203],[-74.482039,39.375313],[-74.481932,39.376027],[-74.482038,39.376769],[-74.482074,39.376082],[-74.482923,39.375204],[-74.484232,39.37622],[-74.486213,39.377044],[-74.486142,39.377154],[-74.486319,39.377346],[-74.486602,39.377181]],[[-74.482144,39.376769],[-74.482074,39.376796],[-74.482074,39.376823],[-74.482144,39.376769]]],[[[-74.485328,39.376522],[-74.485293,39.376494],[-74.485328,39.376494],[-74.485328,39.376522]]],[[[-74.47896,39.377015],[-74.478713,39.376795],[-74.47889,39.376054],[-74.481331,39.377235],[-74.47896,39.377015]]],[[[-74.486177,39.377126],[-74.486213,39.377154],[-74.486177,39.377154],[-74.486177,39.377126]]],[[[-74.486248,39.377208],[-74.486283,39.377236],[-74.486248,39.377236],[-74.486248,39.377208]]],[[[-74.486319,39.377291],[-74.486354,39.377318],[-74.486319,39.377318],[-74.486319,39.377291]]],[[[-74.481578,39.377455],[-74.481614,39.3774],[-74.481649,39.3774],[-74.481649,39.377455],[-74.481578,39.377455]]],[[[-74.486283,39.378691],[-74.485151,39.378307],[-74.482392,39.37718],[-74.484302,39.377153],[-74.487273,39.378307],[-74.486283,39.378691]]],[[[-74.478429,39.379184],[-74.478464,39.379212],[-74.478429,39.379212],[-74.478429,39.379184]]],[[[-74.478747,39.379404],[-74.478641,39.379349],[-74.478641,39.379321],[-74.478747,39.379404]]],[[[-74.478818,39.379404],[-74.478747,39.379431],[-74.478747,39.379404],[-74.478818,39.379404]]],[[[-74.478853,39.379486],[-74.478889,39.379459],[-74.478889,39.379486],[-74.478853,39.379486]]],[[[-74.47903,39.379596],[-74.478995,39.379569],[-74.47903,39.379569],[-74.47903,39.379596]]],[[[-74.479207,39.379706],[-74.479172,39.379678],[-74.479207,39.379679],[-74.479207,39.379706]]],[[[-74.479773,39.380145],[-74.479808,39.38009],[-74.479844,39.380145],[-74.479773,39.380145]]],[[[-74.481259,39.381107],[-74.481223,39.381079],[-74.481259,39.381079],[-74.481259,39.381107]]],[[[-74.481259,39.381107],[-74.481294,39.381134],[-74.481259,39.381134],[-74.481259,39.381107]]],[[[-74.48186,39.381519],[-74.481825,39.381491],[-74.48186,39.381491],[-74.48186,39.381519]]],[[[-74.482214,39.381766],[-74.482178,39.381738],[-74.482214,39.381738],[-74.482214,39.381766]]],[[[-74.482461,39.38193],[-74.482426,39.381903],[-74.482461,39.381903],[-74.482461,39.38193]]],[[[-74.482886,39.382233],[-74.482851,39.382205],[-74.482886,39.382205],[-74.482886,39.382233]]],[[[-74.484796,39.383551],[-74.484832,39.383523],[-74.484832,39.383551],[-74.484796,39.383551]]],[[[-74.484832,39.383551],[-74.484867,39.383578],[-74.484832,39.383578],[-74.484832,39.383551]]],[[[-74.485681,39.384127],[-74.485716,39.384155],[-74.485681,39.384155],[-74.485681,39.384127]]],[[[-74.485716,39.384155],[-74.485751,39.384182],[-74.485716,39.384182],[-74.485716,39.384155]]],[[[-74.486317,39.384567],[-74.486353,39.384594],[-74.486317,39.384594],[-74.486317,39.384567]]],[[[-74.486494,39.384677],[-74.48653,39.384704],[-74.486494,39.384704],[-74.486494,39.384677]]],[[[-74.48699,39.385006],[-74.48706,39.385061],[-74.487025,39.385061],[-74.48699,39.385006]]],[[[-74.487131,39.385061],[-74.487096,39.385116],[-74.48706,39.385061],[-74.487131,39.385061]]],[[[-74.487945,39.385665],[-74.487909,39.385638],[-74.487945,39.385638],[-74.487945,39.385665]]],[[[-74.487874,39.385693],[-74.487839,39.38572],[-74.487839,39.385693],[-74.487874,39.385693]]],[[[-74.466125,39.362103],[-74.466161,39.362131],[-74.466125,39.362131],[-74.466125,39.362103]]],[[[-74.466161,39.362131],[-74.466196,39.362158],[-74.466161,39.362158],[-74.466161,39.362131]]],[[[-74.46708,39.362845],[-74.467045,39.362817],[-74.46708,39.362817],[-74.46708,39.362845]]],[[[-74.469873,39.364932],[-74.469873,39.364905],[-74.469909,39.364905],[-74.469909,39.364932],[-74.469873,39.364932]]],[[[-74.469944,39.36496],[-74.469909,39.364932],[-74.469944,39.364932],[-74.469944,39.36496]]],[[[-74.469873,39.36496],[-74.469838,39.364932],[-74.469873,39.364932],[-74.469873,39.36496]]],[[[-74.469873,39.364987],[-74.469909,39.36496],[-74.469909,39.364987],[-74.469873,39.364987]]],[[[-74.46598,39.37067],[-74.466051,39.370725],[-74.46598,39.370697],[-74.46598,39.37067]]],[[[-74.477936,39.371414],[-74.478007,39.371469],[-74.477936,39.371469],[-74.477936,39.371414]]],[[[-74.478361,39.371716],[-74.47829,39.371743],[-74.47829,39.371661],[-74.478361,39.371716]]],[[[-74.467324,39.371741],[-74.467359,39.371768],[-74.467324,39.371768],[-74.467324,39.371741]]],[[[-74.467642,39.371823],[-74.467606,39.371796],[-74.467642,39.371796],[-74.467642,39.371823]]],[[[-74.474361,39.376383],[-74.474397,39.376355],[-74.474397,39.376383],[-74.474361,39.376383]]],[[[-74.474361,39.376438],[-74.474397,39.37641],[-74.474397,39.376438],[-74.474361,39.376438]]],[[[-74.474468,39.376438],[-74.474397,39.376465],[-74.474397,39.376438],[-74.474468,39.376438]]],[[[-74.476201,39.377783],[-74.476236,39.377729],[-74.476271,39.377783],[-74.476201,39.377783]]],[[[-74.476307,39.377811],[-74.476342,39.377838],[-74.476307,39.377838],[-74.476307,39.377811]]],[[[-74.476413,39.377893],[-74.476342,39.377838],[-74.476377,39.377838],[-74.476413,39.377893]]],[[[-74.476413,39.377893],[-74.476448,39.377921],[-74.476413,39.377921],[-74.476413,39.377893]]],[[[-74.476448,39.377921],[-74.476484,39.377948],[-74.476448,39.377948],[-74.476448,39.377921]]],[[[-74.476696,39.378086],[-74.47666,39.378058],[-74.476696,39.378058],[-74.476696,39.378086]]],[[[-74.476767,39.378113],[-74.476731,39.37814],[-74.476731,39.378113],[-74.476767,39.378113]]],[[[-74.476802,39.37814],[-74.476837,39.378168],[-74.476802,39.378168],[-74.476802,39.37814]]],[[[-74.476837,39.378168],[-74.476873,39.378195],[-74.476837,39.378195],[-74.476837,39.378168]]],[[[-74.476873,39.378195],[-74.476908,39.378223],[-74.476873,39.378223],[-74.476873,39.378195]]],[[[-74.477863,39.3788],[-74.477828,39.378772],[-74.477863,39.378772],[-74.477863,39.3788]]],[[[-74.477863,39.3788],[-74.477898,39.378827],[-74.477863,39.378827],[-74.477863,39.3788]]],[[[-74.477898,39.378827],[-74.477934,39.378855],[-74.477898,39.378855],[-74.477898,39.378827]]],[[[-74.478075,39.378937],[-74.47804,39.378909],[-74.478075,39.37891],[-74.478075,39.378937]]],[[[-74.478075,39.378937],[-74.478111,39.378964],[-74.478075,39.378964],[-74.478075,39.378937]]],[[[-74.478111,39.378992],[-74.478146,39.378964],[-74.478146,39.378992],[-74.478111,39.378992]]],[[[-74.478358,39.379157],[-74.478429,39.379184],[-74.478394,39.379184],[-74.478358,39.379157]]],[[[-74.464173,39.342938],[-74.464048,39.342883],[-74.464048,39.342783],[-74.464173,39.342938]]],[[[-74.454994,39.346943],[-74.454817,39.3473],[-74.455029,39.347437],[-74.454604,39.347657],[-74.453861,39.347794],[-74.453437,39.347629],[-74.454675,39.346943],[-74.454994,39.346943]]],[[[-74.463155,39.360812],[-74.46312,39.360784],[-74.463155,39.360784],[-74.463155,39.360812]]],[[[-74.463155,39.360839],[-74.46319,39.360812],[-74.46319,39.360839],[-74.463155,39.360839]]],[[[-74.463226,39.360867],[-74.46319,39.360839],[-74.463226,39.360839],[-74.463226,39.360867]]],[[[-74.463438,39.361059],[-74.463473,39.361086],[-74.463438,39.361086],[-74.463438,39.361059]]],[[[-74.453672,39.366464],[-74.453708,39.366437],[-74.453708,39.366464],[-74.453672,39.366464]]],[[[-74.455688,39.366959],[-74.455547,39.366932],[-74.455688,39.366932],[-74.455688,39.366959]]],[[[-74.45583,39.367014],[-74.455936,39.366987],[-74.455936,39.367014],[-74.45583,39.367014]]],[[[-74.45735,39.367344],[-74.454344,39.366986],[-74.45445,39.366849],[-74.453708,39.366602],[-74.45735,39.367344]],[[-74.454521,39.366986],[-74.454556,39.366959],[-74.454521,39.366959],[-74.454521,39.366986]]],[[[-74.455971,39.367042],[-74.456077,39.367015],[-74.456077,39.367042],[-74.455971,39.367042]]],[[[-74.457457,39.367427],[-74.457633,39.367427],[-74.457952,39.367482],[-74.457457,39.367427]]],[[[-74.45728,39.367454],[-74.457315,39.367482],[-74.45728,39.367482],[-74.45728,39.367454]]],[[[-74.458305,39.367537],[-74.458235,39.367564],[-74.458199,39.36751],[-74.458305,39.367537]]],[[[-74.458447,39.367565],[-74.458624,39.367592],[-74.458447,39.367592],[-74.458447,39.367565]]],[[[-74.458624,39.367592],[-74.45873,39.36762],[-74.458624,39.36762],[-74.458624,39.367592]]],[[[-74.459331,39.367785],[-74.458659,39.367702],[-74.458588,39.367647],[-74.459331,39.367785]]],[[[-74.460498,39.367812],[-74.460428,39.367785],[-74.460498,39.367785],[-74.460498,39.367812]]],[[[-74.459579,39.36773],[-74.460215,39.367895],[-74.459331,39.367785],[-74.459579,39.36773]]],[[[-74.464884,39.369846],[-74.464919,39.369873],[-74.464884,39.369873],[-74.464884,39.369846]]],[[[-74.464919,39.369873],[-74.464954,39.369901],[-74.464919,39.3699],[-74.464919,39.369873]]],[[[-74.464954,39.369901],[-74.46499,39.369928],[-74.464954,39.369928],[-74.464954,39.369901]]],[[[-74.46506,39.369928],[-74.46499,39.369955],[-74.46499,39.369928],[-74.46506,39.369928]]],[[[-74.465202,39.37012],[-74.465237,39.370065],[-74.465237,39.37012],[-74.465202,39.37012]]],[[[-74.465591,39.370313],[-74.46552,39.37034],[-74.46552,39.370313],[-74.465591,39.370313]]],[[[-74.465662,39.370422],[-74.465626,39.370422],[-74.465591,39.370395],[-74.465591,39.370367],[-74.465662,39.370422]]],[[[-74.465697,39.37045],[-74.465662,39.370422],[-74.465697,39.370422],[-74.465697,39.37045]]],[[[-74.465732,39.370477],[-74.465768,39.370505],[-74.465732,39.370505],[-74.465732,39.370477]]],[[[-74.465768,39.370532],[-74.465803,39.370505],[-74.465803,39.370532],[-74.465768,39.370532]]],[[[-74.465838,39.37056],[-74.465874,39.370587],[-74.465838,39.370587],[-74.465838,39.37056]]],[[[-74.465874,39.370587],[-74.465909,39.370615],[-74.465874,39.370615],[-74.465874,39.370587]]],[[[-74.488866,39.392451],[-74.489676,39.395679],[-74.489293,39.396904],[-74.488249,39.398066],[-74.457593,39.416294],[-74.457046,39.416524],[-74.45436,39.416119],[-74.451622,39.414742],[-74.450965,39.414688],[-74.449902,39.414938],[-74.448232,39.416639],[-74.447276,39.416969],[-74.442708,39.417612],[-74.440538,39.417462],[-74.439718,39.417048],[-74.438794,39.415934],[-74.437853,39.411946],[-74.437108,39.410148],[-74.435803,39.408526],[-74.433987,39.406917],[-74.431967,39.405671],[-74.429041,39.404417],[-74.424604,39.40293],[-74.417129,39.40091],[-74.41578,39.399989],[-74.414568,39.398482],[-74.413864,39.39708],[-74.415504,39.395241],[-74.415481,39.39203],[-74.413956,39.389862],[-74.414522,39.389396],[-74.416788,39.388409],[-74.417177,39.38841],[-74.417248,39.388712],[-74.41746,39.388574],[-74.417319,39.388327],[-74.418027,39.388163],[-74.419429,39.387121],[-74.421718,39.386107],[-74.420176,39.382313],[-74.417861,39.380023],[-74.415446,39.379354],[-74.413408,39.377974],[-74.410193,39.373375],[-74.409178,39.371338],[-74.406138,39.368506],[-74.407066,39.363904],[-74.407569,39.364421],[-74.408389,39.364213],[-74.410282,39.363112],[-74.410308,39.362686],[-74.411876,39.362059],[-74.412953,39.361104],[-74.413602,39.361255],[-74.412859,39.361416],[-74.412115,39.362047],[-74.410806,39.362596],[-74.410133,39.363556],[-74.408787,39.364708],[-74.40967,39.366027],[-74.409245,39.366109],[-74.409669,39.366137],[-74.409952,39.366521],[-74.41154,39.369488],[-74.411894,39.369433],[-74.413447,39.371933],[-74.413695,39.371988],[-74.4138,39.372537],[-74.413482,39.372619],[-74.413906,39.372867],[-74.413942,39.372482],[-74.414897,39.372154],[-74.415251,39.372428],[-74.415322,39.372181],[-74.414615,39.371302],[-74.413412,39.371713],[-74.413236,39.371246],[-74.413554,39.371466],[-74.414156,39.370972],[-74.414474,39.371],[-74.414192,39.370615],[-74.414156,39.370863],[-74.41359,39.370752],[-74.413732,39.370313],[-74.414086,39.370423],[-74.413909,39.370039],[-74.413555,39.370395],[-74.412635,39.37045],[-74.412282,39.369845],[-74.412671,39.370038],[-74.412884,39.369599],[-74.412319,39.368747],[-74.412071,39.368802],[-74.412212,39.369571],[-74.412106,39.36968],[-74.411753,39.369186],[-74.411505,39.369103],[-74.409705,39.366054],[-74.409918,39.36578],[-74.409952,39.366109],[-74.410377,39.366],[-74.41066,39.366357],[-74.41112,39.366275],[-74.410765,39.366632],[-74.411295,39.367648],[-74.412215,39.367429],[-74.412074,39.367072],[-74.41218,39.366962],[-74.413027,39.368006],[-74.413877,39.367677],[-74.413559,39.36721],[-74.413276,39.367238],[-74.413489,39.366744],[-74.413254,39.366167],[-74.412888,39.366276],[-74.41303,39.366057],[-74.4125,39.365809],[-74.4125,39.36537],[-74.412217,39.36548],[-74.412358,39.365974],[-74.41204,39.365727],[-74.411332,39.365726],[-74.411085,39.365918],[-74.41112,39.365726],[-74.410731,39.365726],[-74.41105,39.365534],[-74.410874,39.365039],[-74.411227,39.365424],[-74.411616,39.365287],[-74.411404,39.364875],[-74.411121,39.364847],[-74.411263,39.364628],[-74.410946,39.363941],[-74.411547,39.364271],[-74.41144,39.364545],[-74.411935,39.364546],[-74.411194,39.363255],[-74.41183,39.363887],[-74.412148,39.363915],[-74.412148,39.364326],[-74.412607,39.364464],[-74.412678,39.364766],[-74.412855,39.364656],[-74.412537,39.364107],[-74.413102,39.364657],[-74.413456,39.364602],[-74.413491,39.364767],[-74.412677,39.365178],[-74.413243,39.365233],[-74.413278,39.36548],[-74.41296,39.36559],[-74.413242,39.366057],[-74.41356,39.366057],[-74.413348,39.366249],[-74.413807,39.366854],[-74.414302,39.366854],[-74.414727,39.36658],[-74.414374,39.366497],[-74.414728,39.366278],[-74.414445,39.365811],[-74.41402,39.36592],[-74.414304,39.365646],[-74.414021,39.365179],[-74.414128,39.364987],[-74.414445,39.365481],[-74.414693,39.365481],[-74.414905,39.366141],[-74.41547,39.366223],[-74.415187,39.36647],[-74.415576,39.366525],[-74.415505,39.3668],[-74.415965,39.366526],[-74.415859,39.366745],[-74.415894,39.366883],[-74.41646,39.366499],[-74.41586,39.365427],[-74.416602,39.366279],[-74.417062,39.366224],[-74.417027,39.365977],[-74.41731,39.366197],[-74.416958,39.364714],[-74.417594,39.365127],[-74.418053,39.365951],[-74.418796,39.365704],[-74.418691,39.365018],[-74.417949,39.364303],[-74.418126,39.363919],[-74.418586,39.363919],[-74.420568,39.363097],[-74.420179,39.362849],[-74.420215,39.362438],[-74.420921,39.362932],[-74.421806,39.362384],[-74.422053,39.362851],[-74.420957,39.36318],[-74.421239,39.363646],[-74.421946,39.363757],[-74.421663,39.363949],[-74.42191,39.364388],[-74.422087,39.364141],[-74.42283,39.364087],[-74.422936,39.364252],[-74.423679,39.363978],[-74.42329,39.364252],[-74.423678,39.364829],[-74.424669,39.364582],[-74.424351,39.363951],[-74.42375,39.363978],[-74.423785,39.36384],[-74.42513,39.363374],[-74.424953,39.363704],[-74.424564,39.363758],[-74.424775,39.36417],[-74.425058,39.364143],[-74.425411,39.364995],[-74.425801,39.364858],[-74.42573,39.364638],[-74.42619,39.364583],[-74.425766,39.363677],[-74.42612,39.363622],[-74.426862,39.364391],[-74.427464,39.364117],[-74.427217,39.363458],[-74.427535,39.363513],[-74.427535,39.363156],[-74.427925,39.363211],[-74.428207,39.363706],[-74.428702,39.363541],[-74.428349,39.362992],[-74.428456,39.362663],[-74.429233,39.363404],[-74.429799,39.363158],[-74.429941,39.362746],[-74.430436,39.363021],[-74.431391,39.36261],[-74.431215,39.362198],[-74.431674,39.3625],[-74.432524,39.362171],[-74.432736,39.361704],[-74.433019,39.361924],[-74.433868,39.36176],[-74.43362,39.361924],[-74.433762,39.362254],[-74.433443,39.362007],[-74.433266,39.362254],[-74.434044,39.363188],[-74.433726,39.362336],[-74.434327,39.362996],[-74.434681,39.362804],[-74.43408,39.361705],[-74.434505,39.362007],[-74.435071,39.361925],[-74.435142,39.361706],[-74.435566,39.361706],[-74.435319,39.361239],[-74.435531,39.361157],[-74.436202,39.362091],[-74.437016,39.361981],[-74.437158,39.361734],[-74.436734,39.36124],[-74.436628,39.36091],[-74.436734,39.360746],[-74.437653,39.361734],[-74.438891,39.361213],[-74.438962,39.360829],[-74.439351,39.361049],[-74.43921,39.360417],[-74.43974,39.360912],[-74.441014,39.360363],[-74.440732,39.359896],[-74.440413,39.359841],[-74.440202,39.359155],[-74.440555,39.359128],[-74.441403,39.360089],[-74.441757,39.35976],[-74.442146,39.35976],[-74.441617,39.358634],[-74.441829,39.358607],[-74.44243,39.359458],[-74.442713,39.359486],[-74.442607,39.359238],[-74.44289,39.359293],[-74.443137,39.359046],[-74.443349,39.359129],[-74.443138,39.358525],[-74.44388,39.358964],[-74.444022,39.358525],[-74.444482,39.358278],[-74.444411,39.358004],[-74.444694,39.358141],[-74.445083,39.357949],[-74.445048,39.357647],[-74.445367,39.357455],[-74.445332,39.35729],[-74.444872,39.357345],[-74.44512,39.356933],[-74.444696,39.355945],[-74.445615,39.356604],[-74.445439,39.35611],[-74.445827,39.356384],[-74.445828,39.35611],[-74.446252,39.356192],[-74.446076,39.355506],[-74.446959,39.356165],[-74.446712,39.355561],[-74.447384,39.356001],[-74.447773,39.355974],[-74.44742,39.355259],[-74.447773,39.355315],[-74.448091,39.355727],[-74.448657,39.355535],[-74.448446,39.354958],[-74.449011,39.355397],[-74.449719,39.355206],[-74.449471,39.354629],[-74.449931,39.354821],[-74.449861,39.354464],[-74.450462,39.354355],[-74.450462,39.35408],[-74.451169,39.354273],[-74.451134,39.353778],[-74.452018,39.354053],[-74.451948,39.353312],[-74.452478,39.353669],[-74.452761,39.353587],[-74.452762,39.352873],[-74.452337,39.35279],[-74.452514,39.352516],[-74.452232,39.352379],[-74.453293,39.351995],[-74.452691,39.352324],[-74.452903,39.352406],[-74.453717,39.352022],[-74.454778,39.352627],[-74.454389,39.351913],[-74.45499,39.352325],[-74.455096,39.351913],[-74.454814,39.351556],[-74.455238,39.351803],[-74.455167,39.351474],[-74.455415,39.351639],[-74.456016,39.351199],[-74.45591,39.351062],[-74.455557,39.351199],[-74.455663,39.351035],[-74.456866,39.350184],[-74.457785,39.34991],[-74.457821,39.349663],[-74.458104,39.349745],[-74.458917,39.349333],[-74.458811,39.349086],[-74.459271,39.349169],[-74.459201,39.348894],[-74.459554,39.349032],[-74.460014,39.348702],[-74.460191,39.348867],[-74.460757,39.348757],[-74.461145,39.349142],[-74.461216,39.348538],[-74.460863,39.348675],[-74.460757,39.348593],[-74.461712,39.348126],[-74.461429,39.348456],[-74.461711,39.348758],[-74.462171,39.348868],[-74.462277,39.348758],[-74.461924,39.348758],[-74.461959,39.348099],[-74.46256,39.348703],[-74.462808,39.348813],[-74.462384,39.348181],[-74.462561,39.348072],[-74.463444,39.348923],[-74.462914,39.348154],[-74.463162,39.348099],[-74.463763,39.348511],[-74.46341,39.34744],[-74.464187,39.348045],[-74.463905,39.347495],[-74.464682,39.348045],[-74.465248,39.3481],[-74.465071,39.347688],[-74.465566,39.347963],[-74.465814,39.347688],[-74.465567,39.347771],[-74.465355,39.346864],[-74.46585,39.347359],[-74.465956,39.347276],[-74.465426,39.346398],[-74.466027,39.346892],[-74.46638,39.34681],[-74.466239,39.346425],[-74.466875,39.346837],[-74.466522,39.345876],[-74.476539,39.358296],[-74.479019,39.358539],[-74.481241,39.358305],[-74.481926,39.35805],[-74.489385,39.353176],[-74.490866,39.352985],[-74.492072,39.353155],[-74.494786,39.354369],[-74.501398,39.358618],[-74.492581,39.365072],[-74.492194,39.366679],[-74.492286,39.368192],[-74.492899,39.370338],[-74.492718,39.371899],[-74.492341,39.372483],[-74.490192,39.373961],[-74.488486,39.375656],[-74.487739,39.377456],[-74.485435,39.376577],[-74.485328,39.376467],[-74.485187,39.376467],[-74.484586,39.376137],[-74.484232,39.375863],[-74.484161,39.37589],[-74.482994,39.374957],[-74.483277,39.37449],[-74.482676,39.373748],[-74.481968,39.373556],[-74.482676,39.373968],[-74.482463,39.374572],[-74.481084,39.373556],[-74.481155,39.373364],[-74.480907,39.373391],[-74.478502,39.371524],[-74.478927,39.371798],[-74.479563,39.371744],[-74.479952,39.372128],[-74.480059,39.371826],[-74.479705,39.371551],[-74.478502,39.370673],[-74.477865,39.371084],[-74.475425,39.369134],[-74.477371,39.368805],[-74.479069,39.367954],[-74.479847,39.367872],[-74.480378,39.36746],[-74.479812,39.366856],[-74.479282,39.366774],[-74.478716,39.365868],[-74.478291,39.36617],[-74.478115,39.365428],[-74.477514,39.365456],[-74.476806,39.365126],[-74.475958,39.364302],[-74.47525,39.363973],[-74.474472,39.36411],[-74.473411,39.363148],[-74.473977,39.363972],[-74.472103,39.362764],[-74.472209,39.363148],[-74.470829,39.363999],[-74.469555,39.364163],[-74.469449,39.364575],[-74.469838,39.364795],[-74.469803,39.364932],[-74.468989,39.364163],[-74.467929,39.363531],[-74.46708,39.3629],[-74.46708,39.36279],[-74.466444,39.36246],[-74.466196,39.362268],[-74.466267,39.362131],[-74.465312,39.361499],[-74.463155,39.360757],[-74.462801,39.360812],[-74.462412,39.360619],[-74.46213,39.360372],[-74.462589,39.361004],[-74.46128,39.360921],[-74.461104,39.360646],[-74.46075,39.360838],[-74.462094,39.361278],[-74.462589,39.361114],[-74.462907,39.361443],[-74.463296,39.361361],[-74.462978,39.361114],[-74.463296,39.361141],[-74.465807,39.361993],[-74.468105,39.363861],[-74.467857,39.364575],[-74.469095,39.365179],[-74.46959,39.365042],[-74.469873,39.365344],[-74.469944,39.366113],[-74.470793,39.366031],[-74.471182,39.366278],[-74.47157,39.367953],[-74.472136,39.3682],[-74.473445,39.368008],[-74.476628,39.370398],[-74.475991,39.370617],[-74.476451,39.370974],[-74.475708,39.370864],[-74.475601,39.371249],[-74.474399,39.371084],[-74.474682,39.371386],[-74.474257,39.371331],[-74.474363,39.371523],[-74.473903,39.371468],[-74.473939,39.371111],[-74.473691,39.371331],[-74.473691,39.370891],[-74.47316,39.371934],[-74.474009,39.372813],[-74.475212,39.372182],[-74.475778,39.372759],[-74.477618,39.371524],[-74.478148,39.371963],[-74.478431,39.371743],[-74.479917,39.372869],[-74.480022,39.374187],[-74.478713,39.37556],[-74.467925,39.37067],[-74.462161,39.367758],[-74.45629,39.366603],[-74.447307,39.363963],[-74.446458,39.364155],[-74.44713,39.364622],[-74.450136,39.365227],[-74.455724,39.366795],[-74.460675,39.36773],[-74.460251,39.367785],[-74.456077,39.367069],[-74.456219,39.367015],[-74.455688,39.366905],[-74.455441,39.366932],[-74.455299,39.366904],[-74.455193,39.366795],[-74.455087,39.366849],[-74.455016,39.366767],[-74.454875,39.366794],[-74.453884,39.366519],[-74.45392,39.366465],[-74.453708,39.36641],[-74.453566,39.366437],[-74.452328,39.36608],[-74.45254,39.366272],[-74.451798,39.366272],[-74.452257,39.366409],[-74.452222,39.366574],[-74.450524,39.366189],[-74.450383,39.366463],[-74.448897,39.366325],[-74.454273,39.367343],[-74.454131,39.367645],[-74.452928,39.368002],[-74.453706,39.368167],[-74.454591,39.367948],[-74.454379,39.367343],[-74.45491,39.367481],[-74.454945,39.367673],[-74.455299,39.367481],[-74.457668,39.367894],[-74.455299,39.367426],[-74.454981,39.367261],[-74.455122,39.367124],[-74.462231,39.368444],[-74.46262,39.368747],[-74.461877,39.368609],[-74.461665,39.368691],[-74.464353,39.369708],[-74.470436,39.373966],[-74.470789,39.374076],[-74.475988,39.377564],[-74.475918,39.377674],[-74.476095,39.377646],[-74.476094,39.377783],[-74.476413,39.377976],[-74.476554,39.377948],[-74.47659,39.378113],[-74.476837,39.37825],[-74.476943,39.378223],[-74.479349,39.379898],[-74.479278,39.379679],[-74.47903,39.379624],[-74.479066,39.379514],[-74.47896,39.379569],[-74.47896,39.379459],[-74.478747,39.379294],[-74.478464,39.379239],[-74.478464,39.379102],[-74.478217,39.379074],[-74.478111,39.378882],[-74.477934,39.378882],[-74.478005,39.378827],[-74.477898,39.378745],[-74.477651,39.37869],[-74.475988,39.377509],[-74.474927,39.37685],[-74.474468,39.376355],[-74.474255,39.376328],[-74.473866,39.376108],[-74.470931,39.373966],[-74.470683,39.373938],[-74.467783,39.371961],[-74.467642,39.371768],[-74.467217,39.371576],[-74.467253,39.371384],[-74.467076,39.371466],[-74.466192,39.370862],[-74.466121,39.370697],[-74.466015,39.370615],[-74.46598,39.370615],[-74.46598,39.37067],[-74.465944,39.37067],[-74.465944,39.37056],[-74.46552,39.37023],[-74.465308,39.370203],[-74.465273,39.370065],[-74.464919,39.369791],[-74.464813,39.369818],[-74.464035,39.369131],[-74.478465,39.375807],[-74.478324,39.376438],[-74.47896,39.377152],[-74.481578,39.377373],[-74.479561,39.378361],[-74.477969,39.37847],[-74.475493,39.377069],[-74.477439,39.37847],[-74.478252,39.378745],[-74.479915,39.378635],[-74.481861,39.377427],[-74.486035,39.379213],[-74.48582,39.379503],[-74.485959,39.380343],[-74.487012,39.381786],[-74.487156,39.382427],[-74.486524,39.383427],[-74.486506,39.384157],[-74.48681,39.384647],[-74.488321,39.385193],[-74.488731,39.385675],[-74.488263,39.385912],[-74.487874,39.385528],[-74.487237,39.385198],[-74.487237,39.385089],[-74.48706,39.384979],[-74.48699,39.384979],[-74.48699,39.385006],[-74.486919,39.385006],[-74.486636,39.384814],[-74.487803,39.385638],[-74.487768,39.38572],[-74.488206,39.385967],[-74.487262,39.386015],[-74.486472,39.386487],[-74.486528,39.38803],[-74.487465,39.388803],[-74.489834,39.389174],[-74.490836,39.389784],[-74.490329,39.390934],[-74.489076,39.391925],[-74.488866,39.392451]],[[-74.41731,39.366197],[-74.417416,39.366225],[-74.417416,39.366197],[-74.41731,39.366197]],[[-74.419223,39.363673],[-74.419258,39.3637],[-74.419258,39.363673],[-74.419223,39.363673]],[[-74.432807,39.361951],[-74.432842,39.361979],[-74.432842,39.361951],[-74.432807,39.361951]],[[-74.436734,39.360828],[-74.436769,39.360855],[-74.436769,39.360828],[-74.436734,39.360828]],[[-74.439351,39.360747],[-74.439387,39.360774],[-74.439387,39.360747],[-74.439351,39.360747]],[[-74.455415,39.351639],[-74.455556,39.351748],[-74.455698,39.351639],[-74.455415,39.351639]],[[-74.460191,39.348895],[-74.460085,39.348895],[-74.460085,39.348922],[-74.460191,39.348895]],[[-74.464258,39.348045],[-74.464293,39.348072],[-74.464293,39.348045],[-74.464258,39.348045]],[[-74.466875,39.346837],[-74.466911,39.34692],[-74.466911,39.346837],[-74.466875,39.346837]],[[-74.487026,39.377181],[-74.487062,39.377154],[-74.487026,39.377154],[-74.487026,39.377181]],[[-74.486956,39.377154],[-74.486991,39.377126],[-74.486956,39.377126],[-74.486956,39.377154]],[[-74.486743,39.377071],[-74.486779,39.377044],[-74.486743,39.377044],[-74.486743,39.377071]],[[-74.485081,39.376385],[-74.485116,39.376357],[-74.485081,39.376357],[-74.485081,39.376385]],[[-74.48119,39.373419],[-74.481296,39.373446],[-74.481296,39.373419],[-74.48119,39.373419]],[[-74.481296,39.373474],[-74.481508,39.373529],[-74.481615,39.373529],[-74.481615,39.373474],[-74.481296,39.373474]],[[-74.480907,39.373281],[-74.480872,39.373254],[-74.480872,39.373281],[-74.480907,39.373281]],[[-74.480872,39.373254],[-74.480836,39.373226],[-74.480836,39.373254],[-74.480872,39.373254]],[[-74.480836,39.373226],[-74.480801,39.373199],[-74.480801,39.373226],[-74.480836,39.373226]],[[-74.478681,39.365868],[-74.478645,39.36584],[-74.478645,39.365868],[-74.478681,39.365868]],[[-74.478645,39.36584],[-74.47861,39.365813],[-74.47861,39.36584],[-74.478645,39.36584]],[[-74.472103,39.362736],[-74.47136,39.362159],[-74.471254,39.362407],[-74.470723,39.362324],[-74.470405,39.362544],[-74.470829,39.362599],[-74.47044,39.362818],[-74.470511,39.36301],[-74.471537,39.362516],[-74.472103,39.362736]],[[-74.470794,39.362324],[-74.47083,39.362297],[-74.470794,39.362297],[-74.470794,39.362324]],[[-74.471112,39.362791],[-74.471148,39.362818],[-74.471148,39.362791],[-74.471112,39.362791]],[[-74.467328,39.363037],[-74.467363,39.36301],[-74.467328,39.36301],[-74.467328,39.363037]],[[-74.467257,39.362982],[-74.467292,39.362955],[-74.467257,39.362955],[-74.467257,39.362982]],[[-74.466408,39.362405],[-74.466444,39.36235],[-74.466408,39.36235],[-74.466408,39.362405]],[[-74.466302,39.362323],[-74.466338,39.362268],[-74.466302,39.362268],[-74.466302,39.362323]],[[-74.466267,39.362158],[-74.466302,39.362186],[-74.466302,39.362158],[-74.466267,39.362158]],[[-74.466302,39.362186],[-74.466338,39.362213],[-74.466338,39.362186],[-74.466302,39.362186]],[[-74.466338,39.362213],[-74.466373,39.362241],[-74.466373,39.362213],[-74.466338,39.362213]],[[-74.466373,39.362241],[-74.466408,39.362268],[-74.466408,39.362241],[-74.466373,39.362241]],[[-74.466408,39.362268],[-74.466444,39.362295],[-74.466444,39.362268],[-74.466408,39.362268]],[[-74.466444,39.362295],[-74.466479,39.362323],[-74.466479,39.362295],[-74.466444,39.362295]],[[-74.462271,39.360482],[-74.462306,39.360455],[-74.462271,39.360455],[-74.462271,39.360482]],[[-74.462023,39.360372],[-74.461988,39.360345],[-74.461988,39.360372],[-74.462023,39.360372]],[[-74.461988,39.360345],[-74.461953,39.360317],[-74.461953,39.360345],[-74.461988,39.360345]],[[-74.461104,39.360646],[-74.461174,39.360619],[-74.461104,39.360619],[-74.461104,39.360646]],[[-74.461174,39.360619],[-74.46121,39.360591],[-74.461174,39.360591],[-74.461174,39.360619]],[[-74.473762,39.370864],[-74.473797,39.370836],[-74.473762,39.370836],[-74.473762,39.370864]],[[-74.473797,39.370836],[-74.473833,39.370809],[-74.473797,39.370809],[-74.473797,39.370836]],[[-74.473833,39.370809],[-74.473868,39.370781],[-74.473833,39.370781],[-74.473833,39.370809]],[[-74.475424,39.372539],[-74.475353,39.372566],[-74.475424,39.372566],[-74.475424,39.372539]],[[-74.458129,39.3674],[-74.458164,39.367372],[-74.458129,39.367372],[-74.458129,39.3674]],[[-74.457386,39.367262],[-74.457351,39.367235],[-74.45735,39.367262],[-74.457386,39.367262]],[[-74.45728,39.367262],[-74.457315,39.367235],[-74.45728,39.367235],[-74.45728,39.367262]],[[-74.455547,39.366905],[-74.455511,39.366877],[-74.455511,39.366905],[-74.455547,39.366905]],[[-74.454945,39.366767],[-74.45491,39.36674],[-74.45491,39.366767],[-74.454945,39.366767]],[[-74.454663,39.366712],[-74.454733,39.366685],[-74.454663,39.366685],[-74.454663,39.366712]],[[-74.454273,39.366602],[-74.454309,39.366575],[-74.454274,39.366575],[-74.454273,39.366602]],[[-74.45346,39.366382],[-74.453495,39.366355],[-74.45346,39.366355],[-74.45346,39.366382]],[[-74.453283,39.366327],[-74.453319,39.3663],[-74.453283,39.3663],[-74.453283,39.366327]],[[-74.452222,39.366079],[-74.452116,39.366052],[-74.452116,39.366079],[-74.452222,39.366079]],[[-74.452116,39.366052],[-74.45201,39.366024],[-74.45201,39.366052],[-74.452116,39.366052]],[[-74.451904,39.366024],[-74.451727,39.365915],[-74.451621,39.365915],[-74.451904,39.366024]],[[-74.451621,39.365915],[-74.451515,39.365887],[-74.451515,39.365914],[-74.451621,39.365915]],[[-74.451515,39.365887],[-74.451409,39.36586],[-74.451409,39.365887],[-74.451515,39.365887]],[[-74.451409,39.36586],[-74.451303,39.365832],[-74.451303,39.365859],[-74.451409,39.36586]],[[-74.451303,39.365832],[-74.451197,39.365805],[-74.451197,39.365832],[-74.451303,39.365832]],[[-74.451091,39.365804],[-74.451126,39.365722],[-74.45102,39.36575],[-74.450914,39.365722],[-74.451091,39.365804]],[[-74.451091,39.365722],[-74.451055,39.365695],[-74.451055,39.365722],[-74.451091,39.365722]],[[-74.450914,39.365722],[-74.450808,39.365695],[-74.450808,39.365722],[-74.450914,39.365722]],[[-74.450914,39.365695],[-74.450985,39.365667],[-74.450914,39.365667],[-74.450914,39.365695]],[[-74.450914,39.365667],[-74.450843,39.36564],[-74.450843,39.365667],[-74.450914,39.365667]],[[-74.450808,39.365695],[-74.450702,39.365667],[-74.450702,39.365694],[-74.450808,39.365695]],[[-74.450702,39.36564],[-74.450383,39.365502],[-74.449994,39.365475],[-74.450242,39.365639],[-74.450702,39.36564]],[[-74.449994,39.365447],[-74.448367,39.365007],[-74.445927,39.364622],[-74.447695,39.365254],[-74.448933,39.365502],[-74.448579,39.365282],[-74.448863,39.365227],[-74.449853,39.365502],[-74.449994,39.365447]],[[-74.448756,39.366325],[-74.448756,39.366243],[-74.448614,39.36627],[-74.448756,39.366325]],[[-74.473371,39.375861],[-74.473336,39.375888],[-74.473371,39.375888],[-74.473371,39.375861]],[[-74.473972,39.376273],[-74.473937,39.3763],[-74.473972,39.3763],[-74.473972,39.376273]],[[-74.47521,39.377069],[-74.475139,39.377097],[-74.47521,39.377124],[-74.47521,39.377069]],[[-74.475281,39.377124],[-74.475246,39.377179],[-74.475281,39.377179],[-74.475281,39.377124]],[[-74.475493,39.377262],[-74.475458,39.377289],[-74.475493,39.377289],[-74.475493,39.377262]],[[-74.475741,39.377426],[-74.475705,39.377454],[-74.475741,39.377454],[-74.475741,39.377426]],[[-74.475812,39.377481],[-74.475741,39.377509],[-74.475812,39.377509],[-74.475812,39.377481]],[[-74.475918,39.377564],[-74.475847,39.377619],[-74.475918,39.377591],[-74.475918,39.377564]],[[-74.477226,39.378443],[-74.477156,39.378497],[-74.477226,39.378497],[-74.477226,39.378443]],[[-74.477828,39.378855],[-74.477792,39.378882],[-74.477828,39.378882],[-74.477828,39.378855]],[[-74.47949,39.379898],[-74.479632,39.38009],[-74.479702,39.38009],[-74.47949,39.379898]],[[-74.479702,39.380118],[-74.479915,39.380283],[-74.479985,39.380283],[-74.479844,39.380173],[-74.479879,39.380063],[-74.479702,39.380118]],[[-74.479985,39.380283],[-74.480021,39.38031],[-74.480021,39.380283],[-74.479985,39.380283]],[[-74.480021,39.38031],[-74.480056,39.380338],[-74.480056,39.38031],[-74.480021,39.38031]],[[-74.480127,39.380338],[-74.480198,39.380475],[-74.480268,39.380475],[-74.480127,39.380338]],[[-74.480268,39.380475],[-74.480304,39.380502],[-74.480304,39.380475],[-74.480268,39.380475]],[[-74.480304,39.380502],[-74.480339,39.38053],[-74.480339,39.380502],[-74.480304,39.380502]],[[-74.48041,39.38053],[-74.480516,39.380695],[-74.480587,39.380695],[-74.48041,39.38053]],[[-74.480587,39.380722],[-74.481082,39.381079],[-74.481153,39.381079],[-74.480976,39.380859],[-74.480587,39.380722]],[[-74.481153,39.381079],[-74.481683,39.381491],[-74.481754,39.381491],[-74.481294,39.381162],[-74.481294,39.381052],[-74.481153,39.381079]],[[-74.481754,39.381519],[-74.481966,39.381683],[-74.482037,39.381683],[-74.48186,39.381546],[-74.48186,39.381464],[-74.481754,39.381519]],[[-74.482037,39.381711],[-74.482285,39.381903],[-74.482355,39.381903],[-74.482249,39.381711],[-74.482037,39.381711]],[[-74.482355,39.38193],[-74.482532,39.382068],[-74.482603,39.382068],[-74.482461,39.381848],[-74.482355,39.38193]],[[-74.482603,39.382068],[-74.482638,39.382095],[-74.482638,39.382068],[-74.482603,39.382068]],[[-74.482638,39.382095],[-74.482674,39.382123],[-74.482674,39.382095],[-74.482638,39.382095]],[[-74.482674,39.38215],[-74.482851,39.38226],[-74.482992,39.382233],[-74.482921,39.38215],[-74.482674,39.38215]],[[-74.482886,39.38226],[-74.482921,39.382287],[-74.482921,39.38226],[-74.482886,39.38226]],[[-74.482921,39.382287],[-74.482957,39.382315],[-74.482957,39.382287],[-74.482921,39.382287]],[[-74.482992,39.382233],[-74.483063,39.382288],[-74.483063,39.382233],[-74.482992,39.382233]],[[-74.482426,39.381848],[-74.482355,39.381793],[-74.482355,39.381848],[-74.482426,39.381848]],[[-74.482108,39.381683],[-74.482143,39.381628],[-74.482072,39.381628],[-74.482108,39.381683]],[[-74.481931,39.381573],[-74.481966,39.381546],[-74.481931,39.381546],[-74.481931,39.381573]],[[-74.481719,39.381436],[-74.481789,39.381409],[-74.481719,39.381409],[-74.481719,39.381436]],[[-74.481648,39.381381],[-74.481683,39.381326],[-74.481648,39.381326],[-74.481648,39.381381]],[[-74.481648,39.381326],[-74.481613,39.381299],[-74.481613,39.381326],[-74.481648,39.381326]],[[-74.481365,39.381189],[-74.4814,39.381162],[-74.481365,39.381162],[-74.481365,39.381189]],[[-74.480693,39.380722],[-74.480728,39.380667],[-74.480693,39.380667],[-74.480693,39.380722]],[[-74.480481,39.380585],[-74.480516,39.38053],[-74.480481,39.38053],[-74.480481,39.380585]],[[-74.480339,39.380475],[-74.48041,39.38042],[-74.480374,39.38042],[-74.480339,39.380475]],[[-74.480198,39.380393],[-74.480233,39.380365],[-74.480198,39.380365],[-74.480198,39.380393]],[[-74.479915,39.380145],[-74.47995,39.380173],[-74.47995,39.380145],[-74.479915,39.380145]],[[-74.47995,39.380173],[-74.479985,39.3802],[-74.479985,39.380173],[-74.47995,39.380173]],[[-74.480056,39.3802],[-74.480021,39.380255],[-74.480091,39.380255],[-74.480056,39.3802]],[[-74.480091,39.380255],[-74.480127,39.38031],[-74.480127,39.380255],[-74.480091,39.380255]],[[-74.478358,39.379074],[-74.478323,39.379047],[-74.478323,39.379074],[-74.478358,39.379074]],[[-74.478323,39.379047],[-74.478252,39.378992],[-74.478252,39.379047],[-74.478323,39.379047]],[[-74.474255,39.3763],[-74.474291,39.376245],[-74.474255,39.376245],[-74.474255,39.3763]],[[-74.473619,39.375916],[-74.473654,39.375888],[-74.473619,39.375888],[-74.473619,39.375916]],[[-74.467925,39.372016],[-74.46796,39.371961],[-74.467925,39.371961],[-74.467925,39.372016]],[[-74.467854,39.371961],[-74.467889,39.371933],[-74.467854,39.371933],[-74.467854,39.371961]],[[-74.467854,39.371933],[-74.467819,39.371906],[-74.467819,39.371933],[-74.467854,39.371933]],[[-74.467819,39.371906],[-74.467783,39.371878],[-74.467783,39.371906],[-74.467819,39.371906]],[[-74.465343,39.370148],[-74.465308,39.37012],[-74.465308,39.370148],[-74.465343,39.370148]],[[-74.464742,39.369736],[-74.464778,39.369708],[-74.464742,39.369708],[-74.464742,39.369736]],[[-74.464671,39.369681],[-74.464707,39.369653],[-74.464671,39.369653],[-74.464671,39.369681]],[[-74.464601,39.369626],[-74.464636,39.369598],[-74.464601,39.369598],[-74.464601,39.369626]],[[-74.475493,39.377069],[-74.475458,39.377042],[-74.475458,39.377069],[-74.475493,39.377069]],[[-74.475387,39.377042],[-74.475423,39.376987],[-74.475352,39.376987],[-74.475387,39.377042]],[[-74.475352,39.376987],[-74.475316,39.37696],[-74.475316,39.376987],[-74.475352,39.376987]],[[-74.487343,39.385253],[-74.487379,39.385226],[-74.487343,39.385226],[-74.487343,39.385253]],[[-74.48699,39.384979],[-74.486954,39.384951],[-74.486954,39.384979],[-74.48699,39.384979]],[[-74.486954,39.384951],[-74.486919,39.384924],[-74.486919,39.384951],[-74.486954,39.384951]],[[-74.486636,39.384787],[-74.48653,39.384649],[-74.486494,39.384649],[-74.486494,39.384677],[-74.486459,39.384677],[-74.486388,39.384649],[-74.486636,39.384787]],[[-74.486388,39.384649],[-74.486353,39.384622],[-74.486353,39.384649],[-74.486388,39.384649]],[[-74.486353,39.384594],[-74.486424,39.384539],[-74.486317,39.384539],[-74.486317,39.384567],[-74.486282,39.384567],[-74.48607,39.38443],[-74.486282,39.384622],[-74.486353,39.384594]],[[-74.486247,39.384512],[-74.486282,39.384484],[-74.486247,39.384484],[-74.486247,39.384512]],[[-74.486176,39.384457],[-74.486247,39.38443],[-74.486176,39.38443],[-74.486176,39.384457]],[[-74.485999,39.38443],[-74.485964,39.384347],[-74.485893,39.384265],[-74.485822,39.384265],[-74.485999,39.38443]],[[-74.485964,39.38432],[-74.485999,39.384292],[-74.485964,39.384292],[-74.485964,39.38432]],[[-74.485822,39.384265],[-74.485787,39.384237],[-74.485787,39.384265],[-74.485822,39.384265]],[[-74.485787,39.38421],[-74.485716,39.384073],[-74.485539,39.384073],[-74.485681,39.384265],[-74.485787,39.38421]],[[-74.485539,39.384073],[-74.485504,39.384045],[-74.485504,39.384073],[-74.485539,39.384073]],[[-74.485504,39.384045],[-74.485468,39.384018],[-74.485468,39.384045],[-74.485504,39.384045]],[[-74.485398,39.384018],[-74.485327,39.38388],[-74.485256,39.38388],[-74.485398,39.384018]],[[-74.485256,39.38388],[-74.485221,39.383853],[-74.485221,39.38388],[-74.485256,39.38388]],[[-74.485221,39.383853],[-74.485185,39.383825],[-74.485185,39.383853],[-74.485221,39.383853]],[[-74.485115,39.383825],[-74.485079,39.383716],[-74.485008,39.383716],[-74.485115,39.383825]],[[-74.485008,39.383716],[-74.484973,39.383688],[-74.484973,39.383716],[-74.485008,39.383716]],[[-74.484973,39.383688],[-74.484938,39.383661],[-74.484938,39.383688],[-74.484973,39.383688]],[[-74.484938,39.383661],[-74.484902,39.383633],[-74.484902,39.383661],[-74.484938,39.383661]],[[-74.484902,39.383633],[-74.484867,39.383606],[-74.484867,39.383633],[-74.484902,39.383633]],[[-74.484796,39.383606],[-74.484938,39.383551],[-74.484832,39.383496],[-74.484725,39.383523],[-74.484796,39.383606]],[[-74.484725,39.383523],[-74.48469,39.383496],[-74.48469,39.383523],[-74.484725,39.383523]],[[-74.48469,39.383496],[-74.484655,39.383468],[-74.484655,39.383496],[-74.48469,39.383496]],[[-74.484655,39.383468],[-74.484619,39.383441],[-74.484619,39.383468],[-74.484655,39.383468]],[[-74.484619,39.383441],[-74.484584,39.383413],[-74.484584,39.383441],[-74.484619,39.383441]],[[-74.484513,39.383413],[-74.484549,39.383359],[-74.484478,39.383359],[-74.484513,39.383413]],[[-74.484584,39.383386],[-74.484655,39.383359],[-74.484584,39.383359],[-74.484584,39.383386]],[[-74.484725,39.383359],[-74.484725,39.383468],[-74.484796,39.383468],[-74.484725,39.383359]],[[-74.484478,39.383359],[-74.484442,39.383331],[-74.484442,39.383359],[-74.484478,39.383359]],[[-74.484442,39.383331],[-74.484407,39.383304],[-74.484407,39.383331],[-74.484442,39.383331]],[[-74.484407,39.383304],[-74.484372,39.383276],[-74.484372,39.383304],[-74.484407,39.383304]],[[-74.484372,39.383276],[-74.484336,39.383249],[-74.484336,39.383276],[-74.484372,39.383276]],[[-74.486105,39.384484],[-74.486034,39.384539],[-74.486105,39.384539],[-74.486105,39.384484]],[[-74.486034,39.384484],[-74.485999,39.384457],[-74.485999,39.384484],[-74.486034,39.384484]],[[-74.486777,39.384951],[-74.486742,39.384979],[-74.486777,39.384979],[-74.486777,39.384951]],[[-74.487166,39.385226],[-74.487131,39.385253],[-74.487166,39.385253],[-74.487166,39.385226]],[[-74.489076,39.391925],[-74.489041,39.391898],[-74.489041,39.391925],[-74.489076,39.391925]]],[[[-74.44944,39.349177],[-74.449475,39.34922],[-74.449366,39.34922],[-74.44944,39.349177]]],[[[-74.447069,39.351333],[-74.447246,39.350619],[-74.449227,39.350071],[-74.449404,39.350373],[-74.449121,39.350565],[-74.449651,39.351334],[-74.448803,39.350455],[-74.448343,39.350702],[-74.448413,39.351141],[-74.447564,39.351443],[-74.447705,39.351745],[-74.447069,39.351333]]],[[[-74.43384,39.35377],[-74.433104,39.352752],[-74.43375,39.352493],[-74.434689,39.353908],[-74.434088,39.353962],[-74.434053,39.353715],[-74.43384,39.35377]]],[[[-74.43978,39.355832],[-74.439073,39.355612],[-74.439498,39.355256],[-74.439145,39.354212],[-74.439888,39.354103],[-74.44003,39.353444],[-74.440419,39.353471],[-74.440171,39.353059],[-74.440773,39.35295],[-74.440631,39.353389],[-74.441443,39.354653],[-74.441903,39.354433],[-74.440949,39.353279],[-74.441445,39.35317],[-74.442151,39.354351],[-74.442717,39.354159],[-74.442187,39.353445],[-74.442611,39.35328],[-74.442294,39.352649],[-74.442859,39.352896],[-74.443424,39.353857],[-74.44392,39.353693],[-74.44353,39.354022],[-74.443707,39.354379],[-74.443247,39.354132],[-74.442292,39.354516],[-74.442539,39.355038],[-74.441974,39.354653],[-74.441125,39.354982],[-74.441054,39.355339],[-74.440842,39.355146],[-74.440205,39.355256],[-74.43978,39.35553],[-74.43978,39.355832]]],[[[-74.427237,39.355551],[-74.427982,39.355148],[-74.428294,39.355332],[-74.427791,39.355386],[-74.427237,39.355551]]],[[[-74.427184,39.355578],[-74.42719,39.355575],[-74.42719,39.355578],[-74.427184,39.355578]]],[[[-74.42713,39.355605],[-74.427154,39.355593],[-74.427154,39.355605],[-74.42713,39.355605]]],[[[-74.427083,39.35563],[-74.427083,39.355633],[-74.427077,39.355633],[-74.427083,39.35563]]],[[[-74.426977,39.355685],[-74.426977,39.355688],[-74.426971,39.355688],[-74.426977,39.355685]]],[[[-74.426914,39.355715],[-74.426942,39.355702],[-74.426942,39.355715],[-74.426914,39.355715]]],[[[-74.426856,39.355743],[-74.426871,39.355735],[-74.426871,39.355743],[-74.426856,39.355743]]],[[[-74.4268,39.35577],[-74.426797,39.35577],[-74.4268,39.355769],[-74.4268,39.35577]]],[[[-74.434227,39.356269],[-74.434828,39.356077],[-74.434085,39.356571],[-74.434474,39.357257],[-74.434261,39.357312],[-74.433802,39.35679],[-74.433484,39.356872],[-74.433625,39.357037],[-74.433059,39.357449],[-74.433271,39.357888],[-74.432317,39.356954],[-74.431573,39.35731],[-74.431961,39.358464],[-74.430478,39.356623],[-74.430478,39.356294],[-74.431044,39.35613],[-74.431009,39.35591],[-74.431433,39.356047],[-74.431504,39.355883],[-74.431574,39.356295],[-74.431928,39.356212],[-74.431822,39.356487],[-74.432423,39.356432],[-74.432989,39.356652],[-74.433449,39.356488],[-74.433555,39.356241],[-74.433167,39.355527],[-74.434794,39.355226],[-74.43529,39.354649],[-74.435572,39.355254],[-74.435041,39.355693],[-74.435253,39.356077],[-74.435041,39.356104],[-74.434864,39.355775],[-74.433732,39.355994],[-74.434722,39.355939],[-74.434227,39.356269]],[[-74.431822,39.356487],[-74.431786,39.356514],[-74.431822,39.356514],[-74.431822,39.356487]],[[-74.434227,39.356269],[-74.434192,39.356296],[-74.434227,39.356296],[-74.434227,39.356269]]],[[[-74.430334,39.358765],[-74.429063,39.356705],[-74.428674,39.35676],[-74.42878,39.356485],[-74.428321,39.356183],[-74.428887,39.356211],[-74.428851,39.356018],[-74.429488,39.355909],[-74.429382,39.356211],[-74.429877,39.356376],[-74.429594,39.356568],[-74.429734,39.357227],[-74.430758,39.358903],[-74.430334,39.358765]]],[[[-74.425878,39.358927],[-74.425277,39.358185],[-74.425029,39.35824],[-74.425029,39.358679],[-74.424358,39.357855],[-74.424217,39.357443],[-74.4245,39.356949],[-74.424995,39.357169],[-74.425878,39.358927]]],[[[-74.427999,39.359725],[-74.426021,39.35728],[-74.427044,39.359175],[-74.425949,39.358048],[-74.42542,39.357142],[-74.425703,39.356675],[-74.426127,39.356868],[-74.42641,39.356648],[-74.426587,39.356813],[-74.42641,39.357198],[-74.426799,39.35728],[-74.426692,39.357527],[-74.427577,39.35761],[-74.427541,39.357857],[-74.427294,39.357665],[-74.426975,39.357912],[-74.427999,39.359725]]],[[[-74.424685,39.356126],[-74.419866,39.357935],[-74.419406,39.358456],[-74.419123,39.358373],[-74.417778,39.359361],[-74.41569,39.360348],[-74.41523,39.360347],[-74.415123,39.360677],[-74.414164,39.361033],[-74.414926,39.360428],[-74.414738,39.360141],[-74.41532,39.359907],[-74.415421,39.360053],[-74.418267,39.358683],[-74.419088,39.358031],[-74.417962,39.356358],[-74.418441,39.356169],[-74.419504,39.357753],[-74.423468,39.356355],[-74.423876,39.355819],[-74.424357,39.355639],[-74.424685,39.356126]]],[[[-74.424356,39.359173],[-74.423507,39.359502],[-74.423719,39.360271],[-74.423259,39.360353],[-74.423012,39.3592],[-74.422376,39.359282],[-74.421881,39.358897],[-74.421421,39.359034],[-74.421845,39.359693],[-74.422375,39.359639],[-74.42234,39.359968],[-74.422057,39.360023],[-74.422233,39.360407],[-74.422551,39.360462],[-74.422268,39.360929],[-74.421526,39.360379],[-74.421208,39.359363],[-74.420784,39.358951],[-74.421139,39.35843],[-74.420714,39.358402],[-74.421245,39.3581],[-74.421811,39.35821],[-74.421493,39.357908],[-74.422342,39.357607],[-74.422979,39.357525],[-74.422979,39.35769],[-74.422625,39.357744],[-74.422342,39.357881],[-74.422306,39.357991],[-74.423191,39.35769],[-74.423403,39.35736],[-74.424004,39.35758],[-74.424004,39.358267],[-74.424922,39.359723],[-74.424356,39.359173]],[[-74.424074,39.359145],[-74.424286,39.359063],[-74.424038,39.358843],[-74.424074,39.359145]]],[[[-74.414062,39.361085],[-74.414062,39.361088],[-74.414055,39.361088],[-74.414062,39.361085]]],[[[-74.413991,39.361115],[-74.413991,39.361115],[-74.413991,39.361115],[-74.413991,39.361115]]],[[[-74.413814,39.361198],[-74.413783,39.361198],[-74.413814,39.361186],[-74.413814,39.361198]]],[[[-74.413683,39.361235],[-74.413708,39.361252],[-74.413611,39.361252],[-74.413683,39.361235]]],[[[-74.416961,39.362271],[-74.415512,39.361199],[-74.415795,39.360595],[-74.416891,39.361721],[-74.416961,39.362271]]],[[[-74.44865,39.365392],[-74.448686,39.365364],[-74.448686,39.365392],[-74.44865,39.365392]]],[[[-74.449782,39.36542],[-74.449747,39.365447],[-74.449747,39.365419],[-74.449782,39.36542]]],[[[-74.449888,39.365447],[-74.449853,39.365474],[-74.449853,39.365447],[-74.449888,39.365447]]],[[[-74.452647,39.366244],[-74.452611,39.366272],[-74.452611,39.366244],[-74.452647,39.366244]]],[[[-74.452965,39.366354],[-74.453,39.366382],[-74.452965,39.366382],[-74.452965,39.366354]]],[[[-74.453036,39.366354],[-74.453248,39.366437],[-74.453071,39.366437],[-74.453036,39.366354]]],[[[-74.453319,39.366492],[-74.453354,39.366437],[-74.453389,39.366492],[-74.453319,39.366492]]],[[[-74.453637,39.366629],[-74.453425,39.366464],[-74.453672,39.366519],[-74.453637,39.366629]],[[-74.453601,39.366574],[-74.453566,39.366547],[-74.453566,39.366574],[-74.453601,39.366574]]]]}}]}