{"type":"FeatureCollection","features":[{"type":"Feature","properties":{"level_ft":19},"geometry":{"type":"MultiPolygon","coordinates":[[[[-74.280914,40.496219],[-74.280878,40.496246],[-74.280878,40.496219],[-74.280914,40.496219]]],[[[-74.276319,40.50461],[-74.276355,40.504583],[-74.276355,40.50461],[-74.276319,40.50461]]],[[[-74.275924,40.504609],[-74.275888,40.504637],[-74.275888,40.504609],[-74.275924,40.504609]]],[[[-74.276283,40.504665],[-74.276319,40.504638],[-74.276319,40.504665],[-74.276283,40.504665]]],[[[-74.275632,40.505679],[-74.275668,40.505707],[-74.275632,40.505707],[-74.275632,40.505679]]],[[[-74.275668,40.505707],[-74.275704,40.505734],[-74.275668,40.505734],[-74.275668,40.505707]]],[[[-74.275668,40.505817],[-74.275632,40.505789],[-74.275668,40.505789],[-74.275668,40.505817]]],[[[-74.29125,40.512077],[-74.291198,40.512571],[-74.291183,40.512571],[-74.291112,40.512297],[-74.29125,40.512077]]],[[[-74.291036,40.513806],[-74.291117,40.51334],[-74.291068,40.513806],[-74.291036,40.513806]]],[[[-74.275632,40.505734],[-74.275596,40.505789],[-74.275596,40.505734],[-74.275632,40.505734]]],[[[-74.275416,40.505816],[-74.275452,40.505761],[-74.275452,40.505816],[-74.275416,40.505816]]],[[[-74.27556,40.505899],[-74.275596,40.505817],[-74.275632,40.505926],[-74.27556,40.505899]]],[[[-74.275343,40.506063],[-74.275307,40.506036],[-74.275343,40.506036],[-74.275343,40.506063]]],[[[-74.280986,40.496109],[-74.283207,40.496293],[-74.285062,40.496769],[-74.287378,40.49819],[-74.288238,40.499333],[-74.288321,40.500648],[-74.287146,40.503368],[-74.287165,40.504496],[-74.287883,40.505566],[-74.291415,40.50785],[-74.289789,40.509824],[-74.290005,40.509906],[-74.29168,40.50801],[-74.291288,40.51172],[-74.29097,40.511665],[-74.290531,40.514217],[-74.289236,40.51405],[-74.289381,40.513748],[-74.289166,40.513501],[-74.288483,40.513308],[-74.288558,40.512347],[-74.288162,40.512456],[-74.289211,40.510591],[-74.288201,40.51155],[-74.288383,40.510947],[-74.287953,40.510397],[-74.288241,40.510233],[-74.284906,40.507344],[-74.28451,40.507426],[-74.284147,40.508413],[-74.283534,40.509016],[-74.283494,40.510169],[-74.283132,40.510745],[-74.282882,40.510305],[-74.283279,40.509784],[-74.283174,40.509043],[-74.283428,40.508439],[-74.283104,40.508356],[-74.282819,40.507423],[-74.28174,40.507613],[-74.281343,40.508106],[-74.280624,40.507858],[-74.279868,40.508048],[-74.279655,40.507417],[-74.279045,40.506894],[-74.27919,40.5064],[-74.279119,40.506372],[-74.278614,40.506756],[-74.278611,40.507579],[-74.278287,40.507634],[-74.278109,40.507029],[-74.278327,40.506453],[-74.279084,40.505933],[-74.279551,40.506126],[-74.279768,40.505715],[-74.2793,40.505879],[-74.279157,40.505521],[-74.277289,40.505106],[-74.277147,40.504365],[-74.276608,40.504254],[-74.276356,40.504418],[-74.275921,40.505543],[-74.275668,40.505679],[-74.275777,40.505378],[-74.275742,40.505295],[-74.275524,40.505707],[-74.275416,40.505734],[-74.276177,40.504116],[-74.275059,40.505212],[-74.274232,40.504881],[-74.274953,40.50458],[-74.27463,40.504195],[-74.274883,40.503811],[-74.274705,40.503481],[-74.275028,40.503427],[-74.274634,40.503234],[-74.274237,40.503535],[-74.274383,40.502987],[-74.273917,40.502547],[-74.273593,40.502464],[-74.273341,40.502738],[-74.273306,40.502353],[-74.272336,40.502077],[-74.272301,40.501665],[-74.27169,40.501774],[-74.271332,40.501059],[-74.270864,40.501223],[-74.270506,40.500948],[-74.270397,40.501195],[-74.269498,40.501193],[-74.268996,40.500862],[-74.268276,40.500998],[-74.267738,40.500613],[-74.267413,40.500969],[-74.266334,40.500884],[-74.265648,40.501707],[-74.26518,40.50187],[-74.263987,40.503652],[-74.264022,40.504064],[-74.263336,40.504667],[-74.26268,40.507136],[-74.262066,40.508068],[-74.262065,40.508342],[-74.262641,40.508124],[-74.263,40.508372],[-74.262746,40.508893],[-74.26343,40.50873],[-74.263537,40.508977],[-74.263897,40.50884],[-74.263896,40.509087],[-74.263679,40.509416],[-74.26332,40.509443],[-74.263714,40.509663],[-74.263351,40.510706],[-74.263026,40.510952],[-74.261839,40.511032],[-74.26108,40.512074],[-74.261223,40.512321],[-74.26086,40.513336],[-74.261253,40.513968],[-74.261828,40.514217],[-74.261465,40.515149],[-74.261716,40.515314],[-74.261749,40.516165],[-74.261136,40.516631],[-74.261636,40.517702],[-74.260917,40.517509],[-74.261095,40.518003],[-74.260915,40.518195],[-74.260198,40.517562],[-74.259909,40.517699],[-74.260016,40.518138],[-74.260518,40.518386],[-74.260229,40.518798],[-74.260372,40.519045],[-74.260012,40.519291],[-74.259798,40.518769],[-74.259186,40.51885],[-74.258533,40.520194],[-74.258891,40.520689],[-74.25954,40.520498],[-74.259466,40.520965],[-74.258819,40.520936],[-74.258494,40.521265],[-74.258639,40.520908],[-74.258243,40.520852],[-74.258422,40.5211],[-74.258099,40.521017],[-74.257846,40.521236],[-74.2581,40.520797],[-74.25792,40.520742],[-74.257522,40.52129],[-74.257127,40.521207],[-74.257632,40.520714],[-74.257273,40.520686],[-74.257347,40.520109],[-74.257707,40.519918],[-74.257421,40.519478],[-74.256592,40.519888],[-74.256194,40.520573],[-74.255906,40.520655],[-74.255976,40.521287],[-74.256767,40.521151],[-74.256659,40.521398],[-74.257233,40.521591],[-74.256765,40.5217],[-74.259425,40.522392],[-74.259137,40.522364],[-74.258846,40.523461],[-74.258411,40.524147],[-74.257907,40.524228],[-74.258051,40.524366],[-74.257296,40.524309],[-74.257189,40.524007],[-74.25503,40.524085],[-74.25478,40.52359],[-74.254526,40.524084],[-74.257044,40.524199],[-74.25679,40.524885],[-74.257291,40.52549],[-74.257831,40.525353],[-74.258405,40.525794],[-74.258546,40.526727],[-74.259123,40.526454],[-74.259052,40.52607],[-74.259484,40.525961],[-74.259519,40.526153],[-74.259881,40.525687],[-74.260959,40.525991],[-74.261036,40.524509],[-74.261972,40.524374],[-74.262369,40.52388],[-74.262945,40.523909],[-74.26327,40.523416],[-74.26399,40.523499],[-74.26417,40.523198],[-74.264494,40.523253],[-74.264811,40.525121],[-74.264918,40.525395],[-74.265206,40.525423],[-74.265132,40.52589],[-74.263261,40.526188],[-74.26272,40.526571],[-74.262574,40.527038],[-74.263004,40.527588],[-74.263902,40.527864],[-74.263795,40.527644],[-74.264227,40.527563],[-74.264624,40.527234],[-74.264947,40.527454],[-74.265167,40.526412],[-74.265454,40.526385],[-74.265666,40.527675],[-74.265953,40.527786],[-74.265483,40.528526],[-74.265372,40.529322],[-74.264939,40.529733],[-74.265081,40.53031],[-74.26479,40.531297],[-74.26407,40.531433],[-74.2632,40.533188],[-74.263276,40.532035],[-74.263205,40.531678],[-74.262918,40.531623],[-74.261905,40.532993],[-74.261187,40.53269],[-74.259242,40.53329],[-74.260932,40.533678],[-74.261039,40.533897],[-74.261579,40.533789],[-74.26273,40.533983],[-74.262911,40.533544],[-74.263163,40.5336],[-74.263481,40.53522],[-74.263552,40.53533],[-74.263625,40.535193],[-74.263948,40.535303],[-74.263584,40.536593],[-74.267469,40.536683],[-74.268657,40.536521],[-74.268839,40.536137],[-74.269159,40.537208],[-74.269481,40.537675],[-74.268984,40.535808],[-74.269341,40.536385],[-74.271357,40.536142],[-74.271464,40.536334],[-74.271104,40.536526],[-74.269628,40.536742],[-74.269591,40.536907],[-74.270563,40.536772],[-74.270418,40.537073],[-74.269842,40.537237],[-74.270378,40.538391],[-74.270233,40.538775],[-74.271638,40.538201],[-74.271531,40.537926],[-74.271783,40.537735],[-74.271533,40.537432],[-74.271894,40.536994],[-74.272608,40.538752],[-74.272822,40.539054],[-74.273075,40.538945],[-74.273109,40.539494],[-74.274728,40.53947],[-74.275015,40.539608],[-74.274942,40.539965],[-74.275517,40.540295],[-74.276022,40.540022],[-74.276168,40.53939],[-74.276563,40.539638],[-74.277499,40.539503],[-74.277246,40.539859],[-74.277821,40.539943],[-74.274353,40.541416],[-74.274019,40.541288],[-74.273004,40.542004],[-74.270559,40.542654],[-74.270114,40.542443],[-74.269654,40.542769],[-74.269063,40.542568],[-74.26888,40.543207],[-74.268408,40.542739],[-74.267683,40.542569],[-74.267353,40.542779],[-74.267355,40.543238],[-74.266699,40.543522],[-74.266108,40.542965],[-74.264539,40.542934],[-74.264537,40.541794],[-74.263145,40.54073],[-74.262245,40.539328],[-74.261148,40.538651],[-74.259855,40.538221],[-74.258681,40.537258],[-74.258088,40.537245],[-74.257591,40.537522],[-74.258052,40.539145],[-74.257537,40.54012],[-74.256253,40.540225],[-74.254449,40.539629],[-74.253863,40.537505],[-74.254492,40.537415],[-74.25466,40.537105],[-74.253898,40.534081],[-74.253288,40.534161],[-74.253106,40.533332],[-74.253165,40.532976],[-74.253712,40.532765],[-74.253188,40.529919],[-74.252844,40.52961],[-74.252982,40.529352],[-74.252462,40.528349],[-74.25209,40.528059],[-74.251846,40.526927],[-74.252167,40.526623],[-74.251581,40.526467],[-74.251425,40.525374],[-74.251204,40.52489],[-74.250981,40.524887],[-74.251207,40.524752],[-74.250958,40.52447],[-74.251116,40.524286],[-74.250466,40.524235],[-74.250101,40.523138],[-74.25098,40.522215],[-74.251025,40.521478],[-74.25192,40.520989],[-74.253213,40.520884],[-74.254742,40.52112],[-74.254607,40.520576],[-74.255091,40.519865],[-74.255707,40.519787],[-74.256168,40.519394],[-74.256228,40.517703],[-74.256596,40.516799],[-74.257786,40.516202],[-74.259188,40.513101],[-74.260195,40.513173],[-74.260284,40.512161],[-74.261051,40.510566],[-74.259799,40.510204],[-74.260223,40.509383],[-74.260114,40.509944],[-74.260875,40.510161],[-74.261171,40.509587],[-74.260889,40.509472],[-74.261276,40.508791],[-74.260943,40.508478],[-74.262436,40.505853],[-74.26298,40.504025],[-74.26265,40.50393],[-74.262765,40.503701],[-74.263935,40.502269],[-74.264386,40.5024],[-74.266241,40.500443],[-74.266149,40.500203],[-74.266499,40.499913],[-74.26617,40.499798],[-74.267944,40.493657],[-74.271867,40.494775],[-74.28095,40.496016],[-74.280625,40.49663],[-74.280733,40.496603],[-74.280986,40.496109]],[[-74.279515,40.506126],[-74.279479,40.506181],[-74.279515,40.506181],[-74.279515,40.506126]],[[-74.279479,40.506236],[-74.279407,40.506208],[-74.279407,40.506263],[-74.279479,40.506236]],[[-74.279406,40.506318],[-74.279335,40.50629],[-74.279334,40.506345],[-74.279406,40.506318]],[[-74.275777,40.505295],[-74.275814,40.50524],[-74.275778,40.50524],[-74.275777,40.505295]],[[-74.275742,40.505295],[-74.275706,40.505268],[-74.275706,40.505295],[-74.275742,40.505295]],[[-74.27614,40.504363],[-74.276176,40.50439],[-74.276176,40.504363],[-74.27614,40.504363]],[[-74.267414,40.500777],[-74.267342,40.500749],[-74.267342,40.500777],[-74.267414,40.500777]],[[-74.260917,40.517509],[-74.260881,40.517454],[-74.260881,40.517509],[-74.260917,40.517509]],[[-74.254816,40.52359],[-74.25489,40.523124],[-74.255214,40.52296],[-74.254818,40.523096],[-74.254816,40.52359]],[[-74.260996,40.525772],[-74.261032,40.525799],[-74.261032,40.525772],[-74.260996,40.525772]],[[-74.263696,40.535248],[-74.26366,40.53533],[-74.263696,40.53533],[-74.263696,40.535248]],[[-74.269375,40.537208],[-74.269411,40.537126],[-74.269375,40.537126],[-74.269375,40.537208]]],[[[-74.260925,40.525552],[-74.260888,40.525662],[-74.260853,40.525552],[-74.260925,40.525552]]],[[[-74.26078,40.525799],[-74.260744,40.525826],[-74.260744,40.525799],[-74.26078,40.525799]]],[[[-74.26078,40.525854],[-74.260816,40.525826],[-74.260816,40.525854],[-74.26078,40.525854]]],[[[-74.263868,40.527452],[-74.263042,40.526874],[-74.262754,40.526983],[-74.262863,40.526627],[-74.263763,40.526683],[-74.26524,40.526055],[-74.264986,40.526603],[-74.264807,40.526383],[-74.264408,40.527343],[-74.263868,40.527452]]]]}}]}