{"type":"FeatureCollection","features":[{"type":"Feature","properties":{"level_ft":17},"geometry":{"type":"MultiPolygon","coordinates":[[[[-74.277009,40.50258],[-74.277081,40.502663],[-74.277045,40.502662],[-74.277009,40.50258]]],[[[-74.276864,40.502992],[-74.2769,40.502964],[-74.2769,40.502992],[-74.276864,40.502992]]],[[[-74.276285,40.503979],[-74.27643,40.503842],[-74.276357,40.503979],[-74.276285,40.503979]]],[[[-74.276537,40.503952],[-74.276501,40.503924],[-74.276537,40.503924],[-74.276537,40.503952]]],[[[-74.276501,40.504061],[-74.276537,40.504034],[-74.276537,40.504061],[-74.276501,40.504061]]],[[[-74.276501,40.504144],[-74.276465,40.504089],[-74.276501,40.504089],[-74.276501,40.504144]]],[[[-74.276428,40.504199],[-74.276465,40.504171],[-74.276464,40.504199],[-74.276428,40.504199]]],[[[-74.276428,40.504308],[-74.276392,40.504226],[-74.276428,40.504226],[-74.276428,40.504308]]],[[[-74.276356,40.504308],[-74.276392,40.504363],[-74.276356,40.504363],[-74.276356,40.504308]]],[[[-74.27632,40.504445],[-74.276356,40.504391],[-74.276356,40.504445],[-74.27632,40.504445]]],[[[-74.278253,40.507112],[-74.278544,40.506234],[-74.279372,40.505934],[-74.279371,40.506263],[-74.27865,40.506646],[-74.278467,40.507551],[-74.278253,40.507112]]],[[[-74.276321,40.504006],[-74.276285,40.504061],[-74.276285,40.504006],[-74.276321,40.504006]]],[[[-74.276249,40.504061],[-74.276285,40.504116],[-74.276249,40.504116],[-74.276249,40.504061]]],[[[-74.276249,40.504171],[-74.276213,40.504143],[-74.276249,40.504143],[-74.276249,40.504171]]],[[[-74.276284,40.5045],[-74.27632,40.504473],[-74.27632,40.5045],[-74.276284,40.5045]]],[[[-74.289236,40.514023],[-74.289418,40.513556],[-74.288484,40.513253],[-74.288558,40.512319],[-74.288774,40.512265],[-74.288271,40.512291],[-74.289247,40.510619],[-74.289032,40.510563],[-74.288237,40.51155],[-74.288491,40.510864],[-74.288025,40.510342],[-74.288349,40.510233],[-74.287918,40.510122],[-74.286412,40.508555],[-74.284654,40.507179],[-74.284147,40.508386],[-74.283425,40.509235],[-74.283567,40.509675],[-74.28324,40.510717],[-74.282989,40.510635],[-74.283463,40.508604],[-74.283464,40.508412],[-74.28314,40.508356],[-74.283036,40.507313],[-74.282676,40.507203],[-74.28228,40.507531],[-74.282209,40.507284],[-74.28131,40.507255],[-74.281488,40.507695],[-74.281164,40.507886],[-74.280661,40.507638],[-74.280301,40.507857],[-74.279869,40.507719],[-74.279907,40.507307],[-74.279403,40.507251],[-74.279261,40.506757],[-74.280268,40.506896],[-74.280521,40.506512],[-74.280379,40.505881],[-74.279697,40.50555],[-74.279626,40.505303],[-74.27887,40.505466],[-74.277325,40.504996],[-74.277255,40.50431],[-74.27668,40.504144],[-74.276898,40.503595],[-74.276537,40.504007],[-74.276936,40.502909],[-74.276828,40.502964],[-74.276828,40.503101],[-74.276684,40.503128],[-74.276502,40.503732],[-74.276431,40.50354],[-74.275925,40.504252],[-74.275133,40.504553],[-74.27521,40.502961],[-74.274851,40.502686],[-74.275427,40.502577],[-74.275717,40.501974],[-74.274672,40.502575],[-74.27471,40.501999],[-74.274494,40.501889],[-74.274027,40.50186],[-74.273954,40.50208],[-74.273486,40.502189],[-74.273381,40.50142],[-74.272878,40.501364],[-74.272553,40.501638],[-74.272087,40.501198],[-74.271726,40.501499],[-74.271442,40.50062],[-74.271154,40.50062],[-74.271045,40.500866],[-74.270507,40.500646],[-74.270398,40.500865],[-74.269607,40.500946],[-74.268673,40.500615],[-74.268277,40.500778],[-74.268134,40.500476],[-74.267343,40.500337],[-74.266947,40.500556],[-74.267018,40.500831],[-74.266263,40.500747],[-74.264675,40.502501],[-74.26366,40.50453],[-74.263336,40.504639],[-74.262644,40.507108],[-74.261922,40.508123],[-74.262029,40.508342],[-74.262676,40.508481],[-74.26228,40.508508],[-74.262207,40.508727],[-74.263429,40.509059],[-74.263247,40.509717],[-74.263461,40.51013],[-74.263315,40.510651],[-74.262775,40.510952],[-74.26184,40.510977],[-74.261262,40.511443],[-74.260824,40.513336],[-74.261253,40.513996],[-74.26172,40.514189],[-74.261719,40.514463],[-74.261214,40.514984],[-74.261134,40.51718],[-74.260378,40.517425],[-74.260629,40.517481],[-74.260593,40.517728],[-74.260126,40.517535],[-74.259693,40.517753],[-74.259551,40.517341],[-74.25973,40.517424],[-74.259947,40.517342],[-74.259696,40.516985],[-74.260235,40.517013],[-74.260091,40.51726],[-74.260487,40.517124],[-74.260416,40.516712],[-74.260776,40.516767],[-74.260994,40.516136],[-74.260527,40.515971],[-74.260708,40.515614],[-74.260276,40.515723],[-74.260313,40.515504],[-74.260025,40.515421],[-74.259337,40.516682],[-74.259231,40.51627],[-74.25963,40.515365],[-74.259091,40.515172],[-74.258839,40.515199],[-74.258439,40.516323],[-74.257899,40.516679],[-74.257934,40.516954],[-74.258473,40.51701],[-74.258505,40.518108],[-74.258865,40.518081],[-74.258972,40.518301],[-74.259224,40.518192],[-74.259081,40.517944],[-74.259441,40.517972],[-74.259871,40.51844],[-74.259836,40.51822],[-74.260195,40.518303],[-74.260228,40.519017],[-74.259798,40.518742],[-74.259078,40.518878],[-74.258462,40.520112],[-74.258676,40.520496],[-74.25792,40.520714],[-74.257559,40.521208],[-74.257705,40.520604],[-74.257454,40.520356],[-74.257816,40.519534],[-74.257421,40.519451],[-74.256015,40.520326],[-74.255581,40.521039],[-74.256047,40.521561],[-74.258814,40.522171],[-74.258202,40.522362],[-74.257159,40.52225],[-74.257554,40.522525],[-74.257588,40.523102],[-74.25802,40.522883],[-74.25798,40.523926],[-74.258339,40.524147],[-74.257512,40.524117],[-74.257729,40.523734],[-74.257262,40.52354],[-74.256937,40.524089],[-74.254887,40.524002],[-74.25489,40.523124],[-74.255178,40.523042],[-74.255214,40.522932],[-74.254782,40.523014],[-74.254671,40.524029],[-74.254275,40.524111],[-74.257008,40.524226],[-74.25661,40.524994],[-74.256933,40.525077],[-74.256896,40.525379],[-74.256608,40.525516],[-74.257148,40.525352],[-74.257363,40.525654],[-74.257939,40.525573],[-74.258547,40.526316],[-74.25851,40.526727],[-74.259303,40.526427],[-74.259844,40.525797],[-74.259915,40.526181],[-74.260202,40.526292],[-74.260634,40.526293],[-74.260599,40.526018],[-74.260923,40.526101],[-74.260995,40.525854],[-74.261175,40.526019],[-74.261033,40.525415],[-74.261322,40.525141],[-74.261035,40.524948],[-74.261646,40.524922],[-74.261323,40.524702],[-74.261863,40.524703],[-74.262008,40.524429],[-74.26262,40.524348],[-74.263269,40.523855],[-74.263304,40.524184],[-74.264634,40.524434],[-74.265096,40.525917],[-74.263225,40.526188],[-74.26272,40.526571],[-74.262574,40.527038],[-74.263004,40.527588],[-74.264046,40.527892],[-74.263903,40.527672],[-74.264624,40.527234],[-74.264911,40.527564],[-74.265058,40.526659],[-74.265382,40.526385],[-74.265487,40.527483],[-74.265881,40.527895],[-74.265446,40.528773],[-74.265194,40.5288],[-74.26541,40.52891],[-74.265264,40.529322],[-74.264796,40.529403],[-74.265008,40.530639],[-74.26479,40.531132],[-74.264142,40.531214],[-74.263743,40.532256],[-74.2636,40.531926],[-74.26342,40.532036],[-74.263422,40.531514],[-74.262882,40.531623],[-74.26187,40.532993],[-74.26133,40.532827],[-74.261331,40.53258],[-74.259566,40.533263],[-74.259062,40.533262],[-74.260896,40.533677],[-74.261039,40.53398],[-74.262046,40.533927],[-74.262116,40.534504],[-74.262513,40.534065],[-74.262837,40.534066],[-74.263337,40.535275],[-74.263298,40.535933],[-74.263694,40.536044],[-74.263548,40.536593],[-74.265742,40.536872],[-74.265778,40.536652],[-74.267361,40.53671],[-74.26891,40.536411],[-74.269444,40.53806],[-74.269695,40.538307],[-74.269019,40.535945],[-74.269341,40.536412],[-74.271105,40.536196],[-74.27096,40.536443],[-74.269592,40.536742],[-74.269555,40.536934],[-74.270023,40.537072],[-74.269842,40.537292],[-74.270342,40.538446],[-74.270197,40.538802],[-74.271674,40.538201],[-74.272107,40.53779],[-74.272751,40.538999],[-74.273075,40.538973],[-74.273216,40.539577],[-74.273721,40.539413],[-74.274188,40.539661],[-74.274728,40.53947],[-74.274942,40.539992],[-74.27566,40.540487],[-74.276057,40.540269],[-74.276166,40.53983],[-74.277391,40.539503],[-74.277462,40.53964],[-74.27703,40.539667],[-74.277353,40.540134],[-74.276849,40.540188],[-74.274353,40.541416],[-74.274019,40.541288],[-74.273053,40.541985],[-74.271614,40.542417],[-74.270524,40.542657],[-74.270078,40.542445],[-74.269638,40.54277],[-74.269063,40.542568],[-74.26888,40.543207],[-74.268408,40.542739],[-74.267683,40.542569],[-74.267353,40.542779],[-74.267359,40.543234],[-74.266731,40.543525],[-74.266108,40.542965],[-74.264539,40.542934],[-74.264537,40.541794],[-74.263145,40.54073],[-74.262171,40.539225],[-74.262352,40.538951],[-74.262498,40.538402],[-74.26257,40.538402],[-74.262607,40.538101],[-74.262427,40.538265],[-74.262135,40.539239],[-74.259855,40.538221],[-74.258803,40.53731],[-74.258088,40.537245],[-74.257571,40.537604],[-74.258052,40.539145],[-74.257677,40.540031],[-74.256433,40.540252],[-74.254449,40.539629],[-74.253863,40.537505],[-74.254492,40.537415],[-74.25466,40.537105],[-74.253898,40.534081],[-74.253288,40.534161],[-74.253106,40.533332],[-74.253165,40.532976],[-74.253712,40.532765],[-74.253188,40.529919],[-74.252844,40.52961],[-74.252982,40.529352],[-74.252462,40.528349],[-74.25209,40.528059],[-74.251846,40.526927],[-74.252167,40.526623],[-74.251581,40.526467],[-74.251425,40.525374],[-74.251204,40.52489],[-74.250981,40.524887],[-74.251207,40.524752],[-74.250958,40.52447],[-74.251116,40.524286],[-74.250466,40.524235],[-74.250101,40.523138],[-74.25098,40.522215],[-74.251025,40.521478],[-74.25192,40.520989],[-74.253213,40.520884],[-74.254742,40.52112],[-74.254607,40.520576],[-74.255091,40.519865],[-74.255707,40.519787],[-74.256168,40.519394],[-74.256228,40.517703],[-74.256596,40.516799],[-74.257786,40.516202],[-74.259188,40.513101],[-74.260195,40.513173],[-74.260284,40.512161],[-74.261051,40.510566],[-74.259799,40.510204],[-74.260223,40.509383],[-74.260114,40.509944],[-74.260875,40.510161],[-74.261171,40.509587],[-74.260889,40.509472],[-74.261276,40.508791],[-74.260943,40.508478],[-74.262436,40.505853],[-74.26298,40.504025],[-74.26265,40.50393],[-74.262765,40.503701],[-74.263935,40.502269],[-74.264386,40.5024],[-74.266241,40.500443],[-74.266149,40.500203],[-74.266499,40.499913],[-74.26617,40.499798],[-74.267944,40.493657],[-74.271867,40.494775],[-74.28095,40.496016],[-74.280625,40.49663],[-74.281058,40.496029],[-74.283207,40.496293],[-74.285062,40.496769],[-74.287378,40.49819],[-74.288238,40.499333],[-74.288321,40.500648],[-74.287146,40.503368],[-74.287165,40.504496],[-74.287883,40.505566],[-74.291415,40.50785],[-74.289789,40.509824],[-74.290005,40.509906],[-74.29168,40.50801],[-74.291288,40.51172],[-74.29097,40.511638],[-74.290495,40.514162],[-74.289236,40.514023]],[[-74.276935,40.503211],[-74.277007,40.503239],[-74.277007,40.503211],[-74.276935,40.503211]],[[-74.276936,40.502909],[-74.276972,40.502854],[-74.276936,40.502854],[-74.276936,40.502909]],[[-74.276972,40.502854],[-74.277009,40.502772],[-74.276973,40.502772],[-74.276972,40.502854]],[[-74.277009,40.502772],[-74.277045,40.502717],[-74.277009,40.502717],[-74.277009,40.502772]],[[-74.277081,40.502717],[-74.277225,40.502608],[-74.27701,40.502498],[-74.276865,40.502799],[-74.276973,40.502635],[-74.277081,40.502717]],[[-74.277153,40.502525],[-74.277189,40.502471],[-74.277153,40.50247],[-74.277153,40.502525]],[[-74.277045,40.502498],[-74.277082,40.502415],[-74.277046,40.502415],[-74.277045,40.502498]],[[-74.277082,40.502415],[-74.277118,40.502361],[-74.277082,40.502361],[-74.277082,40.502415]],[[-74.276828,40.502882],[-74.276685,40.502826],[-74.276685,40.502854],[-74.276828,40.502882]],[[-74.276936,40.502854],[-74.276901,40.502827],[-74.2769,40.502854],[-74.276936,40.502854]],[[-74.257015,40.52225],[-74.256908,40.522195],[-74.256943,40.522414],[-74.257015,40.52225]],[[-74.257911,40.52335],[-74.257875,40.523377],[-74.257911,40.523377],[-74.257911,40.52335]],[[-74.261175,40.526019],[-74.261211,40.526047],[-74.261211,40.526019],[-74.261175,40.526019]],[[-74.263299,40.535851],[-74.263263,40.535824],[-74.263263,40.535851],[-74.263299,40.535851]],[[-74.269553,40.537703],[-74.269589,40.537676],[-74.269553,40.537675],[-74.269553,40.537703]],[[-74.269517,40.53762],[-74.269553,40.537566],[-74.269517,40.537566],[-74.269517,40.53762]],[[-74.269446,40.537373],[-74.269482,40.537346],[-74.269446,40.537346],[-74.269446,40.537373]],[[-74.288882,40.51232],[-74.28881,40.512292],[-74.28881,40.51232],[-74.288882,40.51232]],[[-74.28899,40.512348],[-74.288954,40.51232],[-74.288954,40.512348],[-74.28899,40.512348]],[[-74.289242,40.512376],[-74.289493,40.512458],[-74.289422,40.512239],[-74.289242,40.512376]]],[[[-74.260996,40.525799],[-74.261031,40.525827],[-74.260996,40.525827],[-74.260996,40.525799]]],[[[-74.265168,40.526082],[-74.265022,40.526549],[-74.26495,40.526548],[-74.264916,40.526137],[-74.265168,40.526082]]],[[[-74.263726,40.526711],[-74.264448,40.526273],[-74.26488,40.526164],[-74.264408,40.527343],[-74.263509,40.527287],[-74.262971,40.526819],[-74.263726,40.526711]]],[[[-74.262971,40.526764],[-74.262754,40.526956],[-74.262827,40.526709],[-74.262971,40.526764]]],[[[-74.26948,40.53806],[-74.269516,40.538032],[-74.269516,40.53806],[-74.26948,40.53806]]],[[[-74.262208,40.539061],[-74.262244,40.539088],[-74.262208,40.539088],[-74.262208,40.539061]]]]}}]}