{"type":"FeatureCollection","features":[{"type":"Feature","properties":{"level_ft":7},"geometry":{"type":"MultiPolygon","coordinates":[[[[-74.280755,40.500885],[-74.28169,40.500805],[-74.281689,40.501052],[-74.282156,40.501217],[-74.281834,40.500805],[-74.282373,40.500943],[-74.282587,40.501383],[-74.281508,40.501545],[-74.281147,40.501847],[-74.280572,40.501736],[-74.280463,40.502093],[-74.279995,40.502229],[-74.279456,40.502145],[-74.279457,40.501981],[-74.278881,40.502117],[-74.278702,40.501924],[-74.278703,40.501375],[-74.279855,40.501131],[-74.280464,40.501763],[-74.280755,40.500885]],[[-74.279457,40.501981],[-74.279493,40.501816],[-74.279457,40.501816],[-74.279457,40.501981]],[[-74.279493,40.501816],[-74.279529,40.501734],[-74.279493,40.501734],[-74.279493,40.501816]],[[-74.279529,40.501734],[-74.279602,40.501597],[-74.279566,40.501597],[-74.279529,40.501734]]],[[[-74.283452,40.500945],[-74.283129,40.500643],[-74.282877,40.500807],[-74.281978,40.50064],[-74.280647,40.500858],[-74.280647,40.500912],[-74.278525,40.500908],[-74.278343,40.501485],[-74.277478,40.502252],[-74.281058,40.496029],[-74.285062,40.496769],[-74.286349,40.497401],[-74.288046,40.498979],[-74.288321,40.500648],[-74.287146,40.503368],[-74.287165,40.504496],[-74.287883,40.505566],[-74.291415,40.50785],[-74.289789,40.509824],[-74.290005,40.509906],[-74.29168,40.50801],[-74.291343,40.511199],[-74.29036,40.511362],[-74.289641,40.511031],[-74.289858,40.510757],[-74.288961,40.510097],[-74.288998,40.509877],[-74.287919,40.509683],[-74.287094,40.509187],[-74.285552,40.50762],[-74.283972,40.506766],[-74.28437,40.50608],[-74.283797,40.505365],[-74.282826,40.505391],[-74.282427,40.506324],[-74.28196,40.506268],[-74.282577,40.504595],[-74.282148,40.503715],[-74.28287,40.503058],[-74.283018,40.501548],[-74.283234,40.501411],[-74.283092,40.500972],[-74.283452,40.500945]],[[-74.283523,40.501028],[-74.283559,40.501055],[-74.283559,40.501028],[-74.283523,40.501028]]],[[[-74.275108,40.501286],[-74.274965,40.500792],[-74.276405,40.50052],[-74.269863,40.499464],[-74.269,40.4996],[-74.268963,40.499792],[-74.267777,40.499762],[-74.265795,40.500883],[-74.263627,40.503871],[-74.262719,40.506367],[-74.262249,40.50708],[-74.261565,40.507381],[-74.261166,40.508231],[-74.261273,40.508423],[-74.261597,40.508259],[-74.261919,40.508864],[-74.261271,40.508972],[-74.261126,40.509246],[-74.261341,40.509494],[-74.261052,40.510042],[-74.261518,40.510345],[-74.260397,40.512072],[-74.260321,40.513198],[-74.25996,40.513526],[-74.260103,40.513746],[-74.259852,40.513718],[-74.259523,40.514953],[-74.258948,40.514897],[-74.258443,40.51528],[-74.258552,40.514978],[-74.258481,40.514868],[-74.258369,40.515856],[-74.258008,40.516405],[-74.25659,40.516813],[-74.257786,40.516202],[-74.259188,40.513101],[-74.260203,40.513158],[-74.260284,40.512161],[-74.261051,40.510566],[-74.259799,40.510204],[-74.260223,40.509383],[-74.260114,40.509944],[-74.260875,40.510161],[-74.261171,40.509587],[-74.260889,40.509472],[-74.261276,40.508791],[-74.260943,40.508478],[-74.261578,40.507067],[-74.261834,40.507023],[-74.262436,40.505853],[-74.26298,40.504025],[-74.26265,40.50393],[-74.262765,40.503701],[-74.263935,40.502269],[-74.264386,40.5024],[-74.265032,40.501855],[-74.265896,40.500714],[-74.266241,40.500443],[-74.266149,40.500203],[-74.266499,40.499913],[-74.26617,40.499798],[-74.267944,40.493657],[-74.271867,40.494775],[-74.28095,40.496016],[-74.278202,40.500716],[-74.276513,40.500548],[-74.276763,40.50107],[-74.276079,40.501233],[-74.275432,40.501067],[-74.275503,40.501342],[-74.275108,40.501286]]],[[[-74.283499,40.508741],[-74.283213,40.508219],[-74.283251,40.507478],[-74.28372,40.506958],[-74.284188,40.506931],[-74.284546,40.507316],[-74.283786,40.508742],[-74.283499,40.508741]]],[[[-74.274002,40.541299],[-74.273211,40.54172],[-74.273004,40.542004],[-74.27112,40.54251],[-74.271192,40.54229],[-74.272921,40.541827],[-74.273787,40.541143],[-74.274002,40.541299]]],[[[-74.270976,40.542537],[-74.270615,40.542643],[-74.270617,40.542207],[-74.270976,40.542537]]],[[[-74.268992,40.542616],[-74.269004,40.543073],[-74.268834,40.543209],[-74.268384,40.542697],[-74.268992,40.542616]]],[[[-74.262359,40.526873],[-74.261605,40.526404],[-74.261714,40.52613],[-74.262685,40.526324],[-74.262359,40.526873]]],[[[-74.262065,40.528711],[-74.25951,40.528871],[-74.259257,40.52909],[-74.260157,40.528982],[-74.260192,40.529201],[-74.259652,40.529392],[-74.2594,40.529282],[-74.25886,40.529336],[-74.259184,40.529446],[-74.258103,40.529883],[-74.259325,40.530325],[-74.258605,40.530351],[-74.257848,40.530706],[-74.257273,40.530513],[-74.257671,40.530047],[-74.257492,40.529772],[-74.253499,40.529599],[-74.253316,40.530395],[-74.253603,40.530752],[-74.254682,40.530892],[-74.254825,40.531139],[-74.255114,40.530756],[-74.255797,40.530784],[-74.256443,40.531362],[-74.258961,40.531395],[-74.256982,40.531583],[-74.255183,40.531469],[-74.254677,40.5321],[-74.256043,40.532487],[-74.254784,40.532402],[-74.253992,40.53262],[-74.254242,40.533005],[-74.254133,40.533416],[-74.255068,40.533363],[-74.254276,40.533609],[-74.25431,40.53413],[-74.255389,40.53416],[-74.255389,40.534325],[-74.254525,40.534433],[-74.25413,40.534212],[-74.253985,40.534404],[-74.254668,40.534515],[-74.254631,40.53479],[-74.254991,40.534928],[-74.255487,40.53696],[-74.25923,40.536556],[-74.261242,40.537329],[-74.261642,40.536232],[-74.262183,40.535959],[-74.262362,40.536261],[-74.262034,40.537248],[-74.262465,40.537469],[-74.262682,40.53725],[-74.262135,40.539225],[-74.261345,40.538752],[-74.261418,40.538537],[-74.261194,40.538674],[-74.260069,40.538337],[-74.258905,40.537369],[-74.258224,40.537227],[-74.257571,40.537604],[-74.258052,40.539145],[-74.257677,40.540031],[-74.256433,40.540252],[-74.254449,40.539629],[-74.253863,40.537505],[-74.254492,40.537415],[-74.25466,40.537105],[-74.253898,40.534081],[-74.253288,40.534161],[-74.253106,40.533332],[-74.253165,40.532976],[-74.253712,40.532765],[-74.253188,40.529919],[-74.252844,40.52961],[-74.252982,40.529352],[-74.252462,40.528349],[-74.25209,40.528059],[-74.251846,40.526927],[-74.252167,40.526623],[-74.251581,40.526467],[-74.251425,40.525374],[-74.251204,40.52489],[-74.250981,40.524887],[-74.251207,40.524752],[-74.250958,40.52447],[-74.251116,40.524286],[-74.250466,40.524235],[-74.250097,40.523173],[-74.25098,40.522215],[-74.251025,40.521478],[-74.25192,40.520989],[-74.253213,40.520884],[-74.254742,40.52112],[-74.254607,40.520576],[-74.255091,40.519865],[-74.255707,40.519787],[-74.256168,40.519394],[-74.256228,40.517703],[-74.256577,40.516841],[-74.257032,40.51772],[-74.257569,40.51827],[-74.257821,40.518216],[-74.257963,40.518848],[-74.256776,40.518818],[-74.257279,40.518984],[-74.257242,40.519203],[-74.256378,40.519421],[-74.255908,40.519996],[-74.255188,40.520242],[-74.254897,40.521202],[-74.255399,40.52145],[-74.255434,40.521807],[-74.254714,40.521888],[-74.25263,40.521417],[-74.252339,40.522267],[-74.252734,40.52235],[-74.25266,40.523009],[-74.251941,40.522706],[-74.251077,40.523006],[-74.250898,40.522703],[-74.250826,40.522895],[-74.251362,40.523665],[-74.253483,40.524136],[-74.254742,40.524194],[-74.254957,40.524469],[-74.254812,40.524716],[-74.254092,40.524742],[-74.254307,40.525017],[-74.254091,40.525126],[-74.252759,40.525398],[-74.253295,40.526332],[-74.253363,40.527375],[-74.253111,40.527512],[-74.253218,40.527814],[-74.25275,40.527813],[-74.252785,40.528005],[-74.25311,40.527869],[-74.253648,40.528117],[-74.254435,40.529299],[-74.255119,40.529328],[-74.255335,40.529274],[-74.255084,40.529081],[-74.255732,40.528835],[-74.256128,40.528918],[-74.255949,40.528616],[-74.256381,40.528507],[-74.256454,40.528178],[-74.257318,40.52818],[-74.257571,40.527741],[-74.257931,40.527632],[-74.257929,40.528263],[-74.258504,40.528457],[-74.258685,40.528238],[-74.261023,40.528105],[-74.261636,40.527804],[-74.261097,40.527666],[-74.261674,40.527365],[-74.262569,40.528465],[-74.262679,40.528026],[-74.262069,40.527558],[-74.262249,40.527312],[-74.263074,40.528082],[-74.263362,40.528028],[-74.263361,40.528247],[-74.2639,40.528468],[-74.263179,40.528906],[-74.2635,40.529867],[-74.262852,40.529783],[-74.26253,40.529234],[-74.262457,40.529728],[-74.262888,40.529921],[-74.262851,40.530223],[-74.262563,40.53025],[-74.261953,40.529782],[-74.261954,40.529507],[-74.261235,40.529341],[-74.261164,40.528984],[-74.262064,40.528931],[-74.262065,40.528711]],[[-74.254631,40.53479],[-74.254595,40.534845],[-74.254631,40.534845],[-74.254631,40.53479]],[[-74.256128,40.528918],[-74.256199,40.529001],[-74.2562,40.528919],[-74.256128,40.528918]],[[-74.262064,40.528931],[-74.262099,40.529013],[-74.2621,40.528931],[-74.262064,40.528931]]],[[[-74.255526,40.536192],[-74.256425,40.536111],[-74.256531,40.536661],[-74.255631,40.536823],[-74.255526,40.536192]]],[[[-74.265415,40.537667],[-74.265272,40.537502],[-74.266351,40.537587],[-74.266675,40.537532],[-74.265164,40.537337],[-74.265202,40.53698],[-74.267396,40.537177],[-74.26743,40.537534],[-74.267178,40.537588],[-74.267358,40.537808],[-74.265415,40.537667]]],[[[-74.266344,40.539536],[-74.268145,40.5391],[-74.267539,40.537342],[-74.26754,40.537122],[-74.267792,40.537123],[-74.268504,40.53932],[-74.266271,40.539865],[-74.268139,40.540884],[-74.268029,40.541214],[-74.26857,40.541077],[-74.269468,40.541546],[-74.269431,40.541738],[-74.269863,40.541684],[-74.26997,40.541986],[-74.269574,40.541876],[-74.269034,40.542067],[-74.269141,40.542451],[-74.268708,40.54256],[-74.26835,40.542175],[-74.267738,40.542201],[-74.267557,40.542613],[-74.267379,40.541871],[-74.265725,40.541758],[-74.265291,40.542169],[-74.265289,40.5428],[-74.267449,40.542585],[-74.267374,40.543216],[-74.26675,40.543525],[-74.266108,40.542965],[-74.264539,40.542934],[-74.264537,40.541794],[-74.263145,40.54073],[-74.262207,40.539198],[-74.263185,40.537525],[-74.263472,40.537746],[-74.263869,40.537472],[-74.264048,40.537747],[-74.263795,40.538048],[-74.264261,40.538433],[-74.264152,40.538653],[-74.264763,40.538874],[-74.264762,40.539176],[-74.266199,40.539837],[-74.266344,40.539536]]],[[[-74.268048,40.542586],[-74.268421,40.542532],[-74.26842,40.542614],[-74.268048,40.542586]]]]}}]}