{"type":"FeatureCollection","features":[{"type":"Feature","properties":{"level_ft":12},"geometry":{"type":"MultiPolygon","coordinates":[[[[-74.277878,40.50099],[-74.277913,40.501017],[-74.277877,40.501017],[-74.277878,40.50099]]],[[[-74.277913,40.501099],[-74.277877,40.501072],[-74.277913,40.501072],[-74.277913,40.501099]]],[[[-74.277769,40.501209],[-74.277805,40.501182],[-74.277805,40.501209],[-74.277769,40.501209]]],[[[-74.277733,40.501319],[-74.277769,40.501291],[-74.277769,40.501319],[-74.277733,40.501319]]],[[[-74.277697,40.501319],[-74.277733,40.501346],[-74.277697,40.501346],[-74.277697,40.501319]]],[[[-74.27766,40.501428],[-74.277696,40.501401],[-74.277696,40.501428],[-74.27766,40.501428]]],[[[-74.277624,40.501483],[-74.27766,40.501456],[-74.27766,40.501483],[-74.277624,40.501483]]],[[[-74.277299,40.502004],[-74.277263,40.502031],[-74.277263,40.502004],[-74.277299,40.502004]]],[[[-74.277299,40.502059],[-74.277335,40.502032],[-74.277335,40.502059],[-74.277299,40.502059]]],[[[-74.277191,40.502114],[-74.277263,40.502031],[-74.277227,40.502114],[-74.277191,40.502114]]],[[[-74.290827,40.51161],[-74.290788,40.512543],[-74.290392,40.512652],[-74.290679,40.51279],[-74.290568,40.513668],[-74.288987,40.513418],[-74.288593,40.512704],[-74.288882,40.512375],[-74.289313,40.512431],[-74.289421,40.51265],[-74.289745,40.512514],[-74.289494,40.512321],[-74.289495,40.511717],[-74.289532,40.511443],[-74.289856,40.511361],[-74.289533,40.511333],[-74.28917,40.512293],[-74.289136,40.511744],[-74.288596,40.511825],[-74.288596,40.511743],[-74.289283,40.510564],[-74.289032,40.510481],[-74.288237,40.511523],[-74.288709,40.510233],[-74.287954,40.510122],[-74.287704,40.509655],[-74.284655,40.507151],[-74.284111,40.508386],[-74.283389,40.509208],[-74.283532,40.509647],[-74.283061,40.510497],[-74.283499,40.508604],[-74.283176,40.508302],[-74.283432,40.506984],[-74.281743,40.506597],[-74.282034,40.505609],[-74.28171,40.505856],[-74.281567,40.505526],[-74.281314,40.505745],[-74.280524,40.505606],[-74.280705,40.505003],[-74.280493,40.504042],[-74.280819,40.503356],[-74.279808,40.504617],[-74.279125,40.504506],[-74.279412,40.504698],[-74.279122,40.505439],[-74.278187,40.505273],[-74.278009,40.504613],[-74.278298,40.504504],[-74.277687,40.504366],[-74.27758,40.503981],[-74.276825,40.503842],[-74.27744,40.502828],[-74.277152,40.502882],[-74.277297,40.502471],[-74.281058,40.496029],[-74.285062,40.496769],[-74.286349,40.497401],[-74.288046,40.498979],[-74.288321,40.500648],[-74.287146,40.503368],[-74.287165,40.504496],[-74.287883,40.505566],[-74.291415,40.50785],[-74.289789,40.509824],[-74.290005,40.509906],[-74.29168,40.50801],[-74.291291,40.511693],[-74.290827,40.51161]],[[-74.289745,40.512541],[-74.290104,40.512624],[-74.290248,40.512625],[-74.290068,40.512542],[-74.289745,40.512541]],[[-74.284619,40.507151],[-74.284583,40.507124],[-74.284583,40.507151],[-74.284619,40.507151]],[[-74.284583,40.507124],[-74.284511,40.507069],[-74.284547,40.507124],[-74.284583,40.507124]],[[-74.28196,40.506405],[-74.282067,40.506433],[-74.282068,40.506405],[-74.28196,40.506405]],[[-74.282067,40.50646],[-74.282499,40.506571],[-74.282714,40.506571],[-74.282247,40.506406],[-74.282067,40.50646]],[[-74.290827,40.51161],[-74.290755,40.511582],[-74.290755,40.51161],[-74.290827,40.51161]],[[-74.290284,40.512652],[-74.290356,40.512625],[-74.290284,40.512625],[-74.290284,40.512652]]],[[[-74.277878,40.50099],[-74.277733,40.501181],[-74.277769,40.501236],[-74.277697,40.501264],[-74.277697,40.501319],[-74.277661,40.501319],[-74.27766,40.501401],[-74.277588,40.501456],[-74.277479,40.50184],[-74.277263,40.501977],[-74.277408,40.50162],[-74.277086,40.501125],[-74.276834,40.50107],[-74.276582,40.501399],[-74.275611,40.501315],[-74.275141,40.501945],[-74.274927,40.501423],[-74.273921,40.501311],[-74.274066,40.500817],[-74.27324,40.500541],[-74.273096,40.500761],[-74.27288,40.500678],[-74.272846,40.500156],[-74.272378,40.500265],[-74.271552,40.500016],[-74.270257,40.500014],[-74.270112,40.500315],[-74.269826,40.500013],[-74.268315,40.500202],[-74.267488,40.499953],[-74.266623,40.50072],[-74.266119,40.500829],[-74.264675,40.502446],[-74.263625,40.504475],[-74.263337,40.504584],[-74.262863,40.506313],[-74.261741,40.508397],[-74.26253,40.50892],[-74.261953,40.509358],[-74.262527,40.509688],[-74.262203,40.509798],[-74.262382,40.510265],[-74.262849,40.510211],[-74.262849,40.510375],[-74.262416,40.510814],[-74.261624,40.510894],[-74.261229,40.510674],[-74.260614,40.511661],[-74.260397,40.512127],[-74.260756,40.512238],[-74.260538,40.512731],[-74.260786,40.51394],[-74.259887,40.513856],[-74.26035,40.515202],[-74.260098,40.515174],[-74.259737,40.515557],[-74.259883,40.515118],[-74.258912,40.514979],[-74.258515,40.515445],[-74.258766,40.515583],[-74.258693,40.515885],[-74.257646,40.516816],[-74.257752,40.517502],[-74.258219,40.517613],[-74.258036,40.518409],[-74.258432,40.518355],[-74.258539,40.518547],[-74.257962,40.519205],[-74.257422,40.519176],[-74.256051,40.520216],[-74.255872,40.520079],[-74.255402,40.520654],[-74.255437,40.520984],[-74.255149,40.521093],[-74.25522,40.521367],[-74.256586,40.5217],[-74.256081,40.522001],[-74.255897,40.523236],[-74.257083,40.523458],[-74.257154,40.523815],[-74.256541,40.524088],[-74.254887,40.523975],[-74.255179,40.52274],[-74.253776,40.522737],[-74.252839,40.523147],[-74.254638,40.523096],[-74.254635,40.524029],[-74.253843,40.52411],[-74.255713,40.524196],[-74.256395,40.524582],[-74.256143,40.524691],[-74.256249,40.525295],[-74.255782,40.524965],[-74.255063,40.524881],[-74.252759,40.525398],[-74.254293,40.528915],[-74.255048,40.529026],[-74.256345,40.52848],[-74.255812,40.526831],[-74.256173,40.52642],[-74.257361,40.526094],[-74.2561,40.526667],[-74.256493,40.527272],[-74.256638,40.527108],[-74.257465,40.527219],[-74.258654,40.526728],[-74.258833,40.526975],[-74.259627,40.526345],[-74.260343,40.527088],[-74.260883,40.527144],[-74.260993,40.526403],[-74.261533,40.526541],[-74.261248,40.525745],[-74.26168,40.525554],[-74.262219,40.525829],[-74.263082,40.525721],[-74.263333,40.525941],[-74.262539,40.526818],[-74.262574,40.527148],[-74.262896,40.52756],[-74.264441,40.528057],[-74.264334,40.527755],[-74.264623,40.527454],[-74.264873,40.528003],[-74.265236,40.527235],[-74.265485,40.527922],[-74.264653,40.529348],[-74.263932,40.529621],[-74.264074,40.530115],[-74.263821,40.530554],[-74.263354,40.530471],[-74.262776,40.530881],[-74.262883,40.531129],[-74.262343,40.53132],[-74.262126,40.531758],[-74.262701,40.531787],[-74.262737,40.531952],[-74.262303,40.5325],[-74.261548,40.532306],[-74.260071,40.533017],[-74.259314,40.53318],[-74.258451,40.533068],[-74.258233,40.533782],[-74.25665,40.533806],[-74.256433,40.533943],[-74.257188,40.534136],[-74.256647,40.534602],[-74.255566,40.534902],[-74.255708,40.535478],[-74.256393,40.53526],[-74.256394,40.534821],[-74.256827,40.534657],[-74.257546,40.534631],[-74.257617,40.535016],[-74.257365,40.535125],[-74.2601,40.534883],[-74.260316,40.534719],[-74.260211,40.534115],[-74.261181,40.534282],[-74.262151,40.534833],[-74.262689,40.535301],[-74.262615,40.535877],[-74.26301,40.536098],[-74.262135,40.539225],[-74.259855,40.538221],[-74.258803,40.53731],[-74.258088,40.537245],[-74.257561,40.537678],[-74.258043,40.539015],[-74.257812,40.539901],[-74.257036,40.540246],[-74.256044,40.540177],[-74.254449,40.539629],[-74.254081,40.538359],[-74.253863,40.537505],[-74.254492,40.537415],[-74.25466,40.537105],[-74.253898,40.534081],[-74.253288,40.534161],[-74.253106,40.533332],[-74.253165,40.532976],[-74.253712,40.532765],[-74.253188,40.529919],[-74.252844,40.52961],[-74.252982,40.529352],[-74.252462,40.528349],[-74.25209,40.528059],[-74.251846,40.526927],[-74.252167,40.526623],[-74.251581,40.526467],[-74.251425,40.525374],[-74.251204,40.52489],[-74.250981,40.524887],[-74.251207,40.524752],[-74.250958,40.52447],[-74.251116,40.524286],[-74.250503,40.524266],[-74.250149,40.523725],[-74.250101,40.523138],[-74.25098,40.522215],[-74.251008,40.521506],[-74.25231,40.520875],[-74.254742,40.52112],[-74.254607,40.520576],[-74.255091,40.519865],[-74.255707,40.519787],[-74.256168,40.519394],[-74.256228,40.517703],[-74.256596,40.516799],[-74.257786,40.516202],[-74.259188,40.513101],[-74.260195,40.513173],[-74.260284,40.512161],[-74.261051,40.510566],[-74.259799,40.510204],[-74.260223,40.509383],[-74.260114,40.509944],[-74.260875,40.510161],[-74.261171,40.509587],[-74.260889,40.509472],[-74.261276,40.508791],[-74.260943,40.508478],[-74.262436,40.505853],[-74.26298,40.504025],[-74.26265,40.50393],[-74.262765,40.503701],[-74.263935,40.502269],[-74.264386,40.5024],[-74.266241,40.500443],[-74.266149,40.500203],[-74.266499,40.499913],[-74.26617,40.499798],[-74.267944,40.493657],[-74.271867,40.494775],[-74.28095,40.496016],[-74.278274,40.500633],[-74.278022,40.500715],[-74.277986,40.500962],[-74.27795,40.50099],[-74.277878,40.500962],[-74.277878,40.50099]],[[-74.277516,40.501703],[-74.27748,40.501648],[-74.27748,40.501702],[-74.277516,40.501703]],[[-74.27748,40.501702],[-74.277444,40.50173],[-74.27748,40.50173],[-74.27748,40.501702]],[[-74.25665,40.533806],[-74.256614,40.533696],[-74.256614,40.533806],[-74.25665,40.533806]],[[-74.256433,40.533943],[-74.256253,40.53397],[-74.256433,40.53397],[-74.256433,40.533943]],[[-74.257365,40.535125],[-74.257185,40.535152],[-74.257364,40.535152],[-74.257365,40.535125]],[[-74.261719,40.53475],[-74.261683,40.534777],[-74.261719,40.534777],[-74.261719,40.53475]],[[-74.262902,40.536207],[-74.262866,40.53618],[-74.262866,40.536207],[-74.262902,40.536207]],[[-74.255706,40.536137],[-74.256462,40.536056],[-74.25657,40.536002],[-74.255778,40.535973],[-74.255706,40.536137]],[[-74.255779,40.535863],[-74.255779,40.535844],[-74.255779,40.535863],[-74.255779,40.535863]],[[-74.256606,40.536002],[-74.260061,40.535625],[-74.260313,40.535543],[-74.256606,40.536002]],[[-74.260099,40.535021],[-74.260136,40.534939],[-74.2601,40.534939],[-74.260099,40.535021]],[[-74.26017,40.535323],[-74.260171,40.535131],[-74.260135,40.535131],[-74.260171,40.535186],[-74.26017,40.535323]],[[-74.260206,40.535433],[-74.260206,40.535433],[-74.260206,40.535323],[-74.260206,40.535433]]],[[[-74.257995,40.520001],[-74.258322,40.518931],[-74.258898,40.518959],[-74.258462,40.520084],[-74.257995,40.520001]]],[[[-74.262574,40.527038],[-74.26261,40.527065],[-74.262574,40.527065],[-74.262574,40.527038]]],[[[-74.269483,40.536989],[-74.269161,40.536384],[-74.270421,40.536332],[-74.269592,40.536687],[-74.269483,40.536989]]],[[[-74.27094,40.542345],[-74.272597,40.541936],[-74.273427,40.541197],[-74.273211,40.541142],[-74.273392,40.54095],[-74.272677,40.539631],[-74.273,40.539769],[-74.273757,40.539468],[-74.274258,40.540018],[-74.274906,40.539937],[-74.275193,40.540185],[-74.274905,40.540294],[-74.274977,40.540486],[-74.27566,40.540597],[-74.274353,40.541416],[-74.274019,40.541288],[-74.273053,40.541985],[-74.271563,40.542432],[-74.27042,40.542643],[-74.270004,40.542477],[-74.27022,40.542371],[-74.270042,40.541986],[-74.270077,40.542343],[-74.269285,40.542451],[-74.269967,40.542508],[-74.269749,40.542739],[-74.268909,40.542672],[-74.268874,40.543208],[-74.267957,40.542559],[-74.268457,40.542505],[-74.268314,40.542202],[-74.267738,40.542256],[-74.267737,40.542556],[-74.26735,40.542786],[-74.267371,40.543221],[-74.266781,40.543521],[-74.2661,40.542963],[-74.264539,40.542934],[-74.264537,40.541794],[-74.263145,40.54073],[-74.262207,40.539298],[-74.263115,40.536921],[-74.263871,40.536731],[-74.265022,40.536843],[-74.265129,40.53709],[-74.265382,40.536898],[-74.267072,40.537012],[-74.267361,40.536765],[-74.268981,40.536604],[-74.270797,40.542098],[-74.27094,40.542345]],[[-74.269284,40.542479],[-74.269176,40.542506],[-74.269284,40.542506],[-74.269284,40.542479]],[[-74.269176,40.542506],[-74.268852,40.54256],[-74.269176,40.542534],[-74.269176,40.542506]]],[[[-74.270799,40.541603],[-74.270871,40.541631],[-74.270799,40.541631],[-74.270799,40.541603]]],[[[-74.270906,40.541741],[-74.270834,40.541713],[-74.270906,40.541686],[-74.270906,40.541741]]],[[[-74.270942,40.541823],[-74.27087,40.541851],[-74.270942,40.541768],[-74.270942,40.541823]]],[[[-74.270977,40.542125],[-74.271049,40.542153],[-74.270977,40.542153],[-74.270977,40.542125]]],[[[-74.269984,40.542492],[-74.269968,40.54248],[-74.269999,40.54248],[-74.269984,40.542492]]]]}}]}