{"type":"FeatureCollection","features":[{"type":"Feature","properties":{"level_ft":3},"geometry":{"type":"MultiPolygon","coordinates":[[[[-74.271867,40.494775],[-74.28095,40.496054],[-74.278202,40.500716],[-74.27734,40.500494],[-74.277305,40.500192],[-74.276585,40.500301],[-74.275975,40.50008],[-74.273602,40.499911],[-74.273351,40.499718],[-74.272416,40.499744],[-74.269218,40.499051],[-74.268174,40.499131],[-74.26803,40.499378],[-74.26617,40.499798],[-74.267944,40.493657],[-74.271867,40.494775]]],[[[-74.266409,40.499984],[-74.266228,40.500362],[-74.266149,40.500203],[-74.266409,40.499984]]],[[[-74.288238,40.499333],[-74.288321,40.500648],[-74.287146,40.503368],[-74.287165,40.504496],[-74.287883,40.505566],[-74.291415,40.50785],[-74.289789,40.509824],[-74.290005,40.509906],[-74.29168,40.50801],[-74.291387,40.510787],[-74.289645,40.509851],[-74.289321,40.509988],[-74.289358,40.509741],[-74.288999,40.509603],[-74.287381,40.509298],[-74.285624,40.507675],[-74.28426,40.506849],[-74.284406,40.506053],[-74.283833,40.505366],[-74.283006,40.505282],[-74.28261,40.505501],[-74.282609,40.505912],[-74.282033,40.505994],[-74.282613,40.504595],[-74.282148,40.50377],[-74.283084,40.503333],[-74.283015,40.502564],[-74.283703,40.501193],[-74.283165,40.50056],[-74.278238,40.500825],[-74.281058,40.496029],[-74.285062,40.496769],[-74.287378,40.49819],[-74.288238,40.499333]]],[[[-74.283321,40.507918],[-74.28354,40.507149],[-74.284044,40.506958],[-74.284475,40.507124],[-74.28404,40.508139],[-74.283321,40.507918]]],[[[-74.266589,40.541595],[-74.26569,40.541428],[-74.266124,40.540825],[-74.266375,40.540963],[-74.26652,40.540799],[-74.266842,40.541211],[-74.266589,40.541595]],[[-74.26659,40.541321],[-74.266554,40.541293],[-74.266554,40.54132],[-74.26659,40.541321]]],[[[-74.270976,40.542537],[-74.270651,40.542636],[-74.270652,40.542317],[-74.270976,40.542537]]],[[[-74.268905,40.542676],[-74.269006,40.54306],[-74.268844,40.54321],[-74.268431,40.542752],[-74.268905,40.542676]]],[[[-74.265528,40.501185],[-74.266264,40.500363],[-74.265042,40.501843],[-74.265528,40.501185]]],[[[-74.265036,40.501849],[-74.264531,40.502445],[-74.26392,40.502362],[-74.263811,40.502664],[-74.262764,40.503732],[-74.263015,40.503952],[-74.263014,40.504144],[-74.262541,40.50579],[-74.262396,40.50612],[-74.262072,40.506338],[-74.261998,40.50697],[-74.261565,40.507188],[-74.261492,40.507518],[-74.261021,40.508395],[-74.261308,40.508725],[-74.261126,40.509329],[-74.261341,40.509466],[-74.260979,40.510179],[-74.260655,40.510234],[-74.261086,40.510454],[-74.261085,40.510646],[-74.260361,40.5121],[-74.260321,40.51317],[-74.259205,40.51347],[-74.257864,40.51624],[-74.25659,40.516813],[-74.257786,40.516202],[-74.259188,40.513101],[-74.260195,40.513173],[-74.260284,40.512161],[-74.261051,40.510566],[-74.259799,40.510204],[-74.260223,40.509383],[-74.260114,40.509944],[-74.260875,40.510161],[-74.261171,40.509587],[-74.260889,40.509472],[-74.261276,40.508791],[-74.260943,40.508478],[-74.261578,40.507067],[-74.261834,40.507023],[-74.262154,40.506091],[-74.262436,40.505853],[-74.26298,40.504025],[-74.26265,40.50393],[-74.262765,40.503701],[-74.263935,40.502269],[-74.264386,40.5024],[-74.265036,40.501849]]],[[[-74.25462,40.537071],[-74.253898,40.534081],[-74.253288,40.534161],[-74.253165,40.532976],[-74.253697,40.532885],[-74.253556,40.532158],[-74.253671,40.532147],[-74.253206,40.530749],[-74.253188,40.529919],[-74.252832,40.529573],[-74.252853,40.52949],[-74.252982,40.529352],[-74.25207,40.528004],[-74.251846,40.526927],[-74.252167,40.526623],[-74.251581,40.526467],[-74.251425,40.525374],[-74.251204,40.52489],[-74.250981,40.524887],[-74.251207,40.524752],[-74.250958,40.52447],[-74.251116,40.524286],[-74.250466,40.524235],[-74.250097,40.523173],[-74.250844,40.522241],[-74.25098,40.522215],[-74.251025,40.521478],[-74.25192,40.520989],[-74.253213,40.520884],[-74.254742,40.52112],[-74.254607,40.520576],[-74.255091,40.519865],[-74.255707,40.519787],[-74.256168,40.519394],[-74.256228,40.517703],[-74.256603,40.516841],[-74.256312,40.517664],[-74.256378,40.519339],[-74.255765,40.519969],[-74.25508,40.520187],[-74.25486,40.521284],[-74.253099,40.521088],[-74.253278,40.521308],[-74.253098,40.521308],[-74.25184,40.521058],[-74.250465,40.523059],[-74.251398,40.52372],[-74.254382,40.52433],[-74.254309,40.524577],[-74.253661,40.524658],[-74.253231,40.524273],[-74.252619,40.524409],[-74.253086,40.524575],[-74.252905,40.524739],[-74.253229,40.524877],[-74.252542,40.525726],[-74.252112,40.525286],[-74.251823,40.525643],[-74.253105,40.529159],[-74.255514,40.529384],[-74.255514,40.529549],[-74.252888,40.529488],[-74.253282,40.529873],[-74.253278,40.530916],[-74.253812,40.532565],[-74.253811,40.532866],[-74.253342,40.533058],[-74.253483,40.533936],[-74.253986,40.534047],[-74.254623,40.537013],[-74.255487,40.537043],[-74.254514,40.53726],[-74.254514,40.537452],[-74.253974,40.537561],[-74.253972,40.53789],[-74.254651,40.539182],[-74.255944,40.539844],[-74.256807,40.539955],[-74.257347,40.539874],[-74.257745,40.539353],[-74.257211,40.537705],[-74.257466,40.53691],[-74.25815,40.536801],[-74.258869,40.536995],[-74.260304,40.538041],[-74.260882,40.537493],[-74.261314,40.537549],[-74.261711,40.537056],[-74.261275,40.5384],[-74.26149,40.538428],[-74.261636,40.537961],[-74.262103,40.538182],[-74.262135,40.539225],[-74.261345,40.538752],[-74.261418,40.538537],[-74.261166,40.53866],[-74.260351,40.538449],[-74.258803,40.53731],[-74.258088,40.537245],[-74.257561,40.537678],[-74.258043,40.539015],[-74.257812,40.539901],[-74.257036,40.540246],[-74.256044,40.540177],[-74.254449,40.539629],[-74.253863,40.537505],[-74.254492,40.537415],[-74.254455,40.537228],[-74.25462,40.537071]],[[-74.253099,40.521088],[-74.253063,40.521061],[-74.253063,40.521088],[-74.253099,40.521088]]],[[[-74.256018,40.529357],[-74.257964,40.528456],[-74.260339,40.528433],[-74.257675,40.528839],[-74.257709,40.529388],[-74.257349,40.52958],[-74.25555,40.529549],[-74.255623,40.529302],[-74.256018,40.529357]]],[[[-74.255409,40.538525],[-74.254837,40.537618],[-74.25606,40.537565],[-74.256165,40.538417],[-74.255409,40.538525]]],[[[-74.265188,40.540961],[-74.264003,40.540107],[-74.264618,40.539175],[-74.265911,40.539809],[-74.265801,40.540468],[-74.265188,40.540961]]],[[[-74.262207,40.539298],[-74.262712,40.538924],[-74.262855,40.539089],[-74.26339,40.540436],[-74.264682,40.541426],[-74.265078,40.541372],[-74.264789,40.541701],[-74.265219,40.542169],[-74.265181,40.542937],[-74.267341,40.542612],[-74.267395,40.543172],[-74.267159,40.543406],[-74.266652,40.543509],[-74.266084,40.54296],[-74.264539,40.542934],[-74.2646,40.541902],[-74.262999,40.540547],[-74.262207,40.539298]]]]}}]}