{"type":"FeatureCollection","features":[{"type":"Feature","properties":{"level_ft":2},"geometry":{"type":"MultiPolygon","coordinates":[[[[-74.277161,40.500219],[-74.274968,40.500078],[-74.273602,40.499856],[-74.273459,40.499663],[-74.272416,40.499744],[-74.269218,40.498996],[-74.268678,40.49916],[-74.268175,40.499049],[-74.26803,40.499378],[-74.26617,40.499798],[-74.267944,40.493657],[-74.271867,40.494775],[-74.28095,40.496016],[-74.278202,40.500716],[-74.277519,40.500577],[-74.277161,40.500219]],[[-74.277305,40.500165],[-74.277341,40.500137],[-74.277305,40.500137],[-74.277305,40.500165]]],[[[-74.266373,40.499869],[-74.266374,40.499869],[-74.266374,40.499869],[-74.266373,40.499869]]],[[[-74.266409,40.499984],[-74.266192,40.50033],[-74.266149,40.500203],[-74.266409,40.499984]]],[[[-74.266215,40.500347],[-74.266228,40.500335],[-74.266228,40.500362],[-74.266215,40.500347]]],[[[-74.265842,40.500779],[-74.266264,40.500418],[-74.265086,40.501788],[-74.265842,40.500779]]],[[[-74.288314,40.499786],[-74.288191,40.501202],[-74.287146,40.503368],[-74.287165,40.504496],[-74.287883,40.505566],[-74.291415,40.50785],[-74.289789,40.509824],[-74.290005,40.509906],[-74.29168,40.50801],[-74.291387,40.510787],[-74.289681,40.509851],[-74.289321,40.509988],[-74.289394,40.509768],[-74.288963,40.509575],[-74.287309,40.509243],[-74.285624,40.507675],[-74.284332,40.506904],[-74.284371,40.505916],[-74.283797,40.505338],[-74.282863,40.505226],[-74.282609,40.505885],[-74.282069,40.506021],[-74.282648,40.504732],[-74.282184,40.503688],[-74.283084,40.503333],[-74.282979,40.502701],[-74.283703,40.501193],[-74.283201,40.50056],[-74.278238,40.500798],[-74.281058,40.496029],[-74.285062,40.496769],[-74.286349,40.497401],[-74.288046,40.498979],[-74.288314,40.499786]]],[[[-74.27094,40.542482],[-74.270651,40.542636],[-74.270652,40.542344],[-74.27094,40.542482]]],[[[-74.268888,40.5427],[-74.269006,40.54306],[-74.268847,40.54321],[-74.268479,40.542779],[-74.268888,40.5427]]],[[[-74.265042,40.501843],[-74.265073,40.501804],[-74.265072,40.501843],[-74.265042,40.501843]]],[[[-74.265036,40.501849],[-74.264495,40.502445],[-74.26392,40.502362],[-74.263811,40.502664],[-74.262728,40.503814],[-74.263015,40.503952],[-74.263014,40.504144],[-74.262541,40.50579],[-74.262396,40.50612],[-74.262072,40.506338],[-74.261998,40.50697],[-74.261601,40.507106],[-74.261456,40.507573],[-74.261021,40.508395],[-74.261308,40.508725],[-74.261126,40.509329],[-74.261341,40.509466],[-74.260979,40.510179],[-74.260655,40.510234],[-74.261014,40.510427],[-74.261085,40.510646],[-74.260361,40.5121],[-74.260285,40.513198],[-74.259205,40.513415],[-74.257828,40.516267],[-74.25659,40.516813],[-74.257786,40.516202],[-74.259188,40.513101],[-74.260195,40.513173],[-74.260284,40.512161],[-74.261051,40.510566],[-74.259799,40.510204],[-74.260223,40.509383],[-74.260114,40.509944],[-74.260875,40.510161],[-74.261171,40.509587],[-74.260889,40.509472],[-74.261276,40.508791],[-74.260943,40.508478],[-74.261578,40.507067],[-74.261834,40.507023],[-74.262154,40.506091],[-74.262436,40.505853],[-74.26298,40.504025],[-74.26265,40.50393],[-74.262765,40.503701],[-74.263935,40.502269],[-74.264386,40.5024],[-74.265036,40.501849]],[[-74.259205,40.513415],[-74.259098,40.51336],[-74.259097,40.513415],[-74.259205,40.513415]]],[[[-74.252975,40.529339],[-74.25209,40.528059],[-74.251846,40.526927],[-74.252167,40.526623],[-74.251581,40.526467],[-74.251425,40.525374],[-74.251204,40.52489],[-74.250981,40.524887],[-74.251207,40.524752],[-74.250958,40.52447],[-74.251116,40.524286],[-74.250466,40.524235],[-74.250101,40.523138],[-74.250844,40.522241],[-74.25098,40.522215],[-74.251025,40.521478],[-74.25192,40.520989],[-74.253213,40.520884],[-74.254742,40.52112],[-74.254607,40.520576],[-74.255091,40.519865],[-74.255707,40.519787],[-74.256168,40.519394],[-74.256228,40.517703],[-74.256603,40.516868],[-74.256276,40.517774],[-74.256378,40.519311],[-74.255729,40.519969],[-74.255044,40.520214],[-74.254825,40.521229],[-74.252883,40.520978],[-74.251804,40.521058],[-74.251082,40.521551],[-74.251333,40.521826],[-74.250429,40.523087],[-74.251398,40.52372],[-74.25431,40.524275],[-74.254021,40.524467],[-74.253627,40.524246],[-74.251721,40.523995],[-74.252476,40.524107],[-74.251537,40.525093],[-74.252287,40.526577],[-74.252997,40.529214],[-74.255478,40.529384],[-74.255514,40.529549],[-74.252854,40.529488],[-74.252975,40.529339]]],[[[-74.255946,40.529385],[-74.257964,40.528456],[-74.259943,40.528432],[-74.257603,40.528839],[-74.257313,40.529525],[-74.25555,40.529549],[-74.255623,40.529302],[-74.255946,40.529385]]],[[[-74.252852,40.529491],[-74.253246,40.529791],[-74.253243,40.530779],[-74.253565,40.531246],[-74.253776,40.53251],[-74.253739,40.532921],[-74.253343,40.533003],[-74.253483,40.533936],[-74.253986,40.534102],[-74.254659,40.537104],[-74.253898,40.534081],[-74.253288,40.534161],[-74.253106,40.533332],[-74.253165,40.532976],[-74.253712,40.532765],[-74.253206,40.530749],[-74.253188,40.529919],[-74.252899,40.529714],[-74.252832,40.529573],[-74.252852,40.529491]]],[[[-74.254694,40.537206],[-74.254514,40.537452],[-74.253937,40.537588],[-74.254328,40.538962],[-74.256196,40.539926],[-74.257383,40.539874],[-74.2576,40.539655],[-74.257711,40.538859],[-74.257212,40.537485],[-74.25797,40.536938],[-74.2593,40.537215],[-74.260484,40.538233],[-74.260808,40.538234],[-74.260772,40.538042],[-74.261421,40.537741],[-74.261275,40.5384],[-74.261527,40.5384],[-74.261563,40.538153],[-74.261923,40.538209],[-74.262135,40.539225],[-74.261345,40.538752],[-74.261418,40.538537],[-74.261166,40.53866],[-74.260351,40.538449],[-74.258803,40.53731],[-74.258088,40.537245],[-74.257561,40.537678],[-74.258043,40.539015],[-74.257812,40.539901],[-74.257036,40.540246],[-74.256044,40.540177],[-74.254449,40.539629],[-74.253863,40.537505],[-74.254694,40.537206]]],[[[-74.265188,40.540961],[-74.264039,40.54008],[-74.264654,40.53923],[-74.265875,40.539782],[-74.265513,40.540659],[-74.265188,40.540961]]],[[[-74.262388,40.538979],[-74.262819,40.539254],[-74.263462,40.540546],[-74.264646,40.541454],[-74.26497,40.5414],[-74.264789,40.541701],[-74.265219,40.542196],[-74.265181,40.542937],[-74.267341,40.54264],[-74.267159,40.543406],[-74.266652,40.543509],[-74.266084,40.54296],[-74.264539,40.542934],[-74.2646,40.541902],[-74.262999,40.540547],[-74.262207,40.539298],[-74.262388,40.538979]]]]}}]}