{"type":"FeatureCollection","features":[{"type":"Feature","properties":{"level_ft":18},"geometry":{"type":"MultiPolygon","coordinates":[[[[-74.280914,40.496219],[-74.280878,40.496246],[-74.280878,40.496219],[-74.280914,40.496219]]],[[[-74.276068,40.504363],[-74.276104,40.504555],[-74.275995,40.504692],[-74.276068,40.504363]]],[[[-74.276283,40.504665],[-74.276319,40.504638],[-74.276319,40.504665],[-74.276283,40.504665]]],[[[-74.275923,40.504692],[-74.275995,40.504747],[-74.275923,40.504747],[-74.275923,40.504692]]],[[[-74.275923,40.504774],[-74.275887,40.504774],[-74.275887,40.504746],[-74.275923,40.504747],[-74.275923,40.504774]]],[[[-74.275959,40.504802],[-74.275923,40.504774],[-74.275959,40.504774],[-74.275959,40.504802]]],[[[-74.275851,40.504856],[-74.275887,40.504911],[-74.275851,40.504911],[-74.275851,40.504856]]],[[[-74.275851,40.504911],[-74.275815,40.504939],[-74.275815,40.504911],[-74.275851,40.504911]]],[[[-74.278182,40.506947],[-74.278508,40.506261],[-74.279444,40.505961],[-74.279298,40.506345],[-74.279227,40.506345],[-74.279226,40.506373],[-74.279119,40.506372],[-74.279118,40.5064],[-74.278903,40.506427],[-74.278614,40.506728],[-74.278431,40.507634],[-74.278182,40.506947]]],[[[-74.275814,40.504993],[-74.275779,40.504966],[-74.275815,40.504966],[-74.275814,40.504993]]],[[[-74.275778,40.505048],[-74.275742,40.505076],[-74.275742,40.505048],[-74.275778,40.505048]]],[[[-74.275778,40.505103],[-74.275814,40.505076],[-74.275814,40.505103],[-74.275778,40.505103]]],[[[-74.275742,40.505131],[-74.275706,40.505103],[-74.275742,40.505103],[-74.275742,40.505131]]],[[[-74.275706,40.50524],[-74.27567,40.505213],[-74.275706,40.505213],[-74.275706,40.50524]]],[[[-74.275633,40.50535],[-74.275598,40.505322],[-74.275634,40.505322],[-74.275633,40.50535]]],[[[-74.289308,40.51405],[-74.289202,40.513556],[-74.289418,40.513556],[-74.288483,40.513308],[-74.288559,40.512292],[-74.288199,40.512374],[-74.289211,40.510591],[-74.288453,40.511496],[-74.288165,40.511523],[-74.288419,40.510892],[-74.287989,40.510369],[-74.288313,40.510233],[-74.287918,40.510122],[-74.284726,40.507206],[-74.283534,40.509016],[-74.283494,40.510169],[-74.283132,40.510745],[-74.282918,40.510278],[-74.283279,40.509784],[-74.28321,40.508988],[-74.283464,40.508439],[-74.28314,40.508356],[-74.282964,40.507368],[-74.282244,40.507586],[-74.281849,40.507393],[-74.281127,40.508023],[-74.280733,40.507666],[-74.279941,40.507939],[-74.279835,40.507362],[-74.279475,40.507361],[-74.279082,40.506702],[-74.279947,40.505852],[-74.279477,40.50662],[-74.2798,40.50684],[-74.280232,40.506786],[-74.280414,40.506265],[-74.280092,40.505715],[-74.279769,40.505577],[-74.2793,40.505796],[-74.279265,40.505439],[-74.277325,40.505106],[-74.277076,40.504172],[-74.276464,40.504199],[-74.276247,40.504637],[-74.276283,40.504747],[-74.276065,40.505241],[-74.275849,40.505405],[-74.276393,40.504171],[-74.276104,40.504335],[-74.276322,40.503814],[-74.275816,40.504444],[-74.275421,40.504444],[-74.275131,40.505047],[-74.274664,40.504991],[-74.274592,40.504771],[-74.27488,40.504827],[-74.275061,40.504498],[-74.274883,40.503839],[-74.275137,40.503235],[-74.274096,40.502574],[-74.274708,40.502383],[-74.274386,40.501971],[-74.273774,40.502162],[-74.273953,40.502492],[-74.273449,40.502491],[-74.27327,40.502243],[-74.273487,40.501914],[-74.272877,40.501584],[-74.272481,40.501748],[-74.272302,40.501363],[-74.272301,40.50161],[-74.271618,40.501609],[-74.271369,40.500785],[-74.271009,40.501113],[-74.270542,40.500756],[-74.270362,40.50103],[-74.269606,40.501083],[-74.269247,40.50089],[-74.269067,40.501027],[-74.26878,40.50078],[-74.268276,40.500888],[-74.267595,40.500393],[-74.267233,40.500886],[-74.266227,40.500857],[-74.265648,40.501679],[-74.265144,40.501898],[-74.263951,40.503707],[-74.263986,40.504064],[-74.263373,40.504584],[-74.262644,40.507163],[-74.261994,40.50804],[-74.261993,40.508315],[-74.262604,40.508234],[-74.262963,40.508509],[-74.262747,40.508646],[-74.26228,40.508508],[-74.262243,40.508727],[-74.263465,40.508922],[-74.263571,40.509389],[-74.263283,40.509525],[-74.263605,40.51013],[-74.263351,40.510678],[-74.262955,40.510897],[-74.261839,40.511005],[-74.261479,40.511279],[-74.26108,40.512074],[-74.261187,40.512486],[-74.260824,40.513336],[-74.261253,40.513968],[-74.261756,40.514189],[-74.2611,40.516713],[-74.261529,40.517537],[-74.260702,40.517316],[-74.260844,40.517975],[-74.260198,40.517535],[-74.259729,40.517836],[-74.259584,40.518137],[-74.259872,40.518056],[-74.260374,40.518414],[-74.260122,40.51866],[-74.2603,40.519045],[-74.260012,40.519154],[-74.259762,40.518742],[-74.259114,40.51885],[-74.258497,40.520221],[-74.258819,40.520744],[-74.258063,40.520962],[-74.257956,40.520714],[-74.257486,40.52129],[-74.257091,40.521179],[-74.257668,40.520686],[-74.257418,40.520356],[-74.257744,40.519643],[-74.257313,40.51945],[-74.256159,40.520299],[-74.255689,40.521066],[-74.255975,40.521342],[-74.256587,40.521315],[-74.256838,40.521508],[-74.256658,40.521672],[-74.259138,40.522227],[-74.258633,40.522473],[-74.259064,40.522666],[-74.258774,40.523434],[-74.258339,40.524174],[-74.257512,40.524145],[-74.257262,40.523623],[-74.256973,40.524089],[-74.255102,40.524085],[-74.25478,40.523618],[-74.25489,40.523124],[-74.255178,40.523042],[-74.255214,40.522932],[-74.25489,40.522959],[-74.254707,40.523974],[-74.254347,40.524111],[-74.257008,40.524199],[-74.256682,40.524967],[-74.257255,40.525544],[-74.258011,40.525546],[-74.258582,40.526728],[-74.259303,40.526427],[-74.259845,40.525742],[-74.260131,40.526264],[-74.260527,40.526155],[-74.260492,40.525908],[-74.260923,40.526046],[-74.260961,40.525332],[-74.261285,40.525306],[-74.261178,40.525086],[-74.260926,40.525168],[-74.261215,40.524894],[-74.261108,40.524674],[-74.261791,40.524593],[-74.262405,40.524045],[-74.263089,40.523964],[-74.263306,40.523525],[-74.263773,40.523719],[-74.263484,40.524075],[-74.263987,40.524186],[-74.264314,40.523335],[-74.264566,40.523363],[-74.264419,40.524022],[-74.265096,40.525917],[-74.263189,40.526215],[-74.26272,40.526571],[-74.262574,40.527038],[-74.263004,40.527588],[-74.263974,40.527892],[-74.263831,40.527672],[-74.264624,40.527234],[-74.264911,40.527537],[-74.265167,40.526412],[-74.265418,40.526385],[-74.265558,40.527511],[-74.265917,40.527813],[-74.265266,40.5288],[-74.265409,40.529212],[-74.26494,40.529458],[-74.265045,40.530282],[-74.264754,40.531297],[-74.264106,40.531323],[-74.263743,40.532366],[-74.263346,40.532694],[-74.263385,40.531761],[-74.262918,40.531623],[-74.26187,40.532993],[-74.261259,40.532635],[-74.259134,40.533262],[-74.260932,40.533678],[-74.261003,40.533925],[-74.263053,40.533956],[-74.263407,40.535604],[-74.26366,40.535467],[-74.263623,40.535632],[-74.263515,40.535604],[-74.263515,40.535769],[-74.263803,40.535715],[-74.263584,40.536593],[-74.265346,40.536843],[-74.265779,40.536625],[-74.267505,40.536683],[-74.26891,40.536411],[-74.269552,40.537923],[-74.269019,40.535918],[-74.269377,40.536412],[-74.271213,40.536169],[-74.271068,40.536471],[-74.269592,40.536797],[-74.270239,40.536963],[-74.269842,40.537264],[-74.270342,40.538418],[-74.270233,40.538775],[-74.271746,40.538146],[-74.271712,40.537488],[-74.272036,40.537461],[-74.272715,40.538917],[-74.273075,40.538945],[-74.272966,40.539274],[-74.273217,40.539549],[-74.274728,40.53947],[-74.275015,40.539635],[-74.274942,40.539992],[-74.275697,40.540378],[-74.276203,40.53961],[-74.277499,40.539503],[-74.277174,40.539859],[-74.277497,40.540108],[-74.274353,40.541416],[-74.274019,40.541288],[-74.273053,40.541985],[-74.271614,40.542417],[-74.270524,40.542657],[-74.270078,40.542445],[-74.269638,40.54277],[-74.269063,40.542568],[-74.26888,40.543207],[-74.268408,40.542739],[-74.267683,40.542569],[-74.267353,40.542779],[-74.267359,40.543234],[-74.266731,40.543525],[-74.266108,40.542965],[-74.264539,40.542934],[-74.264537,40.541794],[-74.263145,40.54073],[-74.262245,40.539328],[-74.261148,40.538651],[-74.259855,40.538221],[-74.258681,40.537258],[-74.258088,40.537245],[-74.257591,40.537522],[-74.258052,40.539145],[-74.257537,40.54012],[-74.256253,40.540225],[-74.254449,40.539629],[-74.253863,40.537505],[-74.254492,40.537415],[-74.25466,40.537105],[-74.253898,40.534081],[-74.253288,40.534161],[-74.253106,40.533332],[-74.253165,40.532976],[-74.253712,40.532765],[-74.253188,40.529919],[-74.252844,40.52961],[-74.252982,40.529352],[-74.252462,40.528349],[-74.25209,40.528059],[-74.251846,40.526927],[-74.252167,40.526623],[-74.251581,40.526467],[-74.251425,40.525374],[-74.251204,40.52489],[-74.250981,40.524887],[-74.251207,40.524752],[-74.250958,40.52447],[-74.251116,40.524286],[-74.250466,40.524235],[-74.250101,40.523138],[-74.25098,40.522215],[-74.251025,40.521478],[-74.25192,40.520989],[-74.253213,40.520884],[-74.254742,40.52112],[-74.254607,40.520576],[-74.255091,40.519865],[-74.255707,40.519787],[-74.256168,40.519394],[-74.256228,40.517703],[-74.256596,40.516799],[-74.257786,40.516202],[-74.259188,40.513101],[-74.260195,40.513173],[-74.260284,40.512161],[-74.261051,40.510566],[-74.259799,40.510204],[-74.260223,40.509383],[-74.260114,40.509944],[-74.260875,40.510161],[-74.261171,40.509587],[-74.260889,40.509472],[-74.261276,40.508791],[-74.260943,40.508478],[-74.262436,40.505853],[-74.26298,40.504025],[-74.26265,40.50393],[-74.262765,40.503701],[-74.263935,40.502269],[-74.264386,40.5024],[-74.266241,40.500443],[-74.266149,40.500203],[-74.266499,40.499913],[-74.26617,40.499798],[-74.267944,40.493657],[-74.271867,40.494775],[-74.28095,40.496016],[-74.280625,40.49663],[-74.280733,40.496603],[-74.281058,40.496029],[-74.283207,40.496293],[-74.285062,40.496769],[-74.287378,40.49819],[-74.288238,40.499333],[-74.288321,40.500648],[-74.287146,40.503368],[-74.287165,40.504496],[-74.287883,40.505566],[-74.291415,40.50785],[-74.289789,40.509824],[-74.290005,40.509906],[-74.29168,40.50801],[-74.291288,40.51172],[-74.29097,40.511665],[-74.290531,40.51419],[-74.289308,40.51405]],[[-74.288559,40.512292],[-74.288667,40.512237],[-74.288559,40.512265],[-74.288559,40.512292]],[[-74.281596,40.507503],[-74.281561,40.507448],[-74.28156,40.507502],[-74.281596,40.507503]],[[-74.276247,40.504747],[-74.276211,40.50472],[-74.276211,40.504747],[-74.276247,40.504747]],[[-74.276139,40.504857],[-74.276175,40.504829],[-74.276139,40.504829],[-74.276139,40.504857]],[[-74.260558,40.517398],[-74.260522,40.517426],[-74.260558,40.517426],[-74.260558,40.517398]],[[-74.259584,40.518137],[-74.259548,40.51822],[-74.259584,40.51822],[-74.259584,40.518137]],[[-74.259584,40.51822],[-74.25962,40.518247],[-74.25962,40.51822],[-74.259584,40.51822]],[[-74.25962,40.518247],[-74.259655,40.518275],[-74.259656,40.518247],[-74.25962,40.518247]],[[-74.259655,40.518275],[-74.259691,40.518302],[-74.259691,40.518275],[-74.259655,40.518275]],[[-74.259691,40.518302],[-74.259763,40.51833],[-74.259763,40.518302],[-74.259691,40.518302]],[[-74.258633,40.522528],[-74.258597,40.522555],[-74.258633,40.522555],[-74.258633,40.522528]],[[-74.263623,40.53555],[-74.263588,40.535522],[-74.263587,40.53555],[-74.263623,40.53555]],[[-74.269408,40.537812],[-74.269372,40.53784],[-74.269408,40.53784],[-74.269408,40.537812]],[[-74.269552,40.537923],[-74.269588,40.537977],[-74.269588,40.537923],[-74.269552,40.537923]],[[-74.26941,40.537291],[-74.269446,40.537263],[-74.26941,40.537263],[-74.26941,40.537291]],[[-74.289597,40.513639],[-74.289705,40.513639],[-74.289597,40.513639],[-74.289597,40.513639]],[[-74.289849,40.513694],[-74.289813,40.513667],[-74.289813,40.513694],[-74.289849,40.513694]],[[-74.289885,40.513694],[-74.290101,40.513722],[-74.290101,40.513722],[-74.289885,40.513694]],[[-74.290388,40.513778],[-74.290316,40.513778],[-74.290316,40.513778],[-74.290388,40.513778]]],[[[-74.264771,40.526383],[-74.264408,40.527343],[-74.263616,40.527342],[-74.263006,40.526846],[-74.262754,40.526956],[-74.262827,40.526681],[-74.263366,40.526792],[-74.26452,40.526246],[-74.26524,40.526082],[-74.264986,40.526576],[-74.264771,40.526383]],[[-74.264879,40.526301],[-74.264915,40.526219],[-74.264843,40.526219],[-74.264879,40.526301]]],[[[-74.263552,40.53544],[-74.263588,40.535412],[-74.263588,40.53544],[-74.263552,40.53544]]]]}}]}