{"type":"FeatureCollection","features":[{"type":"Feature","properties":{"level_ft":6},"geometry":{"type":"MultiPolygon","coordinates":[[[[-74.271867,40.494775],[-74.28095,40.496054],[-74.278202,40.500716],[-74.274967,40.500325],[-74.273314,40.49991],[-74.272559,40.499991],[-74.26954,40.499381],[-74.268965,40.499407],[-74.268784,40.499709],[-74.267993,40.49968],[-74.2672,40.50009],[-74.267057,40.500007],[-74.267814,40.499432],[-74.266806,40.499623],[-74.266518,40.499924],[-74.26617,40.499798],[-74.267944,40.493657],[-74.271867,40.494775]]],[[[-74.288317,40.500012],[-74.288191,40.501202],[-74.287146,40.503368],[-74.287165,40.504496],[-74.287883,40.505566],[-74.291415,40.50785],[-74.289789,40.509824],[-74.290005,40.509906],[-74.29168,40.50801],[-74.291346,40.511172],[-74.290254,40.51084],[-74.288926,40.509767],[-74.288422,40.509821],[-74.287956,40.509601],[-74.2881,40.509326],[-74.287704,40.50949],[-74.287381,40.509325],[-74.285337,40.507455],[-74.284044,40.506793],[-74.28437,40.506053],[-74.283797,40.505365],[-74.282934,40.505336],[-74.282645,40.505912],[-74.281997,40.505993],[-74.282577,40.504622],[-74.282148,40.503715],[-74.282796,40.503415],[-74.283307,40.501165],[-74.283667,40.501193],[-74.283201,40.500615],[-74.278237,40.500935],[-74.281058,40.496029],[-74.285062,40.496769],[-74.286349,40.497401],[-74.288046,40.498979],[-74.288317,40.500012]]],[[[-74.283571,40.508577],[-74.283287,40.507423],[-74.28372,40.506985],[-74.284224,40.506958],[-74.284546,40.507316],[-74.284075,40.508331],[-74.283571,40.508577]]],[[[-74.274002,40.541299],[-74.273004,40.542004],[-74.271192,40.542483],[-74.271156,40.542318],[-74.272885,40.541855],[-74.273318,40.541444],[-74.273533,40.541609],[-74.273787,40.54117],[-74.274002,40.541299]]],[[[-74.270976,40.542537],[-74.270651,40.542636],[-74.270617,40.542207],[-74.270976,40.542537]]],[[[-74.26898,40.542623],[-74.26896,40.542615],[-74.268992,40.542616],[-74.26898,40.542623]]],[[[-74.266445,40.499955],[-74.266516,40.500418],[-74.265903,40.500746],[-74.2637,40.503597],[-74.262538,40.506559],[-74.262178,40.506915],[-74.261637,40.507106],[-74.261203,40.507984],[-74.261093,40.508395],[-74.261453,40.508396],[-74.261847,40.508781],[-74.261308,40.50878],[-74.261126,40.509329],[-74.261341,40.509466],[-74.260979,40.510125],[-74.261229,40.510592],[-74.260397,40.512017],[-74.260321,40.513198],[-74.259817,40.513389],[-74.259995,40.513719],[-74.259744,40.513691],[-74.259887,40.513965],[-74.259345,40.514623],[-74.259452,40.514843],[-74.258552,40.515033],[-74.258553,40.514759],[-74.258119,40.515499],[-74.258225,40.516076],[-74.258008,40.516377],[-74.25659,40.516813],[-74.257786,40.516202],[-74.259188,40.513101],[-74.260195,40.513173],[-74.260284,40.512161],[-74.261051,40.510566],[-74.259799,40.510204],[-74.260223,40.509383],[-74.260114,40.509944],[-74.260875,40.510161],[-74.261171,40.509587],[-74.260889,40.509472],[-74.261276,40.508791],[-74.260943,40.508478],[-74.261578,40.507067],[-74.261834,40.507023],[-74.262436,40.505853],[-74.26298,40.504025],[-74.26265,40.50393],[-74.263935,40.502269],[-74.264386,40.5024],[-74.265032,40.501855],[-74.265896,40.500714],[-74.266227,40.500468],[-74.266149,40.500203],[-74.266445,40.499955]],[[-74.259636,40.51369],[-74.259672,40.513636],[-74.259564,40.513635],[-74.259636,40.51369]],[[-74.259564,40.513635],[-74.259528,40.513608],[-74.259528,40.513635],[-74.259564,40.513635]],[[-74.258082,40.515691],[-74.258046,40.515718],[-74.258082,40.515719],[-74.258082,40.515691]]],[[[-74.260052,40.52824],[-74.260339,40.528351],[-74.26178,40.527722],[-74.262426,40.528355],[-74.262424,40.528932],[-74.2621,40.528958],[-74.262209,40.528602],[-74.261454,40.528463],[-74.261021,40.528819],[-74.259942,40.528679],[-74.259797,40.528926],[-74.259546,40.528788],[-74.259221,40.529035],[-74.259328,40.529282],[-74.258789,40.529253],[-74.258427,40.529884],[-74.257815,40.529993],[-74.257636,40.529773],[-74.254003,40.529573],[-74.253499,40.529572],[-74.253354,40.529873],[-74.253351,40.530779],[-74.254573,40.531029],[-74.255183,40.531387],[-74.254787,40.531633],[-74.254893,40.532018],[-74.25385,40.531988],[-74.253705,40.532317],[-74.254245,40.532099],[-74.255468,40.532239],[-74.254172,40.532373],[-74.254316,40.532511],[-74.253992,40.532592],[-74.254133,40.533416],[-74.254564,40.533417],[-74.25424,40.533609],[-74.253985,40.534404],[-74.254596,40.534598],[-74.254486,40.535064],[-74.254775,40.534982],[-74.254592,40.535723],[-74.254983,40.536904],[-74.255667,40.536988],[-74.258978,40.536583],[-74.261242,40.537329],[-74.262038,40.53615],[-74.262037,40.536507],[-74.262109,40.53637],[-74.262217,40.53648],[-74.261998,40.537331],[-74.262393,40.537688],[-74.262609,40.537469],[-74.262118,40.539225],[-74.261345,40.538752],[-74.261418,40.538537],[-74.261166,40.53866],[-74.259855,40.538221],[-74.258803,40.53731],[-74.25781,40.537334],[-74.257561,40.537678],[-74.258043,40.539015],[-74.257915,40.539751],[-74.257299,40.540194],[-74.256253,40.540225],[-74.254449,40.539629],[-74.253863,40.537505],[-74.254492,40.537415],[-74.25466,40.537105],[-74.253898,40.534081],[-74.253288,40.534161],[-74.253106,40.533332],[-74.253165,40.532976],[-74.253712,40.532765],[-74.253188,40.529919],[-74.252844,40.52961],[-74.252982,40.529352],[-74.252462,40.528349],[-74.25209,40.528059],[-74.251846,40.526927],[-74.252167,40.526623],[-74.251581,40.526467],[-74.251425,40.525374],[-74.251204,40.52489],[-74.250981,40.524887],[-74.251207,40.524752],[-74.250958,40.52447],[-74.251116,40.524286],[-74.250466,40.524235],[-74.250097,40.523173],[-74.25098,40.522215],[-74.251025,40.521478],[-74.25192,40.520989],[-74.253213,40.520884],[-74.254742,40.52112],[-74.254607,40.520576],[-74.255091,40.519865],[-74.255707,40.519787],[-74.256168,40.519394],[-74.256228,40.517703],[-74.256577,40.516841],[-74.256637,40.517555],[-74.257211,40.51783],[-74.257138,40.518187],[-74.257675,40.518847],[-74.256489,40.51868],[-74.256197,40.519613],[-74.25508,40.520214],[-74.254897,40.52123],[-74.25529,40.521779],[-74.25263,40.521417],[-74.252158,40.522432],[-74.252554,40.522377],[-74.25266,40.523009],[-74.252086,40.522651],[-74.251473,40.522869],[-74.250898,40.522648],[-74.250753,40.523197],[-74.251398,40.52372],[-74.254742,40.524276],[-74.254632,40.524715],[-74.254057,40.524714],[-74.254271,40.525016],[-74.252723,40.525397],[-74.253259,40.526497],[-74.252897,40.526853],[-74.253147,40.527402],[-74.252823,40.527511],[-74.252821,40.528115],[-74.253073,40.527951],[-74.253216,40.528308],[-74.254042,40.528557],[-74.254435,40.529327],[-74.256306,40.529276],[-74.256523,40.529057],[-74.256307,40.529001],[-74.25609,40.529275],[-74.256129,40.528589],[-74.25649,40.528233],[-74.256957,40.528371],[-74.257606,40.528125],[-74.25836,40.528484],[-74.260052,40.52824]],[[-74.257851,40.529883],[-74.257779,40.529828],[-74.257779,40.529883],[-74.257851,40.529883]],[[-74.259907,40.52835],[-74.259943,40.528323],[-74.259907,40.528322],[-74.259907,40.52835]]],[[[-74.262996,40.529701],[-74.262674,40.529344],[-74.262606,40.528163],[-74.263397,40.528357],[-74.263144,40.528796],[-74.263284,40.529647],[-74.262996,40.529701]]],[[[-74.267359,40.537479],[-74.265165,40.537282],[-74.26531,40.536981],[-74.26718,40.537039],[-74.267396,40.537204],[-74.267359,40.537479]]],[[[-74.262207,40.539298],[-74.262895,40.538074],[-74.26329,40.538294],[-74.263363,40.538047],[-74.263759,40.538076],[-74.264403,40.538983],[-74.268067,40.540857],[-74.267964,40.541213],[-74.268534,40.541077],[-74.269396,40.541546],[-74.269395,40.541875],[-74.268998,40.542067],[-74.269105,40.542451],[-74.268529,40.54256],[-74.268422,40.542175],[-74.267738,40.542174],[-74.267557,40.542613],[-74.26738,40.541844],[-74.266661,40.541568],[-74.265869,40.541758],[-74.265618,40.541511],[-74.265217,40.54291],[-74.267377,40.542585],[-74.267371,40.543221],[-74.266712,40.543524],[-74.266108,40.542965],[-74.264539,40.542934],[-74.2646,40.541902],[-74.262999,40.540547],[-74.262207,40.539298]],[[-74.267668,40.541542],[-74.267668,40.541542],[-74.267668,40.54157],[-74.267668,40.541542]],[[-74.267741,40.54146],[-74.267741,40.54146],[-74.267741,40.541477],[-74.267741,40.54146]],[[-74.267921,40.541213],[-74.267957,40.541323],[-74.267957,40.541213],[-74.267921,40.541213]],[[-74.267849,40.54135],[-74.267777,40.541405],[-74.267813,40.541405],[-74.267849,40.54135]]],[[[-74.268933,40.542651],[-74.269005,40.543066],[-74.26884,40.54321],[-74.268381,40.542724],[-74.268933,40.542651]]]]}}]}