{"type":"FeatureCollection","features":[{"type":"Feature","properties":{"level_ft":4},"geometry":{"type":"MultiPolygon","coordinates":[[[[-74.277125,40.500302],[-74.271265,40.499686],[-74.270296,40.4993],[-74.269324,40.499353],[-74.269109,40.499133],[-74.268678,40.49916],[-74.268821,40.49938],[-74.268102,40.499268],[-74.266807,40.49954],[-74.26641,40.499882],[-74.26617,40.499798],[-74.267944,40.493657],[-74.271867,40.494775],[-74.28095,40.496016],[-74.278202,40.500716],[-74.277232,40.500576],[-74.277125,40.500302]],[[-74.277233,40.500247],[-74.277269,40.50022],[-74.277233,40.50022],[-74.277233,40.500247]],[[-74.277269,40.50022],[-74.277305,40.500192],[-74.277269,40.500192],[-74.277269,40.50022]]],[[[-74.288317,40.500012],[-74.288191,40.501202],[-74.287146,40.503368],[-74.287165,40.504496],[-74.287883,40.505566],[-74.291415,40.50785],[-74.289789,40.509824],[-74.290005,40.509906],[-74.29168,40.50801],[-74.291384,40.510815],[-74.29083,40.510457],[-74.290075,40.510401],[-74.289968,40.510044],[-74.289645,40.509878],[-74.289285,40.509987],[-74.289142,40.509685],[-74.288603,40.509657],[-74.288136,40.509327],[-74.287417,40.509325],[-74.285624,40.507675],[-74.28426,40.506849],[-74.284406,40.50608],[-74.283761,40.505338],[-74.282826,40.505364],[-74.282645,40.505885],[-74.282033,40.506021],[-74.282613,40.50454],[-74.282148,40.503743],[-74.283084,40.503305],[-74.282979,40.502674],[-74.283703,40.501193],[-74.283165,40.50056],[-74.278238,40.500825],[-74.281058,40.496029],[-74.285062,40.496769],[-74.286349,40.497401],[-74.288046,40.498979],[-74.288317,40.500012]]],[[[-74.28325,40.507808],[-74.283792,40.506985],[-74.284475,40.507096],[-74.283932,40.508276],[-74.283392,40.508247],[-74.28325,40.507808]]],[[[-74.265869,40.541648],[-74.265691,40.541099],[-74.266594,40.540195],[-74.267348,40.540526],[-74.266589,40.541595],[-74.265869,40.541648]]],[[[-74.270976,40.542537],[-74.270651,40.542636],[-74.270652,40.542317],[-74.270976,40.542537]]],[[[-74.268901,40.542681],[-74.269006,40.54306],[-74.268844,40.54321],[-74.268431,40.542752],[-74.268901,40.542681]]],[[[-74.266409,40.499984],[-74.266193,40.500198],[-74.266228,40.500362],[-74.266149,40.500203],[-74.266409,40.499984]]],[[[-74.265842,40.500779],[-74.266264,40.500363],[-74.265042,40.501843],[-74.265842,40.500779]]],[[[-74.265036,40.501849],[-74.264639,40.502418],[-74.263847,40.502664],[-74.263447,40.503843],[-74.263015,40.504062],[-74.263121,40.504474],[-74.262833,40.504611],[-74.262648,40.505955],[-74.262142,40.506696],[-74.261999,40.506503],[-74.262034,40.506915],[-74.261889,40.507052],[-74.261638,40.507079],[-74.261528,40.507463],[-74.26113,40.508121],[-74.261021,40.508478],[-74.261237,40.508533],[-74.261307,40.50889],[-74.261126,40.509329],[-74.261341,40.509466],[-74.260871,40.510289],[-74.261122,40.510482],[-74.261048,40.510921],[-74.260361,40.5121],[-74.260321,40.51317],[-74.259241,40.51347],[-74.258734,40.514485],[-74.259164,40.51476],[-74.258553,40.514649],[-74.257828,40.516294],[-74.25659,40.516813],[-74.257786,40.516202],[-74.259188,40.513101],[-74.260195,40.513173],[-74.260284,40.512161],[-74.261051,40.510566],[-74.259799,40.510204],[-74.260223,40.509383],[-74.260114,40.509944],[-74.260875,40.510161],[-74.261171,40.509587],[-74.260889,40.509472],[-74.261276,40.508791],[-74.260943,40.508478],[-74.261578,40.507067],[-74.261834,40.507023],[-74.261884,40.506709],[-74.262154,40.506091],[-74.262436,40.505853],[-74.26298,40.504025],[-74.26265,40.50393],[-74.262765,40.503701],[-74.263935,40.502269],[-74.264386,40.5024],[-74.265036,40.501849]],[[-74.262035,40.506503],[-74.262071,40.506448],[-74.262035,40.506448],[-74.262035,40.506503]]],[[[-74.262246,40.538539],[-74.262118,40.539225],[-74.261345,40.538752],[-74.261418,40.538537],[-74.261166,40.53866],[-74.260351,40.538449],[-74.258803,40.53731],[-74.258088,40.537245],[-74.257571,40.537604],[-74.258052,40.539145],[-74.257677,40.540031],[-74.256433,40.540252],[-74.254449,40.539629],[-74.253863,40.537505],[-74.254492,40.537415],[-74.25466,40.537105],[-74.254608,40.537053],[-74.253898,40.534081],[-74.253288,40.534161],[-74.253106,40.533332],[-74.253165,40.532976],[-74.253712,40.532765],[-74.253206,40.530749],[-74.253188,40.529919],[-74.252844,40.52961],[-74.252982,40.529352],[-74.252462,40.528349],[-74.25209,40.528059],[-74.251846,40.526927],[-74.252167,40.526623],[-74.251581,40.526467],[-74.251425,40.525374],[-74.251204,40.52489],[-74.250981,40.524887],[-74.251207,40.524752],[-74.250958,40.52447],[-74.251116,40.524286],[-74.250503,40.524266],[-74.250149,40.523725],[-74.250101,40.523138],[-74.25098,40.522215],[-74.251041,40.521464],[-74.25231,40.520875],[-74.254742,40.52112],[-74.254607,40.520576],[-74.255091,40.519865],[-74.255707,40.519787],[-74.256168,40.519394],[-74.256228,40.517703],[-74.256577,40.516841],[-74.256312,40.517691],[-74.256415,40.519256],[-74.255728,40.519996],[-74.25508,40.520187],[-74.25486,40.521312],[-74.254536,40.521393],[-74.254751,40.521614],[-74.251947,40.521086],[-74.25126,40.522045],[-74.251657,40.521772],[-74.251656,40.522046],[-74.252123,40.522322],[-74.25108,40.5221],[-74.250646,40.52273],[-74.250716,40.523307],[-74.251398,40.52372],[-74.25449,40.524276],[-74.254489,40.524578],[-74.253733,40.524658],[-74.253804,40.524878],[-74.254056,40.524796],[-74.253947,40.525016],[-74.252723,40.525397],[-74.252935,40.526496],[-74.252612,40.526358],[-74.252216,40.526412],[-74.253177,40.529214],[-74.25555,40.529411],[-74.255514,40.529549],[-74.253571,40.529462],[-74.253175,40.529681],[-74.253848,40.532674],[-74.253594,40.533195],[-74.253986,40.534047],[-74.254659,40.537068],[-74.258222,40.536774],[-74.258258,40.536939],[-74.259875,40.537299],[-74.260416,40.53708],[-74.261386,40.537357],[-74.261748,40.536918],[-74.262246,40.538539]],[[-74.260343,40.537245],[-74.260631,40.537355],[-74.260739,40.537356],[-74.260523,40.537218],[-74.260343,40.537245]],[[-74.262174,40.538374],[-74.262138,40.538457],[-74.262174,40.538457],[-74.262174,40.538374]]],[[[-74.25555,40.529384],[-74.256162,40.529358],[-74.257532,40.52851],[-74.260339,40.528433],[-74.257711,40.528839],[-74.257709,40.529498],[-74.257348,40.529607],[-74.256701,40.529524],[-74.256449,40.529688],[-74.255586,40.529576],[-74.25555,40.529384]]],[[[-74.265188,40.540988],[-74.263967,40.54008],[-74.264618,40.539285],[-74.264151,40.539119],[-74.263502,40.539338],[-74.263467,40.539118],[-74.263539,40.539063],[-74.263539,40.538994],[-74.263071,40.539145],[-74.263032,40.539913],[-74.263391,40.540408],[-74.26393,40.540601],[-74.26479,40.541399],[-74.265078,40.541345],[-74.264897,40.541646],[-74.26522,40.542141],[-74.265181,40.54291],[-74.267377,40.542612],[-74.267393,40.543177],[-74.267128,40.543424],[-74.266646,40.543507],[-74.266084,40.54296],[-74.264539,40.542934],[-74.264537,40.541794],[-74.263145,40.54073],[-74.262207,40.539298],[-74.26293,40.538348],[-74.263109,40.538706],[-74.263289,40.538596],[-74.263576,40.538871],[-74.2639,40.538707],[-74.266378,40.540002],[-74.265837,40.540633],[-74.265188,40.540988]],[[-74.263575,40.538981],[-74.263576,40.538905],[-74.26354,40.538926],[-74.263575,40.538981]]]]}}]}