{"type":"FeatureCollection","features":[{"type":"Feature","properties":{"level_ft":5},"geometry":{"type":"MultiPolygon","coordinates":[[[[-74.28095,40.496016],[-74.278202,40.500716],[-74.269253,40.499326],[-74.267706,40.499377],[-74.26659,40.49965],[-74.26641,40.499882],[-74.26617,40.499798],[-74.267944,40.493657],[-74.271867,40.494775],[-74.28095,40.496016]]],[[[-74.265042,40.501843],[-74.266227,40.500468],[-74.266149,40.500203],[-74.266409,40.499984],[-74.2663,40.500473],[-74.265042,40.501843]]],[[[-74.288314,40.499786],[-74.288191,40.501202],[-74.287146,40.503368],[-74.287165,40.504496],[-74.287883,40.505566],[-74.291415,40.50785],[-74.289789,40.509824],[-74.290005,40.509906],[-74.29168,40.50801],[-74.291384,40.510815],[-74.289967,40.51051],[-74.289716,40.510125],[-74.289285,40.510125],[-74.288818,40.509685],[-74.288531,40.509766],[-74.288567,40.509547],[-74.288279,40.509574],[-74.2881,40.509326],[-74.287417,40.509325],[-74.285588,40.507647],[-74.284224,40.506821],[-74.284406,40.506135],[-74.283761,40.505338],[-74.28279,40.505391],[-74.282645,40.505912],[-74.282033,40.506021],[-74.282613,40.50454],[-74.282148,40.503715],[-74.283084,40.503305],[-74.282942,40.502756],[-74.283667,40.501248],[-74.283129,40.50056],[-74.278238,40.50088],[-74.281058,40.496029],[-74.285062,40.496769],[-74.286349,40.497401],[-74.288046,40.498979],[-74.288314,40.499786]]],[[[-74.2835,40.508302],[-74.283249,40.508],[-74.283395,40.507259],[-74.28372,40.506985],[-74.284224,40.506958],[-74.284546,40.507288],[-74.284039,40.508331],[-74.283679,40.508522],[-74.28386,40.508303],[-74.2835,40.508302]]],[[[-74.265036,40.501849],[-74.264134,40.502692],[-74.264241,40.503049],[-74.26352,40.503706],[-74.263337,40.504557],[-74.262614,40.505598],[-74.262901,40.505599],[-74.262828,40.505956],[-74.262034,40.50697],[-74.261638,40.507079],[-74.261021,40.508395],[-74.261704,40.508753],[-74.261308,40.508753],[-74.261126,40.509246],[-74.261341,40.509466],[-74.260871,40.510371],[-74.261193,40.510619],[-74.260361,40.5121],[-74.260321,40.51317],[-74.259601,40.513251],[-74.259385,40.513498],[-74.259887,40.513883],[-74.25924,40.513827],[-74.259311,40.514129],[-74.259022,40.51432],[-74.259308,40.514898],[-74.258553,40.514704],[-74.257972,40.516158],[-74.25659,40.516813],[-74.257786,40.516202],[-74.259188,40.513101],[-74.260195,40.513173],[-74.260284,40.512161],[-74.261051,40.510566],[-74.259799,40.510204],[-74.260223,40.509383],[-74.260114,40.509944],[-74.260875,40.510161],[-74.261171,40.509587],[-74.260889,40.509472],[-74.261276,40.508791],[-74.260943,40.508478],[-74.261578,40.507067],[-74.261834,40.507023],[-74.262436,40.505853],[-74.26298,40.504025],[-74.26265,40.50393],[-74.262765,40.503701],[-74.263935,40.502269],[-74.264386,40.5024],[-74.265036,40.501849]]],[[[-74.259625,40.536859],[-74.261314,40.537329],[-74.261893,40.536507],[-74.261997,40.537523],[-74.262321,40.537661],[-74.262391,40.5381],[-74.262135,40.539225],[-74.261345,40.538752],[-74.261418,40.538537],[-74.261166,40.53866],[-74.260069,40.538337],[-74.258905,40.537369],[-74.258224,40.537227],[-74.257571,40.537604],[-74.258052,40.539145],[-74.257677,40.540031],[-74.256433,40.540252],[-74.254449,40.539629],[-74.253863,40.537505],[-74.254492,40.537415],[-74.25466,40.537105],[-74.254608,40.537053],[-74.253898,40.534081],[-74.253288,40.534161],[-74.253106,40.533332],[-74.253165,40.532976],[-74.253712,40.532765],[-74.253206,40.530749],[-74.253188,40.529919],[-74.252844,40.52961],[-74.252982,40.529352],[-74.252462,40.528349],[-74.25209,40.528059],[-74.251846,40.526927],[-74.252167,40.526623],[-74.251581,40.526467],[-74.251425,40.525374],[-74.251204,40.52489],[-74.250981,40.524887],[-74.251207,40.524752],[-74.250958,40.52447],[-74.251116,40.524286],[-74.250503,40.524266],[-74.250149,40.523725],[-74.250101,40.523138],[-74.25098,40.522215],[-74.251041,40.521464],[-74.25231,40.520875],[-74.254742,40.52112],[-74.254607,40.520576],[-74.255091,40.519865],[-74.255707,40.519787],[-74.256168,40.519394],[-74.256228,40.517703],[-74.256577,40.516841],[-74.256312,40.517719],[-74.256487,40.519064],[-74.255981,40.519804],[-74.25508,40.520214],[-74.254861,40.521147],[-74.255075,40.521642],[-74.254247,40.521722],[-74.252917,40.521417],[-74.252449,40.521581],[-74.252198,40.521388],[-74.252161,40.521718],[-74.252521,40.521609],[-74.252304,40.522048],[-74.252016,40.522019],[-74.252302,40.522349],[-74.25108,40.522127],[-74.250752,40.523225],[-74.251398,40.52372],[-74.254562,40.524248],[-74.254632,40.524605],[-74.254021,40.524714],[-74.254235,40.525016],[-74.252723,40.525397],[-74.253079,40.526496],[-74.252573,40.526962],[-74.252607,40.527593],[-74.25307,40.528912],[-74.253394,40.528885],[-74.253465,40.529132],[-74.256018,40.529385],[-74.257208,40.528701],[-74.257425,40.52829],[-74.25782,40.528483],[-74.260483,40.528406],[-74.26124,40.527968],[-74.261742,40.528271],[-74.262282,40.52819],[-74.262353,40.528465],[-74.26113,40.528462],[-74.26059,40.528708],[-74.26005,40.528542],[-74.258791,40.528677],[-74.25879,40.528869],[-74.257891,40.528785],[-74.257745,40.529471],[-74.257384,40.529717],[-74.253427,40.529572],[-74.253314,40.530999],[-74.253601,40.531219],[-74.253704,40.532455],[-74.254028,40.532455],[-74.254097,40.533389],[-74.254456,40.533417],[-74.253985,40.534404],[-74.254659,40.537068],[-74.254983,40.537069],[-74.254695,40.536959],[-74.254698,40.536355],[-74.255199,40.536987],[-74.258151,40.536636],[-74.259625,40.536859]],[[-74.257316,40.528509],[-74.257352,40.528537],[-74.257352,40.528509],[-74.257316,40.528509]],[[-74.257352,40.528537],[-74.257388,40.528564],[-74.257388,40.528537],[-74.257352,40.528537]],[[-74.259517,40.536914],[-74.259553,40.536941],[-74.259553,40.536914],[-74.259517,40.536914]],[[-74.259661,40.536942],[-74.259768,40.537052],[-74.259876,40.537052],[-74.259661,40.536942]],[[-74.259984,40.537052],[-74.26002,40.537134],[-74.260092,40.537135],[-74.259984,40.537052]]],[[[-74.268998,40.542204],[-74.26763,40.542174],[-74.267416,40.541816],[-74.266661,40.541568],[-74.265833,40.541648],[-74.264434,40.54041],[-74.264003,40.54008],[-74.263752,40.540052],[-74.263678,40.540519],[-74.264002,40.540519],[-74.264288,40.541069],[-74.265474,40.541373],[-74.265217,40.542937],[-74.267445,40.542695],[-74.267367,40.543225],[-74.266756,40.543525],[-74.266108,40.542965],[-74.264539,40.542934],[-74.264537,40.541794],[-74.263145,40.54073],[-74.262207,40.539298],[-74.262749,40.53876],[-74.262859,40.538211],[-74.263577,40.538459],[-74.263866,40.538268],[-74.263865,40.538625],[-74.264403,40.53901],[-74.267348,40.540499],[-74.267023,40.540992],[-74.267741,40.54146],[-74.268353,40.541187],[-74.269144,40.541408],[-74.268819,40.541901],[-74.269034,40.541929],[-74.268998,40.542204]],[[-74.263752,40.540052],[-74.26368,40.540024],[-74.26368,40.540052],[-74.263752,40.540052]],[[-74.26368,40.540024],[-74.263608,40.539997],[-74.263608,40.540024],[-74.26368,40.540024]],[[-74.267524,40.541734],[-74.267524,40.541734],[-74.267524,40.541762],[-74.267524,40.541734]],[[-74.26756,40.541679],[-74.26756,40.541679],[-74.26756,40.541685],[-74.26756,40.541679]],[[-74.267632,40.541542],[-74.267668,40.54157],[-74.267668,40.541542],[-74.267632,40.541542]],[[-74.267632,40.54157],[-74.267596,40.541624],[-74.267632,40.541625],[-74.267632,40.54157]]],[[[-74.273966,40.541253],[-74.273581,40.541717],[-74.273211,40.54172],[-74.273053,40.541985],[-74.271228,40.542494],[-74.271192,40.542345],[-74.272957,40.54191],[-74.273174,40.541636],[-74.273497,40.541691],[-74.273715,40.541225],[-74.273966,40.541253]]],[[[-74.270976,40.542537],[-74.270651,40.542636],[-74.270653,40.542207],[-74.270976,40.542537]]],[[[-74.268938,40.542647],[-74.269005,40.543066],[-74.26884,40.54321],[-74.268384,40.542724],[-74.268938,40.542647]]]]}}]}