{"type":"FeatureCollection","features":[{"type":"Feature","properties":{"level_ft":9},"geometry":{"type":"MultiPolygon","coordinates":[[[[-74.288314,40.499786],[-74.288191,40.501202],[-74.287146,40.503368],[-74.287165,40.504496],[-74.287883,40.505566],[-74.291415,40.50785],[-74.289789,40.509824],[-74.290005,40.509906],[-74.29168,40.50801],[-74.291297,40.511638],[-74.289389,40.511278],[-74.289499,40.510454],[-74.289068,40.510426],[-74.288494,40.509931],[-74.288278,40.51015],[-74.28799,40.510067],[-74.285624,40.507757],[-74.284296,40.506876],[-74.283936,40.506766],[-74.284048,40.50564],[-74.283257,40.505557],[-74.282571,40.506351],[-74.281924,40.506268],[-74.282542,40.504402],[-74.282183,40.503935],[-74.281715,40.504346],[-74.281463,40.504263],[-74.281283,40.504455],[-74.281139,40.504372],[-74.281428,40.503906],[-74.281932,40.503687],[-74.282511,40.502645],[-74.282622,40.50174],[-74.282407,40.501382],[-74.282189,40.502123],[-74.281652,40.501573],[-74.281435,40.501847],[-74.280607,40.502038],[-74.280246,40.502449],[-74.279671,40.502448],[-74.279164,40.503517],[-74.278518,40.50305],[-74.278265,40.503351],[-74.278409,40.503571],[-74.278121,40.503598],[-74.278803,40.503901],[-74.277941,40.50368],[-74.278158,40.503131],[-74.277617,40.503569],[-74.27697,40.503568],[-74.277766,40.502115],[-74.277225,40.502718],[-74.277333,40.502416],[-74.281058,40.496029],[-74.285062,40.496769],[-74.286349,40.497401],[-74.288046,40.498979],[-74.288314,40.499786]]],[[[-74.284439,40.507041],[-74.284582,40.507289],[-74.284111,40.508358],[-74.283317,40.5094],[-74.283536,40.50844],[-74.283176,40.508247],[-74.283251,40.507423],[-74.28372,40.50693],[-74.284439,40.507041]]],[[[-74.274218,40.541308],[-74.273789,40.540594],[-74.274546,40.539991],[-74.275086,40.54013],[-74.274869,40.540431],[-74.275192,40.540651],[-74.27566,40.540625],[-74.274218,40.541308]]],[[[-74.273631,40.541675],[-74.273211,40.54172],[-74.273004,40.542004],[-74.27112,40.54252],[-74.271156,40.54229],[-74.272597,40.541964],[-74.273716,40.540978],[-74.274002,40.541299],[-74.273631,40.541675]]],[[[-74.270976,40.542537],[-74.270615,40.542643],[-74.270617,40.54218],[-74.270976,40.542537]]],[[[-74.269022,40.542594],[-74.269003,40.543076],[-74.268831,40.543209],[-74.268326,40.542697],[-74.269022,40.542594]]],[[[-74.263211,40.530168],[-74.263317,40.530553],[-74.262596,40.530908],[-74.261079,40.53258],[-74.2609,40.532442],[-74.261153,40.532223],[-74.260468,40.532633],[-74.260144,40.53255],[-74.260435,40.531618],[-74.258529,40.531531],[-74.25806,40.531723],[-74.258094,40.532436],[-74.256978,40.532571],[-74.257589,40.532765],[-74.257552,40.532929],[-74.255611,40.532513],[-74.255716,40.533227],[-74.256005,40.533118],[-74.25604,40.533365],[-74.25514,40.533528],[-74.255787,40.533475],[-74.255894,40.533942],[-74.255066,40.534104],[-74.255569,40.534188],[-74.255636,40.535451],[-74.258084,40.535099],[-74.257938,40.535785],[-74.257002,40.535893],[-74.256823,40.535618],[-74.256858,40.535947],[-74.255814,40.536028],[-74.255743,40.535698],[-74.255778,40.536055],[-74.25549,40.536164],[-74.259809,40.535679],[-74.259952,40.536009],[-74.259591,40.536283],[-74.258727,40.536363],[-74.258727,40.5365],[-74.259555,40.53642],[-74.259446,40.536749],[-74.259661,40.536832],[-74.259626,40.536612],[-74.260997,40.535407],[-74.261681,40.535518],[-74.261426,40.536314],[-74.261174,40.536341],[-74.261496,40.536808],[-74.261753,40.535491],[-74.261034,40.535325],[-74.261034,40.53516],[-74.261611,40.534997],[-74.262579,40.535959],[-74.262395,40.537002],[-74.262791,40.536893],[-74.262135,40.539225],[-74.261345,40.538752],[-74.261418,40.538537],[-74.261238,40.538697],[-74.260069,40.538337],[-74.258905,40.537369],[-74.258224,40.537227],[-74.257571,40.537604],[-74.258052,40.539145],[-74.257677,40.540031],[-74.256433,40.540252],[-74.254449,40.539629],[-74.253863,40.537505],[-74.254492,40.537415],[-74.25466,40.537105],[-74.253898,40.534081],[-74.253288,40.534161],[-74.253106,40.533332],[-74.253165,40.532976],[-74.253712,40.532765],[-74.253188,40.529919],[-74.252844,40.52961],[-74.252982,40.529352],[-74.252462,40.528349],[-74.25209,40.528059],[-74.251846,40.526927],[-74.252167,40.526623],[-74.251581,40.526467],[-74.251425,40.525374],[-74.251204,40.52489],[-74.250981,40.524887],[-74.251207,40.524752],[-74.250958,40.52447],[-74.251116,40.524286],[-74.250466,40.524235],[-74.250101,40.523138],[-74.25098,40.522215],[-74.251025,40.521478],[-74.25192,40.520989],[-74.253213,40.520884],[-74.254742,40.52112],[-74.254607,40.520576],[-74.255091,40.519865],[-74.255707,40.519787],[-74.256168,40.519394],[-74.256228,40.517703],[-74.256596,40.516799],[-74.257786,40.516202],[-74.259188,40.513101],[-74.260195,40.513173],[-74.260284,40.512161],[-74.261051,40.510566],[-74.259799,40.510204],[-74.260223,40.509383],[-74.260114,40.509944],[-74.260875,40.510161],[-74.261171,40.509587],[-74.260889,40.509472],[-74.261276,40.508791],[-74.260943,40.508478],[-74.262436,40.505853],[-74.26298,40.504025],[-74.26265,40.50393],[-74.262765,40.503701],[-74.263935,40.502269],[-74.264386,40.5024],[-74.266241,40.500443],[-74.266149,40.500203],[-74.266499,40.499913],[-74.26617,40.499798],[-74.267944,40.493657],[-74.271867,40.494775],[-74.28095,40.496016],[-74.278238,40.500688],[-74.276872,40.500686],[-74.276726,40.501234],[-74.27554,40.50115],[-74.275286,40.501561],[-74.274821,40.501038],[-74.273887,40.500707],[-74.274428,40.500297],[-74.274032,40.50046],[-74.273996,40.500213],[-74.270223,40.499547],[-74.270114,40.499821],[-74.269286,40.500012],[-74.267525,40.499899],[-74.26565,40.50113],[-74.263301,40.504612],[-74.26232,40.50719],[-74.26214,40.507409],[-74.261816,40.507326],[-74.261274,40.508094],[-74.261779,40.507848],[-74.261704,40.508534],[-74.262135,40.508837],[-74.261519,40.510016],[-74.262166,40.510319],[-74.262236,40.510594],[-74.261229,40.510592],[-74.260542,40.511798],[-74.260572,40.513308],[-74.260212,40.513637],[-74.260534,40.513884],[-74.259887,40.513746],[-74.259811,40.515036],[-74.258912,40.514924],[-74.258479,40.515417],[-74.258657,40.515857],[-74.258405,40.515829],[-74.257935,40.516514],[-74.25725,40.516897],[-74.257643,40.517667],[-74.258039,40.517695],[-74.258215,40.518629],[-74.257962,40.518958],[-74.257315,40.518901],[-74.257242,40.519203],[-74.256558,40.519476],[-74.256304,40.51986],[-74.255188,40.520269],[-74.255151,40.520434],[-74.255439,40.520462],[-74.255076,40.52123],[-74.255795,40.521533],[-74.255614,40.521917],[-74.255937,40.522083],[-74.255217,40.522081],[-74.254891,40.522849],[-74.25374,40.522682],[-74.253739,40.522874],[-74.253236,40.522955],[-74.25295,40.522433],[-74.25266,40.523009],[-74.2532,40.522928],[-74.253163,40.523093],[-74.251725,40.52287],[-74.251328,40.523116],[-74.251722,40.523666],[-74.253627,40.524137],[-74.254922,40.524194],[-74.255963,40.524883],[-74.25438,40.524852],[-74.254019,40.525181],[-74.252759,40.525398],[-74.253402,40.526497],[-74.253326,40.527705],[-74.253865,40.528008],[-74.254507,40.529299],[-74.255011,40.529245],[-74.25476,40.529053],[-74.255912,40.528891],[-74.255877,40.528643],[-74.256345,40.528507],[-74.256312,40.527766],[-74.257138,40.528207],[-74.257392,40.527549],[-74.257571,40.527714],[-74.258039,40.527632],[-74.25793,40.527934],[-74.258361,40.528237],[-74.260016,40.528185],[-74.260342,40.527555],[-74.260988,40.527858],[-74.260918,40.527528],[-74.261241,40.527529],[-74.261173,40.526596],[-74.261603,40.526844],[-74.261928,40.526762],[-74.261462,40.526184],[-74.262397,40.526159],[-74.26272,40.526489],[-74.26225,40.527065],[-74.262574,40.527175],[-74.263003,40.527862],[-74.263974,40.527919],[-74.264045,40.528276],[-74.264297,40.528277],[-74.264331,40.528688],[-74.263468,40.528714],[-74.263539,40.528934],[-74.26325,40.529071],[-74.263823,40.530005],[-74.263211,40.530168]],[[-74.255716,40.533227],[-74.255608,40.533255],[-74.255716,40.533255],[-74.255716,40.533227]],[[-74.255743,40.535698],[-74.255672,40.535533],[-74.255707,40.535698],[-74.255743,40.535698]],[[-74.25549,40.536164],[-74.255453,40.536329],[-74.255489,40.536329],[-74.25549,40.536164]],[[-74.26146,40.536945],[-74.261424,40.536918],[-74.261387,40.537028],[-74.26146,40.536945]],[[-74.261387,40.537028],[-74.261351,40.537137],[-74.261387,40.537137],[-74.261387,40.537028]],[[-74.261351,40.537137],[-74.261315,40.537192],[-74.261351,40.537192],[-74.261351,40.537137]],[[-74.261315,40.537192],[-74.261279,40.537219],[-74.261315,40.53722],[-74.261315,40.537192]],[[-74.259887,40.513746],[-74.259852,40.513718],[-74.259851,40.513746],[-74.259887,40.513746]],[[-74.255151,40.520434],[-74.255115,40.520489],[-74.255151,40.520489],[-74.255151,40.520434]],[[-74.25374,40.522682],[-74.253704,40.522654],[-74.253704,40.522682],[-74.25374,40.522682]],[[-74.252733,40.522625],[-74.252697,40.522597],[-74.252697,40.522625],[-74.252733,40.522625]],[[-74.26225,40.527065],[-74.262214,40.527092],[-74.26225,40.527092],[-74.26225,40.527065]],[[-74.262214,40.527064],[-74.262178,40.527037],[-74.262178,40.527064],[-74.262214,40.527064]],[[-74.262394,40.527147],[-74.262358,40.527175],[-74.262394,40.527175],[-74.262394,40.527147]],[[-74.263139,40.530113],[-74.263103,40.530086],[-74.263103,40.530113],[-74.263139,40.530113]],[[-74.254816,40.533527],[-74.25478,40.533555],[-74.254816,40.533555],[-74.254816,40.533527]],[[-74.254996,40.533528],[-74.254924,40.533555],[-74.254996,40.533555],[-74.254996,40.533528]],[[-74.255489,40.536439],[-74.255525,40.536466],[-74.255525,40.536439],[-74.255489,40.536439]],[[-74.25556,40.536741],[-74.255596,40.536768],[-74.255596,40.536741],[-74.25556,40.536741]],[[-74.255595,40.536823],[-74.255739,40.536851],[-74.255739,40.536824],[-74.255595,40.536823]],[[-74.255919,40.536824],[-74.256027,40.536797],[-74.255919,40.536796],[-74.255919,40.536824]],[[-74.256135,40.536797],[-74.256207,40.53677],[-74.256135,40.536769],[-74.256135,40.536797]],[[-74.256279,40.53677],[-74.256387,40.536743],[-74.256279,40.536742],[-74.256279,40.53677]],[[-74.256459,40.536743],[-74.256531,40.536715],[-74.256459,40.536715],[-74.256459,40.536743]],[[-74.256819,40.536689],[-74.256963,40.536661],[-74.256819,40.536661],[-74.256819,40.536689]],[[-74.256819,40.536689],[-74.256567,40.536715],[-74.256819,40.536716],[-74.256819,40.536689]],[[-74.256999,40.536661],[-74.257143,40.536634],[-74.256999,40.536634],[-74.256999,40.536661]],[[-74.257755,40.536636],[-74.257719,40.536471],[-74.257215,40.536607],[-74.257215,40.536635],[-74.257755,40.536636]],[[-74.258151,40.536582],[-74.258187,40.536554],[-74.258151,40.536554],[-74.258151,40.536582]],[[-74.258367,40.536555],[-74.258403,40.536527],[-74.258367,40.536527],[-74.258367,40.536555]],[[-74.259769,40.536832],[-74.259841,40.53686],[-74.259841,40.536832],[-74.259769,40.536832]],[[-74.259877,40.53686],[-74.259913,40.536887],[-74.259913,40.53686],[-74.259877,40.53686]],[[-74.259949,40.536887],[-74.259985,40.536915],[-74.259985,40.536887],[-74.259949,40.536887]],[[-74.260164,40.53697],[-74.260236,40.536998],[-74.260236,40.53697],[-74.260164,40.53697]],[[-74.260164,40.53697],[-74.260092,40.536942],[-74.260092,40.53697],[-74.260164,40.53697]],[[-74.260092,40.536942],[-74.260021,40.536915],[-74.260021,40.536942],[-74.260092,40.536942]],[[-74.261099,40.537301],[-74.261279,40.537247],[-74.261027,40.537246],[-74.261099,40.537301]],[[-74.260955,40.537246],[-74.260991,40.537191],[-74.260883,40.537191],[-74.260955,40.537246]],[[-74.260811,40.537191],[-74.260632,40.536916],[-74.260272,40.536998],[-74.260811,40.537191]]],[[[-74.257083,40.523513],[-74.256937,40.524006],[-74.254815,40.523865],[-74.255034,40.523069],[-74.25622,40.523319],[-74.256507,40.523594],[-74.256903,40.523457],[-74.256902,40.523732],[-74.257083,40.523513]],[[-74.256902,40.523732],[-74.256866,40.523759],[-74.256902,40.523759],[-74.256902,40.523732]]],[[[-74.253592,40.52389],[-74.253774,40.523259],[-74.254348,40.523617],[-74.254672,40.523507],[-74.254563,40.524056],[-74.253592,40.52389]]],[[[-74.267646,40.537672],[-74.267504,40.537122],[-74.267828,40.537096],[-74.268504,40.53932],[-74.267064,40.539592],[-74.266595,40.539921],[-74.268174,40.540939],[-74.269001,40.541188],[-74.269467,40.541711],[-74.269863,40.541656],[-74.270077,40.542316],[-74.269285,40.542424],[-74.269933,40.542233],[-74.269862,40.541958],[-74.269538,40.541903],[-74.26907,40.542067],[-74.269249,40.542451],[-74.268492,40.542587],[-74.26835,40.542202],[-74.267774,40.542201],[-74.267557,40.542626],[-74.267379,40.541981],[-74.267163,40.541898],[-74.267485,40.542585],[-74.267393,40.543177],[-74.266718,40.543525],[-74.266108,40.542965],[-74.264539,40.542934],[-74.264537,40.541794],[-74.263145,40.54073],[-74.262207,40.539198],[-74.262605,40.538787],[-74.263114,40.537278],[-74.263546,40.537032],[-74.26387,40.537142],[-74.263979,40.536813],[-74.265022,40.53687],[-74.265056,40.537364],[-74.265382,40.536926],[-74.26718,40.537012],[-74.267646,40.537672]],[[-74.267645,40.537809],[-74.265091,40.537666],[-74.26484,40.537446],[-74.264875,40.537721],[-74.264587,40.537748],[-74.264621,40.538324],[-74.26473,40.538023],[-74.264909,40.538243],[-74.264655,40.538819],[-74.265411,40.53871],[-74.265661,40.539342],[-74.266022,40.539123],[-74.266596,40.539399],[-74.268073,40.539127],[-74.267682,40.537672],[-74.267645,40.537809]]],[[[-74.268277,40.542504],[-74.268348,40.542669],[-74.268025,40.542579],[-74.268277,40.542504]]]]}}]}