{
"type": "FeatureCollection",
"name": "boundary",
"crs": { "type": "name", "properties": { "name": "urn:ogc:def:crs:OGC:1.3:CRS84" } },
"features": [
{ "type": "Feature", "properties": { "name": "Newark", "geoid": "3401351000" }, "geometry": { "type": "Polygon", "coordinates": [ [ [ -74.251360999752677, 40.737533999924935 ], [ -74.251323999942755, 40.737375000335462 ], [ -74.251236999904123, 40.737000999670123 ], [ -74.251123000101288, 40.736580999994622 ], [ -74.251089999591031, 40.736459000081325 ], [ -74.251007999575265, 40.73621899990021 ], [ -74.250948000199116, 40.736101000327515 ], [ -74.250861000160469, 40.735966999901372 ], [ -74.250790000015357, 40.735881999775557 ], [ -74.250583000326131, 40.735634000213373 ], [ -74.250230000148719, 40.735307999678973 ], [ -74.250121000368779, 40.735206999926291 ], [ -74.249950999591135, 40.735047000294109 ], [ -74.249803000351449, 40.734917000182016 ], [ -74.249702999894012, 40.734840000194794 ], [ -74.249645000167718, 40.734803999993389 ], [ -74.249546000433511, 40.73474400006824 ], [ -74.249370999633001, 40.734656999876442 ], [ -74.24917900001239, 40.734583000069748 ], [ -74.248900000353132, 40.734489000122998 ], [ -74.248686000092889, 40.734412000321129 ], [ -74.248650000107872, 40.734403000214705 ], [ -74.248151000340584, 40.734286000081816 ], [ -74.247655000048042, 40.734166999863561 ], [ -74.246281999696436, 40.733810999919058 ], [ -74.245347999735969, 40.733568999817656 ], [ -74.244910999892952, 40.733455000111832 ], [ -74.24451699970767, 40.733345000019447 ], [ -74.244368999569659, 40.733306999784347 ], [ -74.244373999592526, 40.733267000301652 ], [ -74.244380000338623, 40.733126999880668 ], [ -74.244380000338623, 40.733068999717219 ], [ -74.244380000338623, 40.733029000091442 ], [ -74.244377999790487, 40.732955999793404 ], [ -74.244032000184077, 40.732875999701228 ], [ -74.243699000098147, 40.732798000114336 ], [ -74.243950999993231, 40.732207999771269 ], [ -74.243540000089496, 40.732107000077598 ], [ -74.24312699963761, 40.73200500025834 ], [ -74.243229999569763, 40.731712000241529 ], [ -74.243273999950702, 40.731629000081263 ], [ -74.243551999785055, 40.73110600002768 ], [ -74.243808999702992, 40.731167999799766 ], [ -74.243807999878101, 40.73110600002768 ], [ -74.243841000388372, 40.731107000013473 ], [ -74.243848000061064, 40.731094000196869 ], [ -74.243868999977465, 40.731054000064461 ], [ -74.24380299985522, 40.731032999661991 ], [ -74.243668999960917, 40.730992000186149 ], [ -74.243677000356826, 40.730974999715386 ], [ -74.243749000326858, 40.730838999876973 ], [ -74.243721999664373, 40.730830999957902 ], [ -74.243448000027968, 40.730748000060117 ], [ -74.24334599992072, 40.730717000325967 ], [ -74.243320999806386, 40.730713999670222 ], [ -74.243226000270127, 40.730702999760581 ], [ -74.24312699963761, 40.730691999849171 ], [ -74.242776000008348, 40.730585999928579 ], [ -74.242379000348294, 40.731330999858201 ], [ -74.242343000363277, 40.731403999896962 ], [ -74.241989000360974, 40.731294999800326 ], [ -74.241895999576229, 40.731291999851329 ], [ -74.241764000230077, 40.731283000003593 ], [ -74.241736999567564, 40.731275000137913 ], [ -74.241412999702462, 40.731175999678271 ], [ -74.241390000136235, 40.731219999673847 ], [ -74.240925999630747, 40.732094999746593 ], [ -74.240882999973053, 40.732082000123008 ], [ -74.240574000176565, 40.731988000046357 ], [ -74.240426999863459, 40.73200500025834 ], [ -74.240301000365079, 40.732019999841164 ], [ -74.239966999555932, 40.731917999888545 ], [ -74.239932000294132, 40.731907000177941 ], [ -74.239764999889573, 40.731856000134556 ], [ -74.239322000198769, 40.732696999954875 ], [ -74.239201999649865, 40.732863000230232 ], [ -74.239194999977158, 40.732871999864258 ], [ -74.239096000242967, 40.733058000196941 ], [ -74.238482999774561, 40.73286999994572 ], [ -74.238245999948091, 40.733318999896767 ], [ -74.238070000221001, 40.733651000333154 ], [ -74.237624999982074, 40.733514999838064 ], [ -74.237373999911895, 40.733989000129419 ], [ -74.237337000101988, 40.734058000209103 ], [ -74.237005999665882, 40.733955999977255 ], [ -74.23691799980233, 40.7339079999742 ], [ -74.23682499991591, 40.73385600015871 ], [ -74.236682999625685, 40.733812999809366 ], [ -74.23649199982998, 40.733752999671161 ], [ -74.236213999995627, 40.734277999896477 ], [ -74.235871999688868, 40.734927000147302 ], [ -74.235772999954662, 40.735113000180533 ], [ -74.235335000286753, 40.734976999951158 ], [ -74.234898000443749, 40.734842999983819 ], [ -74.234860999735503, 40.73492099989604 ], [ -74.234455999679554, 40.735679999817755 ], [ -74.234334000379121, 40.735647999741197 ], [ -74.234270999731621, 40.735625000272272 ], [ -74.234196000286857, 40.735604999869352 ], [ -74.233409999566092, 40.735382999962184 ], [ -74.233315999854767, 40.735358999799082 ], [ -74.232032999914836, 40.73499799978952 ], [ -74.23198600005918, 40.734985999979926 ], [ -74.231880999578863, 40.734955000178225 ], [ -74.231767999600962, 40.734922999752939 ], [ -74.231709999874653, 40.734903999748411 ], [ -74.231015000288792, 40.735301000219991 ], [ -74.230310999583779, 40.735702000031637 ], [ -74.229632999716344, 40.736089000036237 ], [ -74.229563000294462, 40.73612099990067 ], [ -74.229204000269263, 40.736300999872306 ], [ -74.228996999681712, 40.736417999864997 ], [ -74.228934999757442, 40.736453999873667 ], [ -74.228907999993268, 40.736459000081325 ], [ -74.228842999695914, 40.736483999752636 ], [ -74.228620999938073, 40.736554999775237 ], [ -74.228514999632864, 40.736530000130607 ], [ -74.228470000325345, 40.736517999916707 ], [ -74.228324999662064, 40.736481999942612 ], [ -74.227901000237864, 40.736666999810204 ], [ -74.227437999557267, 40.736926999747965 ], [ -74.22709899962355, 40.737352000102241 ], [ -74.226879000413859, 40.73762900022173 ], [ -74.226836999682746, 40.737679999923913 ], [ -74.226619999947758, 40.737951000060967 ], [ -74.226310000326365, 40.737808000312086 ], [ -74.22622999996041, 40.737782999777032 ], [ -74.225685000162386, 40.737598000290276 ], [ -74.225408999977859, 40.737503999838857 ], [ -74.225369999619801, 40.737490999910769 ], [ -74.225273000433731, 40.73763000010954 ], [ -74.224978999807547, 40.738055000056576 ], [ -74.224659999965311, 40.737927000143664 ], [ -74.224572999926679, 40.737935999773306 ], [ -74.224439999857282, 40.737950000178046 ], [ -74.22412100001506, 40.737822999947937 ], [ -74.223945000287969, 40.738076000284643 ], [ -74.223931999869166, 40.738142999768762 ], [ -74.223907999579723, 40.73826199968169 ], [ -74.223802000172824, 40.738523000066508 ], [ -74.223780000431518, 40.73857700006522 ], [ -74.223433999926812, 40.738496000050731 ], [ -74.223341999865283, 40.738472000330006 ], [ -74.223263000222573, 40.738452000102349 ], [ -74.222920000090909, 40.738371999812252 ], [ -74.222674999868502, 40.738976000134087 ], [ -74.222330000087027, 40.738895999793499 ], [ -74.222244999698205, 40.738857000137102 ], [ -74.222198999667441, 40.73883500028596 ], [ -74.222171000078362, 40.738821999937329 ], [ -74.222048999879632, 40.738794000172668 ], [ -74.221892000419103, 40.738758000068955 ], [ -74.221826000296872, 40.738741000221154 ], [ -74.22178799976372, 40.738833999735661 ], [ -74.221689999854433, 40.739087000311144 ], [ -74.221643999823684, 40.739186999754054 ], [ -74.221612000036629, 40.739265999881525 ], [ -74.221186000064264, 40.739165999876718 ], [ -74.22109499982767, 40.739144999992753 ], [ -74.220929000146327, 40.73910599980168 ], [ -74.220750000046181, 40.73906399998922 ], [ -74.220647000114013, 40.739316999689947 ], [ -74.220509000021764, 40.739654000110441 ], [ -74.220156999669243, 40.739571000328908 ], [ -74.220078999851452, 40.739545999775821 ], [ -74.22001000025449, 40.7395240001525 ], [ -74.219996000010767, 40.739520000034609 ], [ -74.219818999560459, 40.739477999802858 ], [ -74.219652999879102, 40.73943799994646 ], [ -74.219570000038416, 40.739639000206793 ], [ -74.219370999846788, 40.740130999774465 ], [ -74.218932000353959, 40.740029999857079 ], [ -74.218267999831923, 40.739873999669875 ], [ -74.218210999930506, 40.739946999864095 ], [ -74.218075000386392, 40.740112999746479 ], [ -74.217199999977154, 40.741187999756811 ], [ -74.217183000258714, 40.741181000235891 ], [ -74.216875000287146, 40.741037000107035 ], [ -74.216665000224864, 40.740938999718225 ], [ -74.216512000063986, 40.740866999771129 ], [ -74.216105000358212, 40.740677000122695 ], [ -74.216011999573468, 40.740792000225511 ], [ -74.215968000090854, 40.740847000263557 ], [ -74.215650000073552, 40.74124099980051 ], [ -74.215367000216332, 40.74158999998393 ], [ -74.215317999812527, 40.741566000018274 ], [ -74.215197000337014, 40.741509000235212 ], [ -74.215143999735247, 40.741482999900015 ], [ -74.214784999710048, 40.741314999688143 ], [ -74.214404999768448, 40.741137999856676 ], [ -74.214367000133606, 40.741183999738936 ], [ -74.214301999836294, 40.741264999883441 ], [ -74.214111999865494, 40.741506000066131 ], [ -74.213788000000392, 40.741910000060088 ], [ -74.213669000174704, 40.741856000044613 ], [ -74.213547999800866, 40.741801999985292 ], [ -74.213418999929445, 40.74196599967695 ], [ -74.213309000324585, 40.742106999694464 ], [ -74.213043000185806, 40.742430000133247 ], [ -74.212920000162171, 40.742372999729405 ], [ -74.212274999906697, 40.74206899969986 ], [ -74.212176000172491, 40.74219200003364 ], [ -74.212116999722937, 40.742264999725762 ], [ -74.212085999760802, 40.74230300028902 ], [ -74.212053000148856, 40.742371000096462 ], [ -74.21182600036812, 40.742809999762336 ], [ -74.211600000412318, 40.742743000214652 ], [ -74.211331999725402, 40.742667000249824 ], [ -74.211283000219908, 40.742657999899009 ], [ -74.211267000326387, 40.742654999781763 ], [ -74.211193999633124, 40.742640999686714 ], [ -74.210868999943116, 40.742529999995412 ], [ -74.210418999681337, 40.743279000151304 ], [ -74.210032999891951, 40.743145999696324 ], [ -74.210005000302857, 40.743137000090925 ], [ -74.209956999723971, 40.743120999806287 ], [ -74.209579000330507, 40.742992000305968 ], [ -74.209334999933034, 40.742908999925362 ], [ -74.210118000280758, 40.741079999870955 ], [ -74.210754000315404, 40.739466000120743 ], [ -74.211460999596824, 40.737643000010408 ], [ -74.212197999913812, 40.73569900028135 ], [ -74.212659999871178, 40.735800999883004 ], [ -74.21338700014239, 40.733886999791828 ], [ -74.214002000260635, 40.732273999751079 ], [ -74.214322999752682, 40.731434000010871 ], [ -74.214917999779431, 40.72992600018209 ], [ -74.214901000061005, 40.72992200016779 ], [ -74.214967000183236, 40.729862999928969 ], [ -74.215069000290498, 40.729888000036581 ], [ -74.215035999780213, 40.729806000329333 ], [ -74.214958999787328, 40.729609999673357 ], [ -74.215014999863811, 40.729535999699308 ], [ -74.215053000396964, 40.729485999891047 ], [ -74.215182000268399, 40.729314999976879 ], [ -74.215076999788096, 40.729053000211366 ], [ -74.215198999986839, 40.729025999755955 ], [ -74.215234000146936, 40.729017000282504 ], [ -74.215305000292034, 40.728827000146147 ], [ -74.215382000284919, 40.728720999977682 ], [ -74.215448000407179, 40.728629999987326 ], [ -74.215546000316465, 40.728365000166868 ], [ -74.215599000019907, 40.728365000166868 ], [ -74.215609000065655, 40.728353999868972 ], [ -74.215722999868476, 40.728219000148883 ], [ -74.215802000409511, 40.728127000122264 ], [ -74.215727000066437, 40.728089000310909 ], [ -74.215874000379529, 40.727916000143146 ], [ -74.215496999912673, 40.727729999732595 ], [ -74.215482999668964, 40.727713999826719 ], [ -74.215528999699714, 40.727660999898255 ], [ -74.21617499978008, 40.726905999917811 ], [ -74.216214999963057, 40.726859999693545 ], [ -74.216009000098751, 40.72675599989811 ], [ -74.216195999696481, 40.726540000065498 ], [ -74.21620999994019, 40.726503000083703 ], [ -74.216235999879459, 40.726434999713945 ], [ -74.216408000306913, 40.725986999665899 ], [ -74.21645900036053, 40.725915999939168 ], [ -74.216503999668078, 40.725847000266342 ], [ -74.216717999928306, 40.725554999754031 ], [ -74.216599000102619, 40.725528999991354 ], [ -74.216672999722462, 40.725301000066331 ], [ -74.216701000209881, 40.725224999917764 ], [ -74.216744999692494, 40.725146000137094 ], [ -74.216792000446461, 40.725059000330511 ], [ -74.216891000180667, 40.724758999796499 ], [ -74.216943000059189, 40.724600999715939 ], [ -74.21696700034866, 40.724527000298977 ], [ -74.217004999983487, 40.724447999689822 ], [ -74.217040999968503, 40.724370999841739 ], [ -74.217097999869893, 40.724198000220674 ], [ -74.217259000426708, 40.723759999692909 ], [ -74.217338999894324, 40.723654999720935 ], [ -74.217632999622197, 40.723255999678358 ], [ -74.217661999934521, 40.723211999863388 ], [ -74.217257999703463, 40.723055999727961 ], [ -74.217395999795727, 40.722854999747589 ], [ -74.217577000444024, 40.722648999957521 ], [ -74.217831999813839, 40.722333999733117 ], [ -74.217591999614328, 40.722226999996359 ], [ -74.217367000381728, 40.722116999724989 ], [ -74.217540999560683, 40.721906999878044 ], [ -74.217562000375395, 40.721883000300757 ], [ -74.217594999987369, 40.721845000328244 ], [ -74.217692000071736, 40.721731999726423 ], [ -74.217851999905321, 40.721540999767207 ], [ -74.218046999898988, 40.721310000078802 ], [ -74.218167000447906, 40.721251999827736 ], [ -74.218250000288563, 40.721210999772431 ], [ -74.218314999687578, 40.721179999680587 ], [ -74.218509999681245, 40.720949000100994 ], [ -74.218641000100817, 40.721013000079509 ], [ -74.219060000400475, 40.72041500028552 ], [ -74.219091000362624, 40.720372000101236 ], [ -74.218929999805809, 40.720296999919199 ], [ -74.218848999614977, 40.720258999722091 ], [ -74.218877999927287, 40.720222999802047 ], [ -74.21909200018753, 40.719996000235824 ], [ -74.219017999669362, 40.719956000241027 ], [ -74.219114999753742, 40.719853000024678 ], [ -74.219216000036084, 40.719745999703818 ], [ -74.219330999663811, 40.719624000241701 ], [ -74.220309000005216, 40.71858499986363 ], [ -74.220365000081713, 40.718555000084969 ], [ -74.220473000036748, 40.718494999806197 ], [ -74.220736999627391, 40.718114000008072 ], [ -74.220816000168412, 40.717998000013608 ], [ -74.220832000061947, 40.717984999678805 ], [ -74.220858000001201, 40.717958999682445 ], [ -74.220928000321408, 40.717889999930946 ], [ -74.220939000192061, 40.717877999759679 ], [ -74.221150999904168, 40.717655999945137 ], [ -74.221554000310306, 40.717236000037417 ], [ -74.221858999908832, 40.716922000268823 ], [ -74.22234099995768, 40.716414000078672 ], [ -74.222354000376455, 40.716405999787355 ], [ -74.222431000369369, 40.716369999826156 ], [ -74.222541999799134, 40.716319000131563 ], [ -74.223468000261988, 40.715349999872835 ], [ -74.223582000064809, 40.7154229997385 ], [ -74.223844000005613, 40.715590999964739 ], [ -74.224136000083675, 40.715333000172464 ], [ -74.224188999787131, 40.715245000252153 ], [ -74.224261999582055, 40.715123000030943 ], [ -74.22577399985083, 40.713460999999178 ], [ -74.225887999653651, 40.713335999835991 ], [ -74.226520000388646, 40.712641000259431 ], [ -74.226564999696166, 40.712592000279031 ], [ -74.226795999674849, 40.712338000150289 ], [ -74.226850000101521, 40.712257000197667 ], [ -74.226913999675631, 40.712161999766231 ], [ -74.227060000163803, 40.712001999879945 ], [ -74.227741000404279, 40.711253000338694 ], [ -74.22752700014405, 40.711124999938711 ], [ -74.227409000143254, 40.711054000020368 ], [ -74.22733600034833, 40.711010000311106 ], [ -74.227199999905906, 40.71092799981583 ], [ -74.2271010001717, 40.710868000153468 ], [ -74.226965999554167, 40.710786999774442 ], [ -74.226708999636216, 40.710621000270294 ], [ -74.226888999561282, 40.710443000202694 ], [ -74.227218000347548, 40.710115999890576 ], [ -74.227252999609348, 40.710085999700318 ], [ -74.22804400035298, 40.709258999778896 ], [ -74.228072999766979, 40.709221000090679 ], [ -74.228451000058755, 40.708861999887311 ], [ -74.228490000416826, 40.708805000007018 ], [ -74.228517000181, 40.708748000077939 ], [ -74.228538000097416, 40.708693999705872 ], [ -74.228548999968069, 40.708641000294328 ], [ -74.228554999815842, 40.70859400006141 ], [ -74.228553000166016, 40.708542999858032 ], [ -74.22855099961788, 40.708506000086615 ], [ -74.227818000397178, 40.708379999827422 ], [ -74.226838000405962, 40.708205000206831 ], [ -74.226135000424165, 40.708079999709888 ], [ -74.226066999753812, 40.708067999813224 ], [ -74.225887999653651, 40.708036999729806 ], [ -74.225477999574821, 40.707965000271194 ], [ -74.224510000177503, 40.707796999869672 ], [ -74.223402000139757, 40.707604999767391 ], [ -74.222494000118559, 40.707438999821512 ], [ -74.222000000374138, 40.707348999677876 ], [ -74.221949000320507, 40.707341000340193 ], [ -74.221670999587857, 40.707145000263871 ], [ -74.221364000339506, 40.706917000019168 ], [ -74.221001999941265, 40.706656999958241 ], [ -74.220370000104595, 40.706199999753572 ], [ -74.220054999561995, 40.705983999952714 ], [ -74.219687000214279, 40.705724000335209 ], [ -74.219426999923286, 40.705539999940186 ], [ -74.218467999848457, 40.704845999730622 ], [ -74.217374999879326, 40.704056000332614 ], [ -74.215803000234416, 40.702922999858863 ], [ -74.214427000408079, 40.701925999806122 ], [ -74.213406000408966, 40.701196000083385 ], [ -74.21300800002571, 40.700908000120904 ], [ -74.212972000040693, 40.700809999882786 ], [ -74.212585000426415, 40.699753999845051 ], [ -74.21255199991613, 40.699667000225467 ], [ -74.212520999953995, 40.69958800008105 ], [ -74.212402000128307, 40.699264000301767 ], [ -74.212391000257654, 40.69923499977385 ], [ -74.212263000211124, 40.698887999734261 ], [ -74.212115999898046, 40.698488999725477 ], [ -74.211478000213589, 40.696758000127147 ], [ -74.210862000270438, 40.695087000134102 ], [ -74.20938500016176, 40.691080000206597 ], [ -74.209247999894401, 40.690709000005299 ], [ -74.208763000370823, 40.690454000281164 ], [ -74.208235000291225, 40.690176000073713 ], [ -74.207563000271577, 40.689821999693976 ], [ -74.207472999859888, 40.689774999804243 ], [ -74.207199000223511, 40.689631000153092 ], [ -74.206389000111599, 40.68920399968443 ], [ -74.206256999867122, 40.689135000108045 ], [ -74.205372000310447, 40.688670000033511 ], [ -74.205111000194549, 40.688534000272988 ], [ -74.204573999894123, 40.688254000332741 ], [ -74.204409000037657, 40.688167999949506 ], [ -74.204014999852376, 40.687959999878629 ], [ -74.203594999727798, 40.687742000279904 ], [ -74.201803999799765, 40.686809999984632 ], [ -74.201546999881813, 40.686671999889946 ], [ -74.201453999995408, 40.686677999722313 ], [ -74.200924000265957, 40.686709000209923 ], [ -74.200776999952865, 40.686718999924636 ], [ -74.20057500028652, 40.686730000290311 ], [ -74.199977999711635, 40.686764999955557 ], [ -74.19964399980077, 40.686784000077481 ], [ -74.19855699967944, 40.68684900016693 ], [ -74.198068999782805, 40.686877999955861 ], [ -74.197216999838119, 40.686923999876981 ], [ -74.196061999944718, 40.686997000249342 ], [ -74.193773999899207, 40.687132999740754 ], [ -74.193640999829825, 40.687141000142923 ], [ -74.193086999810959, 40.68717500030894 ], [ -74.193074000290466, 40.68717500030894 ], [ -74.192941000221083, 40.68718300002493 ], [ -74.192850999809394, 40.687187999846913 ], [ -74.192781000387527, 40.687194000314008 ], [ -74.192665000036556, 40.687199000135173 ], [ -74.192500000180104, 40.687208999776409 ], [ -74.1918580002977, 40.687248999688642 ], [ -74.191757999840263, 40.687251000296698 ], [ -74.190187000020259, 40.687348000083439 ], [ -74.190085999737917, 40.687351999931174 ], [ -74.189972999760016, 40.687360000307102 ], [ -74.18940299984763, 40.687393999680154 ], [ -74.189083000180474, 40.687409999739785 ], [ -74.188654999659988, 40.687436000083892 ], [ -74.188473000085125, 40.687448000291667 ], [ -74.188323000297274, 40.687456999935193 ], [ -74.187623999615141, 40.687499000299177 ], [ -74.187491000444069, 40.687506000016725 ], [ -74.187441000215358, 40.687508999895407 ], [ -74.186934999877067, 40.687539000037397 ], [ -74.183913999712559, 40.687715000098756 ], [ -74.182284000341312, 40.68781499975627 ], [ -74.181583000009354, 40.687856999894635 ], [ -74.179183999635768, 40.688000999973418 ], [ -74.171126000146117, 40.688477999970317 ], [ -74.169926999871777, 40.688549000114911 ], [ -74.169409999662847, 40.688602999790504 ], [ -74.169271999570569, 40.688616999674004 ], [ -74.168988999713363, 40.688801999756087 ], [ -74.168638000084087, 40.689257000258252 ], [ -74.168529000304133, 40.689397000311729 ], [ -74.168188999647199, 40.689612000161716 ], [ -74.167736999735581, 40.689898999992458 ], [ -74.167632999978508, 40.689962999845456 ], [ -74.166453999795664, 40.690148000277624 ], [ -74.166256000327252, 40.690150000117498 ], [ -74.165606999873816, 40.690154999716874 ], [ -74.165050000380234, 40.69016099991682 ], [ -74.16496099979345, 40.690142000076555 ], [ -74.1645349998211, 40.690056000086393 ], [ -74.164443999584506, 40.690039999980947 ], [ -74.163867999824319, 40.689917999901994 ], [ -74.162977000419872, 40.689734000119749 ], [ -74.162717999953784, 40.689680999925358 ], [ -74.162672999747954, 40.689671999901009 ], [ -74.162584000059482, 40.689652999921272 ], [ -74.162517999937251, 40.689636999719056 ], [ -74.162389000065829, 40.689613000089672 ], [ -74.162312000072916, 40.689585999985432 ], [ -74.162261999844219, 40.689565000123856 ], [ -74.161785999643129, 40.689397000311729 ], [ -74.161757000229144, 40.689379000185106 ], [ -74.161696000129766, 40.689339000189037 ], [ -74.161024000110132, 40.688910999954267 ], [ -74.160754999598311, 40.688619000240983 ], [ -74.160676999780506, 40.688528999870762 ], [ -74.160649000191398, 40.688500000119156 ], [ -74.160372000181965, 40.688028000038692 ], [ -74.160215999648045, 40.687754999707273 ], [ -74.160121000111801, 40.687588000058582 ], [ -74.160079000279012, 40.687519000171264 ], [ -74.159669000200196, 40.686971999701598 ], [ -74.159377999947054, 40.68667399983412 ], [ -74.159064999952591, 40.686423000239962 ], [ -74.158706999752312, 40.686201999763142 ], [ -74.158341000054406, 40.686022999847609 ], [ -74.157860999655384, 40.685951999736595 ], [ -74.156867000318783, 40.686055999921486 ], [ -74.155964000320466, 40.686111000235286 ], [ -74.155322000438034, 40.686116000137744 ], [ -74.154560000006725, 40.68606799969654 ], [ -74.153861000222903, 40.685917000325574 ], [ -74.152655000275857, 40.685224000028832 ], [ -74.151909999562974, 40.684597000265839 ], [ -74.151110000395121, 40.683757999760495 ], [ -74.150770999563079, 40.683451999664456 ], [ -74.150433000352606, 40.683147000232211 ], [ -74.148983999833007, 40.682235999847208 ], [ -74.146154000362515, 40.680765000314658 ], [ -74.145446000357879, 40.680396000045057 ], [ -74.145008999616536, 40.680169000284131 ], [ -74.144377999604785, 40.679830999720863 ], [ -74.143977999571689, 40.679632000218291 ], [ -74.143753000339117, 40.679515999956827 ], [ -74.143360999803633, 40.679311999782655 ], [ -74.143120999604122, 40.679188000333475 ], [ -74.141384000102761, 40.678284999762312 ], [ -74.139147000110896, 40.677121999704937 ], [ -74.137218000090584, 40.67622800024099 ], [ -74.135848000112034, 40.675592999909789 ], [ -74.135775000317096, 40.675558999967187 ], [ -74.136703000429776, 40.674444000035599 ], [ -74.13655699994159, 40.674367999751929 ], [ -74.136067000395158, 40.67503500010131 ], [ -74.135211000252482, 40.676253000049812 ], [ -74.133652000128038, 40.678169999981648 ], [ -74.133432999844928, 40.678433999882095 ], [ -74.132657999893127, 40.679368000293337 ], [ -74.131891000337234, 40.68030800028653 ], [ -74.131487000106191, 40.680801999826521 ], [ -74.131403000440599, 40.680902000319364 ], [ -74.129208000281523, 40.683556999682075 ], [ -74.128648000414856, 40.684234000145054 ], [ -74.122910999684365, 40.69117199966513 ], [ -74.122887000293247, 40.691202000201478 ], [ -74.120754000058426, 40.693739000207167 ], [ -74.119256999858266, 40.695512000003333 ], [ -74.119205999804635, 40.695571999878659 ], [ -74.119170999644538, 40.695612000219604 ], [ -74.117266999738604, 40.697807999792296 ], [ -74.11455899956853, 40.701071999807631 ], [ -74.114286999581978, 40.701402000195976 ], [ -74.113337999552897, 40.702476999719607 ], [ -74.112786999907073, 40.703102000003305 ], [ -74.113436000360494, 40.704207999848322 ], [ -74.114703000406891, 40.706368000097932 ], [ -74.115969999554963, 40.708527000106628 ], [ -74.116514000426406, 40.709454000131593 ], [ -74.117056999676308, 40.710381000189848 ], [ -74.117187000270974, 40.710602000136539 ], [ -74.118456999792102, 40.712773000152147 ], [ -74.118798000273955, 40.713356000122985 ], [ -74.119138999857483, 40.713938000192414 ], [ -74.119665000287256, 40.714837999703448 ], [ -74.120190999818732, 40.71573699976846 ], [ -74.120287000078193, 40.715900999707067 ], [ -74.120969999968494, 40.718873000319093 ], [ -74.121386999720031, 40.721000999790377 ], [ -74.120986999686934, 40.722901000016783 ], [ -74.120369000093973, 40.724948999974004 ], [ -74.118968000153274, 40.729586000150753 ], [ -74.118111000185692, 40.732420999687449 ], [ -74.118105000337906, 40.732442000332583 ], [ -74.118086999896263, 40.732501000326721 ], [ -74.117520000356905, 40.734960999745752 ], [ -74.117506999938115, 40.735017999694215 ], [ -74.117500000265423, 40.735045999686839 ], [ -74.117490000219661, 40.735090999771863 ], [ -74.117198999966547, 40.73628300016933 ], [ -74.117092999661324, 40.736715999766247 ], [ -74.116993000102212, 40.737124999741518 ], [ -74.117070000095097, 40.737442999735485 ], [ -74.117181000423187, 40.737899000002244 ], [ -74.117218000233123, 40.738050999850309 ], [ -74.117439000166044, 40.738956000057954 ], [ -74.117508999587926, 40.739243000302103 ], [ -74.117604999847401, 40.739637999668581 ], [ -74.117984999788987, 40.739839999859726 ], [ -74.118179999782669, 40.739944000305222 ], [ -74.118286999912797, 40.740001000068091 ], [ -74.118629000219556, 40.740201000139365 ], [ -74.118970999628004, 40.740401000289893 ], [ -74.119466000095642, 40.740691999792269 ], [ -74.119959999840063, 40.740983000063444 ], [ -74.120535999600236, 40.741320000211054 ], [ -74.120825000203553, 40.741489000240044 ], [ -74.120923999937744, 40.741546999869115 ], [ -74.121043999588352, 40.741617999932934 ], [ -74.121087000144371, 40.741642999707317 ], [ -74.121113000083625, 40.741657999839681 ], [ -74.121186999703482, 40.741700999882731 ], [ -74.121523000162455, 40.741785000234849 ], [ -74.121925999670282, 40.741886000209888 ], [ -74.122318000205752, 40.74198399988407 ], [ -74.12237400028225, 40.741998000117405 ], [ -74.122448999726998, 40.742017000137736 ], [ -74.122544000161568, 40.742040000119204 ], [ -74.122602999712797, 40.74205500016204 ], [ -74.122709000018006, 40.74208100027365 ], [ -74.12278600001089, 40.742101000090756 ], [ -74.122856000331097, 40.742097999948442 ], [ -74.122913000232501, 40.742094999805943 ], [ -74.123001999920959, 40.742090999842667 ], [ -74.123140999838142, 40.74208399973611 ], [ -74.123273000082619, 40.742078000130377 ], [ -74.123453999832577, 40.74206899969986 ], [ -74.123863000086502, 40.742049999694387 ], [ -74.124585000334847, 40.74201499981347 ], [ -74.136802000163996, 40.741462000066889 ], [ -74.136950000301979, 40.741426999876559 ], [ -74.137218000090584, 40.741414000034489 ], [ -74.137491999726976, 40.741398000015998 ], [ -74.137702999614163, 40.741313000023347 ], [ -74.138307999686674, 40.741067999797153 ], [ -74.139925000435753, 40.740416000021703 ], [ -74.141564000027813, 40.739754999918091 ], [ -74.14235800024619, 40.739433999823397 ], [ -74.14268799995908, 40.739300999847693 ], [ -74.144916999555051, 40.736213999674526 ], [ -74.145263999884662, 40.735734999998463 ], [ -74.145288000174119, 40.735701000114858 ], [ -74.145341999702481, 40.735663999781423 ], [ -74.147111999714099, 40.734452999731658 ], [ -74.147187999882092, 40.734400999661418 ], [ -74.147253000179433, 40.734393000170627 ], [ -74.148065999766061, 40.734291999709626 ], [ -74.148183999766857, 40.734276999958333 ], [ -74.150838000408555, 40.733943999979722 ], [ -74.151188000212926, 40.733900999687258 ], [ -74.151691000178161, 40.73385600015871 ], [ -74.152164000006181, 40.733813999754474 ], [ -74.152273999611026, 40.733804000302626 ], [ -74.153301000356237, 40.733712999775889 ], [ -74.153696000366438, 40.733679000220427 ], [ -74.153969000177923, 40.733654000175775 ], [ -74.153996999767017, 40.733652000280685 ], [ -74.154241999989395, 40.733630000069667 ], [ -74.154760000023259, 40.733583999728559 ], [ -74.155278999882029, 40.733538000036418 ], [ -74.155687000311019, 40.733500999861363 ], [ -74.156330999843263, 40.733647999809719 ], [ -74.156617999898458, 40.733713999722546 ], [ -74.157403999720913, 40.733894000080241 ], [ -74.158203999787077, 40.734077999715659 ], [ -74.159440999696244, 40.734361000155729 ], [ -74.159979999646495, 40.734484999702303 ], [ -74.161645000076149, 40.735764000285812 ], [ -74.161669000365592, 40.735781000213699 ], [ -74.161958000070612, 40.736006999802825 ], [ -74.162092999789806, 40.736109000293638 ], [ -74.163788000356689, 40.739200999895502 ], [ -74.16510100043385, 40.742783000125421 ], [ -74.165556999645105, 40.744024999984255 ], [ -74.165702000308386, 40.744421000004593 ], [ -74.165923000241321, 40.745023000293244 ], [ -74.16595400020347, 40.745106999852858 ], [ -74.165986999815416, 40.745199000221014 ], [ -74.166078999876916, 40.747235000265988 ], [ -74.166087000272853, 40.747402000075461 ], [ -74.166078999876916, 40.747444000067517 ], [ -74.166068999831182, 40.747494999730534 ], [ -74.165995000211339, 40.747968999771636 ], [ -74.165985000165591, 40.748036000179702 ], [ -74.165980000142724, 40.748067999741345 ], [ -74.165975999944749, 40.74809099967193 ], [ -74.165738000293402, 40.749604000062632 ], [ -74.165659999577272, 40.75010099995859 ], [ -74.165464999583605, 40.750995999948444 ], [ -74.164933000204357, 40.753566999826369 ], [ -74.164840000317938, 40.754505999680823 ], [ -74.164799000310055, 40.754718000019544 ], [ -74.164585000049797, 40.755972000285595 ], [ -74.164528999973314, 40.756298000252293 ], [ -74.164513000079793, 40.756388000216155 ], [ -74.164349999873167, 40.756784999706525 ], [ -74.163968000281756, 40.757718000145502 ], [ -74.163585999792033, 40.758651999990214 ], [ -74.163388000323621, 40.759401000241077 ], [ -74.163188000307059, 40.759634999722159 ], [ -74.163123999834653, 40.759750999938817 ], [ -74.163060000260543, 40.759866999953047 ], [ -74.162944999734506, 40.760076000195085 ], [ -74.162527999982984, 40.760833999983781 ], [ -74.16214899986629, 40.761372999665518 ], [ -74.162074000421555, 40.761479000196985 ], [ -74.160617000404358, 40.763001999902251 ], [ -74.16032500032631, 40.763292999845213 ], [ -74.159958999730094, 40.763658000074294 ], [ -74.159593000032217, 40.764023000340096 ], [ -74.159132999724662, 40.76448199983659 ], [ -74.158673000315432, 40.764941999722538 ], [ -74.158402000153785, 40.765260000063194 ], [ -74.157829999693249, 40.765931999962724 ], [ -74.157746999852591, 40.766030000259157 ], [ -74.157688000301349, 40.766099999896468 ], [ -74.157480999713798, 40.766471999939213 ], [ -74.157387000002473, 40.766642000132492 ], [ -74.157074999832929, 40.767203000338149 ], [ -74.156639999639751, 40.76798599988561 ], [ -74.156369000376415, 40.768896000053978 ], [ -74.155797999740798, 40.770814999856704 ], [ -74.155278999882029, 40.771539999754232 ], [ -74.155159000231421, 40.771731999768441 ], [ -74.154663999763784, 40.772274000329844 ], [ -74.154274999601355, 40.77277500030042 ], [ -74.154150999752815, 40.77293400028762 ], [ -74.154113999942879, 40.7729809999799 ], [ -74.154036999949994, 40.773080000120423 ], [ -74.153796999750469, 40.773389000022561 ], [ -74.153504999672407, 40.77376600020245 ], [ -74.153401999740254, 40.773946000324173 ], [ -74.15329999963302, 40.774125999958237 ], [ -74.153266000196126, 40.774188999783007 ], [ -74.152656000100777, 40.774796999988467 ], [ -74.152241999823971, 40.77521199978456 ], [ -74.150631999645924, 40.776658999848024 ], [ -74.150372000253242, 40.776892999789474 ], [ -74.149793999944919, 40.777469000058346 ], [ -74.149676999769056, 40.777522999721249 ], [ -74.149485000148417, 40.77761000029507 ], [ -74.149287999606614, 40.77769999997129 ], [ -74.148987000206063, 40.778000999786258 ], [ -74.148438000210064, 40.779175999983387 ], [ -74.148408000072834, 40.779406000142657 ], [ -74.148371000262912, 40.779496000106477 ], [ -74.148326000057068, 40.779606000047885 ], [ -74.148326000057068, 40.779702000033353 ], [ -74.148341999950588, 40.779885000195343 ], [ -74.148584999624831, 40.779906000137089 ], [ -74.148892999596413, 40.779939999866727 ], [ -74.149081999742307, 40.779918999935731 ], [ -74.150031999596308, 40.780151000100474 ], [ -74.150551000353374, 40.780292000086206 ], [ -74.150838000408555, 40.780270000339705 ], [ -74.151000999716857, 40.780293999939126 ], [ -74.151251999787021, 40.78033000000223 ], [ -74.15173999968367, 40.780429999999519 ], [ -74.152793000368121, 40.780612000274857 ], [ -74.153280000439835, 40.780783000262296 ], [ -74.153358000257654, 40.780814999705875 ], [ -74.154514999800867, 40.781285999829414 ], [ -74.154972999560286, 40.781471000206423 ], [ -74.155310999669084, 40.781627000068674 ], [ -74.155606999945093, 40.781727000153971 ], [ -74.155935000008142, 40.781882000192645 ], [ -74.156463000087754, 40.782103999951602 ], [ -74.156864999770661, 40.782284999824832 ], [ -74.157140000130269, 40.782375999864186 ], [ -74.157638000072652, 40.782492999731488 ], [ -74.158018000014224, 40.782641000105627 ], [ -74.15882700030123, 40.782970000197103 ], [ -74.159162999861906, 40.783108999872148 ], [ -74.160116999913839, 40.783503999836917 ], [ -74.160475000114133, 40.783765000162276 ], [ -74.160896999888521, 40.784002999721274 ], [ -74.161281000028069, 40.784178999841146 ], [ -74.161541000319076, 40.784297999665668 ], [ -74.162132999972783, 40.784616999737992 ], [ -74.162554999747172, 40.784838999877763 ], [ -74.163061999910369, 40.785051999902606 ], [ -74.16366500033304, 40.78527499980008 ], [ -74.164314999713071, 40.785577999671816 ], [ -74.164799000310055, 40.785945000282545 ], [ -74.164948000272958, 40.786053000066829 ], [ -74.165135999695622, 40.786189999735605 ], [ -74.165514999812316, 40.786482999821374 ], [ -74.16590599962457, 40.786680000011145 ], [ -74.166139000151389, 40.786729999669404 ], [ -74.166499999826414, 40.786740999834052 ], [ -74.166957999585804, 40.786725999670914 ], [ -74.167335999877579, 40.786741999663427 ], [ -74.167714000169354, 40.786756999822899 ], [ -74.1680620003239, 40.786800999772396 ], [ -74.16844300009042, 40.786883999767859 ], [ -74.168703000381413, 40.78690799969803 ], [ -74.168730000145587, 40.78691099985874 ], [ -74.169007000155034, 40.786887999756829 ], [ -74.169377999875792, 40.786914999846033 ], [ -74.169601000356863, 40.786949000068795 ], [ -74.16982999978741, 40.787008999819207 ], [ -74.169922999673815, 40.787032999704216 ], [ -74.170109000344993, 40.787081999952619 ], [ -74.1703210000571, 40.787189000105649 ], [ -74.17080399993084, 40.787611999912407 ], [ -74.171181000397709, 40.788043000264516 ], [ -74.17133899968313, 40.788129000173591 ], [ -74.171540000422908, 40.788239000100539 ], [ -74.171548999745426, 40.788249000208552 ], [ -74.171568000011987, 40.788267000127078 ], [ -74.171658000423676, 40.788235000192998 ], [ -74.171752000135001, 40.788172999894194 ], [ -74.171776000424458, 40.788154999950194 ], [ -74.171789999769842, 40.788146000316416 ], [ -74.171803000188646, 40.788141999723067 ], [ -74.172257999574995, 40.787788999803745 ], [ -74.172424000154663, 40.787648000089895 ], [ -74.172501999972468, 40.7875780000291 ], [ -74.172615999775275, 40.787482999682872 ], [ -74.172892999784722, 40.787329000293333 ], [ -74.173598000314641, 40.787104999987335 ], [ -74.173950999593728, 40.786971000323661 ], [ -74.173979999906066, 40.78694599990979 ], [ -74.174031999784589, 40.786902000056365 ], [ -74.174042999655242, 40.786874000134446 ], [ -74.174066999944685, 40.78677400031696 ], [ -74.174111000325624, 40.78663900015448 ], [ -74.174119999648141, 40.786606000284607 ], [ -74.174203000387138, 40.786458999737604 ], [ -74.174327000235678, 40.786334999846794 ], [ -74.174358000197827, 40.786291000268655 ], [ -74.174410999901284, 40.786214999753902 ], [ -74.174511000358692, 40.786074999938357 ], [ -74.174738000139413, 40.785629999852013 ], [ -74.174759999880735, 40.785606999986619 ], [ -74.17487100020881, 40.78550400007763 ], [ -74.174995999882285, 40.785387999922854 ], [ -74.175053999608608, 40.785333999852057 ], [ -74.175200999921699, 40.7851589999255 ], [ -74.175369000151193, 40.784994000135931 ], [ -74.175462000037598, 40.784901999745479 ], [ -74.176954000214891, 40.783441000003414 ], [ -74.176833999665988, 40.783395999988599 ], [ -74.176498000105312, 40.783194000166247 ], [ -74.176858999780336, 40.782838000128734 ], [ -74.177478999921462, 40.782221000298051 ], [ -74.177546999693504, 40.782152999755525 ], [ -74.17759600009731, 40.782104999850795 ], [ -74.177570999982976, 40.782084999823546 ], [ -74.17731499988993, 40.781892999799858 ], [ -74.177673999915115, 40.781522000293265 ], [ -74.177733000364682, 40.781465999982387 ], [ -74.177459999654886, 40.781314000066658 ], [ -74.17739000023299, 40.7812709997947 ], [ -74.177261000361568, 40.781174000122952 ], [ -74.176877000222007, 40.78097300026112 ], [ -74.177222000003496, 40.780313999825431 ], [ -74.177391000057909, 40.779995000172804 ], [ -74.176975000131293, 40.779867000045634 ], [ -74.176555000006729, 40.7797400002869 ], [ -74.176991999849747, 40.778904999838424 ], [ -74.177555000089441, 40.777826000265435 ], [ -74.177656000371798, 40.77762399982943 ], [ -74.17775400028107, 40.777433999774729 ], [ -74.178205000367782, 40.777569000281233 ], [ -74.178398999638219, 40.777627999695845 ], [ -74.178597000004942, 40.777686999738371 ], [ -74.178795000371665, 40.777746999693242 ], [ -74.178978999596367, 40.777395000272726 ], [ -74.179171000115289, 40.777033999888275 ], [ -74.179587000041892, 40.777159000111496 ], [ -74.179715000088422, 40.777191999913541 ], [ -74.179844999784748, 40.777224999699143 ], [ -74.180054999847044, 40.777287999986434 ], [ -74.18012099996929, 40.777308000097534 ], [ -74.180047000349433, 40.777408999852398 ], [ -74.1799949995726, 40.777480999684933 ], [ -74.179987999899893, 40.777490000083617 ], [ -74.180281999627766, 40.777672000251336 ], [ -74.180611000414046, 40.777876999749665 ], [ -74.18097299991399, 40.77750700022883 ], [ -74.181233000204983, 40.777241999912128 ], [ -74.181429000023556, 40.776865999707482 ], [ -74.18156700011582, 40.776601000235118 ], [ -74.181583000009354, 40.77657100008701 ], [ -74.181598000077969, 40.776572000069493 ], [ -74.181959999577899, 40.776678000167621 ], [ -74.182034999920972, 40.776700999723808 ], [ -74.182148999723793, 40.776736999693341 ], [ -74.182458000418592, 40.776830999786434 ], [ -74.182774999712677, 40.776220999852882 ], [ -74.182792000329428, 40.776195000166155 ], [ -74.182884000390942, 40.776221999840637 ], [ -74.183095000278115, 40.776283999731767 ], [ -74.183163000050186, 40.776298000225836 ], [ -74.183213000278911, 40.776294000279336 ], [ -74.183260000134567, 40.776277999810667 ], [ -74.183297999769394, 40.776252000146286 ], [ -74.183328999731543, 40.77620600003484 ], [ -74.183466999823807, 40.775943999946357 ], [ -74.183682999733875, 40.775526999964562 ], [ -74.184011999621845, 40.775630999696048 ], [ -74.184086000140013, 40.775644000331312 ], [ -74.184341000408125, 40.775154000268877 ], [ -74.184527000180978, 40.774803000043377 ], [ -74.184640999983785, 40.774840999697929 ], [ -74.184683999641507, 40.77485399980754 ], [ -74.185215000094146, 40.775011000249656 ], [ -74.185276000193511, 40.774955999898658 ], [ -74.185388000346506, 40.774850999782437 ], [ -74.185455000293643, 40.774787999905165 ], [ -74.185653999586961, 40.774721999937277 ], [ -74.185719999709207, 40.774697999685337 ], [ -74.186171999620839, 40.774543999903095 ], [ -74.18620199975804, 40.774586999767763 ], [ -74.186217999651589, 40.774609000035852 ], [ -74.186231999895284, 40.774630000284901 ], [ -74.186256000184727, 40.774665000005008 ], [ -74.186356999568744, 40.774625000226209 ], [ -74.186709999746157, 40.774484999790367 ], [ -74.186720999616824, 40.774464000175769 ], [ -74.186734999860519, 40.774496999955886 ], [ -74.186763000347923, 40.774528999706455 ], [ -74.186800999982779, 40.77455500004519 ], [ -74.18684799983842, 40.77457100024855 ], [ -74.186867000104996, 40.774522000293828 ], [ -74.187078999817103, 40.774004000214198 ], [ -74.187283000031613, 40.773504000015478 ], [ -74.187717000399886, 40.772435000244847 ], [ -74.18790399999763, 40.771986999780005 ], [ -74.188333000343036, 40.770923999818237 ], [ -74.188750000094558, 40.769883999733686 ], [ -74.18924200018914, 40.768752000072283 ], [ -74.189308000311371, 40.768553999673017 ], [ -74.189453999901247, 40.768276999777086 ], [ -74.189700999773464, 40.76856999996081 ], [ -74.189759000398098, 40.768633999712961 ], [ -74.190109000202455, 40.767965999689622 ], [ -74.190448999961077, 40.767312000101491 ], [ -74.191536999907328, 40.765222999845051 ], [ -74.192489000309465, 40.763401999897972 ], [ -74.19337300004122, 40.761711000115518 ], [ -74.193648000400827, 40.761177999697004 ], [ -74.194662999653815, 40.759230999897952 ], [ -74.195097000022102, 40.759361999680479 ], [ -74.195256999855673, 40.759041999886641 ], [ -74.196290000448656, 40.757054999976546 ], [ -74.196734999789257, 40.757184999690246 ], [ -74.197057999829454, 40.756663999708529 ], [ -74.197360999778155, 40.756171999962085 ], [ -74.197580000061265, 40.755802000019493 ], [ -74.198015000254458, 40.754912999885143 ], [ -74.198115999638475, 40.754710000250135 ], [ -74.198324000050945, 40.7542880001618 ], [ -74.198498000128225, 40.753940000247489 ], [ -74.198918000252789, 40.754060000118621 ], [ -74.199325999783468, 40.754175999856294 ], [ -74.200150999963995, 40.752507000241891 ], [ -74.200221000284188, 40.752432000212131 ], [ -74.200285999683189, 40.752351999724226 ], [ -74.201058000160288, 40.750761000311385 ], [ -74.201509000246986, 40.750889999714026 ], [ -74.201939000417298, 40.751013999753198 ], [ -74.202050999671968, 40.750786999741614 ], [ -74.202065999740583, 40.75075700018877 ], [ -74.202173999695631, 40.750653000318373 ], [ -74.203947999905225, 40.748807999940617 ], [ -74.204460999916222, 40.74891999976095 ], [ -74.205342999998138, 40.749180999837591 ], [ -74.206235000125815, 40.749447000162803 ], [ -74.206227999554798, 40.749461000186265 ], [ -74.206661999923071, 40.74958399977961 ], [ -74.206772000426241, 40.74936000014543 ], [ -74.20680199966516, 40.749301999843709 ], [ -74.207266000170662, 40.749285999681199 ], [ -74.207304999630395, 40.749284000256054 ], [ -74.21242499969452, 40.74909600026411 ], [ -74.212612000190589, 40.749089000214326 ], [ -74.212777000047041, 40.749082000163803 ], [ -74.213494000272505, 40.749056000066915 ], [ -74.214352999889911, 40.749025000016623 ], [ -74.214458000370215, 40.749022000186635 ], [ -74.21455499955627, 40.749018999675918 ], [ -74.215559999661849, 40.748989000005977 ], [ -74.215623000309364, 40.748984999776717 ], [ -74.215763999876344, 40.748977999715251 ], [ -74.216599999927539, 40.748945000193309 ], [ -74.216686999966157, 40.748941999679161 ], [ -74.216803000317114, 40.74893699972931 ], [ -74.217724999683711, 40.748897999835393 ], [ -74.218704999674912, 40.748858000199654 ], [ -74.218773000345308, 40.748853000243535 ], [ -74.219815000260795, 40.748814000300364 ], [ -74.220144000148778, 40.748797000300506 ], [ -74.220320999700775, 40.748400999795223 ], [ -74.220632999870318, 40.747675000230181 ], [ -74.220898000184178, 40.747057000109209 ], [ -74.220923000298541, 40.746982999804402 ], [ -74.220955000085596, 40.746925999899752 ], [ -74.221699000075262, 40.745212999777664 ], [ -74.221715999793688, 40.745082999795073 ], [ -74.222318000391468, 40.745148999933157 ], [ -74.222817999983647, 40.745212000003846 ], [ -74.223213999818768, 40.745283000238878 ], [ -74.223423999881049, 40.745328999976849 ], [ -74.223825999563971, 40.745415999823315 ], [ -74.224217000274521, 40.745521999936201 ], [ -74.224309000336049, 40.745547000284901 ], [ -74.224517999675086, 40.745604000010367 ], [ -74.225080999914795, 40.745770999832111 ], [ -74.225152999884813, 40.745793000111568 ], [ -74.225189999694749, 40.745802999803097 ], [ -74.225234000075687, 40.745816999913139 ], [ -74.225880999980959, 40.746009000055636 ], [ -74.226101999913908, 40.746061999660625 ], [ -74.226320000372098, 40.746120000065943 ], [ -74.226624999970639, 40.746188000054367 ], [ -74.226902999804977, 40.74624100019723 ], [ -74.227014999957973, 40.746263000321214 ], [ -74.227189000035239, 40.746289999906537 ], [ -74.227567000327028, 40.746348000113052 ], [ -74.227784000061988, 40.746370000201587 ], [ -74.227994999949189, 40.746395999987499 ], [ -74.228158000155801, 40.746409000216936 ], [ -74.22840699967783, 40.746429999849298 ], [ -74.228699999580797, 40.746443000072084 ], [ -74.228922000236963, 40.746449999719822 ], [ -74.227531000342012, 40.748929999662785 ], [ -74.227290000317581, 40.749396999666089 ], [ -74.226419000106304, 40.751086000284516 ], [ -74.226393000167036, 40.751130999726321 ], [ -74.22637399990046, 40.751162000155823 ], [ -74.226475000182802, 40.751158999741712 ], [ -74.227182000362546, 40.751183000328808 ], [ -74.227344999670834, 40.751192999890335 ], [ -74.228306000293799, 40.751248000174087 ], [ -74.229253999599678, 40.751304999776728 ], [ -74.230257999880322, 40.751359999967789 ], [ -74.231246000267461, 40.751417000154952 ], [ -74.232124999976335, 40.751468000173531 ], [ -74.23262999959141, 40.751496999726307 ], [ -74.233170000264892, 40.751527999985171 ], [ -74.23337299975617, 40.751396999736713 ], [ -74.233444999726188, 40.751351999794345 ], [ -74.234670999764717, 40.750556000181447 ], [ -74.235187999973647, 40.750218999875678 ], [ -74.235286999707867, 40.750143999987223 ], [ -74.23546499998308, 40.749608000254661 ], [ -74.235495999945229, 40.749541999778032 ], [ -74.235525000257553, 40.749480999825778 ], [ -74.235741000167621, 40.748865999992653 ], [ -74.235902999651003, 40.748890000046295 ], [ -74.237029999955311, 40.745545999835571 ], [ -74.236860999900927, 40.745547000284901 ], [ -74.2368879996651, 40.745459999929231 ], [ -74.237900000341682, 40.744987999935042 ], [ -74.238456000010387, 40.744722000149508 ], [ -74.238913999769764, 40.743496999692326 ], [ -74.238948000104955, 40.743407999775592 ], [ -74.239023000448043, 40.743206000210847 ], [ -74.239096000242967, 40.743011000042294 ], [ -74.239117000159382, 40.742954000136358 ], [ -74.238794999944091, 40.742841999796781 ], [ -74.238919999617565, 40.742492000242478 ], [ -74.238969000021356, 40.742427000005776 ], [ -74.240364999939189, 40.740938999718225 ], [ -74.240426000038568, 40.740844999904112 ], [ -74.240607999613431, 40.740560000133677 ], [ -74.243642000196743, 40.741640000224919 ], [ -74.243914000183295, 40.741738000261542 ], [ -74.244164000428555, 40.741458000065492 ], [ -74.244385000361504, 40.741228999755798 ], [ -74.244869000060163, 40.740681000171058 ], [ -74.245052000358271, 40.740527999681987 ], [ -74.245900999929916, 40.740948000301707 ], [ -74.246086999702769, 40.740823999869555 ], [ -74.246392000199592, 40.740620000258453 ], [ -74.247644000177388, 40.739784999669688 ], [ -74.247941000278317, 40.739967000322913 ], [ -74.248055999906029, 40.73988699981286 ], [ -74.248368000075573, 40.739650999857702 ], [ -74.249752000297832, 40.738672000233869 ], [ -74.251360999752677, 40.737533999924935 ] ] ] } }
]
}
