{
"type": "FeatureCollection",
"name": "assets",
"crs": { "type": "name", "properties": { "name": "urn:ogc:def:crs:OGC:1.3:CRS84" } },
"features": [
{ "type": "Feature", "properties": { "id": "w606147457", "name": "Roller Rink Park", "category": "community", "address": "", "ground_elev_ft": 5.64, "elev_source": "epqs", "ffo_ft": 1.0, "source": "OpenStreetMap" }, "geometry": { "type": "Point", "coordinates": [ -74.036544, 40.739402 ] } },
{ "type": "Feature", "properties": { "id": "w552178099", "name": "Bruce D. Walter Recreation Center", "category": "community", "address": "507 West Street, Union City", "ground_elev_ft": 169.98, "elev_source": "epqs", "ffo_ft": 1.0, "source": "OpenStreetMap" }, "geometry": { "type": "Point", "coordinates": [ -74.042338, 40.755805 ] } },
{ "type": "Feature", "properties": { "id": "w396126616", "name": "Pershing Field Community Center", "category": "community", "address": "", "ground_elev_ft": 124.15, "elev_source": "epqs", "ffo_ft": 1.0, "source": "OpenStreetMap" }, "geometry": { "type": "Point", "coordinates": [ -74.053743, 40.742378 ] } },
{ "type": "Feature", "properties": { "id": "n9064907525", "name": "SMT Center", "category": "community", "address": "731 Washington Street, Hoboken", "ground_elev_ft": 21.16, "elev_source": "epqs", "ffo_ft": 1.0, "source": "OpenStreetMap" }, "geometry": { "type": "Point", "coordinates": [ -74.028132, 40.745889 ] } },
{ "type": "Feature", "properties": { "id": "w449469925", "name": "Unnamed ems", "category": "ems", "address": "", "ground_elev_ft": 5.35, "elev_source": "epqs", "ffo_ft": 1.0, "source": "OpenStreetMap" }, "geometry": { "type": "Point", "coordinates": [ -74.032845, 40.745788 ] } },
{ "type": "Feature", "properties": { "id": "n296377486", "name": "Hoboken Fire Dept Ladder 2 Engine 5", "category": "fire", "address": "", "ground_elev_ft": 4.89, "elev_source": "epqs", "ffo_ft": 1.0, "source": "OpenStreetMap" }, "geometry": { "type": "Point", "coordinates": [ -74.039612, 40.736925 ] } },
{ "type": "Feature", "properties": { "id": "w449045631", "name": "Hoboken Rescue Company Number 1", "category": "fire", "address": "", "ground_elev_ft": 6.1, "elev_source": "epqs", "ffo_ft": 1.0, "source": "OpenStreetMap" }, "geometry": { "type": "Point", "coordinates": [ -74.032454, 40.746924 ] } },
{ "type": "Feature", "properties": { "id": "w450042837", "name": "Hoboken Fire Department Engine 3", "category": "fire", "address": "", "ground_elev_ft": 4.53, "elev_source": "epqs", "ffo_ft": 1.0, "source": "OpenStreetMap" }, "geometry": { "type": "Point", "coordinates": [ -74.037601, 40.740126 ] } },
{ "type": "Feature", "properties": { "id": "n367685099", "name": "Hoboken Ladder Company Number 2", "category": "fire", "address": "", "ground_elev_ft": 5.28, "elev_source": "epqs", "ffo_ft": 1.0, "source": "OpenStreetMap" }, "geometry": { "type": "Point", "coordinates": [ -74.038584, 40.738146 ] } },
{ "type": "Feature", "properties": { "id": "n367685163", "name": "Hoboken Ladder Company Number 1;Hoboken Engine Company Number 3", "category": "fire", "address": "", "ground_elev_ft": 13.68, "elev_source": "epqs", "ffo_ft": 1.0, "source": "OpenStreetMap" }, "geometry": { "type": "Point", "coordinates": [ -74.025953, 40.752762 ] } },
{ "type": "Feature", "properties": { "id": "w265560953", "name": "FDJC Palisade Ave. Firehouse", "category": "fire", "address": "", "ground_elev_ft": 135.63, "elev_source": "epqs", "ffo_ft": 1.0, "source": "OpenStreetMap" }, "geometry": { "type": "Point", "coordinates": [ -74.041545, 40.748904 ] } },
{ "type": "Feature", "properties": { "id": "n8401234126", "name": "Unnamed fire", "category": "fire", "address": "", "ground_elev_ft": 14.07, "elev_source": "epqs", "ffo_ft": 1.0, "source": "OpenStreetMap" }, "geometry": { "type": "Point", "coordinates": [ -74.027148, 40.760455 ] } },
{ "type": "Feature", "properties": { "id": "w484453822", "name": "Christ Hospital", "category": "hospital", "address": "176 Palisade Avenue, Jersey City", "ground_elev_ft": 105.97, "elev_source": "epqs", "ffo_ft": 1.0, "source": "OpenStreetMap" }, "geometry": { "type": "Point", "coordinates": [ -74.049948, 40.734019 ] } },
{ "type": "Feature", "properties": { "id": "w27080832", "name": "Hoboken University Medical Center", "category": "hospital", "address": "308 Willow Avenue, Hoboken", "ground_elev_ft": 6.0, "elev_source": "epqs", "ffo_ft": 1.0, "source": "OpenStreetMap" }, "geometry": { "type": "Point", "coordinates": [ -74.03401, 40.741356 ] } },
{ "type": "Feature", "properties": { "id": "w449685639", "name": "Hoboken Public Library", "category": "library", "address": "500 Park Avenue, Hoboken", "ground_elev_ft": 7.25, "elev_source": "epqs", "ffo_ft": 1.0, "source": "OpenStreetMap" }, "geometry": { "type": "Point", "coordinates": [ -74.032291, 40.742917 ] } },
{ "type": "Feature", "properties": { "id": "w469268752", "name": "Union City Public Library 18th Street Branch", "category": "library", "address": "1800 Summit Avenue, Union City", "ground_elev_ft": 231.2, "elev_source": "epqs", "ffo_ft": 1.0, "source": "OpenStreetMap" }, "geometry": { "type": "Point", "coordinates": [ -74.038441, 40.765393 ] } },
{ "type": "Feature", "properties": { "id": "w26974141", "name": "Samuel C. Williams Library", "category": "library", "address": "", "ground_elev_ft": 82.84, "elev_source": "epqs", "ffo_ft": 1.0, "source": "OpenStreetMap" }, "geometry": { "type": "Point", "coordinates": [ -74.025331, 40.744789 ] } },
{ "type": "Feature", "properties": { "id": "w449920113", "name": "Hoboken City Hall", "category": "municipal", "address": "94 Washington Street", "ground_elev_ft": 17.49, "elev_source": "epqs", "ffo_ft": 1.0, "source": "OpenStreetMap" }, "geometry": { "type": "Point", "coordinates": [ -74.031404, 40.737239 ] } },
{ "type": "Feature", "properties": { "id": "w450946403", "name": "Unnamed municipal", "category": "municipal", "address": "372 Park Avenue, Weehawken", "ground_elev_ft": 68.11, "elev_source": "epqs", "ffo_ft": 1.0, "source": "OpenStreetMap" }, "geometry": { "type": "Point", "coordinates": [ -74.023376, 40.766617 ] } },
{ "type": "Feature", "properties": { "id": "w449875246", "name": "Hoboken Police Station", "category": "police", "address": "106 Hudson Street, Hoboken", "ground_elev_ft": 22.7, "elev_source": "epqs", "ffo_ft": 1.0, "source": "OpenStreetMap" }, "geometry": { "type": "Point", "coordinates": [ -74.030017, 40.737721 ] } },
{ "type": "Feature", "properties": { "id": "w555509857", "name": "Union City Police Department", "category": "police", "address": "", "ground_elev_ft": 177.23, "elev_source": "epqs", "ffo_ft": 1.0, "source": "OpenStreetMap" }, "geometry": { "type": "Point", "coordinates": [ -74.039789, 40.756593 ] } },
{ "type": "Feature", "properties": { "id": "n2636098702", "name": "JCPD North District", "category": "police", "address": "282 Central Avenue, Jersey City", "ground_elev_ft": 120.37, "elev_source": "epqs", "ffo_ft": 1.0, "source": "OpenStreetMap" }, "geometry": { "type": "Point", "coordinates": [ -74.050241, 40.744437 ] } },
{ "type": "Feature", "properties": { "id": "n6663013937", "name": "Stevens Campus Police", "category": "police", "address": "", "ground_elev_ft": 53.71, "elev_source": "epqs", "ffo_ft": 1.0, "source": "OpenStreetMap" }, "geometry": { "type": "Point", "coordinates": [ -74.026384, 40.743581 ] } },
{ "type": "Feature", "properties": { "id": "w449336714", "name": "All Saints Episcopal Day School", "category": "school", "address": "", "ground_elev_ft": 25.03, "elev_source": "epqs", "ffo_ft": 1.0, "source": "OpenStreetMap" }, "geometry": { "type": "Point", "coordinates": [ -74.028181, 40.745005 ] } },
{ "type": "Feature", "properties": { "id": "w449691671", "name": "Mustard Seed School", "category": "school", "address": "", "ground_elev_ft": 6.0, "elev_source": "epqs", "ffo_ft": 1.0, "source": "OpenStreetMap" }, "geometry": { "type": "Point", "coordinates": [ -74.033571, 40.742734 ] } },
{ "type": "Feature", "properties": { "id": "w449691672", "name": "Hoboken Childrens Academy", "category": "school", "address": "", "ground_elev_ft": 6.43, "elev_source": "epqs", "ffo_ft": 1.0, "source": "OpenStreetMap" }, "geometry": { "type": "Point", "coordinates": [ -74.032753, 40.742984 ] } },
{ "type": "Feature", "properties": { "id": "w449806368", "name": "Stevens Cooperative School", "category": "school", "address": "", "ground_elev_ft": 6.76, "elev_source": "epqs", "ffo_ft": 1.0, "source": "OpenStreetMap" }, "geometry": { "type": "Point", "coordinates": [ -74.03147, 40.740603 ] } },
{ "type": "Feature", "properties": { "id": "w453063151", "name": "Sara M Glimore Elementary School", "category": "school", "address": "", "ground_elev_ft": 216.77, "elev_source": "epqs", "ffo_ft": 1.0, "source": "OpenStreetMap" }, "geometry": { "type": "Point", "coordinates": [ -74.04049, 40.764556 ] } },
{ "type": "Feature", "properties": { "id": "w469268751", "name": "Jose Marti Freshman Academy", "category": "school", "address": "1800 Summit Avenue, Union City", "ground_elev_ft": 219.46, "elev_source": "epqs", "ffo_ft": 1.0, "source": "OpenStreetMap" }, "geometry": { "type": "Point", "coordinates": [ -74.037328, 40.766157 ] } },
{ "type": "Feature", "properties": { "id": "w556522242", "name": "Hudson Elementary School", "category": "school", "address": "", "ground_elev_ft": 199.02, "elev_source": "epqs", "ffo_ft": 1.0, "source": "OpenStreetMap" }, "geometry": { "type": "Point", "coordinates": [ -74.030673, 40.762103 ] } },
{ "type": "Feature", "properties": { "id": "w578676703", "name": "Veterans' Memorial School", "category": "school", "address": "1401 Central Avenue, Union City", "ground_elev_ft": 232.61, "elev_source": "epqs", "ffo_ft": 1.0, "source": "OpenStreetMap" }, "geometry": { "type": "Point", "coordinates": [ -74.039555, 40.762438 ] } },
{ "type": "Feature", "properties": { "id": "w578676728", "name": "Miftaahul Uloom Academy", "category": "school", "address": "501 15th Street, Union City", "ground_elev_ft": 238.42, "elev_source": "epqs", "ffo_ft": 1.0, "source": "OpenStreetMap" }, "geometry": { "type": "Point", "coordinates": [ -74.036806, 40.761606 ] } },
{ "type": "Feature", "properties": { "id": "w578676892", "name": "Colin Powell Elementary School", "category": "school", "address": "1500 New York Avenue, Union City", "ground_elev_ft": 225.92, "elev_source": "epqs", "ffo_ft": 1.0, "source": "OpenStreetMap" }, "geometry": { "type": "Point", "coordinates": [ -74.034241, 40.761218 ] } },
{ "type": "Feature", "properties": { "id": "w579063584", "name": "Emerson High School", "category": "school", "address": "", "ground_elev_ft": 214.76, "elev_source": "epqs", "ffo_ft": 1.0, "source": "OpenStreetMap" }, "geometry": { "type": "Point", "coordinates": [ -74.03351, 40.763362 ] } },
{ "type": "Feature", "properties": { "id": "w579066791", "name": "Mother Seton School", "category": "school", "address": "1501 15th Street, Union City", "ground_elev_ft": 228.05, "elev_source": "epqs", "ffo_ft": 1.0, "source": "OpenStreetMap" }, "geometry": { "type": "Point", "coordinates": [ -74.035286, 40.761579 ] } },
{ "type": "Feature", "properties": { "id": "w581426168", "name": "Saint Francis Academy", "category": "school", "address": "", "ground_elev_ft": 251.48, "elev_source": "epqs", "ffo_ft": 1.0, "source": "OpenStreetMap" }, "geometry": { "type": "Point", "coordinates": [ -74.038747, 40.763852 ] } },
{ "type": "Feature", "properties": { "id": "w583487984", "name": "Thomas A Edision Elementary School", "category": "school", "address": "", "ground_elev_ft": 169.65, "elev_source": "epqs", "ffo_ft": 1.0, "source": "OpenStreetMap" }, "geometry": { "type": "Point", "coordinates": [ -74.041962, 40.75613 ] } },
{ "type": "Feature", "properties": { "id": "w601172646", "name": "Charles E. Trefurt School - PS 8", "category": "school", "address": "", "ground_elev_ft": 105.81, "elev_source": "epqs", "ffo_ft": 1.0, "source": "OpenStreetMap" }, "geometry": { "type": "Point", "coordinates": [ -74.048588, 40.742889 ] } },
{ "type": "Feature", "properties": { "id": "w469900698", "name": "Christa McAuliffe School - PS 28", "category": "school", "address": "", "ground_elev_ft": 141.31, "elev_source": "epqs", "ffo_ft": 1.0, "source": "OpenStreetMap" }, "geometry": { "type": "Point", "coordinates": [ -74.046307, 40.748018 ] } },
{ "type": "Feature", "properties": { "id": "w406957187", "name": "Rafael de J. Cordero Elementary School - PS 37", "category": "school", "address": "", "ground_elev_ft": 14.53, "elev_source": "epqs", "ffo_ft": 1.0, "source": "OpenStreetMap" }, "geometry": { "type": "Point", "coordinates": [ -74.042969, 40.72783 ] } },
{ "type": "Feature", "properties": { "id": "n357724261", "name": "Kealy School", "category": "school", "address": "", "ground_elev_ft": 4.89, "elev_source": "epqs", "ffo_ft": 1.0, "source": "OpenStreetMap" }, "geometry": { "type": "Point", "coordinates": [ -74.035071, 40.742875 ] } },
{ "type": "Feature", "properties": { "id": "n357729866", "name": "Jotham W. Wakeman No. 6. Elementary School", "category": "school", "address": "", "ground_elev_ft": 101.21, "elev_source": "epqs", "ffo_ft": 1.0, "source": "OpenStreetMap" }, "geometry": { "type": "Point", "coordinates": [ -74.054974, 40.736151 ] } },
{ "type": "Feature", "properties": { "id": "n357732096", "name": "Yeshiva School", "category": "school", "address": "", "ground_elev_ft": 191.24, "elev_source": "epqs", "ffo_ft": 1.0, "source": "OpenStreetMap" }, "geometry": { "type": "Point", "coordinates": [ -74.031251, 40.767879 ] } },
{ "type": "Feature", "properties": { "id": "n357745002", "name": "Saint Paul of the Cross School", "category": "school", "address": "", "ground_elev_ft": 127.4, "elev_source": "epqs", "ffo_ft": 1.0, "source": "OpenStreetMap" }, "geometry": { "type": "Point", "coordinates": [ -74.044863, 40.747879 ] } },
{ "type": "Feature", "properties": { "id": "n357746581", "name": "Hoboken Catholic Academy", "category": "school", "address": "", "ground_elev_ft": 33.43, "elev_source": "epqs", "ffo_ft": 1.0, "source": "OpenStreetMap" }, "geometry": { "type": "Point", "coordinates": [ -74.028659, 40.741601 ] } },
{ "type": "Feature", "properties": { "id": "n6793153516", "name": "Stevens Cooperative School", "category": "school", "address": "", "ground_elev_ft": 17.62, "elev_source": "epqs", "ffo_ft": 1.0, "source": "OpenStreetMap" }, "geometry": { "type": "Point", "coordinates": [ -74.027538, 40.740674 ] } },
{ "type": "Feature", "properties": { "id": "n11367696069", "name": "Cresthill Academy Day Care and Preschool", "category": "school", "address": "1300 Sinatra Drive North", "ground_elev_ft": 11.65, "elev_source": "epqs", "ffo_ft": 1.0, "source": "OpenStreetMap" }, "geometry": { "type": "Point", "coordinates": [ -74.023694, 40.752595 ] } },
{ "type": "Feature", "properties": { "id": "n11686006787", "name": "New Jersey Coffee School", "category": "school", "address": "720 Monroe Street, Hoboken", "ground_elev_ft": 5.05, "elev_source": "epqs", "ffo_ft": 1.0, "source": "OpenStreetMap" }, "geometry": { "type": "Point", "coordinates": [ -74.037781, 40.74754 ] } },
{ "type": "Feature", "properties": { "id": "w396843275", "name": "Saint Nicholas School", "category": "school", "address": "", "ground_elev_ft": 118.67, "elev_source": "epqs", "ffo_ft": 1.0, "source": "OpenStreetMap" }, "geometry": { "type": "Point", "coordinates": [ -74.05102, 40.741931 ] } },
{ "type": "Feature", "properties": { "id": "w26807513", "name": "Hoboken High School", "category": "school", "address": "800 Clinton Street, Hoboken", "ground_elev_ft": 7.45, "elev_source": "epqs", "ffo_ft": 1.0, "source": "OpenStreetMap" }, "geometry": { "type": "Point", "coordinates": [ -74.033097, 40.747543 ] } },
{ "type": "Feature", "properties": { "id": "w26807517", "name": "Thomas G. Connors Primary School", "category": "school", "address": "201 Monroe Street, Hoboken", "ground_elev_ft": 6.17, "elev_source": "epqs", "ffo_ft": 1.0, "source": "OpenStreetMap" }, "geometry": { "type": "Point", "coordinates": [ -74.03916, 40.74054 ] } },
{ "type": "Feature", "properties": { "id": "w26809079", "name": "Hoboken Catholic Academy", "category": "school", "address": "555 7th Street, Hoboken", "ground_elev_ft": 5.38, "elev_source": "epqs", "ffo_ft": 1.0, "source": "OpenStreetMap" }, "geometry": { "type": "Point", "coordinates": [ -74.037493, 40.746076 ] } },
{ "type": "Feature", "properties": { "id": "w26809080", "name": "Jubilee Center", "category": "school", "address": "601-603 Jackson Street, Hoboken", "ground_elev_ft": 4.17, "elev_source": "epqs", "ffo_ft": 1.0, "source": "OpenStreetMap" }, "geometry": { "type": "Point", "coordinates": [ -74.038872, 40.74535 ] } },
{ "type": "Feature", "properties": { "id": "w26807521", "name": "Calabro School", "category": "school", "address": "524 Park Avenue, Hoboken", "ground_elev_ft": 0.82, "elev_source": "epqs", "ffo_ft": 1.0, "source": "OpenStreetMap" }, "geometry": { "type": "Point", "coordinates": [ -74.032179, 40.743765 ] } },
{ "type": "Feature", "properties": { "id": "w26807519", "name": "Wallace School", "category": "school", "address": "1100 Willow Avenue, Hoboken", "ground_elev_ft": 9.19, "elev_source": "epqs", "ffo_ft": 1.0, "source": "OpenStreetMap" }, "geometry": { "type": "Point", "coordinates": [ -74.031048, 40.751043 ] } },
{ "type": "Feature", "properties": { "id": "w26807522", "name": "Joseph F. Brandt Middle School", "category": "school", "address": "215 9th Street, Hoboken", "ground_elev_ft": 8.14, "elev_source": "epqs", "ffo_ft": 1.0, "source": "OpenStreetMap" }, "geometry": { "type": "Point", "coordinates": [ -74.030177, 40.74745 ] } },
{ "type": "Feature", "properties": { "id": "w26807523", "name": "Unnamed school", "category": "school", "address": "", "ground_elev_ft": 12.43, "elev_source": "epqs", "ffo_ft": 1.0, "source": "OpenStreetMap" }, "geometry": { "type": "Point", "coordinates": [ -74.030933, 40.741817 ] } },
{ "type": "Feature", "properties": { "id": "w449512601", "name": "Unnamed school", "category": "school", "address": "", "ground_elev_ft": 6.5, "elev_source": "epqs", "ffo_ft": 1.0, "source": "OpenStreetMap" }, "geometry": { "type": "Point", "coordinates": [ -74.033499, 40.744022 ] } },
{ "type": "Feature", "properties": { "id": "w376010262", "name": "Unnamed school", "category": "school", "address": "", "ground_elev_ft": 7.38, "elev_source": "epqs", "ffo_ft": 1.0, "source": "OpenStreetMap" }, "geometry": { "type": "Point", "coordinates": [ -74.031432, 40.74409 ] } },
{ "type": "Feature", "properties": { "id": "w690615853", "name": "Unnamed school", "category": "school", "address": "", "ground_elev_ft": 16.6, "elev_source": "epqs", "ffo_ft": 1.0, "source": "OpenStreetMap" }, "geometry": { "type": "Point", "coordinates": [ -74.040693, 40.728416 ] } },
{ "type": "Feature", "properties": { "id": "w409705888", "name": "St. Lucy's Emergency Shelter", "category": "shelter", "address": "612 Grove Street, Jersey City", "ground_elev_ft": 7.22, "elev_source": "epqs", "ffo_ft": 1.0, "source": "OpenStreetMap" }, "geometry": { "type": "Point", "coordinates": [ -74.040717, 40.732624 ] } }
]
}
