{"type":"FeatureCollection","features":[{"type":"Feature","properties":{"level_ft":20},"geometry":{"type":"MultiPolygon","coordinates":[[[[-74.158263,40.644031],[-74.158248,40.644019],[-74.158263,40.644019],[-74.158263,40.644031]]],[[[-74.158282,40.644046],[-74.161391,40.644357],[-74.161303,40.645451],[-74.160077,40.645246],[-74.160206,40.644951],[-74.159668,40.644486],[-74.159018,40.644694],[-74.159247,40.644938],[-74.158912,40.644855],[-74.158282,40.644046]]],[[[-74.138812,40.648901],[-74.138776,40.648928],[-74.138776,40.648901],[-74.138812,40.648901]]],[[[-74.13874,40.648928],[-74.138776,40.648956],[-74.13874,40.648955],[-74.13874,40.648928]]],[[[-74.138522,40.649339],[-74.138125,40.64931],[-74.137875,40.648953],[-74.13874,40.64901],[-74.138522,40.649339]],[[-74.138631,40.649037],[-74.138595,40.649065],[-74.138631,40.649065],[-74.138631,40.649037]]],[[[-74.138196,40.649475],[-74.138377,40.649503],[-74.138376,40.649641],[-74.13816,40.649612],[-74.138196,40.649475]],[[-74.138268,40.64953],[-74.138232,40.649558],[-74.138268,40.649558],[-74.138268,40.64953]]],[[[-74.137977,40.650051],[-74.137797,40.650051],[-74.137798,40.649858],[-74.138086,40.649914],[-74.137977,40.650051]],[[-74.137905,40.650023],[-74.137941,40.649996],[-74.137905,40.649996],[-74.137905,40.650023]],[[-74.137978,40.649914],[-74.137942,40.649941],[-74.137978,40.649941],[-74.137978,40.649914]]],[[[-74.137324,40.650955],[-74.137287,40.650982],[-74.137287,40.650955],[-74.137324,40.650955]]],[[[-74.137033,40.651366],[-74.136997,40.651393],[-74.136997,40.651366],[-74.137033,40.651366]]],[[[-74.136996,40.651558],[-74.136924,40.65153],[-74.136996,40.651503],[-74.136996,40.651558]]],[[[-74.136888,40.651585],[-74.136923,40.65164],[-74.136887,40.65164],[-74.136888,40.651585]]],[[[-74.136562,40.651831],[-74.136526,40.651858],[-74.136526,40.651831],[-74.136562,40.651831]]],[[[-74.135692,40.652761],[-74.1358,40.652817],[-74.135692,40.652789],[-74.135692,40.652761]]],[[[-74.134822,40.65361],[-74.134786,40.653582],[-74.134822,40.653582],[-74.134822,40.65361]]],[[[-74.134606,40.653582],[-74.13457,40.653609],[-74.13457,40.653581],[-74.134606,40.653582]]],[[[-74.13475,40.653637],[-74.134786,40.65361],[-74.134786,40.653637],[-74.13475,40.653637]]],[[[-74.13475,40.653582],[-74.133738,40.654073],[-74.133017,40.654126],[-74.132946,40.654016],[-74.133667,40.653908],[-74.133777,40.653606],[-74.13439,40.653499],[-74.13457,40.653636],[-74.13475,40.653582]],[[-74.133018,40.654043],[-74.133054,40.654016],[-74.133018,40.654016],[-74.133018,40.654043]]],[[[-74.133665,40.654265],[-74.134857,40.653802],[-74.134712,40.653994],[-74.133665,40.654265]]],[[[-74.129016,40.654168],[-74.129088,40.65414],[-74.129088,40.654168],[-74.129016,40.654168]]],[[[-74.12851,40.654386],[-74.128547,40.654358],[-74.128546,40.654386],[-74.12851,40.654386]]],[[[-74.133881,40.654375],[-74.133664,40.654457],[-74.133448,40.654456],[-74.133881,40.654375]]],[[[-74.133736,40.65454],[-74.13323,40.654812],[-74.132978,40.65462],[-74.133736,40.65454]]],[[[-74.121403,40.655515],[-74.121331,40.655543],[-74.121331,40.655515],[-74.121403,40.655515]]],[[[-74.120097,40.656994],[-74.120133,40.657021],[-74.120097,40.657021],[-74.120097,40.656994]]],[[[-74.120061,40.657048],[-74.120097,40.657076],[-74.120061,40.657076],[-74.120061,40.657048]]],[[[-74.118792,40.658307],[-74.11872,40.658361],[-74.11872,40.658334],[-74.118792,40.658307]]],[[[-74.118647,40.658471],[-74.118683,40.658526],[-74.118538,40.658608],[-74.118539,40.658553],[-74.118647,40.658471]]],[[[-74.114036,40.66433],[-74.114,40.664303],[-74.114036,40.664303],[-74.114036,40.66433]]],[[[-74.113999,40.664357],[-74.113964,40.66433],[-74.114,40.66433],[-74.113999,40.664357]]],[[[-74.123012,40.670756],[-74.123338,40.670372],[-74.123013,40.670454],[-74.123341,40.669851],[-74.122982,40.669575],[-74.123058,40.668917],[-74.122843,40.668751],[-74.122916,40.668532],[-74.123385,40.668561],[-74.123784,40.668041],[-74.123605,40.66782],[-74.123929,40.667822],[-74.124293,40.667301],[-74.123754,40.666915],[-74.123828,40.666696],[-74.124405,40.66667],[-74.12448,40.666066],[-74.124049,40.665708],[-74.125094,40.665904],[-74.125601,40.665494],[-74.126753,40.66569],[-74.127079,40.665471],[-74.127619,40.665555],[-74.128092,40.664898],[-74.128777,40.664818],[-74.130083,40.66334],[-74.129978,40.662763],[-74.13023,40.662818],[-74.130883,40.662107],[-74.131713,40.661917],[-74.13157,40.661697],[-74.132114,40.661095],[-74.131757,40.66049],[-74.13237,40.660355],[-74.132375,40.659476],[-74.13306,40.659533],[-74.134691,40.657837],[-74.134441,40.657342],[-74.135602,40.655973],[-74.135245,40.655395],[-74.135391,40.655094],[-74.134924,40.654735],[-74.13554,40.654106],[-74.136657,40.654274],[-74.137019,40.653973],[-74.136588,40.653643],[-74.136045,40.654025],[-74.135397,40.653859],[-74.135796,40.653448],[-74.136265,40.653395],[-74.13714,40.651531],[-74.139645,40.648135],[-74.141323,40.644352],[-74.141982,40.64453],[-74.14188,40.644033],[-74.14375,40.643792],[-74.163014,40.645898],[-74.15809,40.649737],[-74.14726,40.655124],[-74.142721,40.658943],[-74.140573,40.661318],[-74.132507,40.672932],[-74.125251,40.68406],[-74.120322,40.69066],[-74.117502,40.694949],[-74.105946,40.691396],[-74.107495,40.691566],[-74.108367,40.690554],[-74.107612,40.690194],[-74.107177,40.690467],[-74.106966,40.68967],[-74.107366,40.688958],[-74.109316,40.688498],[-74.109753,40.687841],[-74.109396,40.687153],[-74.10965,40.686907],[-74.110155,40.686936],[-74.111892,40.685899],[-74.111678,40.685432],[-74.11204,40.685186],[-74.112261,40.68439],[-74.111685,40.684334],[-74.111579,40.683921],[-74.111831,40.683977],[-74.111976,40.683758],[-74.112263,40.684171],[-74.112443,40.684199],[-74.112337,40.683677],[-74.113246,40.682472],[-74.113462,40.682528],[-74.11303,40.682362],[-74.11296,40.682059],[-74.113321,40.681951],[-74.113752,40.682227],[-74.114118,40.68135],[-74.114698,40.680775],[-74.11463,40.680089],[-74.113586,40.679811],[-74.113805,40.679262],[-74.114419,40.679072],[-74.114848,40.679787],[-74.11536,40.678609],[-74.116514,40.67842],[-74.119305,40.675849],[-74.120138,40.675331],[-74.120859,40.675223],[-74.122023,40.673525],[-74.121663,40.673387],[-74.121378,40.672809],[-74.122278,40.672977],[-74.121992,40.672482],[-74.122535,40.672209],[-74.122718,40.671743],[-74.123185,40.671909],[-74.123549,40.671416],[-74.123442,40.671169],[-74.123694,40.67117],[-74.123012,40.670756]],[[-74.112443,40.684144],[-74.112479,40.684117],[-74.112443,40.684117],[-74.112443,40.684144]],[[-74.113462,40.682528],[-74.113498,40.682583],[-74.113498,40.682528],[-74.113462,40.682528]],[[-74.122023,40.673498],[-74.122059,40.67347],[-74.122023,40.67347],[-74.122023,40.673498]],[[-74.123264,40.670729],[-74.1233,40.670757],[-74.1233,40.670729],[-74.123264,40.670729]]],[[[-74.113927,40.66444],[-74.113891,40.664412],[-74.113927,40.664412],[-74.113927,40.66444]]],[[[-74.113891,40.664494],[-74.113855,40.664467],[-74.113891,40.664467],[-74.113891,40.664494]]],[[[-74.113782,40.664631],[-74.113746,40.664604],[-74.113782,40.664604],[-74.113782,40.664631]]],[[[-74.113745,40.664659],[-74.11371,40.664631],[-74.113746,40.664631],[-74.113745,40.664659]]],[[[-74.113709,40.664713],[-74.113673,40.664686],[-74.113709,40.664686],[-74.113709,40.664713]]],[[[-74.113673,40.664741],[-74.113637,40.664713],[-74.113673,40.664713],[-74.113673,40.664741]]],[[[-74.113637,40.664768],[-74.1136,40.664795],[-74.113601,40.664768],[-74.113637,40.664768]]],[[[-74.1136,40.664823],[-74.113564,40.664795],[-74.1136,40.664795],[-74.1136,40.664823]]],[[[-74.113491,40.66496],[-74.113455,40.664932],[-74.113491,40.664932],[-74.113491,40.66496]]],[[[-74.113419,40.665042],[-74.113383,40.665014],[-74.113419,40.665014],[-74.113419,40.665042]]],[[[-74.113382,40.665097],[-74.113346,40.665069],[-74.113383,40.665069],[-74.113382,40.665097]]],[[[-74.113346,40.665151],[-74.11331,40.665124],[-74.113346,40.665124],[-74.113346,40.665151]]],[[[-74.11331,40.665179],[-74.113274,40.665151],[-74.11331,40.665151],[-74.11331,40.665179]]],[[[-74.113237,40.665233],[-74.113201,40.665261],[-74.113201,40.665233],[-74.113237,40.665233]]],[[[-74.113201,40.665316],[-74.113165,40.665288],[-74.113201,40.665288],[-74.113201,40.665316]]],[[[-74.113165,40.665343],[-74.113129,40.665315],[-74.113165,40.665315],[-74.113165,40.665343]]],[[[-74.113092,40.665452],[-74.113056,40.665425],[-74.113092,40.665425],[-74.113092,40.665452]]],[[[-74.113056,40.66548],[-74.11302,40.665452],[-74.113056,40.665452],[-74.113056,40.66548]]],[[[-74.112983,40.665562],[-74.112947,40.665534],[-74.112983,40.665534],[-74.112983,40.665562]]],[[[-74.112947,40.665617],[-74.112911,40.665589],[-74.112947,40.665589],[-74.112947,40.665617]]],[[[-74.112729,40.665863],[-74.112693,40.66589],[-74.112693,40.665863],[-74.112729,40.665863]]],[[[-74.112584,40.666055],[-74.112548,40.666027],[-74.112584,40.666027],[-74.112584,40.666055]]],[[[-74.112548,40.666082],[-74.112512,40.666054],[-74.112548,40.666055],[-74.112548,40.666082]]],[[[-74.112511,40.666137],[-74.112475,40.666109],[-74.112511,40.666109],[-74.112511,40.666137]]],[[[-74.112439,40.666219],[-74.112403,40.666191],[-74.112439,40.666191],[-74.112439,40.666219]]],[[[-74.112402,40.666274],[-74.112366,40.666246],[-74.112402,40.666246],[-74.112402,40.666274]]],[[[-74.112366,40.666301],[-74.11233,40.666273],[-74.112366,40.666274],[-74.112366,40.666301]]],[[[-74.11233,40.666356],[-74.112294,40.666328],[-74.11233,40.666328],[-74.11233,40.666356]]],[[[-74.112294,40.666356],[-74.112257,40.666383],[-74.112258,40.666356],[-74.112294,40.666356]]],[[[-74.112257,40.666438],[-74.112221,40.66641],[-74.112257,40.66641],[-74.112257,40.666438]]],[[[-74.112221,40.666493],[-74.112185,40.666465],[-74.112221,40.666465],[-74.112221,40.666493]]],[[[-74.112185,40.66652],[-74.112149,40.666492],[-74.112185,40.666493],[-74.112185,40.66652]]],[[[-74.112148,40.666575],[-74.112112,40.666547],[-74.112148,40.666547],[-74.112148,40.666575]]],[[[-74.112112,40.666602],[-74.112076,40.666574],[-74.112112,40.666575],[-74.112112,40.666602]]],[[[-74.112076,40.666657],[-74.11204,40.666629],[-74.112076,40.666629],[-74.112076,40.666657]]],[[[-74.111967,40.666739],[-74.111931,40.666766],[-74.111931,40.666739],[-74.111967,40.666739]]],[[[-74.11193,40.666821],[-74.111895,40.666793],[-74.111931,40.666794],[-74.11193,40.666821]]],[[[-74.111858,40.666903],[-74.111822,40.666876],[-74.111858,40.666876],[-74.111858,40.666903]]],[[[-74.111821,40.666958],[-74.111786,40.66693],[-74.111822,40.66693],[-74.111821,40.666958]]],[[[-74.111785,40.666985],[-74.111749,40.666958],[-74.111785,40.666958],[-74.111785,40.666985]]],[[[-74.111749,40.667013],[-74.111713,40.66704],[-74.111713,40.667012],[-74.111749,40.667013]]],[[[-74.111676,40.667122],[-74.11164,40.667095],[-74.111676,40.667095],[-74.111676,40.667122]]],[[[-74.11164,40.667122],[-74.111604,40.667149],[-74.111604,40.667122],[-74.11164,40.667122]]],[[[-74.111604,40.667204],[-74.111568,40.667177],[-74.111604,40.667177],[-74.111604,40.667204]]],[[[-74.111568,40.667232],[-74.111532,40.667204],[-74.111568,40.667204],[-74.111568,40.667232]]],[[[-74.111531,40.667286],[-74.111495,40.667259],[-74.111531,40.667259],[-74.111531,40.667286]]],[[[-74.111495,40.667314],[-74.111459,40.667286],[-74.111495,40.667286],[-74.111495,40.667314]]],[[[-74.111132,40.667752],[-74.111096,40.667724],[-74.111132,40.667724],[-74.111132,40.667752]]],[[[-74.110951,40.667916],[-74.110987,40.667888],[-74.110987,40.667916],[-74.110951,40.667916]]],[[[-74.110914,40.667943],[-74.110951,40.667916],[-74.110951,40.667943],[-74.110914,40.667943]]],[[[-74.110914,40.667971],[-74.110878,40.667998],[-74.110878,40.66797],[-74.110914,40.667971]]],[[[-74.110842,40.668053],[-74.110806,40.66808],[-74.110806,40.668053],[-74.110842,40.668053]]],[[[-74.110697,40.668217],[-74.11066,40.668244],[-74.110661,40.668217],[-74.110697,40.668217]]],[[[-74.110624,40.668299],[-74.110588,40.668326],[-74.110588,40.668299],[-74.110624,40.668299]]],[[[-74.1107,40.667695],[-74.11077,40.668052],[-74.110769,40.66819],[-74.110624,40.668217],[-74.11066,40.668299],[-74.110588,40.668271],[-74.110552,40.668299],[-74.110551,40.668436],[-74.110007,40.669066],[-74.109935,40.669038],[-74.109899,40.669065],[-74.109898,40.669202],[-74.10979,40.669175],[-74.109825,40.669285],[-74.109753,40.669257],[-74.109716,40.669421],[-74.109535,40.669503],[-74.109535,40.66964],[-74.109211,40.669584],[-74.1107,40.667695]],[[-74.110769,40.668135],[-74.110733,40.668107],[-74.110733,40.668135],[-74.110769,40.668135]],[[-74.110551,40.668381],[-74.110516,40.668354],[-74.110515,40.668381],[-74.110551,40.668381]],[[-74.110479,40.668463],[-74.110443,40.668436],[-74.110443,40.668463],[-74.110479,40.668463]],[[-74.110406,40.668545],[-74.11037,40.668518],[-74.11037,40.668545],[-74.110406,40.668545]],[[-74.110152,40.668846],[-74.110116,40.668819],[-74.110116,40.668846],[-74.110152,40.668846]],[[-74.11008,40.668929],[-74.110044,40.668901],[-74.110044,40.668928],[-74.11008,40.668929]],[[-74.110007,40.669011],[-74.109971,40.668983],[-74.109971,40.66901],[-74.110007,40.669011]],[[-74.109898,40.669147],[-74.109862,40.66912],[-74.109862,40.669147],[-74.109898,40.669147]],[[-74.109717,40.669366],[-74.109681,40.669339],[-74.10968,40.669366],[-74.109717,40.669366]],[[-74.109644,40.669449],[-74.109608,40.669421],[-74.109608,40.669448],[-74.109644,40.669449]],[[-74.109535,40.669585],[-74.109499,40.669558],[-74.109499,40.669585],[-74.109535,40.669585]]],[[[-74.109971,40.669065],[-74.109934,40.669093],[-74.109935,40.669065],[-74.109971,40.669065]]],[[[-74.109789,40.669284],[-74.109753,40.669312],[-74.109753,40.669284],[-74.109789,40.669284]]],[[[-74.109572,40.669503],[-74.109607,40.669531],[-74.109571,40.669531],[-74.109572,40.669503]]],[[[-74.116046,40.697297],[-74.109032,40.693905],[-74.108494,40.693409],[-74.105796,40.692247],[-74.105906,40.691945],[-74.105439,40.691669],[-74.10616,40.691699],[-74.117428,40.695141],[-74.116046,40.697297]]],[[[-74.102788,40.694817],[-74.103114,40.694626],[-74.102935,40.694241],[-74.103839,40.693997],[-74.104819,40.692875],[-74.104675,40.692764],[-74.104715,40.692161],[-74.110687,40.694734],[-74.115973,40.697332],[-74.114232,40.700952],[-74.102852,40.695432],[-74.102438,40.694569],[-74.102788,40.694817]]],[[[-74.13856,40.648845],[-74.138345,40.648625],[-74.137804,40.648733],[-74.137193,40.648456],[-74.137302,40.648237],[-74.136619,40.647961],[-74.136477,40.647521],[-74.136153,40.647492],[-74.135896,40.648288],[-74.135644,40.648287],[-74.135684,40.647546],[-74.135287,40.6476],[-74.134923,40.64834],[-74.133913,40.648556],[-74.133621,40.649104],[-74.133405,40.649131],[-74.133336,40.648582],[-74.132651,40.648524],[-74.132433,40.64899],[-74.132073,40.64877],[-74.131314,40.649316],[-74.131209,40.648712],[-74.130633,40.648491],[-74.130996,40.648135],[-74.130889,40.647887],[-74.130598,40.648326],[-74.130274,40.64827],[-74.130098,40.647556],[-74.129846,40.647472],[-74.129639,40.645852],[-74.129423,40.645851],[-74.129312,40.646373],[-74.128665,40.646069],[-74.128087,40.646231],[-74.127512,40.645983],[-74.127005,40.64642],[-74.126966,40.646914],[-74.126497,40.64694],[-74.126568,40.647215],[-74.125775,40.647295],[-74.125809,40.647514],[-74.124331,40.647674],[-74.124041,40.647948],[-74.123826,40.647782],[-74.12368,40.648111],[-74.123968,40.648167],[-74.124178,40.649266],[-74.124428,40.649623],[-74.125219,40.649901],[-74.12529,40.650148],[-74.125001,40.650229],[-74.125216,40.650504],[-74.125757,40.650424],[-74.126329,40.651249],[-74.126979,40.651004],[-74.127014,40.651279],[-74.128059,40.651337],[-74.127986,40.651529],[-74.128705,40.651833],[-74.128775,40.652163],[-74.129531,40.652248],[-74.128989,40.65263],[-74.129745,40.652797],[-74.129998,40.652524],[-74.130287,40.652552],[-74.130572,40.65313],[-74.130717,40.65291],[-74.131618,40.652968],[-74.131693,40.652502],[-74.131441,40.652281],[-74.133784,40.652289],[-74.133858,40.651905],[-74.134111,40.651851],[-74.134216,40.652318],[-74.134937,40.652347],[-74.135229,40.651689],[-74.135087,40.65136],[-74.136174,40.650265],[-74.136426,40.650376],[-74.136243,40.650787],[-74.136459,40.650897],[-74.136855,40.651008],[-74.137108,40.65079],[-74.136534,40.650239],[-74.137541,40.650709],[-74.137251,40.650955],[-74.137214,40.651229],[-74.136816,40.651447],[-74.136598,40.651831],[-74.13649,40.651803],[-74.136525,40.651968],[-74.136416,40.652132],[-74.13562,40.652761],[-74.135763,40.652981],[-74.134894,40.653582],[-74.134499,40.653417],[-74.134898,40.652979],[-74.134611,40.652648],[-74.134287,40.652592],[-74.13396,40.653058],[-74.133422,40.65259],[-74.132233,40.652503],[-74.132016,40.652722],[-74.132913,40.653384],[-74.131829,40.65382],[-74.131434,40.653654],[-74.129234,40.653949],[-74.127613,40.653751],[-74.12599,40.653966],[-74.120612,40.655321],[-74.120934,40.655624],[-74.121259,40.655542],[-74.121331,40.65557],[-74.118684,40.658306],[-74.118466,40.65858],[-74.118538,40.658663],[-74.117775,40.659649],[-74.120025,40.657076],[-74.120133,40.657076],[-74.121654,40.655791],[-74.124219,40.654701],[-74.126997,40.654244],[-74.128726,40.654578],[-74.128979,40.65436],[-74.130528,40.654447],[-74.130922,40.654942],[-74.130092,40.655187],[-74.131132,40.656096],[-74.130735,40.656177],[-74.130628,40.65593],[-74.130483,40.656066],[-74.130878,40.656342],[-74.131204,40.656124],[-74.131528,40.656234],[-74.131237,40.6567],[-74.132136,40.657115],[-74.132636,40.657885],[-74.132204,40.657829],[-74.131986,40.658212],[-74.132633,40.658489],[-74.133027,40.658957],[-74.131946,40.658926],[-74.131188,40.659116],[-74.13133,40.659363],[-74.130682,40.659306],[-74.130649,40.658675],[-74.128672,40.65768],[-74.127988,40.657596],[-74.127738,40.657238],[-74.127521,40.657237],[-74.127591,40.657594],[-74.128741,40.658312],[-74.128199,40.658557],[-74.128522,40.658695],[-74.128485,40.65897],[-74.129133,40.659027],[-74.129275,40.659549],[-74.128626,40.659574],[-74.128447,40.659244],[-74.12683,40.65847],[-74.126071,40.658687],[-74.124307,40.658407],[-74.123801,40.658625],[-74.123262,40.658376],[-74.12272,40.658484],[-74.122794,40.658183],[-74.122038,40.657961],[-74.121603,40.658398],[-74.121889,40.658839],[-74.120989,40.658643],[-74.120555,40.658889],[-74.121274,40.659221],[-74.121164,40.659522],[-74.120659,40.659685],[-74.120732,40.659439],[-74.1203,40.65941],[-74.120943,40.6604],[-74.119935,40.660205],[-74.119857,40.661165],[-74.119389,40.661109],[-74.1191,40.661327],[-74.119134,40.661657],[-74.119673,40.661933],[-74.119635,40.66229],[-74.118912,40.662699],[-74.118696,40.662534],[-74.119239,40.662206],[-74.118843,40.66215],[-74.118517,40.662369],[-74.118086,40.662093],[-74.117939,40.662504],[-74.118407,40.662615],[-74.118154,40.662861],[-74.117289,40.662721],[-74.117147,40.662446],[-74.116712,40.662857],[-74.116817,40.663296],[-74.115878,40.663732],[-74.115912,40.664007],[-74.114975,40.663922],[-74.11505,40.663428],[-74.114834,40.663372],[-74.114144,40.664221],[-74.113821,40.66411],[-74.114,40.664303],[-74.113783,40.664467],[-74.113093,40.665315],[-74.113128,40.665425],[-74.113056,40.665397],[-74.112948,40.665479],[-74.11273,40.665726],[-74.112657,40.665863],[-74.112656,40.666],[-74.112548,40.666],[-74.112476,40.666054],[-74.111932,40.666629],[-74.111423,40.667286],[-74.111421,40.667561],[-74.111168,40.667724],[-74.110808,40.667668],[-74.113822,40.663945],[-74.113243,40.664273],[-74.113027,40.664217],[-74.113136,40.663998],[-74.112595,40.664051],[-74.112737,40.66449],[-74.112376,40.664517],[-74.112157,40.665038],[-74.111688,40.665146],[-74.111686,40.66553],[-74.110708,40.666323],[-74.110705,40.666789],[-74.110344,40.666871],[-74.110125,40.667391],[-74.108531,40.668621],[-74.108671,40.669363],[-74.108418,40.669444],[-74.108453,40.669664],[-74.108705,40.66972],[-74.108739,40.670049],[-74.10892,40.670023],[-74.109138,40.669694],[-74.109353,40.669859],[-74.108481,40.671092],[-74.108949,40.671121],[-74.108911,40.67145],[-74.109341,40.671891],[-74.110133,40.672113],[-74.11031,40.672772],[-74.110778,40.672829],[-74.110847,40.673351],[-74.110087,40.67387],[-74.109976,40.674254],[-74.109509,40.674115],[-74.109511,40.673758],[-74.10861,40.67359],[-74.107785,40.672901],[-74.107351,40.673119],[-74.107313,40.673394],[-74.106809,40.673392],[-74.107428,40.672378],[-74.107248,40.67224],[-74.106852,40.672184],[-74.106962,40.671883],[-74.107178,40.671856],[-74.106999,40.671663],[-74.10678,40.672211],[-74.107247,40.67246],[-74.104706,40.675389],[-74.104094,40.675222],[-74.104597,40.675525],[-74.103145,40.677085],[-74.103181,40.677195],[-74.102964,40.677304],[-74.102963,40.677441],[-74.102891,40.677414],[-74.102891,40.677441],[-74.102855,40.677441],[-74.102855,40.677468],[-74.102819,40.677468],[-74.102818,40.677523],[-74.102782,40.677523],[-74.102782,40.677578],[-74.102746,40.677578],[-74.102746,40.677633],[-74.10271,40.677633],[-74.102709,40.677688],[-74.102673,40.677687],[-74.102709,40.67777],[-74.102637,40.677742],[-74.102601,40.677769],[-74.102636,40.677852],[-74.102527,40.677989],[-74.102563,40.678099],[-74.102417,40.67829],[-74.102164,40.678427],[-74.102092,40.678399],[-74.102092,40.678427],[-74.10202,40.678426],[-74.101589,40.678178],[-74.102055,40.678619],[-74.101982,40.678728],[-74.101838,40.6787],[-74.101838,40.678728],[-74.101802,40.678727],[-74.10173,40.678672],[-74.101657,40.678754],[-74.101872,40.67903],[-74.101617,40.679413],[-74.10122,40.679494],[-74.101651,40.679743],[-74.101324,40.680236],[-74.101465,40.68073],[-74.100995,40.681003],[-74.101244,40.681471],[-74.100955,40.681579],[-74.101312,40.682267],[-74.100806,40.682348],[-74.101127,40.683035],[-74.100657,40.683225],[-74.100978,40.683803],[-74.100545,40.683856],[-74.101047,40.684407],[-74.100645,40.685202],[-74.100897,40.685367],[-74.100855,40.686328],[-74.100168,40.686555],[-74.098878,40.682698],[-74.099294,40.682095],[-74.099326,40.682644],[-74.099403,40.681849],[-74.099081,40.681463],[-74.099186,40.682067],[-74.098837,40.682588],[-74.09813,40.680694],[-74.065716,40.66704],[-74.066645,40.665962],[-74.067988,40.666536],[-74.068218,40.6663],[-74.070086,40.667095],[-74.069986,40.667403],[-74.07263,40.668179],[-74.072508,40.66853],[-74.073901,40.669306],[-74.074973,40.669442],[-74.075104,40.669668],[-74.079084,40.671365],[-74.079667,40.671059],[-74.085286,40.67346],[-74.085162,40.673745],[-74.086261,40.675158],[-74.087643,40.675775],[-74.088146,40.675869],[-74.089359,40.675481],[-74.090193,40.676042],[-74.090651,40.675707],[-74.091274,40.675841],[-74.092198,40.67531],[-74.091857,40.674951],[-74.094968,40.67594],[-74.095895,40.67545],[-74.096426,40.67466],[-74.095805,40.674256],[-74.094067,40.673952],[-74.091514,40.672507],[-74.089712,40.672309],[-74.081944,40.669638],[-74.08203,40.669515],[-74.076129,40.667217],[-74.071439,40.66503],[-74.071346,40.665162],[-74.068232,40.663839],[-74.069456,40.662148],[-74.069766,40.662205],[-74.070046,40.661835],[-74.069839,40.661628],[-74.070701,40.660867],[-74.070557,40.660662],[-74.076928,40.663539],[-74.088195,40.667481],[-74.097682,40.669075],[-74.100341,40.669348],[-74.100914,40.669186],[-74.10135,40.669416],[-74.10098,40.669294],[-74.100936,40.669499],[-74.102885,40.669552],[-74.103432,40.669858],[-74.104972,40.669953],[-74.105304,40.669732],[-74.105445,40.670091],[-74.106528,40.670382],[-74.10696,40.670167],[-74.107615,40.669147],[-74.105718,40.668902],[-74.104914,40.669089],[-74.103569,40.668697],[-74.102598,40.668545],[-74.102106,40.668721],[-74.101522,40.66851],[-74.100838,40.667833],[-74.099674,40.667277],[-74.098123,40.665584],[-74.097067,40.665098],[-74.097044,40.664808],[-74.097391,40.664564],[-74.097268,40.664261],[-74.096972,40.664525],[-74.096508,40.664427],[-74.096455,40.664814],[-74.096948,40.665046],[-74.096759,40.665192],[-74.095884,40.665121],[-74.09588,40.664125],[-74.094898,40.664074],[-74.094011,40.664769],[-74.093515,40.66479],[-74.092589,40.664366],[-74.09247,40.664629],[-74.091405,40.66466],[-74.091088,40.664441],[-74.090897,40.664732],[-74.091333,40.664908],[-74.089528,40.66491],[-74.089516,40.664094],[-74.090591,40.664097],[-74.090757,40.663909],[-74.09072,40.663302],[-74.091203,40.662621],[-74.090888,40.661512],[-74.091371,40.662562],[-74.09132,40.66206],[-74.090872,40.660418],[-74.089957,40.65894],[-74.089817,40.658173],[-74.089086,40.657625],[-74.088852,40.656329],[-74.088306,40.656226],[-74.088403,40.655691],[-74.08605,40.655497],[-74.087468,40.653667],[-74.09342,40.650165],[-74.094791,40.649641],[-74.097783,40.649233],[-74.099329,40.649285],[-74.101117,40.649779],[-74.101628,40.649646],[-74.102815,40.649804],[-74.102824,40.650365],[-74.10359,40.650617],[-74.103832,40.650613],[-74.104077,40.64996],[-74.105686,40.650119],[-74.105599,40.650711],[-74.105925,40.651034],[-74.106727,40.651069],[-74.107142,40.651329],[-74.107394,40.651342],[-74.107578,40.650265],[-74.108468,40.650301],[-74.108451,40.650708],[-74.111375,40.650989],[-74.112966,40.650925],[-74.114045,40.65189],[-74.114403,40.651657],[-74.114011,40.65088],[-74.115447,40.65274],[-74.115889,40.652871],[-74.1165,40.652589],[-74.115038,40.650386],[-74.116445,40.652148],[-74.116801,40.65191],[-74.11505,40.649541],[-74.115843,40.649215],[-74.116241,40.649535],[-74.117098,40.648832],[-74.118644,40.64842],[-74.119002,40.647539],[-74.120136,40.646109],[-74.12801,40.644844],[-74.130745,40.64512],[-74.131048,40.644945],[-74.132858,40.645202],[-74.133579,40.645044],[-74.135752,40.645173],[-74.136796,40.645649],[-74.137508,40.645309],[-74.140314,40.644818],[-74.140822,40.644545],[-74.141029,40.644273],[-74.141075,40.644263],[-74.141129,40.644269],[-74.13972,40.647586],[-74.138921,40.648791],[-74.13856,40.648845]],[[-74.137106,40.651256],[-74.13707,40.651229],[-74.13707,40.651256],[-74.137106,40.651256]],[[-74.13649,40.651858],[-74.136453,40.651885],[-74.136489,40.651886],[-74.13649,40.651858]],[[-74.136489,40.651968],[-74.136453,40.65194],[-74.136453,40.651968],[-74.136489,40.651968]],[[-74.136453,40.651968],[-74.136417,40.651995],[-74.136453,40.651995],[-74.136453,40.651968]],[[-74.13562,40.652789],[-74.135583,40.652816],[-74.135619,40.652816],[-74.13562,40.652789]],[[-74.120612,40.655321],[-74.120576,40.655266],[-74.120575,40.655321],[-74.120612,40.655321]],[[-74.118466,40.658635],[-74.11843,40.658662],[-74.118466,40.658663],[-74.118466,40.658635]],[[-74.11843,40.658662],[-74.118394,40.65869],[-74.11843,40.65869],[-74.11843,40.658662]],[[-74.119807,40.657377],[-74.119843,40.657404],[-74.119843,40.657377],[-74.119807,40.657377]],[[-74.119952,40.657185],[-74.119988,40.657213],[-74.119988,40.657185],[-74.119952,40.657185]],[[-74.11429,40.664002],[-74.114254,40.663974],[-74.114254,40.664001],[-74.11429,40.664002]],[[-74.114217,40.664084],[-74.114181,40.664056],[-74.114181,40.664084],[-74.114217,40.664084]],[[-74.114145,40.664166],[-74.114109,40.664138],[-74.114109,40.664166],[-74.114145,40.664166]],[[-74.11382,40.664137],[-74.113784,40.664192],[-74.11382,40.664192],[-74.11382,40.664137]],[[-74.113784,40.664247],[-74.113712,40.664219],[-74.113712,40.664247],[-74.113784,40.664247]],[[-74.112656,40.665945],[-74.112621,40.665918],[-74.11262,40.665945],[-74.112656,40.665945]],[[-74.111423,40.667341],[-74.111386,40.667368],[-74.111423,40.667368],[-74.111423,40.667341]],[[-74.111168,40.667669],[-74.111133,40.667642],[-74.111132,40.667669],[-74.111168,40.667669]],[[-74.110917,40.667586],[-74.110953,40.667559],[-74.110917,40.667559],[-74.110917,40.667586]],[[-74.11324,40.664822],[-74.113167,40.664876],[-74.113167,40.664931],[-74.11324,40.664822]],[[-74.113167,40.665013],[-74.113095,40.664958],[-74.113094,40.665013],[-74.113167,40.665013]],[[-74.113094,40.665013],[-74.113058,40.665041],[-74.113094,40.665041],[-74.113094,40.665013]],[[-74.113058,40.665041],[-74.113022,40.665095],[-74.113058,40.665095],[-74.113058,40.665041]],[[-74.113022,40.665095],[-74.112986,40.665123],[-74.113022,40.665123],[-74.113022,40.665095]],[[-74.112986,40.665123],[-74.112949,40.665177],[-74.112985,40.665178],[-74.112986,40.665123]],[[-74.112949,40.665177],[-74.112913,40.665205],[-74.112949,40.665205],[-74.112949,40.665177]],[[-74.11324,40.664822],[-74.113276,40.664794],[-74.11324,40.664794],[-74.11324,40.664822]],[[-74.113276,40.664739],[-74.113348,40.664767],[-74.113349,40.664712],[-74.113276,40.664739]],[[-74.113349,40.664712],[-74.113385,40.664657],[-74.113349,40.664657],[-74.113349,40.664712]],[[-74.113385,40.664657],[-74.113457,40.664575],[-74.113421,40.664575],[-74.113385,40.664657]],[[-74.113458,40.66452],[-74.11353,40.664521],[-74.113603,40.664411],[-74.113458,40.66452]],[[-74.108453,40.669664],[-74.108381,40.669691],[-74.108453,40.669692],[-74.108453,40.669664]],[[-74.106998,40.671883],[-74.107034,40.67191],[-74.107034,40.671883],[-74.106998,40.671883]],[[-74.107143,40.671773],[-74.107179,40.671746],[-74.107143,40.671746],[-74.107143,40.671773]],[[-74.106921,40.672706],[-74.106885,40.672678],[-74.106885,40.672706],[-74.106921,40.672706]],[[-74.106848,40.672788],[-74.106812,40.67276],[-74.106812,40.672788],[-74.106848,40.672788]],[[-74.10674,40.672897],[-74.106704,40.67287],[-74.106704,40.672897],[-74.10674,40.672897]],[[-74.106631,40.673034],[-74.106595,40.673007],[-74.106595,40.673034],[-74.106631,40.673034]],[[-74.102963,40.677386],[-74.102927,40.677359],[-74.102927,40.677386],[-74.102963,40.677386]],[[-74.1026,40.677852],[-74.102564,40.677824],[-74.102564,40.677852],[-74.1026,40.677852]],[[-74.101661,40.678178],[-74.101697,40.678151],[-74.101661,40.678151],[-74.101661,40.678178]],[[-74.10122,40.679494],[-74.101184,40.679467],[-74.101184,40.679494],[-74.10122,40.679494]],[[-74.10122,40.679467],[-74.101257,40.679412],[-74.101221,40.679412],[-74.10122,40.679467]],[[-74.100795,40.684324],[-74.100758,40.684351],[-74.100795,40.684351],[-74.100795,40.684324]],[[-74.09929,40.682644],[-74.099254,40.682699],[-74.09929,40.682699],[-74.09929,40.682644]],[[-74.138849,40.648736],[-74.138885,40.648709],[-74.138849,40.648709],[-74.138849,40.648736]]],[[[-74.108812,40.669995],[-74.108848,40.669967],[-74.108848,40.669995],[-74.108812,40.669995]]],[[[-74.103218,40.677085],[-74.103181,40.677113],[-74.103182,40.677085],[-74.103218,40.677085]]],[[[-74.103036,40.677304],[-74.103,40.677332],[-74.103,40.677304],[-74.103036,40.677304]]],[[[-74.102927,40.677469],[-74.102891,40.677441],[-74.102927,40.677441],[-74.102927,40.677469]]],[[[-74.102818,40.677606],[-74.102782,40.677578],[-74.102818,40.677578],[-74.102818,40.677606]]],[[[-74.102781,40.67766],[-74.102746,40.677633],[-74.102782,40.677633],[-74.102781,40.67766]]],[[[-74.102745,40.677688],[-74.102709,40.677715],[-74.102709,40.677688],[-74.102745,40.677688]]],[[[-74.102673,40.67777],[-74.102636,40.677797],[-74.102637,40.67777],[-74.102673,40.67777]]],[[[-74.102128,40.678454],[-74.102092,40.678427],[-74.102128,40.678427],[-74.102128,40.678454]]],[[[-74.101874,40.678755],[-74.101838,40.678728],[-74.101874,40.678728],[-74.101874,40.678755]]],[[[-74.101765,40.678755],[-74.101802,40.678727],[-74.101801,40.678755],[-74.101765,40.678755]]],[[[-74.101837,40.678783],[-74.101801,40.678755],[-74.101838,40.678755],[-74.101837,40.678783]]],[[[-74.100204,40.6866],[-74.100204,40.686625],[-74.100191,40.6866],[-74.100204,40.6866]]],[[[-74.100745,40.686684],[-74.100526,40.687123],[-74.100777,40.687234],[-74.100555,40.687315],[-74.100205,40.686628],[-74.100745,40.686684]]],[[[-74.101314,40.688004],[-74.10131,40.688635],[-74.100881,40.687955],[-74.101026,40.687838],[-74.101314,40.688004]],[[-74.101205,40.688004],[-74.101169,40.688031],[-74.101205,40.688031],[-74.101205,40.688004]]],[[[-74.103641,40.690812],[-74.103677,40.69084],[-74.103641,40.690839],[-74.103641,40.690812]]],[[[-74.104578,40.690843],[-74.104254,40.690842],[-74.104218,40.690787],[-74.104578,40.690843]]],[[[-74.103748,40.690977],[-74.103712,40.690949],[-74.103748,40.69095],[-74.103748,40.690977]]],[[[-74.103784,40.691005],[-74.10382,40.690977],[-74.10382,40.691005],[-74.103784,40.691005]]],[[[-74.103856,40.690977],[-74.103677,40.69084],[-74.104468,40.691227],[-74.10436,40.691281],[-74.10382,40.691032],[-74.103856,40.690977]],[[-74.103892,40.691032],[-74.103928,40.691005],[-74.103892,40.691005],[-74.103892,40.691032]]],[[[-74.102054,40.690889],[-74.101907,40.6913],[-74.101401,40.691463],[-74.102054,40.690889]]],[[[-74.103673,40.691443],[-74.103855,40.691224],[-74.10425,40.691473],[-74.104033,40.691664],[-74.103673,40.691443]]],[[[-74.1036,40.691608],[-74.103636,40.691635],[-74.1036,40.691635],[-74.1036,40.691608]]],[[[-74.103888,40.691719],[-74.104534,40.692297],[-74.104566,40.692901],[-74.103703,40.692542],[-74.10334,40.69287],[-74.102727,40.692895],[-74.102621,40.692565],[-74.103347,40.691689],[-74.103888,40.691719]],[[-74.102729,40.692621],[-74.102765,40.692593],[-74.102729,40.692593],[-74.102729,40.692621]],[[-74.102765,40.692593],[-74.102837,40.692566],[-74.102765,40.692566],[-74.102765,40.692593]],[[-74.102837,40.692566],[-74.102873,40.692539],[-74.102837,40.692539],[-74.102837,40.692566]],[[-74.103563,40.691772],[-74.103491,40.691772],[-74.103455,40.6918],[-74.103563,40.691772]]],[[[-74.101567,40.693248],[-74.101715,40.693276],[-74.101714,40.693472],[-74.101567,40.693248]]],[[[-74.10175,40.693496],[-74.10175,40.693526],[-74.101729,40.693496],[-74.10175,40.693496]]]]}}]}