{"type":"FeatureCollection","features":[{"type":"Feature","properties":{"level_ft":4},"geometry":{"type":"MultiPolygon","coordinates":[[[[-74.158263,40.644019],[-74.158263,40.644031],[-74.158248,40.644019],[-74.158263,40.644019]]],[[[-74.158282,40.644046],[-74.161391,40.644357],[-74.161356,40.645428],[-74.160077,40.645246],[-74.160206,40.644951],[-74.159668,40.644486],[-74.159018,40.644694],[-74.159247,40.644938],[-74.158912,40.644855],[-74.158282,40.644046]]],[[[-74.134575,40.646087],[-74.13173,40.645722],[-74.131551,40.645447],[-74.131984,40.645366],[-74.133315,40.645782],[-74.134325,40.645702],[-74.134575,40.646087]]],[[[-74.139867,40.647092],[-74.139003,40.64698],[-74.138933,40.646485],[-74.13951,40.64646],[-74.139976,40.646928],[-74.139867,40.647092]]],[[[-74.140012,40.646956],[-74.139976,40.646983],[-74.139976,40.646955],[-74.140012,40.646956]]],[[[-74.141843,40.648306],[-74.141266,40.648387],[-74.141482,40.648442],[-74.141408,40.648772],[-74.141085,40.648469],[-74.140796,40.648578],[-74.140867,40.648742],[-74.140471,40.648659],[-74.141053,40.647782],[-74.140837,40.647672],[-74.140439,40.647945],[-74.140586,40.647479],[-74.140118,40.64734],[-74.14052,40.646408],[-74.140372,40.647094],[-74.140911,40.647343],[-74.141309,40.647042],[-74.141774,40.647757],[-74.142062,40.647703],[-74.142132,40.648088],[-74.141881,40.648004],[-74.141843,40.648306]],[[-74.141049,40.648469],[-74.141013,40.648441],[-74.141013,40.648468],[-74.141049,40.648469]],[[-74.140724,40.648687],[-74.14076,40.648632],[-74.140724,40.648632],[-74.140724,40.648687]],[[-74.141881,40.648004],[-74.141845,40.647977],[-74.141844,40.648004],[-74.141881,40.648004]]],[[[-74.141013,40.648523],[-74.140977,40.648551],[-74.140977,40.648523],[-74.141013,40.648523]]],[[[-74.140977,40.648551],[-74.14094,40.648578],[-74.140941,40.648551],[-74.140977,40.648551]]],[[[-74.118328,40.651168],[-74.118075,40.651414],[-74.11703,40.651411],[-74.116964,40.650313],[-74.116958,40.651301],[-74.116597,40.651437],[-74.117097,40.652207],[-74.117094,40.652701],[-74.116913,40.65292],[-74.116517,40.652782],[-74.115868,40.652917],[-74.115577,40.653273],[-74.114607,40.65283],[-74.114107,40.652005],[-74.113604,40.651729],[-74.112959,40.650986],[-74.111734,40.650899],[-74.111445,40.651008],[-74.111337,40.650979],[-74.111706,40.650863],[-74.113015,40.65094],[-74.114045,40.65189],[-74.114403,40.651657],[-74.114029,40.650885],[-74.115447,40.65274],[-74.115889,40.652871],[-74.1165,40.652589],[-74.115038,40.650386],[-74.116445,40.652148],[-74.116801,40.65191],[-74.11505,40.649541],[-74.115843,40.649215],[-74.116241,40.649535],[-74.117098,40.648832],[-74.118644,40.64842],[-74.119002,40.647539],[-74.119786,40.646385],[-74.120136,40.646109],[-74.120519,40.645997],[-74.121586,40.645813],[-74.125303,40.645306],[-74.125629,40.64509],[-74.126098,40.64519],[-74.12801,40.644844],[-74.13017,40.644928],[-74.130745,40.64512],[-74.131048,40.644945],[-74.132858,40.645202],[-74.133579,40.645044],[-74.135752,40.645173],[-74.136796,40.645649],[-74.137508,40.645309],[-74.140314,40.644818],[-74.141108,40.644269],[-74.140708,40.644926],[-74.139229,40.645114],[-74.138975,40.645497],[-74.138508,40.645249],[-74.136847,40.64571],[-74.136164,40.645516],[-74.135874,40.645817],[-74.134614,40.645539],[-74.134616,40.645237],[-74.133751,40.645124],[-74.132813,40.645258],[-74.131229,40.645006],[-74.130652,40.645169],[-74.127842,40.644913],[-74.124812,40.645397],[-74.124739,40.645589],[-74.123405,40.645612],[-74.12344,40.645914],[-74.123187,40.645969],[-74.122467,40.645829],[-74.120484,40.646042],[-74.119906,40.646342],[-74.118705,40.648287],[-74.119533,40.648427],[-74.119604,40.648619],[-74.119098,40.64892],[-74.118811,40.648699],[-74.118845,40.649139],[-74.119168,40.649222],[-74.118843,40.649468],[-74.118328,40.651168]],[[-74.118439,40.650647],[-74.118404,40.650619],[-74.118403,40.650647],[-74.118439,40.650647]]],[[[-74.110941,40.650886],[-74.110797,40.650896],[-74.110797,40.650873],[-74.110941,40.650886]]],[[[-74.111085,40.650952],[-74.111049,40.650907],[-74.11123,40.650952],[-74.111085,40.650952]]],[[[-74.110062,40.653364],[-74.109635,40.652429],[-74.110032,40.652266],[-74.110247,40.652514],[-74.110428,40.652432],[-74.11039,40.652734],[-74.110678,40.652762],[-74.110964,40.65323],[-74.110388,40.653173],[-74.110062,40.653364]]],[[[-74.100553,40.65841],[-74.100589,40.658383],[-74.100589,40.65841],[-74.100553,40.65841]]],[[[-74.100589,40.65841],[-74.100625,40.658438],[-74.100589,40.658437],[-74.100589,40.65841]]],[[[-74.100768,40.658575],[-74.100804,40.658603],[-74.100768,40.658603],[-74.100768,40.658575]]],[[[-74.100479,40.658684],[-74.100443,40.658657],[-74.100479,40.658657],[-74.100479,40.658684]]],[[[-74.100479,40.658712],[-74.100515,40.658684],[-74.100515,40.658712],[-74.100479,40.658712]]],[[[-74.100551,40.658767],[-74.100587,40.658739],[-74.100587,40.658767],[-74.100551,40.658767]]],[[[-74.103028,40.66034],[-74.103241,40.660917],[-74.102667,40.660558],[-74.102053,40.660721],[-74.101983,40.660364],[-74.101265,40.659895],[-74.099201,40.661452],[-74.098841,40.661314],[-74.099457,40.660739],[-74.099569,40.660108],[-74.100292,40.659781],[-74.0999,40.659066],[-74.100909,40.659125],[-74.100444,40.658547],[-74.100049,40.658326],[-74.100049,40.658189],[-74.099439,40.65783],[-74.099834,40.658023],[-74.100087,40.657969],[-74.100445,40.658382],[-74.100768,40.65852],[-74.100768,40.658575],[-74.100732,40.658575],[-74.100768,40.65863],[-74.102168,40.659486],[-74.103028,40.66034]],[[-74.100909,40.659125],[-74.100945,40.659152],[-74.100945,40.659125],[-74.100909,40.659125]],[[-74.099978,40.658024],[-74.099942,40.658051],[-74.099978,40.658051],[-74.099978,40.658024]],[[-74.102811,40.660504],[-74.102704,40.660311],[-74.102596,40.660311],[-74.102811,40.660504]]],[[[-74.109356,40.663134],[-74.109946,40.660858],[-74.110417,40.660502],[-74.110885,40.660641],[-74.111318,40.660478],[-74.110295,40.662835],[-74.109356,40.663134]]],[[[-74.129639,40.665315],[-74.129282,40.664819],[-74.130293,40.664411],[-74.130405,40.663835],[-74.13109,40.6637],[-74.131666,40.663839],[-74.131806,40.664608],[-74.131156,40.664853],[-74.131008,40.665484],[-74.130395,40.665591],[-74.129639,40.665315]]],[[[-74.107452,40.668151],[-74.103863,40.665503],[-74.105926,40.664138],[-74.106178,40.664139],[-74.106105,40.664358],[-74.106863,40.664196],[-74.106788,40.664635],[-74.108189,40.665463],[-74.108474,40.666096],[-74.108467,40.667303],[-74.108138,40.668016],[-74.107885,40.66807],[-74.107815,40.66774],[-74.107382,40.667821],[-74.107452,40.668151]]],[[[-74.143335,40.645511],[-74.142544,40.645289],[-74.142331,40.644547],[-74.142152,40.644492],[-74.141969,40.644875],[-74.141683,40.644545],[-74.141286,40.644544],[-74.141323,40.644352],[-74.141982,40.64453],[-74.14188,40.644033],[-74.14375,40.643792],[-74.163014,40.645898],[-74.15809,40.649737],[-74.14726,40.655124],[-74.142721,40.658943],[-74.140573,40.661318],[-74.132507,40.672932],[-74.125251,40.68406],[-74.120322,40.69066],[-74.117554,40.694949],[-74.110301,40.692756],[-74.111287,40.690756],[-74.112694,40.690541],[-74.113095,40.689856],[-74.112917,40.689416],[-74.112485,40.689305],[-74.111912,40.688726],[-74.111402,40.689548],[-74.110501,40.68938],[-74.109747,40.688911],[-74.110001,40.688555],[-74.109824,40.687978],[-74.110841,40.686746],[-74.11142,40.686501],[-74.112,40.685844],[-74.112793,40.685929],[-74.112868,40.685518],[-74.113516,40.685602],[-74.115877,40.682728],[-74.11631,40.682592],[-74.116054,40.683195],[-74.116561,40.682813],[-74.116565,40.682264],[-74.116063,40.68174],[-74.115773,40.681877],[-74.115235,40.681518],[-74.115021,40.681051],[-74.115381,40.681134],[-74.115166,40.680886],[-74.11669,40.67919],[-74.116906,40.679245],[-74.116549,40.678695],[-74.116913,40.678037],[-74.119414,40.67585],[-74.121257,40.675005],[-74.121768,40.673881],[-74.122854,40.673089],[-74.123656,40.671636],[-74.124594,40.671529],[-74.125097,40.671806],[-74.125566,40.67178],[-74.12593,40.671122],[-74.126363,40.670986],[-74.126402,40.670437],[-74.126006,40.670326],[-74.125864,40.669996],[-74.126656,40.670246],[-74.127308,40.669727],[-74.127344,40.669589],[-74.12702,40.669643],[-74.127094,40.669259],[-74.127419,40.669205],[-74.127313,40.668793],[-74.127713,40.668081],[-74.127248,40.667558],[-74.128008,40.667011],[-74.127577,40.66668],[-74.127473,40.665994],[-74.128127,40.66509],[-74.128775,40.665092],[-74.129464,40.664436],[-74.128955,40.66512],[-74.130681,40.666004],[-74.13097,40.66595],[-74.132566,40.664034],[-74.132318,40.663374],[-74.133075,40.663349],[-74.132898,40.662662],[-74.13182,40.662055],[-74.132478,40.66041],[-74.13291,40.660466],[-74.133164,40.660138],[-74.132951,40.659698],[-74.133277,40.659315],[-74.135451,40.657208],[-74.13592,40.657182],[-74.136819,40.657651],[-74.13856,40.655598],[-74.139496,40.655793],[-74.140258,40.654807],[-74.140224,40.654395],[-74.139649,40.654119],[-74.139974,40.654065],[-74.140231,40.653242],[-74.142078,40.651464],[-74.141937,40.650969],[-74.142805,40.650423],[-74.143812,40.650783],[-74.144102,40.650537],[-74.143276,40.649848],[-74.143422,40.649546],[-74.144069,40.649796],[-74.144,40.649356],[-74.144288,40.649275],[-74.145198,40.647603],[-74.14426,40.647847],[-74.143721,40.647598],[-74.143364,40.646993],[-74.143581,40.646802],[-74.142898,40.646525],[-74.142537,40.646634],[-74.143335,40.645511]],[[-74.142152,40.644492],[-74.142116,40.644437],[-74.142116,40.644492],[-74.142152,40.644492]],[[-74.111912,40.688726],[-74.111948,40.688699],[-74.111912,40.688699],[-74.111912,40.688726]],[[-74.111948,40.688699],[-74.111984,40.688672],[-74.111948,40.688672],[-74.111948,40.688699]],[[-74.112938,40.685902],[-74.113009,40.685985],[-74.112974,40.685903],[-74.112938,40.685902]],[[-74.113009,40.685985],[-74.113045,40.686013],[-74.113045,40.685985],[-74.113009,40.685985]],[[-74.113045,40.68604],[-74.113513,40.686234],[-74.113875,40.686015],[-74.113551,40.68585],[-74.113045,40.68604]],[[-74.113875,40.686015],[-74.113911,40.685961],[-74.113875,40.68596],[-74.113875,40.686015]],[[-74.113623,40.68585],[-74.113695,40.685823],[-74.113623,40.685822],[-74.113623,40.68585]],[[-74.131964,40.662055],[-74.132,40.662083],[-74.132,40.662055],[-74.131964,40.662055]],[[-74.143336,40.645456],[-74.143372,40.645429],[-74.143336,40.645429],[-74.143336,40.645456]]],[[[-74.114005,40.682118],[-74.114513,40.681625],[-74.115162,40.6816],[-74.115522,40.681794],[-74.11559,40.682343],[-74.115157,40.682424],[-74.114762,40.682175],[-74.114075,40.682585],[-74.114005,40.682118]]],[[[-74.109834,40.69248],[-74.108467,40.691899],[-74.10807,40.692007],[-74.108434,40.691432],[-74.109121,40.691105],[-74.109518,40.691107],[-74.10948,40.691353],[-74.109696,40.691354],[-74.109807,40.690998],[-74.110167,40.691081],[-74.110309,40.691521],[-74.1098,40.692123],[-74.109834,40.69248]]],[[[-74.109214,40.693603],[-74.107487,40.692966],[-74.107382,40.692499],[-74.108104,40.69231],[-74.109652,40.692781],[-74.109214,40.693603]]],[[[-74.106139,40.69535],[-74.107337,40.693926],[-74.106835,40.693513],[-74.10698,40.693321],[-74.108815,40.694151],[-74.108343,40.694616],[-74.107152,40.694777],[-74.106139,40.69535]]],[[[-74.116046,40.697297],[-74.109717,40.694044],[-74.11012,40.692975],[-74.117428,40.695141],[-74.116046,40.697297]]],[[[-74.107819,40.697842],[-74.108291,40.697279],[-74.107721,40.696096],[-74.109282,40.694372],[-74.110615,40.694706],[-74.116009,40.697359],[-74.114232,40.700952],[-74.107819,40.697842]]],[[[-74.110725,40.650868],[-74.108311,40.650723],[-74.108349,40.650394],[-74.10752,40.650446],[-74.107367,40.651982],[-74.10697,40.652008],[-74.107083,40.65124],[-74.105859,40.651071],[-74.105536,40.650768],[-74.105612,40.650165],[-74.105252,40.650109],[-74.104099,40.649995],[-74.104024,40.650406],[-74.103843,40.650653],[-74.103518,40.650707],[-74.102835,40.650457],[-74.102797,40.650677],[-74.102473,40.650675],[-74.101972,40.650097],[-74.102046,40.649741],[-74.101686,40.649712],[-74.101504,40.649931],[-74.09992,40.649651],[-74.099309,40.649319],[-74.09812,40.649398],[-74.097866,40.649589],[-74.097616,40.649286],[-74.094802,40.649688],[-74.093466,40.650177],[-74.093284,40.650424],[-74.092018,40.651106],[-74.091692,40.651489],[-74.092301,40.652122],[-74.092806,40.651932],[-74.0932,40.652455],[-74.09309,40.652756],[-74.093735,40.65339],[-74.093625,40.653637],[-74.0933,40.653691],[-74.092834,40.653359],[-74.092189,40.652643],[-74.092156,40.652177],[-74.091833,40.651983],[-74.091651,40.652175],[-74.091259,40.651515],[-74.089377,40.652743],[-74.087678,40.653561],[-74.087244,40.653889],[-74.087314,40.654108],[-74.087205,40.654355],[-74.086916,40.654382],[-74.086696,40.654985],[-74.086154,40.655285],[-74.086153,40.655477],[-74.088423,40.655622],[-74.08842,40.656034],[-74.089284,40.656147],[-74.0891,40.656778],[-74.089642,40.65656],[-74.089563,40.657767],[-74.089887,40.657851],[-74.090166,40.659284],[-74.089771,40.658087],[-74.089313,40.657973],[-74.089086,40.657625],[-74.088852,40.656329],[-74.088306,40.656226],[-74.088403,40.655691],[-74.08605,40.655497],[-74.086104,40.655274],[-74.086674,40.654898],[-74.086873,40.654355],[-74.087176,40.654299],[-74.087248,40.653819],[-74.087468,40.653667],[-74.093393,40.650179],[-74.094791,40.649641],[-74.09714,40.649264],[-74.099273,40.649276],[-74.100303,40.649662],[-74.101539,40.649792],[-74.101628,40.649646],[-74.102815,40.649804],[-74.102824,40.650365],[-74.103617,40.650619],[-74.103832,40.650613],[-74.104077,40.64996],[-74.105686,40.650119],[-74.105599,40.650711],[-74.105925,40.651034],[-74.106727,40.651069],[-74.107151,40.651208],[-74.107142,40.651329],[-74.107394,40.651342],[-74.107493,40.650528],[-74.107578,40.650265],[-74.108468,40.650301],[-74.108416,40.650702],[-74.110725,40.650868]],[[-74.102835,40.650457],[-74.102799,40.65043],[-74.102799,40.650457],[-74.102835,40.650457]],[[-74.091295,40.651515],[-74.091295,40.651515],[-74.091259,40.651515],[-74.091295,40.651515]],[[-74.091404,40.651433],[-74.091476,40.651433],[-74.091404,40.651433],[-74.091404,40.651433]]],[[[-74.099223,40.657692],[-74.099259,40.657719],[-74.099223,40.657719],[-74.099223,40.657692]]],[[[-74.099259,40.657719],[-74.099295,40.657747],[-74.099259,40.657747],[-74.099259,40.657719]]],[[[-74.099259,40.657774],[-74.099223,40.657746],[-74.099259,40.657747],[-74.099259,40.657774]]],[[[-74.099367,40.657747],[-74.099403,40.657802],[-74.099295,40.657747],[-74.099367,40.657747]]],[[[-74.099295,40.657774],[-74.099259,40.657801],[-74.099259,40.657774],[-74.099295,40.657774]]],[[[-74.099403,40.657802],[-74.099439,40.65783],[-74.099403,40.657829],[-74.099403,40.657802]]],[[[-74.099295,40.657829],[-74.099331,40.657802],[-74.099331,40.657829],[-74.099295,40.657829]]],[[[-74.099907,40.657886],[-74.099943,40.657859],[-74.099943,40.657886],[-74.099907,40.657886]]],[[[-74.099402,40.657884],[-74.099439,40.657857],[-74.099438,40.657884],[-74.099402,40.657884]]],[[[-74.099943,40.657886],[-74.099979,40.657914],[-74.099943,40.657914],[-74.099943,40.657886]]],[[[-74.099474,40.657912],[-74.099438,40.657884],[-74.099474,40.657885],[-74.099474,40.657912]]],[[[-74.099799,40.657913],[-74.099835,40.657941],[-74.099799,40.657941],[-74.099799,40.657913]]],[[[-74.099474,40.657939],[-74.09951,40.657912],[-74.09951,40.65794],[-74.099474,40.657939]]],[[[-74.099979,40.657969],[-74.100015,40.657914],[-74.100015,40.657969],[-74.099979,40.657969]]],[[[-74.100087,40.657942],[-74.100123,40.657969],[-74.100087,40.657969],[-74.100087,40.657942]]],[[[-74.099834,40.657968],[-74.099871,40.657941],[-74.09987,40.657968],[-74.099834,40.657968]]],[[[-74.099582,40.657995],[-74.099618,40.657967],[-74.099618,40.657995],[-74.099582,40.657995]]],[[[-74.099618,40.658022],[-74.099654,40.657995],[-74.099654,40.658022],[-74.099618,40.658022]]],[[[-74.09969,40.65805],[-74.099654,40.658022],[-74.09969,40.658023],[-74.09969,40.65805]]],[[[-74.100266,40.658134],[-74.100302,40.658107],[-74.100302,40.658135],[-74.100266,40.658134]]],[[[-74.100338,40.65819],[-74.100374,40.658217],[-74.100338,40.658217],[-74.100338,40.65819]]],[[[-74.100012,40.658353],[-74.100049,40.658326],[-74.100048,40.658353],[-74.100012,40.658353]]],[[[-74.100407,40.658656],[-74.100443,40.658629],[-74.100443,40.658657],[-74.100407,40.658656]]],[[[-74.090202,40.659307],[-74.090202,40.65933],[-74.090184,40.659307],[-74.090202,40.659307]]],[[[-74.090345,40.6595],[-74.090345,40.659512],[-74.090336,40.6595],[-74.090345,40.6595]]],[[[-74.091357,40.664895],[-74.089528,40.66491],[-74.089516,40.664094],[-74.090591,40.664097],[-74.090757,40.663909],[-74.09072,40.663302],[-74.091203,40.662621],[-74.090888,40.661512],[-74.091374,40.662554],[-74.090927,40.660593],[-74.090357,40.659527],[-74.090417,40.659527],[-74.091023,40.660682],[-74.091411,40.662029],[-74.091406,40.66288],[-74.090677,40.664112],[-74.08956,40.664163],[-74.089555,40.66485],[-74.090745,40.664854],[-74.090711,40.664524],[-74.091073,40.664196],[-74.091577,40.664418],[-74.092515,40.664284],[-74.093955,40.664536],[-74.094282,40.664208],[-74.094067,40.663905],[-74.094249,40.663631],[-74.095835,40.663664],[-74.096769,40.664244],[-74.09731,40.664163],[-74.097709,40.663698],[-74.097452,40.664548],[-74.097053,40.664986],[-74.098275,40.665567],[-74.099994,40.667439],[-74.101217,40.667992],[-74.102121,40.667446],[-74.10136,40.668185],[-74.106979,40.668973],[-74.107555,40.669085],[-74.107627,40.669112],[-74.107627,40.669167],[-74.105718,40.668902],[-74.104914,40.669089],[-74.103569,40.668697],[-74.102598,40.668545],[-74.102106,40.668721],[-74.101522,40.66851],[-74.100838,40.667833],[-74.100049,40.667525],[-74.099674,40.667277],[-74.098123,40.665584],[-74.097067,40.665098],[-74.097032,40.664946],[-74.097044,40.664808],[-74.097391,40.664564],[-74.097268,40.664261],[-74.096972,40.664525],[-74.096508,40.664427],[-74.096455,40.664814],[-74.096948,40.665046],[-74.096759,40.665192],[-74.095884,40.665121],[-74.095827,40.664112],[-74.094738,40.664089],[-74.094011,40.664769],[-74.093515,40.66479],[-74.092589,40.664366],[-74.09247,40.664629],[-74.091405,40.66466],[-74.091088,40.664441],[-74.090897,40.664732],[-74.091357,40.664895]]],[[[-74.088205,40.667484],[-74.09798,40.669115],[-74.100341,40.669348],[-74.100914,40.669186],[-74.10135,40.669416],[-74.10098,40.669294],[-74.100936,40.669499],[-74.102885,40.669552],[-74.103432,40.669858],[-74.104972,40.669953],[-74.105304,40.669732],[-74.105445,40.670091],[-74.106464,40.670385],[-74.10696,40.670167],[-74.107526,40.669226],[-74.10759,40.669249],[-74.107115,40.670291],[-74.106319,40.67092],[-74.106104,40.670699],[-74.10477,40.67064],[-74.10416,40.670061],[-74.103042,40.670167],[-74.101277,40.669969],[-74.101099,40.669639],[-74.100234,40.669471],[-74.089429,40.667814],[-74.088671,40.667921],[-74.088205,40.667484]]],[[[-74.09685,40.67473],[-74.097687,40.67336],[-74.097868,40.673334],[-74.09801,40.673718],[-74.097246,40.674841],[-74.09685,40.67473]]],[[[-74.068232,40.663839],[-74.069456,40.662148],[-74.069766,40.662205],[-74.070046,40.661835],[-74.069839,40.661635],[-74.070019,40.661403],[-74.070701,40.660867],[-74.070588,40.660656],[-74.076928,40.663539],[-74.08546,40.666402],[-74.086832,40.667063],[-74.084968,40.666343],[-74.084499,40.666424],[-74.083996,40.666092],[-74.083203,40.666035],[-74.08281,40.665594],[-74.076766,40.663623],[-74.070583,40.660965],[-74.070219,40.661513],[-74.06993,40.661566],[-74.070072,40.661814],[-74.072877,40.662977],[-74.073414,40.663501],[-74.072981,40.663609],[-74.069673,40.662252],[-74.068509,40.663812],[-74.068329,40.663839],[-74.071346,40.665162],[-74.068232,40.663839]]],[[[-74.086874,40.667079],[-74.088133,40.667562],[-74.087484,40.667505],[-74.086874,40.667079]]],[[[-74.066742,40.665956],[-74.067988,40.666536],[-74.068218,40.6663],[-74.070086,40.667095],[-74.069935,40.667367],[-74.070813,40.667654],[-74.070876,40.667749],[-74.071519,40.667951],[-74.071696,40.667775],[-74.07263,40.668179],[-74.072461,40.668433],[-74.072508,40.66853],[-74.072638,40.668518],[-74.072799,40.668687],[-74.072373,40.668466],[-74.072483,40.668164],[-74.071764,40.667859],[-74.071402,40.66805],[-74.069892,40.667441],[-74.070002,40.667112],[-74.068241,40.666364],[-74.068059,40.666583],[-74.067915,40.666582],[-74.066585,40.666028],[-74.065716,40.66704],[-74.06649,40.666067],[-74.066742,40.665956]]],[[[-74.088169,40.66748],[-74.088169,40.667469],[-74.088193,40.66748],[-74.088169,40.66748]]],[[[-74.074728,40.669511],[-74.07471,40.669517],[-74.07471,40.669505],[-74.074728,40.669511]]],[[[-74.07509,40.669656],[-74.075069,40.669628],[-74.074782,40.669524],[-74.075,40.669453],[-74.07509,40.669656]]],[[[-74.075141,40.669684],[-74.075141,40.669684],[-74.075141,40.669684],[-74.075141,40.669684]]],[[[-74.075177,40.669711],[-74.075177,40.669699],[-74.075208,40.669711],[-74.075177,40.669711]]],[[[-74.075249,40.669739],[-74.075249,40.669729],[-74.075274,40.669739],[-74.075249,40.669739]]],[[[-74.075285,40.669767],[-74.075285,40.669744],[-74.075341,40.669767],[-74.075285,40.669767]]],[[[-74.075357,40.669794],[-74.075357,40.669774],[-74.075407,40.669794],[-74.075357,40.669794]]],[[[-74.075473,40.669822],[-74.075429,40.669822],[-74.075429,40.669804],[-74.075473,40.669822]]],[[[-74.075501,40.669834],[-74.07554,40.66985],[-74.075501,40.66985],[-74.075501,40.669834]]],[[[-74.075573,40.669864],[-74.075606,40.669878],[-74.075573,40.669877],[-74.075573,40.669864]]],[[[-74.075673,40.669905],[-74.075645,40.669905],[-74.075645,40.669894],[-74.075673,40.669905]]],[[[-74.075716,40.669933],[-74.075716,40.669924],[-74.075739,40.669933],[-74.075716,40.669933]]],[[[-74.075788,40.669961],[-74.075788,40.669954],[-74.075805,40.669961],[-74.075788,40.669961]]],[[[-74.075872,40.669988],[-74.07586,40.669988],[-74.07586,40.669984],[-74.075872,40.669988]]],[[[-74.075938,40.670016],[-74.075896,40.670016],[-74.075896,40.669998],[-74.075938,40.670016]]],[[[-74.076005,40.670044],[-74.075968,40.670044],[-74.075968,40.670028],[-74.076005,40.670044]]],[[[-74.07604,40.670071],[-74.07604,40.670058],[-74.076071,40.670071],[-74.07604,40.670071]]],[[[-74.076112,40.670088],[-74.076137,40.670099],[-74.076112,40.670099],[-74.076112,40.670088]]],[[[-74.076184,40.670127],[-74.076184,40.670118],[-74.076204,40.670127],[-74.076184,40.670127]]],[[[-74.07622,40.670154],[-74.07622,40.670133],[-74.07627,40.670154],[-74.07622,40.670154]]],[[[-74.076292,40.670182],[-74.076292,40.670163],[-74.076337,40.670182],[-74.076292,40.670182]]],[[[-74.076403,40.67021],[-74.076364,40.67021],[-74.076364,40.670193],[-74.076403,40.67021]]],[[[-74.076436,40.670223],[-74.07647,40.670238],[-74.076436,40.670237],[-74.076436,40.670223]]],[[[-74.085286,40.67346],[-74.085162,40.673745],[-74.085637,40.674122],[-74.086299,40.675191],[-74.088081,40.675871],[-74.088828,40.675529],[-74.089359,40.675481],[-74.090053,40.675842],[-74.090193,40.676042],[-74.090651,40.675707],[-74.091283,40.675839],[-74.092198,40.67531],[-74.091857,40.674951],[-74.094923,40.675947],[-74.095895,40.67545],[-74.096426,40.67466],[-74.095653,40.674204],[-74.094067,40.673952],[-74.091514,40.672507],[-74.089712,40.672309],[-74.081944,40.669638],[-74.08203,40.669515],[-74.080417,40.668985],[-74.076379,40.667187],[-74.076129,40.667217],[-74.074349,40.66642],[-74.074261,40.666252],[-74.072321,40.665391],[-74.079618,40.668602],[-74.082065,40.669434],[-74.082027,40.669626],[-74.089691,40.672207],[-74.090124,40.672071],[-74.090844,40.672293],[-74.092286,40.672271],[-74.092613,40.671915],[-74.093729,40.672111],[-74.094556,40.672444],[-74.09466,40.673158],[-74.095451,40.6736],[-74.096603,40.673796],[-74.096203,40.674453],[-74.096526,40.674564],[-74.096452,40.674893],[-74.097101,40.674923],[-74.097135,40.675225],[-74.096737,40.675581],[-74.096016,40.675441],[-74.095184,40.675932],[-74.094165,40.677521],[-74.094787,40.676013],[-74.092772,40.675292],[-74.092448,40.675291],[-74.091505,40.676166],[-74.091145,40.676082],[-74.091072,40.676247],[-74.090533,40.67597],[-74.090099,40.676079],[-74.089273,40.675582],[-74.087865,40.675934],[-74.086175,40.675186],[-74.085569,40.674141],[-74.085102,40.67381],[-74.085176,40.673453],[-74.079611,40.6711],[-74.085286,40.67346]]]]}}]}