{"type":"FeatureCollection","features":[{"type":"Feature","properties":{"level_ft":11},"geometry":{"type":"MultiPolygon","coordinates":[[[[-74.158263,40.644019],[-74.158263,40.644031],[-74.158248,40.644019],[-74.158263,40.644019]]],[[[-74.158282,40.644046],[-74.161391,40.644357],[-74.161356,40.645428],[-74.160077,40.645246],[-74.160206,40.644951],[-74.159668,40.644486],[-74.159018,40.644694],[-74.159247,40.644938],[-74.158912,40.644855],[-74.158282,40.644046]]],[[[-74.140743,40.645146],[-74.140779,40.645119],[-74.140779,40.645146],[-74.140743,40.645146]]],[[[-74.139321,40.648216],[-74.139285,40.648189],[-74.139321,40.648189],[-74.139321,40.648216]]],[[[-74.139562,40.650221],[-74.139526,40.650193],[-74.139562,40.650193],[-74.139562,40.650221]]],[[[-74.139526,40.650221],[-74.13949,40.650248],[-74.13949,40.650221],[-74.139526,40.650221]]],[[[-74.13949,40.650275],[-74.139453,40.650303],[-74.139454,40.650275],[-74.13949,40.650275]]],[[[-74.139453,40.65033],[-74.139417,40.650303],[-74.139453,40.650303],[-74.139453,40.65033]]],[[[-74.139381,40.650357],[-74.139417,40.650385],[-74.139381,40.650385],[-74.139381,40.650357]]],[[[-74.139381,40.650412],[-74.139345,40.65044],[-74.139345,40.650412],[-74.139381,40.650412]]],[[[-74.137925,40.65307],[-74.137961,40.653043],[-74.137961,40.653071],[-74.137925,40.65307]]],[[[-74.125809,40.653993],[-74.126495,40.653748],[-74.126928,40.653804],[-74.126855,40.653914],[-74.125809,40.653993]]],[[[-74.124403,40.654043],[-74.124799,40.654209],[-74.12433,40.654235],[-74.124403,40.654043]]],[[[-74.126236,40.65501],[-74.126341,40.655641],[-74.125729,40.655475],[-74.125402,40.655995],[-74.125005,40.655994],[-74.124899,40.655554],[-74.124288,40.655388],[-74.124147,40.654783],[-74.125262,40.655199],[-74.125193,40.654649],[-74.124436,40.654729],[-74.124436,40.654647],[-74.125338,40.65443],[-74.12595,40.654542],[-74.126024,40.654323],[-74.126745,40.65427],[-74.126743,40.654572],[-74.127824,40.654658],[-74.128397,40.655319],[-74.128758,40.655237],[-74.128828,40.655622],[-74.129474,40.656036],[-74.128394,40.655922],[-74.128035,40.655537],[-74.126667,40.655286],[-74.126632,40.655038],[-74.126236,40.65501]],[[-74.126236,40.65501],[-74.126164,40.654955],[-74.1262,40.65501],[-74.126236,40.65501]]],[[[-74.141865,40.650942],[-74.140031,40.65014],[-74.139814,40.650249],[-74.139527,40.650111],[-74.139526,40.650193],[-74.139454,40.65022],[-74.139454,40.650275],[-74.139381,40.650303],[-74.139381,40.650357],[-74.139345,40.650357],[-74.139345,40.650412],[-74.139309,40.650412],[-74.139344,40.650495],[-74.1392,40.650494],[-74.139235,40.650631],[-74.13891,40.650768],[-74.138659,40.65052],[-74.139239,40.649945],[-74.138989,40.649615],[-74.139424,40.649122],[-74.13921,40.648737],[-74.140264,40.647011],[-74.141323,40.644352],[-74.141982,40.64453],[-74.14188,40.644033],[-74.143813,40.643797],[-74.163014,40.645898],[-74.15809,40.649737],[-74.14726,40.655124],[-74.142721,40.658943],[-74.140573,40.661318],[-74.132507,40.672932],[-74.125251,40.68406],[-74.120322,40.69066],[-74.117554,40.694949],[-74.106305,40.691535],[-74.107423,40.691676],[-74.108366,40.690663],[-74.107721,40.689975],[-74.108411,40.689154],[-74.110317,40.690011],[-74.11104,40.689712],[-74.109674,40.689048],[-74.109423,40.688718],[-74.109821,40.688582],[-74.109643,40.688142],[-74.110662,40.686609],[-74.111928,40.685899],[-74.112297,40.6845],[-74.11201,40.684115],[-74.112442,40.684254],[-74.113606,40.682556],[-74.113319,40.682225],[-74.113788,40.682254],[-74.114733,40.680912],[-74.114738,40.680089],[-74.114271,40.679731],[-74.114847,40.67987],[-74.115539,40.678774],[-74.116476,40.67875],[-74.116805,40.67801],[-74.117311,40.677792],[-74.119269,40.675932],[-74.121221,40.675005],[-74.121805,40.673771],[-74.122819,40.672951],[-74.123077,40.671991],[-74.12362,40.671554],[-74.12424,40.670238],[-74.124675,40.669965],[-74.12421,40.66925],[-74.125256,40.669198],[-74.125259,40.66854],[-74.125799,40.668651],[-74.126305,40.668488],[-74.127024,40.668792],[-74.126955,40.66838],[-74.127279,40.668436],[-74.127461,40.668053],[-74.126707,40.667583],[-74.126745,40.667172],[-74.12617,40.666786],[-74.12779,40.66723],[-74.127864,40.666956],[-74.12736,40.666707],[-74.127583,40.66561],[-74.128127,40.664953],[-74.128849,40.664845],[-74.129356,40.664353],[-74.129829,40.663558],[-74.130589,40.663122],[-74.131026,40.662245],[-74.131893,40.661973],[-74.131642,40.66167],[-74.132949,40.659945],[-74.132735,40.659587],[-74.133132,40.659506],[-74.135488,40.657071],[-74.135164,40.657015],[-74.135129,40.656795],[-74.135782,40.656111],[-74.135675,40.655836],[-74.136183,40.655288],[-74.136185,40.654904],[-74.136907,40.654687],[-74.138598,40.655131],[-74.139032,40.654886],[-74.138781,40.65461],[-74.139323,40.654365],[-74.138928,40.654199],[-74.138787,40.653622],[-74.137815,40.653427],[-74.137997,40.652988],[-74.137817,40.65307],[-74.137926,40.652878],[-74.137603,40.652603],[-74.138071,40.652714],[-74.138867,40.652195],[-74.139405,40.652581],[-74.140449,40.652831],[-74.141245,40.652312],[-74.142115,40.651299],[-74.141864,40.651134],[-74.141609,40.651572],[-74.140997,40.651515],[-74.141216,40.651022],[-74.141865,40.650942]],[[-74.139923,40.65014],[-74.139887,40.650112],[-74.139887,40.650139],[-74.139923,40.65014]],[[-74.13759,40.654963],[-74.137626,40.654991],[-74.137626,40.654964],[-74.13759,40.654963]],[[-74.140971,40.649649],[-74.141007,40.649676],[-74.141007,40.649649],[-74.140971,40.649649]],[[-74.141473,40.650117],[-74.141509,40.650062],[-74.141473,40.650062],[-74.141473,40.650117]],[[-74.141472,40.650172],[-74.141401,40.650144],[-74.1414,40.650172],[-74.141472,40.650172]]],[[[-74.118299,40.656274],[-74.118263,40.656246],[-74.118299,40.656246],[-74.118299,40.656274]]],[[[-74.119125,40.656798],[-74.119162,40.656771],[-74.119161,40.656798],[-74.119125,40.656798]]],[[[-74.119693,40.658365],[-74.12017,40.656994],[-74.120858,40.656365],[-74.12263,40.655355],[-74.122843,40.655904],[-74.122303,40.655765],[-74.122515,40.656617],[-74.122729,40.656865],[-74.123163,40.656729],[-74.123089,40.657086],[-74.123735,40.657445],[-74.123482,40.657554],[-74.121504,40.656888],[-74.121573,40.657438],[-74.12096,40.657381],[-74.119693,40.658365]]],[[[-74.115014,40.657224],[-74.114978,40.657196],[-74.115014,40.657196],[-74.115014,40.657224]]],[[[-74.115446,40.657362],[-74.115409,40.65739],[-74.115409,40.657362],[-74.115446,40.657362]]],[[[-74.115013,40.657388],[-74.115049,40.657361],[-74.115049,40.657389],[-74.115013,40.657388]]],[[[-74.117421,40.658659],[-74.117385,40.658632],[-74.117421,40.658632],[-74.117421,40.658659]]],[[[-74.119255,40.659297],[-74.11911,40.659571],[-74.118421,40.660145],[-74.118527,40.660529],[-74.118094,40.66061],[-74.117876,40.660994],[-74.116864,40.661512],[-74.116867,40.660881],[-74.1173,40.6608],[-74.117702,40.659923],[-74.118026,40.659896],[-74.1181,40.659567],[-74.11915,40.658857],[-74.119255,40.659297]],[[-74.119149,40.658939],[-74.119113,40.658967],[-74.119149,40.658967],[-74.119149,40.658939]]],[[[-74.116178,40.661702],[-74.116502,40.661758],[-74.116827,40.661594],[-74.1165,40.662115],[-74.116068,40.662031],[-74.116178,40.661702]]],[[[-74.10747,40.671253],[-74.107326,40.671252],[-74.107471,40.671198],[-74.10747,40.671253]]],[[[-74.106959,40.672322],[-74.106923,40.672294],[-74.106959,40.672294],[-74.106959,40.672322]]],[[[-74.106669,40.672595],[-74.106705,40.672623],[-74.106669,40.672623],[-74.106669,40.672595]]],[[[-74.107022,40.692278],[-74.10695,40.692251],[-74.107022,40.692251],[-74.107022,40.692278]]],[[[-74.107023,40.692196],[-74.106374,40.692166],[-74.105799,40.691753],[-74.106052,40.691671],[-74.117428,40.695141],[-74.116046,40.697297],[-74.109897,40.694127],[-74.109032,40.693905],[-74.109034,40.693658],[-74.108351,40.693244],[-74.106804,40.692662],[-74.106732,40.692524],[-74.107093,40.692526],[-74.106733,40.692415],[-74.107094,40.692279],[-74.107023,40.692196]]],[[[-74.109212,40.694098],[-74.109678,40.694483],[-74.110615,40.694706],[-74.116009,40.697359],[-74.114232,40.700952],[-74.107675,40.697772],[-74.10793,40.697415],[-74.107862,40.696756],[-74.106713,40.695791],[-74.106789,40.695215],[-74.105633,40.69543],[-74.105633,40.69554],[-74.105883,40.695925],[-74.10628,40.695844],[-74.106783,40.696203],[-74.106927,40.696203],[-74.107358,40.696507],[-74.107643,40.697167],[-74.107496,40.697685],[-74.102852,40.695432],[-74.103005,40.694763],[-74.103583,40.694463],[-74.10511,40.692437],[-74.109212,40.694098]],[[-74.10668,40.695214],[-74.106717,40.695187],[-74.106681,40.695187],[-74.10668,40.695214]],[[-74.105742,40.695403],[-74.105706,40.695376],[-74.105706,40.695403],[-74.105742,40.695403]],[[-74.106963,40.696258],[-74.106927,40.696286],[-74.106963,40.696286],[-74.106963,40.696258]],[[-74.108995,40.694124],[-74.108959,40.694069],[-74.108887,40.694151],[-74.108995,40.694124]]],[[[-74.140742,40.645201],[-74.13972,40.647586],[-74.139213,40.648024],[-74.138135,40.647526],[-74.138172,40.647307],[-74.136733,40.646945],[-74.136625,40.646753],[-74.13612,40.646916],[-74.135653,40.646558],[-74.135255,40.646941],[-74.134499,40.646828],[-74.134894,40.647077],[-74.133884,40.647293],[-74.132983,40.64718],[-74.132476,40.647563],[-74.132515,40.647152],[-74.131541,40.647203],[-74.131398,40.647038],[-74.131509,40.646462],[-74.131185,40.646434],[-74.131188,40.645939],[-74.130791,40.646048],[-74.130717,40.646322],[-74.130429,40.646294],[-74.130289,40.645662],[-74.129065,40.645411],[-74.127118,40.645432],[-74.126972,40.645816],[-74.126361,40.645512],[-74.125707,40.646498],[-74.12524,40.64614],[-74.124807,40.646248],[-74.12484,40.646907],[-74.124261,40.647207],[-74.123829,40.647178],[-74.124011,40.646932],[-74.123622,40.645586],[-74.123259,40.645969],[-74.120591,40.646262],[-74.120227,40.64692],[-74.120399,40.64832],[-74.120789,40.649392],[-74.120677,40.65016],[-74.121215,40.650601],[-74.121249,40.650958],[-74.12316,40.650855],[-74.123342,40.650553],[-74.122873,40.650497],[-74.123199,40.650306],[-74.12381,40.6505],[-74.123958,40.649979],[-74.124098,40.650638],[-74.124386,40.650749],[-74.124169,40.650885],[-74.12431,40.651325],[-74.124743,40.651381],[-74.124705,40.651656],[-74.125604,40.652043],[-74.126145,40.651962],[-74.126107,40.652264],[-74.126933,40.652898],[-74.126033,40.652731],[-74.125959,40.652977],[-74.126497,40.653473],[-74.125453,40.653333],[-74.125127,40.653469],[-74.125342,40.653717],[-74.125126,40.653771],[-74.124514,40.653632],[-74.124263,40.653301],[-74.124264,40.653164],[-74.124732,40.653275],[-74.124806,40.652974],[-74.123799,40.652559],[-74.123439,40.65253],[-74.123797,40.652915],[-74.123113,40.652831],[-74.123003,40.653133],[-74.123828,40.653767],[-74.123072,40.653709],[-74.122389,40.65335],[-74.121666,40.653677],[-74.121451,40.653429],[-74.12192,40.653321],[-74.121489,40.6531],[-74.121272,40.653292],[-74.121415,40.653484],[-74.120875,40.65329],[-74.12163,40.653759],[-74.121556,40.653951],[-74.122638,40.6539],[-74.122781,40.654065],[-74.121879,40.654282],[-74.121086,40.654197],[-74.120868,40.654553],[-74.120149,40.654221],[-74.120147,40.654605],[-74.11986,40.654303],[-74.119464,40.654301],[-74.119314,40.655316],[-74.119137,40.654685],[-74.118849,40.654629],[-74.118735,40.655726],[-74.118086,40.655834],[-74.11812,40.656191],[-74.117723,40.656272],[-74.118227,40.656301],[-74.116855,40.656736],[-74.118406,40.656521],[-74.118656,40.656879],[-74.119161,40.656826],[-74.117854,40.658496],[-74.11753,40.658358],[-74.117313,40.658576],[-74.116381,40.657695],[-74.115338,40.657252],[-74.114258,40.656974],[-74.1153,40.657554],[-74.11602,40.657804],[-74.116846,40.658328],[-74.117126,40.659729],[-74.116724,40.660743],[-74.115526,40.662112],[-74.114985,40.662275],[-74.113799,40.661694],[-74.113329,40.661857],[-74.113296,40.661253],[-74.1129,40.661197],[-74.112824,40.661883],[-74.112498,40.662211],[-74.112819,40.662789],[-74.112273,40.663638],[-74.1113,40.663662],[-74.111262,40.663937],[-74.111551,40.663855],[-74.111442,40.664047],[-74.111658,40.66402],[-74.111403,40.664596],[-74.110022,40.666485],[-74.109697,40.666457],[-74.109258,40.667581],[-74.109006,40.667525],[-74.108644,40.667853],[-74.108133,40.668922],[-74.108275,40.669252],[-74.107987,40.669278],[-74.107585,40.670155],[-74.107873,40.670156],[-74.1078,40.670431],[-74.107945,40.670266],[-74.108124,40.670377],[-74.108123,40.670679],[-74.107146,40.671279],[-74.106707,40.672266],[-74.106887,40.672376],[-74.106741,40.672596],[-74.106669,40.672568],[-74.106669,40.672595],[-74.106633,40.672595],[-74.106597,40.672568],[-74.106415,40.672979],[-74.106635,40.672211],[-74.105873,40.673114],[-74.105586,40.672921],[-74.105696,40.672592],[-74.105012,40.672397],[-74.104504,40.672972],[-74.104792,40.673028],[-74.10461,40.673384],[-74.104825,40.67355],[-74.104353,40.674152],[-74.10367,40.673765],[-74.103453,40.673847],[-74.10392,40.674123],[-74.103811,40.674287],[-74.10327,40.674258],[-74.102948,40.673955],[-74.103017,40.674422],[-74.102043,40.674583],[-74.102077,40.674803],[-74.101245,40.675349],[-74.100993,40.675211],[-74.101358,40.674471],[-74.101253,40.674059],[-74.099096,40.672981],[-74.098663,40.673007],[-74.098589,40.673336],[-74.099021,40.673447],[-74.099809,40.674301],[-74.100269,40.675785],[-74.100955,40.67565],[-74.100735,40.676143],[-74.100266,40.676197],[-74.099793,40.676991],[-74.098855,40.677043],[-74.099214,40.677346],[-74.099212,40.677593],[-74.099609,40.677622],[-74.099751,40.678034],[-74.098991,40.678471],[-74.098843,40.679019],[-74.098231,40.678825],[-74.098522,40.678497],[-74.098161,40.678578],[-74.097977,40.679181],[-74.098836,40.680172],[-74.098617,40.680665],[-74.09815,40.680746],[-74.065716,40.66704],[-74.066645,40.665962],[-74.067988,40.666536],[-74.068218,40.6663],[-74.070086,40.667095],[-74.069986,40.667403],[-74.07263,40.668179],[-74.072508,40.66853],[-74.073901,40.669306],[-74.074973,40.669442],[-74.075104,40.669668],[-74.079084,40.671365],[-74.079667,40.671059],[-74.085286,40.67346],[-74.085162,40.673745],[-74.086261,40.675158],[-74.087643,40.675775],[-74.088146,40.675869],[-74.089359,40.675481],[-74.090193,40.676042],[-74.090651,40.675707],[-74.091274,40.675841],[-74.092198,40.67531],[-74.091857,40.674951],[-74.094762,40.675934],[-74.095302,40.67585],[-74.095947,40.6754],[-74.096426,40.67466],[-74.095805,40.674256],[-74.094067,40.673952],[-74.091514,40.672507],[-74.089712,40.672309],[-74.081944,40.669638],[-74.08203,40.669515],[-74.076129,40.667217],[-74.071439,40.66503],[-74.071346,40.665162],[-74.068232,40.663839],[-74.069456,40.662148],[-74.069766,40.662205],[-74.070046,40.661835],[-74.069839,40.661628],[-74.070701,40.660867],[-74.070557,40.660662],[-74.076928,40.663539],[-74.088195,40.667481],[-74.097682,40.669075],[-74.100341,40.669348],[-74.100914,40.669186],[-74.10135,40.669416],[-74.10098,40.669294],[-74.100936,40.669499],[-74.102885,40.669552],[-74.103432,40.669858],[-74.104972,40.669953],[-74.105304,40.669732],[-74.105445,40.670091],[-74.106559,40.670377],[-74.10696,40.670167],[-74.107615,40.669147],[-74.105718,40.668902],[-74.104914,40.669089],[-74.103569,40.668697],[-74.102598,40.668545],[-74.102106,40.668721],[-74.101522,40.66851],[-74.100838,40.667833],[-74.099674,40.667277],[-74.098123,40.665584],[-74.097067,40.665098],[-74.097044,40.664808],[-74.097391,40.664564],[-74.097268,40.664261],[-74.096972,40.664525],[-74.096508,40.664427],[-74.096455,40.664814],[-74.096948,40.665046],[-74.096759,40.665192],[-74.095884,40.665121],[-74.09588,40.664125],[-74.094898,40.664074],[-74.094011,40.664769],[-74.093515,40.66479],[-74.092589,40.664366],[-74.09247,40.664629],[-74.091405,40.66466],[-74.091088,40.664441],[-74.090897,40.664732],[-74.091333,40.664908],[-74.089528,40.66491],[-74.089516,40.664094],[-74.090591,40.664097],[-74.090757,40.663909],[-74.09072,40.663302],[-74.091203,40.662621],[-74.090888,40.661512],[-74.091371,40.662562],[-74.09132,40.66206],[-74.090872,40.660418],[-74.089957,40.65894],[-74.089817,40.658173],[-74.089086,40.657625],[-74.088852,40.656329],[-74.088306,40.656226],[-74.088403,40.655691],[-74.08605,40.655497],[-74.086873,40.654355],[-74.087176,40.654299],[-74.087248,40.653819],[-74.09342,40.650165],[-74.094791,40.649641],[-74.097783,40.649233],[-74.099329,40.649285],[-74.101117,40.649779],[-74.101628,40.649646],[-74.102815,40.649804],[-74.102824,40.650365],[-74.10359,40.650617],[-74.103832,40.650613],[-74.104077,40.64996],[-74.105686,40.650119],[-74.105599,40.650711],[-74.105925,40.651034],[-74.106727,40.651069],[-74.107142,40.651329],[-74.107394,40.651342],[-74.107578,40.650265],[-74.108468,40.650301],[-74.108451,40.650708],[-74.111375,40.650989],[-74.112966,40.650925],[-74.114045,40.65189],[-74.114403,40.651657],[-74.114011,40.65088],[-74.115447,40.65274],[-74.115889,40.652871],[-74.1165,40.652589],[-74.115038,40.650386],[-74.116445,40.652148],[-74.116801,40.65191],[-74.11505,40.649541],[-74.115843,40.649215],[-74.116241,40.649535],[-74.117098,40.648832],[-74.118644,40.64842],[-74.119002,40.647539],[-74.120136,40.646109],[-74.12801,40.644844],[-74.130745,40.64512],[-74.131048,40.644945],[-74.132858,40.645202],[-74.133579,40.645044],[-74.135752,40.645173],[-74.136796,40.645649],[-74.137508,40.645309],[-74.140314,40.644818],[-74.141108,40.644267],[-74.140744,40.644926],[-74.140816,40.644982],[-74.140815,40.645064],[-74.140707,40.645091],[-74.140742,40.645201]],[[-74.14056,40.645585],[-74.140524,40.645557],[-74.140524,40.645585],[-74.14056,40.645585]],[[-74.118012,40.656108],[-74.11794,40.656135],[-74.118012,40.656136],[-74.118012,40.656108]],[[-74.118656,40.656879],[-74.11862,40.656906],[-74.118656,40.656906],[-74.118656,40.656879]],[[-74.117278,40.658467],[-74.117314,40.658439],[-74.117278,40.658439],[-74.117278,40.658467]],[[-74.116596,40.65786],[-74.116632,40.657833],[-74.116596,40.657833],[-74.116596,40.65786]],[[-74.116596,40.657833],[-74.11656,40.657805],[-74.11656,40.657833],[-74.116596,40.657833]],[[-74.114294,40.657029],[-74.114186,40.657056],[-74.114294,40.657057],[-74.114294,40.657029]],[[-74.107657,40.67021],[-74.107693,40.670238],[-74.107693,40.670211],[-74.107657,40.67021]],[[-74.106853,40.671937],[-74.106817,40.67191],[-74.106817,40.671937],[-74.106853,40.671937]],[[-74.104468,40.672972],[-74.104432,40.672917],[-74.10436,40.672889],[-74.104468,40.672972]],[[-74.10436,40.672889],[-74.104288,40.672862],[-74.104288,40.672889],[-74.10436,40.672889]],[[-74.099069,40.677455],[-74.098563,40.677728],[-74.098417,40.678002],[-74.098706,40.677893],[-74.099069,40.677455]],[[-74.140743,40.644981],[-74.140707,40.645009],[-74.140743,40.645009],[-74.140743,40.644981]],[[-74.140779,40.645064],[-74.140743,40.645036],[-74.140743,40.645064],[-74.140779,40.645064]],[[-74.140707,40.645091],[-74.140671,40.645063],[-74.140671,40.645091],[-74.140707,40.645091]]],[[[-74.106378,40.673006],[-74.106342,40.672978],[-74.106379,40.672979],[-74.106378,40.673006]]],[[[-74.106342,40.673061],[-74.106306,40.673006],[-74.106342,40.673006],[-74.106342,40.673061]]],[[[-74.098515,40.679649],[-74.098587,40.679705],[-74.098515,40.679704],[-74.098515,40.679649]]],[[[-74.098613,40.681324],[-74.098577,40.681352],[-74.098577,40.681324],[-74.098613,40.681324]]],[[[-74.098614,40.681214],[-74.098505,40.681379],[-74.098793,40.681407],[-74.098458,40.681571],[-74.098283,40.681103],[-74.098614,40.681214]]],[[[-74.098788,40.682286],[-74.099149,40.682177],[-74.098858,40.682505],[-74.098788,40.682286]]],[[[-74.098787,40.682423],[-74.098823,40.682478],[-74.098796,40.682478],[-74.098787,40.682423]]],[[[-74.098822,40.682505],[-74.098858,40.68256],[-74.098827,40.68256],[-74.098822,40.682505]]],[[[-74.099327,40.682452],[-74.099145,40.682891],[-74.099326,40.682644],[-74.09951,40.682069],[-74.099799,40.68196],[-74.099362,40.682727],[-74.09954,40.683112],[-74.099135,40.683385],[-74.098893,40.68267],[-74.099329,40.682205],[-74.099327,40.682452]],[[-74.099291,40.682452],[-74.099256,40.682424],[-74.099255,40.682452],[-74.099291,40.682452]],[[-74.099256,40.682424],[-74.09922,40.682397],[-74.099219,40.682424],[-74.099256,40.682424]]],[[[-74.102675,40.694926],[-74.102679,40.694926],[-74.102679,40.694932],[-74.102675,40.694926]]],[[[-74.102693,40.694954],[-74.102715,40.694954],[-74.102715,40.694986],[-74.102693,40.694954]]],[[[-74.10275,40.69504],[-74.10273,40.695009],[-74.102751,40.695009],[-74.10275,40.69504]]],[[[-74.102778,40.695091],[-74.102786,40.695091],[-74.102786,40.69511],[-74.102778,40.695091]]],[[[-74.105669,40.695513],[-74.105705,40.69554],[-74.105669,40.69554],[-74.105669,40.695513]]]]}}]}