{"type":"FeatureCollection","features":[{"type":"Feature","properties":{"level_ft":16},"geometry":{"type":"MultiPolygon","coordinates":[[[[-74.158263,40.644019],[-74.158263,40.644031],[-74.158248,40.644019],[-74.158263,40.644019]]],[[[-74.158282,40.644046],[-74.161391,40.644357],[-74.161303,40.645451],[-74.160077,40.645246],[-74.160206,40.644951],[-74.159668,40.644486],[-74.159018,40.644694],[-74.159247,40.644938],[-74.158912,40.644855],[-74.158282,40.644046]]],[[[-74.134359,40.652565],[-74.134,40.652344],[-74.135009,40.652375],[-74.135228,40.651827],[-74.135517,40.651828],[-74.135584,40.652679],[-74.134359,40.652565]]],[[[-74.135259,40.65276],[-74.135295,40.652788],[-74.135259,40.652788],[-74.135259,40.65276]]],[[[-74.135295,40.652843],[-74.135331,40.652788],[-74.135331,40.652843],[-74.135295,40.652843]]],[[[-74.135259,40.65287],[-74.135295,40.652843],[-74.135295,40.65287],[-74.135259,40.65287]]],[[[-74.135469,40.653969],[-74.1363,40.653669],[-74.136118,40.653998],[-74.135469,40.653969]]],[[[-74.119819,40.655181],[-74.119855,40.655208],[-74.119819,40.655208],[-74.119819,40.655181]]],[[[-74.119891,40.655209],[-74.119855,40.655236],[-74.119855,40.655208],[-74.119891,40.655209]]],[[[-74.120029,40.656307],[-74.119993,40.656334],[-74.119993,40.656307],[-74.120029,40.656307]]],[[[-74.115553,40.657473],[-74.115517,40.657445],[-74.115553,40.657445],[-74.115553,40.657473]]],[[[-74.116676,40.662829],[-74.115737,40.663018],[-74.115885,40.662525],[-74.115597,40.662386],[-74.120206,40.656939],[-74.121654,40.655791],[-74.123678,40.654864],[-74.126024,40.654323],[-74.127394,40.654245],[-74.127212,40.654519],[-74.127573,40.65441],[-74.128256,40.654687],[-74.128255,40.654989],[-74.128436,40.654715],[-74.129049,40.654662],[-74.128979,40.65436],[-74.129195,40.65436],[-74.12923,40.65469],[-74.129734,40.654774],[-74.12948,40.655048],[-74.129983,40.655379],[-74.129836,40.65579],[-74.130625,40.656506],[-74.131165,40.656618],[-74.131199,40.656975],[-74.130549,40.657274],[-74.130552,40.656725],[-74.129615,40.656722],[-74.128645,40.656115],[-74.128067,40.656333],[-74.127601,40.655838],[-74.127599,40.656249],[-74.126735,40.655972],[-74.126122,40.656052],[-74.127236,40.656715],[-74.12774,40.656744],[-74.127846,40.657129],[-74.127268,40.657456],[-74.127626,40.657924],[-74.127014,40.657757],[-74.12676,40.658086],[-74.127082,40.658471],[-74.125931,40.657973],[-74.124994,40.658025],[-74.124959,40.65786],[-74.124812,40.658217],[-74.123336,40.657992],[-74.122762,40.657469],[-74.122473,40.657633],[-74.122543,40.657935],[-74.121895,40.657905],[-74.121932,40.657713],[-74.121536,40.65763],[-74.121462,40.657986],[-74.120993,40.657985],[-74.12117,40.658507],[-74.120521,40.65856],[-74.12027,40.658312],[-74.120051,40.658805],[-74.120302,40.659108],[-74.120012,40.659299],[-74.119942,40.658997],[-74.119581,40.659133],[-74.120116,40.660068],[-74.119468,40.659901],[-74.11907,40.660202],[-74.11896,40.660503],[-74.119319,40.660834],[-74.118416,40.661051],[-74.11874,40.661162],[-74.118486,40.661408],[-74.118774,40.661464],[-74.118737,40.661765],[-74.11744,40.661542],[-74.117077,40.662089],[-74.11722,40.662309],[-74.116643,40.66228],[-74.116676,40.662829]],[[-74.116497,40.662554],[-74.116461,40.662526],[-74.116461,40.662554],[-74.116497,40.662554]]],[[[-74.113458,40.66452],[-74.113313,40.664685],[-74.113386,40.66452],[-74.113458,40.66452]]],[[[-74.11324,40.664767],[-74.113276,40.664794],[-74.11324,40.664794],[-74.11324,40.664767]]],[[[-74.113276,40.664849],[-74.113312,40.664794],[-74.113312,40.664849],[-74.113276,40.664849]]],[[[-74.113203,40.664931],[-74.113239,40.664959],[-74.113203,40.664959],[-74.113203,40.664931]]],[[[-74.113059,40.664903],[-74.113095,40.664986],[-74.113059,40.664986],[-74.113059,40.664903]]],[[[-74.112986,40.665068],[-74.113022,40.665095],[-74.112986,40.665095],[-74.112986,40.665068]]],[[[-74.11313,40.665041],[-74.113021,40.66526],[-74.112949,40.66526],[-74.112949,40.665287],[-74.112913,40.665287],[-74.11313,40.665041]]],[[[-74.112878,40.665122],[-74.112913,40.665232],[-74.112804,40.665314],[-74.112878,40.665122]]],[[[-74.112985,40.665315],[-74.112949,40.665287],[-74.112985,40.665287],[-74.112985,40.665315]]],[[[-74.112948,40.665342],[-74.11284,40.665314],[-74.112913,40.665287],[-74.112948,40.665342]]],[[[-74.112732,40.665369],[-74.112768,40.665396],[-74.112732,40.665396],[-74.112732,40.665369]]],[[[-74.112696,40.665424],[-74.112732,40.665396],[-74.112732,40.665424],[-74.112696,40.665424]]],[[[-74.112587,40.665561],[-74.112551,40.665506],[-74.112696,40.665424],[-74.112659,40.665533],[-74.112587,40.665561]]],[[[-74.112514,40.665643],[-74.11255,40.665615],[-74.11255,40.665643],[-74.112514,40.665643]]],[[[-74.112514,40.665643],[-74.112441,40.665725],[-74.112442,40.665642],[-74.112514,40.665643]]],[[[-74.112804,40.665397],[-74.112113,40.666355],[-74.111969,40.666464],[-74.112296,40.666026],[-74.112224,40.665889],[-74.112369,40.665725],[-74.112513,40.665752],[-74.112804,40.665397]],[[-74.112296,40.665944],[-74.112332,40.665917],[-74.112296,40.665916],[-74.112296,40.665944]],[[-74.112332,40.665917],[-74.112369,40.665862],[-74.112333,40.665862],[-74.112332,40.665917]],[[-74.112369,40.665862],[-74.112405,40.665834],[-74.112369,40.665834],[-74.112369,40.665862]],[[-74.112441,40.66578],[-74.112405,40.665807],[-74.112441,40.665807],[-74.112441,40.66578]]],[[[-74.112187,40.666026],[-74.111604,40.667094],[-74.110988,40.667696],[-74.111569,40.666902],[-74.111462,40.666792],[-74.112187,40.666026]],[[-74.111534,40.66682],[-74.111606,40.666793],[-74.111642,40.666738],[-74.111534,40.66682]],[[-74.111752,40.666546],[-74.111824,40.666574],[-74.11186,40.666519],[-74.111752,40.666546]],[[-74.111751,40.666601],[-74.111715,40.666656],[-74.111751,40.666656],[-74.111751,40.666601]],[[-74.111715,40.666711],[-74.111643,40.666683],[-74.111643,40.66671],[-74.111715,40.666711]]],[[[-74.111389,40.666956],[-74.111425,40.666984],[-74.111389,40.666984],[-74.111389,40.666956]]],[[[-74.111207,40.667175],[-74.111062,40.66734],[-74.111135,40.667175],[-74.111207,40.667175]]],[[[-74.15809,40.649737],[-74.14726,40.655124],[-74.142721,40.658943],[-74.140573,40.661318],[-74.132507,40.672932],[-74.125251,40.68406],[-74.120322,40.69066],[-74.117554,40.694949],[-74.106161,40.691507],[-74.107495,40.691594],[-74.108366,40.690608],[-74.107324,40.689974],[-74.107544,40.68937],[-74.108667,40.688578],[-74.109279,40.688745],[-74.109789,40.687896],[-74.109648,40.687264],[-74.11019,40.687156],[-74.110843,40.686417],[-74.111928,40.685872],[-74.111822,40.685487],[-74.112261,40.68439],[-74.111829,40.684279],[-74.111795,40.684032],[-74.112012,40.683923],[-74.112442,40.684226],[-74.11357,40.682556],[-74.11314,40.682142],[-74.113752,40.682254],[-74.114734,40.680803],[-74.114666,40.680061],[-74.113875,40.679619],[-74.114561,40.679594],[-74.114884,40.679815],[-74.115575,40.678692],[-74.116477,40.678695],[-74.116769,40.67801],[-74.117311,40.677764],[-74.118617,40.676396],[-74.118906,40.676397],[-74.120065,40.675413],[-74.120859,40.675251],[-74.121367,40.674731],[-74.122095,40.67347],[-74.121807,40.673387],[-74.121917,40.673085],[-74.122351,40.672895],[-74.122136,40.672537],[-74.122497,40.672456],[-74.122897,40.671908],[-74.123221,40.671964],[-74.124022,40.670677],[-74.123846,40.669853],[-74.124495,40.669855],[-74.123635,40.668891],[-74.124284,40.668893],[-74.124427,40.669086],[-74.124968,40.668978],[-74.124935,40.668593],[-74.124468,40.668235],[-74.125368,40.668403],[-74.12649,40.667583],[-74.126348,40.667225],[-74.125557,40.666948],[-74.125414,40.666673],[-74.124801,40.666671],[-74.124913,40.666068],[-74.125705,40.666235],[-74.126284,40.66577],[-74.126897,40.665827],[-74.127364,40.666158],[-74.128091,40.664925],[-74.128777,40.664845],[-74.129793,40.663558],[-74.130517,40.663121],[-74.130773,40.662326],[-74.131749,40.661972],[-74.13157,40.661725],[-74.132077,40.661205],[-74.132008,40.66071],[-74.13237,40.660492],[-74.132663,40.659615],[-74.133132,40.659479],[-74.134509,40.658083],[-74.135054,40.657344],[-74.134766,40.657343],[-74.134803,40.657041],[-74.135674,40.656083],[-74.135608,40.654875],[-74.135862,40.654656],[-74.135212,40.654736],[-74.135142,40.654517],[-74.13554,40.654106],[-74.135973,40.65408],[-74.135971,40.654437],[-74.136584,40.654466],[-74.137341,40.654414],[-74.137559,40.654058],[-74.137276,40.653151],[-74.136952,40.65304],[-74.136698,40.653314],[-74.136446,40.653231],[-74.136774,40.652683],[-74.136667,40.652353],[-74.13721,40.65186],[-74.137176,40.651503],[-74.137721,40.650819],[-74.138225,40.650903],[-74.138265,40.650079],[-74.138878,40.650081],[-74.138701,40.649395],[-74.140045,40.64745],[-74.141323,40.644352],[-74.141982,40.64453],[-74.14188,40.644033],[-74.14375,40.643792],[-74.163014,40.645898],[-74.15809,40.649737]]],[[[-74.106266,40.692111],[-74.105583,40.691724],[-74.106052,40.691671],[-74.117428,40.695141],[-74.116046,40.697297],[-74.109861,40.694127],[-74.109032,40.693905],[-74.108495,40.693354],[-74.1063,40.692468],[-74.106266,40.692111]],[[-74.106373,40.692249],[-74.106409,40.692276],[-74.106409,40.692249],[-74.106373,40.692249]]],[[[-74.111026,40.667394],[-74.111062,40.667422],[-74.111026,40.667422],[-74.111026,40.667394]]],[[[-74.110808,40.667668],[-74.110917,40.667449],[-74.110989,40.667449],[-74.110808,40.667668]]],[[[-74.110842,40.668025],[-74.110878,40.667998],[-74.110878,40.668025],[-74.110842,40.668025]]],[[[-74.110805,40.668107],[-74.110769,40.66808],[-74.110806,40.66808],[-74.110805,40.668107]]],[[[-74.110733,40.66819],[-74.110697,40.668162],[-74.110733,40.668162],[-74.110733,40.66819]]],[[[-74.11066,40.668272],[-74.110624,40.668244],[-74.11066,40.668244],[-74.11066,40.668272]]],[[[-74.110624,40.668326],[-74.110588,40.668299],[-74.110624,40.668299],[-74.110624,40.668326]]],[[[-74.110588,40.668354],[-74.110552,40.668326],[-74.110588,40.668326],[-74.110588,40.668354]]],[[[-74.110515,40.668436],[-74.110479,40.668408],[-74.110515,40.668408],[-74.110515,40.668436]]],[[[-74.110442,40.668518],[-74.110407,40.66849],[-74.110443,40.668491],[-74.110442,40.668518]]],[[[-74.110406,40.668545],[-74.11037,40.668573],[-74.11037,40.668545],[-74.110406,40.668545]]],[[[-74.110951,40.667861],[-74.110334,40.668545],[-74.110333,40.668682],[-74.110189,40.668709],[-74.110225,40.668792],[-74.110153,40.668764],[-74.110152,40.668792],[-74.110116,40.668791],[-74.110116,40.668846],[-74.11008,40.668846],[-74.11008,40.668874],[-74.110044,40.668873],[-74.110044,40.668928],[-74.110007,40.668928],[-74.110007,40.668956],[-74.109971,40.668956],[-74.109971,40.66901],[-74.109899,40.669038],[-74.109898,40.669093],[-74.109862,40.669092],[-74.109862,40.669147],[-74.109826,40.669147],[-74.109826,40.669175],[-74.10979,40.669175],[-74.10979,40.669202],[-74.109754,40.669202],[-74.109753,40.669284],[-74.109717,40.669312],[-74.109681,40.669311],[-74.10968,40.669366],[-74.109644,40.669366],[-74.109644,40.669394],[-74.109608,40.669394],[-74.109608,40.669448],[-74.109572,40.669448],[-74.109572,40.669503],[-74.109535,40.669503],[-74.109535,40.669531],[-74.109499,40.66953],[-74.109499,40.669585],[-74.109427,40.669613],[-74.109319,40.669502],[-74.109211,40.669557],[-74.109574,40.669009],[-74.110772,40.667723],[-74.110951,40.667861]],[[-74.110334,40.668627],[-74.110298,40.6686],[-74.110298,40.668627],[-74.110334,40.668627]],[[-74.109319,40.669502],[-74.109355,40.669475],[-74.109319,40.669475],[-74.109319,40.669502]],[[-74.110771,40.667778],[-74.110735,40.667805],[-74.110771,40.667805],[-74.110771,40.667778]],[[-74.110735,40.667805],[-74.110699,40.667833],[-74.110735,40.667833],[-74.110735,40.667805]],[[-74.110879,40.667888],[-74.110843,40.667861],[-74.110843,40.667888],[-74.110879,40.667888]]],[[[-74.110261,40.66871],[-74.110225,40.668737],[-74.110225,40.668709],[-74.110261,40.66871]]],[[[-74.110188,40.668819],[-74.110152,40.668792],[-74.110189,40.668792],[-74.110188,40.668819]]],[[[-74.110152,40.668874],[-74.110116,40.668846],[-74.110152,40.668846],[-74.110152,40.668874]]],[[[-74.110116,40.668901],[-74.11008,40.668874],[-74.110116,40.668874],[-74.110116,40.668901]]],[[[-74.110079,40.668956],[-74.110044,40.668928],[-74.11008,40.668929],[-74.110079,40.668956]]],[[[-74.110043,40.668983],[-74.110007,40.668956],[-74.110043,40.668956],[-74.110043,40.668983]]],[[[-74.110007,40.669038],[-74.109971,40.66901],[-74.110007,40.669011],[-74.110007,40.669038]]],[[[-74.109934,40.66912],[-74.109898,40.669093],[-74.109934,40.669093],[-74.109934,40.66912]]],[[[-74.109898,40.669175],[-74.109862,40.669147],[-74.109898,40.669147],[-74.109898,40.669175]]],[[[-74.109862,40.669202],[-74.109826,40.669175],[-74.109862,40.669175],[-74.109862,40.669202]]],[[[-74.109789,40.669312],[-74.109753,40.669284],[-74.109789,40.669284],[-74.109789,40.669312]]],[[[-74.109753,40.669339],[-74.109717,40.669312],[-74.109753,40.669312],[-74.109753,40.669339]]],[[[-74.109716,40.669394],[-74.10968,40.669366],[-74.109717,40.669366],[-74.109716,40.669394]]],[[[-74.10968,40.669421],[-74.109644,40.669394],[-74.10968,40.669394],[-74.10968,40.669421]]],[[[-74.109644,40.669476],[-74.109608,40.669448],[-74.109644,40.669449],[-74.109644,40.669476]]],[[[-74.109607,40.669531],[-74.109572,40.669503],[-74.109608,40.669503],[-74.109607,40.669531]]],[[[-74.109571,40.669558],[-74.109535,40.669531],[-74.109571,40.669531],[-74.109571,40.669558]]],[[[-74.109535,40.669613],[-74.109499,40.669585],[-74.109535,40.669585],[-74.109535,40.669613]]],[[[-74.109353,40.669832],[-74.109317,40.669804],[-74.109353,40.669804],[-74.109353,40.669832]]],[[[-74.109245,40.669914],[-74.109281,40.669887],[-74.109281,40.669914],[-74.109245,40.669914]]],[[[-74.109248,40.694098],[-74.116009,40.697359],[-74.114232,40.700952],[-74.102852,40.695432],[-74.102511,40.694679],[-74.102859,40.694927],[-74.10326,40.694242],[-74.104129,40.693723],[-74.104855,40.692847],[-74.10475,40.692353],[-74.109248,40.694098]],[[-74.107711,40.697771],[-74.10793,40.697387],[-74.10779,40.696701],[-74.106642,40.695599],[-74.106244,40.695844],[-74.106676,40.696038],[-74.107358,40.696507],[-74.107711,40.697771]],[[-74.106963,40.696258],[-74.106927,40.696286],[-74.106963,40.696286],[-74.106963,40.696258]],[[-74.108996,40.694014],[-74.108959,40.694042],[-74.108996,40.694042],[-74.108996,40.694014]]],[[[-74.109244,40.669941],[-74.109209,40.669914],[-74.109245,40.669914],[-74.109244,40.669941]]],[[[-74.109208,40.669969],[-74.109172,40.669996],[-74.109172,40.669969],[-74.109208,40.669969]]],[[[-74.109136,40.670078],[-74.1091,40.670051],[-74.109136,40.670051],[-74.109136,40.670078]]],[[[-74.109099,40.670106],[-74.109063,40.670133],[-74.109063,40.670105],[-74.109099,40.670106]]],[[[-74.109027,40.670188],[-74.108991,40.670215],[-74.108991,40.670188],[-74.109027,40.670188]]],[[[-74.108954,40.670297],[-74.108918,40.67027],[-74.108954,40.67027],[-74.108954,40.670297]]],[[[-74.108918,40.670325],[-74.108882,40.670297],[-74.108918,40.670297],[-74.108918,40.670325]]],[[[-74.108882,40.670352],[-74.108845,40.670379],[-74.108846,40.670352],[-74.108882,40.670352]]],[[[-74.107071,40.671746],[-74.107143,40.671773],[-74.107071,40.671773],[-74.107071,40.671746]]],[[[-74.107356,40.672241],[-74.10732,40.672213],[-74.107356,40.672213],[-74.107356,40.672241]]],[[[-74.10732,40.672296],[-74.107284,40.672268],[-74.10732,40.672268],[-74.10732,40.672296]]],[[[-74.107066,40.672542],[-74.10703,40.672569],[-74.10703,40.672542],[-74.107066,40.672542]]],[[[-74.106994,40.672624],[-74.106957,40.672651],[-74.106957,40.672624],[-74.106994,40.672624]]],[[[-74.106921,40.672706],[-74.106885,40.672733],[-74.106885,40.672706],[-74.106921,40.672706]]],[[[-74.106848,40.672788],[-74.106812,40.672815],[-74.106812,40.672788],[-74.106848,40.672788]]],[[[-74.10674,40.672897],[-74.106703,40.672925],[-74.106704,40.672897],[-74.10674,40.672897]]],[[[-74.106631,40.673034],[-74.106594,40.673062],[-74.106595,40.673034],[-74.106631,40.673034]]],[[[-74.105215,40.674704],[-74.105178,40.674731],[-74.105179,40.674704],[-74.105215,40.674704]]],[[[-74.104961,40.675005],[-74.104924,40.675032],[-74.104924,40.675005],[-74.104961,40.675005]]],[[[-74.104888,40.675087],[-74.104852,40.675115],[-74.104852,40.675087],[-74.104888,40.675087]]],[[[-74.104815,40.675197],[-74.104779,40.675169],[-74.104815,40.675169],[-74.104815,40.675197]]],[[[-74.104779,40.675224],[-74.104743,40.675251],[-74.104743,40.675224],[-74.104779,40.675224]]],[[[-74.104706,40.675334],[-74.10467,40.675306],[-74.104706,40.675306],[-74.104706,40.675334]]],[[[-74.10467,40.675361],[-74.104634,40.675333],[-74.10467,40.675334],[-74.10467,40.675361]]],[[[-74.104525,40.675525],[-74.104489,40.675552],[-74.104489,40.675525],[-74.104525,40.675525]]],[[[-74.104343,40.675744],[-74.104307,40.675771],[-74.104307,40.675744],[-74.104343,40.675744]]],[[[-74.104271,40.675826],[-74.104234,40.675854],[-74.104235,40.675826],[-74.104271,40.675826]]],[[[-74.104072,40.691088],[-74.104108,40.691116],[-74.104072,40.691115],[-74.104072,40.691088]]],[[[-74.104108,40.691143],[-74.104144,40.691116],[-74.104144,40.691143],[-74.104108,40.691143]]],[[[-74.10418,40.691143],[-74.104216,40.691171],[-74.10418,40.691171],[-74.10418,40.691143]]],[[[-74.104288,40.691253],[-74.10436,40.691171],[-74.10436,40.691254],[-74.104288,40.691253]]],[[[-74.10371,40.691361],[-74.103855,40.691224],[-74.10425,40.691445],[-74.104033,40.691664],[-74.10371,40.691361]]],[[[-74.106156,40.69233],[-74.106192,40.692358],[-74.106156,40.692358],[-74.106156,40.69233]]],[[[-74.139466,40.647997],[-74.13903,40.648627],[-74.138561,40.64879],[-74.138563,40.648406],[-74.137987,40.648212],[-74.137916,40.647965],[-74.137375,40.648045],[-74.13709,40.647495],[-74.136657,40.647576],[-74.136298,40.647356],[-74.135936,40.647656],[-74.13583,40.647244],[-74.135506,40.647188],[-74.13507,40.647764],[-74.13464,40.647433],[-74.134207,40.647431],[-74.133699,40.648171],[-74.133341,40.647731],[-74.132328,40.648359],[-74.132331,40.647892],[-74.132007,40.647781],[-74.131755,40.647753],[-74.131897,40.648001],[-74.1315,40.648136],[-74.131037,40.647229],[-74.130713,40.647173],[-74.130639,40.647502],[-74.130351,40.647447],[-74.129604,40.645632],[-74.129314,40.645988],[-74.127837,40.645764],[-74.127188,40.645927],[-74.126969,40.646447],[-74.126429,40.646308],[-74.125991,40.647185],[-74.123647,40.647562],[-74.123857,40.648633],[-74.123171,40.648906],[-74.123528,40.649374],[-74.123962,40.649183],[-74.124247,40.649733],[-74.12475,40.649981],[-74.124568,40.65031],[-74.125215,40.650669],[-74.125141,40.650998],[-74.12579,40.651028],[-74.12586,40.65133],[-74.126653,40.651333],[-74.126543,40.651717],[-74.127441,40.652186],[-74.127658,40.652022],[-74.128126,40.652133],[-74.128374,40.652903],[-74.129634,40.653154],[-74.130284,40.652964],[-74.130499,40.653239],[-74.131544,40.65327],[-74.131834,40.653051],[-74.132084,40.653381],[-74.131687,40.653545],[-74.129452,40.65351],[-74.129198,40.653949],[-74.128945,40.653948],[-74.128839,40.653563],[-74.127831,40.653478],[-74.12736,40.653888],[-74.125304,40.654073],[-74.122019,40.654941],[-74.121155,40.654883],[-74.121009,40.655157],[-74.119352,40.654932],[-74.119313,40.655454],[-74.119567,40.655207],[-74.119747,40.655181],[-74.119855,40.655236],[-74.119455,40.655921],[-74.11985,40.656169],[-74.120175,40.656033],[-74.120355,40.656061],[-74.119994,40.656252],[-74.119883,40.656636],[-74.11785,40.659182],[-74.117451,40.659565],[-74.117276,40.658741],[-74.116668,40.657888],[-74.116524,40.657915],[-74.115805,40.657583],[-74.115841,40.657501],[-74.115733,40.657556],[-74.115589,40.657418],[-74.115265,40.657389],[-74.116092,40.657804],[-74.116882,40.658355],[-74.117238,40.659125],[-74.117124,40.660086],[-74.114546,40.663289],[-74.114258,40.663205],[-74.113824,40.663588],[-74.113356,40.663367],[-74.112995,40.663503],[-74.112993,40.663778],[-74.112164,40.663775],[-74.11227,40.664269],[-74.111945,40.664351],[-74.111906,40.664817],[-74.111364,40.66498],[-74.111326,40.665447],[-74.110928,40.665637],[-74.110381,40.666624],[-74.109911,40.666842],[-74.109909,40.667199],[-74.108351,40.668538],[-74.108491,40.669335],[-74.108023,40.669278],[-74.107913,40.669553],[-74.108451,40.670021],[-74.108558,40.670268],[-74.109138,40.669694],[-74.109317,40.669887],[-74.109245,40.669859],[-74.109173,40.669914],[-74.108846,40.670297],[-74.107973,40.671612],[-74.109053,40.671945],[-74.108834,40.672273],[-74.109373,40.672632],[-74.10876,40.672575],[-74.108722,40.672932],[-74.108256,40.672546],[-74.108401,40.672409],[-74.107788,40.672462],[-74.107573,40.672214],[-74.106852,40.672184],[-74.106998,40.671855],[-74.107286,40.671884],[-74.107215,40.671746],[-74.106999,40.671636],[-74.106744,40.672211],[-74.107175,40.672487],[-74.106994,40.672542],[-74.106667,40.672897],[-74.106703,40.67298],[-74.106558,40.673034],[-74.106449,40.673336],[-74.105251,40.674704],[-74.105179,40.674676],[-74.105143,40.674704],[-74.105178,40.674786],[-74.104997,40.675005],[-74.104888,40.675005],[-74.104924,40.675087],[-74.104888,40.67506],[-74.104816,40.675087],[-74.104851,40.675169],[-74.104779,40.675142],[-74.104743,40.675169],[-74.104707,40.675224],[-74.104742,40.675306],[-74.104094,40.675222],[-74.104094,40.675277],[-74.104561,40.67547],[-74.104561,40.675525],[-74.104453,40.675525],[-74.104488,40.675607],[-74.104379,40.675744],[-74.104307,40.675717],[-74.104271,40.675744],[-74.104307,40.675826],[-74.104235,40.675799],[-74.104199,40.675826],[-74.104052,40.676155],[-74.103798,40.676429],[-74.103726,40.676401],[-74.10369,40.676428],[-74.103726,40.676511],[-74.103654,40.676483],[-74.103617,40.676648],[-74.103545,40.67662],[-74.103509,40.676647],[-74.103544,40.67673],[-74.103471,40.676839],[-74.103327,40.676866],[-74.103363,40.676949],[-74.103291,40.676921],[-74.103254,40.676976],[-74.10329,40.677031],[-74.103218,40.677003],[-74.103218,40.67703],[-74.103182,40.67703],[-74.103182,40.677085],[-74.103145,40.677085],[-74.103145,40.677113],[-74.103109,40.677112],[-74.103073,40.677167],[-74.103108,40.67725],[-74.103036,40.677222],[-74.103036,40.677249],[-74.103,40.677249],[-74.103,40.677304],[-74.102964,40.677304],[-74.102964,40.677332],[-74.102928,40.677331],[-74.102927,40.677386],[-74.102855,40.677414],[-74.102855,40.677468],[-74.102782,40.677496],[-74.102673,40.677715],[-74.102601,40.677742],[-74.1026,40.677797],[-74.102564,40.677797],[-74.1026,40.677907],[-74.10249,40.678099],[-74.102309,40.678317],[-74.102164,40.678427],[-74.102092,40.678399],[-74.102092,40.678427],[-74.10202,40.678426],[-74.101552,40.678233],[-74.102019,40.678618],[-74.101694,40.6787],[-74.101439,40.679028],[-74.101765,40.678865],[-74.101691,40.679084],[-74.101401,40.679385],[-74.101257,40.679357],[-74.101257,40.679412],[-74.101112,40.679494],[-74.101075,40.679603],[-74.101039,40.679603],[-74.101039,40.679658],[-74.101003,40.679658],[-74.101003,40.679713],[-74.100966,40.679713],[-74.100966,40.67974],[-74.10093,40.67974],[-74.10093,40.679795],[-74.100894,40.679795],[-74.100929,40.679877],[-74.100857,40.67985],[-74.100857,40.679877],[-74.100821,40.679877],[-74.100821,40.679904],[-74.100785,40.679904],[-74.100785,40.679932],[-74.100749,40.679932],[-74.100747,40.680179],[-74.100494,40.68037],[-74.100529,40.680507],[-74.101179,40.680317],[-74.100632,40.681331],[-74.101061,40.681964],[-74.100666,40.681771],[-74.100737,40.681963],[-74.100195,40.682098],[-74.100481,40.682593],[-74.100227,40.682812],[-74.100443,40.682895],[-74.100293,40.683746],[-74.099676,40.68443],[-74.099674,40.684732],[-74.100109,40.684404],[-74.100504,40.684625],[-74.100212,40.685228],[-74.100243,40.686079],[-74.09999,40.686188],[-74.09941,40.684209],[-74.099534,40.684127],[-74.098878,40.682698],[-74.099294,40.682095],[-74.099326,40.682644],[-74.099403,40.681849],[-74.099081,40.681463],[-74.098663,40.68212],[-74.09813,40.680694],[-74.065716,40.66704],[-74.066645,40.665962],[-74.067988,40.666536],[-74.068218,40.6663],[-74.070086,40.667095],[-74.069986,40.667403],[-74.07263,40.668179],[-74.072508,40.66853],[-74.073901,40.669306],[-74.074973,40.669442],[-74.075104,40.669668],[-74.079084,40.671365],[-74.079667,40.671059],[-74.085286,40.67346],[-74.085162,40.673745],[-74.086261,40.675158],[-74.087643,40.675775],[-74.088146,40.675869],[-74.089359,40.675481],[-74.090193,40.676042],[-74.090651,40.675707],[-74.091274,40.675841],[-74.092198,40.67531],[-74.091857,40.674951],[-74.094968,40.67594],[-74.095895,40.67545],[-74.096426,40.67466],[-74.095805,40.674256],[-74.094067,40.673952],[-74.091514,40.672507],[-74.089712,40.672309],[-74.081944,40.669638],[-74.08203,40.669515],[-74.076129,40.667217],[-74.071439,40.66503],[-74.071346,40.665162],[-74.068232,40.663839],[-74.069456,40.662148],[-74.069766,40.662205],[-74.070046,40.661835],[-74.069839,40.661628],[-74.070701,40.660867],[-74.070557,40.660662],[-74.076928,40.663539],[-74.088195,40.667481],[-74.097682,40.669075],[-74.100341,40.669348],[-74.100914,40.669186],[-74.10135,40.669416],[-74.10098,40.669294],[-74.100936,40.669499],[-74.102885,40.669552],[-74.103432,40.669858],[-74.104972,40.669953],[-74.105304,40.669732],[-74.105445,40.670091],[-74.106528,40.670382],[-74.10696,40.670167],[-74.107615,40.669147],[-74.105718,40.668902],[-74.104914,40.669089],[-74.103569,40.668697],[-74.102598,40.668545],[-74.102106,40.668721],[-74.101522,40.66851],[-74.100838,40.667833],[-74.099674,40.667277],[-74.098123,40.665584],[-74.097067,40.665098],[-74.097044,40.664808],[-74.097391,40.664564],[-74.097268,40.664261],[-74.096972,40.664525],[-74.096508,40.664427],[-74.096455,40.664814],[-74.096948,40.665046],[-74.096759,40.665192],[-74.095884,40.665121],[-74.09588,40.664125],[-74.094898,40.664074],[-74.094011,40.664769],[-74.093515,40.66479],[-74.092589,40.664366],[-74.09247,40.664629],[-74.091405,40.66466],[-74.091088,40.664441],[-74.090897,40.664732],[-74.091333,40.664908],[-74.089528,40.66491],[-74.089516,40.664094],[-74.090591,40.664097],[-74.090757,40.663909],[-74.09072,40.663302],[-74.091203,40.662621],[-74.090888,40.661512],[-74.091371,40.662562],[-74.09132,40.66206],[-74.090872,40.660418],[-74.089957,40.65894],[-74.089817,40.658173],[-74.089086,40.657625],[-74.088852,40.656329],[-74.088306,40.656226],[-74.088403,40.655691],[-74.08605,40.655497],[-74.087468,40.653667],[-74.09342,40.650165],[-74.094791,40.649641],[-74.097783,40.649233],[-74.099329,40.649285],[-74.101117,40.649779],[-74.101628,40.649646],[-74.102815,40.649804],[-74.102824,40.650365],[-74.10359,40.650617],[-74.103832,40.650613],[-74.104077,40.64996],[-74.105686,40.650119],[-74.105599,40.650711],[-74.105925,40.651034],[-74.106727,40.651069],[-74.107142,40.651329],[-74.107394,40.651342],[-74.107578,40.650265],[-74.108468,40.650301],[-74.108451,40.650708],[-74.111375,40.650989],[-74.112966,40.650925],[-74.114045,40.65189],[-74.114403,40.651657],[-74.114011,40.65088],[-74.115447,40.65274],[-74.115889,40.652871],[-74.1165,40.652589],[-74.115038,40.650386],[-74.116445,40.652148],[-74.116801,40.65191],[-74.115059,40.649532],[-74.115843,40.649215],[-74.116241,40.649535],[-74.117098,40.648832],[-74.118644,40.64842],[-74.119002,40.647539],[-74.120136,40.646109],[-74.125303,40.645306],[-74.125782,40.645068],[-74.126098,40.64519],[-74.128425,40.644838],[-74.130745,40.64512],[-74.131048,40.644945],[-74.132858,40.645202],[-74.133579,40.645044],[-74.135897,40.645193],[-74.136796,40.645649],[-74.137508,40.645309],[-74.140314,40.644818],[-74.141108,40.644267],[-74.139466,40.647997]],[[-74.119747,40.655263],[-74.119675,40.655235],[-74.119675,40.655263],[-74.119747,40.655263]],[[-74.119675,40.655263],[-74.119639,40.65529],[-74.119675,40.65529],[-74.119675,40.655263]],[[-74.119639,40.65529],[-74.119602,40.655317],[-74.119638,40.655318],[-74.119639,40.65529]],[[-74.119819,40.655291],[-74.119783,40.655263],[-74.119783,40.655291],[-74.119819,40.655291]],[[-74.119847,40.656636],[-74.119811,40.656608],[-74.119811,40.656636],[-74.119847,40.656636]],[[-74.117706,40.659182],[-74.117814,40.659155],[-74.118106,40.658634],[-74.117706,40.659182]],[[-74.116488,40.65786],[-74.116524,40.657833],[-74.116488,40.657833],[-74.116488,40.65786]],[[-74.115517,40.657555],[-74.11548,40.657582],[-74.115516,40.657582],[-74.115517,40.657555]],[[-74.11584,40.657721],[-74.115804,40.657748],[-74.11584,40.657748],[-74.11584,40.657721]],[[-74.116307,40.657969],[-74.116271,40.657997],[-74.116307,40.657997],[-74.116307,40.657969]],[[-74.112164,40.663775],[-74.112128,40.663747],[-74.112128,40.663775],[-74.112164,40.663775]],[[-74.108056,40.669718],[-74.10802,40.669745],[-74.108056,40.669745],[-74.108056,40.669718]],[[-74.108235,40.66991],[-74.108163,40.669938],[-74.108235,40.669938],[-74.108235,40.66991]],[[-74.108476,40.671833],[-74.108404,40.67186],[-74.108476,40.67186],[-74.108476,40.671833]],[[-74.107357,40.672186],[-74.107393,40.672159],[-74.107357,40.672158],[-74.107357,40.672186]],[[-74.106998,40.671883],[-74.107034,40.67191],[-74.107034,40.671883],[-74.106998,40.671883]],[[-74.107142,40.671938],[-74.107106,40.671965],[-74.107142,40.671966],[-74.107142,40.671938]],[[-74.107251,40.671801],[-74.107359,40.671747],[-74.107251,40.671746],[-74.107251,40.671801]],[[-74.106667,40.67298],[-74.106631,40.672952],[-74.106631,40.672979],[-74.106667,40.67298]],[[-74.106485,40.673199],[-74.10645,40.673171],[-74.106449,40.673198],[-74.106485,40.673199]],[[-74.105941,40.673828],[-74.105905,40.673801],[-74.105905,40.673828],[-74.105941,40.673828]],[[-74.105723,40.674102],[-74.105687,40.674074],[-74.105687,40.674102],[-74.105723,40.674102]],[[-74.105396,40.674485],[-74.10536,40.674457],[-74.10536,40.674485],[-74.105396,40.674485]],[[-74.105324,40.674567],[-74.105288,40.67454],[-74.105288,40.674567],[-74.105324,40.674567]],[[-74.105251,40.674649],[-74.105215,40.674622],[-74.105215,40.674649],[-74.105251,40.674649]],[[-74.105142,40.674786],[-74.105106,40.674759],[-74.105106,40.674786],[-74.105142,40.674786]],[[-74.105069,40.674868],[-74.105034,40.674841],[-74.105033,40.674868],[-74.105069,40.674868]],[[-74.104997,40.67495],[-74.104961,40.674923],[-74.104961,40.67495],[-74.104997,40.67495]],[[-74.104961,40.674923],[-74.104925,40.674895],[-74.104925,40.674923],[-74.104961,40.674923]],[[-74.104452,40.675607],[-74.104416,40.67558],[-74.104416,40.675607],[-74.104452,40.675607]],[[-74.10438,40.675689],[-74.104344,40.675662],[-74.104344,40.675689],[-74.10438,40.675689]],[[-74.103799,40.676374],[-74.103763,40.676346],[-74.103763,40.676374],[-74.103799,40.676374]],[[-74.103617,40.676593],[-74.103581,40.676565],[-74.103581,40.676592],[-74.103617,40.676593]],[[-74.103508,40.676729],[-74.103472,40.676702],[-74.103472,40.676729],[-74.103508,40.676729]],[[-74.102564,40.677907],[-74.102528,40.677879],[-74.102528,40.677906],[-74.102564,40.677907]],[[-74.101769,40.678206],[-74.101877,40.678151],[-74.101769,40.678178],[-74.101769,40.678206]],[[-74.101661,40.678178],[-74.101733,40.678151],[-74.101661,40.678151],[-74.101661,40.678178]],[[-74.101659,40.678398],[-74.101587,40.678425],[-74.101659,40.678425],[-74.101659,40.678398]],[[-74.101587,40.678425],[-74.101551,40.678452],[-74.101587,40.678452],[-74.101587,40.678425]],[[-74.100493,40.680507],[-74.100457,40.680562],[-74.100493,40.680562],[-74.100493,40.680507]],[[-74.099674,40.684732],[-74.099602,40.684759],[-74.099674,40.684759],[-74.099674,40.684732]],[[-74.09929,40.682699],[-74.099218,40.682671],[-74.099218,40.682699],[-74.09929,40.682699]],[[-74.098362,40.681049],[-74.098399,40.681022],[-74.098362,40.681021],[-74.098362,40.681049]],[[-74.139503,40.647832],[-74.139467,40.647805],[-74.139467,40.647832],[-74.139503,40.647832]]],[[[-74.103762,40.676428],[-74.103726,40.676456],[-74.103726,40.676428],[-74.103762,40.676428]]],[[[-74.10369,40.676511],[-74.103653,40.676538],[-74.103654,40.67651],[-74.10369,40.676511]]],[[[-74.103581,40.676647],[-74.103544,40.676675],[-74.103545,40.676647],[-74.103581,40.676647]]],[[[-74.103399,40.676866],[-74.103363,40.676894],[-74.103363,40.676866],[-74.103399,40.676866]]],[[[-74.103327,40.676948],[-74.10329,40.676976],[-74.10329,40.676948],[-74.103327,40.676948]]],[[[-74.103254,40.677058],[-74.103218,40.67703],[-74.103254,40.677031],[-74.103254,40.677058]]],[[[-74.103217,40.677113],[-74.103182,40.677085],[-74.103218,40.677085],[-74.103217,40.677113]]],[[[-74.103181,40.67714],[-74.103145,40.677113],[-74.103181,40.677113],[-74.103181,40.67714]]],[[[-74.103145,40.677167],[-74.103109,40.677195],[-74.103109,40.677167],[-74.103145,40.677167]]],[[[-74.103072,40.677277],[-74.103036,40.677249],[-74.103072,40.67725],[-74.103072,40.677277]]],[[[-74.103036,40.677332],[-74.103,40.677304],[-74.103036,40.677304],[-74.103036,40.677332]]],[[[-74.103,40.677359],[-74.102964,40.677332],[-74.103,40.677332],[-74.103,40.677359]]],[[[-74.102963,40.677414],[-74.102927,40.677386],[-74.102963,40.677386],[-74.102963,40.677414]]],[[[-74.102709,40.677742],[-74.102673,40.677715],[-74.102709,40.677715],[-74.102709,40.677742]]],[[[-74.102636,40.677825],[-74.1026,40.677797],[-74.102636,40.677797],[-74.102636,40.677825]]],[[[-74.102128,40.678454],[-74.102092,40.678427],[-74.102128,40.678427],[-74.102128,40.678454]]],[[[-74.101729,40.678782],[-74.101765,40.67881],[-74.101729,40.67881],[-74.101729,40.678782]]],[[[-74.101765,40.678837],[-74.101801,40.67881],[-74.101801,40.678837],[-74.101765,40.678837]]],[[[-74.101693,40.678837],[-74.101729,40.678864],[-74.101693,40.678864],[-74.101693,40.678837]]],[[[-74.101293,40.679439],[-74.101257,40.679412],[-74.101293,40.679412],[-74.101293,40.679439]]],[[[-74.101075,40.679686],[-74.101039,40.679658],[-74.101075,40.679658],[-74.101075,40.679686]]],[[[-74.101038,40.679741],[-74.101003,40.679713],[-74.101039,40.679713],[-74.101038,40.679741]]],[[[-74.101002,40.679768],[-74.100966,40.67974],[-74.101002,40.67974],[-74.101002,40.679768]]],[[[-74.100966,40.679795],[-74.10093,40.679823],[-74.10093,40.679795],[-74.100966,40.679795]]],[[[-74.100893,40.679905],[-74.100857,40.679877],[-74.100893,40.679877],[-74.100893,40.679905]]],[[[-74.100857,40.679932],[-74.100821,40.679904],[-74.100857,40.679905],[-74.100857,40.679932]]],[[[-74.098716,40.68223],[-74.099223,40.681766],[-74.098837,40.682588],[-74.098716,40.68223]]],[[[-74.103019,40.692292],[-74.103492,40.691608],[-74.103455,40.6918],[-74.103708,40.691636],[-74.104498,40.69227],[-74.104566,40.692901],[-74.103019,40.692292]],[[-74.103091,40.692292],[-74.103128,40.692265],[-74.103091,40.692265],[-74.103091,40.692292]],[[-74.103128,40.692265],[-74.103164,40.69221],[-74.103128,40.69221],[-74.103128,40.692265]]],[[[-74.102464,40.694609],[-74.102456,40.694596],[-74.102465,40.694596],[-74.102464,40.694609]]],[[[-74.1025,40.694663],[-74.102493,40.694651],[-74.1025,40.694651],[-74.1025,40.694663]]]]}}]}