{"type":"FeatureCollection","features":[{"type":"Feature","properties":{"level_ft":12},"geometry":{"type":"MultiPolygon","coordinates":[[[[-74.158248,40.644019],[-74.158263,40.644019],[-74.158263,40.644031],[-74.158248,40.644019]]],[[[-74.158282,40.644046],[-74.161391,40.644357],[-74.161303,40.645451],[-74.160077,40.645246],[-74.160206,40.644951],[-74.159668,40.644486],[-74.159018,40.644694],[-74.159247,40.644938],[-74.158912,40.644855],[-74.158282,40.644046]]],[[[-74.139357,40.648106],[-74.139321,40.648161],[-74.139321,40.648106],[-74.139357,40.648106]]],[[[-74.139249,40.648188],[-74.139321,40.648216],[-74.139248,40.648216],[-74.139249,40.648188]]],[[[-74.138507,40.652112],[-74.138543,40.652084],[-74.138543,40.652112],[-74.138507,40.652112]]],[[[-74.127976,40.653176],[-74.129561,40.653318],[-74.129272,40.653455],[-74.129198,40.653949],[-74.128945,40.653948],[-74.128876,40.653426],[-74.127903,40.653368],[-74.127976,40.653176]]],[[[-74.129158,40.654662],[-74.129015,40.65436],[-74.129195,40.65436],[-74.129158,40.654662]]],[[[-74.129014,40.654525],[-74.128978,40.654607],[-74.128978,40.654524],[-74.129014,40.654525]]],[[[-74.129726,40.656229],[-74.128213,40.655922],[-74.128035,40.655592],[-74.127027,40.655424],[-74.126666,40.65556],[-74.126772,40.655862],[-74.125475,40.655721],[-74.125833,40.656216],[-74.12486,40.656158],[-74.124863,40.655609],[-74.124143,40.655497],[-74.124289,40.655086],[-74.123714,40.654864],[-74.126889,40.654271],[-74.126744,40.65449],[-74.127789,40.654548],[-74.12847,40.655209],[-74.128974,40.655238],[-74.128936,40.655677],[-74.129476,40.655734],[-74.129726,40.656229]]],[[[-74.118878,40.655864],[-74.118915,40.655837],[-74.118914,40.655864],[-74.118878,40.655864]]],[[[-74.118842,40.655919],[-74.118878,40.655891],[-74.118878,40.655919],[-74.118842,40.655919]]],[[[-74.118733,40.656001],[-74.11877,40.655973],[-74.118769,40.656001],[-74.118733,40.656001]]],[[[-74.118697,40.656028],[-74.118661,40.656055],[-74.118661,40.656028],[-74.118697,40.656028]]],[[[-74.118625,40.656055],[-74.118661,40.656083],[-74.118625,40.656083],[-74.118625,40.656055]]],[[[-74.118553,40.656083],[-74.118588,40.656138],[-74.118552,40.656137],[-74.118553,40.656083]]],[[[-74.118516,40.656192],[-74.11848,40.656137],[-74.118516,40.656137],[-74.118516,40.656192]]],[[[-74.118336,40.656192],[-74.1183,40.656137],[-74.118336,40.656137],[-74.118336,40.656192]]],[[[-74.119415,40.656607],[-74.119379,40.656634],[-74.119379,40.656607],[-74.119415,40.656607]]],[[[-74.114978,40.657224],[-74.115014,40.657196],[-74.115014,40.657224],[-74.114978,40.657224]]],[[[-74.115302,40.657334],[-74.115265,40.657334],[-74.115266,40.657307],[-74.115302,40.657307],[-74.115302,40.657334]]],[[[-74.115373,40.657362],[-74.11541,40.657335],[-74.115409,40.657362],[-74.115373,40.657362]]],[[[-74.115337,40.657362],[-74.115302,40.657334],[-74.115338,40.657335],[-74.115337,40.657362]]],[[[-74.115409,40.65739],[-74.115446,40.657362],[-74.115445,40.65739],[-74.115409,40.65739]]],[[[-74.117709,40.65866],[-74.117745,40.658633],[-74.117745,40.65866],[-74.117709,40.65866]]],[[[-74.116031,40.662058],[-74.11672,40.661429],[-74.116904,40.660826],[-74.118609,40.658883],[-74.119404,40.658446],[-74.119661,40.657623],[-74.120022,40.657625],[-74.119843,40.65735],[-74.120351,40.656802],[-74.121654,40.655791],[-74.122991,40.655164],[-74.122521,40.655547],[-74.123527,40.656071],[-74.123562,40.656291],[-74.122878,40.656042],[-74.122659,40.656508],[-74.12338,40.656593],[-74.12334,40.657196],[-74.124243,40.65698],[-74.123879,40.657473],[-74.123986,40.657747],[-74.121863,40.657027],[-74.121574,40.657163],[-74.12168,40.657548],[-74.121393,40.657437],[-74.120922,40.657737],[-74.120381,40.657763],[-74.120452,40.65812],[-74.120055,40.658091],[-74.11922,40.659104],[-74.119326,40.659626],[-74.118893,40.65957],[-74.118494,40.660145],[-74.118671,40.660612],[-74.118383,40.660529],[-74.116644,40.662115],[-74.116031,40.662058]]],[[[-74.117491,40.658879],[-74.117528,40.658852],[-74.117527,40.658879],[-74.117491,40.658879]]],[[[-74.139215,40.65442],[-74.138676,40.654116],[-74.138277,40.654581],[-74.137917,40.654553],[-74.138535,40.653566],[-74.137635,40.653399],[-74.137818,40.652878],[-74.137423,40.652602],[-74.137097,40.652848],[-74.13674,40.652216],[-74.137244,40.652245],[-74.137715,40.651835],[-74.137532,40.652356],[-74.138035,40.652604],[-74.138362,40.652276],[-74.138147,40.652001],[-74.138506,40.652221],[-74.138796,40.652003],[-74.140341,40.652804],[-74.141245,40.652285],[-74.142043,40.651354],[-74.141972,40.651189],[-74.141427,40.651928],[-74.141103,40.651955],[-74.141108,40.650912],[-74.141541,40.650913],[-74.139706,40.650276],[-74.13927,40.650824],[-74.138477,40.650904],[-74.138552,40.650327],[-74.139203,40.649945],[-74.138917,40.649478],[-74.139278,40.649369],[-74.13921,40.64871],[-74.140264,40.647011],[-74.141323,40.644352],[-74.141982,40.64453],[-74.14188,40.644033],[-74.143813,40.643797],[-74.163014,40.645898],[-74.15809,40.649737],[-74.14726,40.655124],[-74.142721,40.658943],[-74.140573,40.661318],[-74.132507,40.672932],[-74.125251,40.68406],[-74.120322,40.69066],[-74.117554,40.694949],[-74.106269,40.691535],[-74.107423,40.691676],[-74.108403,40.690609],[-74.107684,40.690167],[-74.108122,40.689235],[-74.108627,40.689155],[-74.110353,40.690011],[-74.111004,40.689739],[-74.110034,40.689159],[-74.109275,40.689376],[-74.109241,40.689047],[-74.110115,40.687677],[-74.1099,40.687402],[-74.110625,40.686636],[-74.111964,40.685844],[-74.112297,40.684363],[-74.111975,40.684088],[-74.112442,40.684254],[-74.113606,40.682528],[-74.113284,40.682198],[-74.113788,40.682254],[-74.11477,40.68083],[-74.114702,40.680061],[-74.114235,40.679703],[-74.114884,40.679842],[-74.115611,40.678692],[-74.116476,40.67875],[-74.116805,40.67801],[-74.117311,40.677792],[-74.119269,40.675932],[-74.121294,40.674895],[-74.121805,40.673771],[-74.123001,40.672595],[-74.123041,40.671991],[-74.123511,40.671691],[-74.124277,40.670128],[-74.124639,40.66991],[-74.124066,40.669222],[-74.124823,40.669252],[-74.125221,40.669006],[-74.125115,40.668484],[-74.126377,40.668543],[-74.126992,40.668051],[-74.126673,40.667227],[-74.126062,40.666895],[-74.125884,40.66651],[-74.126856,40.666623],[-74.126711,40.666897],[-74.127143,40.666954],[-74.127216,40.666679],[-74.126894,40.666404],[-74.127506,40.666488],[-74.12751,40.665747],[-74.128055,40.665007],[-74.128777,40.664873],[-74.129465,40.664243],[-74.129829,40.663558],[-74.130553,40.663149],[-74.130918,40.662272],[-74.131857,40.661973],[-74.131642,40.661643],[-74.132877,40.659917],[-74.132699,40.659615],[-74.133132,40.659506],[-74.135416,40.657125],[-74.13502,40.657069],[-74.135021,40.656877],[-74.135746,40.656111],[-74.136077,40.654876],[-74.136438,40.654685],[-74.137411,40.654688],[-74.138527,40.655076],[-74.1386,40.654802],[-74.13896,40.654885],[-74.138566,40.654527],[-74.139215,40.65442]],[[-74.13778,40.653152],[-74.137816,40.653125],[-74.13778,40.653125],[-74.13778,40.653152]],[[-74.137532,40.652356],[-74.137496,40.65241],[-74.137532,40.65241],[-74.137532,40.652356]],[[-74.138506,40.652221],[-74.13847,40.652249],[-74.138506,40.652249],[-74.138506,40.652221]],[[-74.139018,40.650768],[-74.139055,40.650741],[-74.139019,40.650741],[-74.139018,40.650768]],[[-74.13896,40.654885],[-74.138996,40.654913],[-74.138996,40.654886],[-74.13896,40.654885]],[[-74.139215,40.65442],[-74.139287,40.654447],[-74.139287,40.65442],[-74.139215,40.65442]]],[[[-74.108992,40.669886],[-74.109029,40.669858],[-74.109029,40.669886],[-74.108992,40.669886]]],[[[-74.107767,40.669909],[-74.10773,40.669936],[-74.107731,40.669909],[-74.107767,40.669909]]],[[[-74.108955,40.67005],[-74.10892,40.670023],[-74.108956,40.670023],[-74.108955,40.67005]]],[[[-74.108847,40.670077],[-74.108883,40.67005],[-74.108883,40.670077],[-74.108847,40.670077]]],[[[-74.108775,40.670159],[-74.108847,40.670132],[-74.108847,40.67016],[-74.108775,40.670159]]],[[[-74.108738,40.670187],[-74.108774,40.670214],[-74.108738,40.670214],[-74.108738,40.670187]]],[[[-74.108738,40.670214],[-74.108702,40.670241],[-74.108702,40.670214],[-74.108738,40.670214]]],[[[-74.108702,40.670241],[-74.108666,40.670296],[-74.108666,40.670241],[-74.108702,40.670241]]],[[[-74.108665,40.670351],[-74.108593,40.670323],[-74.108666,40.670296],[-74.108665,40.670351]]],[[[-74.107034,40.671855],[-74.10707,40.671883],[-74.107034,40.671883],[-74.107034,40.671855]]],[[[-74.106888,40.672184],[-74.106924,40.672157],[-74.106924,40.672184],[-74.106888,40.672184]]],[[[-74.107139,40.672377],[-74.107103,40.67235],[-74.107139,40.67235],[-74.107139,40.672377]]],[[[-74.107103,40.672487],[-74.107066,40.672514],[-74.107066,40.672487],[-74.107103,40.672487]]],[[[-74.107066,40.672569],[-74.10703,40.672542],[-74.107066,40.672542],[-74.107066,40.672569]]],[[[-74.10703,40.672597],[-74.106994,40.672569],[-74.10703,40.672569],[-74.10703,40.672597]]],[[[-74.106993,40.672651],[-74.106957,40.672624],[-74.106994,40.672624],[-74.106993,40.672651]]],[[[-74.106957,40.672679],[-74.106921,40.672651],[-74.106957,40.672651],[-74.106957,40.672679]]],[[[-74.106921,40.672733],[-74.106885,40.672706],[-74.106921,40.672706],[-74.106921,40.672733]]],[[[-74.106885,40.672761],[-74.106849,40.672733],[-74.106885,40.672733],[-74.106885,40.672761]]],[[[-74.106848,40.672788],[-74.106812,40.672815],[-74.106812,40.672788],[-74.106848,40.672788]]],[[[-74.106812,40.672815],[-74.106776,40.672843],[-74.106776,40.672815],[-74.106812,40.672815]]],[[[-74.10674,40.672897],[-74.106703,40.672925],[-74.106704,40.672897],[-74.10674,40.672897]]],[[[-74.106667,40.673007],[-74.106631,40.672979],[-74.106667,40.67298],[-74.106667,40.673007]]],[[[-74.106631,40.673034],[-74.106594,40.673062],[-74.106595,40.673034],[-74.106631,40.673034]]],[[[-74.106914,40.692251],[-74.105727,40.691752],[-74.106052,40.691671],[-74.117428,40.695141],[-74.116046,40.697297],[-74.109897,40.694127],[-74.109032,40.693905],[-74.109034,40.693685],[-74.108387,40.693271],[-74.106732,40.692634],[-74.106913,40.692498],[-74.106589,40.692304],[-74.106914,40.692251]],[[-74.106914,40.692251],[-74.106987,40.692196],[-74.106951,40.692196],[-74.106914,40.692251]]],[[[-74.106535,40.695351],[-74.1065,40.695324],[-74.106536,40.695324],[-74.106535,40.695351]]],[[[-74.109212,40.694098],[-74.116009,40.697359],[-74.114232,40.700952],[-74.107675,40.697772],[-74.10793,40.697387],[-74.107861,40.696783],[-74.106713,40.695791],[-74.106716,40.695324],[-74.106428,40.695296],[-74.105848,40.695651],[-74.105992,40.695843],[-74.106352,40.695872],[-74.107358,40.696507],[-74.107643,40.697139],[-74.107532,40.697688],[-74.102852,40.695432],[-74.10262,40.694844],[-74.102823,40.695037],[-74.10362,40.694353],[-74.105074,40.692409],[-74.109212,40.694098]],[[-74.106536,40.695296],[-74.106572,40.695269],[-74.106536,40.695269],[-74.106536,40.695296]],[[-74.106536,40.695269],[-74.1065,40.695241],[-74.1065,40.695269],[-74.106536,40.695269]],[[-74.105885,40.695569],[-74.105813,40.695541],[-74.105813,40.695568],[-74.105885,40.695569]],[[-74.105813,40.695541],[-74.105777,40.695513],[-74.105777,40.695541],[-74.105813,40.695541]],[[-74.106963,40.696258],[-74.106927,40.696286],[-74.106963,40.696286],[-74.106963,40.696258]],[[-74.108995,40.694124],[-74.108959,40.694069],[-74.108887,40.694151],[-74.108995,40.694124]]],[[[-74.106558,40.673144],[-74.106522,40.673116],[-74.106558,40.673116],[-74.106558,40.673144]]],[[[-74.106195,40.673554],[-74.106159,40.673527],[-74.106195,40.673527],[-74.106195,40.673554]]],[[[-74.106122,40.673609],[-74.106086,40.673636],[-74.106086,40.673609],[-74.106122,40.673609]]],[[[-74.106014,40.673691],[-74.105978,40.673691],[-74.105978,40.673664],[-74.106014,40.673664],[-74.106014,40.673691]]],[[[-74.10605,40.673719],[-74.106014,40.673691],[-74.10605,40.673691],[-74.10605,40.673719]]],[[[-74.105869,40.673828],[-74.105905,40.673801],[-74.105905,40.673828],[-74.105869,40.673828]]],[[[-74.105905,40.673855],[-74.105941,40.673828],[-74.105941,40.673856],[-74.105905,40.673855]]],[[[-74.105796,40.673937],[-74.10576,40.67391],[-74.105796,40.67391],[-74.105796,40.673937]]],[[[-74.105543,40.674046],[-74.105579,40.674019],[-74.105579,40.674046],[-74.105543,40.674046]]],[[[-74.105507,40.674101],[-74.105543,40.674046],[-74.105543,40.674101],[-74.105507,40.674101]]],[[[-74.105434,40.674183],[-74.105507,40.674101],[-74.105542,40.674156],[-74.105434,40.674183]]],[[[-74.105398,40.674238],[-74.105434,40.674183],[-74.105434,40.674238],[-74.105398,40.674238]]],[[[-74.105325,40.674265],[-74.105398,40.674238],[-74.105325,40.67432],[-74.105325,40.674265]]],[[[-74.105253,40.674347],[-74.105325,40.674375],[-74.105252,40.674402],[-74.105253,40.674347]]],[[[-74.10518,40.674429],[-74.105252,40.674457],[-74.10518,40.674484],[-74.10518,40.674429]]],[[[-74.10518,40.674484],[-74.105107,40.674566],[-74.105144,40.674484],[-74.10518,40.674484]]],[[[-74.105071,40.674594],[-74.105107,40.674566],[-74.105107,40.674594],[-74.105071,40.674594]]],[[[-74.105107,40.674621],[-74.105035,40.674648],[-74.105035,40.674621],[-74.105107,40.674621]]],[[[-74.104999,40.674648],[-74.105034,40.674703],[-74.104998,40.674703],[-74.104999,40.674648]]],[[[-74.105034,40.674758],[-74.104889,40.67484],[-74.104998,40.674703],[-74.105034,40.674758]]],[[[-74.104781,40.67484],[-74.104817,40.674867],[-74.104781,40.674867],[-74.104781,40.67484]]],[[[-74.104817,40.674895],[-74.104853,40.674867],[-74.104853,40.674895],[-74.104817,40.674895]]],[[[-74.104745,40.674895],[-74.104781,40.674867],[-74.104781,40.674895],[-74.104745,40.674895]]],[[[-74.104781,40.67495],[-74.104817,40.674922],[-74.104817,40.67495],[-74.104781,40.67495]]],[[[-74.104745,40.674922],[-74.104708,40.674949],[-74.104709,40.674922],[-74.104745,40.674922]]],[[[-74.104672,40.674949],[-74.104708,40.674977],[-74.104672,40.674977],[-74.104672,40.674949]]],[[[-74.104744,40.675059],[-74.104708,40.675032],[-74.104744,40.675032],[-74.104744,40.675059]]],[[[-74.140742,40.645256],[-74.13972,40.647586],[-74.139285,40.648051],[-74.138314,40.647829],[-74.136697,40.64678],[-74.136012,40.64697],[-74.135617,40.64664],[-74.1354,40.646694],[-74.135434,40.647106],[-74.134894,40.647132],[-74.134712,40.647378],[-74.134279,40.647432],[-74.134028,40.647239],[-74.133919,40.647485],[-74.132766,40.647427],[-74.13244,40.6477],[-74.132442,40.647261],[-74.131794,40.647149],[-74.131865,40.647396],[-74.131612,40.647396],[-74.131254,40.64712],[-74.131436,40.646764],[-74.131152,40.645994],[-74.130608,40.646542],[-74.130144,40.645717],[-74.128055,40.6456],[-74.127876,40.645352],[-74.127154,40.645542],[-74.126935,40.645981],[-74.126719,40.64598],[-74.126613,40.64554],[-74.126576,40.645705],[-74.126289,40.645567],[-74.125706,40.646663],[-74.124988,40.646194],[-74.124948,40.646962],[-74.124514,40.647236],[-74.123649,40.647205],[-74.123902,40.646959],[-74.123512,40.645832],[-74.120591,40.646289],[-74.120697,40.646509],[-74.120298,40.647002],[-74.12061,40.649199],[-74.120862,40.649365],[-74.120677,40.65016],[-74.121324,40.650437],[-74.121393,40.650931],[-74.122259,40.650879],[-74.122656,40.650661],[-74.122549,40.650468],[-74.122838,40.650469],[-74.122948,40.65003],[-74.123091,40.650305],[-74.123667,40.650307],[-74.124066,40.649842],[-74.124134,40.650611],[-74.12453,40.650749],[-74.124241,40.650886],[-74.124347,40.65127],[-74.125283,40.651493],[-74.124777,40.651683],[-74.125604,40.651961],[-74.126146,40.651853],[-74.126143,40.652264],[-74.127473,40.652927],[-74.127183,40.653201],[-74.126248,40.652869],[-74.126604,40.653693],[-74.126928,40.653694],[-74.126963,40.653887],[-74.125665,40.65402],[-74.125305,40.653854],[-74.124944,40.654017],[-74.124585,40.653851],[-74.124835,40.654182],[-74.124402,40.65429],[-74.124223,40.654042],[-74.124476,40.653961],[-74.124479,40.653467],[-74.123112,40.652858],[-74.123147,40.653188],[-74.124223,40.653987],[-74.122639,40.653735],[-74.122352,40.653405],[-74.122242,40.653871],[-74.12307,40.653984],[-74.122744,40.654367],[-74.121158,40.654252],[-74.120976,40.654636],[-74.12022,40.654496],[-74.120326,40.654826],[-74.119643,40.654576],[-74.119354,40.654685],[-74.119204,40.655591],[-74.119101,40.654822],[-74.118849,40.654711],[-74.118807,40.655809],[-74.11859,40.655781],[-74.118806,40.655919],[-74.11859,40.655945],[-74.118517,40.656],[-74.118553,40.656083],[-74.11848,40.656137],[-74.118192,40.656109],[-74.118155,40.656246],[-74.118516,40.656247],[-74.117576,40.656628],[-74.118478,40.656494],[-74.118947,40.656551],[-74.118909,40.656743],[-74.119234,40.656634],[-74.119378,40.656662],[-74.117528,40.658824],[-74.116381,40.657695],[-74.115338,40.657252],[-74.114438,40.657057],[-74.116092,40.657831],[-74.116882,40.658383],[-74.117199,40.659647],[-74.116724,40.660743],[-74.115381,40.662276],[-74.115021,40.662247],[-74.114586,40.662657],[-74.11437,40.662629],[-74.114553,40.662053],[-74.113798,40.661722],[-74.113148,40.662021],[-74.11326,40.661335],[-74.112936,40.661225],[-74.112641,40.662322],[-74.113039,40.662213],[-74.112928,40.662652],[-74.113286,40.663037],[-74.11271,40.662871],[-74.112562,40.663502],[-74.111694,40.664048],[-74.110094,40.666485],[-74.109733,40.666512],[-74.109658,40.667088],[-74.108644,40.667908],[-74.108133,40.668922],[-74.108311,40.669252],[-74.107987,40.669278],[-74.107694,40.669909],[-74.108267,40.670652],[-74.107577,40.6715],[-74.108521,40.670406],[-74.108629,40.670433],[-74.107104,40.67224],[-74.106889,40.672047],[-74.107431,40.671747],[-74.107108,40.671609],[-74.107108,40.671499],[-74.107253,40.671389],[-74.107145,40.671307],[-74.106744,40.672184],[-74.107103,40.67235],[-74.10674,40.672815],[-74.106776,40.672898],[-74.106704,40.67287],[-74.106667,40.672925],[-74.106703,40.67298],[-74.106631,40.672952],[-74.106595,40.672979],[-74.106558,40.673062],[-74.106594,40.673117],[-74.10645,40.673116],[-74.106413,40.673336],[-74.106196,40.673362],[-74.106267,40.6735],[-74.106159,40.673499],[-74.105942,40.673663],[-74.105579,40.674019],[-74.106453,40.672595],[-74.106271,40.672841],[-74.105909,40.673059],[-74.10344,40.676043],[-74.105548,40.673223],[-74.10537,40.672893],[-74.104243,40.674371],[-74.103414,40.674396],[-74.102983,40.674038],[-74.102908,40.674614],[-74.102187,40.674611],[-74.102257,40.674859],[-74.101859,40.675077],[-74.102399,40.675298],[-74.102326,40.67549],[-74.101606,40.675296],[-74.100992,40.675458],[-74.100735,40.676198],[-74.100229,40.676444],[-74.10001,40.676855],[-74.099648,40.677073],[-74.098891,40.677015],[-74.099786,40.678062],[-74.099172,40.678334],[-74.099024,40.678992],[-74.098267,40.67888],[-74.098122,40.679099],[-74.098944,40.680337],[-74.098436,40.680747],[-74.065716,40.66704],[-74.066645,40.665962],[-74.067988,40.666536],[-74.068218,40.6663],[-74.070086,40.667095],[-74.069986,40.667403],[-74.07263,40.668179],[-74.072508,40.66853],[-74.073901,40.669306],[-74.074973,40.669442],[-74.075104,40.669668],[-74.079084,40.671365],[-74.079667,40.671059],[-74.085286,40.67346],[-74.085162,40.673745],[-74.086261,40.675158],[-74.087643,40.675775],[-74.088146,40.675869],[-74.089359,40.675481],[-74.090193,40.676042],[-74.090651,40.675707],[-74.091274,40.675841],[-74.092198,40.67531],[-74.091857,40.674951],[-74.094762,40.675934],[-74.095302,40.67585],[-74.095947,40.6754],[-74.096426,40.67466],[-74.095805,40.674256],[-74.094067,40.673952],[-74.091514,40.672507],[-74.089712,40.672309],[-74.081944,40.669638],[-74.08203,40.669515],[-74.076129,40.667217],[-74.071439,40.66503],[-74.071346,40.665162],[-74.068232,40.663839],[-74.069456,40.662148],[-74.069766,40.662205],[-74.070046,40.661835],[-74.069839,40.661628],[-74.070701,40.660867],[-74.070557,40.660662],[-74.076928,40.663539],[-74.088195,40.667481],[-74.097682,40.669075],[-74.100341,40.669348],[-74.100914,40.669186],[-74.10135,40.669416],[-74.10098,40.669294],[-74.100936,40.669499],[-74.102885,40.669552],[-74.103432,40.669858],[-74.104972,40.669953],[-74.105304,40.669732],[-74.105445,40.670091],[-74.106559,40.670377],[-74.10696,40.670167],[-74.107615,40.669147],[-74.105718,40.668902],[-74.104914,40.669089],[-74.103569,40.668697],[-74.102598,40.668545],[-74.102106,40.668721],[-74.101522,40.66851],[-74.100838,40.667833],[-74.099674,40.667277],[-74.098123,40.665584],[-74.097067,40.665098],[-74.097044,40.664808],[-74.097391,40.664564],[-74.097268,40.664261],[-74.096972,40.664525],[-74.096508,40.664427],[-74.096455,40.664814],[-74.096948,40.665046],[-74.096759,40.665192],[-74.095884,40.665121],[-74.09588,40.664125],[-74.094898,40.664074],[-74.094011,40.664769],[-74.093515,40.66479],[-74.092589,40.664366],[-74.09247,40.664629],[-74.091405,40.66466],[-74.091088,40.664441],[-74.090897,40.664732],[-74.091333,40.664908],[-74.089528,40.66491],[-74.089516,40.664094],[-74.090591,40.664097],[-74.090757,40.663909],[-74.09072,40.663302],[-74.091203,40.662621],[-74.090888,40.661512],[-74.091371,40.662562],[-74.09132,40.66206],[-74.090872,40.660418],[-74.089957,40.65894],[-74.089817,40.658173],[-74.089086,40.657625],[-74.088852,40.656329],[-74.088306,40.656226],[-74.088403,40.655691],[-74.08605,40.655497],[-74.086873,40.654355],[-74.087176,40.654299],[-74.087248,40.653819],[-74.09342,40.650165],[-74.094791,40.649641],[-74.097783,40.649233],[-74.099329,40.649285],[-74.101117,40.649779],[-74.101628,40.649646],[-74.102815,40.649804],[-74.102824,40.650365],[-74.10359,40.650617],[-74.103832,40.650613],[-74.104077,40.64996],[-74.105686,40.650119],[-74.105599,40.650711],[-74.105925,40.651034],[-74.106727,40.651069],[-74.107142,40.651329],[-74.107394,40.651342],[-74.107578,40.650265],[-74.108468,40.650301],[-74.108451,40.650708],[-74.111375,40.650989],[-74.112966,40.650925],[-74.114045,40.65189],[-74.114403,40.651657],[-74.114011,40.65088],[-74.115447,40.65274],[-74.115889,40.652871],[-74.1165,40.652589],[-74.115038,40.650386],[-74.116445,40.652148],[-74.116801,40.65191],[-74.11505,40.649541],[-74.115843,40.649215],[-74.116241,40.649535],[-74.117098,40.648832],[-74.118644,40.64842],[-74.119002,40.647539],[-74.120136,40.646109],[-74.12801,40.644844],[-74.130745,40.64512],[-74.131048,40.644945],[-74.132858,40.645202],[-74.133579,40.645044],[-74.135752,40.645173],[-74.136796,40.645649],[-74.137508,40.645309],[-74.140314,40.644818],[-74.141108,40.644267],[-74.140742,40.645256]],[[-74.11859,40.655808],[-74.118554,40.655835],[-74.11859,40.655836],[-74.11859,40.655808]],[[-74.118517,40.656],[-74.11841,40.655862],[-74.118301,40.655999],[-74.118517,40.656]],[[-74.118338,40.65589],[-74.118482,40.65578],[-74.118193,40.655889],[-74.118338,40.65589]],[[-74.118194,40.655862],[-74.118158,40.655834],[-74.118157,40.655862],[-74.118194,40.655862]],[[-74.118157,40.655862],[-74.118085,40.655889],[-74.118157,40.655889],[-74.118157,40.655862]],[[-74.118264,40.656082],[-74.118228,40.656054],[-74.118228,40.656081],[-74.118264,40.656082]],[[-74.117974,40.656465],[-74.117938,40.656437],[-74.117938,40.656465],[-74.117974,40.656465]],[[-74.117576,40.656656],[-74.117216,40.656627],[-74.117215,40.656709],[-74.117576,40.656656]],[[-74.117278,40.658467],[-74.117314,40.658439],[-74.117278,40.658439],[-74.117278,40.658467]],[[-74.116596,40.65786],[-74.116632,40.657833],[-74.116596,40.657833],[-74.116596,40.65786]],[[-74.116596,40.657833],[-74.11656,40.657805],[-74.11656,40.657833],[-74.116596,40.657833]],[[-74.115049,40.657389],[-74.115013,40.657416],[-74.115049,40.657416],[-74.115049,40.657389]],[[-74.115265,40.657472],[-74.115228,40.657499],[-74.115265,40.657499],[-74.115265,40.657472]],[[-74.107796,40.671089],[-74.10776,40.671062],[-74.10776,40.671089],[-74.107796,40.671089]],[[-74.107431,40.671719],[-74.107468,40.671692],[-74.107432,40.671692],[-74.107431,40.671719]],[[-74.10718,40.671499],[-74.107216,40.671527],[-74.107216,40.671499],[-74.10718,40.671499]],[[-74.107361,40.67139],[-74.10736,40.671609],[-74.107469,40.671418],[-74.107361,40.67139]],[[-74.107397,40.67139],[-74.107542,40.671336],[-74.107398,40.671335],[-74.107397,40.67139]],[[-74.106631,40.672952],[-74.106595,40.672924],[-74.106595,40.672952],[-74.106631,40.672952]],[[-74.105978,40.673636],[-74.105942,40.673608],[-74.105942,40.673636],[-74.105978,40.673636]],[[-74.106488,40.672677],[-74.106525,40.67265],[-74.106489,40.67265],[-74.106488,40.672677]],[[-74.106453,40.672595],[-74.106489,40.672567],[-74.106453,40.672567],[-74.106453,40.672595]],[[-74.106489,40.672567],[-74.106525,40.67254],[-74.106489,40.67254],[-74.106489,40.672567]],[[-74.106018,40.672977],[-74.105982,40.672922],[-74.105982,40.672977],[-74.106018,40.672977]],[[-74.105982,40.672977],[-74.105946,40.673005],[-74.105982,40.673005],[-74.105982,40.672977]],[[-74.099069,40.677455],[-74.098563,40.677728],[-74.098417,40.678002],[-74.098706,40.677893],[-74.099069,40.677455]],[[-74.140779,40.645064],[-74.140743,40.645036],[-74.140743,40.645064],[-74.140779,40.645064]]],[[[-74.104636,40.675031],[-74.104672,40.674977],[-74.104672,40.675032],[-74.104636,40.675031]]],[[[-74.104636,40.675086],[-74.1046,40.675031],[-74.104636,40.675031],[-74.104636,40.675086]]],[[[-74.104563,40.675114],[-74.104599,40.675086],[-74.104599,40.675114],[-74.104563,40.675114]]],[[[-74.104527,40.675168],[-74.104563,40.675141],[-74.104563,40.675168],[-74.104527,40.675168]]],[[[-74.104454,40.67525],[-74.104491,40.675223],[-74.10449,40.675251],[-74.104454,40.67525]]],[[[-74.10449,40.675278],[-74.104526,40.675251],[-74.104526,40.675278],[-74.10449,40.675278]]],[[[-74.104381,40.675415],[-74.104345,40.67547],[-74.104345,40.675415],[-74.104381,40.675415]]],[[[-74.104309,40.67547],[-74.104345,40.675525],[-74.104308,40.675524],[-74.104309,40.67547]]],[[[-74.104272,40.675552],[-74.104308,40.675524],[-74.104308,40.675552],[-74.104272,40.675552]]],[[[-74.104236,40.675607],[-74.104272,40.675552],[-74.104272,40.675607],[-74.104236,40.675607]]],[[[-74.104164,40.675634],[-74.104236,40.675661],[-74.104163,40.675689],[-74.104164,40.675634]]],[[[-74.104163,40.675744],[-74.104127,40.675689],[-74.104163,40.675689],[-74.104163,40.675744]]],[[[-74.104091,40.675771],[-74.104127,40.675743],[-74.104127,40.675771],[-74.104091,40.675771]]],[[[-74.104054,40.675798],[-74.104091,40.675771],[-74.104091,40.675798],[-74.104054,40.675798]]],[[[-74.103982,40.67588],[-74.104018,40.675853],[-74.104018,40.67588],[-74.103982,40.67588]]],[[[-74.098622,40.679815],[-74.098658,40.679787],[-74.098658,40.679815],[-74.098622,40.679815]]],[[[-74.098722,40.681215],[-74.098505,40.681296],[-74.098829,40.68138],[-74.098467,40.681596],[-74.09829,40.681076],[-74.098722,40.681215]],[[-74.098613,40.681352],[-74.098541,40.681379],[-74.098613,40.681379],[-74.098613,40.681352]]],[[[-74.098503,40.681598],[-74.098503,40.681691],[-74.098468,40.681598],[-74.098503,40.681598]]],[[[-74.09853,40.681763],[-74.098538,40.681763],[-74.098538,40.681786],[-74.09853,40.681763]]],[[[-74.099403,40.681821],[-74.09944,40.681794],[-74.099439,40.681821],[-74.099403,40.681821]]],[[[-74.098745,40.68234],[-74.099187,40.681875],[-74.098827,40.68256],[-74.098745,40.68234]]],[[[-74.099356,40.683742],[-74.098893,40.68267],[-74.099329,40.682123],[-74.099218,40.682671],[-74.099253,40.682781],[-74.099403,40.681876],[-74.100018,40.681494],[-74.100197,40.681714],[-74.099868,40.682509],[-74.099434,40.682809],[-74.099684,40.683167],[-74.099356,40.683742]],[[-74.099217,40.682781],[-74.099181,40.682836],[-74.099217,40.682836],[-74.099217,40.682781]],[[-74.099181,40.682836],[-74.099145,40.682891],[-74.099181,40.682891],[-74.099181,40.682836]],[[-74.099145,40.682836],[-74.099109,40.682808],[-74.099109,40.682836],[-74.099145,40.682836]],[[-74.09943,40.683413],[-74.099358,40.683441],[-74.09943,40.683441],[-74.09943,40.683413]]],[[[-74.102536,40.694716],[-74.102529,40.694706],[-74.102536,40.694706],[-74.102536,40.694716]]],[[[-74.102572,40.694761],[-74.102572,40.69477],[-74.102566,40.694761],[-74.102572,40.694761]]],[[[-74.102608,40.694789],[-74.102607,40.694824],[-74.102584,40.694789],[-74.102608,40.694789]]]]}}]}