{"type":"FeatureCollection","features":[{"type":"Feature","properties":{"level_ft":10},"geometry":{"type":"MultiPolygon","coordinates":[[[[-74.158248,40.644019],[-74.158263,40.644019],[-74.158263,40.644031],[-74.158248,40.644019]]],[[[-74.158282,40.644046],[-74.161391,40.644357],[-74.161356,40.645428],[-74.160077,40.645246],[-74.160206,40.644951],[-74.159668,40.644486],[-74.159018,40.644694],[-74.159247,40.644938],[-74.158912,40.644855],[-74.158282,40.644046]]],[[[-74.140743,40.645064],[-74.140779,40.645091],[-74.140743,40.645091],[-74.140743,40.645064]]],[[[-74.13949,40.650221],[-74.139526,40.650248],[-74.13949,40.650248],[-74.13949,40.650221]]],[[[-74.139454,40.650275],[-74.13949,40.650303],[-74.139453,40.650303],[-74.139454,40.650275]]],[[[-74.12472,40.655471],[-74.124434,40.654921],[-74.125334,40.655254],[-74.125588,40.65487],[-74.125265,40.654595],[-74.126202,40.654598],[-74.125945,40.655448],[-74.125657,40.655392],[-74.125295,40.655775],[-74.12472,40.655471]]],[[[-74.128971,40.655897],[-74.12728,40.655342],[-74.127101,40.655095],[-74.12674,40.655176],[-74.126455,40.654571],[-74.127859,40.654878],[-74.128073,40.655208],[-74.128828,40.655512],[-74.128971,40.655897]]],[[[-74.122299,40.656424],[-74.122729,40.656947],[-74.12309,40.656921],[-74.123159,40.657333],[-74.121504,40.656833],[-74.121215,40.656997],[-74.121321,40.657327],[-74.120817,40.657215],[-74.120671,40.657599],[-74.119876,40.657981],[-74.120314,40.656857],[-74.120603,40.656885],[-74.120858,40.656365],[-74.12216,40.655518],[-74.12234,40.655683],[-74.122119,40.656479],[-74.122299,40.656424]],[[-74.122122,40.655957],[-74.12205,40.655902],[-74.12205,40.655957],[-74.122122,40.655957]]],[[[-74.116976,40.660826],[-74.117481,40.660746],[-74.118426,40.659404],[-74.118859,40.659185],[-74.11842,40.660392],[-74.117589,40.660801],[-74.117117,40.661348],[-74.116976,40.660826]]],[[[-74.142151,40.651272],[-74.139815,40.650057],[-74.139563,40.650083],[-74.13949,40.650221],[-74.139454,40.65022],[-74.139454,40.650275],[-74.139019,40.650631],[-74.138768,40.650438],[-74.139239,40.649945],[-74.139097,40.649588],[-74.139459,40.649205],[-74.139282,40.648683],[-74.139644,40.648327],[-74.141323,40.644352],[-74.141982,40.64453],[-74.14188,40.644033],[-74.143813,40.643797],[-74.163014,40.645898],[-74.15809,40.649737],[-74.14726,40.655124],[-74.142721,40.658943],[-74.140573,40.661318],[-74.132507,40.672932],[-74.125251,40.68406],[-74.120322,40.69066],[-74.117554,40.694949],[-74.106377,40.691562],[-74.107459,40.691676],[-74.108402,40.690636],[-74.10772,40.690195],[-74.108375,40.689181],[-74.110425,40.690039],[-74.111077,40.689684],[-74.109531,40.688883],[-74.109459,40.688718],[-74.109929,40.688582],[-74.109643,40.688142],[-74.110698,40.686609],[-74.111964,40.685872],[-74.112333,40.684446],[-74.112046,40.68417],[-74.112479,40.684226],[-74.113642,40.682528],[-74.113355,40.682253],[-74.113788,40.682282],[-74.114806,40.680803],[-74.114738,40.680062],[-74.114379,40.679758],[-74.11492,40.679843],[-74.11572,40.678665],[-74.116151,40.678858],[-74.116513,40.67875],[-74.116805,40.67801],[-74.117347,40.677764],[-74.119269,40.675932],[-74.121221,40.675005],[-74.121732,40.673881],[-74.122855,40.672979],[-74.124276,40.670238],[-74.124783,40.669883],[-74.124318,40.669333],[-74.125544,40.669282],[-74.125439,40.66865],[-74.125943,40.668789],[-74.126449,40.668571],[-74.127096,40.66882],[-74.127497,40.668025],[-74.126743,40.667556],[-74.126853,40.667255],[-74.126458,40.666842],[-74.127573,40.667312],[-74.127899,40.667148],[-74.128008,40.666956],[-74.127577,40.666735],[-74.127435,40.666268],[-74.127583,40.66561],[-74.128127,40.664953],[-74.128813,40.664873],[-74.129429,40.664298],[-74.129829,40.663558],[-74.130589,40.663122],[-74.131062,40.662245],[-74.131893,40.662],[-74.131678,40.66167],[-74.132442,40.660382],[-74.133058,40.65989],[-74.132735,40.659615],[-74.133096,40.659561],[-74.135633,40.656934],[-74.135273,40.656823],[-74.135275,40.656548],[-74.135818,40.656111],[-74.135675,40.655836],[-74.136364,40.655124],[-74.136293,40.654905],[-74.137087,40.654715],[-74.13777,40.655101],[-74.138131,40.654965],[-74.138706,40.655187],[-74.13936,40.65431],[-74.138857,40.654007],[-74.138931,40.65365],[-74.138391,40.653511],[-74.138536,40.653265],[-74.138248,40.653319],[-74.138106,40.652934],[-74.139078,40.653129],[-74.139225,40.652663],[-74.138612,40.652661],[-74.138866,40.652332],[-74.140341,40.652858],[-74.141064,40.652476],[-74.142151,40.651272]],[[-74.139779,40.650057],[-74.139744,40.649974],[-74.139743,40.650057],[-74.139779,40.650057]],[[-74.139744,40.649974],[-74.139708,40.649947],[-74.139708,40.649974],[-74.139744,40.649974]],[[-74.110194,40.692673],[-74.11023,40.692564],[-74.110194,40.692564],[-74.110194,40.692673]],[[-74.11023,40.692564],[-74.110267,40.692536],[-74.110231,40.692536],[-74.11023,40.692564]],[[-74.107638,40.691896],[-74.107674,40.691869],[-74.107638,40.691869],[-74.107638,40.691896]],[[-74.139889,40.64981],[-74.139853,40.649782],[-74.139853,40.64981],[-74.139889,40.64981]],[[-74.139925,40.649783],[-74.139925,40.64981],[-74.139925,40.649783],[-74.139925,40.649783]],[[-74.140395,40.649537],[-74.140388,40.649537],[-74.140395,40.649537],[-74.140395,40.649537]],[[-74.140539,40.64951],[-74.140719,40.649511],[-74.140719,40.649511],[-74.140539,40.64951]],[[-74.140971,40.649676],[-74.141007,40.649621],[-74.140971,40.649621],[-74.140971,40.649676]],[[-74.141186,40.649732],[-74.141151,40.649704],[-74.141115,40.649704],[-74.141114,40.649731],[-74.141186,40.649732]],[[-74.14133,40.649814],[-74.141294,40.649814],[-74.14133,40.649814],[-74.14133,40.649814]],[[-74.141401,40.650144],[-74.141509,40.650144],[-74.141509,40.650007],[-74.141401,40.650144]],[[-74.14151,40.649897],[-74.141474,40.649897],[-74.14151,40.649897],[-74.14151,40.649897]],[[-74.141901,40.650914],[-74.141901,40.650887],[-74.141901,40.650887],[-74.141901,40.650914]]],[[[-74.117506,40.656381],[-74.117614,40.656409],[-74.117506,40.656408],[-74.117506,40.656381]]],[[[-74.114978,40.657196],[-74.115014,40.657224],[-74.114978,40.657224],[-74.114978,40.657196]]],[[[-74.115049,40.657361],[-74.115013,40.657388],[-74.115013,40.657361],[-74.115049,40.657361]]],[[[-74.116596,40.65786],[-74.116632,40.657915],[-74.116596,40.657915],[-74.116596,40.65786]]],[[[-74.117639,40.658358],[-74.117674,40.658385],[-74.117638,40.658385],[-74.117639,40.658358]]],[[[-74.116177,40.661757],[-74.116646,40.661813],[-74.1165,40.662087],[-74.116068,40.662004],[-74.116177,40.661757]]],[[[-74.140815,40.645036],[-74.140671,40.645063],[-74.140705,40.645338],[-74.140158,40.646681],[-74.139466,40.647969],[-74.138782,40.64783],[-74.138351,40.647472],[-74.138533,40.647253],[-74.13702,40.647029],[-74.136662,40.646753],[-74.136049,40.646751],[-74.135798,40.646476],[-74.135474,40.646502],[-74.135292,40.646803],[-74.134752,40.646637],[-74.13403,40.646854],[-74.13396,40.64658],[-74.133922,40.646799],[-74.131869,40.64671],[-74.131579,40.646901],[-74.131546,40.646462],[-74.131185,40.646406],[-74.131152,40.645857],[-74.130864,40.645829],[-74.130646,40.646157],[-74.130001,40.645469],[-74.12946,40.645632],[-74.129461,40.64544],[-74.129065,40.645356],[-74.127082,40.645432],[-74.126829,40.645706],[-74.126289,40.645512],[-74.125672,40.646251],[-74.125025,40.646002],[-74.124663,40.646248],[-74.124409,40.646659],[-74.124695,40.646962],[-74.124334,40.647043],[-74.124011,40.646905],[-74.123838,40.645559],[-74.123441,40.645612],[-74.123476,40.645915],[-74.121168,40.646072],[-74.120337,40.646453],[-74.119973,40.647193],[-74.12011,40.648511],[-74.120288,40.648814],[-74.120542,40.64854],[-74.120925,40.65082],[-74.121106,40.650738],[-74.12132,40.651151],[-74.122907,40.650991],[-74.123374,40.651295],[-74.123843,40.651131],[-74.123845,40.650692],[-74.124169,40.650748],[-74.124202,40.65138],[-74.124598,40.651518],[-74.12438,40.65171],[-74.124631,40.65193],[-74.125893,40.651989],[-74.126502,40.652567],[-74.12614,40.652786],[-74.125962,40.652538],[-74.125744,40.652812],[-74.126137,40.65339],[-74.125633,40.653251],[-74.124731,40.653385],[-74.124914,40.652974],[-74.123619,40.652476],[-74.122931,40.652995],[-74.123433,40.653491],[-74.12318,40.653655],[-74.122102,40.65313],[-74.121705,40.653238],[-74.12149,40.652881],[-74.120985,40.652961],[-74.120734,40.652768],[-74.120624,40.653207],[-74.120946,40.653565],[-74.120441,40.653646],[-74.120943,40.654004],[-74.120834,40.654306],[-74.119392,40.654246],[-74.119315,40.655069],[-74.119138,40.654575],[-74.11885,40.654519],[-74.118627,40.655698],[-74.117399,40.656051],[-74.117687,40.656217],[-74.116855,40.656708],[-74.11819,40.656548],[-74.117359,40.656875],[-74.117791,40.656904],[-74.11779,40.657123],[-74.118008,40.656849],[-74.118836,40.657044],[-74.117891,40.658386],[-74.117313,40.658494],[-74.116846,40.658245],[-74.116381,40.657695],[-74.115302,40.657225],[-74.114043,40.656864],[-74.114186,40.657084],[-74.11602,40.657804],[-74.116846,40.658328],[-74.116804,40.659398],[-74.11709,40.659756],[-74.116656,40.660057],[-74.116724,40.660743],[-74.116363,40.660852],[-74.116252,40.661263],[-74.115964,40.661235],[-74.115889,40.661729],[-74.115383,40.662056],[-74.114986,40.662027],[-74.11488,40.66167],[-74.114591,40.661779],[-74.114698,40.661917],[-74.113799,40.661667],[-74.113473,40.66183],[-74.113369,40.661144],[-74.112755,40.661306],[-74.112716,40.661883],[-74.112354,40.662156],[-74.112568,40.662513],[-74.112241,40.663034],[-74.112347,40.663309],[-74.111483,40.663169],[-74.111661,40.663526],[-74.111228,40.663552],[-74.111155,40.663771],[-74.111369,40.664156],[-74.111009,40.6641],[-74.110791,40.664319],[-74.111331,40.664458],[-74.110967,40.665171],[-74.10995,40.666458],[-74.109516,40.666621],[-74.109514,40.667033],[-74.109115,40.667361],[-74.109258,40.667553],[-74.108644,40.667853],[-74.108206,40.66873],[-74.108239,40.669252],[-74.107987,40.669278],[-74.107512,40.670292],[-74.107729,40.670211],[-74.107691,40.67054],[-74.107908,40.670349],[-74.108051,40.670624],[-74.107146,40.671279],[-74.106744,40.672156],[-74.106745,40.671964],[-74.106491,40.672238],[-74.10642,40.6721],[-74.106019,40.672785],[-74.105696,40.672482],[-74.105987,40.672071],[-74.104687,40.672451],[-74.104617,40.672122],[-74.104149,40.672065],[-74.103856,40.672723],[-74.104467,40.673082],[-74.103854,40.673162],[-74.104357,40.673411],[-74.104319,40.673713],[-74.103994,40.673794],[-74.103816,40.673519],[-74.103491,40.673518],[-74.103634,40.67371],[-74.103345,40.673792],[-74.103739,40.674205],[-74.102912,40.673928],[-74.102981,40.674422],[-74.102477,40.674228],[-74.10262,40.674476],[-74.102007,40.674528],[-74.101788,40.674967],[-74.101246,40.675212],[-74.101213,40.67469],[-74.101503,40.674417],[-74.101181,40.674004],[-74.098737,40.672733],[-74.097909,40.672538],[-74.097259,40.6727],[-74.098157,40.673197],[-74.098482,40.673116],[-74.099559,40.673971],[-74.10034,40.675923],[-74.099829,40.676936],[-74.098892,40.676961],[-74.099177,40.677401],[-74.098381,40.67792],[-74.099141,40.67751],[-74.099678,40.678061],[-74.0991,40.678361],[-74.098306,40.678413],[-74.097908,40.678714],[-74.097905,40.679126],[-74.098657,40.680062],[-74.098692,40.680226],[-74.098656,40.680254],[-74.098691,40.680281],[-74.098655,40.680364],[-74.098691,40.680391],[-74.098545,40.680665],[-74.09815,40.680746],[-74.095163,40.679434],[-74.095457,40.678568],[-74.094784,40.67928],[-74.065716,40.66704],[-74.066645,40.665962],[-74.067988,40.666536],[-74.068218,40.6663],[-74.070086,40.667095],[-74.069986,40.667403],[-74.07263,40.668179],[-74.072508,40.66853],[-74.073901,40.669306],[-74.074973,40.669442],[-74.075104,40.669668],[-74.079084,40.671365],[-74.079667,40.671059],[-74.085286,40.67346],[-74.085162,40.673745],[-74.086261,40.675158],[-74.087643,40.675775],[-74.088146,40.675869],[-74.089359,40.675481],[-74.090193,40.676042],[-74.090651,40.675707],[-74.091274,40.675841],[-74.092198,40.67531],[-74.091857,40.674951],[-74.094762,40.675934],[-74.095302,40.67585],[-74.095947,40.6754],[-74.096426,40.67466],[-74.095805,40.674256],[-74.094067,40.673952],[-74.091514,40.672507],[-74.089712,40.672309],[-74.081944,40.669638],[-74.08203,40.669515],[-74.076129,40.667217],[-74.071439,40.66503],[-74.071346,40.665162],[-74.068232,40.663839],[-74.069456,40.662148],[-74.069766,40.662205],[-74.070046,40.661835],[-74.069839,40.661628],[-74.070701,40.660867],[-74.070557,40.660662],[-74.076928,40.663539],[-74.088195,40.667481],[-74.097682,40.669075],[-74.100341,40.669348],[-74.100914,40.669186],[-74.10135,40.669416],[-74.10098,40.669294],[-74.100936,40.669499],[-74.102885,40.669552],[-74.103432,40.669858],[-74.104972,40.669953],[-74.105304,40.669732],[-74.105445,40.670091],[-74.106559,40.670377],[-74.10696,40.670167],[-74.107615,40.669147],[-74.105718,40.668902],[-74.104914,40.669089],[-74.103569,40.668697],[-74.102598,40.668545],[-74.102106,40.668721],[-74.101522,40.66851],[-74.100838,40.667833],[-74.099674,40.667277],[-74.098123,40.665584],[-74.097067,40.665098],[-74.097044,40.664808],[-74.097391,40.664564],[-74.097268,40.664261],[-74.096972,40.664525],[-74.096508,40.664427],[-74.096455,40.664814],[-74.096948,40.665046],[-74.096759,40.665192],[-74.095884,40.665121],[-74.09588,40.664125],[-74.094898,40.664074],[-74.094011,40.664769],[-74.093515,40.66479],[-74.092589,40.664366],[-74.09247,40.664629],[-74.091405,40.66466],[-74.091088,40.664441],[-74.090897,40.664732],[-74.091333,40.664908],[-74.089528,40.66491],[-74.089516,40.664094],[-74.090591,40.664097],[-74.090757,40.663909],[-74.09072,40.663302],[-74.091203,40.662621],[-74.090888,40.661512],[-74.091371,40.662562],[-74.09132,40.66206],[-74.090872,40.660418],[-74.089957,40.65894],[-74.089817,40.658173],[-74.089086,40.657625],[-74.088852,40.656329],[-74.088306,40.656226],[-74.088403,40.655691],[-74.08605,40.655497],[-74.086873,40.654355],[-74.087176,40.654299],[-74.087248,40.653819],[-74.09342,40.650165],[-74.094791,40.649641],[-74.097783,40.649233],[-74.099329,40.649285],[-74.101117,40.649779],[-74.101628,40.649646],[-74.102815,40.649804],[-74.102824,40.650365],[-74.10359,40.650617],[-74.103832,40.650613],[-74.104077,40.64996],[-74.105686,40.650119],[-74.105599,40.650711],[-74.105925,40.651034],[-74.106727,40.651069],[-74.107142,40.651329],[-74.107394,40.651342],[-74.107578,40.650265],[-74.108468,40.650301],[-74.108451,40.650708],[-74.111375,40.650989],[-74.112966,40.650925],[-74.114045,40.65189],[-74.114403,40.651657],[-74.114011,40.65088],[-74.115447,40.65274],[-74.115889,40.652871],[-74.1165,40.652589],[-74.115038,40.650386],[-74.116445,40.652148],[-74.116801,40.65191],[-74.11505,40.649541],[-74.115843,40.649215],[-74.116241,40.649535],[-74.117098,40.648832],[-74.118644,40.64842],[-74.119002,40.647539],[-74.120136,40.646109],[-74.12801,40.644844],[-74.130745,40.64512],[-74.131048,40.644945],[-74.132858,40.645202],[-74.133579,40.645044],[-74.135752,40.645173],[-74.136748,40.645651],[-74.137508,40.645309],[-74.140314,40.644818],[-74.141108,40.644267],[-74.140815,40.645036]],[[-74.140414,40.645969],[-74.140342,40.645913],[-74.140342,40.645996],[-74.140414,40.645969]],[[-74.140268,40.646215],[-74.140232,40.646188],[-74.140232,40.646215],[-74.140268,40.646215]],[[-74.118194,40.655779],[-74.118158,40.655752],[-74.118158,40.655779],[-74.118194,40.655779]],[[-74.118404,40.65696],[-74.118367,40.656988],[-74.118403,40.656988],[-74.118404,40.65696]],[[-74.118367,40.656988],[-74.118331,40.657015],[-74.118367,40.657015],[-74.118367,40.656988]],[[-74.117639,40.65833],[-74.117603,40.658303],[-74.117603,40.65833],[-74.117639,40.65833]],[[-74.116596,40.657833],[-74.11656,40.657805],[-74.11656,40.657833],[-74.116596,40.657833]],[[-74.116452,40.657778],[-74.116489,40.65775],[-74.116453,40.65775],[-74.116452,40.657778]],[[-74.1153,40.657554],[-74.115264,40.657581],[-74.1153,40.657582],[-74.1153,40.657554]],[[-74.116055,40.657913],[-74.116019,40.657941],[-74.116055,40.657941],[-74.116055,40.657913]],[[-74.116379,40.658079],[-74.116342,40.658107],[-74.116378,40.658107],[-74.116379,40.658079]],[[-74.107544,40.670951],[-74.107508,40.670924],[-74.107508,40.670951],[-74.107544,40.670951]],[[-74.103961,40.673355],[-74.103925,40.673382],[-74.103961,40.673382],[-74.103961,40.673355]],[[-74.102477,40.674228],[-74.102441,40.6742],[-74.102441,40.674228],[-74.102477,40.674228]],[[-74.140743,40.644981],[-74.140707,40.645009],[-74.140743,40.645009],[-74.140743,40.644981]]],[[[-74.098728,40.680254],[-74.098692,40.680226],[-74.098728,40.680227],[-74.098728,40.680254]]],[[[-74.106805,40.692387],[-74.107131,40.692196],[-74.106302,40.692139],[-74.105835,40.691753],[-74.106052,40.691671],[-74.117428,40.695141],[-74.116046,40.697297],[-74.109969,40.694155],[-74.109032,40.693905],[-74.109034,40.693658],[-74.108459,40.693299],[-74.106804,40.692662],[-74.107238,40.692471],[-74.106805,40.692387]],[[-74.107238,40.692471],[-74.107346,40.692444],[-74.107238,40.692444],[-74.107238,40.692471]]],[[[-74.108996,40.693987],[-74.109678,40.694483],[-74.110615,40.694706],[-74.116009,40.697359],[-74.114232,40.700952],[-74.107675,40.697772],[-74.107897,40.696838],[-74.106678,40.695709],[-74.106789,40.695078],[-74.106174,40.695432],[-74.105453,40.695457],[-74.105846,40.69598],[-74.106244,40.695844],[-74.107143,40.696341],[-74.107286,40.696534],[-74.107358,40.696507],[-74.107643,40.697194],[-74.107496,40.697685],[-74.102852,40.695432],[-74.102895,40.694982],[-74.103655,40.69449],[-74.103693,40.694134],[-74.105146,40.692464],[-74.108527,40.693958],[-74.108996,40.693987]],[[-74.106825,40.695187],[-74.106861,40.695133],[-74.106825,40.695133],[-74.106825,40.695187]],[[-74.106789,40.695078],[-74.106826,40.69505],[-74.10679,40.69505],[-74.106789,40.695078]],[[-74.106826,40.69505],[-74.106862,40.695023],[-74.106826,40.695023],[-74.106826,40.69505]],[[-74.106963,40.696258],[-74.106927,40.696286],[-74.106963,40.696286],[-74.106963,40.696258]],[[-74.108995,40.694124],[-74.108959,40.694069],[-74.108887,40.694151],[-74.108995,40.694124]]]]}}]}