{"type":"FeatureCollection","features":[{"type":"Feature","properties":{"level_ft":9},"geometry":{"type":"MultiPolygon","coordinates":[[[[-74.158263,40.644019],[-74.158263,40.644031],[-74.158248,40.644019],[-74.158263,40.644019]]],[[[-74.158282,40.644046],[-74.161391,40.644357],[-74.161356,40.645428],[-74.160077,40.645246],[-74.160206,40.644951],[-74.159668,40.644486],[-74.159018,40.644694],[-74.159247,40.644938],[-74.158912,40.644855],[-74.158282,40.644046]]],[[[-74.139466,40.647942],[-74.13943,40.647969],[-74.13943,40.647942],[-74.139466,40.647942]]],[[[-74.117255,40.656188],[-74.117326,40.656243],[-74.117254,40.656243],[-74.117255,40.656188]]],[[[-74.120346,40.657598],[-74.120858,40.656392],[-74.121654,40.655791],[-74.122051,40.655765],[-74.121867,40.656478],[-74.122299,40.656534],[-74.122836,40.657085],[-74.121433,40.656696],[-74.121035,40.656942],[-74.121178,40.657134],[-74.120346,40.657598]]],[[[-74.116632,40.657888],[-74.116596,40.657915],[-74.116596,40.657888],[-74.116632,40.657888]]],[[[-74.116867,40.660991],[-74.117408,40.66091],[-74.117262,40.661157],[-74.116867,40.660991]]],[[[-74.116214,40.661702],[-74.116466,40.661785],[-74.116464,40.662032],[-74.116104,40.661976],[-74.116214,40.661702]]],[[[-74.142151,40.651299],[-74.13978,40.649947],[-74.139164,40.650467],[-74.138949,40.650246],[-74.139494,40.649424],[-74.13939,40.64871],[-74.141323,40.644352],[-74.141982,40.64453],[-74.14188,40.644033],[-74.143813,40.643797],[-74.163014,40.645898],[-74.15809,40.649737],[-74.14726,40.655124],[-74.142721,40.658943],[-74.140573,40.661318],[-74.132507,40.672932],[-74.125251,40.68406],[-74.120322,40.69066],[-74.117554,40.694949],[-74.110229,40.692728],[-74.110777,40.691577],[-74.110815,40.69133],[-74.109942,40.692618],[-74.106449,40.69159],[-74.107459,40.691676],[-74.108366,40.690691],[-74.107721,40.690002],[-74.108447,40.689154],[-74.110389,40.690039],[-74.11104,40.689739],[-74.109711,40.688939],[-74.109929,40.688528],[-74.109679,40.688088],[-74.110987,40.686417],[-74.111964,40.685899],[-74.112333,40.684446],[-74.112082,40.684198],[-74.112479,40.684226],[-74.113642,40.682556],[-74.113463,40.682281],[-74.113788,40.682282],[-74.114806,40.68083],[-74.114774,40.680089],[-74.114487,40.679814],[-74.11492,40.679843],[-74.115647,40.67872],[-74.116513,40.67875],[-74.116841,40.67801],[-74.119341,40.675877],[-74.121221,40.675005],[-74.121732,40.673881],[-74.122746,40.67317],[-74.124094,40.670595],[-74.124819,40.669856],[-74.124461,40.669388],[-74.125038,40.669417],[-74.12522,40.669198],[-74.125795,40.669392],[-74.125583,40.668705],[-74.127096,40.668847],[-74.127533,40.668025],[-74.126779,40.667529],[-74.126746,40.667062],[-74.127646,40.667312],[-74.128008,40.667011],[-74.127541,40.666653],[-74.127583,40.665637],[-74.128127,40.66498],[-74.129066,40.664654],[-74.13117,40.662272],[-74.131929,40.662],[-74.131678,40.661698],[-74.132478,40.660355],[-74.133057,40.659973],[-74.132771,40.65967],[-74.135669,40.656906],[-74.135491,40.656576],[-74.135854,40.656166],[-74.135711,40.655809],[-74.136437,40.654905],[-74.137195,40.654743],[-74.138093,40.65524],[-74.138238,40.655075],[-74.138742,40.655187],[-74.139177,40.654804],[-74.139361,40.654118],[-74.138965,40.654034],[-74.139004,40.653458],[-74.138501,40.653127],[-74.139365,40.653295],[-74.139224,40.65269],[-74.140413,40.652859],[-74.141064,40.652504],[-74.142151,40.651299]],[[-74.139744,40.649974],[-74.139708,40.649947],[-74.139708,40.649974],[-74.139744,40.649974]],[[-74.110742,40.69133],[-74.110816,40.691166],[-74.110707,40.691138],[-74.110742,40.69133]],[[-74.107638,40.691896],[-74.10771,40.691814],[-74.107638,40.691814],[-74.107638,40.691896]],[[-74.107711,40.691759],[-74.107783,40.691787],[-74.107783,40.691732],[-74.107711,40.691759]],[[-74.107783,40.691677],[-74.107891,40.691677],[-74.107892,40.691623],[-74.107783,40.691677]],[[-74.107891,40.691677],[-74.107927,40.691705],[-74.107927,40.691678],[-74.107891,40.691677]],[[-74.139816,40.649892],[-74.13978,40.649865],[-74.13978,40.649892],[-74.139816,40.649892]],[[-74.139889,40.64981],[-74.139853,40.649782],[-74.139853,40.64981],[-74.139889,40.64981]],[[-74.139852,40.649865],[-74.139852,40.649892],[-74.139852,40.649865],[-74.139852,40.649865]],[[-74.139925,40.649783],[-74.139925,40.64981],[-74.139925,40.649783],[-74.139925,40.649783]],[[-74.140539,40.64951],[-74.140755,40.649511],[-74.140755,40.649511],[-74.140539,40.64951]],[[-74.140912,40.649594],[-74.140899,40.649594],[-74.140899,40.649594],[-74.140912,40.649594]],[[-74.140971,40.649676],[-74.141007,40.649621],[-74.140971,40.649621],[-74.140971,40.649676]],[[-74.141186,40.649732],[-74.141151,40.649704],[-74.141115,40.649704],[-74.141114,40.649731],[-74.141186,40.649732]],[[-74.141402,40.649842],[-74.141366,40.649815],[-74.14133,40.649814],[-74.14133,40.649842],[-74.141402,40.649842]],[[-74.141473,40.650062],[-74.141364,40.650226],[-74.14158,40.65009],[-74.141473,40.650062]],[[-74.141364,40.650226],[-74.141328,40.650254],[-74.141364,40.650254],[-74.141364,40.650226]],[[-74.141509,40.650007],[-74.141509,40.650007],[-74.141509,40.650062],[-74.141509,40.650007]],[[-74.14151,40.649897],[-74.141474,40.649897],[-74.14151,40.649897],[-74.14151,40.649897]],[[-74.141833,40.650228],[-74.141833,40.650228],[-74.141869,40.650228],[-74.141833,40.650228]],[[-74.141901,40.650914],[-74.141901,40.650887],[-74.141901,40.650887],[-74.141901,40.650914]],[[-74.142084,40.650338],[-74.142048,40.650338],[-74.142048,40.650338],[-74.142084,40.650338]],[[-74.142046,40.650723],[-74.142046,40.650695],[-74.142046,40.650695],[-74.142046,40.650723]],[[-74.142119,40.650616],[-74.142119,40.650613],[-74.142119,40.650613],[-74.142119,40.650616]],[[-74.142192,40.650394],[-74.142156,40.650393],[-74.142156,40.650393],[-74.142192,40.650394]],[[-74.142191,40.650548],[-74.142191,40.650531],[-74.142191,40.650531],[-74.142191,40.650548]],[[-74.142264,40.650449],[-74.142228,40.650476],[-74.142264,40.650476],[-74.142264,40.650449]]],[[[-74.107658,40.669991],[-74.107694,40.669964],[-74.107694,40.669991],[-74.107658,40.669991]]],[[[-74.107658,40.670018],[-74.107622,40.669991],[-74.107658,40.669991],[-74.107658,40.670018]]],[[[-74.107622,40.670018],[-74.107586,40.670046],[-74.107586,40.670018],[-74.107622,40.670018]]],[[[-74.107585,40.670128],[-74.107549,40.670155],[-74.107549,40.670128],[-74.107585,40.670128]]],[[[-74.107583,40.670402],[-74.107548,40.670375],[-74.107584,40.670375],[-74.107583,40.670402]]],[[[-74.107583,40.670402],[-74.107655,40.67054],[-74.107619,40.67054],[-74.107583,40.670402]]],[[[-74.107239,40.692224],[-74.105942,40.691973],[-74.105871,40.691753],[-74.10976,40.692809],[-74.109792,40.693468],[-74.11012,40.69292],[-74.117428,40.695141],[-74.116046,40.697297],[-74.109645,40.693989],[-74.109032,40.693905],[-74.108962,40.693575],[-74.108423,40.693271],[-74.106768,40.692634],[-74.106768,40.692552],[-74.107057,40.69258],[-74.107491,40.692362],[-74.106985,40.692416],[-74.107239,40.692224]],[[-74.107239,40.692224],[-74.107311,40.69217],[-74.107239,40.692169],[-74.107239,40.692224]]],[[[-74.108996,40.693987],[-74.109606,40.694456],[-74.110615,40.694706],[-74.116009,40.697359],[-74.114232,40.700952],[-74.107675,40.697772],[-74.107968,40.697031],[-74.107647,40.696426],[-74.106678,40.695709],[-74.106934,40.694996],[-74.106138,40.695432],[-74.105382,40.69521],[-74.105201,40.695347],[-74.105848,40.695788],[-74.105774,40.696035],[-74.106244,40.695844],[-74.107143,40.696341],[-74.107286,40.696534],[-74.107358,40.696507],[-74.107607,40.697112],[-74.10746,40.697667],[-74.102852,40.695432],[-74.10304,40.694845],[-74.103727,40.694491],[-74.103693,40.694161],[-74.105182,40.692492],[-74.108527,40.693958],[-74.108996,40.693987]],[[-74.106934,40.694996],[-74.10697,40.694968],[-74.106934,40.694968],[-74.106934,40.694996]],[[-74.10697,40.694968],[-74.107007,40.694941],[-74.106971,40.694941],[-74.10697,40.694968]],[[-74.105202,40.695237],[-74.105166,40.695209],[-74.105166,40.695237],[-74.105202,40.695237]],[[-74.105201,40.695319],[-74.105165,40.695292],[-74.105165,40.695319],[-74.105201,40.695319]],[[-74.106963,40.696258],[-74.106927,40.696286],[-74.106963,40.696286],[-74.106963,40.696258]],[[-74.108995,40.694124],[-74.108959,40.694069],[-74.108887,40.694151],[-74.108995,40.694124]]],[[[-74.139142,40.647941],[-74.138605,40.647253],[-74.137092,40.647029],[-74.137094,40.646727],[-74.137347,40.646673],[-74.136735,40.646424],[-74.136375,40.646477],[-74.13641,40.646697],[-74.13587,40.646476],[-74.135112,40.646693],[-74.133456,40.646468],[-74.133274,40.646687],[-74.132121,40.646684],[-74.13187,40.646436],[-74.13158,40.646709],[-74.131582,40.646462],[-74.131258,40.646406],[-74.131225,40.645857],[-74.130792,40.645773],[-74.130647,40.645965],[-74.130361,40.645607],[-74.129569,40.645358],[-74.129715,40.645084],[-74.128922,40.645081],[-74.129101,40.645329],[-74.127623,40.645352],[-74.126901,40.645596],[-74.126289,40.645484],[-74.125747,40.645785],[-74.125709,40.646059],[-74.124881,40.646001],[-74.124337,40.646631],[-74.124048,40.64663],[-74.123838,40.645559],[-74.123441,40.645612],[-74.123259,40.645969],[-74.121168,40.646072],[-74.120338,40.646426],[-74.119937,40.647193],[-74.120184,40.6481],[-74.120035,40.648868],[-74.120322,40.649143],[-74.120396,40.648869],[-74.120576,40.648925],[-74.120817,40.650929],[-74.121283,40.651233],[-74.122869,40.651238],[-74.123661,40.651488],[-74.123987,40.651214],[-74.124092,40.651764],[-74.125062,40.652233],[-74.125024,40.652535],[-74.12553,40.652317],[-74.125315,40.652097],[-74.126143,40.652374],[-74.125636,40.652729],[-74.125886,40.653252],[-74.125346,40.653113],[-74.124948,40.653304],[-74.12495,40.652892],[-74.123007,40.652309],[-74.121818,40.652387],[-74.122535,40.652994],[-74.122932,40.652858],[-74.122892,40.653516],[-74.120807,40.652686],[-74.120481,40.65296],[-74.120622,40.653509],[-74.119973,40.653507],[-74.119826,40.653946],[-74.119287,40.653697],[-74.119573,40.654137],[-74.11932,40.654191],[-74.119318,40.654685],[-74.118887,40.654409],[-74.118705,40.654601],[-74.118591,40.655671],[-74.117255,40.656188],[-74.117218,40.656188],[-74.117183,40.65616],[-74.117183,40.656133],[-74.117111,40.656133],[-74.117111,40.656105],[-74.117003,40.656105],[-74.117326,40.656298],[-74.116566,40.656762],[-74.117252,40.65671],[-74.117753,40.657178],[-74.11815,40.657124],[-74.118474,40.65729],[-74.117965,40.65803],[-74.117278,40.658412],[-74.116882,40.658273],[-74.116704,40.657888],[-74.116524,40.65786],[-74.11638,40.65775],[-74.116381,40.657695],[-74.116273,40.657722],[-74.115877,40.657583],[-74.115842,40.657446],[-74.115481,40.657417],[-74.115302,40.657225],[-74.113827,40.656781],[-74.115948,40.657776],[-74.116882,40.658383],[-74.116624,40.659315],[-74.116946,40.659728],[-74.115935,40.659944],[-74.115934,40.660191],[-74.116438,40.660221],[-74.116724,40.660743],[-74.116219,40.660824],[-74.116361,40.661126],[-74.115892,40.661234],[-74.115962,40.661619],[-74.115528,40.661919],[-74.114987,40.661918],[-74.115025,40.661588],[-74.114088,40.66153],[-74.113546,40.661721],[-74.113513,40.661144],[-74.112756,40.661196],[-74.11232,40.661771],[-74.112534,40.662129],[-74.112102,40.662155],[-74.112389,40.662376],[-74.112241,40.663006],[-74.111267,40.663086],[-74.111517,40.663443],[-74.111012,40.663496],[-74.111298,40.664046],[-74.11072,40.664237],[-74.111041,40.664842],[-74.108607,40.667908],[-74.107731,40.669909],[-74.107697,40.669442],[-74.107696,40.669634],[-74.107225,40.669989],[-74.107112,40.67084],[-74.107439,40.670374],[-74.107546,40.670594],[-74.107654,40.670622],[-74.107872,40.670431],[-74.107943,40.670623],[-74.107146,40.671252],[-74.106854,40.67191],[-74.106348,40.672045],[-74.106092,40.672648],[-74.105805,40.672483],[-74.105987,40.672071],[-74.105303,40.671987],[-74.10476,40.672259],[-74.104474,40.671929],[-74.104149,40.671955],[-74.103496,40.672749],[-74.103964,40.672751],[-74.103708,40.673409],[-74.104212,40.673548],[-74.103527,40.67349],[-74.103598,40.67371],[-74.103273,40.673764],[-74.103241,40.673187],[-74.103024,40.673269],[-74.102334,40.674063],[-74.102404,40.674392],[-74.102044,40.674419],[-74.101752,40.674967],[-74.101391,40.675048],[-74.101249,40.674663],[-74.101684,40.674198],[-74.100714,40.673618],[-74.102119,40.673842],[-74.102229,40.673541],[-74.101623,40.672413],[-74.100722,40.6723],[-74.100508,40.672025],[-74.101301,40.672028],[-74.102276,40.671647],[-74.102239,40.671894],[-74.103103,40.672062],[-74.1026,40.67173],[-74.102856,40.671182],[-74.101881,40.671481],[-74.102173,40.670768],[-74.101202,40.670518],[-74.100592,40.670022],[-74.100375,40.670021],[-74.100373,40.67046],[-74.09914,40.671636],[-74.098997,40.671443],[-74.099325,40.670758],[-74.098462,40.670398],[-74.097811,40.670835],[-74.09774,40.670616],[-74.096909,40.670832],[-74.096731,40.670475],[-74.095975,40.670417],[-74.09662,40.670969],[-74.095576,40.670718],[-74.0955,40.671459],[-74.096867,40.671903],[-74.096906,40.671409],[-74.097159,40.671355],[-74.097335,40.672014],[-74.097839,40.672208],[-74.098344,40.672018],[-74.098126,40.672374],[-74.098596,40.672211],[-74.098593,40.672677],[-74.097765,40.672427],[-74.096755,40.672561],[-74.098445,40.673308],[-74.098368,40.674131],[-74.098041,40.674542],[-74.098365,40.674516],[-74.098838,40.673831],[-74.099451,40.673888],[-74.100129,40.675016],[-74.100233,40.675812],[-74.099866,40.676882],[-74.099612,40.677073],[-74.098892,40.676961],[-74.099105,40.677455],[-74.098381,40.67792],[-74.099105,40.677538],[-74.099606,40.678061],[-74.099317,40.678252],[-74.098451,40.678249],[-74.097728,40.678631],[-74.097582,40.678905],[-74.098049,40.679236],[-74.098011,40.679483],[-74.097401,40.679042],[-74.097328,40.679234],[-74.096788,40.679067],[-74.097183,40.679288],[-74.097074,40.679452],[-74.096497,40.679423],[-74.096496,40.67967],[-74.097935,40.680087],[-74.097896,40.680594],[-74.095343,40.67951],[-74.095199,40.679418],[-74.095164,40.679336],[-74.095854,40.678377],[-74.097077,40.678848],[-74.097439,40.678767],[-74.09744,40.678548],[-74.097222,40.678739],[-74.095928,40.678213],[-74.096035,40.678351],[-74.095494,40.678404],[-74.094655,40.679224],[-74.065716,40.66704],[-74.066645,40.665962],[-74.067988,40.666536],[-74.068218,40.6663],[-74.070086,40.667095],[-74.069986,40.667403],[-74.07263,40.668179],[-74.072508,40.66853],[-74.073901,40.669306],[-74.074973,40.669442],[-74.075104,40.669668],[-74.079084,40.671365],[-74.079667,40.671059],[-74.085286,40.67346],[-74.085162,40.673745],[-74.086261,40.675158],[-74.087643,40.675775],[-74.088146,40.675869],[-74.089359,40.675481],[-74.090193,40.676042],[-74.090651,40.675707],[-74.091274,40.675841],[-74.092198,40.67531],[-74.091857,40.674951],[-74.094968,40.67594],[-74.095895,40.67545],[-74.096426,40.67466],[-74.095805,40.674256],[-74.094067,40.673952],[-74.091514,40.672507],[-74.089712,40.672309],[-74.081944,40.669638],[-74.08203,40.669515],[-74.076129,40.667217],[-74.071439,40.66503],[-74.071346,40.665162],[-74.068232,40.663839],[-74.069456,40.662148],[-74.069766,40.662205],[-74.070046,40.661835],[-74.069839,40.661628],[-74.070701,40.660867],[-74.070557,40.660662],[-74.076928,40.663539],[-74.088195,40.667481],[-74.097682,40.669075],[-74.100341,40.669348],[-74.100914,40.669186],[-74.10135,40.669416],[-74.10098,40.669294],[-74.100936,40.669499],[-74.102885,40.669552],[-74.103432,40.669858],[-74.104972,40.669953],[-74.105304,40.669732],[-74.105445,40.670091],[-74.106528,40.670382],[-74.10696,40.670167],[-74.107615,40.669147],[-74.105718,40.668902],[-74.104914,40.669089],[-74.103569,40.668697],[-74.102598,40.668545],[-74.102106,40.668721],[-74.101522,40.66851],[-74.100838,40.667833],[-74.099674,40.667277],[-74.098123,40.665584],[-74.097067,40.665098],[-74.097044,40.664808],[-74.097391,40.664564],[-74.097268,40.664261],[-74.096972,40.664525],[-74.096508,40.664427],[-74.096455,40.664814],[-74.096948,40.665046],[-74.096759,40.665192],[-74.095884,40.665121],[-74.09588,40.664125],[-74.094898,40.664074],[-74.094011,40.664769],[-74.093515,40.66479],[-74.092589,40.664366],[-74.09247,40.664629],[-74.091405,40.66466],[-74.091088,40.664441],[-74.090897,40.664732],[-74.091333,40.664908],[-74.089528,40.66491],[-74.089516,40.664094],[-74.090591,40.664097],[-74.090757,40.663909],[-74.09072,40.663302],[-74.091203,40.662621],[-74.090888,40.661512],[-74.091371,40.662562],[-74.09132,40.66206],[-74.090872,40.660418],[-74.089957,40.65894],[-74.089817,40.658173],[-74.089086,40.657625],[-74.088852,40.656329],[-74.088306,40.656226],[-74.088403,40.655691],[-74.08605,40.655497],[-74.087468,40.653667],[-74.09342,40.650165],[-74.094791,40.649641],[-74.097783,40.649233],[-74.099329,40.649285],[-74.101117,40.649779],[-74.101628,40.649646],[-74.102815,40.649804],[-74.102824,40.650365],[-74.10359,40.650617],[-74.103832,40.650613],[-74.104077,40.64996],[-74.105686,40.650119],[-74.105599,40.650711],[-74.105925,40.651034],[-74.106727,40.651069],[-74.107142,40.651329],[-74.107394,40.651342],[-74.107578,40.650265],[-74.108468,40.650301],[-74.108451,40.650708],[-74.111375,40.650989],[-74.112966,40.650925],[-74.114045,40.65189],[-74.114403,40.651657],[-74.114011,40.65088],[-74.115447,40.65274],[-74.115889,40.652871],[-74.1165,40.652589],[-74.115038,40.650386],[-74.116445,40.652148],[-74.116801,40.65191],[-74.115059,40.649532],[-74.115843,40.649215],[-74.116241,40.649535],[-74.117098,40.648832],[-74.118644,40.64842],[-74.119002,40.647539],[-74.120136,40.646109],[-74.125303,40.645306],[-74.125782,40.645068],[-74.126098,40.64519],[-74.128425,40.644838],[-74.130745,40.64512],[-74.131048,40.644945],[-74.132858,40.645202],[-74.133579,40.645044],[-74.135897,40.645193],[-74.136796,40.645649],[-74.137508,40.645309],[-74.140314,40.644818],[-74.141108,40.644267],[-74.13983,40.647367],[-74.139503,40.647887],[-74.139142,40.647941]],[[-74.129715,40.645166],[-74.129751,40.645194],[-74.129751,40.645166],[-74.129715,40.645166]],[[-74.11815,40.657152],[-74.118114,40.657179],[-74.11815,40.657179],[-74.11815,40.657152]],[[-74.118114,40.657179],[-74.118078,40.657206],[-74.118114,40.657207],[-74.118114,40.657179]],[[-74.118365,40.657372],[-74.118329,40.657345],[-74.118329,40.657372],[-74.118365,40.657372]],[[-74.116596,40.657833],[-74.11656,40.657805],[-74.11656,40.657833],[-74.116596,40.657833]],[[-74.116452,40.657778],[-74.116525,40.65775],[-74.116453,40.65775],[-74.116452,40.657778]],[[-74.116345,40.657695],[-74.116309,40.657667],[-74.116309,40.657695],[-74.116345,40.657695]],[[-74.1153,40.657554],[-74.115228,40.657581],[-74.1153,40.657609],[-74.1153,40.657554]],[[-74.115228,40.657554],[-74.115192,40.657526],[-74.115192,40.657554],[-74.115228,40.657554]],[[-74.1153,40.657609],[-74.115372,40.657637],[-74.115372,40.657609],[-74.1153,40.657609]],[[-74.116055,40.657913],[-74.116019,40.657941],[-74.116055,40.657941],[-74.116055,40.657913]],[[-74.116379,40.658079],[-74.116342,40.658107],[-74.116378,40.658107],[-74.116379,40.658079]],[[-74.114088,40.66153],[-74.114052,40.661503],[-74.114052,40.66153],[-74.114088,40.66153]],[[-74.107697,40.669442],[-74.107661,40.669414],[-74.107661,40.669442],[-74.107697,40.669442]],[[-74.107661,40.669524],[-74.107624,40.669552],[-74.107661,40.669552],[-74.107661,40.669524]],[[-74.107152,40.670264],[-74.107115,40.670318],[-74.107151,40.670319],[-74.107152,40.670264]],[[-74.106638,40.671854],[-74.106602,40.671826],[-74.106601,40.671854],[-74.106638,40.671854]],[[-74.103495,40.672804],[-74.103423,40.672776],[-74.103423,40.672831],[-74.103495,40.672804]],[[-74.103241,40.673187],[-74.103277,40.67316],[-74.103241,40.67316],[-74.103241,40.673187]],[[-74.097976,40.679291],[-74.09794,40.679263],[-74.09794,40.679291],[-74.097976,40.679291]],[[-74.09794,40.679263],[-74.097904,40.679236],[-74.097904,40.679263],[-74.09794,40.679263]],[[-74.097904,40.679236],[-74.097869,40.679208],[-74.097868,40.679235],[-74.097904,40.679236]],[[-74.097329,40.679041],[-74.097293,40.679014],[-74.097293,40.679041],[-74.097329,40.679041]],[[-74.09646,40.679532],[-74.096425,40.679505],[-74.096424,40.679532],[-74.09646,40.679532]],[[-74.096531,40.67978],[-74.095883,40.679585],[-74.09581,40.679695],[-74.096531,40.67978]],[[-74.095235,40.679418],[-74.095272,40.679364],[-74.095235,40.679363],[-74.095235,40.679418]],[[-74.096612,40.67838],[-74.096648,40.678353],[-74.096612,40.678353],[-74.096612,40.67838]],[[-74.096396,40.678297],[-74.096432,40.67827],[-74.096396,40.67827],[-74.096396,40.678297]],[[-74.095964,40.678213],[-74.096,40.678186],[-74.095964,40.678186],[-74.095964,40.678213]]],[[[-74.107261,40.670017],[-74.107297,40.670045],[-74.107261,40.670099],[-74.107261,40.670017]]],[[[-74.107261,40.670127],[-74.107224,40.670182],[-74.107225,40.670127],[-74.107261,40.670127]]],[[[-74.107548,40.67021],[-74.107512,40.670237],[-74.107512,40.67021],[-74.107548,40.67021]]],[[[-74.106817,40.671937],[-74.106781,40.671992],[-74.106781,40.671937],[-74.106817,40.671937]]],[[[-74.106781,40.672047],[-74.106744,40.672074],[-74.106745,40.672047],[-74.106781,40.672047]]],[[[-74.096287,40.678461],[-74.096322,40.678489],[-74.096286,40.678489],[-74.096287,40.678461]]],[[[-74.095673,40.678514],[-74.095637,40.678486],[-74.095673,40.678487],[-74.095673,40.678514]]],[[[-74.095637,40.678514],[-74.095601,40.678541],[-74.095601,40.678514],[-74.095637,40.678514]]],[[[-74.095601,40.678596],[-74.095565,40.678569],[-74.095601,40.678569],[-74.095601,40.678596]]],[[[-74.097367,40.67874],[-74.097331,40.678685],[-74.097367,40.678685],[-74.097367,40.67874]]],[[[-74.097114,40.678794],[-74.097042,40.678766],[-74.097114,40.678766],[-74.097114,40.678794]]],[[[-74.097435,40.679399],[-74.097254,40.679508],[-74.097218,40.679453],[-74.097435,40.679399]]],[[[-74.09837,40.679759],[-74.098045,40.679812],[-74.09801,40.679593],[-74.09837,40.679759]]],[[[-74.098261,40.67995],[-74.098333,40.679978],[-74.098261,40.679978],[-74.098261,40.67995]]],[[[-74.106861,40.695133],[-74.106825,40.695105],[-74.106861,40.695105],[-74.106861,40.695133]]]]}}]}