{"type":"FeatureCollection","features":[{"type":"Feature","properties":{"level_ft":15},"geometry":{"type":"MultiPolygon","coordinates":[[[[-74.158263,40.644019],[-74.158263,40.644031],[-74.158248,40.644019],[-74.158263,40.644019]]],[[[-74.158282,40.644046],[-74.161391,40.644357],[-74.161303,40.645451],[-74.160077,40.645246],[-74.160206,40.644951],[-74.159668,40.644486],[-74.159018,40.644694],[-74.159247,40.644938],[-74.158912,40.644855],[-74.158282,40.644046]]],[[[-74.119783,40.655318],[-74.119746,40.655345],[-74.119747,40.655318],[-74.119783,40.655318]]],[[[-74.119594,40.656855],[-74.119629,40.656882],[-74.119593,40.656882],[-74.119594,40.656855]]],[[[-74.119376,40.657128],[-74.119412,40.657101],[-74.119412,40.657129],[-74.119376,40.657128]]],[[[-74.119303,40.65721],[-74.119339,40.657183],[-74.119339,40.657211],[-74.119303,40.65721]]],[[[-74.119267,40.657265],[-74.119303,40.657238],[-74.119303,40.657265],[-74.119267,40.657265]]],[[[-74.119231,40.657265],[-74.119195,40.657238],[-74.119231,40.657238],[-74.119231,40.657265]]],[[[-74.119231,40.657293],[-74.119267,40.65732],[-74.119231,40.65732],[-74.119231,40.657293]]],[[[-74.119194,40.657375],[-74.119158,40.65743],[-74.119158,40.657375],[-74.119194,40.657375]]],[[[-74.119158,40.65743],[-74.119122,40.657457],[-74.119122,40.657429],[-74.119158,40.65743]]],[[[-74.119121,40.657484],[-74.119086,40.657457],[-74.119122,40.657457],[-74.119121,40.657484]]],[[[-74.119049,40.657539],[-74.119085,40.657484],[-74.119085,40.657539],[-74.119049,40.657539]]],[[[-74.119013,40.657539],[-74.119049,40.657621],[-74.118976,40.657649],[-74.119013,40.657539]]],[[[-74.11894,40.657676],[-74.118976,40.657649],[-74.118976,40.657676],[-74.11894,40.657676]]],[[[-74.11894,40.657676],[-74.118867,40.65784],[-74.118795,40.657868],[-74.11894,40.657676]]],[[[-74.118723,40.657895],[-74.118795,40.657923],[-74.118722,40.65795],[-74.118723,40.657895]]],[[[-74.118722,40.658005],[-74.11865,40.657977],[-74.118722,40.65795],[-74.118722,40.658005]]],[[[-74.118396,40.658278],[-74.118468,40.658306],[-74.118396,40.658333],[-74.118396,40.658278]]],[[[-74.118395,40.658388],[-74.118323,40.65836],[-74.118396,40.658333],[-74.118395,40.658388]]],[[[-74.129195,40.65436],[-74.129659,40.655213],[-74.129405,40.655459],[-74.129694,40.655515],[-74.130158,40.65623],[-74.130913,40.656617],[-74.130803,40.656864],[-74.130084,40.656532],[-74.129579,40.656695],[-74.129219,40.656502],[-74.129293,40.65631],[-74.128573,40.65606],[-74.12814,40.656251],[-74.12789,40.655839],[-74.12735,40.655645],[-74.127419,40.656166],[-74.125835,40.655914],[-74.126913,40.656522],[-74.127019,40.656796],[-74.125581,40.65616],[-74.125112,40.656159],[-74.125147,40.656379],[-74.124931,40.656378],[-74.125362,40.656626],[-74.125361,40.656873],[-74.124785,40.656625],[-74.124712,40.656899],[-74.125718,40.657396],[-74.126184,40.657947],[-74.125284,40.657752],[-74.124669,40.658079],[-74.124128,40.658077],[-74.123372,40.65791],[-74.123122,40.65758],[-74.122295,40.657248],[-74.122328,40.657824],[-74.121536,40.657575],[-74.121318,40.657903],[-74.120813,40.657929],[-74.121027,40.658424],[-74.120018,40.658283],[-74.120158,40.658998],[-74.119327,40.659297],[-74.119506,40.659544],[-74.119795,40.659491],[-74.119864,40.659957],[-74.119468,40.659846],[-74.11925,40.660148],[-74.118855,40.660036],[-74.119139,40.660779],[-74.118272,40.661133],[-74.118129,40.660912],[-74.117912,40.661049],[-74.118413,40.661627],[-74.11726,40.661568],[-74.116968,40.662171],[-74.116535,40.66228],[-74.116714,40.662527],[-74.115992,40.66258],[-74.115741,40.662359],[-74.120206,40.656939],[-74.121799,40.655709],[-74.123678,40.654864],[-74.126024,40.654323],[-74.12725,40.654244],[-74.127212,40.654546],[-74.127933,40.654548],[-74.128362,40.655071],[-74.129049,40.654662],[-74.128979,40.65436],[-74.129195,40.65436]],[[-74.128796,40.654826],[-74.128832,40.654853],[-74.128832,40.654826],[-74.128796,40.654826]],[[-74.128941,40.654744],[-74.128977,40.654771],[-74.128977,40.654744],[-74.128941,40.654744]]],[[[-74.118106,40.658634],[-74.118178,40.658662],[-74.118105,40.658689],[-74.118106,40.658634]]],[[[-74.118069,40.658689],[-74.118105,40.658744],[-74.118069,40.658744],[-74.118069,40.658689]]],[[[-74.118033,40.658744],[-74.118069,40.658799],[-74.118033,40.658798],[-74.118033,40.658744]]],[[[-74.117996,40.658826],[-74.118033,40.658798],[-74.118032,40.658826],[-74.117996,40.658826]]],[[[-74.11796,40.658881],[-74.117996,40.658853],[-74.117996,40.658881],[-74.11796,40.658881]]],[[[-74.11796,40.658908],[-74.117924,40.658963],[-74.117924,40.658908],[-74.11796,40.658908]]],[[[-74.117924,40.658963],[-74.117887,40.659018],[-74.117887,40.658963],[-74.117924,40.658963]]],[[[-74.112151,40.666136],[-74.112187,40.666163],[-74.112151,40.666163],[-74.112151,40.666136]]],[[[-74.112114,40.66619],[-74.112151,40.666163],[-74.11215,40.66619],[-74.112114,40.66619]]],[[[-74.112078,40.666163],[-74.112006,40.6663],[-74.111969,40.6663],[-74.111969,40.666355],[-74.111752,40.666546],[-74.112187,40.666026],[-74.112151,40.666136],[-74.112078,40.666163]]],[[[-74.112041,40.666327],[-74.112006,40.6663],[-74.112042,40.6663],[-74.112041,40.666327]]],[[[-74.11186,40.666491],[-74.111932,40.666519],[-74.11186,40.666519],[-74.11186,40.666491]]],[[[-74.111788,40.666574],[-74.111824,40.666601],[-74.111787,40.666601],[-74.111788,40.666574]]],[[[-74.111787,40.666628],[-74.111751,40.666656],[-74.111751,40.666628],[-74.111787,40.666628]]],[[[-74.111751,40.666601],[-74.111534,40.666792],[-74.111752,40.666546],[-74.111751,40.666601]]],[[[-74.111751,40.666738],[-74.111715,40.666656],[-74.111751,40.666656],[-74.111751,40.666738]]],[[[-74.111606,40.666793],[-74.111678,40.66682],[-74.111606,40.66682],[-74.111606,40.666793]]],[[[-74.14726,40.655124],[-74.142721,40.658943],[-74.140573,40.661318],[-74.132507,40.672932],[-74.125251,40.68406],[-74.120322,40.69066],[-74.117554,40.694949],[-74.106161,40.691507],[-74.107531,40.691566],[-74.108366,40.690636],[-74.107325,40.689946],[-74.107617,40.689316],[-74.108775,40.688661],[-74.109279,40.688745],[-74.109825,40.687868],[-74.10972,40.687292],[-74.110081,40.687238],[-74.110952,40.686362],[-74.111385,40.686309],[-74.111928,40.685872],[-74.112297,40.684391],[-74.111865,40.684279],[-74.11183,40.68406],[-74.112011,40.68395],[-74.112442,40.684226],[-74.11357,40.682556],[-74.113212,40.682088],[-74.113788,40.682227],[-74.11477,40.680748],[-74.114702,40.680089],[-74.113983,40.679785],[-74.11402,40.67962],[-74.114884,40.679815],[-74.115575,40.678692],[-74.116477,40.678722],[-74.116769,40.67801],[-74.117275,40.677819],[-74.118617,40.676396],[-74.121294,40.67484],[-74.122131,40.673443],[-74.121844,40.673305],[-74.122387,40.672867],[-74.122172,40.672537],[-74.122895,40.672238],[-74.122861,40.671991],[-74.123221,40.671964],[-74.123548,40.671581],[-74.124095,40.670512],[-74.12399,40.669798],[-74.124531,40.669882],[-74.123743,40.668946],[-74.124391,40.669113],[-74.125004,40.669005],[-74.124648,40.668263],[-74.12526,40.66843],[-74.125802,40.668267],[-74.126563,40.667528],[-74.126421,40.667171],[-74.125593,40.666839],[-74.125164,40.666233],[-74.126281,40.666264],[-74.12632,40.66588],[-74.127399,40.666186],[-74.128055,40.66498],[-74.128777,40.664845],[-74.129356,40.664325],[-74.129829,40.663531],[-74.13048,40.663176],[-74.130846,40.662271],[-74.131785,40.661972],[-74.131606,40.66167],[-74.132041,40.661287],[-74.132008,40.66071],[-74.132333,40.660629],[-74.132663,40.659615],[-74.133096,40.659534],[-74.134945,40.657536],[-74.135091,40.657261],[-74.134838,40.657288],[-74.134803,40.657068],[-74.13571,40.656083],[-74.135898,40.654684],[-74.137449,40.654469],[-74.137776,40.653839],[-74.137381,40.653563],[-74.137277,40.652821],[-74.137168,40.653068],[-74.136555,40.653066],[-74.136846,40.652655],[-74.136704,40.652271],[-74.137426,40.651971],[-74.13714,40.651613],[-74.13743,40.651202],[-74.137393,40.651449],[-74.137752,40.651615],[-74.138079,40.651259],[-74.137864,40.651011],[-74.138333,40.650931],[-74.138337,40.650135],[-74.138914,40.650081],[-74.138701,40.649422],[-74.140045,40.64745],[-74.141323,40.644352],[-74.141982,40.64453],[-74.14188,40.644033],[-74.14375,40.643792],[-74.163014,40.645898],[-74.15809,40.649737],[-74.14726,40.655124]]],[[[-74.106373,40.692386],[-74.106446,40.692167],[-74.105583,40.691724],[-74.106052,40.691671],[-74.117428,40.695143],[-74.116046,40.697297],[-74.109861,40.694127],[-74.109032,40.693905],[-74.108459,40.693326],[-74.107954,40.693242],[-74.106408,40.692496],[-74.106373,40.692386]],[[-74.106481,40.692277],[-74.106517,40.692304],[-74.106517,40.692277],[-74.106481,40.692277]],[[-74.106408,40.692441],[-74.106481,40.692414],[-74.106408,40.692414],[-74.106408,40.692441]]],[[[-74.111642,40.666848],[-74.111569,40.66693],[-74.11157,40.666847],[-74.111642,40.666848]]],[[[-74.111389,40.666956],[-74.111425,40.666984],[-74.111389,40.666984],[-74.111389,40.666956]]],[[[-74.111569,40.66693],[-74.111352,40.667176],[-74.111425,40.666984],[-74.111569,40.66693]]],[[[-74.111207,40.667175],[-74.111062,40.66734],[-74.111135,40.667175],[-74.111207,40.667175]]],[[[-74.11117,40.667368],[-74.111351,40.667203],[-74.110952,40.667669],[-74.110917,40.667586],[-74.111025,40.667532],[-74.11117,40.667368]]],[[[-74.110808,40.667668],[-74.110917,40.667449],[-74.110989,40.667449],[-74.110808,40.667668]]],[[[-74.110624,40.668272],[-74.11066,40.668244],[-74.11066,40.668272],[-74.110624,40.668272]]],[[[-74.110406,40.668518],[-74.110443,40.668491],[-74.110442,40.668518],[-74.110406,40.668518]]],[[[-74.110334,40.668627],[-74.110297,40.668655],[-74.110298,40.668627],[-74.110334,40.668627]]],[[[-74.110843,40.667806],[-74.110624,40.668244],[-74.110334,40.66849],[-74.11037,40.668628],[-74.110298,40.6686],[-74.110261,40.668655],[-74.110297,40.66871],[-74.110225,40.668682],[-74.110225,40.668709],[-74.110189,40.668709],[-74.110189,40.668737],[-74.110153,40.668737],[-74.110116,40.668846],[-74.11008,40.668846],[-74.11008,40.668874],[-74.110044,40.668873],[-74.110044,40.668901],[-74.110008,40.668901],[-74.110007,40.668956],[-74.109971,40.668956],[-74.109971,40.66901],[-74.109899,40.669038],[-74.109826,40.669175],[-74.109754,40.669202],[-74.109717,40.669312],[-74.109645,40.669339],[-74.109644,40.669394],[-74.109608,40.669394],[-74.109608,40.669448],[-74.109536,40.669476],[-74.109499,40.669585],[-74.109427,40.669613],[-74.109319,40.669502],[-74.109211,40.669557],[-74.110699,40.667723],[-74.110843,40.667806]],[[-74.110588,40.668244],[-74.110552,40.668216],[-74.110552,40.668244],[-74.110588,40.668244]],[[-74.109499,40.66953],[-74.109463,40.669503],[-74.109463,40.66953],[-74.109499,40.66953]],[[-74.109319,40.669502],[-74.109355,40.669475],[-74.109319,40.669475],[-74.109319,40.669502]],[[-74.109355,40.669475],[-74.109392,40.66942],[-74.109356,40.66942],[-74.109355,40.669475]],[[-74.109392,40.66942],[-74.109428,40.669393],[-74.109392,40.669393],[-74.109392,40.66942]],[[-74.110771,40.667778],[-74.110735,40.667805],[-74.110771,40.667805],[-74.110771,40.667778]],[[-74.110735,40.667805],[-74.110699,40.66786],[-74.110735,40.66786],[-74.110735,40.667805]],[[-74.110699,40.66786],[-74.110662,40.667915],[-74.110698,40.667915],[-74.110699,40.66786]],[[-74.110662,40.667915],[-74.110626,40.667942],[-74.110662,40.667942],[-74.110662,40.667915]],[[-74.110626,40.667942],[-74.11059,40.667997],[-74.110626,40.667997],[-74.110626,40.667942]],[[-74.11059,40.667997],[-74.110554,40.668024],[-74.11059,40.668024],[-74.11059,40.667997]],[[-74.110554,40.668024],[-74.110517,40.668052],[-74.110553,40.668052],[-74.110554,40.668024]]],[[[-74.110261,40.668737],[-74.110225,40.668709],[-74.110261,40.66871],[-74.110261,40.668737]]],[[[-74.110189,40.668764],[-74.110225,40.668737],[-74.110225,40.668764],[-74.110189,40.668764]]],[[[-74.110152,40.668819],[-74.110189,40.668792],[-74.110188,40.668819],[-74.110152,40.668819]]],[[[-74.110152,40.668874],[-74.110116,40.668846],[-74.110152,40.668846],[-74.110152,40.668874]]],[[[-74.110116,40.668901],[-74.11008,40.668874],[-74.110116,40.668874],[-74.110116,40.668901]]],[[[-74.110043,40.668983],[-74.110007,40.668956],[-74.110043,40.668956],[-74.110043,40.668983]]],[[[-74.109971,40.669038],[-74.110007,40.669011],[-74.110007,40.669038],[-74.109971,40.669038]]],[[[-74.109898,40.66912],[-74.109934,40.669093],[-74.109934,40.66912],[-74.109898,40.66912]]],[[[-74.109862,40.669202],[-74.109826,40.669175],[-74.109862,40.669175],[-74.109862,40.669202]]],[[[-74.109753,40.669339],[-74.109717,40.669312],[-74.109753,40.669312],[-74.109753,40.669339]]],[[[-74.10968,40.669421],[-74.109644,40.669394],[-74.10968,40.669394],[-74.10968,40.669421]]],[[[-74.109608,40.669476],[-74.109644,40.669449],[-74.109644,40.669476],[-74.109608,40.669476]]],[[[-74.109535,40.669558],[-74.109571,40.669531],[-74.109571,40.669558],[-74.109535,40.669558]]],[[[-74.109535,40.669613],[-74.109499,40.669585],[-74.109535,40.669585],[-74.109535,40.669613]]],[[[-74.109353,40.669832],[-74.109317,40.669804],[-74.109353,40.669804],[-74.109353,40.669832]]],[[[-74.109317,40.669859],[-74.109281,40.669832],[-74.109317,40.669832],[-74.109317,40.669859]]],[[[-74.109245,40.669914],[-74.109281,40.669887],[-74.109281,40.669914],[-74.109245,40.669914]]],[[[-74.109208,40.669941],[-74.109245,40.669914],[-74.109244,40.669941],[-74.109208,40.669941]]],[[[-74.109208,40.669969],[-74.109172,40.669996],[-74.109172,40.669969],[-74.109208,40.669969]]],[[[-74.109136,40.670078],[-74.1091,40.670051],[-74.109136,40.670051],[-74.109136,40.670078]]],[[[-74.109099,40.670133],[-74.109063,40.670105],[-74.109099,40.670106],[-74.109099,40.670133]]],[[[-74.109027,40.67016],[-74.109063,40.670133],[-74.109063,40.67016],[-74.109027,40.67016]]],[[[-74.109027,40.670215],[-74.108991,40.670188],[-74.109027,40.670188],[-74.109027,40.670215]]],[[[-74.108954,40.670297],[-74.108918,40.67027],[-74.108954,40.67027],[-74.108954,40.670297]]],[[[-74.108918,40.670325],[-74.108882,40.670297],[-74.108918,40.670297],[-74.108918,40.670325]]],[[[-74.108882,40.670352],[-74.108845,40.670379],[-74.108846,40.670352],[-74.108882,40.670352]]],[[[-74.107251,40.671829],[-74.107287,40.671801],[-74.107287,40.671829],[-74.107251,40.671829]]],[[[-74.107356,40.672213],[-74.107393,40.672186],[-74.107393,40.672213],[-74.107356,40.672213]]],[[[-74.107356,40.672241],[-74.10732,40.672213],[-74.107356,40.672213],[-74.107356,40.672241]]],[[[-74.109248,40.694098],[-74.109714,40.694484],[-74.110615,40.694706],[-74.116009,40.697359],[-74.114232,40.700952],[-74.107675,40.697772],[-74.10793,40.697387],[-74.107826,40.696756],[-74.106642,40.695544],[-74.106244,40.695844],[-74.106568,40.695983],[-74.107358,40.696507],[-74.107639,40.697754],[-74.102852,40.695432],[-74.102547,40.694734],[-74.102859,40.694954],[-74.103296,40.69427],[-74.104165,40.693696],[-74.104855,40.692847],[-74.10493,40.692354],[-74.109248,40.694098]],[[-74.106317,40.695707],[-74.106281,40.69568],[-74.106281,40.695707],[-74.106317,40.695707]],[[-74.106963,40.696258],[-74.106927,40.696286],[-74.106963,40.696286],[-74.106963,40.696258]],[[-74.108995,40.694124],[-74.108959,40.694069],[-74.108923,40.694124],[-74.108995,40.694124]]],[[[-74.139466,40.647997],[-74.13903,40.648627],[-74.138705,40.648653],[-74.138888,40.648242],[-74.138311,40.648213],[-74.137917,40.6478],[-74.137304,40.647935],[-74.13727,40.647523],[-74.136226,40.647273],[-74.135973,40.647492],[-74.135866,40.647244],[-74.135254,40.647188],[-74.135107,40.647599],[-74.134712,40.647378],[-74.134063,40.647403],[-74.133844,40.648007],[-74.133627,40.647979],[-74.133486,40.647429],[-74.132473,40.648194],[-74.132223,40.647809],[-74.131358,40.647834],[-74.131145,40.647229],[-74.130352,40.647227],[-74.12996,40.646347],[-74.130143,40.645964],[-74.129604,40.645632],[-74.129062,40.645878],[-74.128811,40.645712],[-74.128053,40.645847],[-74.12773,40.645626],[-74.127657,40.645873],[-74.127043,40.645981],[-74.126897,40.646337],[-74.12643,40.646144],[-74.125775,40.647212],[-74.12444,40.647427],[-74.123936,40.647398],[-74.123865,40.647206],[-74.123612,40.647425],[-74.123252,40.647259],[-74.123068,40.648027],[-74.122384,40.647778],[-74.122421,40.647613],[-74.122853,40.647642],[-74.122747,40.647422],[-74.122206,40.64742],[-74.122132,40.647722],[-74.121594,40.647336],[-74.121052,40.647581],[-74.121083,40.648515],[-74.121406,40.648735],[-74.121444,40.648296],[-74.121949,40.648298],[-74.122089,40.648957],[-74.121547,40.64923],[-74.12151,40.649477],[-74.120898,40.6492],[-74.121221,40.649586],[-74.12187,40.649478],[-74.122229,40.649754],[-74.122735,40.649536],[-74.122592,40.649261],[-74.122917,40.649152],[-74.123527,40.649675],[-74.124069,40.649403],[-74.124247,40.649815],[-74.124642,40.649981],[-74.124496,40.650392],[-74.125071,40.650724],[-74.124961,40.650943],[-74.125393,40.651081],[-74.125392,40.651274],[-74.125753,40.651138],[-74.125824,40.65133],[-74.126221,40.651331],[-74.126507,40.651744],[-74.127477,40.652214],[-74.127875,40.65205],[-74.128122,40.652875],[-74.129526,40.653154],[-74.130284,40.653074],[-74.131615,40.653462],[-74.129452,40.65351],[-74.129198,40.653949],[-74.128945,40.653948],[-74.12884,40.653508],[-74.127831,40.653478],[-74.127324,40.653888],[-74.125304,40.654073],[-74.121911,40.654941],[-74.121119,40.654773],[-74.119892,40.655044],[-74.119353,40.65485],[-74.119313,40.655481],[-74.11953,40.65529],[-74.119747,40.65529],[-74.119453,40.65625],[-74.119849,40.656279],[-74.119922,40.656169],[-74.120102,40.656143],[-74.120174,40.65617],[-74.119704,40.656443],[-74.118578,40.658004],[-74.118613,40.658142],[-74.11836,40.65825],[-74.11825,40.65858],[-74.11807,40.658606],[-74.117452,40.659483],[-74.11724,40.658659],[-74.116704,40.657888],[-74.115013,40.657306],[-74.116128,40.657831],[-74.116882,40.658355],[-74.117238,40.659153],[-74.117015,40.66025],[-74.114547,40.663206],[-74.11368,40.663451],[-74.113465,40.663258],[-74.112564,40.6632],[-74.112886,40.663722],[-74.112092,40.663747],[-74.112162,40.664159],[-74.111729,40.664295],[-74.111944,40.66446],[-74.111798,40.664817],[-74.111437,40.664816],[-74.110382,40.666541],[-74.108388,40.668484],[-74.108205,40.668895],[-74.108455,40.669307],[-74.107987,40.669278],[-74.107877,40.669525],[-74.108163,40.669883],[-74.108091,40.669992],[-74.108593,40.670351],[-74.109138,40.669694],[-74.109317,40.669804],[-74.109245,40.669832],[-74.109136,40.669968],[-74.109172,40.670051],[-74.1091,40.670023],[-74.108991,40.670133],[-74.108955,40.670187],[-74.10899,40.67027],[-74.108918,40.670242],[-74.108846,40.670297],[-74.1079,40.671749],[-74.107719,40.671803],[-74.107682,40.672105],[-74.106852,40.672184],[-74.107034,40.671938],[-74.106998,40.671855],[-74.107359,40.671829],[-74.106963,40.671663],[-74.106744,40.672211],[-74.107211,40.672432],[-74.106994,40.672542],[-74.106849,40.672706],[-74.106884,40.672788],[-74.106812,40.67276],[-74.106776,40.672815],[-74.10674,40.672815],[-74.106776,40.672898],[-74.106704,40.67287],[-74.106667,40.672897],[-74.106703,40.67298],[-74.106631,40.672952],[-74.106631,40.672979],[-74.106595,40.672979],[-74.106558,40.673062],[-74.106594,40.673144],[-74.10645,40.673144],[-74.106449,40.673336],[-74.106049,40.673774],[-74.105941,40.673773],[-74.105941,40.673801],[-74.105905,40.673801],[-74.105941,40.673883],[-74.105541,40.674376],[-74.10536,40.674567],[-74.105288,40.67454],[-74.105288,40.674567],[-74.105252,40.674567],[-74.105287,40.674649],[-74.105143,40.674704],[-74.105178,40.674786],[-74.105106,40.674759],[-74.10507,40.674786],[-74.105069,40.674923],[-74.104888,40.675005],[-74.104924,40.675087],[-74.104888,40.67506],[-74.104852,40.675087],[-74.104816,40.675087],[-74.104851,40.675169],[-74.104779,40.675142],[-74.104743,40.675169],[-74.104707,40.675224],[-74.104742,40.675306],[-74.10467,40.675279],[-74.10467,40.675306],[-74.104634,40.675306],[-74.104634,40.675333],[-74.104598,40.675333],[-74.104275,40.67514],[-74.104094,40.675222],[-74.104129,40.675304],[-74.104561,40.67547],[-74.104561,40.675525],[-74.104489,40.675498],[-74.104489,40.675525],[-74.104453,40.675525],[-74.104488,40.675607],[-74.104416,40.67558],[-74.104416,40.675607],[-74.10438,40.675607],[-74.104379,40.675744],[-74.104307,40.675717],[-74.104199,40.675826],[-74.104234,40.675908],[-74.104016,40.676182],[-74.103798,40.676429],[-74.103726,40.676401],[-74.103726,40.676428],[-74.10369,40.676428],[-74.10369,40.676456],[-74.103654,40.676455],[-74.103654,40.67651],[-74.103618,40.67651],[-74.103617,40.676538],[-74.103581,40.676538],[-74.103581,40.676592],[-74.103545,40.676592],[-74.103545,40.676647],[-74.103509,40.676647],[-74.103508,40.676784],[-74.103291,40.676893],[-74.10329,40.676948],[-74.103254,40.676948],[-74.103254,40.676976],[-74.103218,40.676976],[-74.103218,40.67703],[-74.103146,40.677058],[-74.103109,40.677167],[-74.103037,40.677195],[-74.103036,40.677249],[-74.102964,40.677277],[-74.102964,40.677332],[-74.102928,40.677331],[-74.102927,40.677386],[-74.102782,40.677496],[-74.102564,40.677797],[-74.1026,40.677907],[-74.102309,40.67829],[-74.10202,40.678426],[-74.101804,40.678261],[-74.102094,40.678125],[-74.102856,40.677221],[-74.10282,40.677166],[-74.103148,40.676618],[-74.101552,40.678233],[-74.101551,40.678452],[-74.101731,40.678398],[-74.101947,40.678591],[-74.101766,40.67859],[-74.101439,40.679001],[-74.101511,40.679083],[-74.101511,40.679111],[-74.101475,40.679111],[-74.101475,40.679166],[-74.101402,40.679165],[-74.101402,40.679248],[-74.101257,40.67933],[-74.101039,40.679576],[-74.101003,40.679713],[-74.100966,40.679713],[-74.100966,40.67974],[-74.10093,40.67974],[-74.10093,40.679795],[-74.100894,40.679795],[-74.100929,40.679877],[-74.100857,40.67985],[-74.100749,40.679932],[-74.100784,40.680042],[-74.100711,40.680179],[-74.10024,40.680671],[-74.100998,40.680536],[-74.100886,40.681058],[-74.100561,40.681249],[-74.100846,40.681689],[-74.100123,40.682126],[-74.100336,40.682648],[-74.099974,40.682839],[-74.10019,40.682949],[-74.100076,40.683992],[-74.09937,40.684044],[-74.098889,40.682725],[-74.099294,40.682095],[-74.09929,40.682644],[-74.099436,40.682398],[-74.099442,40.681382],[-74.099009,40.681518],[-74.098653,40.682093],[-74.09813,40.680694],[-74.065716,40.66704],[-74.066645,40.665962],[-74.067988,40.666536],[-74.068218,40.6663],[-74.070086,40.667095],[-74.069986,40.667403],[-74.07263,40.668179],[-74.072508,40.66853],[-74.073901,40.669306],[-74.074973,40.669442],[-74.075104,40.669668],[-74.079084,40.671365],[-74.079667,40.671059],[-74.085286,40.67346],[-74.085162,40.673745],[-74.086261,40.675158],[-74.087643,40.675775],[-74.088146,40.675869],[-74.089359,40.675481],[-74.090193,40.676042],[-74.090651,40.675707],[-74.091274,40.675841],[-74.092198,40.67531],[-74.091857,40.674951],[-74.094968,40.67594],[-74.095895,40.67545],[-74.096426,40.67466],[-74.095805,40.674256],[-74.094067,40.673952],[-74.091514,40.672507],[-74.089712,40.672309],[-74.081944,40.669638],[-74.08203,40.669515],[-74.076129,40.667217],[-74.071439,40.66503],[-74.071346,40.665162],[-74.068232,40.663839],[-74.069456,40.662148],[-74.069766,40.662205],[-74.070046,40.661835],[-74.069839,40.661628],[-74.070701,40.660867],[-74.070557,40.660662],[-74.076928,40.663539],[-74.088195,40.667481],[-74.097682,40.669075],[-74.100341,40.669348],[-74.100914,40.669186],[-74.10135,40.669416],[-74.10098,40.669294],[-74.100936,40.669499],[-74.102885,40.669552],[-74.103432,40.669858],[-74.104972,40.669953],[-74.105304,40.669732],[-74.105445,40.670091],[-74.106528,40.670382],[-74.10696,40.670167],[-74.107615,40.669147],[-74.105718,40.668902],[-74.104914,40.669089],[-74.103569,40.668697],[-74.102598,40.668545],[-74.102106,40.668721],[-74.101522,40.66851],[-74.100838,40.667833],[-74.099674,40.667277],[-74.098123,40.665584],[-74.097067,40.665098],[-74.097044,40.664808],[-74.097391,40.664564],[-74.097268,40.664261],[-74.096972,40.664525],[-74.096508,40.664427],[-74.096455,40.664814],[-74.096948,40.665046],[-74.096759,40.665192],[-74.095884,40.665121],[-74.09588,40.664125],[-74.094898,40.664074],[-74.094011,40.664769],[-74.093515,40.66479],[-74.092589,40.664366],[-74.09247,40.664629],[-74.091405,40.66466],[-74.091088,40.664441],[-74.090897,40.664732],[-74.091333,40.664908],[-74.089528,40.66491],[-74.089516,40.664094],[-74.090591,40.664097],[-74.090757,40.663909],[-74.09072,40.663302],[-74.091203,40.662621],[-74.090888,40.661512],[-74.091371,40.662562],[-74.09132,40.66206],[-74.090872,40.660418],[-74.089957,40.65894],[-74.089817,40.658173],[-74.089086,40.657625],[-74.088852,40.656329],[-74.088306,40.656226],[-74.088403,40.655691],[-74.08605,40.655497],[-74.087468,40.653667],[-74.09342,40.650165],[-74.094791,40.649641],[-74.097783,40.649233],[-74.099329,40.649285],[-74.101117,40.649779],[-74.101628,40.649646],[-74.102815,40.649804],[-74.102824,40.650365],[-74.10359,40.650617],[-74.103832,40.650613],[-74.104077,40.64996],[-74.105686,40.650119],[-74.105599,40.650711],[-74.105925,40.651034],[-74.106727,40.651069],[-74.107142,40.651329],[-74.107394,40.651342],[-74.107578,40.650265],[-74.108468,40.650301],[-74.108451,40.650708],[-74.111375,40.650989],[-74.112966,40.650925],[-74.114045,40.65189],[-74.114403,40.651657],[-74.114011,40.65088],[-74.115447,40.65274],[-74.115889,40.652871],[-74.1165,40.652589],[-74.115038,40.650386],[-74.116445,40.652148],[-74.116801,40.65191],[-74.115059,40.649532],[-74.115843,40.649215],[-74.116241,40.649535],[-74.117098,40.648832],[-74.118644,40.64842],[-74.119002,40.647539],[-74.120136,40.646109],[-74.125303,40.645306],[-74.125782,40.645068],[-74.126098,40.64519],[-74.128425,40.644838],[-74.130745,40.64512],[-74.131048,40.644945],[-74.132858,40.645202],[-74.133579,40.645044],[-74.135897,40.645193],[-74.136796,40.645649],[-74.137508,40.645309],[-74.140314,40.644818],[-74.141108,40.644267],[-74.139466,40.647997]],[[-74.124961,40.650943],[-74.124925,40.65097],[-74.124961,40.65097],[-74.124961,40.650943]],[[-74.119313,40.655481],[-74.119277,40.655508],[-74.119313,40.655509],[-74.119313,40.655481]],[[-74.119602,40.655345],[-74.119566,40.655372],[-74.119602,40.655372],[-74.119602,40.655345]],[[-74.119566,40.655372],[-74.11953,40.655427],[-74.119566,40.655427],[-74.119566,40.655372]],[[-74.11971,40.6554],[-74.119674,40.655373],[-74.119674,40.6554],[-74.11971,40.6554]],[[-74.118287,40.658415],[-74.118251,40.658442],[-74.118287,40.658442],[-74.118287,40.658415]],[[-74.118215,40.658497],[-74.118251,40.65847],[-74.118215,40.65847],[-74.118215,40.658497]],[[-74.11584,40.657721],[-74.115804,40.657748],[-74.11584,40.657748],[-74.11584,40.657721]],[[-74.116307,40.657969],[-74.116271,40.657997],[-74.116307,40.657997],[-74.116307,40.657969]],[[-74.10802,40.6698],[-74.107983,40.669827],[-74.108019,40.669827],[-74.10802,40.6698]],[[-74.108126,40.67002],[-74.10809,40.670075],[-74.108126,40.670075],[-74.108126,40.67002]],[[-74.10809,40.670075],[-74.108017,40.670157],[-74.10809,40.670157],[-74.10809,40.670075]],[[-74.108017,40.670157],[-74.107981,40.670184],[-74.108017,40.670184],[-74.108017,40.670157]],[[-74.108482,40.670845],[-74.108446,40.670817],[-74.108446,40.670845],[-74.108482,40.670845]],[[-74.108155,40.671255],[-74.108119,40.671228],[-74.108119,40.671255],[-74.108155,40.671255]],[[-74.107142,40.671938],[-74.107106,40.671965],[-74.107142,40.671966],[-74.107142,40.671938]],[[-74.107139,40.67246],[-74.107103,40.672432],[-74.107103,40.67246],[-74.107139,40.67246]],[[-74.105905,40.673883],[-74.105869,40.673855],[-74.105868,40.673883],[-74.105905,40.673883]],[[-74.105832,40.673965],[-74.105796,40.673937],[-74.105796,40.673965],[-74.105832,40.673965]],[[-74.105723,40.674102],[-74.105687,40.674074],[-74.105687,40.674102],[-74.105723,40.674102]],[[-74.10565,40.674184],[-74.105614,40.674156],[-74.105614,40.674184],[-74.10565,40.674184]],[[-74.105578,40.674266],[-74.105542,40.674238],[-74.105542,40.674266],[-74.105578,40.674266]],[[-74.105396,40.674485],[-74.10536,40.674457],[-74.10536,40.674485],[-74.105396,40.674485]],[[-74.105251,40.674649],[-74.105215,40.674622],[-74.105215,40.674649],[-74.105251,40.674649]],[[-74.105069,40.674868],[-74.105034,40.674841],[-74.105033,40.674868],[-74.105069,40.674868]],[[-74.104997,40.67495],[-74.104961,40.674923],[-74.104961,40.67495],[-74.104997,40.67495]],[[-74.104961,40.674923],[-74.104925,40.674895],[-74.104925,40.674923],[-74.104961,40.674923]],[[-74.104418,40.675223],[-74.104455,40.675196],[-74.104419,40.675195],[-74.104418,40.675223]],[[-74.10438,40.675689],[-74.104344,40.675662],[-74.104344,40.675689],[-74.10438,40.675689]],[[-74.104198,40.675908],[-74.104162,40.675881],[-74.104162,40.675908],[-74.104198,40.675908]],[[-74.104125,40.67599],[-74.10409,40.675963],[-74.104089,40.67599],[-74.104125,40.67599]],[[-74.104053,40.676073],[-74.104017,40.676045],[-74.104017,40.676072],[-74.104053,40.676073]],[[-74.104016,40.676127],[-74.103981,40.6761],[-74.10398,40.676127],[-74.104016,40.676127]],[[-74.103944,40.676209],[-74.103908,40.676182],[-74.103908,40.676209],[-74.103944,40.676209]],[[-74.103871,40.676292],[-74.103835,40.676264],[-74.103835,40.676291],[-74.103871,40.676292]],[[-74.103799,40.676374],[-74.103763,40.676346],[-74.103763,40.676374],[-74.103799,40.676374]],[[-74.103508,40.676729],[-74.103472,40.676702],[-74.103472,40.676729],[-74.103508,40.676729]],[[-74.103436,40.676812],[-74.1034,40.676784],[-74.103399,40.676811],[-74.103436,40.676812]],[[-74.102564,40.677907],[-74.102528,40.677879],[-74.102528,40.677906],[-74.102564,40.677907]],[[-74.101913,40.678261],[-74.101948,40.678289],[-74.101949,40.678261],[-74.101913,40.678261]],[[-74.102929,40.677057],[-74.102965,40.677084],[-74.102965,40.677057],[-74.102929,40.677057]],[[-74.102966,40.677002],[-74.103002,40.67703],[-74.103002,40.677002],[-74.102966,40.677002]],[[-74.103002,40.677002],[-74.103038,40.676975],[-74.103002,40.676975],[-74.103002,40.677002]],[[-74.103148,40.676618],[-74.103184,40.676591],[-74.103148,40.676591],[-74.103148,40.676618]],[[-74.103184,40.676591],[-74.103221,40.676564],[-74.103185,40.676564],[-74.103184,40.676591]],[[-74.102859,40.67681],[-74.102823,40.676782],[-74.102823,40.676809],[-74.102859,40.67681]],[[-74.102823,40.676809],[-74.102786,40.676837],[-74.102822,40.676837],[-74.102823,40.676809]],[[-74.102713,40.676974],[-74.102678,40.676946],[-74.102677,40.676974],[-74.102713,40.676974]],[[-74.101515,40.678479],[-74.101478,40.678534],[-74.10155,40.678562],[-74.101587,40.67848],[-74.101515,40.678479]],[[-74.101514,40.678562],[-74.101478,40.678589],[-74.101514,40.678589],[-74.101514,40.678562]],[[-74.100748,40.680041],[-74.100712,40.680014],[-74.100712,40.680041],[-74.100748,40.680041]],[[-74.09929,40.682699],[-74.099218,40.682671],[-74.099218,40.682699],[-74.09929,40.682699]],[[-74.139503,40.647832],[-74.139467,40.647805],[-74.139467,40.647832],[-74.139503,40.647832]]],[[[-74.106962,40.67191],[-74.106998,40.671883],[-74.106998,40.67191],[-74.106962,40.67191]]],[[[-74.107066,40.672542],[-74.10703,40.672569],[-74.10703,40.672542],[-74.107066,40.672542]]],[[[-74.106994,40.672624],[-74.106957,40.672651],[-74.106957,40.672624],[-74.106994,40.672624]]],[[[-74.106921,40.672706],[-74.106885,40.672733],[-74.106885,40.672706],[-74.106921,40.672706]]],[[[-74.106812,40.672815],[-74.106848,40.672788],[-74.106848,40.672816],[-74.106812,40.672815]]],[[[-74.106812,40.672843],[-74.106776,40.672815],[-74.106812,40.672815],[-74.106812,40.672843]]],[[[-74.10674,40.672897],[-74.106703,40.672925],[-74.106704,40.672897],[-74.10674,40.672897]]],[[[-74.106667,40.673007],[-74.106631,40.672979],[-74.106667,40.67298],[-74.106667,40.673007]]],[[[-74.106631,40.673034],[-74.106594,40.673062],[-74.106595,40.673034],[-74.106631,40.673034]]],[[[-74.105977,40.673828],[-74.105941,40.673801],[-74.105977,40.673801],[-74.105977,40.673828]]],[[[-74.105323,40.674595],[-74.105288,40.674567],[-74.105324,40.674567],[-74.105323,40.674595]]],[[[-74.105215,40.674704],[-74.105178,40.674731],[-74.105179,40.674704],[-74.105215,40.674704]]],[[[-74.105142,40.674786],[-74.105106,40.674813],[-74.105106,40.674786],[-74.105142,40.674786]]],[[[-74.104961,40.675005],[-74.104924,40.675032],[-74.104924,40.675005],[-74.104961,40.675005]]],[[[-74.104888,40.675115],[-74.104852,40.675087],[-74.104888,40.675087],[-74.104888,40.675115]]],[[[-74.104779,40.675197],[-74.104815,40.675169],[-74.104815,40.675197],[-74.104779,40.675197]]],[[[-74.104779,40.675224],[-74.104743,40.675251],[-74.104743,40.675224],[-74.104779,40.675224]]],[[[-74.104706,40.675334],[-74.10467,40.675306],[-74.104706,40.675306],[-74.104706,40.675334]]],[[[-74.10467,40.675361],[-74.104634,40.675333],[-74.10467,40.675334],[-74.10467,40.675361]]],[[[-74.104525,40.675553],[-74.104489,40.675525],[-74.104525,40.675525],[-74.104525,40.675553]]],[[[-74.104452,40.675635],[-74.104416,40.675607],[-74.104452,40.675607],[-74.104452,40.675635]]],[[[-74.104343,40.675744],[-74.104307,40.675771],[-74.104307,40.675744],[-74.104343,40.675744]]],[[[-74.104271,40.675826],[-74.104234,40.675854],[-74.104235,40.675826],[-74.104271,40.675826]]],[[[-74.103762,40.676456],[-74.103726,40.676428],[-74.103762,40.676428],[-74.103762,40.676456]]],[[[-74.10369,40.676483],[-74.103726,40.676456],[-74.103726,40.676483],[-74.10369,40.676483]]],[[[-74.103653,40.676538],[-74.10369,40.676511],[-74.10369,40.676538],[-74.103653,40.676538]]],[[[-74.103653,40.676565],[-74.103617,40.676538],[-74.103653,40.676538],[-74.103653,40.676565]]],[[[-74.103617,40.67662],[-74.103581,40.676592],[-74.103617,40.676593],[-74.103617,40.67662]]],[[[-74.103581,40.676647],[-74.103544,40.676675],[-74.103545,40.676647],[-74.103581,40.676647]]],[[[-74.103363,40.676894],[-74.103399,40.676866],[-74.103399,40.676894],[-74.103363,40.676894]]],[[[-74.103327,40.676921],[-74.103363,40.676894],[-74.103363,40.676921],[-74.103327,40.676921]]],[[[-74.103326,40.676976],[-74.10329,40.676948],[-74.103327,40.676948],[-74.103326,40.676976]]],[[[-74.10329,40.677003],[-74.103254,40.676976],[-74.10329,40.676976],[-74.10329,40.677003]]],[[[-74.103254,40.677058],[-74.103218,40.67703],[-74.103254,40.677031],[-74.103254,40.677058]]],[[[-74.103145,40.67714],[-74.103181,40.677113],[-74.103181,40.67714],[-74.103145,40.67714]]],[[[-74.103109,40.677195],[-74.103145,40.677167],[-74.103145,40.677195],[-74.103109,40.677195]]],[[[-74.10371,40.691389],[-74.103855,40.691224],[-74.10425,40.691445],[-74.104033,40.691664],[-74.10371,40.691389]]],[[[-74.103092,40.69221],[-74.103383,40.691744],[-74.103636,40.691635],[-74.104283,40.692077],[-74.103452,40.692349],[-74.103092,40.69221]],[[-74.103164,40.692155],[-74.103454,40.692019],[-74.103455,40.691827],[-74.103164,40.692155]]],[[[-74.1063,40.692413],[-74.106336,40.692386],[-74.106336,40.692413],[-74.1063,40.692413]]],[[[-74.103073,40.677222],[-74.103109,40.677195],[-74.103109,40.677222],[-74.103073,40.677222]]],[[[-74.102784,40.677194],[-74.10282,40.677221],[-74.102784,40.677221],[-74.102784,40.677194]]],[[[-74.103072,40.677277],[-74.103036,40.677249],[-74.103072,40.67725],[-74.103072,40.677277]]],[[[-74.103,40.677359],[-74.102964,40.677332],[-74.103,40.677332],[-74.103,40.677359]]],[[[-74.102963,40.677414],[-74.102927,40.677386],[-74.102963,40.677386],[-74.102963,40.677414]]],[[[-74.102673,40.677742],[-74.102709,40.677715],[-74.102709,40.677742],[-74.102673,40.677742]]],[[[-74.1026,40.677824],[-74.102636,40.677797],[-74.102636,40.677825],[-74.1026,40.677824]]],[[[-74.102022,40.678124],[-74.102058,40.678097],[-74.102058,40.678124],[-74.102022,40.678124]]],[[[-74.101733,40.678206],[-74.101769,40.678178],[-74.101769,40.678206],[-74.101733,40.678206]]],[[[-74.10166,40.678205],[-74.101697,40.678178],[-74.101697,40.678206],[-74.10166,40.678205]]],[[[-74.102092,40.678454],[-74.102128,40.678427],[-74.102128,40.678454],[-74.102092,40.678454]]],[[[-74.101551,40.678507],[-74.101514,40.678534],[-74.101514,40.678507],[-74.101551,40.678507]]],[[[-74.101983,40.678618],[-74.101947,40.678591],[-74.101983,40.678591],[-74.101983,40.678618]]],[[[-74.101838,40.678645],[-74.101874,40.678673],[-74.101838,40.678673],[-74.101838,40.678645]]],[[[-74.101874,40.6787],[-74.10191,40.678673],[-74.10191,40.6787],[-74.101874,40.6787]]],[[[-74.101728,40.678947],[-74.101657,40.678864],[-74.101693,40.678864],[-74.101728,40.678947]]],[[[-74.101656,40.678947],[-74.10162,40.678919],[-74.101656,40.678919],[-74.101656,40.678947]]],[[[-74.101656,40.678974],[-74.101692,40.678947],[-74.101692,40.678974],[-74.101656,40.678974]]],[[[-74.101656,40.679029],[-74.101584,40.679001],[-74.101584,40.678946],[-74.101656,40.679029]]],[[[-74.101548,40.679001],[-74.101583,40.679029],[-74.101547,40.679029],[-74.101548,40.679001]]],[[[-74.101619,40.679056],[-74.101583,40.679029],[-74.10162,40.679029],[-74.101619,40.679056]]],[[[-74.101511,40.679056],[-74.101583,40.679111],[-74.101511,40.679083],[-74.101511,40.679056]]],[[[-74.101547,40.679138],[-74.101511,40.679111],[-74.101547,40.679111],[-74.101547,40.679138]]],[[[-74.10151,40.679193],[-74.101475,40.679166],[-74.101511,40.679166],[-74.10151,40.679193]]],[[[-74.101438,40.679275],[-74.101402,40.679248],[-74.101438,40.679248],[-74.101438,40.679275]]],[[[-74.101366,40.679302],[-74.101402,40.679275],[-74.101402,40.679303],[-74.101366,40.679302]]],[[[-74.101257,40.679439],[-74.101293,40.679412],[-74.101293,40.679439],[-74.101257,40.679439]]],[[[-74.101038,40.679741],[-74.101003,40.679713],[-74.101039,40.679713],[-74.101038,40.679741]]],[[[-74.101002,40.679768],[-74.100966,40.67974],[-74.101002,40.67974],[-74.101002,40.679768]]],[[[-74.100966,40.679795],[-74.10093,40.679823],[-74.10093,40.679795],[-74.100966,40.679795]]],[[[-74.100857,40.679905],[-74.100893,40.679877],[-74.100893,40.679905],[-74.100857,40.679905]]],[[[-74.100821,40.679932],[-74.100857,40.679905],[-74.100857,40.679932],[-74.100821,40.679932]]],[[[-74.098716,40.682258],[-74.099223,40.681766],[-74.098837,40.682588],[-74.098716,40.682258]]],[[[-74.099889,40.685034],[-74.099636,40.685123],[-74.099601,40.684869],[-74.099889,40.685034]]],[[[-74.099641,40.685143],[-74.100138,40.685612],[-74.099943,40.686133],[-74.099823,40.685914],[-74.099641,40.685143]]],[[[-74.102493,40.694651],[-74.1025,40.694651],[-74.1025,40.694663],[-74.102493,40.694651]]],[[[-74.102511,40.694679],[-74.102536,40.694679],[-74.102536,40.694716],[-74.102511,40.694679]]]]}}]}