{"type":"FeatureCollection","features":[{"type":"Feature","properties":{"level_ft":2},"geometry":{"type":"MultiPolygon","coordinates":[[[[-74.158263,40.644019],[-74.158263,40.644031],[-74.158248,40.644019],[-74.158263,40.644019]]],[[[-74.141035,40.644296],[-74.141029,40.644273],[-74.141036,40.644271],[-74.141035,40.644296]]],[[[-74.140996,40.644323],[-74.140999,40.644319],[-74.140999,40.644323],[-74.140996,40.644323]]],[[[-74.140956,40.644385],[-74.140963,40.644433],[-74.140929,40.644433],[-74.140956,40.644385]]],[[[-74.158282,40.644046],[-74.161391,40.644357],[-74.161391,40.644852],[-74.16136,40.64444],[-74.158659,40.644185],[-74.158981,40.644515],[-74.159161,40.644543],[-74.159306,40.644461],[-74.159738,40.644462],[-74.160026,40.644573],[-74.160348,40.645123],[-74.160888,40.645207],[-74.161211,40.645428],[-74.16124,40.645098],[-74.161356,40.645428],[-74.161201,40.645439],[-74.160498,40.645198],[-74.160077,40.645246],[-74.160206,40.644951],[-74.159668,40.644486],[-74.159018,40.644694],[-74.159247,40.644938],[-74.158912,40.644855],[-74.158282,40.644046]],[[-74.158659,40.644185],[-74.158623,40.644157],[-74.158623,40.644185],[-74.158659,40.644185]]],[[[-74.140927,40.644437],[-74.139842,40.645033],[-74.137498,40.645356],[-74.136847,40.64571],[-74.136487,40.645682],[-74.135841,40.645241],[-74.134327,40.645208],[-74.133643,40.645096],[-74.133138,40.645232],[-74.132633,40.64523],[-74.131049,40.644978],[-74.130652,40.645169],[-74.127842,40.644913],[-74.12611,40.645264],[-74.125643,40.645126],[-74.125317,40.645372],[-74.124704,40.645424],[-74.124703,40.645562],[-74.123405,40.645612],[-74.123332,40.645942],[-74.122683,40.645994],[-74.122467,40.645801],[-74.120159,40.646151],[-74.118632,40.648404],[-74.118546,40.648269],[-74.120136,40.646109],[-74.125303,40.645306],[-74.125629,40.64509],[-74.126098,40.64519],[-74.127957,40.64485],[-74.128425,40.644838],[-74.130745,40.64512],[-74.131048,40.644945],[-74.132858,40.645202],[-74.133579,40.645044],[-74.135897,40.645193],[-74.136748,40.645651],[-74.137508,40.645309],[-74.139752,40.644996],[-74.140927,40.644437]]],[[[-74.107665,40.650336],[-74.1077,40.650258],[-74.108238,40.650338],[-74.107665,40.650336]]],[[[-74.108416,40.650702],[-74.110725,40.650868],[-74.108491,40.650751],[-74.108384,40.650723],[-74.108269,40.650288],[-74.108468,40.650301],[-74.108416,40.650702]]],[[[-74.111337,40.651008],[-74.113015,40.65094],[-74.114045,40.65189],[-74.114403,40.651657],[-74.114029,40.650885],[-74.115498,40.652793],[-74.116393,40.652705],[-74.115038,40.650386],[-74.116445,40.652148],[-74.116801,40.65191],[-74.116681,40.651854],[-74.11505,40.649541],[-74.115843,40.649215],[-74.116241,40.649535],[-74.117098,40.648832],[-74.118632,40.648425],[-74.11697,40.649187],[-74.116931,40.649681],[-74.116498,40.649735],[-74.116569,40.650037],[-74.116317,40.650036],[-74.116282,40.649707],[-74.115274,40.649593],[-74.116847,40.651877],[-74.116916,40.652426],[-74.116591,40.65248],[-74.116662,40.652727],[-74.114931,40.652886],[-74.114788,40.652556],[-74.115185,40.652475],[-74.114506,40.65154],[-74.114215,40.651951],[-74.113855,40.651922],[-74.112923,40.650958],[-74.111337,40.651008]]],[[[-74.110833,40.650896],[-74.110941,40.650886],[-74.110941,40.650896],[-74.110833,40.650896]]],[[[-74.111049,40.650907],[-74.111119,40.650925],[-74.111049,40.650924],[-74.111049,40.650907]]],[[[-74.111121,40.650925],[-74.11123,40.650952],[-74.111121,40.650952],[-74.111121,40.650925]]],[[[-74.109538,40.662805],[-74.110161,40.661133],[-74.110773,40.66119],[-74.110631,40.66097],[-74.11027,40.661051],[-74.110344,40.660722],[-74.111028,40.660834],[-74.110515,40.662314],[-74.110007,40.662862],[-74.109538,40.662805]]],[[[-74.097033,40.664958],[-74.098024,40.665401],[-74.098382,40.665677],[-74.100138,40.667522],[-74.100929,40.667799],[-74.101252,40.66802],[-74.102121,40.667446],[-74.101396,40.668213],[-74.107555,40.669085],[-74.107627,40.669112],[-74.107627,40.669167],[-74.105718,40.668902],[-74.104914,40.669089],[-74.103569,40.668697],[-74.102598,40.668545],[-74.102106,40.668721],[-74.101539,40.668517],[-74.100838,40.667833],[-74.100049,40.667525],[-74.099674,40.667277],[-74.098462,40.665851],[-74.097148,40.665158],[-74.097067,40.665098],[-74.097033,40.664958]]],[[[-74.145604,40.64582],[-74.145103,40.645187],[-74.144563,40.645076],[-74.144528,40.644828],[-74.14424,40.644882],[-74.14435,40.644444],[-74.144747,40.644307],[-74.143777,40.643838],[-74.142009,40.644107],[-74.142043,40.644574],[-74.141575,40.644517],[-74.141359,40.644358],[-74.141982,40.64453],[-74.14188,40.644033],[-74.14375,40.643792],[-74.163014,40.645898],[-74.15809,40.649737],[-74.14726,40.655124],[-74.142721,40.658943],[-74.140573,40.661318],[-74.132507,40.672932],[-74.125251,40.68406],[-74.120322,40.69066],[-74.117554,40.694949],[-74.110337,40.692756],[-74.11125,40.69081],[-74.112297,40.690732],[-74.11313,40.690103],[-74.113025,40.689526],[-74.112126,40.688974],[-74.112057,40.688452],[-74.111222,40.689438],[-74.110106,40.689077],[-74.109932,40.688061],[-74.110478,40.687184],[-74.11095,40.686692],[-74.111491,40.686584],[-74.112217,40.68579],[-74.113404,40.686343],[-74.113765,40.686317],[-74.116996,40.682485],[-74.116242,40.681933],[-74.116244,40.681631],[-74.116822,40.681441],[-74.117685,40.681718],[-74.119065,40.680131],[-74.116584,40.678915],[-74.116986,40.677983],[-74.119413,40.675877],[-74.121185,40.675087],[-74.121768,40.673908],[-74.123,40.672897],[-74.123365,40.671965],[-74.124557,40.671639],[-74.125635,40.672192],[-74.126433,40.671398],[-74.127014,40.670577],[-74.126728,40.670191],[-74.12749,40.66937],[-74.127312,40.668903],[-74.127749,40.668081],[-74.127319,40.66775],[-74.127321,40.667366],[-74.128008,40.667011],[-74.127577,40.66668],[-74.127582,40.665829],[-74.128884,40.665093],[-74.130969,40.665978],[-74.133184,40.66324],[-74.13297,40.66269],[-74.132072,40.66222],[-74.131966,40.661808],[-74.132259,40.660876],[-74.133164,40.660138],[-74.133096,40.659534],[-74.135451,40.657263],[-74.13592,40.657182],[-74.136819,40.657651],[-74.13856,40.655625],[-74.139532,40.655848],[-74.140294,40.654807],[-74.140225,40.654368],[-74.139649,40.654119],[-74.14001,40.654065],[-74.140448,40.653051],[-74.142042,40.651546],[-74.142224,40.651245],[-74.1419,40.651024],[-74.142841,40.650451],[-74.143812,40.65081],[-74.144102,40.650537],[-74.144539,40.649687],[-74.144361,40.649275],[-74.144686,40.648974],[-74.144581,40.648534],[-74.146068,40.646672],[-74.145821,40.645656],[-74.145604,40.64582]],[[-74.112057,40.688452],[-74.112094,40.688398],[-74.112058,40.688397],[-74.112057,40.688452]],[[-74.144819,40.644363],[-74.144783,40.64439],[-74.144819,40.64439],[-74.144819,40.644363]],[[-74.144891,40.644418],[-74.144855,40.64439],[-74.144963,40.644418],[-74.144891,40.644418]],[[-74.144999,40.644446],[-74.144963,40.644445],[-74.144999,40.644446],[-74.144999,40.644446]],[[-74.145338,40.644611],[-74.145322,40.644611],[-74.145322,40.644611],[-74.145338,40.644611]],[[-74.145466,40.644667],[-74.145394,40.644666],[-74.145466,40.644667],[-74.145466,40.644667]],[[-74.145538,40.644749],[-74.145573,40.644814],[-74.145574,40.644749],[-74.145538,40.644749]],[[-74.145538,40.644749],[-74.145502,40.644722],[-74.145502,40.644749],[-74.145538,40.644749]],[[-74.145609,40.644832],[-74.145573,40.644941],[-74.145609,40.644985],[-74.145609,40.644832]],[[-74.145715,40.645263],[-74.145609,40.644996],[-74.145643,40.645244],[-74.145715,40.645263]],[[-74.145751,40.645326],[-74.145714,40.645518],[-74.145786,40.645562],[-74.14575,40.645463],[-74.145751,40.645326]],[[-74.145749,40.645633],[-74.145749,40.645628],[-74.145749,40.645628],[-74.145749,40.645633]]],[[[-74.109215,40.693576],[-74.107776,40.692967],[-74.107418,40.692499],[-74.10796,40.692309],[-74.109652,40.692809],[-74.109215,40.693576]]],[[[-74.116046,40.697297],[-74.109825,40.6941],[-74.109683,40.693715],[-74.110156,40.692948],[-74.117428,40.695141],[-74.116046,40.697297]]],[[[-74.107844,40.697854],[-74.108327,40.697306],[-74.107721,40.696096],[-74.109354,40.694373],[-74.110218,40.69476],[-74.110615,40.694706],[-74.116009,40.697359],[-74.114232,40.700952],[-74.107844,40.697854]]],[[[-74.107006,40.652009],[-74.107083,40.65124],[-74.105859,40.651071],[-74.105536,40.650768],[-74.105612,40.650165],[-74.104099,40.649995],[-74.104024,40.650406],[-74.103879,40.650625],[-74.103446,40.650651],[-74.102763,40.650402],[-74.10273,40.649825],[-74.101614,40.649684],[-74.101613,40.649876],[-74.101469,40.649876],[-74.100208,40.649707],[-74.099309,40.649319],[-74.096173,40.649418],[-74.093466,40.650177],[-74.093284,40.650424],[-74.087931,40.653507],[-74.087678,40.653561],[-74.087244,40.653889],[-74.087314,40.654108],[-74.087205,40.654355],[-74.086916,40.654382],[-74.086697,40.654957],[-74.086154,40.655285],[-74.086117,40.655477],[-74.088423,40.655622],[-74.088383,40.656199],[-74.088959,40.656283],[-74.089274,40.657794],[-74.089814,40.658015],[-74.090023,40.659065],[-74.089771,40.658087],[-74.089313,40.657973],[-74.089086,40.657625],[-74.088852,40.656329],[-74.088306,40.656226],[-74.088403,40.655691],[-74.08605,40.655497],[-74.086104,40.655274],[-74.086674,40.654898],[-74.086873,40.654355],[-74.087176,40.654299],[-74.087248,40.653819],[-74.087695,40.653521],[-74.09342,40.650165],[-74.095945,40.649428],[-74.099273,40.649276],[-74.100303,40.649662],[-74.101539,40.649792],[-74.101628,40.649646],[-74.102815,40.649804],[-74.102824,40.650365],[-74.103617,40.650619],[-74.103832,40.650613],[-74.104077,40.64996],[-74.105686,40.650119],[-74.105599,40.650711],[-74.105925,40.651034],[-74.106727,40.651069],[-74.107151,40.651208],[-74.107142,40.651329],[-74.107394,40.651342],[-74.10752,40.650413],[-74.107367,40.651955],[-74.107006,40.652009]]],[[[-74.090051,40.659114],[-74.090059,40.659114],[-74.090059,40.659129],[-74.090051,40.659114]]],[[[-74.090357,40.659527],[-74.090916,40.660407],[-74.091411,40.662084],[-74.091406,40.662852],[-74.090641,40.664112],[-74.08956,40.664163],[-74.089555,40.66485],[-74.09138,40.664869],[-74.089528,40.66491],[-74.089516,40.664094],[-74.090591,40.664097],[-74.090757,40.663909],[-74.09072,40.663302],[-74.091203,40.662621],[-74.090888,40.661512],[-74.091374,40.662554],[-74.090872,40.660418],[-74.090357,40.659527]]],[[[-74.068232,40.663839],[-74.069456,40.662148],[-74.069766,40.662205],[-74.070046,40.661835],[-74.069839,40.661635],[-74.070019,40.661403],[-74.070701,40.660867],[-74.070588,40.660656],[-74.076928,40.663539],[-74.08546,40.666402],[-74.086832,40.667063],[-74.076802,40.663623],[-74.074321,40.662598],[-74.073675,40.662129],[-74.070583,40.660965],[-74.070219,40.661513],[-74.06993,40.661566],[-74.070072,40.661814],[-74.072877,40.662977],[-74.073414,40.663501],[-74.072441,40.663415],[-74.069673,40.662252],[-74.068546,40.663757],[-74.068473,40.663812],[-74.068293,40.663811],[-74.071346,40.665162],[-74.068232,40.663839]]],[[[-74.090784,40.664442],[-74.091362,40.664225],[-74.091613,40.664445],[-74.092587,40.664311],[-74.093667,40.66459],[-74.094318,40.664208],[-74.094213,40.663658],[-74.095979,40.663719],[-74.096733,40.664244],[-74.09731,40.664163],[-74.097709,40.663725],[-74.097416,40.664575],[-74.097053,40.664931],[-74.097408,40.664337],[-74.097187,40.664263],[-74.096938,40.66453],[-74.096508,40.664427],[-74.096455,40.664814],[-74.096948,40.665046],[-74.096759,40.665192],[-74.095884,40.665121],[-74.095827,40.664112],[-74.094738,40.664089],[-74.09431,40.664649],[-74.093571,40.6648],[-74.092589,40.664366],[-74.09247,40.664629],[-74.091405,40.66466],[-74.091088,40.664441],[-74.090897,40.664732],[-74.091358,40.664829],[-74.090709,40.664826],[-74.090784,40.664442]]],[[[-74.086874,40.667091],[-74.086895,40.667087],[-74.08691,40.667091],[-74.086874,40.667091]]],[[[-74.086946,40.667119],[-74.086995,40.667116],[-74.087009,40.667119],[-74.086946,40.667119]]],[[[-74.08739,40.667197],[-74.087913,40.667397],[-74.087018,40.667121],[-74.08739,40.667197]]],[[[-74.087917,40.667424],[-74.088047,40.667405],[-74.088137,40.667452],[-74.087917,40.667424]]],[[[-74.088169,40.66748],[-74.088169,40.667469],[-74.088193,40.66748],[-74.088169,40.66748]]],[[[-74.088205,40.667484],[-74.09798,40.669115],[-74.100341,40.669348],[-74.100914,40.669186],[-74.10135,40.669416],[-74.10098,40.669294],[-74.100936,40.669499],[-74.102885,40.669552],[-74.103432,40.669858],[-74.104972,40.669953],[-74.105304,40.669732],[-74.105445,40.670091],[-74.106464,40.670385],[-74.10696,40.670167],[-74.107526,40.669226],[-74.10759,40.669249],[-74.107225,40.670044],[-74.106718,40.670427],[-74.106249,40.67048],[-74.105098,40.670092],[-74.10362,40.670087],[-74.090149,40.668009],[-74.088205,40.667484]]],[[[-74.076112,40.670088],[-74.076137,40.670099],[-74.076112,40.670099],[-74.076112,40.670088]]],[[[-74.076184,40.670127],[-74.076184,40.670118],[-74.076204,40.670127],[-74.076184,40.670127]]],[[[-74.076256,40.670148],[-74.07627,40.670154],[-74.076256,40.670154],[-74.076256,40.670148]]],[[[-74.076328,40.670178],[-74.076337,40.670182],[-74.076328,40.670182],[-74.076328,40.670178]]],[[[-74.076364,40.67021],[-74.076364,40.670193],[-74.076403,40.67021],[-74.076364,40.67021]]],[[[-74.076436,40.670223],[-74.07647,40.670238],[-74.076436,40.670237],[-74.076436,40.670223]]],[[[-74.079611,40.6711],[-74.085301,40.673467],[-74.085162,40.673745],[-74.085637,40.674122],[-74.086299,40.675191],[-74.088081,40.675871],[-74.088828,40.675529],[-74.089359,40.675481],[-74.090053,40.675842],[-74.090193,40.676042],[-74.090651,40.675707],[-74.091283,40.675839],[-74.092198,40.67531],[-74.091857,40.674951],[-74.092583,40.675116],[-74.094923,40.675947],[-74.095895,40.67545],[-74.096426,40.67466],[-74.095653,40.674204],[-74.094067,40.673952],[-74.091514,40.672507],[-74.089712,40.672309],[-74.081944,40.669638],[-74.08203,40.669515],[-74.080417,40.668985],[-74.076379,40.667187],[-74.076129,40.667217],[-74.072297,40.665418],[-74.074442,40.666222],[-74.074657,40.666525],[-74.075916,40.666887],[-74.080337,40.668907],[-74.081813,40.669351],[-74.082064,40.669489],[-74.082171,40.669682],[-74.08969,40.672234],[-74.092032,40.672545],[-74.093901,40.673539],[-74.094187,40.673897],[-74.096024,40.674206],[-74.09649,40.674564],[-74.096452,40.674893],[-74.096016,40.675468],[-74.095148,40.675904],[-74.094201,40.677521],[-74.094787,40.676013],[-74.092449,40.675126],[-74.091469,40.676111],[-74.090641,40.675916],[-74.090099,40.676079],[-74.089273,40.675554],[-74.087865,40.675934],[-74.086211,40.675214],[-74.085533,40.674086],[-74.085102,40.67381],[-74.085176,40.673453],[-74.079611,40.6711]]],[[[-74.066645,40.665962],[-74.067988,40.666536],[-74.068218,40.6663],[-74.070086,40.667095],[-74.069986,40.667403],[-74.071519,40.667951],[-74.071696,40.667775],[-74.07263,40.668179],[-74.072501,40.668521],[-74.072519,40.668192],[-74.072052,40.66797],[-74.071656,40.667859],[-74.071547,40.668023],[-74.071402,40.668023],[-74.069964,40.667468],[-74.070002,40.667112],[-74.069247,40.66678],[-74.068241,40.666364],[-74.068059,40.666583],[-74.067915,40.666582],[-74.066657,40.666001],[-74.065716,40.66704],[-74.066645,40.665962]]],[[[-74.072799,40.668687],[-74.072661,40.668604],[-74.072517,40.668528],[-74.072638,40.668518],[-74.072799,40.668687]]],[[[-74.07471,40.669517],[-74.074728,40.669511],[-74.074753,40.669518],[-74.07471,40.669517]]],[[[-74.075075,40.669642],[-74.074782,40.669545],[-74.074782,40.669524],[-74.074973,40.669442],[-74.075075,40.669642]]],[[[-74.075141,40.669684],[-74.075141,40.669684],[-74.075141,40.669684],[-74.075141,40.669684]]],[[[-74.075177,40.669699],[-74.075208,40.669711],[-74.075177,40.669711],[-74.075177,40.669699]]],[[[-74.075249,40.669729],[-74.075274,40.669739],[-74.075249,40.669739],[-74.075249,40.669729]]],[[[-74.075321,40.669759],[-74.075341,40.669767],[-74.075321,40.669767],[-74.075321,40.669759]]],[[[-74.075393,40.669789],[-74.075407,40.669794],[-74.075393,40.669794],[-74.075393,40.669789]]],[[[-74.075465,40.669819],[-74.075473,40.669822],[-74.075465,40.669822],[-74.075465,40.669819]]],[[[-74.075537,40.669849],[-74.07554,40.66985],[-74.075537,40.66985],[-74.075537,40.669849]]],[[[-74.075645,40.669905],[-74.075645,40.669894],[-74.075673,40.669905],[-74.075645,40.669905]]],[[[-74.075716,40.669924],[-74.075739,40.669933],[-74.075716,40.669933],[-74.075716,40.669924]]],[[[-74.075788,40.669954],[-74.075805,40.669961],[-74.075788,40.669961],[-74.075788,40.669954]]],[[[-74.07586,40.669984],[-74.075872,40.669988],[-74.07586,40.669988],[-74.07586,40.669984]]],[[[-74.075932,40.670013],[-74.075938,40.670016],[-74.075932,40.670016],[-74.075932,40.670013]]],[[[-74.076004,40.670043],[-74.076005,40.670044],[-74.076004,40.670044],[-74.076004,40.670043]]],[[[-74.07604,40.670058],[-74.076071,40.670071],[-74.07604,40.670071],[-74.07604,40.670058]]]]}}]}