{"type":"FeatureCollection","features":[{"type":"Feature","properties":{"level_ft":1},"geometry":{"type":"MultiPolygon","coordinates":[[[[-74.158248,40.644019],[-74.158263,40.644019],[-74.158263,40.644031],[-74.158248,40.644019]]],[[[-74.140996,40.644323],[-74.140999,40.644319],[-74.140999,40.644323],[-74.140996,40.644323]]],[[[-74.15963,40.644462],[-74.15945,40.644483],[-74.15945,40.644462],[-74.15963,40.644462]]],[[[-74.158282,40.644046],[-74.161391,40.644357],[-74.161436,40.64459],[-74.161394,40.644846],[-74.161396,40.64444],[-74.158623,40.644157],[-74.159053,40.644598],[-74.159396,40.644489],[-74.159018,40.644694],[-74.159147,40.644933],[-74.158282,40.644046]]],[[[-74.140963,40.644433],[-74.140929,40.644433],[-74.140963,40.644375],[-74.140963,40.644433]]],[[[-74.160062,40.644656],[-74.160311,40.64515],[-74.160887,40.645261],[-74.160077,40.645246],[-74.160206,40.644951],[-74.159678,40.64449],[-74.160062,40.644656]]],[[[-74.160932,40.645264],[-74.16096,40.645262],[-74.160959,40.645276],[-74.160932,40.645264]]],[[[-74.16137,40.645206],[-74.161356,40.645428],[-74.16126,40.645451],[-74.161142,40.645408],[-74.16137,40.645206]]],[[[-74.160995,40.645296],[-74.160985,40.64529],[-74.160995,40.64529],[-74.160995,40.645296]]],[[[-74.161103,40.645317],[-74.16109,40.645356],[-74.161029,40.645317],[-74.161103,40.645317]]],[[[-74.140927,40.644437],[-74.139842,40.645033],[-74.137498,40.645356],[-74.136847,40.64571],[-74.136487,40.645682],[-74.135733,40.645213],[-74.134399,40.645209],[-74.133643,40.645096],[-74.133138,40.645232],[-74.132669,40.64523],[-74.131013,40.644978],[-74.130868,40.645142],[-74.130652,40.645169],[-74.127842,40.644913],[-74.126146,40.645237],[-74.125643,40.645126],[-74.125353,40.645344],[-74.124667,40.645534],[-74.123405,40.645612],[-74.123332,40.645942],[-74.122683,40.645994],[-74.122684,40.645802],[-74.122431,40.645801],[-74.120159,40.646151],[-74.118632,40.648404],[-74.118546,40.648269],[-74.120136,40.646109],[-74.125303,40.645306],[-74.125629,40.64509],[-74.126098,40.64519],[-74.127957,40.64485],[-74.128425,40.644838],[-74.130745,40.64512],[-74.131048,40.644945],[-74.132858,40.645202],[-74.133579,40.645044],[-74.135897,40.645193],[-74.136748,40.645651],[-74.137508,40.645309],[-74.139752,40.644996],[-74.140927,40.644437]]],[[[-74.116218,40.649542],[-74.117413,40.648688],[-74.118632,40.648425],[-74.116825,40.649351],[-74.116319,40.649542],[-74.116218,40.649542]]],[[[-74.107629,40.650336],[-74.107578,40.650265],[-74.108238,40.650338],[-74.107629,40.650336]]],[[[-74.108416,40.650702],[-74.110725,40.650868],[-74.108491,40.650751],[-74.108384,40.650723],[-74.108269,40.650288],[-74.108468,40.650301],[-74.108416,40.650702]]],[[[-74.111119,40.650925],[-74.111049,40.650924],[-74.111049,40.650907],[-74.111119,40.650925]]],[[[-74.11123,40.650952],[-74.111121,40.650952],[-74.111121,40.650925],[-74.11123,40.650952]]],[[[-74.111337,40.651008],[-74.113015,40.65094],[-74.114045,40.65189],[-74.114403,40.651657],[-74.114029,40.650885],[-74.114618,40.651532],[-74.115498,40.652793],[-74.116435,40.652689],[-74.115024,40.650526],[-74.115145,40.650393],[-74.116445,40.652148],[-74.11676,40.652038],[-74.115048,40.649561],[-74.115858,40.649219],[-74.116175,40.649569],[-74.11578,40.649293],[-74.115238,40.649511],[-74.115273,40.649786],[-74.116847,40.651877],[-74.116517,40.652727],[-74.115471,40.652888],[-74.114506,40.651512],[-74.114252,40.651896],[-74.113855,40.651922],[-74.112923,40.650958],[-74.111337,40.651008]]],[[[-74.097144,40.664697],[-74.097343,40.664657],[-74.097034,40.664903],[-74.097144,40.664697]]],[[[-74.097036,40.664986],[-74.097772,40.66529],[-74.098275,40.665594],[-74.099958,40.667439],[-74.100857,40.667772],[-74.101216,40.66802],[-74.102121,40.667446],[-74.101396,40.668213],[-74.107519,40.669085],[-74.107627,40.669112],[-74.107627,40.669167],[-74.105718,40.668902],[-74.104914,40.669089],[-74.103569,40.668697],[-74.102598,40.668545],[-74.102106,40.668721],[-74.101539,40.668517],[-74.100838,40.667833],[-74.100049,40.667525],[-74.099674,40.667277],[-74.098123,40.665584],[-74.097148,40.665158],[-74.097067,40.665098],[-74.097036,40.664986]]],[[[-74.106646,40.670427],[-74.090185,40.668009],[-74.088205,40.667484],[-74.097682,40.669075],[-74.100341,40.669348],[-74.100914,40.669186],[-74.10135,40.669416],[-74.10098,40.669294],[-74.100936,40.669499],[-74.102885,40.669552],[-74.103432,40.669858],[-74.104972,40.669953],[-74.105304,40.669732],[-74.105445,40.670091],[-74.106435,40.670328],[-74.106464,40.670385],[-74.10696,40.670167],[-74.107526,40.669226],[-74.10759,40.669203],[-74.107225,40.670044],[-74.106646,40.670427]],[[-74.105206,40.670092],[-74.105278,40.670065],[-74.105206,40.670065],[-74.105206,40.670092]]],[[[-74.163014,40.645898],[-74.15809,40.649737],[-74.14726,40.655124],[-74.142721,40.658943],[-74.140573,40.661318],[-74.132507,40.672932],[-74.125251,40.68406],[-74.120322,40.69066],[-74.117554,40.694949],[-74.110337,40.692756],[-74.11125,40.69081],[-74.112405,40.690704],[-74.113166,40.690076],[-74.112953,40.689416],[-74.112163,40.688974],[-74.11213,40.688343],[-74.111259,40.689328],[-74.110862,40.689382],[-74.110179,40.689077],[-74.109968,40.688006],[-74.110478,40.687212],[-74.112253,40.685818],[-74.113476,40.686371],[-74.113837,40.686262],[-74.116996,40.682512],[-74.116242,40.681933],[-74.116244,40.681631],[-74.11675,40.681441],[-74.117685,40.681718],[-74.119065,40.680131],[-74.116584,40.678915],[-74.116986,40.67801],[-74.119449,40.675877],[-74.121184,40.675114],[-74.121804,40.673881],[-74.123036,40.672869],[-74.123329,40.672019],[-74.124593,40.671667],[-74.125744,40.67211],[-74.127051,40.670549],[-74.126765,40.670137],[-74.127526,40.669316],[-74.127349,40.668793],[-74.127785,40.668109],[-74.127355,40.667778],[-74.127321,40.667366],[-74.128008,40.667011],[-74.127577,40.66668],[-74.127618,40.665802],[-74.128306,40.66531],[-74.128991,40.665148],[-74.130681,40.666032],[-74.131006,40.66595],[-74.13322,40.66324],[-74.132899,40.662607],[-74.132108,40.662221],[-74.132001,40.661946],[-74.132223,40.660931],[-74.133164,40.660193],[-74.133132,40.659506],[-74.135379,40.657345],[-74.135956,40.657209],[-74.136819,40.657651],[-74.138487,40.65568],[-74.139568,40.655848],[-74.140331,40.654752],[-74.14026,40.654395],[-74.139685,40.654119],[-74.139973,40.654147],[-74.140448,40.653078],[-74.142042,40.651546],[-74.142224,40.651245],[-74.141936,40.651024],[-74.142768,40.650478],[-74.143812,40.65081],[-74.144138,40.650482],[-74.144835,40.648068],[-74.146068,40.646672],[-74.14561,40.644804],[-74.143777,40.643838],[-74.142009,40.644107],[-74.142007,40.644574],[-74.141755,40.644573],[-74.141359,40.644358],[-74.141982,40.64453],[-74.14188,40.644033],[-74.14375,40.643792],[-74.163014,40.645898]]],[[[-74.109143,40.693576],[-74.107453,40.692664],[-74.107418,40.692499],[-74.108068,40.692337],[-74.109616,40.692836],[-74.109143,40.693576]]],[[[-74.116046,40.697297],[-74.109861,40.6941],[-74.109719,40.69366],[-74.11012,40.693003],[-74.117428,40.695141],[-74.116046,40.697297]]],[[[-74.107855,40.697859],[-74.108328,40.697251],[-74.107721,40.696096],[-74.109318,40.6944],[-74.110218,40.69476],[-74.110615,40.694706],[-74.116009,40.697359],[-74.114232,40.700952],[-74.107855,40.697859]]],[[[-74.107006,40.652009],[-74.107083,40.65124],[-74.105859,40.651071],[-74.105572,40.650823],[-74.105612,40.650165],[-74.104099,40.649995],[-74.104024,40.650406],[-74.103879,40.650625],[-74.103482,40.650651],[-74.102763,40.650402],[-74.10273,40.649825],[-74.101614,40.649684],[-74.101613,40.649876],[-74.101505,40.649876],[-74.100208,40.649707],[-74.099309,40.649319],[-74.096173,40.649418],[-74.093466,40.650177],[-74.092995,40.650588],[-74.087859,40.653534],[-74.087678,40.653561],[-74.087244,40.653889],[-74.087314,40.654108],[-74.087205,40.654355],[-74.086916,40.654382],[-74.086697,40.654957],[-74.086118,40.655312],[-74.086117,40.655477],[-74.088458,40.655677],[-74.088383,40.656199],[-74.088923,40.65631],[-74.089207,40.65697],[-74.089274,40.657849],[-74.089634,40.657877],[-74.089849,40.658098],[-74.090023,40.659065],[-74.089771,40.658087],[-74.089313,40.657973],[-74.089086,40.657625],[-74.088852,40.656329],[-74.088306,40.656226],[-74.088403,40.655691],[-74.08605,40.655497],[-74.086104,40.655274],[-74.086674,40.654898],[-74.086873,40.654355],[-74.087176,40.654299],[-74.087248,40.653819],[-74.087695,40.653521],[-74.09342,40.650165],[-74.095945,40.649428],[-74.099273,40.649276],[-74.100303,40.649662],[-74.101539,40.649792],[-74.101628,40.649646],[-74.102815,40.649804],[-74.102824,40.650365],[-74.103617,40.650619],[-74.103832,40.650613],[-74.104077,40.64996],[-74.105686,40.650119],[-74.105599,40.650711],[-74.105925,40.651034],[-74.106727,40.651069],[-74.107151,40.651208],[-74.107142,40.651329],[-74.107394,40.651342],[-74.10752,40.650413],[-74.107331,40.65201],[-74.107006,40.652009]]],[[[-74.090381,40.659555],[-74.090417,40.659602],[-74.090357,40.659527],[-74.090381,40.659555]]],[[[-74.090489,40.659637],[-74.090667,40.659964],[-74.090423,40.65961],[-74.090489,40.659637]]],[[[-74.0907,40.660023],[-74.090703,40.659968],[-74.090702,40.660028],[-74.0907,40.660023]]],[[[-74.090738,40.66005],[-74.090738,40.660102],[-74.090713,40.66005],[-74.090738,40.66005]]],[[[-74.090774,40.660105],[-74.090774,40.660178],[-74.090739,40.660105],[-74.090774,40.660105]]],[[[-74.090789,40.660215],[-74.090809,40.660215],[-74.090809,40.660263],[-74.090789,40.660215]]],[[[-74.090845,40.66027],[-74.090845,40.660351],[-74.090812,40.66027],[-74.090845,40.66027]]],[[[-74.090881,40.660352],[-74.09088,40.660445],[-74.090845,40.660352],[-74.090881,40.660352]]],[[[-74.090886,40.660462],[-74.091375,40.661974],[-74.091372,40.662546],[-74.090886,40.660462]]],[[[-74.091187,40.663263],[-74.090862,40.663454],[-74.090896,40.663701],[-74.090641,40.664112],[-74.08956,40.664163],[-74.089555,40.664877],[-74.091357,40.664895],[-74.089528,40.66491],[-74.089516,40.664094],[-74.090591,40.664097],[-74.090757,40.663909],[-74.09072,40.663302],[-74.091203,40.662621],[-74.090888,40.661512],[-74.091291,40.662501],[-74.091357,40.662562],[-74.091408,40.66255],[-74.091187,40.663263]]],[[[-74.068232,40.663839],[-74.069456,40.662148],[-74.069766,40.662205],[-74.070046,40.661835],[-74.069839,40.661635],[-74.070019,40.661403],[-74.070701,40.660867],[-74.070588,40.660656],[-74.076928,40.663539],[-74.08546,40.666402],[-74.086832,40.667063],[-74.076011,40.663291],[-74.073711,40.66213],[-74.070619,40.660938],[-74.06993,40.661566],[-74.070072,40.661814],[-74.073092,40.663088],[-74.073378,40.663528],[-74.072441,40.663415],[-74.069673,40.662252],[-74.068546,40.663757],[-74.068473,40.663812],[-74.068293,40.663811],[-74.071346,40.665162],[-74.068232,40.663839]]],[[[-74.096042,40.665178],[-74.095827,40.664112],[-74.094738,40.664089],[-74.094011,40.664769],[-74.093515,40.66479],[-74.092639,40.664367],[-74.09247,40.664629],[-74.091405,40.66466],[-74.091088,40.664441],[-74.090897,40.664732],[-74.091358,40.664829],[-74.090709,40.664826],[-74.09071,40.664607],[-74.091073,40.664224],[-74.091613,40.664445],[-74.092587,40.664311],[-74.093955,40.664563],[-74.094318,40.664208],[-74.094393,40.663659],[-74.095979,40.663747],[-74.096769,40.664271],[-74.09731,40.664191],[-74.097709,40.663725],[-74.09738,40.664603],[-74.097268,40.664261],[-74.096972,40.664525],[-74.096508,40.664427],[-74.096455,40.664814],[-74.096921,40.665132],[-74.096481,40.665212],[-74.096042,40.665178]],[[-74.096511,40.665204],[-74.096475,40.665176],[-74.096475,40.665203],[-74.096511,40.665204]]],[[[-74.086874,40.667091],[-74.086895,40.667087],[-74.08691,40.667091],[-74.086874,40.667091]]],[[[-74.086995,40.667116],[-74.086946,40.667119],[-74.086946,40.667101],[-74.086995,40.667116]]],[[[-74.08739,40.667197],[-74.087913,40.667397],[-74.087018,40.667121],[-74.08739,40.667197]]],[[[-74.087917,40.667424],[-74.088047,40.667405],[-74.088137,40.667452],[-74.087917,40.667424]]],[[[-74.088169,40.667469],[-74.088193,40.66748],[-74.088169,40.66748],[-74.088169,40.667469]]],[[[-74.091829,40.675035],[-74.092429,40.67507],[-74.094923,40.675947],[-74.095895,40.67545],[-74.096426,40.674634],[-74.095102,40.674041],[-74.094067,40.673952],[-74.092722,40.67303],[-74.091936,40.672896],[-74.091514,40.672507],[-74.089712,40.672309],[-74.081944,40.669638],[-74.08203,40.669515],[-74.080417,40.668985],[-74.076379,40.667187],[-74.076129,40.667217],[-74.072297,40.665418],[-74.07419,40.666139],[-74.074836,40.666608],[-74.075952,40.666914],[-74.079906,40.66874],[-74.081993,40.669434],[-74.082171,40.669682],[-74.089546,40.672206],[-74.091636,40.672433],[-74.09203,40.672819],[-74.092859,40.672959],[-74.094079,40.673897],[-74.09516,40.673955],[-74.09649,40.674591],[-74.096016,40.675441],[-74.095148,40.675904],[-74.094309,40.677521],[-74.094167,40.677191],[-74.094823,40.676041],[-74.091829,40.675035]]],[[[-74.079611,40.6711],[-74.085301,40.673467],[-74.085162,40.673745],[-74.085637,40.674122],[-74.086261,40.675158],[-74.087643,40.675775],[-74.088146,40.675869],[-74.088399,40.675684],[-74.088828,40.675529],[-74.089359,40.675481],[-74.090053,40.675842],[-74.090193,40.676042],[-74.090651,40.675707],[-74.09194,40.675783],[-74.091433,40.676083],[-74.09057,40.675861],[-74.090136,40.676079],[-74.089309,40.675554],[-74.088117,40.675934],[-74.087649,40.67585],[-74.086211,40.675214],[-74.085533,40.674086],[-74.085102,40.67381],[-74.085176,40.673453],[-74.079611,40.6711]]],[[[-74.092195,40.675318],[-74.092193,40.675318],[-74.092195,40.675315],[-74.092195,40.675318]]],[[[-74.092159,40.675369],[-74.092159,40.675372],[-74.092156,40.675372],[-74.092159,40.675369]]],[[[-74.09212,40.675425],[-74.092123,40.675427],[-74.092119,40.675427],[-74.09212,40.675425]]],[[[-74.091869,40.675644],[-74.091869,40.675646],[-74.091862,40.675646],[-74.091869,40.675644]]],[[[-74.066683,40.665952],[-74.067988,40.666536],[-74.068218,40.6663],[-74.070086,40.667095],[-74.069986,40.667403],[-74.070813,40.667654],[-74.071519,40.667951],[-74.071696,40.667775],[-74.07263,40.668179],[-74.072501,40.668521],[-74.072519,40.668192],[-74.072052,40.66797],[-74.071692,40.667832],[-74.071547,40.668023],[-74.071331,40.667995],[-74.069964,40.667468],[-74.069895,40.667056],[-74.068241,40.666364],[-74.068059,40.666583],[-74.067915,40.666582],[-74.066693,40.666001],[-74.065716,40.66704],[-74.066683,40.665952]]],[[[-74.072799,40.668687],[-74.072661,40.668604],[-74.072517,40.668528],[-74.072638,40.668518],[-74.072799,40.668687]]],[[[-74.074728,40.669511],[-74.074753,40.669518],[-74.07471,40.669517],[-74.074728,40.669511]]],[[[-74.07509,40.669656],[-74.074782,40.669545],[-74.074782,40.669524],[-74.074973,40.669442],[-74.07509,40.669656]]],[[[-74.075141,40.669684],[-74.075141,40.669684],[-74.075141,40.669684],[-74.075141,40.669684]]],[[[-74.075208,40.669711],[-74.075177,40.669711],[-74.075177,40.669699],[-74.075208,40.669711]]],[[[-74.075249,40.669729],[-74.075274,40.669739],[-74.075249,40.669739],[-74.075249,40.669729]]],[[[-74.075341,40.669767],[-74.075321,40.669767],[-74.075321,40.669759],[-74.075341,40.669767]]],[[[-74.075407,40.669794],[-74.075393,40.669794],[-74.075393,40.669789],[-74.075407,40.669794]]],[[[-74.075465,40.669819],[-74.075473,40.669822],[-74.075465,40.669822],[-74.075465,40.669819]]],[[[-74.075537,40.669849],[-74.07554,40.66985],[-74.075537,40.66985],[-74.075537,40.669849]]],[[[-74.075645,40.669894],[-74.075673,40.669905],[-74.075645,40.669905],[-74.075645,40.669894]]],[[[-74.075739,40.669933],[-74.075716,40.669933],[-74.075716,40.669924],[-74.075739,40.669933]]],[[[-74.075788,40.669961],[-74.075788,40.669954],[-74.075805,40.669961],[-74.075788,40.669961]]],[[[-74.075872,40.669988],[-74.07586,40.669988],[-74.07586,40.669984],[-74.075872,40.669988]]],[[[-74.075932,40.670013],[-74.075938,40.670016],[-74.075932,40.670016],[-74.075932,40.670013]]],[[[-74.076004,40.670043],[-74.076005,40.670044],[-74.076004,40.670044],[-74.076004,40.670043]]],[[[-74.076071,40.670071],[-74.07604,40.670071],[-74.07604,40.670058],[-74.076071,40.670071]]],[[[-74.076137,40.670099],[-74.076112,40.670099],[-74.076112,40.670088],[-74.076137,40.670099]]],[[[-74.076184,40.670118],[-74.076204,40.670127],[-74.076184,40.670127],[-74.076184,40.670118]]],[[[-74.07627,40.670154],[-74.076256,40.670154],[-74.076256,40.670148],[-74.07627,40.670154]]],[[[-74.076337,40.670182],[-74.076328,40.670182],[-74.076328,40.670178],[-74.076337,40.670182]]],[[[-74.076403,40.67021],[-74.076364,40.67021],[-74.076364,40.670193],[-74.076403,40.67021]]],[[[-74.076436,40.670237],[-74.076436,40.670223],[-74.07647,40.670238],[-74.076436,40.670237]]]]}}]}