{"type":"FeatureCollection","features":[{"type":"Feature","properties":{"level_ft":14},"geometry":{"type":"MultiPolygon","coordinates":[[[[-74.158263,40.644019],[-74.158263,40.644031],[-74.158248,40.644019],[-74.158263,40.644019]]],[[[-74.158282,40.644046],[-74.161391,40.644357],[-74.161303,40.645451],[-74.160077,40.645246],[-74.160206,40.644951],[-74.159668,40.644486],[-74.159018,40.644694],[-74.159247,40.644938],[-74.158912,40.644855],[-74.158282,40.644046]]],[[[-74.139393,40.648079],[-74.139357,40.648106],[-74.139357,40.648079],[-74.139393,40.648079]]],[[[-74.139212,40.648353],[-74.139175,40.64838],[-74.139176,40.648353],[-74.139212,40.648353]]],[[[-74.13903,40.648599],[-74.138995,40.648352],[-74.139104,40.648353],[-74.139031,40.648435],[-74.13903,40.648599]]],[[[-74.139103,40.648462],[-74.139067,40.648517],[-74.139067,40.648462],[-74.139103,40.648462]]],[[[-74.128979,40.654387],[-74.129195,40.65436],[-74.129157,40.654854],[-74.128977,40.654799],[-74.128979,40.654387]]],[[[-74.128977,40.654799],[-74.12894,40.654826],[-74.128941,40.654799],[-74.128977,40.654799]]],[[[-74.119674,40.655427],[-74.119638,40.655455],[-74.119638,40.655427],[-74.119674,40.655427]]],[[[-74.119526,40.656058],[-74.11949,40.656031],[-74.119526,40.656031],[-74.119526,40.656058]]],[[[-74.119704,40.656498],[-74.119668,40.656471],[-74.119704,40.656471],[-74.119704,40.656498]]],[[[-74.115265,40.657362],[-74.115302,40.657334],[-74.115337,40.657362],[-74.115265,40.657362]]],[[[-74.115373,40.657362],[-74.11541,40.657335],[-74.115409,40.657362],[-74.115373,40.657362]]],[[[-74.115409,40.65739],[-74.115446,40.657362],[-74.115445,40.65739],[-74.115409,40.65739]]],[[[-74.118687,40.657812],[-74.118723,40.657867],[-74.118687,40.657867],[-74.118687,40.657812]]],[[[-74.118505,40.658169],[-74.118541,40.658141],[-74.118541,40.658169],[-74.118505,40.658169]]],[[[-74.124886,40.657997],[-74.123445,40.657855],[-74.122223,40.657248],[-74.12179,40.657301],[-74.122112,40.657714],[-74.121536,40.65752],[-74.121175,40.657656],[-74.12121,40.657876],[-74.120633,40.657901],[-74.120883,40.658341],[-74.120127,40.658147],[-74.119836,40.658557],[-74.119943,40.658887],[-74.119474,40.658858],[-74.119617,40.659078],[-74.119292,40.659269],[-74.119685,40.659874],[-74.119144,40.65979],[-74.119143,40.660037],[-74.118747,40.660009],[-74.118995,40.660723],[-74.118382,40.660721],[-74.118272,40.661023],[-74.117984,40.660939],[-74.118161,40.661544],[-74.117152,40.661513],[-74.11715,40.661925],[-74.116824,40.662198],[-74.115814,40.662332],[-74.120206,40.656939],[-74.121437,40.655927],[-74.122883,40.655163],[-74.12505,40.654484],[-74.127105,40.654271],[-74.127176,40.654546],[-74.127897,40.654548],[-74.12847,40.655127],[-74.128832,40.654908],[-74.129264,40.654965],[-74.129224,40.655678],[-74.129657,40.655679],[-74.129907,40.656092],[-74.130482,40.656341],[-74.130444,40.656643],[-74.129904,40.656476],[-74.129615,40.656695],[-74.129219,40.656502],[-74.129365,40.656282],[-74.128609,40.65606],[-74.128212,40.656196],[-74.128034,40.655812],[-74.12753,40.65559],[-74.127025,40.655698],[-74.127239,40.656083],[-74.125799,40.655777],[-74.125762,40.655969],[-74.126696,40.656631],[-74.125076,40.656131],[-74.125147,40.656351],[-74.124895,40.656295],[-74.124712,40.656844],[-74.124423,40.656898],[-74.125394,40.657395],[-74.125536,40.657698],[-74.124886,40.657997]],[[-74.124526,40.657914],[-74.12449,40.657831],[-74.12449,40.657914],[-74.124526,40.657914]],[[-74.124454,40.657831],[-74.124636,40.657557],[-74.124673,40.657448],[-74.124311,40.657611],[-74.124454,40.657831]]],[[[-74.118251,40.65847],[-74.118287,40.658442],[-74.118287,40.65847],[-74.118251,40.65847]]],[[[-74.118251,40.658497],[-74.118214,40.658525],[-74.118215,40.658497],[-74.118251,40.658497]]],[[[-74.110735,40.667833],[-74.110771,40.667805],[-74.110771,40.667833],[-74.110735,40.667833]]],[[[-74.110699,40.667887],[-74.110735,40.66786],[-74.110735,40.667888],[-74.110699,40.667887]]],[[[-74.110372,40.668271],[-74.110408,40.668243],[-74.110408,40.668271],[-74.110372,40.668271]]],[[[-74.110772,40.667723],[-74.110191,40.668435],[-74.110262,40.66849],[-74.110008,40.668846],[-74.109864,40.668818],[-74.109719,40.668982],[-74.109826,40.669065],[-74.109537,40.669201],[-74.109645,40.669256],[-74.109463,40.669585],[-74.109211,40.669557],[-74.110373,40.668079],[-74.110772,40.667723]],[[-74.11019,40.668462],[-74.110154,40.668517],[-74.11019,40.668517],[-74.11019,40.668462]],[[-74.110154,40.668517],[-74.110118,40.668544],[-74.110154,40.668544],[-74.110154,40.668517]],[[-74.1099,40.668818],[-74.109936,40.668791],[-74.1099,40.668791],[-74.1099,40.668818]],[[-74.109718,40.669037],[-74.109682,40.669064],[-74.109718,40.669065],[-74.109718,40.669037]],[[-74.109537,40.669256],[-74.109501,40.669283],[-74.109537,40.669284],[-74.109537,40.669256]],[[-74.109319,40.669502],[-74.109355,40.669475],[-74.109319,40.669475],[-74.109319,40.669502]],[[-74.109355,40.669475],[-74.109392,40.66942],[-74.109356,40.66942],[-74.109355,40.669475]],[[-74.109392,40.66942],[-74.109428,40.669393],[-74.109392,40.669393],[-74.109392,40.66942]],[[-74.109973,40.668681],[-74.110009,40.668709],[-74.110009,40.668681],[-74.109973,40.668681]],[[-74.110009,40.668681],[-74.110045,40.668654],[-74.110009,40.668654],[-74.110009,40.668681]]],[[[-74.109827,40.66901],[-74.109899,40.6689],[-74.109863,40.66901],[-74.109827,40.66901]]],[[[-74.137455,40.653289],[-74.137422,40.652712],[-74.136664,40.653012],[-74.136919,40.652518],[-74.13674,40.652216],[-74.137065,40.65208],[-74.137245,40.652217],[-74.137462,40.651971],[-74.137249,40.651449],[-74.137861,40.651533],[-74.138369,40.650931],[-74.138409,40.650245],[-74.139095,40.649917],[-74.138701,40.649422],[-74.139026,40.649286],[-74.140045,40.64745],[-74.141323,40.644352],[-74.141982,40.64453],[-74.14188,40.644033],[-74.143813,40.643797],[-74.163014,40.645898],[-74.15809,40.649737],[-74.14726,40.655124],[-74.142721,40.658943],[-74.140573,40.661318],[-74.132507,40.672932],[-74.125251,40.68406],[-74.120322,40.69066],[-74.117554,40.694949],[-74.106197,40.691507],[-74.107495,40.691621],[-74.108403,40.690609],[-74.107576,40.690084],[-74.10758,40.689371],[-74.108411,40.689126],[-74.108774,40.688743],[-74.109315,40.688773],[-74.110006,40.687759],[-74.109828,40.687265],[-74.111928,40.685899],[-74.112297,40.684391],[-74.111865,40.684252],[-74.111867,40.68406],[-74.112442,40.684226],[-74.11357,40.682583],[-74.113212,40.682143],[-74.113788,40.682227],[-74.11477,40.680775],[-74.114702,40.680061],[-74.114092,40.679648],[-74.114848,40.679842],[-74.115575,40.678719],[-74.116549,40.678668],[-74.116805,40.67801],[-74.117275,40.677819],[-74.118617,40.676396],[-74.118906,40.676397],[-74.120173,40.675358],[-74.120678,40.675332],[-74.121185,40.675005],[-74.122167,40.673471],[-74.122352,40.672675],[-74.122966,40.672512],[-74.122933,40.671963],[-74.123221,40.671992],[-74.123657,40.671444],[-74.12417,40.669991],[-74.124603,40.66991],[-74.123851,40.669002],[-74.125076,40.669033],[-74.124828,40.668319],[-74.125368,40.66843],[-74.126776,40.668105],[-74.126127,40.668076],[-74.126636,40.667336],[-74.125917,40.666977],[-74.125416,40.666344],[-74.126713,40.666376],[-74.126571,40.666018],[-74.127399,40.666186],[-74.128091,40.664953],[-74.128813,40.664845],[-74.129829,40.663531],[-74.130553,40.663094],[-74.130809,40.662326],[-74.131821,40.661945],[-74.131606,40.66167],[-74.132077,40.661232],[-74.132044,40.660711],[-74.132696,40.660026],[-74.132663,40.659642],[-74.133096,40.659534],[-74.135235,40.657289],[-74.134876,40.657014],[-74.13571,40.656083],[-74.13597,40.654711],[-74.137593,40.654524],[-74.137921,40.653812],[-74.137455,40.653289]],[[-74.126776,40.668023],[-74.126813,40.667996],[-74.126776,40.667995],[-74.126776,40.668023]],[[-74.137563,40.653399],[-74.137599,40.653371],[-74.137563,40.653371],[-74.137563,40.653399]],[[-74.137599,40.653371],[-74.137635,40.653344],[-74.137599,40.653344],[-74.137599,40.653371]]],[[[-74.109281,40.669859],[-74.109317,40.669832],[-74.109317,40.669859],[-74.109281,40.669859]]],[[[-74.109208,40.669941],[-74.109245,40.669914],[-74.109244,40.669941],[-74.109208,40.669941]]],[[[-74.109208,40.669996],[-74.109172,40.669969],[-74.109208,40.669969],[-74.109208,40.669996]]],[[[-74.109099,40.670078],[-74.109136,40.670051],[-74.109136,40.670078],[-74.109099,40.670078]]],[[[-74.109027,40.67016],[-74.109063,40.670133],[-74.109063,40.67016],[-74.109027,40.67016]]],[[[-74.109027,40.670215],[-74.108991,40.670188],[-74.109027,40.670188],[-74.109027,40.670215]]],[[[-74.108954,40.670242],[-74.108991,40.670215],[-74.10899,40.670242],[-74.108954,40.670242]]],[[[-74.108882,40.670324],[-74.108918,40.670297],[-74.108918,40.670325],[-74.108882,40.670324]]],[[[-74.10772,40.67172],[-74.107683,40.67183],[-74.107648,40.671748],[-74.10772,40.67172]]],[[[-74.10659,40.692277],[-74.105655,40.691752],[-74.106052,40.691671],[-74.117428,40.695141],[-74.116046,40.697297],[-74.109861,40.694127],[-74.109032,40.693905],[-74.108423,40.693299],[-74.106444,40.692469],[-74.106373,40.692276],[-74.106481,40.692304],[-74.10659,40.692277]],[[-74.106554,40.692249],[-74.10659,40.692195],[-74.106554,40.692194],[-74.106554,40.692249]]],[[[-74.109248,40.694098],[-74.109642,40.694456],[-74.110615,40.694706],[-74.116009,40.697359],[-74.114232,40.700952],[-74.107675,40.697772],[-74.10793,40.697387],[-74.107861,40.696811],[-74.106749,40.695846],[-74.106643,40.695461],[-74.106136,40.695816],[-74.10646,40.695927],[-74.107358,40.696507],[-74.107679,40.697194],[-74.107567,40.697719],[-74.102852,40.695432],[-74.102584,40.694789],[-74.102859,40.694954],[-74.103621,40.694271],[-74.104891,40.692848],[-74.105002,40.692381],[-74.109248,40.694098]],[[-74.106963,40.696258],[-74.106927,40.696286],[-74.106963,40.696286],[-74.106963,40.696258]],[[-74.108995,40.694124],[-74.108959,40.694069],[-74.108923,40.694124],[-74.108995,40.694124]]],[[[-74.107611,40.671857],[-74.107575,40.671885],[-74.107575,40.671857],[-74.107611,40.671857]]],[[[-74.107647,40.671885],[-74.107683,40.67194],[-74.107574,40.671967],[-74.107539,40.671912],[-74.107647,40.671885]]],[[[-74.106962,40.67191],[-74.106998,40.671883],[-74.106998,40.67191],[-74.106962,40.67191]]],[[[-74.107574,40.672022],[-74.107502,40.671939],[-74.107538,40.671939],[-74.107574,40.672022]]],[[[-74.107502,40.671994],[-74.107466,40.672022],[-74.107466,40.671994],[-74.107502,40.671994]]],[[[-74.107538,40.672022],[-74.107502,40.672049],[-74.107502,40.672022],[-74.107538,40.672022]]],[[[-74.107356,40.672213],[-74.107393,40.672186],[-74.107393,40.672213],[-74.107356,40.672213]]],[[[-74.10732,40.672241],[-74.107356,40.672213],[-74.107356,40.672241],[-74.10732,40.672241]]],[[[-74.107211,40.672378],[-74.107175,40.672405],[-74.107175,40.672377],[-74.107211,40.672378]]],[[[-74.107139,40.67246],[-74.107103,40.672487],[-74.107103,40.67246],[-74.107139,40.67246]]],[[[-74.107066,40.672542],[-74.10703,40.672569],[-74.10703,40.672542],[-74.107066,40.672542]]],[[[-74.106993,40.672651],[-74.106957,40.672624],[-74.106994,40.672624],[-74.106993,40.672651]]],[[[-74.106921,40.672733],[-74.106885,40.672706],[-74.106921,40.672706],[-74.106921,40.672733]]],[[[-74.106848,40.672816],[-74.106812,40.672788],[-74.106848,40.672788],[-74.106848,40.672816]]],[[[-74.106812,40.672843],[-74.106776,40.672815],[-74.106812,40.672815],[-74.106812,40.672843]]],[[[-74.106739,40.672925],[-74.106704,40.672897],[-74.10674,40.672897],[-74.106739,40.672925]]],[[[-74.106667,40.673007],[-74.106631,40.672979],[-74.106667,40.67298],[-74.106667,40.673007]]],[[[-74.10663,40.673062],[-74.106595,40.673034],[-74.106631,40.673034],[-74.10663,40.673062]]],[[[-74.105977,40.673828],[-74.105941,40.673801],[-74.105977,40.673801],[-74.105977,40.673828]]],[[[-74.105905,40.673883],[-74.105868,40.67391],[-74.105868,40.673883],[-74.105905,40.673883]]],[[[-74.105723,40.674102],[-74.105687,40.674129],[-74.105687,40.674102],[-74.105723,40.674102]]],[[[-74.105324,40.674567],[-74.105287,40.674594],[-74.105288,40.674567],[-74.105324,40.674567]]],[[[-74.105215,40.674677],[-74.105251,40.674649],[-74.105251,40.674677],[-74.105215,40.674677]]],[[[-74.105214,40.674731],[-74.105179,40.674704],[-74.105215,40.674704],[-74.105214,40.674731]]],[[[-74.105142,40.674786],[-74.105106,40.674813],[-74.105106,40.674786],[-74.105142,40.674786]]],[[[-74.105069,40.674896],[-74.105033,40.674868],[-74.105069,40.674868],[-74.105069,40.674896]]],[[[-74.104961,40.674978],[-74.104997,40.67495],[-74.104997,40.674978],[-74.104961,40.674978]]],[[[-74.104961,40.675005],[-74.104924,40.675032],[-74.104924,40.675005],[-74.104961,40.675005]]],[[[-74.104852,40.675115],[-74.104888,40.675087],[-74.104888,40.675115],[-74.104852,40.675115]]],[[[-74.104815,40.675142],[-74.104852,40.675115],[-74.104852,40.675142],[-74.104815,40.675142]]],[[[-74.104779,40.675252],[-74.104743,40.675224],[-74.104779,40.675224],[-74.104779,40.675252]]],[[[-74.104743,40.675279],[-74.104707,40.675251],[-74.104743,40.675251],[-74.104743,40.675279]]],[[[-74.104706,40.675334],[-74.10467,40.675306],[-74.104706,40.675306],[-74.104706,40.675334]]],[[[-74.104634,40.675361],[-74.10467,40.675334],[-74.10467,40.675361],[-74.104634,40.675361]]],[[[-74.104489,40.675552],[-74.104525,40.675525],[-74.104525,40.675553],[-74.104489,40.675552]]],[[[-74.104488,40.67558],[-74.104453,40.675552],[-74.104489,40.675552],[-74.104488,40.67558]]],[[[-74.13943,40.647997],[-74.139213,40.648133],[-74.139248,40.648326],[-74.139105,40.648133],[-74.138312,40.648103],[-74.13799,40.647663],[-74.136694,40.647357],[-74.136912,40.647138],[-74.136373,40.646807],[-74.136118,40.647328],[-74.135254,40.64716],[-74.135144,40.647462],[-74.134857,40.647296],[-74.133991,40.647403],[-74.133881,40.647787],[-74.133342,40.647401],[-74.132474,40.64803],[-74.132223,40.6477],[-74.131359,40.647697],[-74.131325,40.64723],[-74.13039,40.64687],[-74.130069,40.646265],[-74.130179,40.645936],[-74.12964,40.645633],[-74.129315,40.645796],[-74.128847,40.645603],[-74.128054,40.645765],[-74.127767,40.645517],[-74.127549,40.645845],[-74.127008,40.645926],[-74.126898,40.646228],[-74.126359,40.645979],[-74.12574,40.646992],[-74.124369,40.647372],[-74.123432,40.64726],[-74.123475,40.646079],[-74.121311,40.646374],[-74.121381,40.646704],[-74.120586,40.647031],[-74.121054,40.647114],[-74.120585,40.647278],[-74.120582,40.647744],[-74.120906,40.647855],[-74.120616,40.648184],[-74.120612,40.648897],[-74.120646,40.649282],[-74.12097,40.649338],[-74.12086,40.649694],[-74.121543,40.649998],[-74.12154,40.650547],[-74.122153,40.65044],[-74.122915,40.649481],[-74.123417,40.649977],[-74.123814,40.649951],[-74.123852,40.649539],[-74.124068,40.64954],[-74.124602,40.650667],[-74.124854,40.650723],[-74.124564,40.651106],[-74.125177,40.651081],[-74.125356,40.651328],[-74.125788,40.651302],[-74.126399,40.651634],[-74.12683,40.65191],[-74.126397,40.651936],[-74.126432,40.652265],[-74.127007,40.652569],[-74.127296,40.652405],[-74.12719,40.652048],[-74.127441,40.652241],[-74.127875,40.65205],[-74.127869,40.653038],[-74.130283,40.653183],[-74.130858,40.653432],[-74.129308,40.65351],[-74.129198,40.653949],[-74.128945,40.653948],[-74.128876,40.653508],[-74.127651,40.65345],[-74.127252,40.653887],[-74.125196,40.654073],[-74.12368,40.65448],[-74.122852,40.654312],[-74.122633,40.654751],[-74.121911,40.654913],[-74.121048,40.654691],[-74.120289,40.654935],[-74.119389,40.654795],[-74.119277,40.655508],[-74.119458,40.655372],[-74.119638,40.6554],[-74.119602,40.655455],[-74.119637,40.65551],[-74.119308,40.656414],[-74.119885,40.656279],[-74.119957,40.656307],[-74.119668,40.656388],[-74.119378,40.656662],[-74.119486,40.656717],[-74.11876,40.657593],[-74.118577,40.658114],[-74.118505,40.658086],[-74.118396,40.658196],[-74.117924,40.658826],[-74.117635,40.658962],[-74.117489,40.659346],[-74.116704,40.657888],[-74.11638,40.657832],[-74.115625,40.6575],[-74.115554,40.65739],[-74.115481,40.657445],[-74.115482,40.657363],[-74.11541,40.657307],[-74.115302,40.657307],[-74.115338,40.657252],[-74.114834,40.657223],[-74.11602,40.657776],[-74.116486,40.658162],[-74.116631,40.658135],[-74.117096,40.65874],[-74.117235,40.659619],[-74.116724,40.660743],[-74.114982,40.662769],[-74.113861,40.663369],[-74.112601,40.663145],[-74.112814,40.663585],[-74.112092,40.663747],[-74.111656,40.664377],[-74.111726,40.664734],[-74.11122,40.664979],[-74.111182,40.665364],[-74.109657,40.66728],[-74.10886,40.667826],[-74.108169,40.668867],[-74.108419,40.66928],[-74.108023,40.669251],[-74.107804,40.669662],[-74.108091,40.669965],[-74.107981,40.670184],[-74.108198,40.670048],[-74.108412,40.67046],[-74.109138,40.669694],[-74.109281,40.669832],[-74.10881,40.670324],[-74.108845,40.670434],[-74.108736,40.670598],[-74.107864,40.671693],[-74.107685,40.671583],[-74.107394,40.671912],[-74.107501,40.672186],[-74.106852,40.672157],[-74.107034,40.671938],[-74.106998,40.671855],[-74.107105,40.67202],[-74.107359,40.671856],[-74.106963,40.671663],[-74.106744,40.672211],[-74.107068,40.672267],[-74.107175,40.67246],[-74.107103,40.672432],[-74.107067,40.672459],[-74.106595,40.672979],[-74.106558,40.673171],[-74.10645,40.673144],[-74.106449,40.673336],[-74.106013,40.673801],[-74.105941,40.673773],[-74.105905,40.673801],[-74.105941,40.673883],[-74.105869,40.673855],[-74.105832,40.67402],[-74.105651,40.674102],[-74.10565,40.674239],[-74.105542,40.674211],[-74.105577,40.674321],[-74.10536,40.674567],[-74.105288,40.67454],[-74.105252,40.674567],[-74.105287,40.674649],[-74.105215,40.674622],[-74.105179,40.674649],[-74.105143,40.674704],[-74.105178,40.674786],[-74.105106,40.674759],[-74.104888,40.675005],[-74.104924,40.675087],[-74.104852,40.67506],[-74.104743,40.675142],[-74.104634,40.675333],[-74.104167,40.67514],[-74.104489,40.675443],[-74.104489,40.675525],[-74.104453,40.675525],[-74.104416,40.675607],[-74.10438,40.675607],[-74.104416,40.675689],[-74.104344,40.675662],[-74.104344,40.675689],[-74.104307,40.675689],[-74.104307,40.675744],[-74.104271,40.675744],[-74.104307,40.675826],[-74.104235,40.675799],[-74.104235,40.675826],[-74.104199,40.675826],[-74.104234,40.675908],[-74.104162,40.675881],[-74.104126,40.675908],[-74.104161,40.675991],[-74.10409,40.675963],[-74.104053,40.67599],[-74.104053,40.676127],[-74.103944,40.676127],[-74.10398,40.67621],[-74.103835,40.676374],[-74.103763,40.676346],[-74.103763,40.676374],[-74.103727,40.676373],[-74.103726,40.676401],[-74.10369,40.676401],[-74.10369,40.676456],[-74.103618,40.676483],[-74.103581,40.676592],[-74.103509,40.67662],[-74.103508,40.676675],[-74.103472,40.676674],[-74.103472,40.676729],[-74.1034,40.676757],[-74.103363,40.676866],[-74.103219,40.676921],[-74.103254,40.676976],[-74.103145,40.677113],[-74.103073,40.67714],[-74.103073,40.677195],[-74.103001,40.67714],[-74.103036,40.677249],[-74.102892,40.677249],[-74.102855,40.677359],[-74.102747,40.677386],[-74.102347,40.677906],[-74.102239,40.67796],[-74.103546,40.6764],[-74.10362,40.676071],[-74.102677,40.676974],[-74.102497,40.676946],[-74.104313,40.674783],[-74.104278,40.674509],[-74.103954,40.674453],[-74.103808,40.674782],[-74.103197,40.674423],[-74.103123,40.674752],[-74.102184,40.67505],[-74.102794,40.675602],[-74.101675,40.675735],[-74.101744,40.676367],[-74.101238,40.676502],[-74.100843,40.676171],[-74.100226,40.676938],[-74.09954,40.6771],[-74.098964,40.676961],[-74.099858,40.678117],[-74.099208,40.678307],[-74.099095,40.679048],[-74.098266,40.679072],[-74.098228,40.679346],[-74.099018,40.679926],[-74.099017,40.68009],[-74.099089,40.680118],[-74.099052,40.680228],[-74.098801,40.680035],[-74.099015,40.680502],[-74.098653,40.680638],[-74.098869,40.680666],[-74.098688,40.680858],[-74.098545,40.68072],[-74.098507,40.681022],[-74.098903,40.681161],[-74.098541,40.681297],[-74.098938,40.68127],[-74.098973,40.681463],[-74.099298,40.681272],[-74.099698,40.680779],[-74.099806,40.680807],[-74.099516,40.681053],[-74.099479,40.68119],[-74.099443,40.68119],[-74.099479,40.681272],[-74.099334,40.681409],[-74.099009,40.681518],[-74.098681,40.682066],[-74.09813,40.680694],[-74.065716,40.66704],[-74.066645,40.665962],[-74.067988,40.666536],[-74.068218,40.6663],[-74.070086,40.667095],[-74.069986,40.667403],[-74.07263,40.668179],[-74.072508,40.66853],[-74.073901,40.669306],[-74.074973,40.669442],[-74.075104,40.669668],[-74.079084,40.671365],[-74.079667,40.671059],[-74.085286,40.67346],[-74.085162,40.673745],[-74.086261,40.675158],[-74.087643,40.675775],[-74.088146,40.675869],[-74.089359,40.675481],[-74.090193,40.676042],[-74.090651,40.675707],[-74.091274,40.675841],[-74.092198,40.67531],[-74.091857,40.674951],[-74.094968,40.67594],[-74.095895,40.67545],[-74.096426,40.67466],[-74.095805,40.674256],[-74.094067,40.673952],[-74.091514,40.672507],[-74.089712,40.672309],[-74.081944,40.669638],[-74.08203,40.669515],[-74.076129,40.667217],[-74.071439,40.66503],[-74.071346,40.665162],[-74.068232,40.663839],[-74.069456,40.662148],[-74.069766,40.662205],[-74.070046,40.661835],[-74.069839,40.661628],[-74.070701,40.660867],[-74.070557,40.660662],[-74.076928,40.663539],[-74.088195,40.667481],[-74.097682,40.669075],[-74.100341,40.669348],[-74.100914,40.669186],[-74.10135,40.669416],[-74.10098,40.669294],[-74.100936,40.669499],[-74.102885,40.669552],[-74.103432,40.669858],[-74.104972,40.669953],[-74.105304,40.669732],[-74.105445,40.670091],[-74.106528,40.670382],[-74.10696,40.670167],[-74.107615,40.669147],[-74.105718,40.668902],[-74.104914,40.669089],[-74.103569,40.668697],[-74.102598,40.668545],[-74.102106,40.668721],[-74.101522,40.66851],[-74.100838,40.667833],[-74.099674,40.667277],[-74.098123,40.665584],[-74.097067,40.665098],[-74.097044,40.664808],[-74.097391,40.664564],[-74.097268,40.664261],[-74.096972,40.664525],[-74.096508,40.664427],[-74.096455,40.664814],[-74.096948,40.665046],[-74.096759,40.665192],[-74.095884,40.665121],[-74.09588,40.664125],[-74.094898,40.664074],[-74.094011,40.664769],[-74.093515,40.66479],[-74.092589,40.664366],[-74.09247,40.664629],[-74.091405,40.66466],[-74.091088,40.664441],[-74.090897,40.664732],[-74.091333,40.664908],[-74.089528,40.66491],[-74.089516,40.664094],[-74.090591,40.664097],[-74.090757,40.663909],[-74.09072,40.663302],[-74.091203,40.662621],[-74.090888,40.661512],[-74.091371,40.662562],[-74.09132,40.66206],[-74.090872,40.660418],[-74.089957,40.65894],[-74.089817,40.658173],[-74.089086,40.657625],[-74.088852,40.656329],[-74.088306,40.656226],[-74.088403,40.655691],[-74.08605,40.655497],[-74.087468,40.653667],[-74.09342,40.650165],[-74.094791,40.649641],[-74.097783,40.649233],[-74.099329,40.649285],[-74.101117,40.649779],[-74.101628,40.649646],[-74.102815,40.649804],[-74.102824,40.650365],[-74.10359,40.650617],[-74.103832,40.650613],[-74.104077,40.64996],[-74.105686,40.650119],[-74.105599,40.650711],[-74.105925,40.651034],[-74.106727,40.651069],[-74.107142,40.651329],[-74.107394,40.651342],[-74.107578,40.650265],[-74.108468,40.650301],[-74.108451,40.650708],[-74.111375,40.650989],[-74.112966,40.650925],[-74.114045,40.65189],[-74.114403,40.651657],[-74.114011,40.65088],[-74.115447,40.65274],[-74.115889,40.652871],[-74.1165,40.652589],[-74.115038,40.650386],[-74.116445,40.652148],[-74.116801,40.65191],[-74.115059,40.649532],[-74.115843,40.649215],[-74.116241,40.649535],[-74.117098,40.648832],[-74.118644,40.64842],[-74.119002,40.647539],[-74.120136,40.646109],[-74.125303,40.645306],[-74.125782,40.645068],[-74.126098,40.64519],[-74.128425,40.644838],[-74.130745,40.64512],[-74.131048,40.644945],[-74.132858,40.645202],[-74.133579,40.645044],[-74.135897,40.645193],[-74.136796,40.645649],[-74.137508,40.645309],[-74.140314,40.644818],[-74.141108,40.644267],[-74.13943,40.647997]],[[-74.125932,40.651468],[-74.125859,40.651495],[-74.125931,40.651495],[-74.125932,40.651468]],[[-74.11953,40.655427],[-74.119493,40.655454],[-74.119529,40.655454],[-74.11953,40.655427]],[[-74.119493,40.655454],[-74.119457,40.655482],[-74.119493,40.655482],[-74.119493,40.655454]],[[-74.119601,40.65551],[-74.119565,40.655482],[-74.119565,40.655509],[-74.119601,40.65551]],[[-74.11638,40.657805],[-74.116416,40.657777],[-74.11638,40.657777],[-74.11638,40.657805]],[[-74.116344,40.65775],[-74.116381,40.657695],[-74.116345,40.657695],[-74.116344,40.65775]],[[-74.115625,40.657473],[-74.115661,40.657445],[-74.115625,40.657445],[-74.115625,40.657473]],[[-74.11505,40.657224],[-74.115014,40.657196],[-74.115014,40.657224],[-74.11505,40.657224]],[[-74.114942,40.657223],[-74.114978,40.657169],[-74.114942,40.657169],[-74.114942,40.657223]],[[-74.114834,40.657223],[-74.114798,40.657196],[-74.114798,40.657223],[-74.114834,40.657223]],[[-74.115337,40.657499],[-74.1153,40.657527],[-74.115336,40.657527],[-74.115337,40.657499]],[[-74.11584,40.657721],[-74.115804,40.657748],[-74.11584,40.657748],[-74.11584,40.657721]],[[-74.10827,40.670185],[-74.108233,40.670212],[-74.10827,40.670213],[-74.10827,40.670185]],[[-74.108809,40.670434],[-74.108773,40.670406],[-74.108773,40.670434],[-74.108809,40.670434]],[[-74.108482,40.670845],[-74.108446,40.670817],[-74.108446,40.670845],[-74.108482,40.670845]],[[-74.108373,40.670982],[-74.108337,40.670954],[-74.108337,40.670981],[-74.108373,40.670982]],[[-74.108192,40.671201],[-74.108156,40.671173],[-74.108156,40.6712],[-74.108192,40.671201]],[[-74.108155,40.671255],[-74.108119,40.671228],[-74.108119,40.671255],[-74.108155,40.671255]],[[-74.108083,40.671337],[-74.108047,40.67131],[-74.108047,40.671337],[-74.108083,40.671337]],[[-74.107393,40.672159],[-74.107429,40.672131],[-74.107393,40.672131],[-74.107393,40.672159]],[[-74.106558,40.673116],[-74.106522,40.673089],[-74.106522,40.673116],[-74.106558,40.673116]],[[-74.106304,40.67339],[-74.106268,40.673308],[-74.106232,40.673417],[-74.106304,40.67339]],[[-74.106086,40.673664],[-74.10605,40.673636],[-74.10605,40.673664],[-74.106086,40.673664]],[[-74.106013,40.673746],[-74.105978,40.673718],[-74.105977,40.673746],[-74.106013,40.673746]],[[-74.105832,40.673965],[-74.105796,40.673937],[-74.105796,40.673965],[-74.105832,40.673965]],[[-74.105759,40.674047],[-74.105723,40.674019],[-74.105723,40.674047],[-74.105759,40.674047]],[[-74.10565,40.674184],[-74.105614,40.674156],[-74.105614,40.674184],[-74.10565,40.674184]],[[-74.105505,40.674348],[-74.105469,40.674321],[-74.105469,40.674348],[-74.105505,40.674348]],[[-74.105433,40.67443],[-74.105397,40.674403],[-74.105397,40.67443],[-74.105433,40.67443]],[[-74.105397,40.674403],[-74.105361,40.674375],[-74.105361,40.674403],[-74.105397,40.674403]],[[-74.105396,40.674485],[-74.10536,40.674457],[-74.10536,40.674485],[-74.105396,40.674485]],[[-74.104961,40.674923],[-74.104925,40.674895],[-74.104925,40.674923],[-74.104961,40.674923]],[[-74.104455,40.675196],[-74.104491,40.675168],[-74.104455,40.675168],[-74.104455,40.675196]],[[-74.104491,40.675168],[-74.104527,40.675141],[-74.104491,40.675141],[-74.104491,40.675168]],[[-74.104053,40.676073],[-74.104017,40.676045],[-74.104017,40.676072],[-74.104053,40.676073]],[[-74.10362,40.676071],[-74.103656,40.676044],[-74.10362,40.676044],[-74.10362,40.676071]],[[-74.103656,40.676044],[-74.103693,40.675989],[-74.103657,40.675989],[-74.103656,40.676044]],[[-74.103693,40.675989],[-74.103729,40.675934],[-74.103693,40.675934],[-74.103693,40.675989]],[[-74.103729,40.675934],[-74.103765,40.675907],[-74.103729,40.675907],[-74.103729,40.675934]],[[-74.103765,40.675907],[-74.103802,40.67588],[-74.103766,40.675879],[-74.103765,40.675907]],[[-74.103186,40.676399],[-74.10315,40.676371],[-74.10315,40.676399],[-74.103186,40.676399]],[[-74.099213,40.677401],[-74.099141,40.677456],[-74.099177,40.677456],[-74.099213,40.677401]],[[-74.099069,40.677455],[-74.098563,40.677728],[-74.098417,40.678002],[-74.098887,40.677729],[-74.099069,40.677455]],[[-74.099053,40.680118],[-74.099017,40.680145],[-74.099053,40.680145],[-74.099053,40.680118]],[[-74.098801,40.68009],[-74.098765,40.680117],[-74.098801,40.680117],[-74.098801,40.68009]],[[-74.099443,40.681217],[-74.099407,40.681245],[-74.099443,40.681245],[-74.099443,40.681217]],[[-74.099334,40.681354],[-74.099298,40.681327],[-74.099298,40.681354],[-74.099334,40.681354]],[[-74.139503,40.647832],[-74.139467,40.647805],[-74.139467,40.647832],[-74.139503,40.647832]]],[[[-74.104452,40.675635],[-74.104416,40.675607],[-74.104452,40.675607],[-74.104452,40.675635]]],[[[-74.104379,40.675717],[-74.104344,40.675689],[-74.10438,40.675689],[-74.104379,40.675717]]],[[[-74.104343,40.675772],[-74.104307,40.675744],[-74.104343,40.675744],[-74.104343,40.675772]]],[[[-74.10427,40.675854],[-74.104235,40.675826],[-74.104271,40.675826],[-74.10427,40.675854]]],[[[-74.104198,40.675908],[-74.104162,40.675936],[-74.104162,40.675908],[-74.104198,40.675908]]],[[[-74.104125,40.67599],[-74.104089,40.676018],[-74.104089,40.67599],[-74.104125,40.67599]]],[[[-74.104016,40.676127],[-74.10398,40.676155],[-74.10398,40.676127],[-74.104016,40.676127]]],[[[-74.103944,40.676237],[-74.103908,40.676209],[-74.103944,40.676209],[-74.103944,40.676237]]],[[[-74.103871,40.676319],[-74.103835,40.676291],[-74.103871,40.676292],[-74.103871,40.676319]]],[[[-74.103798,40.676401],[-74.103763,40.676374],[-74.103799,40.676374],[-74.103798,40.676401]]],[[[-74.103474,40.676373],[-74.10351,40.6764],[-74.103474,40.6764],[-74.103474,40.676373]]],[[[-74.10369,40.676483],[-74.103726,40.676456],[-74.103726,40.676483],[-74.10369,40.676483]]],[[[-74.103401,40.676482],[-74.103438,40.676455],[-74.103437,40.676482],[-74.103401,40.676482]]],[[[-74.103401,40.67651],[-74.103365,40.676537],[-74.103365,40.676509],[-74.103401,40.67651]]],[[[-74.103617,40.676565],[-74.103653,40.676538],[-74.103653,40.676565],[-74.103617,40.676565]]],[[[-74.103617,40.67662],[-74.103581,40.676592],[-74.103617,40.676593],[-74.103617,40.67662]]],[[[-74.103544,40.676702],[-74.103508,40.676675],[-74.103544,40.676675],[-74.103544,40.676702]]],[[[-74.103508,40.676757],[-74.103472,40.676729],[-74.103508,40.676729],[-74.103508,40.676757]]],[[[-74.103436,40.676784],[-74.103472,40.676757],[-74.103472,40.676784],[-74.103436,40.676784]]],[[[-74.103399,40.676839],[-74.103436,40.676812],[-74.103435,40.676839],[-74.103399,40.676839]]],[[[-74.103399,40.676894],[-74.103363,40.676866],[-74.103399,40.676866],[-74.103399,40.676894]]],[[[-74.103254,40.677003],[-74.10329,40.676976],[-74.10329,40.677003],[-74.103254,40.677003]]],[[[-74.103218,40.677058],[-74.103254,40.677031],[-74.103254,40.677058],[-74.103218,40.677058]]],[[[-74.103181,40.67714],[-74.103145,40.677113],[-74.103181,40.677113],[-74.103181,40.67714]]],[[[-74.103073,40.677222],[-74.103109,40.677195],[-74.103109,40.677222],[-74.103073,40.677222]]],[[[-74.103036,40.677277],[-74.103072,40.67725],[-74.103072,40.677277],[-74.103036,40.677277]]],[[[-74.102891,40.677386],[-74.102855,40.677359],[-74.102891,40.677359],[-74.102891,40.677386]]],[[[-74.102819,40.677413],[-74.102855,40.677441],[-74.102819,40.677441],[-74.102819,40.677413]]],[[[-74.102782,40.677496],[-74.102746,40.677523],[-74.102746,40.677495],[-74.102782,40.677496]]],[[[-74.102746,40.677523],[-74.10271,40.67755],[-74.10271,40.677523],[-74.102746,40.677523]]],[[[-74.102638,40.677605],[-74.102673,40.677632],[-74.102637,40.677632],[-74.102638,40.677605]]],[[[-74.102565,40.677687],[-74.102601,40.677715],[-74.102565,40.677714],[-74.102565,40.677687]]],[[[-74.1025,40.694663],[-74.102493,40.694651],[-74.1025,40.694651],[-74.1025,40.694663]]],[[[-74.102511,40.694679],[-74.102536,40.694679],[-74.102536,40.694716],[-74.102511,40.694679]]],[[[-74.102572,40.69477],[-74.102547,40.694734],[-74.102572,40.694734],[-74.102572,40.69477]]],[[[-74.102565,40.677742],[-74.102528,40.677769],[-74.102529,40.677742],[-74.102565,40.677742]]],[[[-74.102456,40.677824],[-74.102492,40.677851],[-74.102456,40.677851],[-74.102456,40.677824]]],[[[-74.102166,40.678097],[-74.102167,40.677988],[-74.102239,40.67796],[-74.102166,40.678097]]],[[[-74.102202,40.678152],[-74.102238,40.678125],[-74.102238,40.678153],[-74.102202,40.678152]]],[[[-74.102058,40.678124],[-74.10213,40.678152],[-74.102057,40.678179],[-74.102058,40.678124]]],[[[-74.102021,40.678179],[-74.102057,40.678207],[-74.102021,40.678207],[-74.102021,40.678179]]],[[[-74.101985,40.678207],[-74.102021,40.678262],[-74.101985,40.678261],[-74.101985,40.678207]]],[[[-74.102093,40.678289],[-74.102129,40.678262],[-74.102129,40.678289],[-74.102093,40.678289]]],[[[-74.101912,40.678289],[-74.101984,40.678316],[-74.101912,40.678344],[-74.101912,40.678289]]],[[[-74.102056,40.678344],[-74.10202,40.678371],[-74.10202,40.678344],[-74.102056,40.678344]]],[[[-74.101803,40.67848],[-74.101839,40.678453],[-74.101839,40.678481],[-74.101803,40.67848]]],[[[-74.101731,40.678508],[-74.101803,40.678535],[-74.10173,40.678563],[-74.101731,40.678508]]],[[[-74.101622,40.678617],[-74.101586,40.678644],[-74.101586,40.678617],[-74.101622,40.678617]]],[[[-74.101549,40.678699],[-74.101513,40.678727],[-74.101513,40.678699],[-74.101549,40.678699]]],[[[-74.101477,40.678781],[-74.101441,40.678809],[-74.101441,40.678781],[-74.101477,40.678781]]],[[[-74.10144,40.678864],[-74.101368,40.678836],[-74.101441,40.678809],[-74.10144,40.678864]]],[[[-74.101368,40.678946],[-74.101332,40.678891],[-74.101368,40.678891],[-74.101368,40.678946]]],[[[-74.101332,40.678945],[-74.101295,40.678973],[-74.101296,40.678945],[-74.101332,40.678945]]],[[[-74.10173,40.678563],[-74.10104,40.679466],[-74.100968,40.679466],[-74.10173,40.678563]]],[[[-74.101295,40.679],[-74.101259,40.679028],[-74.101259,40.679],[-74.101295,40.679]]],[[[-74.10133,40.679193],[-74.101294,40.67922],[-74.101294,40.679192],[-74.10133,40.679193]]],[[[-74.101185,40.679357],[-74.101221,40.679329],[-74.101221,40.679357],[-74.101185,40.679357]]],[[[-74.101185,40.679412],[-74.101149,40.679384],[-74.101185,40.679384],[-74.101185,40.679412]]],[[[-74.101149,40.679412],[-74.101112,40.679439],[-74.101112,40.679411],[-74.101149,40.679412]]],[[[-74.100967,40.679576],[-74.100859,40.679548],[-74.100968,40.679466],[-74.100967,40.679576]]],[[[-74.10075,40.67974],[-74.100641,40.679849],[-74.100859,40.679603],[-74.100822,40.67974],[-74.10075,40.67974]]],[[[-74.100858,40.679767],[-74.100822,40.67974],[-74.100858,40.67974],[-74.100858,40.679767]]],[[[-74.100677,40.679877],[-74.100713,40.679849],[-74.100713,40.679877],[-74.100677,40.679877]]],[[[-74.100605,40.679849],[-74.100641,40.679904],[-74.100605,40.679904],[-74.100605,40.679849]]],[[[-74.100569,40.679931],[-74.100605,40.679904],[-74.100605,40.679931],[-74.100569,40.679931]]],[[[-74.100676,40.680014],[-74.10064,40.679986],[-74.100676,40.679986],[-74.100676,40.680014]]],[[[-74.100712,40.679986],[-74.100784,40.680042],[-74.100748,40.680041],[-74.100712,40.679986]]],[[[-74.10064,40.680041],[-74.100604,40.680014],[-74.10064,40.680014],[-74.10064,40.680041]]],[[[-74.100748,40.680096],[-74.10064,40.680069],[-74.100712,40.680014],[-74.100748,40.680096]]],[[[-74.100567,40.680178],[-74.100676,40.680124],[-74.100639,40.680206],[-74.100567,40.680178]]],[[[-74.100567,40.680233],[-74.100603,40.680206],[-74.100603,40.680233],[-74.100567,40.680233]]],[[[-74.100496,40.680041],[-74.100569,40.679931],[-74.100604,40.680014],[-74.100496,40.680041]]],[[[-74.100459,40.680095],[-74.100496,40.680041],[-74.100495,40.680096],[-74.100459,40.680095]]],[[[-74.099089,40.680091],[-74.099053,40.680091],[-74.099053,40.680063],[-74.099089,40.680063],[-74.099089,40.680091]]],[[[-74.099125,40.680118],[-74.099089,40.680091],[-74.099125,40.680091],[-74.099125,40.680118]]],[[[-74.100459,40.680095],[-74.100387,40.680177],[-74.100423,40.680095],[-74.100459,40.680095]]],[[[-74.100531,40.680178],[-74.100567,40.680206],[-74.100531,40.680205],[-74.100531,40.680178]]],[[[-74.100387,40.680205],[-74.100314,40.680232],[-74.100315,40.680177],[-74.100387,40.680205]]],[[[-74.100531,40.680233],[-74.100567,40.680233],[-74.100566,40.680288],[-74.100495,40.680205],[-74.100531,40.680233]]],[[[-74.099016,40.680228],[-74.099052,40.680255],[-74.099016,40.680255],[-74.099016,40.680228]]],[[[-74.099124,40.680228],[-74.099088,40.680283],[-74.099088,40.680228],[-74.099124,40.680228]]],[[[-74.100314,40.68026],[-74.10035,40.680287],[-74.100314,40.680287],[-74.100314,40.68026]]],[[[-74.100278,40.680259],[-74.100242,40.680287],[-74.100242,40.680259],[-74.100278,40.680259]]],[[[-74.100205,40.680342],[-74.100242,40.680287],[-74.100242,40.680342],[-74.100205,40.680342]]],[[[-74.099052,40.680338],[-74.099016,40.68031],[-74.099052,40.68031],[-74.099052,40.680338]]],[[[-74.100133,40.680369],[-74.100169,40.680396],[-74.100133,40.680396],[-74.100133,40.680369]]],[[[-74.100061,40.680423],[-74.100133,40.680451],[-74.10006,40.680478],[-74.100061,40.680423]]],[[[-74.100169,40.680451],[-74.100205,40.680479],[-74.100169,40.680479],[-74.100169,40.680451]]],[[[-74.100024,40.680478],[-74.10006,40.680506],[-74.100024,40.680506],[-74.100024,40.680478]]],[[[-74.099988,40.68056],[-74.099952,40.680588],[-74.099952,40.68056],[-74.099988,40.68056]]],[[[-74.099951,40.680615],[-74.099916,40.680588],[-74.099952,40.680588],[-74.099951,40.680615]]],[[[-74.098905,40.680666],[-74.09887,40.680639],[-74.098906,40.680639],[-74.098905,40.680666]]],[[[-74.099771,40.680697],[-74.099915,40.680697],[-74.09977,40.680752],[-74.099771,40.680697]]],[[[-74.099661,40.681026],[-74.099696,40.681053],[-74.09966,40.681053],[-74.099661,40.681026]]],[[[-74.098939,40.681133],[-74.098903,40.681106],[-74.098939,40.681106],[-74.098939,40.681133]]],[[[-74.099552,40.681163],[-74.099515,40.68119],[-74.099515,40.681163],[-74.099552,40.681163]]],[[[-74.099515,40.681218],[-74.099479,40.68119],[-74.099515,40.68119],[-74.099515,40.681218]]],[[[-74.099227,40.681189],[-74.099263,40.681244],[-74.099227,40.681244],[-74.099227,40.681189]]],[[[-74.100494,40.68026],[-74.099913,40.681054],[-74.100743,40.680838],[-74.100449,40.681852],[-74.100087,40.682043],[-74.100007,40.683333],[-74.099755,40.683387],[-74.099932,40.683799],[-74.09939,40.684045],[-74.098893,40.68267],[-74.09933,40.682095],[-74.099218,40.682671],[-74.09929,40.682699],[-74.099473,40.682288],[-74.099297,40.681601],[-74.100494,40.68026]]],[[[-74.098716,40.682258],[-74.099223,40.681766],[-74.098827,40.68256],[-74.098716,40.682258]]],[[[-74.099671,40.685266],[-74.099661,40.685226],[-74.099671,40.685226],[-74.099671,40.685266]]],[[[-74.099706,40.685408],[-74.099689,40.685336],[-74.099707,40.685336],[-74.099706,40.685408]]],[[[-74.099742,40.685418],[-74.099716,40.685447],[-74.099709,40.685418],[-74.099742,40.685418]]],[[[-74.099824,40.685917],[-74.099743,40.685556],[-74.099922,40.685474],[-74.100029,40.685721],[-74.099824,40.685917]],[[-74.099922,40.685584],[-74.099886,40.685611],[-74.099922,40.685611],[-74.099922,40.685584]]]]}}]}