{"type":"FeatureCollection","features":[{"type":"Feature","properties":{"level_ft":19},"geometry":{"type":"MultiPolygon","coordinates":[[[[-74.158263,40.644019],[-74.158263,40.644031],[-74.158248,40.644019],[-74.158263,40.644019]]],[[[-74.158282,40.644046],[-74.161391,40.644357],[-74.161303,40.645451],[-74.160077,40.645246],[-74.160206,40.644951],[-74.159668,40.644486],[-74.159018,40.644694],[-74.159247,40.644938],[-74.158912,40.644855],[-74.158282,40.644046]]],[[[-74.138885,40.648709],[-74.138921,40.648791],[-74.138885,40.648791],[-74.138885,40.648709]]],[[[-74.138595,40.64901],[-74.138631,40.649037],[-74.138595,40.649037],[-74.138595,40.64901]]],[[[-74.138559,40.649065],[-74.138595,40.649092],[-74.138559,40.649092],[-74.138559,40.649065]]],[[[-74.138631,40.649175],[-74.138631,40.649037],[-74.138703,40.649038],[-74.138631,40.649175]]],[[[-74.138486,40.649339],[-74.138018,40.6492],[-74.138127,40.648981],[-74.138559,40.649092],[-74.138486,40.649339]]],[[[-74.138304,40.649613],[-74.138268,40.649613],[-74.138268,40.649585],[-74.138304,40.649585],[-74.138304,40.649613]]],[[[-74.138376,40.649641],[-74.138304,40.649613],[-74.138376,40.649586],[-74.138376,40.649641]]],[[[-74.137324,40.650927],[-74.13736,40.6509],[-74.13736,40.650928],[-74.137324,40.650927]]],[[[-74.137323,40.650982],[-74.137287,40.650955],[-74.137324,40.650955],[-74.137323,40.650982]]],[[[-74.137033,40.651366],[-74.136997,40.651393],[-74.136997,40.651366],[-74.137033,40.651366]]],[[[-74.136996,40.651503],[-74.13696,40.65153],[-74.13696,40.651503],[-74.136996,40.651503]]],[[[-74.136924,40.65153],[-74.13696,40.651585],[-74.136924,40.651585],[-74.136924,40.65153]]],[[[-74.136562,40.651831],[-74.136526,40.651858],[-74.136526,40.651831],[-74.136562,40.651831]]],[[[-74.137251,40.650955],[-74.13725,40.651174],[-74.13707,40.651229],[-74.136961,40.651366],[-74.13696,40.651475],[-74.136528,40.651474],[-74.136489,40.652023],[-74.135256,40.653282],[-74.134643,40.653362],[-74.134899,40.652786],[-74.134647,40.652648],[-74.134143,40.652647],[-74.133961,40.652921],[-74.133746,40.652591],[-74.132053,40.652475],[-74.13227,40.652284],[-74.13382,40.652289],[-74.133894,40.65196],[-74.13418,40.652317],[-74.135009,40.652348],[-74.135159,40.651415],[-74.135884,40.650621],[-74.136208,40.650622],[-74.136171,40.650814],[-74.136782,40.651118],[-74.137144,40.650762],[-74.136821,40.650569],[-74.137038,40.650405],[-74.137505,40.650653],[-74.137251,40.650955]],[[-74.13649,40.651858],[-74.136453,40.651885],[-74.136489,40.651886],[-74.13649,40.651858]],[[-74.136453,40.651968],[-74.136417,40.651995],[-74.136453,40.651995],[-74.136453,40.651968]],[[-74.13638,40.652105],[-74.136344,40.652077],[-74.136344,40.652105],[-74.13638,40.652105]],[[-74.135293,40.653227],[-74.135257,40.653199],[-74.135257,40.653227],[-74.135293,40.653227]],[[-74.134932,40.653253],[-74.134896,40.653226],[-74.134896,40.653253],[-74.134932,40.653253]]],[[[-74.133053,40.654098],[-74.133777,40.653634],[-74.134498,40.653581],[-74.134641,40.653746],[-74.133053,40.654098]]],[[[-74.133666,40.654155],[-74.134785,40.653884],[-74.133665,40.654265],[-74.133666,40.654155]]],[[[-74.129016,40.654168],[-74.129052,40.65414],[-74.129052,40.654168],[-74.129016,40.654168]]],[[[-74.133881,40.654375],[-74.133809,40.654403],[-74.133809,40.654375],[-74.133881,40.654375]]],[[[-74.13352,40.654402],[-74.133664,40.654457],[-74.133448,40.654456],[-74.13352,40.654402]]],[[[-74.128294,40.654467],[-74.12833,40.654495],[-74.128293,40.654495],[-74.128294,40.654467]]],[[[-74.133736,40.65454],[-74.133194,40.654757],[-74.133087,40.654538],[-74.133736,40.65454]]],[[[-74.121078,40.655679],[-74.121042,40.655706],[-74.121042,40.655679],[-74.121078,40.655679]]],[[[-74.118575,40.658581],[-74.118539,40.658553],[-74.118575,40.658553],[-74.118575,40.658581]]],[[[-74.118718,40.658663],[-74.118682,40.658691],[-74.118682,40.658663],[-74.118718,40.658663]]],[[[-74.118393,40.658745],[-74.11843,40.65869],[-74.118429,40.658745],[-74.118393,40.658745]]],[[[-74.118321,40.658854],[-74.118284,40.658882],[-74.118285,40.658854],[-74.118321,40.658854]]],[[[-74.118501,40.65891],[-74.118537,40.658882],[-74.118537,40.65891],[-74.118501,40.65891]]],[[[-74.118248,40.658881],[-74.118284,40.658909],[-74.118248,40.658909],[-74.118248,40.658881]]],[[[-74.127933,40.654548],[-74.128978,40.654607],[-74.128979,40.65436],[-74.129267,40.654361],[-74.130132,40.654391],[-74.130131,40.654665],[-74.130528,40.654557],[-74.130706,40.654887],[-74.129984,40.655214],[-74.130881,40.655903],[-74.130485,40.655874],[-74.130375,40.656066],[-74.130842,40.656452],[-74.131239,40.656234],[-74.131237,40.656755],[-74.1321,40.657115],[-74.132098,40.657417],[-74.131702,40.657333],[-74.131376,40.657552],[-74.131483,40.657799],[-74.132205,40.657554],[-74.131949,40.658212],[-74.13274,40.658736],[-74.130755,40.659032],[-74.130829,40.658758],[-74.130147,40.658289],[-74.130903,40.658483],[-74.131156,40.658347],[-74.131049,40.658127],[-74.130616,40.658098],[-74.130474,40.657851],[-74.129752,40.657958],[-74.129755,40.657409],[-74.12936,40.657188],[-74.129757,40.65708],[-74.130152,40.657301],[-74.130298,40.657027],[-74.130011,40.656806],[-74.129541,40.656942],[-74.129471,40.65664],[-74.128788,40.656308],[-74.128427,40.656444],[-74.128966,40.656638],[-74.129109,40.65694],[-74.128281,40.656691],[-74.127921,40.656717],[-74.127811,40.656991],[-74.128962,40.657462],[-74.129248,40.657902],[-74.12806,40.657596],[-74.127558,40.65721],[-74.127447,40.657566],[-74.12831,40.657981],[-74.128488,40.658338],[-74.127263,40.658307],[-74.128881,40.659081],[-74.128663,40.659355],[-74.126938,40.658471],[-74.124739,40.658464],[-74.123731,40.658158],[-74.123009,40.658348],[-74.122147,40.657906],[-74.121676,40.658289],[-74.121569,40.658124],[-74.121208,40.658205],[-74.121709,40.658756],[-74.121062,40.658561],[-74.120483,40.658889],[-74.121021,40.659385],[-74.120193,40.659272],[-74.120011,40.659491],[-74.12001,40.659766],[-74.12055,40.659877],[-74.120763,40.660317],[-74.119827,40.660149],[-74.119574,40.660313],[-74.11979,40.660424],[-74.11975,40.661055],[-74.11939,40.661054],[-74.11899,40.661574],[-74.119636,40.662043],[-74.11841,40.662231],[-74.117979,40.661928],[-74.117725,40.662229],[-74.117436,40.662228],[-74.117868,40.662421],[-74.117866,40.662751],[-74.117147,40.662446],[-74.116929,40.66272],[-74.116749,40.662637],[-74.116674,40.663213],[-74.115807,40.66343],[-74.115696,40.663924],[-74.115084,40.66384],[-74.115016,40.663043],[-74.116794,40.661045],[-74.120206,40.656939],[-74.121437,40.655927],[-74.122883,40.655163],[-74.12505,40.654484],[-74.127574,40.654245],[-74.127933,40.654548]],[[-74.12301,40.658266],[-74.123046,40.658238],[-74.12301,40.658238],[-74.12301,40.658266]],[[-74.117617,40.662119],[-74.117653,40.662091],[-74.117617,40.662091],[-74.117617,40.662119]]],[[[-74.118067,40.659155],[-74.118103,40.659128],[-74.118103,40.659156],[-74.118067,40.659155]]],[[[-74.118174,40.659266],[-74.11821,40.659293],[-74.118174,40.659293],[-74.118174,40.659266]]],[[[-74.117884,40.659594],[-74.11792,40.659622],[-74.117884,40.659621],[-74.117884,40.659594]]],[[[-74.117847,40.659676],[-74.117811,40.659704],[-74.117811,40.659676],[-74.117847,40.659676]]],[[[-74.117811,40.659758],[-74.117775,40.659731],[-74.117811,40.659731],[-74.117811,40.659758]]],[[[-74.136804,40.653726],[-74.136625,40.653506],[-74.136118,40.653998],[-74.135433,40.653968],[-74.135832,40.653448],[-74.1363,40.653532],[-74.136445,40.653368],[-74.136449,40.652682],[-74.137649,40.650791],[-74.137866,40.650655],[-74.138009,40.650847],[-74.138263,40.650491],[-74.138157,40.650134],[-74.139973,40.647587],[-74.141323,40.644352],[-74.141982,40.64453],[-74.14188,40.644033],[-74.143813,40.643797],[-74.163014,40.645898],[-74.15809,40.649737],[-74.14726,40.655124],[-74.142721,40.658943],[-74.140573,40.661318],[-74.132507,40.672932],[-74.125251,40.68406],[-74.120322,40.69066],[-74.117554,40.694949],[-74.106089,40.691479],[-74.107459,40.691621],[-74.108367,40.690554],[-74.107612,40.690194],[-74.107213,40.69044],[-74.107002,40.689643],[-74.107366,40.688958],[-74.108595,40.68855],[-74.10928,40.68858],[-74.109753,40.687868],[-74.109468,40.687181],[-74.110263,40.686937],[-74.111928,40.685844],[-74.111714,40.685432],[-74.112077,40.685131],[-74.112261,40.68439],[-74.111685,40.684306],[-74.111615,40.683949],[-74.111976,40.683813],[-74.112443,40.684199],[-74.113534,40.682583],[-74.112996,40.682087],[-74.113321,40.681978],[-74.113752,40.682227],[-74.114734,40.680748],[-74.11463,40.680061],[-74.113658,40.679783],[-74.113805,40.679345],[-74.11431,40.679209],[-74.114848,40.679787],[-74.115395,40.678636],[-74.116514,40.67853],[-74.116733,40.678009],[-74.117275,40.677792],[-74.117385,40.677435],[-74.118654,40.676341],[-74.118906,40.67637],[-74.119559,40.675685],[-74.120823,40.67525],[-74.121149,40.674922],[-74.122022,40.673552],[-74.121521,40.672892],[-74.122314,40.672949],[-74.122028,40.672509],[-74.122534,40.672264],[-74.122789,40.671798],[-74.123185,40.671964],[-74.123731,40.671142],[-74.123228,40.670784],[-74.123805,40.670731],[-74.12388,40.670264],[-74.123518,40.670401],[-74.123376,40.670153],[-74.123049,40.670454],[-74.123413,40.669851],[-74.123127,40.669548],[-74.1232,40.669384],[-74.123955,40.669661],[-74.124064,40.669551],[-74.12349,40.669055],[-74.123057,40.669191],[-74.123023,40.668697],[-74.124037,40.667987],[-74.124294,40.667164],[-74.124043,40.666889],[-74.124476,40.66678],[-74.12437,40.666396],[-74.124624,40.666149],[-74.124229,40.665819],[-74.12513,40.665959],[-74.125419,40.665713],[-74.126285,40.665606],[-74.126969,40.665828],[-74.127692,40.6655],[-74.128128,40.664898],[-74.128777,40.664818],[-74.12932,40.664325],[-74.12983,40.663503],[-74.130408,40.663176],[-74.130194,40.662873],[-74.130846,40.662162],[-74.131713,40.661945],[-74.131606,40.661642],[-74.132114,40.661095],[-74.131829,40.660545],[-74.13237,40.660355],[-74.132483,40.659532],[-74.133096,40.659506],[-74.134691,40.657837],[-74.134837,40.657535],[-74.134584,40.657534],[-74.134586,40.657287],[-74.135638,40.655973],[-74.135316,40.655505],[-74.135391,40.655039],[-74.13496,40.654708],[-74.13554,40.654106],[-74.135973,40.65408],[-74.13608,40.654327],[-74.136945,40.654248],[-74.1372,40.653837],[-74.136804,40.653726]],[[-74.122023,40.673498],[-74.122059,40.67347],[-74.122023,40.67347],[-74.122023,40.673498]],[[-74.122059,40.67347],[-74.122095,40.673443],[-74.122059,40.673443],[-74.122059,40.67347]],[[-74.12388,40.670264],[-74.123916,40.67021],[-74.12388,40.67021],[-74.12388,40.670264]],[[-74.137056,40.653754],[-74.137092,40.653727],[-74.137056,40.653727],[-74.137056,40.653754]]],[[[-74.117739,40.659758],[-74.117775,40.659786],[-74.117739,40.659786],[-74.117739,40.659758]]],[[[-74.117702,40.659813],[-74.117739,40.659786],[-74.117738,40.659813],[-74.117702,40.659813]]],[[[-74.117666,40.65984],[-74.117702,40.659813],[-74.117702,40.65984],[-74.117666,40.65984]]],[[[-74.11763,40.659895],[-74.117594,40.659922],[-74.117594,40.659895],[-74.11763,40.659895]]],[[[-74.117594,40.659922],[-74.117557,40.65995],[-74.117558,40.659922],[-74.117594,40.659922]]],[[[-74.116505,40.661099],[-74.116506,40.661044],[-74.116578,40.660962],[-74.116505,40.661099]]],[[[-74.116433,40.661099],[-74.116469,40.661127],[-74.116433,40.661126],[-74.116433,40.661099]]],[[[-74.116433,40.661181],[-74.116397,40.661154],[-74.116433,40.661154],[-74.116433,40.661181]]],[[[-74.116361,40.661181],[-74.116397,40.661209],[-74.116361,40.661209],[-74.116361,40.661181]]],[[[-74.116324,40.661263],[-74.116361,40.661236],[-74.11636,40.661263],[-74.116324,40.661263]]],[[[-74.116324,40.661346],[-74.116288,40.661291],[-74.116324,40.661291],[-74.116324,40.661346]]],[[[-74.116033,40.661702],[-74.11607,40.661674],[-74.116069,40.661702],[-74.116033,40.661702]]],[[[-74.114944,40.66307],[-74.114908,40.663043],[-74.114944,40.663043],[-74.114944,40.66307]]],[[[-74.114944,40.663125],[-74.115016,40.66318],[-74.114944,40.663153],[-74.114944,40.663125]]],[[[-74.114799,40.66329],[-74.11487,40.663345],[-74.114799,40.663317],[-74.114799,40.66329]]],[[[-74.114762,40.663399],[-74.114798,40.663372],[-74.114798,40.663399],[-74.114762,40.663399]]],[[[-74.114109,40.664166],[-74.114145,40.664193],[-74.114109,40.664193],[-74.114109,40.664166]]],[[[-74.114036,40.664193],[-74.114073,40.664166],[-74.114073,40.664193],[-74.114036,40.664193]]],[[[-74.114036,40.66433],[-74.114,40.664303],[-74.114036,40.664303],[-74.114036,40.66433]]],[[[-74.113963,40.664357],[-74.114,40.66433],[-74.113999,40.664357],[-74.113963,40.664357]]],[[[-74.113927,40.66444],[-74.113891,40.664412],[-74.113927,40.664412],[-74.113927,40.66444]]],[[[-74.113673,40.664741],[-74.113637,40.664713],[-74.113673,40.664713],[-74.113673,40.664741]]],[[[-74.1136,40.664823],[-74.113564,40.664795],[-74.1136,40.664795],[-74.1136,40.664823]]],[[[-74.113419,40.665042],[-74.113383,40.665014],[-74.113419,40.665014],[-74.113419,40.665042]]],[[[-74.113346,40.665096],[-74.113383,40.665069],[-74.113382,40.665097],[-74.113346,40.665096]]],[[[-74.113274,40.665179],[-74.11331,40.665151],[-74.11331,40.665179],[-74.113274,40.665179]]],[[[-74.113237,40.665261],[-74.113201,40.665233],[-74.113237,40.665233],[-74.113237,40.665261]]],[[[-74.113201,40.665316],[-74.113165,40.665288],[-74.113201,40.665288],[-74.113201,40.665316]]],[[[-74.113129,40.665343],[-74.113165,40.665315],[-74.113165,40.665343],[-74.113129,40.665343]]],[[[-74.113128,40.665398],[-74.113092,40.66537],[-74.113128,40.66537],[-74.113128,40.665398]]],[[[-74.113092,40.665452],[-74.113056,40.665425],[-74.113092,40.665425],[-74.113092,40.665452]]],[[[-74.11302,40.66548],[-74.113056,40.665452],[-74.113056,40.66548],[-74.11302,40.66548]]],[[[-74.112983,40.665562],[-74.112947,40.665534],[-74.112983,40.665534],[-74.112983,40.665562]]],[[[-74.112657,40.665918],[-74.112693,40.66589],[-74.112693,40.665918],[-74.112657,40.665918]]],[[[-74.11262,40.665972],[-74.112656,40.665945],[-74.112656,40.665973],[-74.11262,40.665972]]],[[[-74.112548,40.666055],[-74.112584,40.666027],[-74.112584,40.666055],[-74.112548,40.666055]]],[[[-74.112511,40.666082],[-74.112548,40.666055],[-74.112548,40.666082],[-74.112511,40.666082]]],[[[-74.11255,40.665615],[-74.112514,40.665643],[-74.112514,40.665615],[-74.11255,40.665615]]],[[[-74.112439,40.666219],[-74.112403,40.666191],[-74.112439,40.666191],[-74.112439,40.666219]]],[[[-74.112366,40.666301],[-74.11233,40.666273],[-74.112366,40.666274],[-74.112366,40.666301]]],[[[-74.112293,40.666383],[-74.112258,40.666356],[-74.112294,40.666356],[-74.112293,40.666383]]],[[[-74.112257,40.666438],[-74.112221,40.66641],[-74.112257,40.66641],[-74.112257,40.666438]]],[[[-74.112076,40.666602],[-74.112112,40.666575],[-74.112112,40.666602],[-74.112076,40.666602]]],[[[-74.111786,40.666875],[-74.111822,40.666848],[-74.111822,40.666876],[-74.111786,40.666875]]],[[[-74.111858,40.666903],[-74.111822,40.666876],[-74.111858,40.666876],[-74.111858,40.666903]]],[[[-74.11175,40.66693],[-74.11175,40.666903],[-74.111786,40.666903],[-74.111786,40.66693],[-74.11175,40.66693]]],[[[-74.111821,40.666958],[-74.111786,40.66693],[-74.111822,40.66693],[-74.111821,40.666958]]],[[[-74.111749,40.666985],[-74.111785,40.666958],[-74.111785,40.666985],[-74.111749,40.666985]]],[[[-74.111713,40.667067],[-74.111677,40.66704],[-74.111713,40.66704],[-74.111713,40.667067]]],[[[-74.111676,40.667122],[-74.11164,40.667095],[-74.111676,40.667095],[-74.111676,40.667122]]],[[[-74.111604,40.667149],[-74.11164,40.667122],[-74.11164,40.667149],[-74.111604,40.667149]]],[[[-74.111568,40.667204],[-74.111604,40.667177],[-74.111604,40.667204],[-74.111568,40.667204]]],[[[-74.111532,40.667204],[-74.111568,40.667232],[-74.111531,40.667231],[-74.111532,40.667204]]],[[[-74.111531,40.667286],[-74.111495,40.667259],[-74.111531,40.667259],[-74.111531,40.667286]]],[[[-74.111459,40.667314],[-74.111495,40.667286],[-74.111495,40.667314],[-74.111459,40.667314]]],[[[-74.111168,40.667669],[-74.111205,40.667642],[-74.111204,40.66767],[-74.111168,40.667669]]],[[[-74.111132,40.667697],[-74.111168,40.667669],[-74.111168,40.667697],[-74.111132,40.667697]]],[[[-74.111132,40.667752],[-74.111096,40.667724],[-74.111132,40.667724],[-74.111132,40.667752]]],[[[-74.110951,40.667916],[-74.110987,40.667888],[-74.110987,40.667916],[-74.110951,40.667916]]],[[[-74.110914,40.667943],[-74.110951,40.667916],[-74.110951,40.667943],[-74.110914,40.667943]]],[[[-74.110914,40.667998],[-74.110878,40.66797],[-74.110914,40.667971],[-74.110914,40.667998]]],[[[-74.110842,40.66808],[-74.110806,40.668053],[-74.110842,40.668053],[-74.110842,40.66808]]],[[[-74.110769,40.668135],[-74.110733,40.668162],[-74.110733,40.668135],[-74.110769,40.668135]]],[[[-74.110697,40.668217],[-74.11066,40.668244],[-74.110661,40.668217],[-74.110697,40.668217]]],[[[-74.110624,40.668299],[-74.110588,40.668326],[-74.110588,40.668299],[-74.110624,40.668299]]],[[[-74.110551,40.668381],[-74.110515,40.668408],[-74.110515,40.668381],[-74.110551,40.668381]]],[[[-74.110479,40.668463],[-74.110443,40.668491],[-74.110443,40.668463],[-74.110479,40.668463]]],[[[-74.110663,40.667723],[-74.11077,40.668052],[-74.110805,40.668135],[-74.110697,40.668135],[-74.110733,40.668217],[-74.110661,40.668189],[-74.110624,40.668217],[-74.11066,40.668299],[-74.110588,40.668271],[-74.110552,40.668299],[-74.110587,40.668381],[-74.110516,40.668354],[-74.110479,40.668381],[-74.110515,40.668463],[-74.110443,40.668436],[-74.110407,40.668463],[-74.110442,40.668545],[-74.110007,40.669066],[-74.109935,40.669038],[-74.109899,40.669065],[-74.109934,40.669148],[-74.109862,40.66912],[-74.10979,40.669175],[-74.109789,40.669229],[-74.109753,40.669229],[-74.109753,40.669284],[-74.109717,40.669284],[-74.109753,40.669367],[-74.109681,40.669339],[-74.109644,40.669394],[-74.10968,40.669449],[-74.109608,40.669421],[-74.109608,40.669448],[-74.109572,40.669448],[-74.109572,40.669503],[-74.109535,40.669503],[-74.109535,40.66964],[-74.109211,40.669584],[-74.110663,40.667723]],[[-74.110406,40.668545],[-74.11037,40.668518],[-74.11037,40.668545],[-74.110406,40.668545]],[[-74.110152,40.668846],[-74.110116,40.668819],[-74.110116,40.668846],[-74.110152,40.668846]],[[-74.11008,40.668929],[-74.110044,40.668901],[-74.110044,40.668928],[-74.11008,40.668929]],[[-74.110007,40.669011],[-74.109971,40.668983],[-74.109971,40.66901],[-74.110007,40.669011]],[[-74.109535,40.669585],[-74.109499,40.669558],[-74.109499,40.669585],[-74.109535,40.669585]]],[[[-74.109971,40.669065],[-74.109934,40.669093],[-74.109935,40.669065],[-74.109971,40.669065]]],[[[-74.109862,40.669175],[-74.109898,40.669147],[-74.109898,40.669175],[-74.109862,40.669175]]],[[[-74.109826,40.669202],[-74.109862,40.669175],[-74.109862,40.669202],[-74.109826,40.669202]]],[[[-74.109825,40.669257],[-74.109789,40.669229],[-74.109825,40.66923],[-74.109825,40.669257]]],[[[-74.109789,40.669284],[-74.109753,40.669312],[-74.109753,40.669284],[-74.109789,40.669284]]],[[[-74.116046,40.697297],[-74.110004,40.69421],[-74.109032,40.693905],[-74.108459,40.693354],[-74.105976,40.69233],[-74.105978,40.691973],[-74.105511,40.691697],[-74.106052,40.691671],[-74.117428,40.695141],[-74.116046,40.697297]]],[[[-74.139866,40.647312],[-74.13856,40.648845],[-74.138166,40.648514],[-74.137697,40.64854],[-74.13698,40.64777],[-74.136476,40.647741],[-74.136477,40.647493],[-74.136117,40.647492],[-74.135933,40.648123],[-74.135717,40.648095],[-74.135757,40.647464],[-74.135541,40.647353],[-74.135252,40.647462],[-74.13496,40.648175],[-74.134708,40.648174],[-74.134638,40.647762],[-74.133952,40.648007],[-74.133878,40.648254],[-74.134346,40.64842],[-74.133913,40.648528],[-74.133658,40.648912],[-74.133442,40.648939],[-74.133444,40.648527],[-74.132724,40.648497],[-74.132469,40.648881],[-74.132182,40.648633],[-74.131678,40.648659],[-74.131351,40.649014],[-74.13121,40.648547],[-74.130885,40.648601],[-74.130887,40.648327],[-74.131283,40.648246],[-74.130818,40.647613],[-74.130599,40.648106],[-74.130275,40.64805],[-74.129639,40.645825],[-74.129387,40.645851],[-74.129312,40.64629],[-74.128808,40.646206],[-74.128629,40.645931],[-74.128051,40.646149],[-74.12798,40.645957],[-74.127512,40.6459],[-74.127115,40.646119],[-74.127003,40.646777],[-74.126714,40.646831],[-74.126715,40.646721],[-74.126571,40.646583],[-74.126606,40.646885],[-74.126245,40.646939],[-74.126532,40.647187],[-74.123682,40.647782],[-74.123784,40.648743],[-74.124108,40.648909],[-74.124249,40.649486],[-74.125147,40.65001],[-74.124857,40.650339],[-74.125323,40.650642],[-74.125756,40.650561],[-74.125934,40.651111],[-74.126293,40.651304],[-74.126943,40.651114],[-74.127014,40.651306],[-74.127698,40.651336],[-74.127697,40.651556],[-74.126975,40.6518],[-74.127514,40.652049],[-74.128094,40.651529],[-74.129171,40.652302],[-74.129025,40.652521],[-74.128448,40.652601],[-74.129241,40.652686],[-74.129635,40.653044],[-74.130286,40.652662],[-74.130535,40.653212],[-74.130861,40.652938],[-74.131473,40.653105],[-74.131837,40.652392],[-74.132049,40.653162],[-74.132697,40.653383],[-74.129235,40.653674],[-74.129234,40.653949],[-74.12783,40.653587],[-74.127396,40.653888],[-74.125449,40.654046],[-74.121695,40.65494],[-74.120936,40.655349],[-74.12036,40.6551],[-74.120575,40.655375],[-74.120502,40.65565],[-74.121042,40.655734],[-74.120208,40.656527],[-74.119046,40.658006],[-74.118358,40.65869],[-74.118357,40.658827],[-74.118213,40.658799],[-74.117886,40.659182],[-74.11745,40.659867],[-74.117557,40.660005],[-74.116759,40.660908],[-74.116578,40.660962],[-74.116543,40.660907],[-74.116398,40.661044],[-74.116143,40.661373],[-74.116178,40.66162],[-74.115998,40.661674],[-74.115997,40.661784],[-74.114872,40.663043],[-74.114799,40.66329],[-74.114763,40.663289],[-74.114762,40.663372],[-74.114726,40.663372],[-74.114725,40.663564],[-74.114181,40.664166],[-74.114109,40.664138],[-74.114109,40.664166],[-74.114073,40.664166],[-74.114037,40.664138],[-74.113965,40.664165],[-74.113821,40.66411],[-74.114,40.664303],[-74.113783,40.664467],[-74.112657,40.665808],[-74.112584,40.665945],[-74.11262,40.666027],[-74.112548,40.666],[-74.112439,40.666082],[-74.11175,40.666848],[-74.111714,40.666903],[-74.111749,40.666958],[-74.111677,40.666985],[-74.11164,40.667095],[-74.111568,40.667122],[-74.111568,40.667177],[-74.111532,40.667177],[-74.111532,40.667204],[-74.111496,40.667204],[-74.111495,40.667259],[-74.111423,40.667286],[-74.111422,40.667506],[-74.110808,40.667668],[-74.111172,40.66712],[-74.111062,40.667422],[-74.111351,40.667203],[-74.111317,40.666956],[-74.112406,40.66567],[-74.11255,40.665698],[-74.112587,40.665451],[-74.113821,40.664082],[-74.113859,40.663781],[-74.113353,40.663971],[-74.112344,40.663885],[-74.112629,40.664435],[-74.111616,40.665091],[-74.111614,40.665475],[-74.111107,40.665748],[-74.111105,40.666105],[-74.110672,40.666213],[-74.110633,40.666734],[-74.108495,40.668566],[-74.108635,40.669363],[-74.108238,40.669361],[-74.108381,40.669719],[-74.108633,40.669747],[-74.108739,40.670077],[-74.109138,40.669694],[-74.109353,40.669859],[-74.1083,40.671201],[-74.108443,40.671339],[-74.108661,40.67112],[-74.108982,40.671725],[-74.109809,40.672029],[-74.110274,40.672608],[-74.110165,40.672854],[-74.110669,40.673021],[-74.110558,40.673459],[-74.109655,40.673758],[-74.107785,40.672874],[-74.107027,40.673146],[-74.107536,40.672324],[-74.10732,40.672241],[-74.106852,40.672184],[-74.106998,40.671855],[-74.107286,40.671884],[-74.107179,40.671719],[-74.106999,40.671663],[-74.10678,40.672211],[-74.107247,40.672433],[-74.104706,40.675389],[-74.104094,40.675222],[-74.104561,40.675553],[-74.103471,40.676867],[-74.103145,40.677085],[-74.103181,40.677168],[-74.103072,40.677304],[-74.103,40.677277],[-74.102964,40.677304],[-74.102963,40.677441],[-74.102891,40.677414],[-74.102819,40.677468],[-74.102818,40.677523],[-74.102782,40.677523],[-74.102782,40.677578],[-74.102746,40.677578],[-74.102746,40.677633],[-74.10271,40.677633],[-74.102709,40.677688],[-74.102637,40.677715],[-74.102601,40.677769],[-74.102636,40.677852],[-74.102417,40.678263],[-74.10202,40.678426],[-74.101552,40.678233],[-74.102055,40.678619],[-74.101657,40.678754],[-74.101836,40.67903],[-74.101618,40.679358],[-74.101364,40.679495],[-74.101184,40.679467],[-74.101148,40.679549],[-74.101075,40.679576],[-74.101111,40.679741],[-74.101434,40.679852],[-74.101393,40.680703],[-74.100959,40.68103],[-74.101137,40.681388],[-74.100848,40.681414],[-74.101132,40.682266],[-74.100374,40.682291],[-74.101019,40.68298],[-74.100514,40.68306],[-74.100834,40.68372],[-74.100474,40.683746],[-74.1004,40.683966],[-74.100865,40.684708],[-74.100574,40.685064],[-74.100679,40.685531],[-74.100281,40.68575],[-74.100679,40.685669],[-74.100748,40.686163],[-74.100168,40.686555],[-74.098878,40.682698],[-74.099294,40.682095],[-74.099326,40.682644],[-74.099403,40.681849],[-74.099081,40.681463],[-74.099186,40.682067],[-74.098837,40.682588],[-74.09813,40.680694],[-74.065716,40.66704],[-74.066645,40.665962],[-74.067988,40.666536],[-74.068218,40.6663],[-74.070086,40.667095],[-74.069986,40.667403],[-74.07263,40.668179],[-74.072508,40.66853],[-74.073901,40.669306],[-74.074973,40.669442],[-74.075104,40.669668],[-74.079084,40.671365],[-74.079667,40.671059],[-74.085286,40.67346],[-74.085162,40.673745],[-74.086261,40.675158],[-74.087643,40.675775],[-74.088146,40.675869],[-74.089359,40.675481],[-74.090193,40.676042],[-74.090651,40.675707],[-74.091274,40.675841],[-74.092198,40.67531],[-74.091857,40.674951],[-74.094968,40.67594],[-74.095895,40.67545],[-74.096426,40.67466],[-74.095805,40.674256],[-74.094067,40.673952],[-74.091514,40.672507],[-74.089712,40.672309],[-74.081944,40.669638],[-74.08203,40.669515],[-74.076129,40.667217],[-74.071439,40.66503],[-74.071346,40.665162],[-74.068232,40.663839],[-74.069456,40.662148],[-74.069766,40.662205],[-74.070046,40.661835],[-74.069839,40.661628],[-74.070701,40.660867],[-74.070557,40.660662],[-74.076928,40.663539],[-74.088195,40.667481],[-74.097682,40.669075],[-74.100341,40.669348],[-74.100914,40.669186],[-74.10135,40.669416],[-74.10098,40.669294],[-74.100936,40.669499],[-74.102885,40.669552],[-74.103432,40.669858],[-74.104972,40.669953],[-74.105304,40.669732],[-74.105445,40.670091],[-74.106528,40.670382],[-74.10696,40.670167],[-74.107615,40.669147],[-74.105718,40.668902],[-74.104914,40.669089],[-74.103569,40.668697],[-74.102598,40.668545],[-74.102106,40.668721],[-74.101522,40.66851],[-74.100838,40.667833],[-74.099674,40.667277],[-74.098123,40.665584],[-74.097067,40.665098],[-74.097044,40.664808],[-74.097391,40.664564],[-74.097268,40.664261],[-74.096972,40.664525],[-74.096508,40.664427],[-74.096455,40.664814],[-74.096948,40.665046],[-74.096759,40.665192],[-74.095884,40.665121],[-74.09588,40.664125],[-74.094898,40.664074],[-74.094011,40.664769],[-74.093515,40.66479],[-74.092589,40.664366],[-74.09247,40.664629],[-74.091405,40.66466],[-74.091088,40.664441],[-74.090897,40.664732],[-74.091333,40.664908],[-74.089528,40.66491],[-74.089516,40.664094],[-74.090591,40.664097],[-74.090757,40.663909],[-74.09072,40.663302],[-74.091203,40.662621],[-74.090888,40.661512],[-74.091371,40.662562],[-74.09132,40.66206],[-74.090872,40.660418],[-74.089957,40.65894],[-74.089817,40.658173],[-74.089086,40.657625],[-74.088852,40.656329],[-74.088306,40.656226],[-74.088403,40.655691],[-74.08605,40.655497],[-74.087468,40.653667],[-74.09342,40.650165],[-74.094791,40.649641],[-74.097783,40.649233],[-74.099329,40.649285],[-74.101117,40.649779],[-74.101628,40.649646],[-74.102815,40.649804],[-74.102824,40.650365],[-74.10359,40.650617],[-74.103832,40.650613],[-74.104077,40.64996],[-74.105686,40.650119],[-74.105599,40.650711],[-74.105925,40.651034],[-74.106727,40.651069],[-74.107142,40.651329],[-74.107394,40.651342],[-74.107578,40.650265],[-74.108468,40.650301],[-74.108451,40.650708],[-74.111375,40.650989],[-74.112966,40.650925],[-74.114045,40.65189],[-74.114403,40.651657],[-74.114011,40.65088],[-74.115447,40.65274],[-74.115889,40.652871],[-74.1165,40.652589],[-74.115038,40.650386],[-74.116445,40.652148],[-74.116801,40.65191],[-74.11505,40.649541],[-74.115843,40.649215],[-74.116241,40.649535],[-74.117098,40.648832],[-74.118644,40.64842],[-74.118551,40.64824],[-74.120005,40.646185],[-74.125303,40.645306],[-74.125629,40.64509],[-74.126098,40.64519],[-74.12801,40.644844],[-74.130745,40.64512],[-74.131048,40.644945],[-74.132858,40.645202],[-74.133579,40.645044],[-74.135752,40.645173],[-74.136748,40.645651],[-74.137508,40.645309],[-74.139752,40.644996],[-74.140522,40.644715],[-74.141029,40.644273],[-74.141075,40.644263],[-74.141129,40.644269],[-74.139866,40.647312]],[[-74.120539,40.655485],[-74.120503,40.655458],[-74.120502,40.655485],[-74.120539,40.655485]],[[-74.118757,40.658252],[-74.118721,40.658224],[-74.118721,40.658252],[-74.118757,40.658252]],[[-74.117376,40.660141],[-74.11734,40.660114],[-74.11734,40.660141],[-74.117376,40.660141]],[[-74.116579,40.660852],[-74.116651,40.66088],[-74.116651,40.660825],[-74.116579,40.660852]],[[-74.116143,40.661482],[-74.116071,40.661455],[-74.116071,40.66151],[-74.116143,40.661482]],[[-74.11607,40.661564],[-74.115962,40.661592],[-74.115962,40.661646],[-74.11607,40.661564]],[[-74.115961,40.661729],[-74.115925,40.661701],[-74.115925,40.661729],[-74.115961,40.661729]],[[-74.114399,40.663865],[-74.114363,40.663837],[-74.114363,40.663865],[-74.114399,40.663865]],[[-74.11429,40.664002],[-74.114254,40.663974],[-74.114254,40.664001],[-74.11429,40.664002]],[[-74.114217,40.664084],[-74.114181,40.664056],[-74.114181,40.664084],[-74.114217,40.664084]],[[-74.11382,40.664137],[-74.113784,40.664192],[-74.11382,40.664192],[-74.11382,40.664137]],[[-74.113784,40.664247],[-74.113712,40.664219],[-74.113712,40.664247],[-74.113784,40.664247]],[[-74.111423,40.667341],[-74.111386,40.667368],[-74.111423,40.667368],[-74.111423,40.667341]],[[-74.111386,40.667368],[-74.11135,40.667423],[-74.111386,40.667423],[-74.111386,40.667368]],[[-74.11135,40.667423],[-74.111314,40.66745],[-74.11135,40.66745],[-74.11135,40.667423]],[[-74.110917,40.667586],[-74.110953,40.667559],[-74.110917,40.667559],[-74.110917,40.667586]],[[-74.111061,40.667477],[-74.110989,40.667449],[-74.110953,40.667531],[-74.111061,40.667477]],[[-74.111425,40.666984],[-74.111497,40.666902],[-74.111461,40.666902],[-74.111425,40.666984]],[[-74.111497,40.666902],[-74.111534,40.666847],[-74.111498,40.666847],[-74.111497,40.666902]],[[-74.111534,40.666847],[-74.11157,40.66682],[-74.111534,40.66682],[-74.111534,40.666847]],[[-74.11157,40.666765],[-74.111642,40.666793],[-74.111642,40.666738],[-74.11157,40.666765]],[[-74.112514,40.665698],[-74.112478,40.665725],[-74.112514,40.665725],[-74.112514,40.665698]],[[-74.112478,40.665725],[-74.112441,40.66578],[-74.112477,40.66578],[-74.112478,40.665725]],[[-74.112441,40.66578],[-74.112405,40.665807],[-74.112441,40.665807],[-74.112441,40.66578]],[[-74.112696,40.665424],[-74.112731,40.665479],[-74.112732,40.665424],[-74.112696,40.665424]],[[-74.112695,40.665479],[-74.112659,40.665506],[-74.112695,40.665506],[-74.112695,40.665479]],[[-74.112732,40.665424],[-74.112768,40.665396],[-74.112732,40.665396],[-74.112732,40.665424]],[[-74.113204,40.664821],[-74.113167,40.664931],[-74.113276,40.664794],[-74.113204,40.664821]],[[-74.113167,40.665013],[-74.113022,40.66504],[-74.113022,40.665095],[-74.113167,40.665013]],[[-74.113022,40.665095],[-74.112986,40.665123],[-74.113022,40.665123],[-74.113022,40.665095]],[[-74.112986,40.665123],[-74.112949,40.665177],[-74.112985,40.665178],[-74.112986,40.665123]],[[-74.112949,40.665177],[-74.112913,40.665205],[-74.112949,40.665205],[-74.112949,40.665177]],[[-74.113276,40.664739],[-74.113348,40.664767],[-74.113349,40.664712],[-74.113276,40.664739]],[[-74.113349,40.664657],[-74.113493,40.66463],[-74.113457,40.664575],[-74.113349,40.664657]],[[-74.113458,40.66452],[-74.11353,40.664521],[-74.113603,40.664411],[-74.113458,40.66452]],[[-74.108563,40.669363],[-74.108527,40.669335],[-74.108527,40.669362],[-74.108563,40.669363]],[[-74.109281,40.669887],[-74.109245,40.669859],[-74.109245,40.669886],[-74.109281,40.669887]],[[-74.106998,40.671883],[-74.107034,40.67191],[-74.107034,40.671883],[-74.106998,40.671883]],[[-74.106921,40.672706],[-74.106885,40.672678],[-74.106885,40.672706],[-74.106921,40.672706]],[[-74.106848,40.672788],[-74.106812,40.67276],[-74.106812,40.672788],[-74.106848,40.672788]],[[-74.10674,40.672897],[-74.106704,40.67287],[-74.106704,40.672897],[-74.10674,40.672897]],[[-74.106667,40.67298],[-74.106631,40.672952],[-74.106631,40.672979],[-74.106667,40.67298]],[[-74.106631,40.673034],[-74.106595,40.673007],[-74.106595,40.673034],[-74.106631,40.673034]],[[-74.104815,40.675169],[-74.104779,40.675142],[-74.104779,40.675169],[-74.104815,40.675169]],[[-74.104779,40.675224],[-74.104743,40.675197],[-74.104743,40.675224],[-74.104779,40.675224]],[[-74.103762,40.676428],[-74.103726,40.676401],[-74.103726,40.676428],[-74.103762,40.676428]],[[-74.103581,40.676647],[-74.103545,40.67662],[-74.103545,40.676647],[-74.103581,40.676647]],[[-74.103145,40.677167],[-74.103109,40.67714],[-74.103109,40.677167],[-74.103145,40.677167]],[[-74.103072,40.67725],[-74.103036,40.677222],[-74.103036,40.677249],[-74.103072,40.67725]],[[-74.102963,40.677386],[-74.102927,40.677359],[-74.102927,40.677386],[-74.102963,40.677386]],[[-74.1026,40.677852],[-74.102564,40.677824],[-74.102564,40.677852],[-74.1026,40.677852]],[[-74.101661,40.678178],[-74.101697,40.678151],[-74.101661,40.678151],[-74.101661,40.678178]],[[-74.10122,40.679467],[-74.101257,40.679412],[-74.101221,40.679412],[-74.10122,40.679467]],[[-74.09929,40.682644],[-74.099254,40.682699],[-74.09929,40.682699],[-74.09929,40.682644]]],[[[-74.109717,40.669366],[-74.10968,40.669394],[-74.10968,40.669366],[-74.109717,40.669366]]],[[[-74.109644,40.669476],[-74.109608,40.669448],[-74.109644,40.669449],[-74.109644,40.669476]]],[[[-74.109608,40.669503],[-74.109571,40.669531],[-74.109572,40.669503],[-74.109608,40.669503]]],[[[-74.107143,40.671746],[-74.107071,40.671773],[-74.107071,40.671746],[-74.107143,40.671746]]],[[[-74.107284,40.672268],[-74.10732,40.672296],[-74.107284,40.672295],[-74.107284,40.672268]]],[[[-74.103181,40.677113],[-74.103218,40.677085],[-74.103217,40.677113],[-74.103181,40.677113]]],[[[-74.103,40.677332],[-74.103036,40.677304],[-74.103036,40.677332],[-74.103,40.677332]]],[[[-74.102891,40.677469],[-74.102927,40.677441],[-74.102927,40.677469],[-74.102891,40.677469]]],[[[-74.102818,40.677606],[-74.102782,40.677578],[-74.102818,40.677578],[-74.102818,40.677606]]],[[[-74.102781,40.67766],[-74.102746,40.677633],[-74.102782,40.677633],[-74.102781,40.67766]]],[[[-74.102745,40.677715],[-74.102709,40.677688],[-74.102745,40.677688],[-74.102745,40.677715]]],[[[-74.102673,40.677742],[-74.102709,40.677715],[-74.102709,40.677742],[-74.102673,40.677742]]],[[[-74.102636,40.677797],[-74.102673,40.67777],[-74.102672,40.677797],[-74.102636,40.677797]]],[[[-74.102092,40.678427],[-74.102128,40.678454],[-74.102092,40.678454],[-74.102092,40.678427]]],[[[-74.101838,40.678755],[-74.101874,40.678728],[-74.101874,40.678755],[-74.101838,40.678755]]],[[[-74.101766,40.678727],[-74.101801,40.678755],[-74.101765,40.678755],[-74.101766,40.678727]]],[[[-74.101801,40.678782],[-74.101838,40.678755],[-74.101837,40.678783],[-74.101801,40.678782]]],[[[-74.101184,40.679521],[-74.10122,40.679494],[-74.10122,40.679522],[-74.101184,40.679521]]],[[[-74.101184,40.679576],[-74.101148,40.679549],[-74.101184,40.679549],[-74.101184,40.679576]]],[[[-74.101111,40.679604],[-74.101148,40.679576],[-74.101147,40.679604],[-74.101111,40.679604]]],[[[-74.100204,40.6866],[-74.100204,40.686625],[-74.100191,40.6866],[-74.100204,40.6866]]],[[[-74.10024,40.686655],[-74.10024,40.686695],[-74.100219,40.686655],[-74.10024,40.686655]]],[[[-74.100247,40.68671],[-74.100491,40.686848],[-74.100382,40.686975],[-74.100247,40.68671]]],[[[-74.100412,40.687033],[-74.100418,40.686985],[-74.100418,40.687045],[-74.100412,40.687033]]],[[[-74.100485,40.687178],[-74.100429,40.687068],[-74.10049,40.687068],[-74.100485,40.687178]]],[[[-74.103712,40.690977],[-74.103748,40.69095],[-74.103748,40.690977],[-74.103712,40.690977]]],[[[-74.103784,40.690977],[-74.10382,40.691005],[-74.103784,40.691005],[-74.103784,40.690977]]],[[[-74.103856,40.690977],[-74.103713,40.69084],[-74.104468,40.691227],[-74.104288,40.691253],[-74.10382,40.691032],[-74.103856,40.690977]],[[-74.103892,40.691032],[-74.103928,40.691005],[-74.103892,40.691005],[-74.103892,40.691032]]],[[[-74.103673,40.691443],[-74.103855,40.691224],[-74.10425,40.691473],[-74.104033,40.691664],[-74.103673,40.691443]]],[[[-74.1036,40.691608],[-74.103636,40.691635],[-74.1036,40.691635],[-74.1036,40.691608]]],[[[-74.103888,40.691719],[-74.104534,40.692325],[-74.104566,40.692901],[-74.103739,40.692542],[-74.102872,40.692813],[-74.102693,40.692538],[-74.103383,40.691689],[-74.103888,40.691719]],[[-74.102837,40.692566],[-74.102873,40.692539],[-74.102837,40.692539],[-74.102837,40.692566]]],[[[-74.102464,40.694609],[-74.102456,40.694596],[-74.102465,40.694596],[-74.102464,40.694609]]],[[[-74.102896,40.694872],[-74.103116,40.694159],[-74.103766,40.694052],[-74.104746,40.692984],[-74.104823,40.692216],[-74.110687,40.694734],[-74.115973,40.697332],[-74.114232,40.700952],[-74.102852,40.695432],[-74.102474,40.694624],[-74.102896,40.694872]]]]}}]}