{"type":"FeatureCollection","features":[{"type":"Feature","properties":{"level_ft":7},"geometry":{"type":"MultiPolygon","coordinates":[[[[-74.158248,40.644019],[-74.158263,40.644019],[-74.158263,40.644031],[-74.158248,40.644019]]],[[[-74.158282,40.644046],[-74.161391,40.644357],[-74.161303,40.645451],[-74.160077,40.645246],[-74.160206,40.644951],[-74.159668,40.644486],[-74.159018,40.644694],[-74.159247,40.644938],[-74.158912,40.644855],[-74.158282,40.644046]]],[[[-74.14045,40.645941],[-74.140414,40.645914],[-74.14045,40.645914],[-74.14045,40.645941]]],[[[-74.140377,40.646023],[-74.140414,40.645996],[-74.140414,40.646023],[-74.140377,40.646023]]],[[[-74.140377,40.646133],[-74.140341,40.646051],[-74.140377,40.646051],[-74.140377,40.646133]]],[[[-74.139539,40.647805],[-74.139503,40.647777],[-74.139539,40.647778],[-74.139539,40.647805]]],[[[-74.139394,40.647914],[-74.139251,40.647749],[-74.139467,40.64775],[-74.139394,40.647914]]],[[[-74.140178,40.649619],[-74.140935,40.649594],[-74.140463,40.650278],[-74.139779,40.650029],[-74.140178,40.649619]]],[[[-74.125094,40.652975],[-74.123368,40.652338],[-74.123297,40.652063],[-74.122614,40.651814],[-74.122651,40.651567],[-74.123948,40.651736],[-74.123911,40.651928],[-74.12445,40.652067],[-74.125347,40.652838],[-74.125094,40.652975]]],[[[-74.113539,40.656725],[-74.113539,40.656697],[-74.113575,40.656697],[-74.113575,40.656725],[-74.113539,40.656725]]],[[[-74.113647,40.656752],[-74.113575,40.656725],[-74.113647,40.656725],[-74.113647,40.656752]]],[[[-74.113683,40.656753],[-74.113647,40.65678],[-74.113647,40.656752],[-74.113683,40.656753]]],[[[-74.113719,40.65678],[-74.113683,40.656808],[-74.113683,40.65678],[-74.113719,40.65678]]],[[[-74.113754,40.656835],[-74.113791,40.656808],[-74.113791,40.656835],[-74.113754,40.656835]]],[[[-74.11379,40.656863],[-74.113863,40.656836],[-74.113862,40.656863],[-74.11379,40.656863]]],[[[-74.11397,40.656891],[-74.113898,40.656945],[-74.113898,40.656891],[-74.11397,40.656891]]],[[[-74.11397,40.656946],[-74.114042,40.656919],[-74.114042,40.656946],[-74.11397,40.656946]]],[[[-74.114078,40.656974],[-74.11415,40.657001],[-74.114078,40.657001],[-74.114078,40.656974]]],[[[-74.11415,40.657029],[-74.114186,40.657001],[-74.114186,40.657029],[-74.11415,40.657029]]],[[[-74.114797,40.657305],[-74.114329,40.657167],[-74.114258,40.657084],[-74.114797,40.657305]]],[[[-74.117716,40.657397],[-74.117752,40.657425],[-74.117716,40.657425],[-74.117716,40.657397]]],[[[-74.11768,40.657452],[-74.117716,40.657425],[-74.117716,40.657452],[-74.11768,40.657452]]],[[[-74.117715,40.657562],[-74.117751,40.65759],[-74.117715,40.65759],[-74.117715,40.657562]]],[[[-74.115696,40.65772],[-74.115768,40.657748],[-74.115696,40.657748],[-74.115696,40.65772]]],[[[-74.116524,40.657833],[-74.116488,40.657778],[-74.116525,40.657778],[-74.116524,40.657833]]],[[[-74.11656,40.65786],[-74.116596,40.657833],[-74.116596,40.65786],[-74.11656,40.65786]]],[[[-74.116596,40.657888],[-74.116632,40.657915],[-74.116596,40.657915],[-74.116596,40.657888]]],[[[-74.116177,40.661729],[-74.116392,40.66195],[-74.116068,40.661894],[-74.116177,40.661729]]],[[[-74.140539,40.64951],[-74.139853,40.649645],[-74.1396,40.649891],[-74.139748,40.649151],[-74.139535,40.648491],[-74.141323,40.644352],[-74.141982,40.64453],[-74.14188,40.644033],[-74.143813,40.643797],[-74.163014,40.645898],[-74.15809,40.649737],[-74.14726,40.655124],[-74.142721,40.658943],[-74.140573,40.661318],[-74.132507,40.672932],[-74.125251,40.68406],[-74.120322,40.69066],[-74.117554,40.694949],[-74.110265,40.692729],[-74.110922,40.691386],[-74.110926,40.6907],[-74.111577,40.6904],[-74.112122,40.689715],[-74.111944,40.689303],[-74.111219,40.690042],[-74.111253,40.690344],[-74.109089,40.690419],[-74.107602,40.691896],[-74.106917,40.691729],[-74.107422,40.691703],[-74.108439,40.690609],[-74.107757,40.690003],[-74.108447,40.689181],[-74.110353,40.690039],[-74.110786,40.689985],[-74.111113,40.689657],[-74.109711,40.688939],[-74.109966,40.688473],[-74.109679,40.688115],[-74.110697,40.686801],[-74.112254,40.685681],[-74.11204,40.685268],[-74.112298,40.684281],[-74.114842,40.680831],[-74.114631,40.679869],[-74.115101,40.679706],[-74.115719,40.67872],[-74.116476,40.678914],[-74.116877,40.67801],[-74.119486,40.675795],[-74.121257,40.674977],[-74.121841,40.673771],[-74.123036,40.672815],[-74.124094,40.670622],[-74.124892,40.669801],[-74.124713,40.669444],[-74.125289,40.66961],[-74.125399,40.669364],[-74.125687,40.669364],[-74.126299,40.669641],[-74.126048,40.669256],[-74.126337,40.669229],[-74.126014,40.668981],[-74.127168,40.668848],[-74.127569,40.668108],[-74.127139,40.667667],[-74.127177,40.667201],[-74.127682,40.667312],[-74.128008,40.667011],[-74.127541,40.666653],[-74.127583,40.665665],[-74.128127,40.665008],[-74.128885,40.664845],[-74.129829,40.663613],[-74.131929,40.662028],[-74.13175,40.66167],[-74.132333,40.660602],[-74.133093,40.659945],[-74.132879,40.659643],[-74.13538,40.657153],[-74.135885,40.656989],[-74.135706,40.656714],[-74.136103,40.656606],[-74.13621,40.656853],[-74.136678,40.656965],[-74.136321,40.656387],[-74.136573,40.65647],[-74.136753,40.656416],[-74.136286,40.65625],[-74.13618,40.65581],[-74.136397,40.655701],[-74.136503,40.655976],[-74.136685,40.655784],[-74.137835,40.656337],[-74.13838,40.655625],[-74.137266,40.65488],[-74.138597,40.655488],[-74.139538,40.654723],[-74.139613,40.654064],[-74.140012,40.653681],[-74.139652,40.65357],[-74.139619,40.652939],[-74.140774,40.652805],[-74.142006,40.651519],[-74.142152,40.651244],[-74.141865,40.650997],[-74.142372,40.650422],[-74.141725,40.650173],[-74.14187,40.649899],[-74.140972,40.649429],[-74.140612,40.649318],[-74.140539,40.64951]],[[-74.131929,40.662028],[-74.131964,40.662055],[-74.131965,40.662028],[-74.131929,40.662028]],[[-74.138597,40.655488],[-74.138632,40.655516],[-74.138633,40.655488],[-74.138597,40.655488]],[[-74.138632,40.655516],[-74.138668,40.655543],[-74.138668,40.655516],[-74.138632,40.655516]],[[-74.140612,40.649318],[-74.140576,40.649291],[-74.140576,40.649318],[-74.140612,40.649318]]],[[[-74.116046,40.697297],[-74.109681,40.694044],[-74.11012,40.692948],[-74.117428,40.695141],[-74.116046,40.697297]]],[[[-74.111343,40.656223],[-74.111307,40.656196],[-74.111343,40.656196],[-74.111343,40.656223]]],[[[-74.111956,40.656225],[-74.11192,40.656253],[-74.11192,40.656225],[-74.111956,40.656225]]],[[[-74.111522,40.656443],[-74.111486,40.656471],[-74.111486,40.656443],[-74.111522,40.656443]]],[[[-74.111486,40.656471],[-74.111414,40.656498],[-74.111414,40.656471],[-74.111486,40.656471]]],[[[-74.141108,40.644269],[-74.140487,40.645832],[-74.140053,40.646132],[-74.140304,40.646325],[-74.139612,40.647641],[-74.139506,40.647174],[-74.138929,40.647364],[-74.138318,40.64706],[-74.138137,40.647197],[-74.137489,40.647003],[-74.137634,40.646783],[-74.138426,40.647033],[-74.138896,40.646815],[-74.137491,40.646646],[-74.136448,40.646231],[-74.136159,40.646367],[-74.13616,40.646202],[-74.135691,40.646228],[-74.135402,40.646447],[-74.133709,40.646249],[-74.133131,40.646467],[-74.132484,40.646191],[-74.132267,40.646355],[-74.13198,40.646162],[-74.131655,40.64627],[-74.131549,40.645803],[-74.13029,40.64536],[-74.130579,40.645196],[-74.131083,40.645308],[-74.131229,40.645034],[-74.130363,40.645223],[-74.130256,40.645058],[-74.127842,40.644913],[-74.126147,40.64521],[-74.126109,40.645484],[-74.125603,40.645757],[-74.124306,40.645643],[-74.124196,40.646054],[-74.12373,40.645559],[-74.123405,40.645612],[-74.123259,40.645969],[-74.120484,40.646097],[-74.119973,40.647166],[-74.11954,40.647329],[-74.119537,40.647713],[-74.120149,40.647935],[-74.11982,40.648703],[-74.120142,40.64906],[-74.120246,40.649939],[-74.120356,40.64961],[-74.120644,40.649666],[-74.120635,40.651121],[-74.121138,40.651424],[-74.122147,40.651428],[-74.122071,40.652114],[-74.121532,40.651947],[-74.121567,40.652167],[-74.121242,40.652193],[-74.122138,40.65302],[-74.120916,40.652549],[-74.120051,40.652546],[-74.119614,40.653231],[-74.119691,40.652353],[-74.119256,40.652901],[-74.11879,40.652405],[-74.118465,40.652431],[-74.118464,40.652706],[-74.118752,40.652679],[-74.11857,40.653063],[-74.118966,40.653147],[-74.118995,40.6543],[-74.117553,40.654377],[-74.117335,40.654651],[-74.117658,40.655009],[-74.117584,40.655366],[-74.117945,40.655147],[-74.117944,40.655394],[-74.118447,40.655588],[-74.118302,40.655725],[-74.117184,40.655941],[-74.116966,40.656242],[-74.116642,40.656186],[-74.116965,40.656324],[-74.116388,40.65646],[-74.11664,40.65657],[-74.116278,40.656789],[-74.116963,40.656764],[-74.117463,40.657479],[-74.1175,40.657452],[-74.117716,40.65748],[-74.117788,40.657425],[-74.117643,40.657589],[-74.117894,40.65781],[-74.117134,40.658329],[-74.116525,40.65775],[-74.113612,40.656615],[-74.113035,40.656641],[-74.111884,40.65617],[-74.11174,40.656197],[-74.112351,40.656474],[-74.111414,40.656333],[-74.111237,40.655921],[-74.110698,40.655617],[-74.111096,40.655317],[-74.111209,40.654493],[-74.110596,40.654436],[-74.11045,40.65482],[-74.11013,40.654105],[-74.109734,40.654022],[-74.109804,40.654296],[-74.109298,40.654652],[-74.109193,40.654047],[-74.107861,40.653796],[-74.107178,40.653437],[-74.107186,40.652037],[-74.10689,40.653408],[-74.107967,40.654071],[-74.107457,40.65503],[-74.107206,40.654837],[-74.106485,40.654917],[-74.106381,40.65423],[-74.106057,40.654064],[-74.106635,40.653901],[-74.106636,40.653682],[-74.105592,40.653568],[-74.105701,40.653322],[-74.10545,40.653184],[-74.105703,40.65302],[-74.105817,40.652032],[-74.105058,40.652304],[-74.10488,40.652056],[-74.103404,40.651722],[-74.103149,40.652188],[-74.10325,40.653313],[-74.103033,40.653422],[-74.103205,40.654905],[-74.102878,40.655289],[-74.102802,40.656029],[-74.102191,40.65567],[-74.10147,40.655778],[-74.101293,40.655201],[-74.100861,40.655007],[-74.100326,40.654099],[-74.100902,40.654294],[-74.100797,40.653689],[-74.101051,40.653471],[-74.102528,40.653558],[-74.102678,40.652515],[-74.102391,40.65235],[-74.10294,40.650897],[-74.102004,40.650729],[-74.101858,40.65103],[-74.101498,40.650974],[-74.10154,40.650041],[-74.100784,40.649819],[-74.099955,40.649871],[-74.099806,40.650584],[-74.098798,40.650553],[-74.098683,40.651541],[-74.099222,40.651954],[-74.098358,40.652061],[-74.09922,40.652147],[-74.099108,40.65286],[-74.097341,40.652964],[-74.09727,40.652826],[-74.097197,40.65299],[-74.096837,40.652989],[-74.096836,40.653017],[-74.096512,40.653016],[-74.096076,40.653563],[-74.095933,40.653398],[-74.094276,40.65331],[-74.094092,40.653885],[-74.095389,40.654],[-74.095458,40.654522],[-74.094989,40.654575],[-74.094772,40.654711],[-74.095781,40.654687],[-74.09578,40.654907],[-74.095204,40.654768],[-74.095021,40.655261],[-74.095849,40.655456],[-74.095923,40.6551],[-74.095958,40.655319],[-74.096498,40.655431],[-74.097903,40.655491],[-74.097649,40.65571],[-74.09592,40.655621],[-74.09581,40.655923],[-74.096601,40.656282],[-74.096491,40.656502],[-74.096708,40.656338],[-74.098973,40.657334],[-74.099081,40.657307],[-74.099549,40.657501],[-74.099728,40.657693],[-74.099908,40.657721],[-74.099871,40.657804],[-74.100553,40.6583],[-74.101308,40.658742],[-74.101558,40.659045],[-74.102422,40.659185],[-74.10242,40.659569],[-74.10271,40.659406],[-74.102778,40.660065],[-74.104249,40.66125],[-74.104641,40.661938],[-74.107224,40.664005],[-74.107658,40.663842],[-74.107551,40.663704],[-74.107954,40.662498],[-74.108023,40.662992],[-74.108276,40.662938],[-74.108635,40.663269],[-74.108996,40.663133],[-74.108279,40.662362],[-74.108499,40.661813],[-74.109005,40.661596],[-74.109111,40.66187],[-74.109543,40.661982],[-74.109767,40.660775],[-74.111319,40.660341],[-74.11095,40.661822],[-74.111562,40.661989],[-74.111923,40.661798],[-74.112064,40.662347],[-74.111631,40.66251],[-74.11102,40.662261],[-74.11062,40.662781],[-74.110368,40.662671],[-74.110112,40.663356],[-74.109753,40.66308],[-74.10932,40.663189],[-74.10986,40.663246],[-74.110111,40.663548],[-74.110652,40.66344],[-74.110975,40.663688],[-74.110793,40.663962],[-74.110541,40.663907],[-74.110466,40.664538],[-74.110177,40.664537],[-74.110462,40.665114],[-74.109705,40.665084],[-74.109488,40.665331],[-74.109201,40.66511],[-74.10938,40.665248],[-74.109451,40.665468],[-74.109415,40.665495],[-74.109379,40.665495],[-74.109378,40.66555],[-74.109306,40.665577],[-74.109306,40.665632],[-74.109234,40.665632],[-74.109233,40.665714],[-74.108981,40.665741],[-74.109127,40.665412],[-74.108767,40.665218],[-74.108267,40.664503],[-74.107978,40.664584],[-74.108119,40.665189],[-74.108226,40.665271],[-74.108297,40.665546],[-74.10869,40.666179],[-74.108682,40.667469],[-74.108863,40.667415],[-74.108133,40.668977],[-74.108208,40.668401],[-74.107395,40.669175],[-74.105718,40.668902],[-74.104914,40.669089],[-74.103569,40.668697],[-74.102598,40.668545],[-74.102106,40.668721],[-74.101539,40.668517],[-74.100838,40.667833],[-74.099674,40.667277],[-74.098123,40.665584],[-74.097067,40.665098],[-74.097044,40.664808],[-74.097391,40.664564],[-74.097268,40.664261],[-74.096972,40.664525],[-74.096508,40.664427],[-74.096455,40.664814],[-74.096948,40.665046],[-74.096759,40.665192],[-74.095884,40.665121],[-74.09588,40.664125],[-74.094898,40.664074],[-74.094011,40.664769],[-74.093515,40.66479],[-74.092589,40.664366],[-74.09247,40.664629],[-74.091405,40.66466],[-74.091088,40.664441],[-74.090897,40.664732],[-74.091333,40.664908],[-74.089528,40.66491],[-74.089516,40.664094],[-74.090591,40.664097],[-74.090757,40.663909],[-74.09072,40.663302],[-74.091203,40.662621],[-74.090888,40.661512],[-74.091374,40.662554],[-74.090927,40.660593],[-74.090314,40.659472],[-74.090417,40.659472],[-74.091059,40.66071],[-74.091442,40.662825],[-74.090713,40.664113],[-74.089631,40.664328],[-74.089664,40.664823],[-74.090637,40.664826],[-74.091037,40.664196],[-74.091613,40.664418],[-74.092587,40.664284],[-74.093919,40.664536],[-74.094246,40.664235],[-74.094067,40.66396],[-74.094249,40.663603],[-74.095835,40.663636],[-74.096733,40.664216],[-74.097274,40.664136],[-74.097709,40.663698],[-74.097452,40.664603],[-74.097089,40.664986],[-74.098239,40.665512],[-74.100102,40.667467],[-74.101253,40.667965],[-74.102121,40.667419],[-74.101396,40.66813],[-74.107303,40.669056],[-74.107341,40.668782],[-74.107737,40.668783],[-74.107485,40.6687],[-74.107666,40.668591],[-74.107487,40.668343],[-74.104868,40.666276],[-74.104325,40.666548],[-74.103858,40.666354],[-74.103969,40.665861],[-74.101566,40.663821],[-74.101747,40.663657],[-74.103469,40.665008],[-74.104517,40.664627],[-74.104699,40.664271],[-74.104449,40.663996],[-74.104302,40.664407],[-74.103543,40.664679],[-74.104161,40.66383],[-74.103765,40.663746],[-74.104598,40.663173],[-74.104709,40.662706],[-74.103562,40.661467],[-74.102051,40.66105],[-74.102121,40.661352],[-74.101687,40.661708],[-74.101326,40.661734],[-74.101291,40.661514],[-74.10028,40.661813],[-74.101078,40.660992],[-74.100972,40.66058],[-74.101514,40.660472],[-74.101587,40.660225],[-74.101156,40.660032],[-74.098983,40.661753],[-74.097797,40.661036],[-74.098805,40.661368],[-74.098626,40.661176],[-74.097188,40.660512],[-74.097515,40.660074],[-74.096726,40.659467],[-74.096075,40.659739],[-74.09568,40.659573],[-74.097164,40.658426],[-74.09605,40.657955],[-74.095979,40.657708],[-74.096483,40.657847],[-74.097349,40.657712],[-74.097928,40.657385],[-74.097821,40.657138],[-74.096598,40.656639],[-74.095662,40.656526],[-74.095013,40.656551],[-74.09483,40.65699],[-74.094183,40.656768],[-74.094143,40.65729],[-74.094719,40.657539],[-74.094496,40.658636],[-74.094677,40.658444],[-74.094784,40.658609],[-74.094133,40.659074],[-74.091106,40.658789],[-74.091147,40.658048],[-74.08985,40.657961],[-74.090202,40.65933],[-74.089771,40.658087],[-74.089313,40.657973],[-74.089086,40.657625],[-74.088852,40.656329],[-74.088306,40.656226],[-74.088403,40.655691],[-74.086055,40.655505],[-74.086873,40.654355],[-74.087176,40.654299],[-74.087248,40.653819],[-74.094368,40.649777],[-74.097034,40.649273],[-74.099273,40.649276],[-74.100303,40.649662],[-74.102815,40.649804],[-74.102824,40.650365],[-74.10359,40.650617],[-74.103832,40.650613],[-74.104077,40.64996],[-74.105686,40.650119],[-74.105599,40.650711],[-74.105925,40.651034],[-74.106727,40.651069],[-74.107142,40.651329],[-74.107394,40.651342],[-74.107578,40.650265],[-74.108468,40.650301],[-74.108451,40.650708],[-74.111375,40.650989],[-74.112966,40.650925],[-74.114045,40.65189],[-74.114403,40.651657],[-74.114011,40.65088],[-74.115372,40.652657],[-74.115788,40.652881],[-74.1165,40.652589],[-74.115038,40.650386],[-74.116445,40.652148],[-74.116801,40.65191],[-74.11505,40.649541],[-74.115843,40.649215],[-74.116241,40.649535],[-74.117098,40.648832],[-74.118644,40.64842],[-74.119002,40.647539],[-74.120136,40.646109],[-74.12801,40.644844],[-74.13017,40.644928],[-74.130745,40.64512],[-74.131048,40.644945],[-74.132858,40.645202],[-74.133579,40.645044],[-74.135752,40.645173],[-74.136796,40.645649],[-74.137508,40.645309],[-74.140314,40.644818],[-74.141108,40.644269]],[[-74.140487,40.645722],[-74.140415,40.645749],[-74.140487,40.645749],[-74.140487,40.645722]],[[-74.119539,40.647357],[-74.119503,40.647384],[-74.119539,40.647384],[-74.119539,40.647357]],[[-74.118303,40.655697],[-74.118267,40.65567],[-74.118267,40.655697],[-74.118303,40.655697]],[[-74.116677,40.656241],[-74.116605,40.656268],[-74.116677,40.656268],[-74.116677,40.656241]],[[-74.11768,40.65748],[-74.117643,40.657507],[-74.11768,40.657507],[-74.11768,40.65748]],[[-74.117643,40.657589],[-74.117607,40.657617],[-74.117643,40.657617],[-74.117643,40.657589]],[[-74.107531,40.65481],[-74.107495,40.654755],[-74.107495,40.65481],[-74.107531,40.65481]],[[-74.102639,40.653092],[-74.102675,40.653037],[-74.102639,40.653037],[-74.102639,40.653092]],[[-74.096549,40.652851],[-74.096513,40.652933],[-74.096548,40.653016],[-74.096549,40.652851]],[[-74.094772,40.654711],[-74.094735,40.654794],[-74.094771,40.654794],[-74.094772,40.654711]],[[-74.09592,40.655621],[-74.095884,40.655594],[-74.095884,40.655621],[-74.09592,40.655621]],[[-74.09581,40.655895],[-74.095738,40.655868],[-74.095738,40.655895],[-74.09581,40.655895]],[[-74.095738,40.655868],[-74.095702,40.65584],[-74.095702,40.655868],[-74.095738,40.655868]],[[-74.095702,40.655813],[-74.095775,40.655676],[-74.09556,40.655565],[-74.095523,40.655702],[-74.095631,40.655757],[-74.09563,40.655785],[-74.095594,40.655785],[-74.09563,40.65584],[-74.095702,40.655813]],[[-74.099081,40.657334],[-74.099045,40.657362],[-74.099081,40.657362],[-74.099081,40.657334]],[[-74.099153,40.657362],[-74.099117,40.657389],[-74.099153,40.657389],[-74.099153,40.657362]],[[-74.107732,40.663458],[-74.107768,40.663485],[-74.107768,40.663458],[-74.107732,40.663458]],[[-74.109379,40.665358],[-74.109343,40.66544],[-74.109379,40.66544],[-74.109379,40.665358]],[[-74.108768,40.665026],[-74.108804,40.665054],[-74.108805,40.665026],[-74.108768,40.665026]],[[-74.108661,40.664916],[-74.108697,40.664889],[-74.108661,40.664888],[-74.108661,40.664916]],[[-74.108582,40.666014],[-74.108546,40.666041],[-74.108582,40.666041],[-74.108582,40.666014]],[[-74.108654,40.666179],[-74.108617,40.666206],[-74.108653,40.666206],[-74.108654,40.666179]],[[-74.104264,40.664736],[-74.1043,40.664764],[-74.1043,40.664736],[-74.104264,40.664736]],[[-74.098949,40.661369],[-74.098841,40.661396],[-74.098948,40.661479],[-74.098949,40.661369]],[[-74.097821,40.657138],[-74.097857,40.65711],[-74.097821,40.65711],[-74.097821,40.657138]],[[-74.095013,40.656551],[-74.094941,40.656524],[-74.094941,40.656551],[-74.095013,40.656551]],[[-74.094143,40.65729],[-74.094107,40.657317],[-74.094143,40.657317],[-74.094143,40.65729]],[[-74.094107,40.657317],[-74.094071,40.657344],[-74.094107,40.657344],[-74.094107,40.657317]],[[-74.094496,40.658636],[-74.094459,40.658663],[-74.094496,40.658663],[-74.094496,40.658636]],[[-74.094459,40.658663],[-74.094423,40.65869],[-74.094459,40.658691],[-74.094459,40.658663]],[[-74.094423,40.658718],[-74.094387,40.658718],[-74.094351,40.658718],[-74.094423,40.658718]],[[-74.094351,40.658718],[-74.094279,40.658745],[-74.094279,40.658772],[-74.094351,40.658773],[-74.094351,40.658718]],[[-74.14067,40.645146],[-74.140634,40.645173],[-74.14067,40.645173],[-74.14067,40.645146]],[[-74.089636,40.657624],[-74.089636,40.657548],[-74.089636,40.657548],[-74.089636,40.657624]],[[-74.093319,40.656463],[-74.093501,40.656244],[-74.093285,40.656216],[-74.093319,40.656463]],[[-74.093283,40.656463],[-74.093065,40.656737],[-74.092669,40.656708],[-74.092377,40.657283],[-74.089999,40.65711],[-74.089784,40.656917],[-74.089675,40.657136],[-74.092161,40.65731],[-74.092447,40.657695],[-74.092736,40.657504],[-74.092557,40.657284],[-74.093206,40.657259],[-74.092992,40.656874],[-74.093318,40.65671],[-74.093283,40.656463]],[[-74.092886,40.656626],[-74.092814,40.656571],[-74.092814,40.656626],[-74.092886,40.656626]],[[-74.089674,40.657325],[-74.089674,40.657274],[-74.089674,40.657274],[-74.089674,40.657325]],[[-74.089713,40.656853],[-74.089713,40.656835],[-74.089713,40.656835],[-74.089713,40.656853]],[[-74.08975,40.656684],[-74.08975,40.656588],[-74.08975,40.656588],[-74.08975,40.656684]],[[-74.089787,40.656469],[-74.089788,40.656258],[-74.089788,40.656258],[-74.089787,40.656469]],[[-74.090187,40.655958],[-74.089826,40.655957],[-74.089826,40.656066],[-74.089862,40.656012],[-74.090187,40.655958]],[[-74.090056,40.657824],[-74.089887,40.657823],[-74.089887,40.657823],[-74.090056,40.657824]],[[-74.090535,40.657853],[-74.090211,40.657852],[-74.090535,40.657853],[-74.090535,40.657853]],[[-74.090511,40.655987],[-74.090655,40.655987],[-74.090655,40.655987],[-74.090511,40.655987]],[[-74.090917,40.656015],[-74.090943,40.656015],[-74.090943,40.656015],[-74.090917,40.656015]],[[-74.090896,40.657909],[-74.091148,40.65791],[-74.091148,40.65791],[-74.090896,40.657909]],[[-74.091288,40.658515],[-74.091288,40.658515],[-74.091288,40.658542],[-74.091288,40.658515]],[[-74.091325,40.658386],[-74.091326,40.658268],[-74.091326,40.658268],[-74.091325,40.658386]],[[-74.091324,40.658597],[-74.091324,40.658587],[-74.091324,40.658597],[-74.091324,40.658597]],[[-74.091363,40.658103],[-74.091363,40.658021],[-74.091363,40.658021],[-74.091363,40.658103]],[[-74.092708,40.656186],[-74.093069,40.656188],[-74.093069,40.656188],[-74.092708,40.656186]],[[-74.092708,40.656186],[-74.092132,40.656047],[-74.091664,40.656073],[-74.092528,40.656241],[-74.092708,40.656214],[-74.092708,40.656186]],[[-74.092404,40.658738],[-74.092189,40.658628],[-74.092044,40.65871],[-74.092404,40.658738]],[[-74.092837,40.658767],[-74.092873,40.658795],[-74.092621,40.658766],[-74.092837,40.658767]],[[-74.093197,40.658796],[-74.093305,40.658796],[-74.092936,40.658795],[-74.093197,40.658796]],[[-74.093665,40.658853],[-74.093485,40.658879],[-74.093665,40.65888],[-74.093665,40.658853]],[[-74.093753,40.656245],[-74.093753,40.656245],[-74.093681,40.656245],[-74.093753,40.656245]],[[-74.093701,40.65888],[-74.094242,40.658855],[-74.094243,40.658772],[-74.093701,40.65888]],[[-74.094041,40.656273],[-74.094149,40.656301],[-74.09433,40.656247],[-74.094041,40.656273]],[[-74.094183,40.656741],[-74.094183,40.656745],[-74.094183,40.656741],[-74.094183,40.656741]],[[-74.094221,40.656439],[-74.09422,40.656612],[-74.094221,40.656439],[-74.094221,40.656439]],[[-74.096481,40.652164],[-74.096697,40.652193],[-74.096697,40.652165],[-74.096481,40.652164]],[[-74.096514,40.652719],[-74.096515,40.652494],[-74.096479,40.652494],[-74.096515,40.652576],[-74.096514,40.652719]],[[-74.096914,40.652139],[-74.097274,40.652222],[-74.096736,40.652165],[-74.096914,40.652139]],[[-74.097635,40.652114],[-74.097383,40.652085],[-74.097383,40.652113],[-74.097635,40.652114]],[[-74.098356,40.652089],[-74.098248,40.652061],[-74.098248,40.652088],[-74.098356,40.652089]],[[-74.118951,40.649415],[-74.118951,40.649413],[-74.118951,40.649413],[-74.118951,40.649415]],[[-74.11895,40.649606],[-74.11895,40.649572],[-74.11895,40.649606],[-74.11895,40.649606]],[[-74.119096,40.649277],[-74.119132,40.649277],[-74.119132,40.649277],[-74.119096,40.649277]],[[-74.119086,40.650979],[-74.119088,40.65067],[-74.119086,40.650979],[-74.119086,40.650979]],[[-74.11912,40.651445],[-74.11912,40.651415],[-74.11912,40.651445],[-74.11912,40.651445]],[[-74.119171,40.648838],[-74.11917,40.648865],[-74.11917,40.648865],[-74.119171,40.648838]],[[-74.119207,40.648782],[-74.119207,40.648755],[-74.119207,40.648755],[-74.119207,40.648782]],[[-74.119388,40.648646],[-74.119434,40.648646],[-74.119388,40.648646],[-74.119388,40.648646]],[[-74.120058,40.651229],[-74.119912,40.651503],[-74.12013,40.651229],[-74.120058,40.651229]],[[-74.120166,40.651229],[-74.12017,40.650598],[-74.120137,40.650104],[-74.119989,40.650762],[-74.120166,40.651229]],[[-74.120138,40.649829],[-74.120137,40.649994],[-74.120137,40.649994],[-74.120138,40.649829]]],[[[-74.111449,40.656635],[-74.111485,40.656663],[-74.111449,40.656663],[-74.111449,40.656635]]],[[[-74.111448,40.656718],[-74.111484,40.65669],[-74.111484,40.656718],[-74.111448,40.656718]]],[[[-74.112565,40.656804],[-74.112602,40.656722],[-74.11271,40.656749],[-74.112673,40.656886],[-74.112565,40.656804]],[[-74.112673,40.656832],[-74.112637,40.656804],[-74.112637,40.656831],[-74.112673,40.656832]]],[[[-74.111805,40.657405],[-74.111841,40.65735],[-74.111841,40.657405],[-74.111805,40.657405]]],[[[-74.112056,40.657626],[-74.112128,40.657653],[-74.112056,40.657653],[-74.112056,40.657626]]],[[[-74.111623,40.657706],[-74.111732,40.65757],[-74.111731,40.657707],[-74.111623,40.657706]]],[[[-74.112055,40.657735],[-74.112091,40.657708],[-74.112091,40.657736],[-74.112055,40.657735]]],[[[-74.111767,40.657734],[-74.111767,40.657707],[-74.111803,40.657707],[-74.111803,40.657735],[-74.111767,40.657734]]],[[[-74.111839,40.657762],[-74.111803,40.657735],[-74.111839,40.657735],[-74.111839,40.657762]]],[[[-74.111695,40.657734],[-74.111731,40.657762],[-74.111695,40.657762],[-74.111695,40.657734]]],[[[-74.111623,40.657734],[-74.111659,40.657761],[-74.111622,40.657761],[-74.111623,40.657734]]],[[[-74.111911,40.657817],[-74.111875,40.65779],[-74.111911,40.65779],[-74.111911,40.657817]]],[[[-74.112055,40.657845],[-74.112091,40.65779],[-74.112091,40.657845],[-74.112055,40.657845]]],[[[-74.11173,40.657872],[-74.111766,40.657844],[-74.111766,40.657872],[-74.11173,40.657872]]],[[[-74.111694,40.657899],[-74.111657,40.657954],[-74.111658,40.657899],[-74.111694,40.657899]]],[[[-74.112054,40.657982],[-74.112018,40.6579],[-74.112054,40.6579],[-74.112054,40.657982]]],[[[-74.111801,40.657982],[-74.111838,40.657954],[-74.111837,40.657982],[-74.111801,40.657982]]],[[[-74.112017,40.658092],[-74.112054,40.65801],[-74.112053,40.658092],[-74.112017,40.658092]]],[[[-74.11198,40.658284],[-74.112016,40.658257],[-74.112016,40.658284],[-74.11198,40.658284]]],[[[-74.116882,40.658383],[-74.116265,40.659095],[-74.116587,40.659507],[-74.116226,40.659479],[-74.115864,40.659834],[-74.115861,40.660411],[-74.115175,40.660546],[-74.115424,40.661178],[-74.116002,40.660905],[-74.115675,40.661398],[-74.115962,40.661592],[-74.115853,40.661756],[-74.114198,40.661201],[-74.113765,40.661337],[-74.11373,40.66109],[-74.113082,40.660923],[-74.113193,40.660457],[-74.112761,40.660346],[-74.112619,40.660043],[-74.113086,40.660154],[-74.113232,40.659853],[-74.112114,40.659959],[-74.111791,40.659766],[-74.111429,40.659957],[-74.111286,40.659792],[-74.111069,40.660038],[-74.109733,40.66028],[-74.110493,40.659871],[-74.110494,40.659679],[-74.109918,40.659567],[-74.109848,40.65921],[-74.111145,40.65927],[-74.111522,40.656498],[-74.112493,40.656804],[-74.114682,40.658595],[-74.115154,40.65791],[-74.116197,40.658298],[-74.114797,40.657305],[-74.115984,40.657803],[-74.116882,40.658383]],[[-74.111554,40.657102],[-74.11159,40.65713],[-74.11159,40.657102],[-74.111554,40.657102]],[[-74.111592,40.656773],[-74.111586,40.657761],[-74.111658,40.657789],[-74.111621,40.658008],[-74.111729,40.658009],[-74.111656,40.658201],[-74.111982,40.657955],[-74.111908,40.658256],[-74.111978,40.658531],[-74.112164,40.657544],[-74.111985,40.657406],[-74.111984,40.657598],[-74.111803,40.657707],[-74.111876,40.657515],[-74.111879,40.657076],[-74.111771,40.656966],[-74.111732,40.657542],[-74.111592,40.656773]],[[-74.111622,40.657899],[-74.111586,40.657871],[-74.111586,40.657899],[-74.111622,40.657899]],[[-74.111657,40.658036],[-74.111621,40.658063],[-74.111657,40.658063],[-74.111657,40.658036]],[[-74.111728,40.658228],[-74.111692,40.658256],[-74.111728,40.658256],[-74.111728,40.658228]],[[-74.111728,40.658256],[-74.111764,40.658283],[-74.111764,40.658256],[-74.111728,40.658256]],[[-74.112051,40.658422],[-74.112087,40.658449],[-74.112087,40.658422],[-74.112051,40.658422]],[[-74.111557,40.656691],[-74.111592,40.656718],[-74.111593,40.656691],[-74.111557,40.656691]],[[-74.115228,40.657554],[-74.115192,40.657526],[-74.115192,40.657554],[-74.115228,40.657554]],[[-74.116379,40.658079],[-74.116342,40.658107],[-74.116378,40.658107],[-74.116379,40.658079]],[[-74.116556,40.658546],[-74.11652,40.658519],[-74.11652,40.658546],[-74.116556,40.658546]]],[[[-74.10945,40.665577],[-74.109415,40.665495],[-74.109451,40.665495],[-74.10945,40.665577]]],[[[-74.109834,40.692562],[-74.107962,40.691952],[-74.108796,40.691132],[-74.110204,40.690972],[-74.110453,40.691521],[-74.109834,40.692562]]],[[[-74.109323,40.693631],[-74.109286,40.693659],[-74.109286,40.693631],[-74.109323,40.693631]]],[[[-74.109249,40.693933],[-74.109538,40.693714],[-74.109392,40.694043],[-74.109141,40.693905],[-74.109249,40.693933]]],[[[-74.109498,40.6944],[-74.110615,40.694706],[-74.116009,40.697359],[-74.114232,40.700952],[-74.107711,40.697789],[-74.10804,40.697058],[-74.107756,40.696316],[-74.107467,40.696397],[-74.107395,40.696315],[-74.10892,40.6947],[-74.108448,40.695111],[-74.108704,40.694617],[-74.108051,40.695192],[-74.107764,40.694999],[-74.107834,40.695301],[-74.107253,40.696067],[-74.107144,40.69604],[-74.107108,40.696094],[-74.106715,40.695516],[-74.107512,40.694833],[-74.106826,40.694968],[-74.106174,40.695405],[-74.104842,40.695071],[-74.105739,40.695788],[-74.105664,40.696419],[-74.106027,40.695871],[-74.10628,40.695872],[-74.107215,40.696397],[-74.106489,40.697108],[-74.106708,40.696752],[-74.106201,40.697057],[-74.103827,40.695905],[-74.103901,40.695699],[-74.103791,40.695888],[-74.103216,40.695559],[-74.103292,40.694901],[-74.103871,40.694628],[-74.103693,40.694189],[-74.105254,40.692492],[-74.108563,40.693986],[-74.108996,40.693987],[-74.109212,40.69407],[-74.109498,40.6944]],[[-74.108486,40.694754],[-74.108451,40.694726],[-74.10845,40.694754],[-74.108486,40.694754]],[[-74.107764,40.694999],[-74.107728,40.694971],[-74.107728,40.694998],[-74.107764,40.694999]],[[-74.107728,40.694971],[-74.107692,40.694943],[-74.107692,40.694971],[-74.107728,40.694971]],[[-74.10729,40.695903],[-74.107253,40.69593],[-74.107289,40.69593],[-74.10729,40.695903]],[[-74.107512,40.694833],[-74.107585,40.694806],[-74.107512,40.694805],[-74.107512,40.694833]],[[-74.106963,40.696258],[-74.106927,40.696286],[-74.106963,40.696286],[-74.106963,40.696258]],[[-74.107034,40.696369],[-74.106998,40.696396],[-74.107034,40.696396],[-74.107034,40.696369]],[[-74.106418,40.696888],[-74.106382,40.69686],[-74.106382,40.696888],[-74.106418,40.696888]],[[-74.106382,40.696888],[-74.106346,40.696915],[-74.106382,40.696915],[-74.106382,40.696888]],[[-74.108995,40.694152],[-74.108959,40.694069],[-74.108887,40.694151],[-74.108995,40.694152]],[[-74.109319,40.694263],[-74.109283,40.694235],[-74.109283,40.694262],[-74.109319,40.694263]]],[[[-74.095666,40.655813],[-74.09563,40.655785],[-74.095666,40.655785],[-74.095666,40.655813]]],[[[-74.097967,40.656836],[-74.098003,40.656864],[-74.097967,40.656864],[-74.097967,40.656836]]],[[[-74.098255,40.656947],[-74.098218,40.656974],[-74.098219,40.656947],[-74.098255,40.656947]]],[[[-74.098506,40.657058],[-74.09847,40.657085],[-74.09847,40.657058],[-74.098506,40.657058]]],[[[-74.098542,40.657085],[-74.098578,40.657113],[-74.098542,40.657113],[-74.098542,40.657085]]],[[[-74.098758,40.657168],[-74.098722,40.657196],[-74.098722,40.657168],[-74.098758,40.657168]]],[[[-74.09883,40.657196],[-74.098794,40.657223],[-74.098794,40.657196],[-74.09883,40.657196]]],[[[-74.098866,40.657251],[-74.098902,40.657224],[-74.098902,40.657251],[-74.098866,40.657251]]],[[[-74.098973,40.657306],[-74.09901,40.657279],[-74.099009,40.657307],[-74.098973,40.657306]]],[[[-74.099728,40.657666],[-74.099764,40.657639],[-74.099764,40.657666],[-74.099728,40.657666]]],[[[-74.099908,40.657776],[-74.099944,40.657804],[-74.099908,40.657804],[-74.099908,40.657776]]],[[[-74.099944,40.657804],[-74.099979,40.657831],[-74.099943,40.657831],[-74.099944,40.657804]]],[[[-74.099979,40.657859],[-74.100015,40.657832],[-74.100015,40.657859],[-74.099979,40.657859]]],[[[-74.100015,40.657859],[-74.100051,40.657887],[-74.100015,40.657886],[-74.100015,40.657859]]],[[[-74.108547,40.665849],[-74.108511,40.665876],[-74.108511,40.665849],[-74.108547,40.665849]]],[[[-74.097586,40.678246],[-74.097479,40.678026],[-74.096216,40.678241],[-74.096435,40.67783],[-74.09694,40.677722],[-74.095932,40.677389],[-74.09557,40.677635],[-74.095421,40.678486],[-74.094991,40.6781],[-74.094377,40.678153],[-74.093796,40.678837],[-74.093726,40.678535],[-74.09338,40.678671],[-74.090597,40.677316],[-74.089589,40.677047],[-74.089663,40.676626],[-74.088657,40.676129],[-74.087757,40.675906],[-74.087683,40.676267],[-74.076779,40.671694],[-74.07787,40.671505],[-74.078085,40.671698],[-74.078193,40.671699],[-74.078086,40.671451],[-74.07852,40.671343],[-74.078233,40.671095],[-74.075571,40.67007],[-74.075102,40.67015],[-74.075137,40.670315],[-74.075642,40.670262],[-74.075567,40.670756],[-74.076216,40.670731],[-74.076322,40.671061],[-74.076647,40.671034],[-74.076537,40.671336],[-74.076068,40.671395],[-74.065716,40.66704],[-74.066645,40.665962],[-74.067988,40.666536],[-74.068218,40.6663],[-74.070086,40.667095],[-74.069986,40.667403],[-74.07263,40.668179],[-74.072508,40.66853],[-74.073901,40.669306],[-74.074973,40.669442],[-74.075104,40.669668],[-74.078969,40.671323],[-74.079746,40.671265],[-74.08086,40.671846],[-74.081184,40.671874],[-74.079667,40.671059],[-74.085286,40.67346],[-74.085162,40.673745],[-74.086261,40.675158],[-74.08768,40.675785],[-74.088146,40.675869],[-74.089359,40.675481],[-74.090193,40.676042],[-74.090651,40.675707],[-74.091274,40.675841],[-74.092198,40.67531],[-74.091801,40.674952],[-74.094811,40.675944],[-74.095947,40.6754],[-74.096426,40.674634],[-74.095805,40.674256],[-74.094067,40.673952],[-74.091514,40.672507],[-74.089712,40.672309],[-74.081944,40.669638],[-74.08203,40.669515],[-74.076129,40.667217],[-74.071439,40.66503],[-74.071346,40.665162],[-74.068232,40.663839],[-74.069456,40.662148],[-74.069766,40.662205],[-74.070046,40.661835],[-74.069839,40.661628],[-74.070701,40.660867],[-74.070557,40.660662],[-74.076928,40.663539],[-74.08546,40.666402],[-74.086895,40.667087],[-74.089636,40.667669],[-74.089954,40.6679],[-74.09798,40.669115],[-74.100341,40.669348],[-74.10089,40.669182],[-74.10135,40.669416],[-74.10098,40.669294],[-74.100936,40.669499],[-74.102885,40.669552],[-74.103432,40.669858],[-74.104972,40.669953],[-74.105304,40.669732],[-74.105445,40.670091],[-74.106464,40.670385],[-74.10696,40.670167],[-74.107526,40.669226],[-74.10759,40.669203],[-74.106604,40.671442],[-74.105555,40.671933],[-74.10462,40.671655],[-74.104803,40.671134],[-74.104299,40.671105],[-74.10405,40.6705],[-74.101276,40.670079],[-74.100378,40.669499],[-74.098973,40.669357],[-74.099764,40.669744],[-74.098934,40.669933],[-74.098647,40.669603],[-74.098573,40.670015],[-74.098895,40.670345],[-74.098643,40.670344],[-74.098319,40.670288],[-74.098287,40.669629],[-74.097748,40.669353],[-74.097821,40.669134],[-74.097171,40.669269],[-74.096917,40.66957],[-74.096449,40.66954],[-74.096846,40.669377],[-74.096775,40.669185],[-74.09364,40.668899],[-74.093495,40.669173],[-74.093388,40.668981],[-74.093027,40.669062],[-74.092992,40.668787],[-74.090831,40.668423],[-74.090901,40.668835],[-74.091945,40.669085],[-74.092271,40.668757],[-74.092701,40.669308],[-74.09317,40.669227],[-74.0936,40.669613],[-74.093924,40.669614],[-74.093559,40.670464],[-74.093234,40.67049],[-74.093376,40.670847],[-74.093088,40.670846],[-74.09226,40.670596],[-74.091506,40.6701],[-74.091615,40.669963],[-74.091075,40.669796],[-74.091365,40.669605],[-74.092803,40.670214],[-74.092949,40.669913],[-74.092159,40.669416],[-74.089784,40.668693],[-74.089568,40.668693],[-74.089421,40.669159],[-74.088052,40.668989],[-74.088699,40.669239],[-74.088624,40.669732],[-74.090495,40.670343],[-74.091072,40.67029],[-74.091431,40.670621],[-74.092259,40.670734],[-74.09233,40.670953],[-74.092763,40.6709],[-74.093733,40.671425],[-74.09406,40.670987],[-74.094239,40.671317],[-74.095103,40.671485],[-74.095064,40.671979],[-74.097258,40.67281],[-74.096599,40.674564],[-74.096778,40.674675],[-74.097724,40.673306],[-74.098083,40.673581],[-74.097209,40.674896],[-74.097245,40.675033],[-74.09757,40.674842],[-74.097169,40.675664],[-74.099079,40.675699],[-74.098721,40.675395],[-74.098976,40.674902],[-74.099337,40.674766],[-74.099052,40.674271],[-74.099773,40.674301],[-74.100127,40.6754],[-74.099908,40.675839],[-74.09944,40.675645],[-74.099368,40.675727],[-74.099835,40.676003],[-74.099793,40.676881],[-74.099612,40.677045],[-74.098748,40.676905],[-74.098924,40.677565],[-74.098345,40.677947],[-74.09914,40.677703],[-74.099534,40.678006],[-74.099173,40.678197],[-74.0982,40.677974],[-74.098128,40.678111],[-74.098055,40.678111],[-74.097984,40.678055],[-74.097586,40.678246]],[[-74.097551,40.678026],[-74.097587,40.677999],[-74.097551,40.677999],[-74.097551,40.678026]],[[-74.092189,40.670376],[-74.092262,40.670349],[-74.09219,40.670349],[-74.092189,40.670376]],[[-74.093805,40.671425],[-74.093841,40.671453],[-74.093841,40.671425],[-74.093805,40.671425]]],[[[-74.098163,40.678138],[-74.098128,40.678111],[-74.098164,40.678111],[-74.098163,40.678138]]],[[[-74.096973,40.678217],[-74.097009,40.678272],[-74.096973,40.678272],[-74.096973,40.678217]]],[[[-74.098127,40.678138],[-74.097837,40.678384],[-74.097693,40.678356],[-74.098127,40.678138]]],[[[-74.096865,40.678271],[-74.096901,40.678299],[-74.096864,40.678299],[-74.096865,40.678271]]],[[[-74.096755,40.678435],[-74.096684,40.678271],[-74.096756,40.678353],[-74.097261,40.6783],[-74.09726,40.678465],[-74.096755,40.678435]]],[[[-74.096713,40.679424],[-74.0952,40.679226],[-74.095854,40.678515],[-74.096466,40.678544],[-74.097113,40.678876],[-74.097076,40.679123],[-74.096715,40.679094],[-74.096931,40.679205],[-74.096713,40.679424]]],[[[-74.097287,40.680029],[-74.097501,40.680415],[-74.096625,40.680055],[-74.09707,40.680138],[-74.097287,40.680029]]],[[[-74.106737,40.691674],[-74.106846,40.691619],[-74.106846,40.691674],[-74.106737,40.691674]]],[[[-74.10605,40.691973],[-74.10598,40.691698],[-74.107276,40.692115],[-74.106554,40.692194],[-74.10605,40.691973]]],[[[-74.108996,40.693877],[-74.108962,40.693575],[-74.10684,40.69258],[-74.107128,40.692636],[-74.107852,40.692226],[-74.109688,40.692782],[-74.109214,40.693658],[-74.109249,40.693823],[-74.108996,40.693877]],[[-74.109177,40.693795],[-74.109141,40.693768],[-74.109141,40.693795],[-74.109177,40.693795]]],[[[-74.107398,40.695848],[-74.107362,40.695821],[-74.107398,40.695821],[-74.107398,40.695848]]],[[[-74.107252,40.696177],[-74.107651,40.695849],[-74.107287,40.69626],[-74.107252,40.696177]]],[[[-74.107216,40.696095],[-74.107108,40.696122],[-74.107144,40.696067],[-74.107216,40.696095]]],[[[-74.107214,40.696561],[-74.107571,40.697194],[-74.10746,40.69766],[-74.106632,40.697266],[-74.107214,40.696561]]]]}}]}