{"type":"FeatureCollection","features":[{"type":"Feature","properties":{"level_ft":3},"geometry":{"type":"MultiPolygon","coordinates":[[[[-74.158263,40.644031],[-74.158248,40.644019],[-74.158263,40.644019],[-74.158263,40.644031]]],[[[-74.141029,40.644273],[-74.141071,40.644324],[-74.140979,40.644351],[-74.141029,40.644273]]],[[[-74.140963,40.644433],[-74.140929,40.644433],[-74.140963,40.644375],[-74.140963,40.644433]]],[[[-74.158282,40.644046],[-74.161391,40.644357],[-74.161356,40.645428],[-74.160077,40.645246],[-74.160206,40.644951],[-74.159668,40.644486],[-74.159018,40.644694],[-74.159247,40.644938],[-74.158912,40.644855],[-74.158282,40.644046]]],[[[-74.140708,40.644789],[-74.13959,40.645088],[-74.137534,40.645356],[-74.136847,40.64571],[-74.136451,40.645682],[-74.135769,40.64524],[-74.134291,40.645208],[-74.133643,40.645096],[-74.13285,40.645258],[-74.131265,40.645006],[-74.130652,40.645169],[-74.127842,40.644913],[-74.12611,40.645264],[-74.125643,40.645126],[-74.125353,40.645372],[-74.12474,40.645425],[-74.124703,40.645562],[-74.123405,40.645612],[-74.12344,40.645914],[-74.123187,40.645969],[-74.122683,40.645994],[-74.122503,40.645802],[-74.120159,40.646151],[-74.118632,40.648404],[-74.118546,40.648269],[-74.120136,40.646109],[-74.125303,40.645306],[-74.125629,40.64509],[-74.126098,40.64519],[-74.127957,40.64485],[-74.128425,40.644838],[-74.130745,40.64512],[-74.131048,40.644945],[-74.132858,40.645202],[-74.133579,40.645044],[-74.135897,40.645193],[-74.136748,40.645651],[-74.137508,40.645309],[-74.139752,40.644996],[-74.140927,40.644437],[-74.140708,40.644789]]],[[[-74.110725,40.650866],[-74.108347,40.650723],[-74.108269,40.650288],[-74.108468,40.650301],[-74.108416,40.650702],[-74.110725,40.650866]]],[[[-74.118054,40.648697],[-74.11866,40.649934],[-74.118328,40.651168],[-74.117967,40.651414],[-74.11703,40.651411],[-74.116995,40.651136],[-74.117356,40.651055],[-74.116996,40.650999],[-74.117179,40.650396],[-74.11693,40.649983],[-74.116888,40.650861],[-74.116167,40.650941],[-74.116847,40.651877],[-74.117023,40.652564],[-74.115795,40.652999],[-74.11493,40.652941],[-74.112923,40.650958],[-74.111337,40.651008],[-74.113015,40.65094],[-74.114045,40.65189],[-74.114403,40.651657],[-74.114029,40.650885],[-74.115447,40.65274],[-74.115889,40.652871],[-74.1165,40.652589],[-74.115038,40.650386],[-74.116445,40.652148],[-74.116801,40.65191],[-74.11505,40.649541],[-74.115843,40.649215],[-74.116241,40.649535],[-74.117098,40.648832],[-74.118632,40.648425],[-74.118054,40.648697]],[[-74.116168,40.650887],[-74.116132,40.650859],[-74.116131,40.650886],[-74.116168,40.650887]],[[-74.118054,40.648752],[-74.117801,40.648806],[-74.117765,40.64886],[-74.118054,40.648752]],[[-74.117765,40.64886],[-74.117729,40.648888],[-74.117765,40.648888],[-74.117765,40.64886]],[[-74.117657,40.648888],[-74.117223,40.649133],[-74.117186,40.649188],[-74.11751,40.649244],[-74.117657,40.648888]],[[-74.117186,40.649215],[-74.116933,40.649297],[-74.116966,40.649928],[-74.117401,40.649518],[-74.116969,40.649434],[-74.117186,40.649215]]],[[[-74.110797,40.650896],[-74.110941,40.650886],[-74.110941,40.650896],[-74.110797,40.650896]]],[[[-74.111085,40.650952],[-74.111049,40.650907],[-74.11123,40.650952],[-74.111085,40.650952]]],[[[-74.099893,40.660219],[-74.100617,40.659645],[-74.100656,40.659289],[-74.101771,40.659567],[-74.101449,40.659236],[-74.102417,40.660118],[-74.102199,40.660392],[-74.101373,40.659813],[-74.099057,40.661452],[-74.099893,40.660219]]],[[[-74.109538,40.662805],[-74.110344,40.660722],[-74.111028,40.660779],[-74.110259,40.662835],[-74.109538,40.662805]]],[[[-74.105516,40.666442],[-74.107034,40.665679],[-74.106245,40.665072],[-74.106248,40.664606],[-74.106608,40.66458],[-74.108366,40.666095],[-74.10847,40.666837],[-74.108175,40.667851],[-74.107744,40.66763],[-74.107311,40.667739],[-74.107273,40.668068],[-74.104905,40.666166],[-74.105085,40.666057],[-74.105516,40.666442]],[[-74.106094,40.666197],[-74.106058,40.666225],[-74.106094,40.666225],[-74.106094,40.666197]],[[-74.106058,40.666225],[-74.106022,40.666252],[-74.106058,40.666252],[-74.106058,40.666225]],[[-74.106022,40.666252],[-74.105985,40.666279],[-74.106021,40.666279],[-74.106022,40.666252]],[[-74.105985,40.666279],[-74.105949,40.666307],[-74.105985,40.666307],[-74.105985,40.666279]],[[-74.105949,40.666307],[-74.105913,40.666334],[-74.105949,40.666334],[-74.105949,40.666307]],[[-74.105913,40.666334],[-74.105877,40.666361],[-74.105913,40.666361],[-74.105913,40.666334]]],[[[-74.163014,40.645898],[-74.15809,40.649737],[-74.14726,40.655124],[-74.142721,40.658943],[-74.140573,40.661318],[-74.132507,40.672932],[-74.125251,40.68406],[-74.120322,40.69066],[-74.117554,40.694949],[-74.110301,40.692756],[-74.11125,40.69081],[-74.112369,40.690704],[-74.11313,40.690021],[-74.112917,40.689416],[-74.112019,40.688891],[-74.112021,40.688535],[-74.11115,40.68952],[-74.109927,40.688967],[-74.10986,40.688116],[-74.110369,40.687294],[-74.110986,40.686665],[-74.111455,40.686584],[-74.112073,40.685817],[-74.113765,40.686317],[-74.114601,40.68503],[-74.116923,40.682567],[-74.116206,40.681906],[-74.116208,40.681631],[-74.116822,40.681441],[-74.117686,40.681663],[-74.118847,40.68035],[-74.118849,40.680103],[-74.117517,40.679632],[-74.116548,40.678915],[-74.116913,40.678037],[-74.119486,40.675822],[-74.121185,40.675087],[-74.121804,40.673854],[-74.122745,40.673225],[-74.123656,40.671664],[-74.124521,40.671612],[-74.125527,40.672164],[-74.125781,40.672027],[-74.127015,40.670549],[-74.126692,40.670219],[-74.12749,40.669343],[-74.127349,40.668684],[-74.127749,40.668108],[-74.127319,40.66775],[-74.127321,40.667338],[-74.127718,40.667312],[-74.128008,40.666929],[-74.127577,40.66668],[-74.127473,40.665994],[-74.128017,40.665254],[-74.128307,40.665036],[-74.12892,40.665065],[-74.130681,40.666004],[-74.131006,40.665923],[-74.133147,40.663267],[-74.132934,40.662662],[-74.132072,40.66222],[-74.131968,40.661451],[-74.132514,40.66041],[-74.13291,40.660466],[-74.133164,40.660138],[-74.133023,40.659698],[-74.133277,40.659315],[-74.135451,40.657235],[-74.13592,40.657182],[-74.136819,40.657651],[-74.138524,40.655625],[-74.139532,40.655821],[-74.140295,40.654752],[-74.140224,40.654395],[-74.139649,40.654119],[-74.14001,40.654038],[-74.140267,40.653242],[-74.142006,40.651573],[-74.142188,40.651245],[-74.1419,40.651024],[-74.142768,40.65045],[-74.143777,40.650646],[-74.143812,40.65081],[-74.144102,40.650537],[-74.143745,40.649849],[-74.144069,40.64985],[-74.144835,40.648068],[-74.146068,40.646645],[-74.145892,40.645876],[-74.145924,40.646699],[-74.144953,40.646202],[-74.144341,40.646173],[-74.144956,40.645681],[-74.144886,40.645296],[-74.143877,40.645238],[-74.143988,40.644799],[-74.144603,40.64428],[-74.144388,40.644142],[-74.144242,40.644443],[-74.143773,40.644524],[-74.143122,40.645044],[-74.142906,40.644988],[-74.14273,40.644109],[-74.142045,40.644107],[-74.14208,40.644464],[-74.141935,40.644601],[-74.141323,40.644379],[-74.141982,40.64453],[-74.14188,40.644033],[-74.14375,40.643792],[-74.163014,40.645898]]],[[[-74.114041,40.682118],[-74.114693,40.681654],[-74.115234,40.681628],[-74.115521,40.681876],[-74.115411,40.682232],[-74.114762,40.682148],[-74.114255,40.682585],[-74.113967,40.682502],[-74.114041,40.682118]]],[[[-74.109296,40.691957],[-74.108506,40.691432],[-74.10901,40.691571],[-74.108868,40.691187],[-74.109121,40.69116],[-74.109515,40.691573],[-74.109878,40.691163],[-74.110166,40.691191],[-74.110236,40.69163],[-74.109296,40.691957]],[[-74.109622,40.691793],[-74.109586,40.691766],[-74.109586,40.691793],[-74.109622,40.691793]]],[[[-74.109214,40.693603],[-74.107668,40.692939],[-74.107382,40.692499],[-74.10796,40.692309],[-74.109652,40.692809],[-74.109214,40.693603]]],[[[-74.106211,40.695268],[-74.107374,40.693789],[-74.106871,40.693541],[-74.107052,40.693349],[-74.108778,40.694261],[-74.108379,40.694589],[-74.107152,40.694749],[-74.106211,40.695268]]],[[[-74.116046,40.697297],[-74.109825,40.6941],[-74.109683,40.693687],[-74.110156,40.692948],[-74.117428,40.695141],[-74.116046,40.697297]]],[[[-74.107844,40.697854],[-74.108292,40.697224],[-74.107721,40.696096],[-74.109282,40.694372],[-74.110615,40.694706],[-74.116009,40.697359],[-74.114232,40.700952],[-74.107844,40.697854]]],[[[-74.10752,40.650418],[-74.107331,40.65201],[-74.107006,40.652009],[-74.107083,40.65124],[-74.10593,40.651099],[-74.105751,40.650989],[-74.105536,40.650768],[-74.105612,40.650165],[-74.104099,40.649995],[-74.103951,40.650543],[-74.103843,40.650653],[-74.103518,40.650679],[-74.102763,40.650402],[-74.10273,40.649825],[-74.101614,40.649712],[-74.101613,40.649904],[-74.101468,40.649903],[-74.09992,40.649651],[-74.099309,40.649319],[-74.096173,40.649418],[-74.093466,40.650177],[-74.093284,40.650424],[-74.089377,40.652716],[-74.087678,40.653561],[-74.087244,40.653889],[-74.087314,40.654108],[-74.087205,40.654355],[-74.086916,40.654382],[-74.086696,40.654985],[-74.086154,40.655285],[-74.086153,40.655477],[-74.088423,40.655622],[-74.088383,40.656171],[-74.089103,40.656283],[-74.089207,40.656943],[-74.089533,40.656724],[-74.089562,40.657822],[-74.08931,40.657821],[-74.089742,40.657878],[-74.090131,40.659233],[-74.089771,40.658087],[-74.089313,40.657973],[-74.089086,40.657625],[-74.088852,40.656329],[-74.088306,40.656226],[-74.088403,40.655691],[-74.08605,40.655497],[-74.086104,40.655274],[-74.086674,40.654898],[-74.086873,40.654355],[-74.087176,40.654299],[-74.087248,40.653819],[-74.087695,40.653521],[-74.09342,40.650165],[-74.095945,40.649428],[-74.099273,40.649276],[-74.100303,40.649662],[-74.101539,40.649792],[-74.101628,40.649646],[-74.102815,40.649804],[-74.102824,40.650365],[-74.103617,40.650619],[-74.103832,40.650613],[-74.104077,40.64996],[-74.105686,40.650119],[-74.105599,40.650711],[-74.105925,40.651034],[-74.106727,40.651069],[-74.107151,40.651208],[-74.107142,40.651329],[-74.107394,40.651342],[-74.107451,40.650795],[-74.107493,40.650528],[-74.107534,40.650337],[-74.10756,40.65028],[-74.108238,40.650338],[-74.10752,40.650418]]],[[[-74.068232,40.663839],[-74.069456,40.662148],[-74.069766,40.662205],[-74.070046,40.661835],[-74.069839,40.661635],[-74.070019,40.661403],[-74.070701,40.660867],[-74.070588,40.660656],[-74.076928,40.663539],[-74.08546,40.666402],[-74.086832,40.667063],[-74.083961,40.665983],[-74.08306,40.665924],[-74.08281,40.665594],[-74.076802,40.663623],[-74.070583,40.660965],[-74.070219,40.661513],[-74.06993,40.661566],[-74.070072,40.661814],[-74.072877,40.662977],[-74.073414,40.663501],[-74.072441,40.663415],[-74.069673,40.662252],[-74.068509,40.663812],[-74.068293,40.663811],[-74.071346,40.665162],[-74.068232,40.663839]]],[[[-74.091333,40.664908],[-74.089528,40.66491],[-74.089516,40.664094],[-74.090591,40.664097],[-74.090757,40.663909],[-74.09072,40.663302],[-74.091203,40.662621],[-74.090888,40.661512],[-74.091374,40.662554],[-74.090872,40.660418],[-74.090357,40.659527],[-74.090987,40.6606],[-74.091411,40.662056],[-74.091406,40.662852],[-74.090862,40.663454],[-74.090859,40.663893],[-74.090605,40.66414],[-74.08956,40.664163],[-74.089555,40.66485],[-74.090853,40.664854],[-74.090711,40.664552],[-74.09111,40.664196],[-74.091613,40.664445],[-74.092623,40.664311],[-74.093991,40.664536],[-74.094282,40.664208],[-74.094103,40.663932],[-74.094285,40.663631],[-74.095907,40.663692],[-74.096769,40.664244],[-74.09731,40.664163],[-74.097709,40.663698],[-74.097598,40.664219],[-74.097343,40.664685],[-74.097053,40.664876],[-74.097089,40.665041],[-74.098024,40.665401],[-74.098382,40.665677],[-74.100102,40.667494],[-74.101289,40.667993],[-74.102121,40.667446],[-74.101396,40.668213],[-74.107555,40.669085],[-74.107627,40.669112],[-74.107627,40.669167],[-74.105718,40.668902],[-74.104914,40.669089],[-74.103569,40.668697],[-74.102598,40.668545],[-74.102106,40.668721],[-74.101522,40.66851],[-74.100838,40.667833],[-74.100049,40.667525],[-74.099674,40.667277],[-74.098123,40.665584],[-74.097067,40.665098],[-74.097044,40.664808],[-74.097391,40.664564],[-74.097268,40.664261],[-74.096972,40.664525],[-74.096508,40.664427],[-74.096455,40.664814],[-74.096948,40.665046],[-74.096759,40.665192],[-74.095884,40.665121],[-74.095827,40.664112],[-74.094738,40.664089],[-74.09431,40.664649],[-74.093571,40.6648],[-74.092639,40.664367],[-74.09247,40.664629],[-74.091405,40.66466],[-74.091088,40.664441],[-74.090897,40.664732],[-74.091371,40.664801],[-74.090889,40.664882],[-74.091333,40.664908]]],[[[-74.086895,40.667087],[-74.08691,40.667091],[-74.086874,40.667079],[-74.086895,40.667087]]],[[[-74.086995,40.667116],[-74.086946,40.667119],[-74.086946,40.667101],[-74.086995,40.667116]]],[[[-74.08739,40.667197],[-74.087913,40.667397],[-74.087018,40.667121],[-74.08739,40.667197]]],[[[-74.087917,40.667424],[-74.088047,40.667405],[-74.088137,40.667452],[-74.087917,40.667424]]],[[[-74.088193,40.66748],[-74.088169,40.66748],[-74.088169,40.667469],[-74.088193,40.66748]]],[[[-74.088205,40.667484],[-74.09798,40.669115],[-74.100341,40.669348],[-74.100914,40.669186],[-74.10135,40.669416],[-74.10098,40.669294],[-74.100936,40.669499],[-74.102885,40.669552],[-74.103432,40.669858],[-74.104972,40.669953],[-74.105304,40.669732],[-74.105445,40.670091],[-74.106464,40.670385],[-74.10696,40.670167],[-74.107526,40.669226],[-74.10759,40.669249],[-74.107225,40.670044],[-74.106718,40.670509],[-74.105852,40.670616],[-74.104915,40.670531],[-74.104844,40.670283],[-74.10416,40.670061],[-74.103043,40.670057],[-74.10009,40.669443],[-74.090113,40.668008],[-74.088205,40.667484]]],[[[-74.07604,40.670058],[-74.076071,40.670071],[-74.07604,40.670071],[-74.07604,40.670058]]],[[[-74.076137,40.670099],[-74.076112,40.670099],[-74.076112,40.670088],[-74.076137,40.670099]]],[[[-74.076204,40.670127],[-74.076184,40.670127],[-74.076184,40.670118],[-74.076204,40.670127]]],[[[-74.07627,40.670154],[-74.076256,40.670154],[-74.076256,40.670148],[-74.07627,40.670154]]],[[[-74.076337,40.670182],[-74.076292,40.670182],[-74.076292,40.670163],[-74.076337,40.670182]]],[[[-74.076364,40.670193],[-74.076403,40.67021],[-74.076364,40.67021],[-74.076364,40.670193]]],[[[-74.076436,40.670223],[-74.07647,40.670238],[-74.076436,40.670237],[-74.076436,40.670223]]],[[[-74.079611,40.6711],[-74.085301,40.673467],[-74.085162,40.673745],[-74.085637,40.674122],[-74.086299,40.675191],[-74.088081,40.675871],[-74.088828,40.675529],[-74.089359,40.675481],[-74.090053,40.675842],[-74.090193,40.676042],[-74.090651,40.675707],[-74.091283,40.675839],[-74.092198,40.67531],[-74.091857,40.674951],[-74.094923,40.675947],[-74.095895,40.67545],[-74.096426,40.67466],[-74.095653,40.674204],[-74.094067,40.673952],[-74.091514,40.672507],[-74.089712,40.672309],[-74.081944,40.669638],[-74.08203,40.669515],[-74.080417,40.668985],[-74.076379,40.667187],[-74.076129,40.667217],[-74.074349,40.66642],[-74.074261,40.666252],[-74.072321,40.665391],[-74.074442,40.666195],[-74.074549,40.66647],[-74.075411,40.666857],[-74.075988,40.666914],[-74.079942,40.66874],[-74.081777,40.669324],[-74.082064,40.669462],[-74.082099,40.669654],[-74.089655,40.672207],[-74.092069,40.672407],[-74.092175,40.67271],[-74.09401,40.673402],[-74.094259,40.67387],[-74.095808,40.67404],[-74.096491,40.674537],[-74.096489,40.674839],[-74.096052,40.675441],[-74.095148,40.675932],[-74.094201,40.677521],[-74.094787,40.676013],[-74.092629,40.675209],[-74.091505,40.676139],[-74.090569,40.675943],[-74.090099,40.676079],[-74.089273,40.675554],[-74.087865,40.675934],[-74.086175,40.675186],[-74.085533,40.674086],[-74.085102,40.67381],[-74.085176,40.673453],[-74.079611,40.6711]]],[[[-74.093257,40.672631],[-74.092755,40.672245],[-74.093728,40.672221],[-74.094373,40.672882],[-74.093257,40.672631]]],[[[-74.09685,40.674703],[-74.097687,40.673388],[-74.097904,40.673361],[-74.09801,40.673691],[-74.097246,40.674841],[-74.09685,40.674703]]],[[[-74.066683,40.665952],[-74.067988,40.666536],[-74.068218,40.6663],[-74.070086,40.667095],[-74.069986,40.667403],[-74.071519,40.667951],[-74.071696,40.667775],[-74.07263,40.668179],[-74.072461,40.668433],[-74.072508,40.66853],[-74.072638,40.668518],[-74.072799,40.668687],[-74.072409,40.668493],[-74.072483,40.668164],[-74.071764,40.667859],[-74.071547,40.668023],[-74.071294,40.667995],[-74.069964,40.667468],[-74.070002,40.667112],[-74.068241,40.666364],[-74.068059,40.666583],[-74.067915,40.666582],[-74.066585,40.666028],[-74.065716,40.66704],[-74.06649,40.666067],[-74.066683,40.665952]]],[[[-74.074728,40.669511],[-74.074753,40.669518],[-74.07471,40.669517],[-74.074728,40.669511]]],[[[-74.075075,40.669642],[-74.074782,40.669545],[-74.074782,40.669524],[-74.074973,40.669442],[-74.075075,40.669642]]],[[[-74.075141,40.669684],[-74.075141,40.669684],[-74.075141,40.669684],[-74.075141,40.669684]]],[[[-74.075208,40.669711],[-74.075177,40.669711],[-74.075177,40.669699],[-74.075208,40.669711]]],[[[-74.075249,40.669729],[-74.075274,40.669739],[-74.075249,40.669739],[-74.075249,40.669729]]],[[[-74.075341,40.669767],[-74.075321,40.669767],[-74.075321,40.669759],[-74.075341,40.669767]]],[[[-74.075407,40.669794],[-74.075393,40.669794],[-74.075393,40.669789],[-74.075407,40.669794]]],[[[-74.075465,40.669819],[-74.075473,40.669822],[-74.075465,40.669822],[-74.075465,40.669819]]],[[[-74.07554,40.66985],[-74.075501,40.66985],[-74.075501,40.669834],[-74.07554,40.66985]]],[[[-74.075573,40.669864],[-74.075606,40.669878],[-74.075573,40.669877],[-74.075573,40.669864]]],[[[-74.075645,40.669894],[-74.075673,40.669905],[-74.075645,40.669905],[-74.075645,40.669894]]],[[[-74.075739,40.669933],[-74.075716,40.669933],[-74.075716,40.669924],[-74.075739,40.669933]]],[[[-74.075805,40.669961],[-74.075788,40.669961],[-74.075788,40.669954],[-74.075805,40.669961]]],[[[-74.07586,40.669984],[-74.075872,40.669988],[-74.07586,40.669988],[-74.07586,40.669984]]],[[[-74.075938,40.670016],[-74.075932,40.670016],[-74.075932,40.670013],[-74.075938,40.670016]]],[[[-74.076005,40.670044],[-74.076004,40.670044],[-74.076004,40.670043],[-74.076005,40.670044]]]]}}]}