{"type":"FeatureCollection","features":[{"type":"Feature","properties":{"level_ft":18},"geometry":{"type":"MultiPolygon","coordinates":[[[[-74.158263,40.644019],[-74.158263,40.644031],[-74.158248,40.644019],[-74.158263,40.644019]]],[[[-74.158282,40.644046],[-74.161391,40.644357],[-74.161303,40.645451],[-74.160077,40.645246],[-74.160206,40.644951],[-74.159668,40.644486],[-74.159018,40.644694],[-74.159247,40.644938],[-74.158912,40.644855],[-74.158282,40.644046]]],[[[-74.138958,40.648682],[-74.138921,40.648736],[-74.138922,40.648681],[-74.138958,40.648682]]],[[[-74.138885,40.648736],[-74.138921,40.648791],[-74.138885,40.648791],[-74.138885,40.648736]]],[[[-74.138667,40.649065],[-74.138631,40.64912],[-74.138631,40.649065],[-74.138667,40.649065]]],[[[-74.138595,40.64912],[-74.138631,40.649175],[-74.138595,40.649175],[-74.138595,40.64912]]],[[[-74.138558,40.649284],[-74.138233,40.649311],[-74.138307,40.649064],[-74.138559,40.64912],[-74.138558,40.649284]],[[-74.13845,40.649284],[-74.138486,40.649229],[-74.13845,40.649229],[-74.13845,40.649284]]],[[[-74.136997,40.651421],[-74.135918,40.650868],[-74.136854,40.651146],[-74.137181,40.65057],[-74.137505,40.650681],[-74.136997,40.651421]]],[[[-74.136924,40.651585],[-74.13696,40.65153],[-74.13696,40.651585],[-74.136924,40.651585]]],[[[-74.136416,40.652105],[-74.13638,40.652077],[-74.136416,40.652078],[-74.136416,40.652105]]],[[[-74.136489,40.651968],[-74.136054,40.652378],[-74.135948,40.652103],[-74.135588,40.652047],[-74.135729,40.652597],[-74.135475,40.652871],[-74.135691,40.652981],[-74.135546,40.653118],[-74.135438,40.65309],[-74.135438,40.653118],[-74.135402,40.653117],[-74.135006,40.652924],[-74.134896,40.653253],[-74.134899,40.652649],[-74.134287,40.652565],[-74.133961,40.652811],[-74.133747,40.652536],[-74.132666,40.652422],[-74.133748,40.652316],[-74.133893,40.652097],[-74.134216,40.652345],[-74.135045,40.652348],[-74.13523,40.651442],[-74.136203,40.651473],[-74.136202,40.651665],[-74.136527,40.651694],[-74.136489,40.651968]],[[-74.136418,40.651693],[-74.136382,40.651721],[-74.136418,40.651721],[-74.136418,40.651693]],[[-74.13649,40.651858],[-74.136453,40.651885],[-74.136489,40.651886],[-74.13649,40.651858]],[[-74.136453,40.651968],[-74.136417,40.651995],[-74.136453,40.651995],[-74.136453,40.651968]]],[[[-74.135077,40.653061],[-74.135041,40.653089],[-74.135041,40.653061],[-74.135077,40.653061]]],[[[-74.135473,40.653145],[-74.135438,40.653118],[-74.135474,40.653118],[-74.135473,40.653145]]],[[[-74.136445,40.653532],[-74.136118,40.653998],[-74.135433,40.653968],[-74.13594,40.653531],[-74.136445,40.653532]],[[-74.135976,40.653613],[-74.136047,40.653641],[-74.136048,40.653614],[-74.135976,40.653613]]],[[[-74.133125,40.654098],[-74.134425,40.653663],[-74.134244,40.653937],[-74.133125,40.654098]]],[[[-74.133882,40.654128],[-74.134712,40.653911],[-74.133773,40.654238],[-74.133882,40.654128]]],[[[-74.129016,40.65414],[-74.129052,40.654168],[-74.129016,40.654168],[-74.129016,40.65414]]],[[[-74.133666,40.654155],[-74.13381,40.654128],[-74.133665,40.654265],[-74.133666,40.654155]]],[[[-74.133881,40.654375],[-74.133809,40.654403],[-74.133809,40.654375],[-74.133881,40.654375]]],[[[-74.13352,40.654402],[-74.133808,40.65443],[-74.133484,40.654456],[-74.13352,40.654402]]],[[[-74.133591,40.654731],[-74.133159,40.654538],[-74.133736,40.65454],[-74.133591,40.654731]]],[[[-74.120933,40.655761],[-74.120897,40.655788],[-74.120897,40.655761],[-74.120933,40.655761]]],[[[-74.120645,40.655787],[-74.120681,40.655815],[-74.120645,40.655815],[-74.120645,40.655787]]],[[[-74.119846,40.656855],[-74.119882,40.656828],[-74.119882,40.656856],[-74.119846,40.656855]]],[[[-74.119701,40.656992],[-74.119737,40.65702],[-74.119701,40.65702],[-74.119701,40.656992]]],[[[-74.119664,40.657074],[-74.119628,40.657129],[-74.119628,40.657074],[-74.119664,40.657074]]],[[[-74.119592,40.657129],[-74.119628,40.657157],[-74.119592,40.657157],[-74.119592,40.657129]]],[[[-74.119556,40.657211],[-74.119592,40.657157],[-74.119592,40.657211],[-74.119556,40.657211]]],[[[-74.119519,40.657239],[-74.119556,40.657211],[-74.119555,40.657239],[-74.119519,40.657239]]],[[[-74.119519,40.657321],[-74.119447,40.657293],[-74.119519,40.657266],[-74.119519,40.657321]]],[[[-74.119411,40.657348],[-74.119446,40.657376],[-74.11941,40.657376],[-74.119411,40.657348]]],[[[-74.119338,40.657513],[-74.119374,40.657375],[-74.11941,40.657376],[-74.119338,40.657513]]],[[[-74.115156,40.663757],[-74.115198,40.662852],[-74.119698,40.657514],[-74.121799,40.655709],[-74.123678,40.654864],[-74.126024,40.654323],[-74.127574,40.654245],[-74.128005,40.654604],[-74.128797,40.654634],[-74.129195,40.65436],[-74.12923,40.654553],[-74.130274,40.654776],[-74.129876,40.655049],[-74.130557,40.65582],[-74.13016,40.655928],[-74.130769,40.656507],[-74.131311,40.656371],[-74.131165,40.656755],[-74.131883,40.657141],[-74.131414,40.657332],[-74.131127,40.657084],[-74.130548,40.657522],[-74.131304,40.657579],[-74.13141,40.657909],[-74.13206,40.657719],[-74.131913,40.658212],[-74.132489,40.658488],[-74.132379,40.65868],[-74.131803,40.658569],[-74.131766,40.658788],[-74.131009,40.658896],[-74.130722,40.658538],[-74.13101,40.658594],[-74.131193,40.658155],[-74.12997,40.657684],[-74.129936,40.6573],[-74.130152,40.657356],[-74.13048,40.656753],[-74.129758,40.65686],[-74.128572,40.656225],[-74.128355,40.656444],[-74.12857,40.656664],[-74.127921,40.65669],[-74.127775,40.656964],[-74.128889,40.657653],[-74.128132,40.657541],[-74.127594,40.657183],[-74.127376,40.657484],[-74.128095,40.657871],[-74.128201,40.658173],[-74.127408,40.658198],[-74.127337,40.657923],[-74.127012,40.658114],[-74.128341,40.658914],[-74.12834,40.659107],[-74.126938,40.658471],[-74.126217,40.658496],[-74.125967,40.658056],[-74.125317,40.658218],[-74.125388,40.658438],[-74.123191,40.658129],[-74.122653,40.657551],[-74.122939,40.658101],[-74.122183,40.657879],[-74.121857,40.658125],[-74.121209,40.658095],[-74.121566,40.658673],[-74.121062,40.658534],[-74.120448,40.658751],[-74.120733,40.659301],[-74.120193,40.659217],[-74.11983,40.659738],[-74.120369,40.659904],[-74.120511,40.660289],[-74.119647,40.660176],[-74.11954,40.659956],[-74.119359,40.660066],[-74.11968,40.660616],[-74.119606,40.661],[-74.119281,40.661053],[-74.118918,40.661574],[-74.119204,40.661987],[-74.118374,40.662149],[-74.118267,40.661874],[-74.11769,40.661927],[-74.117511,40.661679],[-74.117185,40.662062],[-74.117759,40.662586],[-74.117147,40.662446],[-74.116965,40.662665],[-74.116677,40.66261],[-74.116494,40.66313],[-74.115664,40.663347],[-74.115445,40.663813],[-74.115156,40.663757]]],[[[-74.137648,40.650846],[-74.138009,40.650875],[-74.138372,40.650382],[-74.138157,40.650161],[-74.138627,40.649888],[-74.138701,40.649395],[-74.139973,40.647587],[-74.141323,40.644352],[-74.141982,40.64453],[-74.14188,40.644033],[-74.143813,40.643797],[-74.163014,40.645898],[-74.15809,40.649737],[-74.14726,40.655124],[-74.142721,40.658943],[-74.140573,40.661318],[-74.132507,40.672932],[-74.125251,40.68406],[-74.120322,40.69066],[-74.117554,40.694949],[-74.106089,40.691479],[-74.107459,40.691621],[-74.108367,40.690554],[-74.107864,40.690222],[-74.10725,40.690358],[-74.107363,40.689617],[-74.107181,40.689863],[-74.107038,40.689643],[-74.107329,40.689178],[-74.107871,40.689042],[-74.108161,40.688686],[-74.108703,40.688551],[-74.109207,40.68869],[-74.109789,40.687841],[-74.109577,40.687154],[-74.110299,40.686964],[-74.111928,40.685844],[-74.11175,40.685432],[-74.112076,40.685158],[-74.112261,40.68439],[-74.111757,40.684306],[-74.111687,40.683977],[-74.111976,40.68384],[-74.112443,40.684199],[-74.113534,40.682583],[-74.113068,40.682087],[-74.113752,40.682227],[-74.114734,40.680775],[-74.114666,40.680089],[-74.11373,40.679784],[-74.113768,40.679454],[-74.114274,40.679346],[-74.114884,40.679788],[-74.115503,40.678746],[-74.116226,40.678447],[-74.11655,40.678585],[-74.116769,40.67801],[-74.117275,40.677792],[-74.117385,40.677435],[-74.118654,40.676341],[-74.118906,40.67637],[-74.120137,40.675358],[-74.120932,40.675168],[-74.122059,40.673525],[-74.121735,40.673387],[-74.121629,40.672947],[-74.122278,40.673004],[-74.122064,40.672509],[-74.122534,40.672319],[-74.122789,40.671826],[-74.123185,40.671964],[-74.123731,40.671142],[-74.123952,40.670182],[-74.123304,40.670125],[-74.123522,40.669824],[-74.123236,40.669411],[-74.123991,40.669716],[-74.124244,40.669607],[-74.123526,40.669028],[-74.123166,40.669027],[-74.12324,40.668698],[-74.123529,40.668589],[-74.123635,40.668836],[-74.124177,40.668756],[-74.124572,40.669031],[-74.124861,40.668923],[-74.124862,40.668593],[-74.124359,40.668372],[-74.124217,40.668015],[-74.125332,40.668403],[-74.125624,40.667854],[-74.126128,40.667966],[-74.126418,40.667665],[-74.126455,40.6675],[-74.125628,40.667113],[-74.125192,40.667688],[-74.124762,40.667275],[-74.124256,40.667466],[-74.124331,40.666917],[-74.124621,40.666726],[-74.124445,40.665902],[-74.125851,40.665934],[-74.12596,40.665687],[-74.127005,40.665855],[-74.127078,40.665663],[-74.127583,40.66561],[-74.128128,40.664898],[-74.128777,40.664845],[-74.12983,40.663503],[-74.130481,40.663121],[-74.130338,40.662874],[-74.130774,40.662271],[-74.131713,40.661972],[-74.131606,40.661642],[-74.132114,40.661123],[-74.131936,40.6606],[-74.13237,40.660382],[-74.132482,40.659724],[-74.133096,40.659506],[-74.134546,40.658028],[-74.134873,40.657535],[-74.134657,40.65748],[-74.134804,40.656959],[-74.135422,40.656027],[-74.135638,40.656028],[-74.135464,40.654792],[-74.13514,40.654846],[-74.135069,40.654599],[-74.13554,40.654106],[-74.135973,40.65408],[-74.135971,40.654382],[-74.136656,40.654357],[-74.137307,40.653974],[-74.137272,40.653727],[-74.136876,40.653726],[-74.137058,40.653342],[-74.136445,40.65345],[-74.136302,40.653175],[-74.136449,40.652682],[-74.13714,40.651531],[-74.137648,40.650846]],[[-74.122059,40.67347],[-74.122095,40.673443],[-74.122059,40.673443],[-74.122059,40.67347]],[[-74.123952,40.670182],[-74.123989,40.6701],[-74.123953,40.6701],[-74.123952,40.670182]],[[-74.127005,40.665855],[-74.127041,40.665883],[-74.127041,40.665855],[-74.127005,40.665855]],[[-74.137503,40.651065],[-74.137539,40.651093],[-74.137539,40.651065],[-74.137503,40.651065]]],[[[-74.119265,40.657567],[-74.119302,40.657512],[-74.119301,40.657567],[-74.119265,40.657567]]],[[[-74.119229,40.657622],[-74.119265,40.657567],[-74.119265,40.657622],[-74.119229,40.657622]]],[[[-74.119193,40.657649],[-74.119229,40.657622],[-74.119229,40.657649],[-74.119193,40.657649]]],[[[-74.119192,40.657677],[-74.119156,40.657704],[-74.119156,40.657677],[-74.119192,40.657677]]],[[[-74.11912,40.657704],[-74.119156,40.657732],[-74.11912,40.657731],[-74.11912,40.657704]]],[[[-74.119084,40.657786],[-74.11912,40.657731],[-74.11912,40.657786],[-74.119084,40.657786]]],[[[-74.119011,40.657841],[-74.119047,40.657814],[-74.119047,40.657841],[-74.119011,40.657841]]],[[[-74.116164,40.657859],[-74.116199,40.657886],[-74.116163,40.657886],[-74.116164,40.657859]]],[[[-74.118902,40.658005],[-74.118938,40.657978],[-74.118938,40.658005],[-74.118902,40.658005]]],[[[-74.118394,40.658553],[-74.11843,40.65858],[-74.118394,40.65858],[-74.118394,40.658553]]],[[[-74.118358,40.658635],[-74.118322,40.658662],[-74.118322,40.658635],[-74.118358,40.658635]]],[[[-74.117304,40.660059],[-74.117233,40.659976],[-74.117269,40.659976],[-74.117304,40.660059]]],[[[-74.117232,40.660113],[-74.117196,40.660086],[-74.117232,40.660086],[-74.117232,40.660113]]],[[[-74.117015,40.660332],[-74.116978,40.66036],[-74.116978,40.660332],[-74.117015,40.660332]]],[[[-74.116033,40.661702],[-74.11607,40.661674],[-74.116069,40.661702],[-74.116033,40.661702]]],[[[-74.114544,40.663618],[-74.114616,40.663673],[-74.114544,40.663673],[-74.114544,40.663618]]],[[[-74.114472,40.6637],[-74.114544,40.663755],[-74.114472,40.663755],[-74.114472,40.6637]]],[[[-74.114399,40.663782],[-74.114471,40.663837],[-74.114399,40.663837],[-74.114399,40.663782]]],[[[-74.114254,40.663947],[-74.114326,40.664002],[-74.114254,40.663974],[-74.114254,40.663947]]],[[[-74.114182,40.664029],[-74.114253,40.664084],[-74.114181,40.664056],[-74.114182,40.664029]]],[[[-74.113785,40.66411],[-74.11382,40.664137],[-74.113784,40.664137],[-74.113785,40.66411]]],[[[-74.113783,40.664439],[-74.113746,40.664466],[-74.113747,40.664439],[-74.113783,40.664439]]],[[[-74.113746,40.664549],[-74.11371,40.664576],[-74.11371,40.664549],[-74.113746,40.664549]]],[[[-74.113276,40.664739],[-74.113204,40.664821],[-74.113204,40.664739],[-74.113276,40.664739]]],[[[-74.113203,40.664876],[-74.113059,40.664903],[-74.113204,40.664821],[-74.113203,40.664876]]],[[[-74.112986,40.665068],[-74.113022,40.665095],[-74.112986,40.665095],[-74.112986,40.665068]]],[[[-74.11295,40.665123],[-74.112986,40.665095],[-74.112986,40.665123],[-74.11295,40.665123]]],[[[-74.11331,40.665179],[-74.113274,40.665151],[-74.11331,40.665151],[-74.11331,40.665179]]],[[[-74.113237,40.665261],[-74.113201,40.665233],[-74.113237,40.665233],[-74.113237,40.665261]]],[[[-74.113165,40.665343],[-74.113129,40.665315],[-74.113165,40.665315],[-74.113165,40.665343]]],[[[-74.113128,40.665398],[-74.113092,40.66537],[-74.113128,40.66537],[-74.113128,40.665398]]],[[[-74.113056,40.66548],[-74.11302,40.665452],[-74.113056,40.665452],[-74.113056,40.66548]]],[[[-74.112657,40.665918],[-74.112693,40.66589],[-74.112693,40.665918],[-74.112657,40.665918]]],[[[-74.112584,40.666],[-74.11262,40.665972],[-74.11262,40.666],[-74.112584,40.666]]],[[[-74.112514,40.665643],[-74.11255,40.665615],[-74.11255,40.665643],[-74.112514,40.665643]]],[[[-74.113892,40.664247],[-74.113711,40.664439],[-74.113782,40.664521],[-74.113638,40.664548],[-74.113274,40.665151],[-74.111786,40.666793],[-74.111749,40.666958],[-74.111605,40.667012],[-74.111641,40.667067],[-74.111604,40.667122],[-74.111568,40.667122],[-74.111568,40.667177],[-74.111532,40.667177],[-74.111532,40.667204],[-74.111496,40.667204],[-74.111495,40.667231],[-74.111459,40.667231],[-74.111459,40.667286],[-74.111423,40.667286],[-74.111423,40.667341],[-74.111387,40.667341],[-74.111386,40.667368],[-74.11135,40.667368],[-74.111386,40.667505],[-74.111313,40.667588],[-74.111205,40.66756],[-74.111205,40.667587],[-74.111169,40.667587],[-74.111169,40.667615],[-74.111133,40.667614],[-74.111132,40.667669],[-74.111096,40.667669],[-74.111096,40.667724],[-74.110808,40.667668],[-74.110881,40.667476],[-74.111025,40.667532],[-74.111351,40.667203],[-74.111389,40.666874],[-74.112406,40.66567],[-74.11255,40.665698],[-74.112551,40.665506],[-74.112841,40.66515],[-74.112985,40.665178],[-74.113529,40.664603],[-74.113603,40.664411],[-74.113313,40.664685],[-74.113531,40.664274],[-74.113712,40.664137],[-74.113892,40.664247]],[[-74.11135,40.667423],[-74.111314,40.66745],[-74.11135,40.66745],[-74.11135,40.667423]],[[-74.111314,40.667505],[-74.111278,40.667478],[-74.111278,40.667505],[-74.111314,40.667505]],[[-74.111278,40.667505],[-74.111241,40.667532],[-74.111277,40.667533],[-74.111278,40.667505]],[[-74.110917,40.667586],[-74.110953,40.667559],[-74.110917,40.667559],[-74.110917,40.667586]],[[-74.111425,40.666929],[-74.111569,40.666902],[-74.111534,40.666847],[-74.111425,40.666929]],[[-74.111534,40.66682],[-74.111606,40.666793],[-74.111642,40.666738],[-74.111534,40.66682]],[[-74.111752,40.666546],[-74.111824,40.666574],[-74.111824,40.666519],[-74.111752,40.666546]],[[-74.111751,40.666601],[-74.111715,40.666656],[-74.111751,40.666656],[-74.111751,40.666601]],[[-74.111715,40.666656],[-74.111679,40.666683],[-74.111715,40.666683],[-74.111715,40.666656]],[[-74.111679,40.666683],[-74.111643,40.66671],[-74.111679,40.66671],[-74.111679,40.666683]],[[-74.112514,40.665698],[-74.112478,40.665725],[-74.112514,40.665725],[-74.112514,40.665698]],[[-74.112478,40.665725],[-74.112441,40.66578],[-74.112477,40.66578],[-74.112478,40.665725]],[[-74.112441,40.66578],[-74.112405,40.665807],[-74.112441,40.665807],[-74.112441,40.66578]],[[-74.112586,40.665615],[-74.112623,40.665561],[-74.112587,40.665561],[-74.112586,40.665615]],[[-74.112623,40.665561],[-74.112659,40.665533],[-74.112623,40.665533],[-74.112623,40.665561]],[[-74.112696,40.665424],[-74.112731,40.665479],[-74.112732,40.665424],[-74.112696,40.665424]],[[-74.112695,40.665479],[-74.112659,40.665506],[-74.112695,40.665506],[-74.112695,40.665479]],[[-74.112732,40.665424],[-74.112768,40.665396],[-74.112732,40.665396],[-74.112732,40.665424]],[[-74.112768,40.665396],[-74.112804,40.665342],[-74.112768,40.665342],[-74.112768,40.665396]],[[-74.112804,40.665342],[-74.11284,40.665314],[-74.112804,40.665314],[-74.112804,40.665342]],[[-74.112841,40.665259],[-74.112913,40.665287],[-74.112913,40.665232],[-74.112841,40.665259]],[[-74.112949,40.665177],[-74.112913,40.665205],[-74.112949,40.665205],[-74.112949,40.665177]],[[-74.113784,40.664247],[-74.113712,40.664219],[-74.113712,40.664274],[-74.113784,40.664247]],[[-74.113712,40.664274],[-74.113675,40.664301],[-74.113711,40.664302],[-74.113712,40.664274]]],[[[-74.111785,40.666985],[-74.111749,40.666958],[-74.111785,40.666958],[-74.111785,40.666985]]],[[[-74.111677,40.66704],[-74.111641,40.66704],[-74.111641,40.667012],[-74.111677,40.667012],[-74.111677,40.66704]]],[[[-74.111713,40.667067],[-74.111677,40.66704],[-74.111713,40.66704],[-74.111713,40.667067]]],[[[-74.11164,40.667149],[-74.111604,40.667122],[-74.11164,40.667122],[-74.11164,40.667149]]],[[[-74.111604,40.667204],[-74.111568,40.667177],[-74.111604,40.667177],[-74.111604,40.667204]]],[[[-74.111568,40.667232],[-74.111532,40.667204],[-74.111568,40.667204],[-74.111568,40.667232]]],[[[-74.111062,40.66734],[-74.111208,40.667093],[-74.11128,40.667093],[-74.111062,40.66734]]],[[[-74.111495,40.667314],[-74.111459,40.667286],[-74.111495,40.667286],[-74.111495,40.667314]]],[[[-74.111459,40.667368],[-74.111423,40.667341],[-74.111459,40.667341],[-74.111459,40.667368]]],[[[-74.111422,40.667396],[-74.111386,40.667368],[-74.111423,40.667368],[-74.111422,40.667396]]],[[[-74.111026,40.667394],[-74.111062,40.667422],[-74.111026,40.667422],[-74.111026,40.667394]]],[[[-74.111241,40.667615],[-74.111205,40.667587],[-74.111241,40.667587],[-74.111241,40.667615]]],[[[-74.111168,40.667697],[-74.111132,40.667669],[-74.111168,40.667669],[-74.111168,40.667697]]],[[[-74.111096,40.667752],[-74.111132,40.667724],[-74.111132,40.667752],[-74.111096,40.667752]]],[[[-74.110951,40.667888],[-74.110987,40.667916],[-74.110951,40.667916],[-74.110951,40.667888]]],[[[-74.110914,40.667943],[-74.110951,40.667916],[-74.110951,40.667943],[-74.110914,40.667943]]],[[[-74.110914,40.667998],[-74.110878,40.66797],[-74.110914,40.667971],[-74.110914,40.667998]]],[[[-74.110878,40.668025],[-74.110842,40.667998],[-74.110878,40.667998],[-74.110878,40.668025]]],[[[-74.110842,40.668053],[-74.110806,40.66808],[-74.110806,40.668053],[-74.110842,40.668053]]],[[[-74.110769,40.668135],[-74.110733,40.668162],[-74.110733,40.668135],[-74.110769,40.668135]]],[[[-74.110697,40.668217],[-74.11066,40.668244],[-74.110661,40.668217],[-74.110697,40.668217]]],[[[-74.110624,40.668299],[-74.110588,40.668326],[-74.110588,40.668299],[-74.110624,40.668299]]],[[[-74.110551,40.668381],[-74.110515,40.668408],[-74.110515,40.668381],[-74.110551,40.668381]]],[[[-74.110479,40.668463],[-74.110443,40.668491],[-74.110443,40.668463],[-74.110479,40.668463]]],[[[-74.110806,40.667998],[-74.110407,40.668463],[-74.110442,40.668545],[-74.11037,40.668655],[-74.110152,40.668901],[-74.110007,40.668928],[-74.110043,40.669011],[-74.109971,40.668983],[-74.109971,40.66901],[-74.109935,40.66901],[-74.109899,40.669065],[-74.109934,40.669148],[-74.109862,40.66912],[-74.109862,40.669147],[-74.109826,40.669147],[-74.109826,40.669175],[-74.10979,40.669175],[-74.109644,40.669366],[-74.10968,40.669449],[-74.109608,40.669421],[-74.109608,40.669448],[-74.109572,40.669448],[-74.109535,40.66964],[-74.109211,40.669584],[-74.110663,40.667723],[-74.110951,40.667833],[-74.110951,40.667888],[-74.110879,40.667916],[-74.110878,40.66797],[-74.110806,40.667998]],[[-74.110406,40.668545],[-74.11037,40.668518],[-74.11037,40.668545],[-74.110406,40.668545]],[[-74.110189,40.668792],[-74.110153,40.668764],[-74.110152,40.668792],[-74.110189,40.668792]],[[-74.110152,40.668846],[-74.110116,40.668819],[-74.110116,40.668846],[-74.110152,40.668846]],[[-74.109535,40.669585],[-74.109499,40.669558],[-74.109499,40.669585],[-74.109535,40.669585]]],[[[-74.11008,40.668929],[-74.110043,40.668956],[-74.110044,40.668928],[-74.11008,40.668929]]],[[[-74.110007,40.669038],[-74.109971,40.66901],[-74.110007,40.669011],[-74.110007,40.669038]]],[[[-74.109971,40.669065],[-74.109934,40.669093],[-74.109935,40.669065],[-74.109971,40.669065]]],[[[-74.109898,40.669175],[-74.109862,40.669147],[-74.109898,40.669147],[-74.109898,40.669175]]],[[[-74.109862,40.669202],[-74.109826,40.669175],[-74.109862,40.669175],[-74.109862,40.669202]]],[[[-74.109789,40.669257],[-74.109825,40.66923],[-74.109825,40.669257],[-74.109789,40.669257]]],[[[-74.116046,40.697297],[-74.109896,40.694155],[-74.109032,40.693905],[-74.108459,40.693354],[-74.106084,40.692385],[-74.106086,40.692028],[-74.105511,40.691697],[-74.106052,40.691671],[-74.117428,40.695141],[-74.116046,40.697297]]],[[[-74.136656,40.647741],[-74.136153,40.647465],[-74.13597,40.647959],[-74.135754,40.647958],[-74.135793,40.647327],[-74.135505,40.647271],[-74.134997,40.64801],[-74.134782,40.647708],[-74.134206,40.647678],[-74.133624,40.648665],[-74.13348,40.6485],[-74.132579,40.648497],[-74.13247,40.648743],[-74.132255,40.648523],[-74.131389,40.648713],[-74.130964,40.647394],[-74.130748,40.647393],[-74.130637,40.647832],[-74.130241,40.647831],[-74.129818,40.6461],[-74.129639,40.645742],[-74.129387,40.645742],[-74.129313,40.646181],[-74.128665,40.645904],[-74.128088,40.646094],[-74.128017,40.645902],[-74.127476,40.6459],[-74.127006,40.646146],[-74.126967,40.646667],[-74.126536,40.646556],[-74.126101,40.646911],[-74.126388,40.647187],[-74.123682,40.647782],[-74.123857,40.648661],[-74.123675,40.648962],[-74.124071,40.648964],[-74.124212,40.64954],[-74.125003,40.649982],[-74.124856,40.650393],[-74.125756,40.650698],[-74.126041,40.651276],[-74.127338,40.651335],[-74.127301,40.651554],[-74.126795,40.651663],[-74.126866,40.651855],[-74.12755,40.652104],[-74.128236,40.651832],[-74.128846,40.6523],[-74.128737,40.652492],[-74.128449,40.652409],[-74.128556,40.652711],[-74.129456,40.652851],[-74.129635,40.653072],[-74.129997,40.652771],[-74.130393,40.6528],[-74.130535,40.653239],[-74.130825,40.652993],[-74.131544,40.653242],[-74.131836,40.652667],[-74.132049,40.653217],[-74.132517,40.653383],[-74.129235,40.653647],[-74.129198,40.653949],[-74.127794,40.65356],[-74.127396,40.653888],[-74.125449,40.654046],[-74.121551,40.654939],[-74.120972,40.655322],[-74.120793,40.655184],[-74.120504,40.655183],[-74.120217,40.655045],[-74.119964,40.655044],[-74.120252,40.655182],[-74.119855,40.655291],[-74.119455,40.655893],[-74.119851,40.65595],[-74.120394,40.655512],[-74.120356,40.655841],[-74.120681,40.655843],[-74.120825,40.655788],[-74.120897,40.655816],[-74.120572,40.655979],[-74.118468,40.658306],[-74.117341,40.660004],[-74.117453,40.659346],[-74.117062,40.658383],[-74.116632,40.657915],[-74.115625,40.657555],[-74.116164,40.657831],[-74.116164,40.657859],[-74.116092,40.657859],[-74.116091,40.657941],[-74.11681,40.658273],[-74.11706,40.658658],[-74.117087,40.660305],[-74.116979,40.660277],[-74.116687,40.660825],[-74.115381,40.662386],[-74.115273,40.662385],[-74.115308,40.662523],[-74.114037,40.664111],[-74.113821,40.664082],[-74.113895,40.663726],[-74.114221,40.663507],[-74.113678,40.66378],[-74.113355,40.663614],[-74.113281,40.663916],[-74.112272,40.663803],[-74.112521,40.66438],[-74.112161,40.664406],[-74.112013,40.664955],[-74.111544,40.66509],[-74.111614,40.66542],[-74.111036,40.665665],[-74.111034,40.666049],[-74.110673,40.666158],[-74.109944,40.667363],[-74.10846,40.668539],[-74.108599,40.669335],[-74.108023,40.669278],[-74.108703,40.670132],[-74.109138,40.669694],[-74.109353,40.669804],[-74.108009,40.671529],[-74.108767,40.671395],[-74.109125,40.671917],[-74.109736,40.672194],[-74.10977,40.672578],[-74.110379,40.673212],[-74.109407,40.672961],[-74.108612,40.673261],[-74.107749,40.672846],[-74.107244,40.672899],[-74.107608,40.672324],[-74.107501,40.672214],[-74.107284,40.672213],[-74.107284,40.672268],[-74.107248,40.672268],[-74.106852,40.672184],[-74.106998,40.671855],[-74.107286,40.671884],[-74.107215,40.671746],[-74.106999,40.671636],[-74.106744,40.672211],[-74.107211,40.67246],[-74.106957,40.672706],[-74.106885,40.672678],[-74.106849,40.672706],[-74.106884,40.672788],[-74.106812,40.67276],[-74.106776,40.672788],[-74.106812,40.67287],[-74.106448,40.673363],[-74.104706,40.675361],[-74.104094,40.675222],[-74.104561,40.675553],[-74.103435,40.676894],[-74.103254,40.677085],[-74.103182,40.677058],[-74.103145,40.677085],[-74.103181,40.677168],[-74.103072,40.677304],[-74.103,40.677277],[-74.102964,40.677304],[-74.102963,40.677441],[-74.102891,40.677414],[-74.102891,40.677441],[-74.102855,40.677441],[-74.102855,40.677468],[-74.102819,40.677468],[-74.102818,40.677523],[-74.102746,40.67755],[-74.102746,40.677633],[-74.102673,40.67766],[-74.102673,40.677715],[-74.102637,40.677715],[-74.102637,40.67777],[-74.102601,40.677769],[-74.102636,40.677852],[-74.102526,40.678099],[-74.102345,40.678318],[-74.10202,40.678426],[-74.101589,40.678178],[-74.102055,40.678619],[-74.10173,40.678672],[-74.101657,40.678809],[-74.101837,40.678892],[-74.101763,40.679112],[-74.100929,40.679877],[-74.101361,40.680071],[-74.100812,40.681414],[-74.101061,40.681992],[-74.100302,40.682318],[-74.100803,40.682897],[-74.100478,40.683033],[-74.10069,40.683665],[-74.100328,40.683938],[-74.100647,40.684927],[-74.100245,40.685777],[-74.100603,40.686162],[-74.100168,40.686555],[-74.098878,40.682698],[-74.099294,40.682095],[-74.099326,40.682644],[-74.099403,40.681849],[-74.099081,40.681463],[-74.099186,40.682067],[-74.098837,40.682588],[-74.09813,40.680694],[-74.065716,40.66704],[-74.066645,40.665962],[-74.067988,40.666536],[-74.068218,40.6663],[-74.070086,40.667095],[-74.069986,40.667403],[-74.07263,40.668179],[-74.072508,40.66853],[-74.073901,40.669306],[-74.074973,40.669442],[-74.075104,40.669668],[-74.079084,40.671365],[-74.079667,40.671059],[-74.085286,40.67346],[-74.085162,40.673745],[-74.086261,40.675158],[-74.087643,40.675775],[-74.088146,40.675869],[-74.089359,40.675481],[-74.090193,40.676042],[-74.090651,40.675707],[-74.091274,40.675841],[-74.092198,40.67531],[-74.091857,40.674951],[-74.094762,40.675934],[-74.095302,40.67585],[-74.095947,40.6754],[-74.096426,40.67466],[-74.095805,40.674256],[-74.094067,40.673952],[-74.091514,40.672507],[-74.089712,40.672309],[-74.081944,40.669638],[-74.08203,40.669515],[-74.076129,40.667217],[-74.071439,40.66503],[-74.071346,40.665162],[-74.068232,40.663839],[-74.069456,40.662148],[-74.069766,40.662205],[-74.070046,40.661835],[-74.069839,40.661628],[-74.070701,40.660867],[-74.070557,40.660662],[-74.076928,40.663539],[-74.088195,40.667481],[-74.097682,40.669075],[-74.100341,40.669348],[-74.100914,40.669186],[-74.10135,40.669416],[-74.10098,40.669294],[-74.100936,40.669499],[-74.102885,40.669552],[-74.103432,40.669858],[-74.104972,40.669953],[-74.105304,40.669732],[-74.105445,40.670091],[-74.106559,40.670377],[-74.10696,40.670167],[-74.107615,40.669147],[-74.105718,40.668902],[-74.104914,40.669089],[-74.103569,40.668697],[-74.102598,40.668545],[-74.102106,40.668721],[-74.101522,40.66851],[-74.100838,40.667833],[-74.099674,40.667277],[-74.098123,40.665584],[-74.097067,40.665098],[-74.097044,40.664808],[-74.097391,40.664564],[-74.097268,40.664261],[-74.096972,40.664525],[-74.096508,40.664427],[-74.096455,40.664814],[-74.096948,40.665046],[-74.096759,40.665192],[-74.095884,40.665121],[-74.09588,40.664125],[-74.094898,40.664074],[-74.094011,40.664769],[-74.093515,40.66479],[-74.092589,40.664366],[-74.09247,40.664629],[-74.091405,40.66466],[-74.091088,40.664441],[-74.090897,40.664732],[-74.091333,40.664908],[-74.089528,40.66491],[-74.089516,40.664094],[-74.090591,40.664097],[-74.090757,40.663909],[-74.09072,40.663302],[-74.091203,40.662621],[-74.090888,40.661512],[-74.091371,40.662562],[-74.09132,40.66206],[-74.090872,40.660418],[-74.089957,40.65894],[-74.089817,40.658173],[-74.089086,40.657625],[-74.088852,40.656329],[-74.088306,40.656226],[-74.088403,40.655691],[-74.08605,40.655497],[-74.086873,40.654355],[-74.087176,40.654299],[-74.087248,40.653819],[-74.09342,40.650165],[-74.094791,40.649641],[-74.097783,40.649233],[-74.099329,40.649285],[-74.101117,40.649779],[-74.101628,40.649646],[-74.102815,40.649804],[-74.102824,40.650365],[-74.10359,40.650617],[-74.103832,40.650613],[-74.104077,40.64996],[-74.105686,40.650119],[-74.105599,40.650711],[-74.105925,40.651034],[-74.106727,40.651069],[-74.107142,40.651329],[-74.107394,40.651342],[-74.107578,40.650265],[-74.108468,40.650301],[-74.108451,40.650708],[-74.111375,40.650989],[-74.112966,40.650925],[-74.114045,40.65189],[-74.114403,40.651657],[-74.114011,40.65088],[-74.115447,40.65274],[-74.115889,40.652871],[-74.1165,40.652589],[-74.115038,40.650386],[-74.116445,40.652148],[-74.116801,40.65191],[-74.11505,40.649541],[-74.115843,40.649215],[-74.116241,40.649535],[-74.117098,40.648832],[-74.118644,40.64842],[-74.119002,40.647539],[-74.120136,40.646109],[-74.12801,40.644844],[-74.130745,40.64512],[-74.131048,40.644945],[-74.132858,40.645202],[-74.133579,40.645044],[-74.135752,40.645173],[-74.136796,40.645649],[-74.137508,40.645309],[-74.140314,40.644818],[-74.140822,40.644545],[-74.141029,40.644273],[-74.141075,40.644263],[-74.141129,40.644269],[-74.139975,40.647093],[-74.139066,40.6486],[-74.138524,40.648818],[-74.137699,40.648184],[-74.137231,40.648127],[-74.136981,40.647632],[-74.136656,40.647741]],[[-74.115635,40.66203],[-74.115599,40.662002],[-74.115599,40.66203],[-74.115635,40.66203]],[[-74.115127,40.662659],[-74.115091,40.662604],[-74.115091,40.662659],[-74.115127,40.662659]],[[-74.113893,40.664055],[-74.113929,40.664028],[-74.113893,40.664028],[-74.113893,40.664055]],[[-74.109281,40.669887],[-74.109245,40.669859],[-74.109245,40.669886],[-74.109281,40.669887]],[[-74.109208,40.669969],[-74.109172,40.669941],[-74.109172,40.669969],[-74.109208,40.669969]],[[-74.109099,40.670106],[-74.109063,40.670078],[-74.109063,40.670105],[-74.109099,40.670106]],[[-74.108991,40.670215],[-74.108955,40.670187],[-74.108954,40.670215],[-74.108991,40.670215]],[[-74.108954,40.67027],[-74.108918,40.670242],[-74.108918,40.67027],[-74.108954,40.67027]],[[-74.108882,40.670352],[-74.108846,40.670324],[-74.108846,40.670352],[-74.108882,40.670352]],[[-74.106998,40.671883],[-74.107034,40.67191],[-74.107034,40.671883],[-74.106998,40.671883]],[[-74.107287,40.671829],[-74.107359,40.671747],[-74.107287,40.671746],[-74.107287,40.671829]],[[-74.106994,40.672624],[-74.106958,40.672596],[-74.106957,40.672624],[-74.106994,40.672624]],[[-74.10674,40.672897],[-74.106704,40.67287],[-74.106704,40.672897],[-74.10674,40.672897]],[[-74.106667,40.67298],[-74.106631,40.672952],[-74.106631,40.672979],[-74.106667,40.67298]],[[-74.106631,40.673034],[-74.106595,40.673007],[-74.106595,40.673034],[-74.106631,40.673034]],[[-74.105215,40.674704],[-74.105179,40.674676],[-74.105179,40.674704],[-74.105215,40.674704]],[[-74.104961,40.675005],[-74.104925,40.674978],[-74.104924,40.675005],[-74.104961,40.675005]],[[-74.104815,40.675169],[-74.104779,40.675142],[-74.104779,40.675169],[-74.104815,40.675169]],[[-74.104779,40.675224],[-74.104743,40.675197],[-74.104743,40.675224],[-74.104779,40.675224]],[[-74.104706,40.675306],[-74.10467,40.675279],[-74.10467,40.675306],[-74.104706,40.675306]],[[-74.103762,40.676428],[-74.103726,40.676401],[-74.103726,40.676428],[-74.103762,40.676428]],[[-74.10369,40.676511],[-74.103654,40.676483],[-74.103654,40.67651],[-74.10369,40.676511]],[[-74.103617,40.676593],[-74.103581,40.676565],[-74.103581,40.676592],[-74.103617,40.676593]],[[-74.103581,40.676647],[-74.103545,40.67662],[-74.103545,40.676647],[-74.103581,40.676647]],[[-74.103327,40.676948],[-74.103291,40.676921],[-74.10329,40.676948],[-74.103327,40.676948]],[[-74.103254,40.677031],[-74.103218,40.677003],[-74.103218,40.67703],[-74.103254,40.677031]],[[-74.103145,40.677167],[-74.103109,40.67714],[-74.103109,40.677167],[-74.103145,40.677167]],[[-74.103072,40.67725],[-74.103036,40.677222],[-74.103036,40.677249],[-74.103072,40.67725]],[[-74.102963,40.677386],[-74.102927,40.677359],[-74.102927,40.677386],[-74.102963,40.677386]],[[-74.1026,40.677852],[-74.102564,40.677824],[-74.102564,40.677852],[-74.1026,40.677852]],[[-74.102564,40.677907],[-74.102528,40.677879],[-74.102528,40.677906],[-74.102564,40.677907]],[[-74.101661,40.678178],[-74.101697,40.678151],[-74.101661,40.678151],[-74.101661,40.678178]],[[-74.101257,40.679412],[-74.101293,40.679385],[-74.101257,40.679384],[-74.101257,40.679412]],[[-74.101039,40.679713],[-74.101003,40.679686],[-74.101003,40.679713],[-74.101039,40.679713]],[[-74.100966,40.679795],[-74.10093,40.679768],[-74.10093,40.679795],[-74.100966,40.679795]],[[-74.09929,40.682644],[-74.099254,40.682699],[-74.09929,40.682699],[-74.09929,40.682644]],[[-74.136981,40.647632],[-74.137017,40.647578],[-74.136981,40.647577],[-74.136981,40.647632]]],[[[-74.109789,40.669284],[-74.109753,40.669312],[-74.109753,40.669284],[-74.109789,40.669284]]],[[[-74.109717,40.669366],[-74.10968,40.669394],[-74.10968,40.669366],[-74.109717,40.669366]]],[[[-74.109644,40.669476],[-74.109608,40.669448],[-74.109644,40.669449],[-74.109644,40.669476]]],[[[-74.109608,40.669503],[-74.109571,40.669531],[-74.109572,40.669503],[-74.109608,40.669503]]],[[[-74.107071,40.671746],[-74.107143,40.671773],[-74.107071,40.671773],[-74.107071,40.671746]]],[[[-74.10732,40.672296],[-74.107284,40.672268],[-74.10732,40.672268],[-74.10732,40.672296]]],[[[-74.106921,40.672706],[-74.106885,40.672733],[-74.106885,40.672706],[-74.106921,40.672706]]],[[[-74.106848,40.672788],[-74.106812,40.672815],[-74.106812,40.672788],[-74.106848,40.672788]]],[[[-74.103218,40.677085],[-74.103181,40.677113],[-74.103182,40.677085],[-74.103218,40.677085]]],[[[-74.103036,40.677304],[-74.103,40.677332],[-74.103,40.677304],[-74.103036,40.677304]]],[[[-74.102927,40.677469],[-74.102891,40.677441],[-74.102927,40.677441],[-74.102927,40.677469]]],[[[-74.102781,40.67766],[-74.102746,40.677633],[-74.102782,40.677633],[-74.102781,40.67766]]],[[[-74.102709,40.677742],[-74.102673,40.677715],[-74.102709,40.677715],[-74.102709,40.677742]]],[[[-74.102673,40.67777],[-74.102636,40.677797],[-74.102637,40.67777],[-74.102673,40.67777]]],[[[-74.102092,40.678454],[-74.102128,40.678427],[-74.102128,40.678454],[-74.102092,40.678454]]],[[[-74.101838,40.678755],[-74.101874,40.678728],[-74.101874,40.678755],[-74.101838,40.678755]]],[[[-74.101765,40.678755],[-74.101802,40.678727],[-74.101801,40.678755],[-74.101765,40.678755]]],[[[-74.101801,40.678782],[-74.101838,40.678755],[-74.101837,40.678783],[-74.101801,40.678782]]],[[[-74.101729,40.678782],[-74.101765,40.67881],[-74.101729,40.67881],[-74.101729,40.678782]]],[[[-74.101256,40.679494],[-74.10122,40.679467],[-74.101256,40.679467],[-74.101256,40.679494]]],[[[-74.10122,40.679522],[-74.101184,40.679494],[-74.10122,40.679494],[-74.10122,40.679522]]],[[[-74.101147,40.679604],[-74.101111,40.679576],[-74.101148,40.679576],[-74.101147,40.679604]]],[[[-74.10024,40.686683],[-74.10024,40.686695],[-74.100233,40.686683],[-74.10024,40.686683]]],[[[-74.100263,40.686741],[-74.100275,40.686738],[-74.100275,40.686765],[-74.100263,40.686741]]],[[[-74.100311,40.686793],[-74.100311,40.686835],[-74.100289,40.686793],[-74.100311,40.686793]]],[[[-74.100347,40.686875],[-74.100347,40.686905],[-74.100331,40.686875],[-74.100347,40.686875]]],[[[-74.103784,40.691005],[-74.10382,40.690977],[-74.10382,40.691005],[-74.103784,40.691005]]],[[[-74.103856,40.690977],[-74.103857,40.690895],[-74.104432,40.691144],[-74.104432,40.691254],[-74.10382,40.691032],[-74.103856,40.690977]],[[-74.103892,40.691032],[-74.103928,40.691005],[-74.103892,40.691005],[-74.103892,40.691032]]],[[[-74.10371,40.691389],[-74.103855,40.691224],[-74.10425,40.691473],[-74.104033,40.691664],[-74.10371,40.691389]]],[[[-74.1036,40.691608],[-74.103636,40.691635],[-74.1036,40.691635],[-74.1036,40.691608]]],[[[-74.103888,40.691719],[-74.104534,40.692325],[-74.104566,40.692901],[-74.103739,40.692542],[-74.103197,40.692732],[-74.102765,40.692566],[-74.103383,40.691689],[-74.103888,40.691719]],[[-74.102873,40.692539],[-74.10291,40.692511],[-74.102874,40.692511],[-74.102873,40.692539]]],[[[-74.102464,40.694609],[-74.102456,40.694596],[-74.102465,40.694596],[-74.102464,40.694609]]],[[[-74.108924,40.693959],[-74.116009,40.697359],[-74.114232,40.700952],[-74.102852,40.695432],[-74.102474,40.694624],[-74.102896,40.694872],[-74.103152,40.694187],[-74.104129,40.693723],[-74.104819,40.692875],[-74.104787,40.692243],[-74.108671,40.693986],[-74.108924,40.693959]],[[-74.108996,40.694014],[-74.108959,40.694042],[-74.108996,40.694042],[-74.108996,40.694014]]]]}}]}