{"type":"FeatureCollection","features":[{"type":"Feature","properties":{"level_ft":8},"geometry":{"type":"MultiPolygon","coordinates":[[[[-74.158263,40.644019],[-74.158263,40.644031],[-74.158248,40.644019],[-74.158263,40.644019]]],[[[-74.158282,40.644046],[-74.161391,40.644357],[-74.161303,40.645451],[-74.160077,40.645246],[-74.160206,40.644951],[-74.159668,40.644486],[-74.159018,40.644694],[-74.159247,40.644938],[-74.158912,40.644855],[-74.158282,40.644046]]],[[[-74.14045,40.645914],[-74.140414,40.645941],[-74.140414,40.645914],[-74.14045,40.645914]]],[[[-74.140377,40.646023],[-74.140414,40.645996],[-74.140414,40.646023],[-74.140377,40.646023]]],[[[-74.140377,40.646133],[-74.140341,40.646023],[-74.140377,40.646023],[-74.140377,40.646133]]],[[[-74.139466,40.647942],[-74.13943,40.647969],[-74.13943,40.647942],[-74.139466,40.647942]]],[[[-74.139889,40.64981],[-74.139852,40.649837],[-74.139853,40.64981],[-74.139889,40.64981]]],[[[-74.120857,40.656557],[-74.121725,40.655956],[-74.121615,40.656367],[-74.122297,40.656863],[-74.121361,40.656586],[-74.120962,40.657079],[-74.120565,40.657132],[-74.120857,40.656557]]],[[[-74.11653,40.65679],[-74.116566,40.656762],[-74.116566,40.65679],[-74.11653,40.65679]]],[[[-74.11415,40.657056],[-74.114078,40.656946],[-74.114222,40.657001],[-74.11415,40.657056]]],[[[-74.113969,40.657056],[-74.113933,40.657083],[-74.113933,40.657055],[-74.113969,40.657056]]],[[[-74.113355,40.657273],[-74.113427,40.657301],[-74.113355,40.657301],[-74.113355,40.657273]]],[[[-74.116488,40.657833],[-74.116525,40.657778],[-74.116524,40.657833],[-74.116488,40.657833]]],[[[-74.116596,40.657833],[-74.11656,40.65786],[-74.11656,40.657833],[-74.116596,40.657833]]],[[[-74.116632,40.657915],[-74.116596,40.657888],[-74.116632,40.657888],[-74.116632,40.657915]]],[[[-74.117242,40.658357],[-74.117206,40.658329],[-74.117242,40.658329],[-74.117242,40.658357]]],[[[-74.116214,40.661702],[-74.116429,40.661813],[-74.116428,40.662005],[-74.116104,40.661949],[-74.116214,40.661702]]],[[[-74.141901,40.650887],[-74.13978,40.649892],[-74.139382,40.650193],[-74.13913,40.650082],[-74.139566,40.649452],[-74.139609,40.648135],[-74.141323,40.644352],[-74.141982,40.64453],[-74.14188,40.644033],[-74.143813,40.643797],[-74.163014,40.645898],[-74.15809,40.649737],[-74.14726,40.655124],[-74.142721,40.658943],[-74.140573,40.661318],[-74.132507,40.672932],[-74.125251,40.68406],[-74.120322,40.69066],[-74.117554,40.694949],[-74.110229,40.692728],[-74.11085,40.691468],[-74.110819,40.690644],[-74.110388,40.690313],[-74.108799,40.690583],[-74.108183,40.691157],[-74.107638,40.691896],[-74.106557,40.691618],[-74.107459,40.691676],[-74.108439,40.690609],[-74.10772,40.690167],[-74.108411,40.689181],[-74.110389,40.690039],[-74.111076,40.689712],[-74.109711,40.688939],[-74.109966,40.6885],[-74.109679,40.688088],[-74.110697,40.686746],[-74.112146,40.68568],[-74.112226,40.684253],[-74.112515,40.684199],[-74.113642,40.682556],[-74.113499,40.682308],[-74.113788,40.682309],[-74.114842,40.680776],[-74.11481,40.680089],[-74.114487,40.679841],[-74.114883,40.679897],[-74.115756,40.678692],[-74.116151,40.678886],[-74.116512,40.678777],[-74.116841,40.67801],[-74.119341,40.675877],[-74.121221,40.675005],[-74.121732,40.673881],[-74.122854,40.673061],[-74.124094,40.670595],[-74.124856,40.669828],[-74.124606,40.669388],[-74.125002,40.669472],[-74.125364,40.669199],[-74.125975,40.669475],[-74.125833,40.669118],[-74.126049,40.669091],[-74.125798,40.668898],[-74.127096,40.668875],[-74.127534,40.667998],[-74.127031,40.667667],[-74.127212,40.66742],[-74.126926,40.66709],[-74.127682,40.667312],[-74.128008,40.667011],[-74.127541,40.666653],[-74.127583,40.665637],[-74.128127,40.66498],[-74.128885,40.664845],[-74.129829,40.663586],[-74.130589,40.663149],[-74.131242,40.6623],[-74.131929,40.662],[-74.131678,40.661725],[-74.132478,40.660355],[-74.133093,40.659945],[-74.132843,40.659643],[-74.134944,40.657728],[-74.135705,40.656907],[-74.135635,40.656659],[-74.136031,40.656606],[-74.135855,40.655809],[-74.136615,40.655372],[-74.13676,40.655098],[-74.136509,40.65496],[-74.137267,40.654798],[-74.138273,40.65535],[-74.139211,40.655078],[-74.139649,40.654146],[-74.139145,40.654062],[-74.139507,40.653762],[-74.139149,40.653321],[-74.139545,40.653405],[-74.13944,40.652856],[-74.140521,40.652886],[-74.140631,40.652585],[-74.140955,40.652613],[-74.141317,40.652258],[-74.142151,40.651299],[-74.141901,40.650887]],[[-74.13978,40.649892],[-74.139816,40.649865],[-74.13978,40.649865],[-74.13978,40.649892]],[[-74.139852,40.649837],[-74.139888,40.649865],[-74.139889,40.649783],[-74.139817,40.64981],[-74.139852,40.649837]],[[-74.139961,40.649755],[-74.139961,40.649783],[-74.139961,40.649728],[-74.139961,40.649755]],[[-74.139925,40.649755],[-74.139889,40.649728],[-74.139889,40.649755],[-74.139925,40.649755]],[[-74.14025,40.649592],[-74.140214,40.649564],[-74.140178,40.649591],[-74.14025,40.649592]],[[-74.140323,40.649537],[-74.140467,40.649537],[-74.140467,40.649537],[-74.140323,40.649537]],[[-74.140539,40.64951],[-74.140685,40.649511],[-74.140539,40.64951],[-74.140539,40.64951]],[[-74.140755,40.649511],[-74.140791,40.649538],[-74.140791,40.649511],[-74.140755,40.649511]],[[-74.140827,40.649566],[-74.140827,40.649566],[-74.140846,40.649566],[-74.140827,40.649566]],[[-74.141114,40.649731],[-74.141151,40.649704],[-74.141115,40.649704],[-74.141114,40.649731]],[[-74.141115,40.649704],[-74.141079,40.649676],[-74.141079,40.649704],[-74.141115,40.649704]],[[-74.140934,40.649703],[-74.141007,40.649649],[-74.140971,40.649594],[-74.140899,40.649594],[-74.140934,40.649703]],[[-74.141402,40.64987],[-74.141438,40.64987],[-74.141402,40.649842],[-74.141402,40.64987]],[[-74.141402,40.649842],[-74.14133,40.649814],[-74.14133,40.649842],[-74.141402,40.649842]],[[-74.141294,40.649814],[-74.141258,40.649787],[-74.141222,40.649759],[-74.141222,40.649787],[-74.141294,40.649814]],[[-74.141222,40.649759],[-74.141186,40.649732],[-74.141186,40.649759],[-74.141222,40.649759]],[[-74.141364,40.650226],[-74.141653,40.650117],[-74.141546,40.649897],[-74.141509,40.650035],[-74.141364,40.650226]],[[-74.141328,40.650254],[-74.141292,40.650308],[-74.141328,40.650309],[-74.141328,40.650254]],[[-74.141292,40.650308],[-74.141255,40.650336],[-74.141291,40.650336],[-74.141292,40.650308]],[[-74.141976,40.650311],[-74.142012,40.650311],[-74.142012,40.650311],[-74.141976,40.650311]],[[-74.142083,40.65064],[-74.142118,40.650695],[-74.142119,40.65064],[-74.142083,40.65064]],[[-74.142082,40.65075],[-74.14201,40.650722],[-74.14201,40.650777],[-74.142082,40.65075]],[[-74.14201,40.650777],[-74.141974,40.650805],[-74.14201,40.650805],[-74.14201,40.650777]],[[-74.142155,40.650641],[-74.142155,40.650588],[-74.142119,40.650613],[-74.142155,40.650641]],[[-74.142048,40.650338],[-74.142048,40.650338],[-74.142084,40.650338],[-74.142048,40.650338]],[[-74.142156,40.650393],[-74.142156,40.650393],[-74.142192,40.650394],[-74.142156,40.650393]],[[-74.142155,40.650558],[-74.142191,40.650586],[-74.142191,40.650558],[-74.142155,40.650558]],[[-74.142228,40.650449],[-74.1423,40.650476],[-74.1423,40.650449],[-74.142228,40.650449]]],[[[-74.11314,40.657053],[-74.113176,40.65708],[-74.11314,40.65708],[-74.11314,40.657053]]],[[[-74.11314,40.657108],[-74.113104,40.65708],[-74.11314,40.65708],[-74.11314,40.657108]]],[[[-74.099979,40.657859],[-74.100015,40.657832],[-74.100015,40.657859],[-74.099979,40.657859]]],[[[-74.100015,40.657886],[-74.100051,40.657859],[-74.100051,40.657887],[-74.100015,40.657886]]],[[[-74.112186,40.660097],[-74.11215,40.660069],[-74.112186,40.660069],[-74.112186,40.660097]]],[[[-74.141108,40.644269],[-74.140269,40.64605],[-74.140012,40.64701],[-74.139358,40.647969],[-74.138999,40.647639],[-74.139359,40.647722],[-74.139397,40.647338],[-74.138856,40.647446],[-74.138677,40.647253],[-74.137417,40.647085],[-74.137274,40.646837],[-74.137527,40.646673],[-74.136843,40.646424],[-74.136411,40.646368],[-74.136194,40.646587],[-74.135871,40.646229],[-74.135365,40.646584],[-74.133384,40.646386],[-74.132986,40.646577],[-74.132555,40.646328],[-74.132338,40.646602],[-74.131979,40.646271],[-74.131618,40.646462],[-74.131225,40.64583],[-74.130866,40.645554],[-74.130685,40.645718],[-74.130038,40.645442],[-74.129859,40.645084],[-74.12813,40.644914],[-74.12676,40.645102],[-74.127515,40.645351],[-74.126361,40.645457],[-74.125748,40.64562],[-74.125674,40.645867],[-74.124809,40.645946],[-74.124265,40.646576],[-74.123874,40.645559],[-74.123405,40.645612],[-74.123259,40.645969],[-74.121169,40.646044],[-74.120374,40.646344],[-74.119863,40.647467],[-74.120149,40.647825],[-74.119965,40.648538],[-74.12014,40.649445],[-74.120645,40.649446],[-74.120672,40.651011],[-74.121247,40.651342],[-74.12402,40.651626],[-74.123983,40.651818],[-74.124595,40.651985],[-74.125132,40.652618],[-74.125746,40.6524],[-74.125634,40.653031],[-74.125093,40.653112],[-74.124987,40.652864],[-74.124518,40.652835],[-74.124231,40.65256],[-74.123187,40.652364],[-74.123117,40.652062],[-74.12254,40.652088],[-74.122362,40.651785],[-74.12218,40.651949],[-74.122431,40.652225],[-74.121675,40.65203],[-74.121602,40.652222],[-74.122534,40.653241],[-74.120807,40.652604],[-74.120407,40.653206],[-74.120193,40.652904],[-74.119684,40.653616],[-74.119363,40.652956],[-74.119067,40.654437],[-74.118851,40.654354],[-74.118705,40.654711],[-74.11838,40.654737],[-74.118523,40.655039],[-74.118127,40.654928],[-74.118629,40.655259],[-74.118519,40.655698],[-74.117364,40.655914],[-74.116638,40.656762],[-74.11653,40.656735],[-74.116386,40.656762],[-74.116566,40.656817],[-74.117107,40.656737],[-74.117572,40.657397],[-74.117897,40.657288],[-74.118293,40.657427],[-74.117315,40.658302],[-74.116954,40.658328],[-74.116704,40.657888],[-74.116525,40.65775],[-74.116416,40.657777],[-74.115841,40.657556],[-74.115842,40.657446],[-74.115697,40.657501],[-74.115302,40.657225],[-74.113611,40.656697],[-74.114042,40.656919],[-74.113897,40.657055],[-74.112603,40.65642],[-74.111992,40.656225],[-74.112926,40.656695],[-74.113033,40.65686],[-74.112744,40.657024],[-74.113392,40.657218],[-74.113355,40.657273],[-74.113319,40.657273],[-74.113284,40.657245],[-74.113283,40.657383],[-74.114289,40.657935],[-74.114574,40.658512],[-74.11501,40.657855],[-74.116017,40.658325],[-74.116198,40.658216],[-74.114005,40.657083],[-74.114905,40.657306],[-74.115301,40.657499],[-74.1153,40.657636],[-74.115876,40.657748],[-74.116882,40.658383],[-74.116445,40.65915],[-74.116766,40.659645],[-74.116117,40.65978],[-74.116081,40.659643],[-74.115863,40.659917],[-74.115933,40.660274],[-74.116293,40.660412],[-74.116361,40.661126],[-74.115856,40.661207],[-74.115817,40.661783],[-74.11524,40.661809],[-74.115133,40.661534],[-74.114412,40.661531],[-74.114161,40.661338],[-74.113728,40.661502],[-74.11355,40.661062],[-74.112793,40.661059],[-74.112976,40.660484],[-74.1124,40.660399],[-74.112402,40.660152],[-74.112078,40.659986],[-74.109589,40.660335],[-74.109843,40.660006],[-74.109339,40.659867],[-74.109445,40.660307],[-74.109121,40.660278],[-74.109234,40.659345],[-74.110318,40.658882],[-74.111037,40.659242],[-74.11086,40.658774],[-74.111221,40.658693],[-74.111157,40.657211],[-74.111518,40.657075],[-74.111556,40.656828],[-74.111483,40.656965],[-74.111199,40.65614],[-74.110731,40.656056],[-74.110266,40.655506],[-74.110345,40.654381],[-74.109624,40.654351],[-74.109331,40.655091],[-74.109153,40.654816],[-74.108792,40.654815],[-74.10894,40.654184],[-74.108543,40.65432],[-74.108577,40.654539],[-74.107786,40.654235],[-74.107456,40.655167],[-74.107026,40.654864],[-74.105547,40.654968],[-74.105805,40.654008],[-74.105013,40.653923],[-74.105411,40.653568],[-74.105342,40.653046],[-74.105667,40.65302],[-74.105343,40.652909],[-74.105489,40.652662],[-74.105164,40.652798],[-74.105203,40.652304],[-74.104052,40.651861],[-74.103403,40.651914],[-74.103282,40.65411],[-74.103606,40.654166],[-74.103969,40.653755],[-74.104327,40.654168],[-74.103957,40.655759],[-74.103776,40.655813],[-74.103816,40.655155],[-74.103528,40.655099],[-74.103203,40.655207],[-74.102837,40.656084],[-74.10237,40.655836],[-74.101361,40.65586],[-74.101257,40.655228],[-74.100466,40.654759],[-74.100362,40.654182],[-74.099212,40.653574],[-74.098815,40.653573],[-74.098711,40.652941],[-74.099216,40.652943],[-74.099361,40.652833],[-74.099573,40.653438],[-74.10047,40.6541],[-74.100546,40.653524],[-74.101015,40.653498],[-74.100691,40.653305],[-74.101701,40.653281],[-74.101523,40.652868],[-74.10192,40.652842],[-74.102318,40.652487],[-74.10225,40.6518],[-74.102867,40.651034],[-74.102761,40.650814],[-74.101498,40.650974],[-74.10154,40.650041],[-74.101429,40.650397],[-74.100925,40.650368],[-74.100891,40.650039],[-74.100171,40.649817],[-74.099806,40.650584],[-74.098941,40.650746],[-74.098935,40.651597],[-74.099474,40.6519],[-74.099108,40.65286],[-74.096945,40.65299],[-74.097376,40.653128],[-74.097157,40.653704],[-74.095823,40.653727],[-74.095608,40.653506],[-74.095933,40.653425],[-74.094239,40.653364],[-74.094092,40.653885],[-74.095425,40.654],[-74.095458,40.654412],[-74.096323,40.654525],[-74.096102,40.655292],[-74.09938,40.655688],[-74.096028,40.655622],[-74.09599,40.655869],[-74.096601,40.656282],[-74.096491,40.656502],[-74.096708,40.656338],[-74.098326,40.657057],[-74.098686,40.657196],[-74.098794,40.657169],[-74.098758,40.657223],[-74.098865,40.657279],[-74.098974,40.657251],[-74.098973,40.657279],[-74.098937,40.657279],[-74.098937,40.657306],[-74.098973,40.657334],[-74.099081,40.657307],[-74.099764,40.657611],[-74.09998,40.657777],[-74.099943,40.657859],[-74.101307,40.658797],[-74.101884,40.658854],[-74.101522,40.659017],[-74.10246,40.65902],[-74.102457,40.659514],[-74.102747,40.659214],[-74.102921,40.660175],[-74.104608,40.661471],[-74.10457,40.6618],[-74.105143,40.662351],[-74.106185,40.662959],[-74.107296,40.664005],[-74.108065,40.662087],[-74.108137,40.662032],[-74.108209,40.662087],[-74.108062,40.662581],[-74.108097,40.6628],[-74.108716,40.661622],[-74.109113,40.661514],[-74.109184,40.661761],[-74.10958,40.661872],[-74.109694,40.660802],[-74.1102,40.660557],[-74.111355,40.660313],[-74.110986,40.661849],[-74.111346,40.661988],[-74.112105,40.661661],[-74.112283,40.661964],[-74.112029,40.662182],[-74.112244,40.662512],[-74.111919,40.662511],[-74.11217,40.662842],[-74.111343,40.662372],[-74.110802,40.662453],[-74.111302,40.663333],[-74.110761,40.663386],[-74.111082,40.663936],[-74.110649,40.663989],[-74.110754,40.664484],[-74.110321,40.664565],[-74.110714,40.665197],[-74.109045,40.667113],[-74.108167,40.669197],[-74.108023,40.669196],[-74.10795,40.669415],[-74.107841,40.66947],[-74.107915,40.669168],[-74.107771,40.669113],[-74.107662,40.669305],[-74.107481,40.669414],[-74.106856,40.671416],[-74.106275,40.672182],[-74.105016,40.671739],[-74.104906,40.671958],[-74.104186,40.671763],[-74.103313,40.673078],[-74.102735,40.673405],[-74.103027,40.672665],[-74.102706,40.67217],[-74.1035,40.672035],[-74.104007,40.671598],[-74.101671,40.670464],[-74.101274,40.670463],[-74.100808,40.669967],[-74.10034,40.669883],[-74.10005,40.670129],[-74.100016,40.669855],[-74.099184,40.670236],[-74.099651,40.67054],[-74.10005,40.670157],[-74.100302,40.670295],[-74.099358,40.671362],[-74.099179,40.671197],[-74.099362,40.670731],[-74.098066,40.670315],[-74.098215,40.669574],[-74.097567,40.669325],[-74.09717,40.669461],[-74.097202,40.67012],[-74.097561,40.67034],[-74.097163,40.670668],[-74.096552,40.670337],[-74.095614,40.670416],[-74.096009,40.670692],[-74.09554,40.670663],[-74.095428,40.671431],[-74.09593,40.671762],[-74.095102,40.671567],[-74.095172,40.671979],[-74.097582,40.672948],[-74.096928,40.673687],[-74.096635,40.674482],[-74.096924,40.674428],[-74.097652,40.673333],[-74.097904,40.673306],[-74.098082,40.673719],[-74.097536,40.674623],[-74.097861,40.674514],[-74.097823,40.674871],[-74.098256,40.674653],[-74.098108,40.675366],[-74.098721,40.67534],[-74.099337,40.674766],[-74.099123,40.674491],[-74.098509,40.674571],[-74.099125,40.674161],[-74.099701,40.674218],[-74.099916,40.674521],[-74.100233,40.675703],[-74.099797,40.676277],[-74.09983,40.676882],[-74.099612,40.677045],[-74.098856,40.67696],[-74.098997,40.67751],[-74.098381,40.67792],[-74.099068,40.67762],[-74.099607,40.677896],[-74.099317,40.678225],[-74.098344,40.678112],[-74.098234,40.678331],[-74.097187,40.678684],[-74.095712,40.678075],[-74.095276,40.678705],[-74.09423,40.678701],[-74.093954,40.67892],[-74.089191,40.676899],[-74.089518,40.676763],[-74.088728,40.676266],[-74.088368,40.676237],[-74.08869,40.676689],[-74.065716,40.66704],[-74.066645,40.665962],[-74.067988,40.666536],[-74.068218,40.6663],[-74.070086,40.667095],[-74.069986,40.667403],[-74.07263,40.668179],[-74.072508,40.66853],[-74.073901,40.669306],[-74.074973,40.669442],[-74.075104,40.669668],[-74.079084,40.671365],[-74.079667,40.671059],[-74.085286,40.67346],[-74.085162,40.673745],[-74.086261,40.675158],[-74.087643,40.675775],[-74.088146,40.675869],[-74.089359,40.675481],[-74.090193,40.676042],[-74.090651,40.675707],[-74.091274,40.675841],[-74.092198,40.67531],[-74.091857,40.674951],[-74.094762,40.675934],[-74.095302,40.67585],[-74.095947,40.6754],[-74.096426,40.67466],[-74.095805,40.674256],[-74.094067,40.673952],[-74.091514,40.672507],[-74.089712,40.672309],[-74.081944,40.669638],[-74.08203,40.669515],[-74.076129,40.667217],[-74.071439,40.66503],[-74.071346,40.665162],[-74.068232,40.663839],[-74.069456,40.662148],[-74.069766,40.662205],[-74.070046,40.661835],[-74.069839,40.661628],[-74.070701,40.660867],[-74.070557,40.660662],[-74.076928,40.663539],[-74.088195,40.667481],[-74.097682,40.669075],[-74.100341,40.669348],[-74.100914,40.669186],[-74.10135,40.669416],[-74.10098,40.669294],[-74.100936,40.669499],[-74.102885,40.669552],[-74.103432,40.669858],[-74.104972,40.669953],[-74.105304,40.669732],[-74.105445,40.670091],[-74.106559,40.670377],[-74.10696,40.670167],[-74.107615,40.669147],[-74.105718,40.668902],[-74.104914,40.669089],[-74.103569,40.668697],[-74.102598,40.668545],[-74.102106,40.668721],[-74.101522,40.66851],[-74.100838,40.667833],[-74.099674,40.667277],[-74.098123,40.665584],[-74.097067,40.665098],[-74.097044,40.664808],[-74.097391,40.664564],[-74.097268,40.664261],[-74.096972,40.664525],[-74.096508,40.664427],[-74.096455,40.664814],[-74.096948,40.665046],[-74.096759,40.665192],[-74.095884,40.665121],[-74.09588,40.664125],[-74.094898,40.664074],[-74.094011,40.664769],[-74.093515,40.66479],[-74.092589,40.664366],[-74.09247,40.664629],[-74.091405,40.66466],[-74.091088,40.664441],[-74.090897,40.664732],[-74.091333,40.664908],[-74.089528,40.66491],[-74.089516,40.664094],[-74.090591,40.664097],[-74.090757,40.663909],[-74.09072,40.663302],[-74.091203,40.662621],[-74.090888,40.661512],[-74.091371,40.662562],[-74.09132,40.66206],[-74.090872,40.660418],[-74.089957,40.65894],[-74.089817,40.658173],[-74.089086,40.657625],[-74.088852,40.656329],[-74.088306,40.656226],[-74.088403,40.655691],[-74.08605,40.655497],[-74.086873,40.654355],[-74.087176,40.654299],[-74.087248,40.653819],[-74.09342,40.650165],[-74.094791,40.649641],[-74.097783,40.649233],[-74.099329,40.649285],[-74.101117,40.649779],[-74.101628,40.649646],[-74.102815,40.649804],[-74.102824,40.650365],[-74.10359,40.650617],[-74.103832,40.650613],[-74.104077,40.64996],[-74.105686,40.650119],[-74.105599,40.650711],[-74.105925,40.651034],[-74.106727,40.651069],[-74.107142,40.651329],[-74.107394,40.651342],[-74.107578,40.650265],[-74.108468,40.650301],[-74.108451,40.650708],[-74.111375,40.650989],[-74.112966,40.650925],[-74.114045,40.65189],[-74.114403,40.651657],[-74.114011,40.65088],[-74.115447,40.65274],[-74.115889,40.652871],[-74.1165,40.652589],[-74.115038,40.650386],[-74.116445,40.652148],[-74.116801,40.65191],[-74.11505,40.649541],[-74.115843,40.649215],[-74.116241,40.649535],[-74.117098,40.648832],[-74.118644,40.64842],[-74.119002,40.647539],[-74.120136,40.646109],[-74.12801,40.644844],[-74.130745,40.64512],[-74.131048,40.644945],[-74.132858,40.645202],[-74.133579,40.645044],[-74.135752,40.645173],[-74.136796,40.645649],[-74.137508,40.645309],[-74.140314,40.644818],[-74.141108,40.644269]],[[-74.132302,40.646465],[-74.132339,40.646437],[-74.132302,40.646437],[-74.132302,40.646465]],[[-74.121675,40.65203],[-74.121603,40.652002],[-74.121603,40.65203],[-74.121675,40.65203]],[[-74.119105,40.654026],[-74.119069,40.653998],[-74.119069,40.654025],[-74.119105,40.654026]],[[-74.116386,40.656817],[-74.116314,40.656844],[-74.116386,40.656844],[-74.116386,40.656817]],[[-74.117897,40.657316],[-74.117861,40.657343],[-74.117897,40.657343],[-74.117897,40.657316]],[[-74.117968,40.657453],[-74.117932,40.65748],[-74.117968,40.657481],[-74.117968,40.657453]],[[-74.116345,40.657695],[-74.116309,40.657667],[-74.116309,40.657695],[-74.116345,40.657695]],[[-74.116021,40.657584],[-74.116093,40.657557],[-74.116021,40.657556],[-74.116021,40.657584]],[[-74.111992,40.656253],[-74.111955,40.65628],[-74.111991,40.65628],[-74.111992,40.656253]],[[-74.11289,40.656777],[-74.112745,40.656804],[-74.112925,40.656832],[-74.11289,40.656777]],[[-74.115228,40.657554],[-74.115192,40.657526],[-74.115192,40.657554],[-74.115228,40.657554]],[[-74.116055,40.657913],[-74.116019,40.657941],[-74.116055,40.657941],[-74.116055,40.657913]],[[-74.116379,40.658079],[-74.116342,40.658107],[-74.116378,40.658107],[-74.116379,40.658079]],[[-74.111221,40.658693],[-74.111256,40.658721],[-74.111257,40.658693],[-74.111221,40.658693]],[[-74.111377,40.656498],[-74.111413,40.656525],[-74.111414,40.656498],[-74.111377,40.656498]],[[-74.105805,40.654008],[-74.105842,40.653954],[-74.105806,40.653953],[-74.105805,40.654008]],[[-74.102319,40.652322],[-74.102355,40.652295],[-74.102319,40.652295],[-74.102319,40.652322]],[[-74.099081,40.657334],[-74.099045,40.657362],[-74.099081,40.657362],[-74.099081,40.657334]],[[-74.099153,40.657362],[-74.099117,40.657389],[-74.099153,40.657389],[-74.099153,40.657362]],[[-74.099764,40.657666],[-74.099728,40.657693],[-74.099764,40.657693],[-74.099764,40.657666]],[[-74.099908,40.657776],[-74.099871,40.657804],[-74.099908,40.657804],[-74.099908,40.657776]],[[-74.108101,40.662087],[-74.108137,40.662114],[-74.108137,40.662087],[-74.108101,40.662087]],[[-74.107915,40.669168],[-74.107951,40.669141],[-74.107915,40.669141],[-74.107915,40.669168]],[[-74.10759,40.669332],[-74.107554,40.669304],[-74.107554,40.669332],[-74.10759,40.669332]],[[-74.106932,40.670867],[-74.106896,40.670894],[-74.106932,40.670894],[-74.106932,40.670867]],[[-74.106931,40.670949],[-74.106895,40.670922],[-74.106895,40.670949],[-74.106931,40.670949]],[[-74.14067,40.645146],[-74.140634,40.645173],[-74.14067,40.645173],[-74.14067,40.645146]],[[-74.09604,40.653563],[-74.09604,40.653598],[-74.09604,40.653563],[-74.09604,40.653563]],[[-74.096113,40.653445],[-74.096331,40.653207],[-74.096077,40.653426],[-74.096113,40.653445]],[[-74.096367,40.653152],[-74.096403,40.65318],[-74.096403,40.653152],[-74.096367,40.653152]],[[-74.096481,40.652274],[-74.096481,40.652219],[-74.096481,40.652219],[-74.096481,40.652274]],[[-74.096517,40.652192],[-74.096625,40.652192],[-74.096625,40.652192],[-74.096517,40.652192]],[[-74.096513,40.652796],[-74.096513,40.652796],[-74.096514,40.652747],[-74.096513,40.652796]],[[-74.096548,40.653071],[-74.096836,40.653044],[-74.096836,40.653017],[-74.096548,40.653016],[-74.096548,40.653071]],[[-74.09695,40.652139],[-74.09695,40.652139],[-74.096966,40.652139],[-74.09695,40.652139]],[[-74.097238,40.65214],[-74.097202,40.65214],[-74.097202,40.65214],[-74.097238,40.65214]],[[-74.097815,40.652087],[-74.097815,40.652087],[-74.098137,40.652088],[-74.097815,40.652087]],[[-74.099149,40.652091],[-74.099149,40.652064],[-74.099149,40.652091],[-74.099149,40.652091]]],[[[-74.107879,40.669196],[-74.107843,40.669168],[-74.107879,40.669168],[-74.107879,40.669196]]],[[[-74.107807,40.669195],[-74.107771,40.669168],[-74.107807,40.669168],[-74.107807,40.669195]]],[[[-74.107799,40.67054],[-74.10769,40.670705],[-74.107401,40.670786],[-74.107438,40.670539],[-74.107799,40.67054]]],[[[-74.106818,40.671745],[-74.10722,40.670923],[-74.107617,40.670759],[-74.107146,40.671224],[-74.106891,40.671745],[-74.106818,40.671745]]],[[[-74.107925,40.692034],[-74.10876,40.691131],[-74.109302,40.690941],[-74.110096,40.690889],[-74.110455,40.691165],[-74.110488,40.691631],[-74.109833,40.69259],[-74.107925,40.692034]]],[[[-74.10771,40.691814],[-74.107746,40.691842],[-74.10771,40.691842],[-74.10771,40.691814]]],[[[-74.107709,40.691979],[-74.107963,40.691815],[-74.107962,40.691952],[-74.107709,40.691979]]],[[[-74.107275,40.692169],[-74.106338,40.692139],[-74.105871,40.691753],[-74.107348,40.692087],[-74.107348,40.692115],[-74.107276,40.692115],[-74.107275,40.692169]]],[[[-74.10742,40.692143],[-74.107348,40.692115],[-74.10742,40.692115],[-74.10742,40.692143]]],[[[-74.107203,40.692169],[-74.107167,40.692197],[-74.107167,40.692169],[-74.107203,40.692169]]],[[[-74.10961,40.693797],[-74.110228,40.692948],[-74.117428,40.695143],[-74.116046,40.697297],[-74.109645,40.693989],[-74.109032,40.693905],[-74.108962,40.693575],[-74.106804,40.692552],[-74.107527,40.69239],[-74.107094,40.692306],[-74.107564,40.692143],[-74.109616,40.692754],[-74.10961,40.693797]],[[-74.107563,40.692335],[-74.107599,40.692308],[-74.107563,40.692308],[-74.107563,40.692335]],[[-74.107599,40.692308],[-74.107635,40.69228],[-74.107599,40.69228],[-74.107599,40.692308]],[[-74.107708,40.692226],[-74.107672,40.692253],[-74.107708,40.692253],[-74.107708,40.692226]],[[-74.10961,40.693797],[-74.109574,40.693824],[-74.10961,40.693824],[-74.10961,40.693797]]],[[[-74.109212,40.694098],[-74.109606,40.694456],[-74.110615,40.694706],[-74.116009,40.697359],[-74.114232,40.700952],[-74.107711,40.697789],[-74.107966,40.697387],[-74.107862,40.696701],[-74.106713,40.695736],[-74.107187,40.694887],[-74.106066,40.695432],[-74.105166,40.695099],[-74.104949,40.695236],[-74.105811,40.695815],[-74.105701,40.696172],[-74.10628,40.695872],[-74.107143,40.696341],[-74.107286,40.696534],[-74.107358,40.696507],[-74.107607,40.697167],[-74.10746,40.697667],[-74.102852,40.695432],[-74.103003,40.694955],[-74.103799,40.694546],[-74.103621,40.694271],[-74.105218,40.692492],[-74.109212,40.694098]],[[-74.107187,40.694887],[-74.10726,40.69486],[-74.107187,40.694859],[-74.107187,40.694887]],[[-74.104986,40.695126],[-74.10495,40.695099],[-74.10495,40.695126],[-74.104986,40.695126]],[[-74.106963,40.696258],[-74.106927,40.696286],[-74.106963,40.696286],[-74.106963,40.696258]],[[-74.108995,40.694124],[-74.108959,40.694069],[-74.108887,40.694151],[-74.108995,40.694124]]],[[[-74.097967,40.656836],[-74.098003,40.656864],[-74.097967,40.656864],[-74.097967,40.656836]]],[[[-74.098039,40.656864],[-74.098075,40.656892],[-74.098039,40.656891],[-74.098039,40.656864]]],[[[-74.098219,40.656947],[-74.098254,40.656974],[-74.098218,40.656974],[-74.098219,40.656947]]],[[[-74.09829,40.657002],[-74.098327,40.656975],[-74.098326,40.657002],[-74.09829,40.657002]]],[[[-74.09847,40.657058],[-74.098506,40.657085],[-74.09847,40.657085],[-74.09847,40.657058]]],[[[-74.098542,40.657085],[-74.098578,40.657113],[-74.098542,40.657113],[-74.098542,40.657085]]],[[[-74.098614,40.657113],[-74.09865,40.657141],[-74.098614,40.65714],[-74.098614,40.657113]]],[[[-74.098686,40.657168],[-74.098722,40.657141],[-74.098722,40.657168],[-74.098686,40.657168]]],[[[-74.098794,40.657196],[-74.09883,40.657224],[-74.098794,40.657223],[-74.098794,40.657196]]],[[[-74.098866,40.657251],[-74.098902,40.657224],[-74.098902,40.657251],[-74.098866,40.657251]]],[[[-74.099009,40.657307],[-74.098973,40.657279],[-74.09901,40.657279],[-74.099009,40.657307]]],[[[-74.089059,40.676844],[-74.089085,40.676844],[-74.089085,40.676855],[-74.089059,40.676844]]],[[[-74.089125,40.676871],[-74.089157,40.676871],[-74.089157,40.676885],[-74.089125,40.676871]]],[[[-74.096064,40.679449],[-74.095199,40.679363],[-74.095854,40.678405],[-74.096826,40.678683],[-74.097185,40.679041],[-74.096715,40.679122],[-74.097075,40.679233],[-74.09693,40.679424],[-74.096497,40.679505],[-74.096209,40.679422],[-74.096172,40.679449],[-74.096064,40.679449]]],[[[-74.096172,40.679477],[-74.096172,40.679449],[-74.096209,40.679449],[-74.096208,40.679477],[-74.096172,40.679477]]],[[[-74.096244,40.679504],[-74.096208,40.679477],[-74.096244,40.679477],[-74.096244,40.679504]]],[[[-74.096242,40.679892],[-74.097504,40.67992],[-74.097716,40.680518],[-74.096242,40.679892]]]]}}]}