{"type":"FeatureCollection","features":[{"type":"Feature","properties":{"level_ft":6},"geometry":{"type":"MultiPolygon","coordinates":[[[[-74.158263,40.644031],[-74.158248,40.644019],[-74.158263,40.644019],[-74.158263,40.644031]]],[[[-74.158282,40.644046],[-74.161391,40.644357],[-74.161303,40.645451],[-74.160077,40.645246],[-74.160206,40.644951],[-74.159668,40.644486],[-74.159018,40.644694],[-74.159247,40.644938],[-74.158912,40.644855],[-74.158282,40.644046]]],[[[-74.140743,40.645036],[-74.140815,40.645009],[-74.140815,40.645036],[-74.140743,40.645036]]],[[[-74.14056,40.64553],[-74.140596,40.645502],[-74.140596,40.64553],[-74.14056,40.64553]]],[[[-74.140487,40.645722],[-74.140451,40.645694],[-74.140487,40.645694],[-74.140487,40.645722]]],[[[-74.140341,40.646133],[-74.140377,40.646078],[-74.140377,40.646133],[-74.140341,40.646133]]],[[[-74.140143,40.649454],[-74.14007,40.649536],[-74.140107,40.649454],[-74.140143,40.649454]]],[[[-74.114442,40.656371],[-74.114334,40.656343],[-74.114442,40.656316],[-74.114442,40.656371]]],[[[-74.115919,40.656486],[-74.115955,40.656458],[-74.115955,40.656486],[-74.115919,40.656486]]],[[[-74.115739,40.656485],[-74.115883,40.656485],[-74.115739,40.656512],[-74.115739,40.656485]]],[[[-74.114906,40.657168],[-74.114942,40.657141],[-74.114942,40.657169],[-74.114906,40.657168]]],[[[-74.115481,40.65739],[-74.115554,40.657363],[-74.115554,40.65739],[-74.115481,40.65739]]],[[[-74.114905,40.657388],[-74.114941,40.657361],[-74.114941,40.657388],[-74.114905,40.657388]]],[[[-74.115013,40.657416],[-74.115049,40.657443],[-74.115013,40.657443],[-74.115013,40.657416]]],[[[-74.115157,40.657444],[-74.115264,40.657527],[-74.115049,40.657443],[-74.115157,40.657444]]],[[[-74.115372,40.657582],[-74.115408,40.657609],[-74.115372,40.657609],[-74.115372,40.657582]]],[[[-74.117498,40.657726],[-74.117462,40.657753],[-74.117462,40.657726],[-74.117498,40.657726]]],[[[-74.115732,40.657748],[-74.115696,40.65772],[-74.115732,40.65772],[-74.115732,40.657748]]],[[[-74.117426,40.657753],[-74.117462,40.657781],[-74.117426,40.657781],[-74.117426,40.657753]]],[[[-74.116488,40.657833],[-74.116524,40.657805],[-74.116524,40.657833],[-74.116488,40.657833]]],[[[-74.11746,40.658028],[-74.117424,40.658],[-74.11746,40.658],[-74.11746,40.658028]]],[[[-74.116198,40.658216],[-74.115479,40.657802],[-74.115372,40.657637],[-74.116702,40.658272],[-74.116196,40.658435],[-74.116198,40.658216]],[[-74.116305,40.658271],[-74.116342,40.658216],[-74.116306,40.658216],[-74.116305,40.658271]],[[-74.116342,40.658216],[-74.116378,40.658189],[-74.116342,40.658189],[-74.116342,40.658216]]],[[[-74.117315,40.658137],[-74.11728,40.65811],[-74.117316,40.65811],[-74.117315,40.658137]]],[[[-74.117134,40.658301],[-74.117098,40.658274],[-74.117134,40.658274],[-74.117134,40.658301]]],[[[-74.116702,40.6583],[-74.116737,40.658382],[-74.116593,40.658382],[-74.116702,40.6583]]],[[[-74.116161,40.658353],[-74.116197,40.658326],[-74.116197,40.658353],[-74.116161,40.658353]]],[[[-74.116557,40.658409],[-74.116593,40.658382],[-74.116593,40.658409],[-74.116557,40.658409]]],[[[-74.116521,40.658437],[-74.116557,40.658409],[-74.116557,40.658437],[-74.116521,40.658437]]],[[[-74.11518,40.659612],[-74.11576,40.659148],[-74.115541,40.659586],[-74.115717,40.660246],[-74.115392,40.660382],[-74.115213,40.660216],[-74.114958,40.660737],[-74.115282,40.660738],[-74.115242,40.661424],[-74.114701,40.661505],[-74.114594,40.66123],[-74.113155,40.660814],[-74.113302,40.660292],[-74.114095,40.66024],[-74.113846,40.65969],[-74.114675,40.659721],[-74.114857,40.659419],[-74.115037,40.65942],[-74.11518,40.659612]],[[-74.115073,40.659475],[-74.115037,40.65953],[-74.115073,40.65953],[-74.115073,40.659475]],[[-74.115144,40.659612],[-74.115108,40.65964],[-74.115144,40.65964],[-74.115144,40.659612]]],[[[-74.140107,40.649399],[-74.139782,40.649618],[-74.139857,40.648986],[-74.140182,40.64885],[-74.139786,40.648712],[-74.140075,40.648603],[-74.1399,40.647641],[-74.141323,40.644352],[-74.141982,40.64453],[-74.14188,40.644033],[-74.143813,40.643797],[-74.163014,40.645898],[-74.15809,40.649737],[-74.14726,40.655124],[-74.142721,40.658943],[-74.140573,40.661318],[-74.132507,40.672932],[-74.125251,40.68406],[-74.120322,40.69066],[-74.117554,40.694949],[-74.110265,40.692729],[-74.111034,40.690755],[-74.112658,40.690541],[-74.113094,40.690048],[-74.112845,40.689471],[-74.111836,40.689275],[-74.110893,40.690205],[-74.109017,40.690419],[-74.107566,40.691868],[-74.107025,40.691757],[-74.107567,40.691594],[-74.108402,40.690691],[-74.107793,40.689948],[-74.108447,40.689181],[-74.110425,40.690066],[-74.111076,40.689739],[-74.109746,40.688966],[-74.110002,40.688445],[-74.109679,40.688115],[-74.110878,40.686664],[-74.112073,40.685735],[-74.112506,40.685681],[-74.112075,40.685378],[-74.112224,40.684637],[-74.114878,40.680803],[-74.11481,40.680089],[-74.115537,40.679021],[-74.115936,40.678748],[-74.116547,40.678997],[-74.116877,40.678037],[-74.118109,40.676916],[-74.118833,40.676534],[-74.11945,40.675822],[-74.121257,40.674977],[-74.121732,40.673908],[-74.122746,40.673198],[-74.12322,40.672101],[-74.123836,40.671609],[-74.123948,40.670896],[-74.124891,40.669856],[-74.124821,40.669471],[-74.126224,40.670052],[-74.126837,40.670054],[-74.12623,40.669092],[-74.12659,40.669175],[-74.126699,40.668901],[-74.127204,40.668903],[-74.127641,40.668136],[-74.127175,40.66764],[-74.127285,40.667256],[-74.127682,40.667312],[-74.128008,40.667011],[-74.127541,40.666653],[-74.127582,40.665692],[-74.128163,40.665008],[-74.128921,40.664846],[-74.129901,40.663559],[-74.131674,40.662466],[-74.132333,40.660602],[-74.133056,40.66011],[-74.132915,40.65967],[-74.135379,40.65718],[-74.135921,40.657099],[-74.136855,40.657569],[-74.136928,40.657405],[-74.135922,40.656907],[-74.136931,40.656965],[-74.136821,40.657185],[-74.137073,40.657295],[-74.137472,40.656802],[-74.137113,40.656472],[-74.137907,40.656392],[-74.138451,40.655707],[-74.137338,40.654908],[-74.138848,40.655599],[-74.1399,40.654312],[-74.139649,40.654201],[-74.140083,40.653901],[-74.139835,40.653049],[-74.140412,40.653106],[-74.140773,40.652832],[-74.142006,40.651546],[-74.142152,40.651244],[-74.141901,40.650942],[-74.142517,40.65034],[-74.14241,40.650037],[-74.14126,40.649457],[-74.140866,40.64899],[-74.140215,40.649454],[-74.140107,40.649399]],[[-74.140252,40.649344],[-74.140216,40.649317],[-74.140215,40.649344],[-74.140252,40.649344]],[[-74.140143,40.649399],[-74.140179,40.649372],[-74.140143,40.649372],[-74.140143,40.649399]]],[[[-74.113542,40.656258],[-74.113578,40.656231],[-74.113578,40.656258],[-74.113542,40.656258]]],[[[-74.113505,40.656258],[-74.113469,40.656285],[-74.113469,40.656258],[-74.113505,40.656258]]],[[[-74.111847,40.656307],[-74.111631,40.656224],[-74.111991,40.656335],[-74.111847,40.656307]]],[[[-74.113577,40.656286],[-74.113541,40.656313],[-74.113541,40.656285],[-74.113577,40.656286]]],[[[-74.114226,40.656343],[-74.11419,40.656288],[-74.114298,40.656288],[-74.114226,40.656343]]],[[[-74.140961,40.644708],[-74.140671,40.645063],[-74.140669,40.645393],[-74.140452,40.645584],[-74.140415,40.645749],[-74.140487,40.645832],[-74.139945,40.646104],[-74.140304,40.646325],[-74.13983,40.647367],[-74.139471,40.647091],[-74.138821,40.647199],[-74.138968,40.646842],[-74.138428,40.646566],[-74.136988,40.646342],[-74.136846,40.645875],[-74.136415,40.645736],[-74.135945,40.646009],[-74.136088,40.646175],[-74.135294,40.646337],[-74.133457,40.646166],[-74.132952,40.646329],[-74.132881,40.64611],[-74.132341,40.646025],[-74.131655,40.646133],[-74.131621,40.645831],[-74.130902,40.645472],[-74.131661,40.645063],[-74.131121,40.645006],[-74.130652,40.645169],[-74.127842,40.644913],[-74.125713,40.645345],[-74.125676,40.64562],[-74.125027,40.645618],[-74.125244,40.645454],[-74.125137,40.645398],[-74.124775,40.645617],[-74.124163,40.645532],[-74.124126,40.645725],[-74.123405,40.645612],[-74.123223,40.645969],[-74.122539,40.645884],[-74.120087,40.646205],[-74.120264,40.646728],[-74.119395,40.647329],[-74.118921,40.648288],[-74.119822,40.648401],[-74.119676,40.648647],[-74.120142,40.649198],[-74.119952,40.650789],[-74.120347,40.651202],[-74.120563,40.651148],[-74.12049,40.651367],[-74.121174,40.651452],[-74.120991,40.651973],[-74.121642,40.651563],[-74.121748,40.651866],[-74.121134,40.652221],[-74.121528,40.652688],[-74.12016,40.652382],[-74.119653,40.65271],[-74.119909,40.652107],[-74.119331,40.652379],[-74.119586,40.651804],[-74.119298,40.651775],[-74.119296,40.652132],[-74.11843,40.652349],[-74.11846,40.65331],[-74.117919,40.653418],[-74.118385,40.653941],[-74.11864,40.653448],[-74.118928,40.653503],[-74.118853,40.654025],[-74.1186,40.654051],[-74.118888,40.654244],[-74.116545,40.654237],[-74.116688,40.654484],[-74.116362,40.65462],[-74.117113,40.655666],[-74.117761,40.655778],[-74.116208,40.656459],[-74.115128,40.656236],[-74.11419,40.65626],[-74.114117,40.656397],[-74.113937,40.656397],[-74.113866,40.656314],[-74.113326,40.656148],[-74.113469,40.656313],[-74.114476,40.656728],[-74.116459,40.65657],[-74.116061,40.65687],[-74.116855,40.656791],[-74.116816,40.657202],[-74.117607,40.657507],[-74.11739,40.657726],[-74.117388,40.658083],[-74.117244,40.65811],[-74.117207,40.658247],[-74.116954,40.658301],[-74.116525,40.65775],[-74.115302,40.657225],[-74.113324,40.656504],[-74.113288,40.656532],[-74.11318,40.656531],[-74.113144,40.656504],[-74.113107,40.656531],[-74.113072,40.656449],[-74.113036,40.656476],[-74.112784,40.656448],[-74.112783,40.656475],[-74.112711,40.656475],[-74.111344,40.656086],[-74.111309,40.655866],[-74.112354,40.65587],[-74.112463,40.655705],[-74.111204,40.655317],[-74.111316,40.654713],[-74.111749,40.654605],[-74.111281,40.654466],[-74.111391,40.654219],[-74.110454,40.654079],[-74.110633,40.654382],[-74.110416,40.654408],[-74.11013,40.653996],[-74.109626,40.653966],[-74.10952,40.653582],[-74.108981,40.653333],[-74.108762,40.653717],[-74.10797,40.653659],[-74.107969,40.653796],[-74.107106,40.653381],[-74.107147,40.652586],[-74.107363,40.652724],[-74.107472,40.652477],[-74.107905,40.652396],[-74.108012,40.652698],[-74.108408,40.652617],[-74.108412,40.652013],[-74.108196,40.651958],[-74.108379,40.651547],[-74.107983,40.651463],[-74.108706,40.651109],[-74.108671,40.650861],[-74.109535,40.651002],[-74.10914,40.650781],[-74.107627,40.650721],[-74.107403,40.6519],[-74.107763,40.652121],[-74.107293,40.652257],[-74.106935,40.651953],[-74.107047,40.65124],[-74.105246,40.651014],[-74.10554,40.650164],[-74.104135,40.650022],[-74.105033,40.65052],[-74.104812,40.651233],[-74.105207,40.651481],[-74.104052,40.651834],[-74.103333,40.651474],[-74.10315,40.651968],[-74.102716,40.652214],[-74.102941,40.650759],[-74.101499,40.650809],[-74.101576,40.649986],[-74.099992,40.649679],[-74.099806,40.650584],[-74.098761,40.650553],[-74.098645,40.652007],[-74.096373,40.652109],[-74.096157,40.652191],[-74.096481,40.652219],[-74.096258,40.653234],[-74.09424,40.65331],[-74.093984,40.653885],[-74.095389,40.654],[-74.095386,40.654521],[-74.094664,40.654601],[-74.094591,40.654821],[-74.093984,40.653901],[-74.093514,40.654158],[-74.091114,40.651651],[-74.08945,40.652716],[-74.08995,40.653404],[-74.089661,40.653431],[-74.089124,40.65288],[-74.088293,40.653234],[-74.0884,40.653371],[-74.088075,40.65348],[-74.088326,40.6537],[-74.087676,40.653945],[-74.087889,40.65444],[-74.087385,40.654438],[-74.088067,40.654743],[-74.088282,40.6551],[-74.088787,40.654937],[-74.088899,40.654361],[-74.089332,40.654308],[-74.089763,40.654556],[-74.089508,40.654995],[-74.089686,40.65538],[-74.091198,40.655687],[-74.09318,40.655721],[-74.093218,40.655392],[-74.093543,40.655311],[-74.092966,40.655254],[-74.092967,40.655062],[-74.092786,40.655226],[-74.092282,40.655142],[-74.092393,40.654758],[-74.091817,40.654619],[-74.092144,40.654071],[-74.091317,40.653821],[-74.091642,40.653657],[-74.09301,40.654019],[-74.093801,40.654379],[-74.094015,40.654709],[-74.093904,40.655202],[-74.093615,40.655339],[-74.093757,40.655614],[-74.093794,40.655422],[-74.094444,40.655287],[-74.095236,40.655482],[-74.095558,40.655812],[-74.096564,40.656282],[-74.096491,40.656502],[-74.096708,40.656338],[-74.098901,40.657306],[-74.098973,40.657334],[-74.099081,40.657307],[-74.099477,40.657473],[-74.099728,40.657611],[-74.099692,40.657666],[-74.100015,40.657914],[-74.100087,40.657887],[-74.100374,40.658107],[-74.100625,40.658383],[-74.101236,40.658714],[-74.101486,40.659017],[-74.102349,40.659377],[-74.102384,40.659651],[-74.102673,40.659515],[-74.102598,40.659982],[-74.103961,40.661057],[-74.10439,40.661799],[-74.10726,40.664033],[-74.107693,40.663952],[-74.107868,40.664968],[-74.108652,40.666535],[-74.108501,40.667578],[-74.108644,40.667881],[-74.108315,40.668593],[-74.108391,40.667907],[-74.107702,40.668564],[-74.104796,40.666193],[-74.104074,40.666383],[-74.104148,40.665999],[-74.102427,40.66451],[-74.1025,40.664291],[-74.103972,40.665339],[-74.104662,40.664545],[-74.105167,40.664437],[-74.105132,40.66419],[-74.106144,40.663809],[-74.105786,40.663451],[-74.104561,40.663337],[-74.104779,40.663009],[-74.105066,40.663174],[-74.105212,40.662983],[-74.104029,40.661881],[-74.104353,40.661937],[-74.104281,40.661799],[-74.103707,40.661358],[-74.103993,40.661771],[-74.103096,40.661081],[-74.101907,40.66094],[-74.101328,40.661405],[-74.101111,40.661431],[-74.101257,40.661267],[-74.101221,40.661212],[-74.100606,40.661567],[-74.101622,40.660445],[-74.101192,40.659977],[-74.098984,40.661589],[-74.098985,40.661342],[-74.098267,40.660927],[-74.098591,40.661038],[-74.098994,40.659942],[-74.09968,40.659697],[-74.099573,40.659422],[-74.098889,40.659365],[-74.098963,40.658953],[-74.097632,40.658592],[-74.096111,40.659685],[-74.095752,40.659519],[-74.097201,40.658398],[-74.096518,40.658012],[-74.097168,40.657739],[-74.097888,40.658044],[-74.098648,40.65747],[-74.098397,40.657277],[-74.097678,40.656972],[-74.097642,40.657],[-74.097605,40.657],[-74.097605,40.657027],[-74.097533,40.657027],[-74.097534,40.656917],[-74.097317,40.656971],[-74.096491,40.656584],[-74.096022,40.656582],[-74.095267,40.65625],[-74.094654,40.656248],[-74.094473,40.656495],[-74.094186,40.656137],[-74.094114,40.656274],[-74.092708,40.656159],[-74.092782,40.65594],[-74.09307,40.655941],[-74.092854,40.655885],[-74.092062,40.655827],[-74.091664,40.656073],[-74.08979,40.655929],[-74.08971,40.657219],[-74.09126,40.657252],[-74.091475,40.657472],[-74.09216,40.657365],[-74.092159,40.657612],[-74.091835,40.657474],[-74.091654,40.657638],[-74.091798,40.657775],[-74.092159,40.657639],[-74.092263,40.658216],[-74.092482,40.657915],[-74.092806,40.657971],[-74.092515,40.658299],[-74.09273,40.658575],[-74.093666,40.658688],[-74.094318,40.658278],[-74.094102,40.65814],[-74.093921,40.658359],[-74.093416,40.65833],[-74.093417,40.658138],[-74.093851,40.658002],[-74.09378,40.657782],[-74.09295,40.657972],[-74.092735,40.657806],[-74.09288,40.657532],[-74.093745,40.65759],[-74.094179,40.657372],[-74.094069,40.657728],[-74.094681,40.65784],[-74.094568,40.658554],[-74.094062,40.658909],[-74.092261,40.6586],[-74.091413,40.658625],[-74.091899,40.658819],[-74.091143,40.658789],[-74.091183,40.658048],[-74.089778,40.65796],[-74.090202,40.65933],[-74.089771,40.658087],[-74.089313,40.657973],[-74.089086,40.657625],[-74.088852,40.656329],[-74.088306,40.656226],[-74.088403,40.655691],[-74.08605,40.655497],[-74.087468,40.653667],[-74.093393,40.650179],[-74.094791,40.649641],[-74.09714,40.649264],[-74.099273,40.649276],[-74.100303,40.649662],[-74.102815,40.649804],[-74.102824,40.650365],[-74.103617,40.650619],[-74.103832,40.650613],[-74.104077,40.64996],[-74.105686,40.650119],[-74.105599,40.650711],[-74.105925,40.651034],[-74.106727,40.651069],[-74.107394,40.651342],[-74.10756,40.65028],[-74.108468,40.650301],[-74.108451,40.650708],[-74.110981,40.65089],[-74.111375,40.650989],[-74.111639,40.650865],[-74.112966,40.650925],[-74.114045,40.65189],[-74.114403,40.651657],[-74.114011,40.65088],[-74.115372,40.652657],[-74.115788,40.652881],[-74.1165,40.652589],[-74.115038,40.650386],[-74.116445,40.652148],[-74.116801,40.65191],[-74.11505,40.649541],[-74.115843,40.649215],[-74.116241,40.649535],[-74.117098,40.648832],[-74.118644,40.64842],[-74.119002,40.647539],[-74.120136,40.646109],[-74.12801,40.644844],[-74.130745,40.64512],[-74.131048,40.644945],[-74.132858,40.645202],[-74.133579,40.645044],[-74.135752,40.645173],[-74.136748,40.645651],[-74.137508,40.645309],[-74.140314,40.644818],[-74.141108,40.644269],[-74.140926,40.64457],[-74.140961,40.644708]],[[-74.14067,40.645146],[-74.140634,40.645173],[-74.14067,40.645173],[-74.14067,40.645146]],[[-74.140086,40.646654],[-74.140122,40.646626],[-74.140086,40.646626],[-74.140086,40.646654]],[[-74.140086,40.646626],[-74.14005,40.646599],[-74.14005,40.646626],[-74.140086,40.646626]],[[-74.10797,40.653659],[-74.107934,40.653631],[-74.107934,40.653659],[-74.10797,40.653659]],[[-74.107934,40.653631],[-74.107898,40.653604],[-74.107898,40.653631],[-74.107934,40.653631]],[[-74.088075,40.653535],[-74.087967,40.653507],[-74.087967,40.653534],[-74.088075,40.653535]],[[-74.093793,40.655614],[-74.093829,40.655641],[-74.093829,40.655614],[-74.093793,40.655614]],[[-74.099081,40.657334],[-74.099045,40.657362],[-74.099081,40.657362],[-74.099081,40.657334]],[[-74.099153,40.657362],[-74.099117,40.657389],[-74.099153,40.657389],[-74.099153,40.657362]],[[-74.099656,40.657611],[-74.09962,40.657638],[-74.099656,40.657638],[-74.099656,40.657611]],[[-74.100087,40.657942],[-74.100051,40.657969],[-74.100087,40.657969],[-74.100087,40.657942]],[[-74.100195,40.658024],[-74.100158,40.658052],[-74.100194,40.658052],[-74.100195,40.658024]],[[-74.108429,40.667578],[-74.108393,40.66755],[-74.10832,40.667797],[-74.108429,40.667578]],[[-74.108393,40.66755],[-74.108357,40.667523],[-74.108357,40.66755],[-74.108393,40.66755]],[[-74.108319,40.667934],[-74.108283,40.667907],[-74.108283,40.667934],[-74.108319,40.667934]],[[-74.103599,40.661358],[-74.103528,40.66122],[-74.103456,40.66122],[-74.103599,40.661358]],[[-74.101257,40.661212],[-74.101329,40.661158],[-74.101257,40.661157],[-74.101257,40.661212]],[[-74.098648,40.65747],[-74.098684,40.657498],[-74.098684,40.65747],[-74.098648,40.65747]],[[-74.097354,40.656916],[-74.09739,40.656889],[-74.097246,40.656834],[-74.097354,40.656916]],[[-74.097246,40.656834],[-74.09721,40.656806],[-74.09721,40.656834],[-74.097246,40.656834]],[[-74.140925,40.644707],[-74.140889,40.64468],[-74.140889,40.644707],[-74.140925,40.644707]],[[-74.089637,40.657493],[-74.089599,40.657795],[-74.089732,40.657795],[-74.089635,40.657795],[-74.089637,40.657493]],[[-74.089673,40.657353],[-74.089674,40.657246],[-74.089674,40.657246],[-74.089673,40.657353]],[[-74.089957,40.657824],[-74.089851,40.657823],[-74.089851,40.657823],[-74.089957,40.657824]],[[-74.090283,40.657852],[-74.090139,40.657824],[-74.090535,40.657853],[-74.090283,40.657852]],[[-74.091435,40.658049],[-74.09115,40.657499],[-74.090863,40.657415],[-74.090825,40.657662],[-74.091364,40.657939],[-74.091362,40.658186],[-74.091435,40.658049]],[[-74.091288,40.658553],[-74.091288,40.658515],[-74.091288,40.658515],[-74.091288,40.658553]],[[-74.09136,40.658597],[-74.091324,40.658625],[-74.09136,40.658625],[-74.09136,40.658597]],[[-74.091324,40.658597],[-74.091288,40.65857],[-74.091288,40.658597],[-74.091324,40.658597]],[[-74.091326,40.658213],[-74.091362,40.658268],[-74.091362,40.658206],[-74.091326,40.658213]],[[-74.107692,40.664209],[-74.107692,40.664199],[-74.107692,40.664199],[-74.107692,40.664209]],[[-74.115313,40.655386],[-74.115817,40.655442],[-74.115818,40.655305],[-74.115313,40.655386]],[[-74.115313,40.655386],[-74.115603,40.655085],[-74.114846,40.655055],[-74.114776,40.654725],[-74.115138,40.654452],[-74.115859,40.654481],[-74.115643,40.654398],[-74.115788,40.654289],[-74.114994,40.654341],[-74.114852,40.653984],[-74.114168,40.653817],[-74.114172,40.653186],[-74.114857,40.653078],[-74.114497,40.653104],[-74.114534,40.652912],[-74.114031,40.652719],[-74.114071,40.652005],[-74.112995,40.651013],[-74.111626,40.650926],[-74.111588,40.651201],[-74.111264,40.651282],[-74.110327,40.651141],[-74.110401,40.650895],[-74.109932,40.650866],[-74.109462,40.651139],[-74.109533,40.651303],[-74.109245,40.651302],[-74.10928,40.65155],[-74.109028,40.651521],[-74.108991,40.651686],[-74.109243,40.651604],[-74.109491,40.652429],[-74.109634,40.652539],[-74.109744,40.652347],[-74.109456,40.652264],[-74.109494,40.651935],[-74.109889,40.652156],[-74.11025,40.652075],[-74.110176,40.652321],[-74.111036,40.653203],[-74.110854,40.653477],[-74.111214,40.65356],[-74.111715,40.654221],[-74.111543,40.65433],[-74.113409,40.654254],[-74.113585,40.654886],[-74.113333,40.654912],[-74.113909,40.655051],[-74.113975,40.65604],[-74.114804,40.656152],[-74.114808,40.655466],[-74.115167,40.65566],[-74.115061,40.65522],[-74.115277,40.655385],[-74.115313,40.655386]],[[-74.114852,40.653984],[-74.114888,40.653957],[-74.114852,40.653957],[-74.114852,40.653984]],[[-74.115167,40.65566],[-74.115203,40.655715],[-74.115203,40.65566],[-74.115167,40.65566]],[[-74.115146,40.652997],[-74.115038,40.653024],[-74.115146,40.653052],[-74.115146,40.652997]],[[-74.115325,40.653217],[-74.115289,40.653244],[-74.115325,40.653272],[-74.115325,40.653217]],[[-74.115432,40.653385],[-74.115396,40.653354],[-74.115396,40.653382],[-74.115432,40.653385]],[[-74.115468,40.65341],[-74.115432,40.653437],[-74.115468,40.653465],[-74.115468,40.65341]],[[-74.115647,40.653657],[-74.115611,40.653685],[-74.115647,40.65374],[-74.115647,40.653657]],[[-74.115718,40.653799],[-74.115682,40.653767],[-74.115682,40.653795],[-74.115718,40.653799]],[[-74.115754,40.653822],[-74.115718,40.65385],[-74.115754,40.653905],[-74.115754,40.653822]],[[-74.115825,40.65397],[-74.11579,40.653932],[-74.115789,40.65396],[-74.115825,40.65397]],[[-74.115824,40.654289],[-74.115933,40.654125],[-74.115861,40.653987],[-74.115789,40.654069],[-74.115824,40.654289]],[[-74.117708,40.652456],[-74.11749,40.652785],[-74.117595,40.653444],[-74.117885,40.653143],[-74.117708,40.652456]],[[-74.118951,40.649413],[-74.11895,40.649633],[-74.11895,40.649633],[-74.118951,40.649413]],[[-74.118986,40.649688],[-74.118986,40.649683],[-74.118986,40.649688],[-74.118986,40.649688]],[[-74.119089,40.650512],[-74.119086,40.651008],[-74.119093,40.649863],[-74.119089,40.650512]],[[-74.119096,40.649277],[-74.119132,40.649277],[-74.119132,40.649277],[-74.119096,40.649277]],[[-74.119086,40.651061],[-74.11912,40.651445],[-74.11912,40.651445],[-74.119122,40.651061],[-74.119086,40.651061]],[[-74.119207,40.648755],[-74.11917,40.648975],[-74.119205,40.649118],[-74.119207,40.648755]],[[-74.119603,40.651529],[-74.119336,40.651528],[-74.119336,40.651528],[-74.119603,40.651529]],[[-74.119388,40.648646],[-74.119604,40.648647],[-74.119388,40.648646],[-74.119388,40.648646]],[[-74.119986,40.651283],[-74.119842,40.651118],[-74.119876,40.651503],[-74.120129,40.651394],[-74.120166,40.651339],[-74.120167,40.651094],[-74.119986,40.651283]],[[-74.119876,40.65153],[-74.11966,40.651529],[-74.11966,40.651557],[-74.119876,40.65153]]],[[[-74.114153,40.656425],[-74.114117,40.656397],[-74.114153,40.656397],[-74.114153,40.656425]]],[[[-74.112819,40.656503],[-74.112783,40.656475],[-74.112819,40.656475],[-74.112819,40.656503]]],[[[-74.113287,40.656559],[-74.113288,40.656532],[-74.113324,40.656532],[-74.113324,40.656559],[-74.113287,40.656559]]],[[[-74.113359,40.656587],[-74.113324,40.656559],[-74.11336,40.656559],[-74.113359,40.656587]]],[[[-74.111408,40.657376],[-74.111373,40.657349],[-74.111409,40.657349],[-74.111408,40.657376]]],[[[-74.112706,40.657408],[-74.112741,40.657491],[-74.112669,40.657463],[-74.112706,40.657408]]],[[[-74.112741,40.657518],[-74.112777,40.657491],[-74.112777,40.657518],[-74.112741,40.657518]]],[[[-74.111591,40.656965],[-74.111585,40.657926],[-74.111477,40.658035],[-74.111445,40.657322],[-74.111591,40.656965]]],[[[-74.111407,40.657623],[-74.111372,40.657431],[-74.111408,40.657431],[-74.111407,40.657623]]],[[[-74.113425,40.657795],[-74.113173,40.657657],[-74.113066,40.657547],[-74.113282,40.657547],[-74.113425,40.657795]]],[[[-74.113029,40.657684],[-74.113065,40.657656],[-74.113065,40.657684],[-74.113029,40.657684]]],[[[-74.113352,40.657795],[-74.113388,40.657822],[-74.113352,40.657822],[-74.113352,40.657795]]],[[[-74.113244,40.657877],[-74.11328,40.657849],[-74.11328,40.657877],[-74.113244,40.657877]]],[[[-74.111477,40.658063],[-74.111726,40.658475],[-74.111474,40.65842],[-74.111477,40.658063]]],[[[-74.111474,40.658529],[-74.111546,40.658502],[-74.111546,40.65853],[-74.111474,40.658529]]],[[[-74.116052,40.658517],[-74.113522,40.659689],[-74.112295,40.659822],[-74.112765,40.659632],[-74.112153,40.659547],[-74.112079,40.659849],[-74.111721,40.659491],[-74.111036,40.659406],[-74.111398,40.659133],[-74.111298,40.657705],[-74.111438,40.658529],[-74.111474,40.658557],[-74.112087,40.658532],[-74.112347,40.657215],[-74.112634,40.657326],[-74.112633,40.657518],[-74.113674,40.658317],[-74.113958,40.659114],[-74.114211,40.65895],[-74.114069,40.658538],[-74.113819,40.65818],[-74.11497,40.658624],[-74.114897,40.658815],[-74.115114,40.658542],[-74.114826,40.658513],[-74.114755,40.658266],[-74.115298,40.657993],[-74.116196,40.658435],[-74.116052,40.658517]],[[-74.113414,40.659661],[-74.113378,40.659634],[-74.113378,40.659661],[-74.113414,40.659661]],[[-74.112454,40.65727],[-74.112418,40.657325],[-74.112454,40.657325],[-74.112454,40.65727]],[[-74.112562,40.657325],[-74.112526,40.657353],[-74.112562,40.657353],[-74.112562,40.657325]],[[-74.112598,40.657408],[-74.112562,40.657435],[-74.112598,40.657435],[-74.112598,40.657408]],[[-74.11598,40.65849],[-74.11598,40.65849],[-74.11598,40.658517],[-74.11598,40.65849]]],[[[-74.113925,40.658593],[-74.113961,40.658565],[-74.113961,40.658593],[-74.113925,40.658593]]],[[[-74.113996,40.65862],[-74.114033,40.658593],[-74.114033,40.65862],[-74.113996,40.65862]]],[[[-74.11396,40.658757],[-74.113924,40.65873],[-74.11396,40.65873],[-74.11396,40.658757]]],[[[-74.113994,40.65906],[-74.11403,40.659005],[-74.11403,40.65906],[-74.113994,40.65906]]],[[[-74.113919,40.659636],[-74.113954,40.659663],[-74.113918,40.659663],[-74.113919,40.659636]]],[[[-74.108672,40.662967],[-74.108496,40.662335],[-74.109003,40.66198],[-74.109543,40.662009],[-74.109839,40.660775],[-74.111211,40.66034],[-74.111353,40.660753],[-74.110951,40.661685],[-74.111165,40.662124],[-74.11084,40.662206],[-74.110729,40.662562],[-74.110405,40.662561],[-74.110294,40.663],[-74.109068,40.663188],[-74.108961,40.662886],[-74.108672,40.662967]]],[[[-74.116046,40.697297],[-74.109645,40.694017],[-74.11012,40.692948],[-74.117428,40.695141],[-74.116046,40.697297]]],[[[-74.107787,40.697826],[-74.108255,40.697251],[-74.107685,40.696124],[-74.109282,40.694345],[-74.110615,40.694706],[-74.116009,40.697359],[-74.114232,40.700952],[-74.107787,40.697826]]],[[[-74.10273,40.655892],[-74.101041,40.65509],[-74.100793,40.65443],[-74.101117,40.654514],[-74.10105,40.653608],[-74.1026,40.653558],[-74.102894,40.652681],[-74.102853,40.653477],[-74.103175,40.65389],[-74.102814,40.653998],[-74.102776,40.654273],[-74.103169,40.65485],[-74.102736,40.654986],[-74.10273,40.655892]]],[[[-74.098938,40.657251],[-74.098901,40.657279],[-74.098902,40.657251],[-74.098938,40.657251]]],[[[-74.098973,40.657279],[-74.099009,40.657307],[-74.098973,40.657306],[-74.098973,40.657279]]],[[[-74.099728,40.657638],[-74.099764,40.657666],[-74.099728,40.657666],[-74.099728,40.657638]]],[[[-74.099764,40.657666],[-74.0998,40.657694],[-74.099764,40.657693],[-74.099764,40.657666]]],[[[-74.0998,40.657694],[-74.099836,40.657721],[-74.0998,40.657721],[-74.0998,40.657694]]],[[[-74.099836,40.657749],[-74.099872,40.657721],[-74.099872,40.657749],[-74.099836,40.657749]]],[[[-74.099872,40.657749],[-74.099908,40.657776],[-74.099872,40.657776],[-74.099872,40.657749]]],[[[-74.099908,40.657776],[-74.099944,40.657804],[-74.099908,40.657804],[-74.099908,40.657776]]],[[[-74.099944,40.657804],[-74.099979,40.657831],[-74.099943,40.657831],[-74.099944,40.657804]]],[[[-74.099979,40.657831],[-74.100015,40.657859],[-74.099979,40.657859],[-74.099979,40.657831]]],[[[-74.100015,40.657859],[-74.100051,40.657887],[-74.100015,40.657886],[-74.100015,40.657859]]],[[[-74.107807,40.663046],[-74.107843,40.663019],[-74.107843,40.663047],[-74.107807,40.663046]]],[[[-74.107802,40.66387],[-74.107766,40.663815],[-74.107802,40.663815],[-74.107802,40.66387]]],[[[-74.107766,40.663925],[-74.107802,40.663897],[-74.107802,40.663925],[-74.107766,40.663925]]],[[[-74.107908,40.664309],[-74.10788,40.662827],[-74.108525,40.663433],[-74.108922,40.663489],[-74.109283,40.663271],[-74.110075,40.663466],[-74.110036,40.664015],[-74.109381,40.665111],[-74.107908,40.664309]]],[[[-74.107801,40.663952],[-74.107837,40.664035],[-74.107801,40.664035],[-74.107801,40.663952]]],[[[-74.107979,40.664392],[-74.107943,40.664365],[-74.107979,40.664365],[-74.107979,40.664392]]],[[[-74.10865,40.666783],[-74.108686,40.666755],[-74.108686,40.666783],[-74.10865,40.666783]]],[[[-74.108101,40.66829],[-74.108064,40.668318],[-74.108064,40.66829],[-74.108101,40.66829]]],[[[-74.109797,40.69259],[-74.107997,40.692035],[-74.108434,40.691405],[-74.10941,40.690941],[-74.110239,40.691027],[-74.110344,40.691549],[-74.109797,40.69259]]],[[[-74.105978,40.691973],[-74.106124,40.691699],[-74.107276,40.692087],[-74.10659,40.692195],[-74.105978,40.691973]]],[[[-74.109214,40.693658],[-74.107739,40.693104],[-74.106876,40.69258],[-74.107164,40.692663],[-74.107852,40.692226],[-74.109688,40.692782],[-74.109214,40.693658]]],[[[-74.108451,40.694617],[-74.107224,40.694805],[-74.105994,40.695377],[-74.107266,40.693844],[-74.105252,40.692766],[-74.104345,40.693752],[-74.104165,40.693724],[-74.104964,40.692738],[-74.10547,40.692548],[-74.10896,40.694014],[-74.108451,40.694617]]],[[[-74.108959,40.694179],[-74.108923,40.694151],[-74.108959,40.694152],[-74.108959,40.694179]]],[[[-74.109248,40.694098],[-74.108667,40.6947],[-74.109103,40.694097],[-74.109248,40.694098]]],[[[-74.108632,40.694535],[-74.108668,40.694507],[-74.108668,40.694535],[-74.108632,40.694535]]],[[[-74.10541,40.69661],[-74.103724,40.695149],[-74.103578,40.695341],[-74.103828,40.695699],[-74.103627,40.695808],[-74.103252,40.69556],[-74.103401,40.694819],[-74.103798,40.694738],[-74.104588,40.695317],[-74.10541,40.69661]]],[[[-74.105554,40.696583],[-74.105698,40.696666],[-74.105697,40.696812],[-74.105554,40.696583]]],[[[-74.106632,40.697266],[-74.107249,40.696644],[-74.107388,40.697632],[-74.106632,40.697266]]],[[[-74.09886,40.65209],[-74.099292,40.652257],[-74.099108,40.65286],[-74.098315,40.652912],[-74.098244,40.652692],[-74.098136,40.652692],[-74.098171,40.652912],[-74.097342,40.652909],[-74.097274,40.65214],[-74.09886,40.65209]]],[[[-74.095523,40.65573],[-74.095558,40.655757],[-74.095522,40.655757],[-74.095523,40.65573]]],[[[-74.095594,40.655757],[-74.095558,40.655785],[-74.095558,40.655757],[-74.095594,40.655757]]],[[[-74.095666,40.655785],[-74.09563,40.655812],[-74.09563,40.655785],[-74.095666,40.655785]]],[[[-74.095774,40.65584],[-74.095738,40.655868],[-74.095738,40.65584],[-74.095774,40.65584]]],[[[-74.097677,40.657027],[-74.097642,40.657],[-74.097678,40.657],[-74.097677,40.657027]]],[[[-74.097641,40.657055],[-74.097605,40.657027],[-74.097641,40.657027],[-74.097641,40.657055]]],[[[-74.098506,40.657058],[-74.09847,40.657085],[-74.09847,40.657058],[-74.098506,40.657058]]],[[[-74.098758,40.657168],[-74.098722,40.657196],[-74.098722,40.657168],[-74.098758,40.657168]]],[[[-74.09883,40.657196],[-74.098794,40.657223],[-74.098794,40.657196],[-74.09883,40.657196]]],[[[-74.098109,40.657194],[-74.098073,40.657221],[-74.098073,40.657193],[-74.098109,40.657194]]],[[[-74.098866,40.657224],[-74.098902,40.657251],[-74.098866,40.657251],[-74.098866,40.657224]]],[[[-74.098037,40.657221],[-74.098073,40.657248],[-74.098037,40.657248],[-74.098037,40.657221]]],[[[-74.098253,40.657276],[-74.098217,40.657249],[-74.098253,40.657249],[-74.098253,40.657276]]],[[[-74.098288,40.657304],[-74.098325,40.657277],[-74.098325,40.657304],[-74.098288,40.657304]]],[[[-74.09818,40.657304],[-74.098217,40.657276],[-74.098216,40.657304],[-74.09818,40.657304]]],[[[-74.098288,40.657359],[-74.098324,40.657332],[-74.098324,40.657359],[-74.098288,40.657359]]],[[[-74.090668,40.65983],[-74.091411,40.661974],[-74.091443,40.66277],[-74.09075,40.664058],[-74.090569,40.664167],[-74.08974,40.664191],[-74.089555,40.66485],[-74.090673,40.664854],[-74.091037,40.664196],[-74.091613,40.664418],[-74.092551,40.664284],[-74.093919,40.664536],[-74.094282,40.664208],[-74.094177,40.663631],[-74.095907,40.663664],[-74.096733,40.664216],[-74.09731,40.664136],[-74.097709,40.663698],[-74.097452,40.664575],[-74.097053,40.664958],[-74.098383,40.665649],[-74.10003,40.667439],[-74.101289,40.667965],[-74.102121,40.667419],[-74.101396,40.66813],[-74.106475,40.668861],[-74.107555,40.669085],[-74.107627,40.669112],[-74.107627,40.669167],[-74.105718,40.668902],[-74.104914,40.669089],[-74.103569,40.668697],[-74.102598,40.668545],[-74.102106,40.668721],[-74.101522,40.66851],[-74.100838,40.667833],[-74.099674,40.667277],[-74.098123,40.665584],[-74.097067,40.665098],[-74.097032,40.664946],[-74.097044,40.664808],[-74.097391,40.664564],[-74.097268,40.664261],[-74.096972,40.664525],[-74.096508,40.664427],[-74.096455,40.664814],[-74.096948,40.665046],[-74.096759,40.665192],[-74.095884,40.665121],[-74.09588,40.664125],[-74.094898,40.664074],[-74.094011,40.664769],[-74.093515,40.66479],[-74.092589,40.664366],[-74.09247,40.664629],[-74.091405,40.66466],[-74.091088,40.664441],[-74.090897,40.664732],[-74.091333,40.664908],[-74.089528,40.66491],[-74.089516,40.664094],[-74.090591,40.664097],[-74.090757,40.663909],[-74.09072,40.663302],[-74.091203,40.662621],[-74.090888,40.661512],[-74.091374,40.662554],[-74.090872,40.660418],[-74.090336,40.6595],[-74.090668,40.65983]]],[[[-74.066683,40.665952],[-74.067988,40.666536],[-74.068218,40.6663],[-74.070086,40.667095],[-74.069986,40.667403],[-74.07263,40.668179],[-74.072508,40.66853],[-74.073665,40.669349],[-74.074134,40.669378],[-74.074131,40.66979],[-74.073484,40.66954],[-74.072906,40.669648],[-74.073052,40.669347],[-74.071767,40.669589],[-74.065716,40.66704],[-74.066683,40.665952]]],[[[-74.091891,40.677869],[-74.08995,40.677012],[-74.089735,40.676736],[-74.089845,40.676407],[-74.08711,40.675629],[-74.087215,40.676071],[-74.08459,40.674906],[-74.084376,40.674521],[-74.08517,40.674469],[-74.08528,40.674085],[-74.085461,40.674113],[-74.085567,40.674361],[-74.085639,40.674361],[-74.085533,40.674113],[-74.085066,40.673782],[-74.085212,40.673481],[-74.079635,40.671069],[-74.085301,40.673467],[-74.085162,40.673745],[-74.085637,40.674122],[-74.086299,40.675191],[-74.088081,40.675871],[-74.089359,40.675481],[-74.090193,40.676042],[-74.090651,40.675707],[-74.091283,40.675839],[-74.092198,40.67531],[-74.091857,40.674951],[-74.094923,40.675947],[-74.095895,40.67545],[-74.096414,40.674608],[-74.095102,40.674041],[-74.094067,40.673952],[-74.091514,40.672507],[-74.089712,40.672309],[-74.081944,40.669638],[-74.08203,40.669515],[-74.076129,40.667217],[-74.071439,40.66503],[-74.071346,40.665162],[-74.068232,40.663839],[-74.069456,40.662148],[-74.069766,40.662205],[-74.070046,40.661835],[-74.069839,40.661628],[-74.070701,40.660867],[-74.070557,40.660662],[-74.076928,40.663539],[-74.08546,40.666402],[-74.086895,40.667087],[-74.089636,40.667669],[-74.089954,40.6679],[-74.09798,40.669115],[-74.100341,40.669348],[-74.10089,40.669182],[-74.10135,40.669416],[-74.10098,40.669294],[-74.100936,40.669499],[-74.102885,40.669552],[-74.103432,40.669858],[-74.104972,40.669953],[-74.105304,40.669732],[-74.105445,40.670091],[-74.106464,40.670385],[-74.10696,40.670167],[-74.107526,40.669226],[-74.10759,40.669203],[-74.106569,40.671305],[-74.105849,40.671028],[-74.105991,40.671468],[-74.105376,40.671877],[-74.10462,40.671628],[-74.104984,40.67108],[-74.104264,40.670913],[-74.104268,40.670089],[-74.103546,40.670361],[-74.10124,40.670051],[-74.100378,40.669499],[-74.090834,40.668066],[-74.089608,40.667979],[-74.095732,40.668879],[-74.095838,40.669099],[-74.093569,40.668817],[-74.093063,40.668925],[-74.092776,40.668704],[-74.091012,40.668396],[-74.090685,40.668834],[-74.090001,40.668694],[-74.08993,40.668474],[-74.089389,40.6685],[-74.089169,40.668993],[-74.088918,40.668855],[-74.089137,40.668389],[-74.088486,40.668689],[-74.08838,40.668387],[-74.087622,40.668631],[-74.086686,40.668353],[-74.086503,40.668737],[-74.085927,40.668597],[-74.085929,40.668378],[-74.084775,40.668429],[-74.085314,40.668678],[-74.085205,40.668842],[-74.084162,40.668454],[-74.083477,40.668479],[-74.082863,40.668641],[-74.083041,40.668999],[-74.081241,40.668553],[-74.081022,40.668991],[-74.082893,40.66963],[-74.083256,40.669109],[-74.083796,40.669221],[-74.083581,40.66911],[-74.083689,40.669029],[-74.085704,40.669695],[-74.085959,40.669229],[-74.085456,40.669035],[-74.085565,40.668816],[-74.087329,40.669344],[-74.086931,40.669562],[-74.086211,40.669285],[-74.085956,40.669723],[-74.086098,40.670108],[-74.085774,40.670079],[-74.085592,40.670408],[-74.085951,40.670629],[-74.086348,40.67052],[-74.086347,40.670767],[-74.087174,40.671045],[-74.087753,40.670718],[-74.086422,40.670191],[-74.087178,40.670359],[-74.086962,40.670276],[-74.087107,40.670166],[-74.087934,40.670499],[-74.08826,40.67028],[-74.088187,40.670554],[-74.08851,40.67072],[-74.090128,40.671357],[-74.090418,40.671139],[-74.090669,40.671414],[-74.092108,40.671886],[-74.092578,40.67175],[-74.09251,40.671036],[-74.093769,40.67148],[-74.094022,40.671344],[-74.09485,40.671511],[-74.094956,40.671951],[-74.096647,40.672561],[-74.097221,40.673002],[-74.096311,40.674399],[-74.096742,40.674675],[-74.097688,40.673333],[-74.098047,40.673444],[-74.097138,40.674841],[-74.097062,40.675444],[-74.095582,40.675714],[-74.095179,40.676755],[-74.094565,40.677028],[-74.094599,40.677248],[-74.094745,40.677028],[-74.095033,40.677112],[-74.094705,40.677632],[-74.095425,40.677854],[-74.095423,40.678239],[-74.094559,40.677989],[-74.094089,40.678179],[-74.094127,40.677795],[-74.093661,40.677382],[-74.090711,40.676383],[-74.090527,40.676931],[-74.090851,40.677042],[-74.091069,40.676768],[-74.091429,40.676825],[-74.091318,40.677346],[-74.091715,40.677155],[-74.091604,40.677621],[-74.091894,40.677485],[-74.091891,40.677869]],[[-74.089843,40.676737],[-74.089879,40.676682],[-74.089843,40.676682],[-74.089843,40.676737]]],[[[-74.074638,40.669489],[-74.074639,40.66949],[-74.074638,40.66949],[-74.074638,40.669489]]],[[[-74.07509,40.669656],[-74.074746,40.669545],[-74.07471,40.669505],[-74.074973,40.669442],[-74.07509,40.669656]]],[[[-74.075249,40.669766],[-74.075105,40.669669],[-74.075341,40.669767],[-74.075249,40.669766]]],[[[-74.075572,40.669905],[-74.075357,40.669774],[-74.075673,40.669905],[-74.075572,40.669905]]],[[[-74.075681,40.669909],[-74.075739,40.669933],[-74.07568,40.669933],[-74.075681,40.669909]]],[[[-74.076471,40.670347],[-74.075752,40.669939],[-74.076687,40.670348],[-74.076471,40.670347]]],[[[-74.099613,40.676991],[-74.098496,40.676849],[-74.098534,40.676465],[-74.097094,40.676048],[-74.096916,40.675718],[-74.098755,40.675725],[-74.099366,40.675947],[-74.099613,40.676991]]],[[[-74.096569,40.679423],[-74.095309,40.679117],[-74.095817,40.678542],[-74.096934,40.678738],[-74.096569,40.679423]]]]}}]}