{"type":"FeatureCollection","features":[{"type":"Feature","properties":{"level_ft":13},"geometry":{"type":"MultiPolygon","coordinates":[[[[-74.158263,40.644019],[-74.158263,40.644031],[-74.158248,40.644019],[-74.158263,40.644019]]],[[[-74.158282,40.644046],[-74.161391,40.644357],[-74.161303,40.645451],[-74.160077,40.645246],[-74.160206,40.644951],[-74.159668,40.644486],[-74.159018,40.644694],[-74.159247,40.644938],[-74.158912,40.644855],[-74.158282,40.644046]]],[[[-74.140852,40.644954],[-74.140816,40.644982],[-74.140816,40.644954],[-74.140852,40.644954]]],[[[-74.139393,40.648107],[-74.139357,40.648079],[-74.139393,40.648079],[-74.139393,40.648107]]],[[[-74.139285,40.648134],[-74.139321,40.648216],[-74.139248,40.648216],[-74.139285,40.648134]]],[[[-74.138909,40.650987],[-74.138837,40.651015],[-74.138837,40.65096],[-74.138909,40.650987]]],[[[-74.138836,40.651179],[-74.138801,40.651042],[-74.138873,40.651042],[-74.138836,40.651179]]],[[[-74.1388,40.651179],[-74.138728,40.651206],[-74.138728,40.651179],[-74.1388,40.651179]]],[[[-74.138581,40.651673],[-74.138474,40.651535],[-74.138546,40.651535],[-74.138581,40.651673]]],[[[-74.138617,40.651645],[-74.138688,40.651838],[-74.138616,40.651837],[-74.138617,40.651645]]],[[[-74.138436,40.651837],[-74.138509,40.651755],[-74.138508,40.651837],[-74.138436,40.651837]]],[[[-74.138508,40.651919],[-74.138435,40.652001],[-74.138436,40.651919],[-74.138508,40.651919]]],[[[-74.137599,40.653316],[-74.137635,40.653344],[-74.137599,40.653344],[-74.137599,40.653316]]],[[[-74.128978,40.654634],[-74.129195,40.65436],[-74.129157,40.654745],[-74.128978,40.654634]],[[-74.12905,40.654607],[-74.129086,40.654552],[-74.12905,40.654552],[-74.12905,40.654607]]],[[[-74.119457,40.655509],[-74.119421,40.655482],[-74.119457,40.655482],[-74.119457,40.655509]]],[[[-74.119565,40.655564],[-74.119529,40.655537],[-74.119565,40.655537],[-74.119565,40.655564]]],[[[-74.118915,40.655699],[-74.118879,40.655672],[-74.118915,40.655672],[-74.118915,40.655699]]],[[[-74.118915,40.655727],[-74.118951,40.6557],[-74.118951,40.655727],[-74.118915,40.655727]]],[[[-74.119094,40.656002],[-74.119022,40.655919],[-74.119058,40.65592],[-74.119094,40.656002]]],[[[-74.119094,40.656057],[-74.119166,40.656057],[-74.119057,40.656084],[-74.119094,40.656057]]],[[[-74.118985,40.656139],[-74.118769,40.656111],[-74.118986,40.656002],[-74.118985,40.656139]]],[[[-74.11884,40.656193],[-74.118877,40.656166],[-74.118876,40.656193],[-74.11884,40.656193]]],[[[-74.118768,40.656221],[-74.118804,40.656193],[-74.118804,40.656221],[-74.118768,40.656221]]],[[[-74.118587,40.656385],[-74.118479,40.656357],[-74.118587,40.656357],[-74.118587,40.656385]]],[[[-74.119668,40.656471],[-74.119596,40.656443],[-74.119668,40.656443],[-74.119668,40.656471]]],[[[-74.119305,40.656881],[-74.119269,40.656826],[-74.119305,40.656826],[-74.119305,40.656881]]],[[[-74.119269,40.656881],[-74.119233,40.656908],[-74.119233,40.656881],[-74.119269,40.656881]]],[[[-74.118471,40.657757],[-74.118543,40.657784],[-74.118471,40.657812],[-74.118471,40.657757]]],[[[-74.116344,40.65775],[-74.11638,40.657805],[-74.116344,40.657805],[-74.116344,40.65775]]],[[[-74.118434,40.657866],[-74.118471,40.657812],[-74.11847,40.657867],[-74.118434,40.657866]]],[[[-74.118362,40.657894],[-74.118434,40.657921],[-74.118362,40.657949],[-74.118362,40.657894]]],[[[-74.118326,40.657948],[-74.118362,40.658003],[-74.118325,40.658003],[-74.118326,40.657948]]],[[[-74.115922,40.662305],[-74.118718,40.658691],[-74.11926,40.658418],[-74.120206,40.656939],[-74.121437,40.655927],[-74.122883,40.655163],[-74.12505,40.654484],[-74.126997,40.654271],[-74.127104,40.654546],[-74.127753,40.65452],[-74.12822,40.654769],[-74.12847,40.655182],[-74.129155,40.655129],[-74.129224,40.65576],[-74.129621,40.655679],[-74.129798,40.656092],[-74.130087,40.656093],[-74.130229,40.656505],[-74.129186,40.65609],[-74.128285,40.656087],[-74.127963,40.655674],[-74.127099,40.655479],[-74.126988,40.655973],[-74.126088,40.655723],[-74.125655,40.655831],[-74.1263,40.656437],[-74.125545,40.656133],[-74.124751,40.656295],[-74.124608,40.65602],[-74.122991,40.655274],[-74.122521,40.655547],[-74.124282,40.656458],[-74.124315,40.656952],[-74.124782,40.657146],[-74.124601,40.65731],[-74.124278,40.657144],[-74.124276,40.657419],[-74.123915,40.657473],[-74.124238,40.657858],[-74.121754,40.657191],[-74.121896,40.657603],[-74.121392,40.657492],[-74.121031,40.6576],[-74.121066,40.657793],[-74.120453,40.657818],[-74.120704,40.658176],[-74.120019,40.658146],[-74.119727,40.658777],[-74.119402,40.658885],[-74.119255,40.659297],[-74.119541,40.659709],[-74.118965,40.65968],[-74.118999,40.659927],[-74.118566,40.66009],[-74.118601,40.660338],[-74.118889,40.660311],[-74.118851,40.660695],[-74.118383,40.660584],[-74.117875,40.661076],[-74.117946,40.661406],[-74.117188,40.661486],[-74.116716,40.662143],[-74.115922,40.662305]]],[[[-74.117417,40.659208],[-74.117454,40.659153],[-74.117454,40.659208],[-74.117417,40.659208]]],[[[-74.138039,40.651863],[-74.138542,40.652221],[-74.138616,40.651892],[-74.13876,40.651893],[-74.139478,40.652444],[-74.140342,40.652721],[-74.140379,40.652392],[-74.140812,40.652421],[-74.140527,40.651679],[-74.141032,40.651625],[-74.140965,40.650802],[-74.140712,40.650883],[-74.140569,40.650636],[-74.14028,40.650799],[-74.140282,40.65047],[-74.139705,40.650358],[-74.139125,40.651015],[-74.138982,40.650768],[-74.138476,40.651123],[-74.138406,40.650794],[-74.13848,40.6503],[-74.139203,40.649918],[-74.138809,40.649422],[-74.139243,40.649204],[-74.13921,40.64871],[-74.140264,40.647011],[-74.141323,40.644352],[-74.141982,40.64453],[-74.14188,40.644033],[-74.143813,40.643797],[-74.163014,40.645898],[-74.15809,40.649737],[-74.14726,40.655124],[-74.142721,40.658943],[-74.140573,40.661318],[-74.132507,40.672932],[-74.125251,40.68406],[-74.120322,40.69066],[-74.117554,40.694949],[-74.106269,40.691535],[-74.107423,40.691676],[-74.108403,40.690609],[-74.107684,40.690194],[-74.10776,40.689481],[-74.108086,40.68918],[-74.108592,40.689127],[-74.110209,40.689956],[-74.110968,40.689766],[-74.11007,40.689187],[-74.109745,40.689186],[-74.109707,40.689488],[-74.109239,40.689376],[-74.109169,40.689047],[-74.110078,40.687705],[-74.1099,40.687292],[-74.110879,40.686417],[-74.111928,40.685899],[-74.112297,40.684391],[-74.111902,40.684087],[-74.112479,40.684199],[-74.11357,40.682583],[-74.113248,40.68217],[-74.113752,40.682282],[-74.11477,40.680803],[-74.114702,40.680061],[-74.114127,40.679703],[-74.114884,40.679842],[-74.115575,40.678719],[-74.116476,40.67875],[-74.116805,40.67801],[-74.117311,40.677792],[-74.118653,40.676369],[-74.118906,40.676397],[-74.120137,40.675385],[-74.120787,40.675305],[-74.121221,40.674977],[-74.122496,40.672703],[-74.123038,40.672485],[-74.123005,40.671964],[-74.12362,40.671526],[-74.124241,40.670073],[-74.124603,40.66991],[-74.123994,40.669084],[-74.125148,40.669061],[-74.124936,40.668374],[-74.12663,40.668352],[-74.126921,40.667996],[-74.126565,40.667199],[-74.125595,40.666482],[-74.126497,40.66643],[-74.12664,40.666623],[-74.126859,40.666211],[-74.12747,40.666433],[-74.12751,40.665719],[-74.128127,40.664925],[-74.128849,40.664818],[-74.129829,40.663531],[-74.130553,40.663121],[-74.130845,40.662326],[-74.131821,40.661973],[-74.131606,40.66167],[-74.132841,40.65989],[-74.132699,40.659615],[-74.133132,40.659506],[-74.135379,40.65718],[-74.135019,40.657179],[-74.134948,40.656987],[-74.135746,40.656083],[-74.135969,40.654876],[-74.137052,40.65455],[-74.137808,40.654662],[-74.138175,40.65351],[-74.137598,40.653426],[-74.137671,40.653344],[-74.137672,40.653234],[-74.137564,40.653207],[-74.137745,40.653042],[-74.137494,40.652657],[-74.136772,40.652875],[-74.136955,40.652436],[-74.136776,40.652161],[-74.137245,40.652217],[-74.137428,40.651641],[-74.138041,40.651506],[-74.138039,40.651863]]],[[[-74.114834,40.657168],[-74.11487,40.657196],[-74.114834,40.657196],[-74.114834,40.657168]]],[[[-74.114978,40.657196],[-74.115014,40.657251],[-74.114978,40.657251],[-74.114978,40.657196]]],[[[-74.11505,40.657279],[-74.115086,40.657251],[-74.115086,40.657279],[-74.11505,40.657279]]],[[[-74.115302,40.657334],[-74.115265,40.657362],[-74.115266,40.657307],[-74.115302,40.657334]]],[[[-74.115374,40.657335],[-74.115409,40.657362],[-74.115373,40.657362],[-74.115374,40.657335]]],[[[-74.115409,40.657362],[-74.115445,40.65739],[-74.115409,40.65739],[-74.115409,40.657362]]],[[[-74.1095,40.669421],[-74.109391,40.66953],[-74.109211,40.669557],[-74.109683,40.6689],[-74.109864,40.668845],[-74.109573,40.669311],[-74.109428,40.669338],[-74.1095,40.669421]],[[-74.109319,40.669502],[-74.109355,40.669475],[-74.109319,40.669475],[-74.109319,40.669502]],[[-74.109355,40.669475],[-74.109392,40.66942],[-74.109356,40.66942],[-74.109355,40.669475]],[[-74.109392,40.66942],[-74.109428,40.669393],[-74.109392,40.669393],[-74.109392,40.66942]],[[-74.109537,40.669256],[-74.109501,40.669283],[-74.109537,40.669284],[-74.109537,40.669256]]],[[[-74.109536,40.669366],[-74.1095,40.669338],[-74.109536,40.669338],[-74.109536,40.669366]]],[[[-74.108197,40.670212],[-74.108162,40.670185],[-74.108198,40.670185],[-74.108197,40.670212]]],[[[-74.108482,40.670872],[-74.108446,40.670845],[-74.108482,40.670845],[-74.108482,40.670872]]],[[[-74.108191,40.671228],[-74.108156,40.6712],[-74.108192,40.671201],[-74.108191,40.671228]]],[[[-74.108119,40.671283],[-74.108155,40.671255],[-74.108155,40.671283],[-74.108119,40.671283]]],[[[-74.107828,40.671721],[-74.107793,40.671583],[-74.107829,40.671584],[-74.107828,40.671721]]],[[[-74.107684,40.671748],[-74.10772,40.67172],[-74.10772,40.671748],[-74.107684,40.671748]]],[[[-74.10772,40.671775],[-74.107756,40.671748],[-74.107756,40.671775],[-74.10772,40.671775]]],[[[-74.10772,40.671775],[-74.107647,40.671803],[-74.107647,40.671775],[-74.10772,40.671775]]],[[[-74.107611,40.671802],[-74.107647,40.67183],[-74.107611,40.67183],[-74.107611,40.671802]]],[[[-74.107179,40.671801],[-74.107215,40.671829],[-74.107178,40.671828],[-74.107179,40.671801]]],[[[-74.107647,40.671857],[-74.107683,40.67183],[-74.107683,40.671858],[-74.107647,40.671857]]],[[[-74.107575,40.671857],[-74.107611,40.671885],[-74.107575,40.671885],[-74.107575,40.671857]]],[[[-74.107611,40.671912],[-74.107647,40.671885],[-74.107647,40.671912],[-74.107611,40.671912]]],[[[-74.106962,40.671883],[-74.106998,40.67191],[-74.106962,40.67191],[-74.106962,40.671883]]],[[[-74.107466,40.672022],[-74.107466,40.671994],[-74.107502,40.671994],[-74.107502,40.672022],[-74.107466,40.672022]]],[[[-74.107538,40.672049],[-74.107502,40.672022],[-74.107538,40.672022],[-74.107538,40.672049]]],[[[-74.107466,40.672049],[-74.10743,40.672021],[-74.107466,40.672022],[-74.107466,40.672049]]],[[[-74.107466,40.672049],[-74.107501,40.672077],[-74.107465,40.672076],[-74.107466,40.672049]]],[[[-74.10743,40.672049],[-74.107393,40.672076],[-74.107393,40.672049],[-74.10743,40.672049]]],[[[-74.107393,40.672159],[-74.107429,40.672186],[-74.107393,40.672186],[-74.107393,40.672159]]],[[[-74.10732,40.672241],[-74.107356,40.672213],[-74.107356,40.672241],[-74.10732,40.672241]]],[[[-74.107103,40.672487],[-74.107139,40.67246],[-74.107139,40.672487],[-74.107103,40.672487]]],[[[-74.107066,40.672514],[-74.107103,40.672487],[-74.107102,40.672514],[-74.107066,40.672514]]],[[[-74.107066,40.672569],[-74.10703,40.672542],[-74.107066,40.672542],[-74.107066,40.672569]]],[[[-74.106957,40.672624],[-74.106993,40.672651],[-74.106957,40.672651],[-74.106957,40.672624]]],[[[-74.106698,40.692277],[-74.105691,40.691752],[-74.106052,40.691671],[-74.117428,40.695141],[-74.116046,40.697297],[-74.110005,40.694183],[-74.109032,40.693905],[-74.109034,40.693685],[-74.108387,40.693271],[-74.106624,40.692579],[-74.106733,40.69247],[-74.106481,40.692331],[-74.106698,40.692277]],[[-74.106698,40.692305],[-74.10677,40.692332],[-74.10677,40.692305],[-74.106698,40.692305]]],[[[-74.109248,40.694098],[-74.109642,40.694456],[-74.110615,40.694706],[-74.116009,40.697359],[-74.114232,40.700952],[-74.107675,40.697772],[-74.10793,40.697387],[-74.107861,40.696811],[-74.106749,40.695846],[-74.10668,40.695379],[-74.105992,40.695761],[-74.10646,40.695927],[-74.107358,40.696507],[-74.107678,40.697249],[-74.107531,40.697702],[-74.102852,40.695432],[-74.102584,40.694789],[-74.102823,40.695009],[-74.103621,40.694271],[-74.105038,40.692409],[-74.109248,40.694098]],[[-74.106101,40.695597],[-74.106065,40.695569],[-74.106065,40.695597],[-74.106101,40.695597]],[[-74.106065,40.695652],[-74.106029,40.695624],[-74.106029,40.695651],[-74.106065,40.695652]],[[-74.106963,40.696258],[-74.106927,40.696286],[-74.106963,40.696286],[-74.106963,40.696258]],[[-74.108995,40.694124],[-74.108959,40.694069],[-74.108887,40.694151],[-74.108995,40.694124]]],[[[-74.106921,40.672651],[-74.106957,40.672679],[-74.106921,40.672679],[-74.106921,40.672651]]],[[[-74.106885,40.672733],[-74.106921,40.672706],[-74.106921,40.672733],[-74.106885,40.672733]]],[[[-74.106849,40.672761],[-74.106885,40.672733],[-74.106885,40.672761],[-74.106849,40.672761]]],[[[-74.106812,40.672815],[-74.106848,40.672788],[-74.106848,40.672816],[-74.106812,40.672815]]],[[[-74.106776,40.672815],[-74.106812,40.672843],[-74.106776,40.672843],[-74.106776,40.672815]]],[[[-74.106703,40.672925],[-74.10674,40.672897],[-74.106739,40.672925],[-74.106703,40.672925]]],[[[-74.106631,40.673007],[-74.106667,40.67298],[-74.106667,40.673007],[-74.106631,40.673007]]],[[[-74.10663,40.673062],[-74.106595,40.673034],[-74.106631,40.673034],[-74.10663,40.673062]]],[[[-74.106522,40.673116],[-74.106558,40.673144],[-74.106522,40.673144],[-74.106522,40.673116]]],[[[-74.106486,40.673144],[-74.106522,40.673171],[-74.106486,40.673171],[-74.106486,40.673144]]],[[[-74.106122,40.673609],[-74.106159,40.673582],[-74.106159,40.673609],[-74.106122,40.673609]]],[[[-74.105977,40.673746],[-74.106013,40.673773],[-74.105977,40.673773],[-74.105977,40.673746]]],[[[-74.105941,40.673828],[-74.105977,40.673801],[-74.105977,40.673828],[-74.105941,40.673828]]],[[[-74.105905,40.673855],[-74.105941,40.673828],[-74.105941,40.673856],[-74.105905,40.673855]]],[[[-74.105868,40.67391],[-74.105905,40.673883],[-74.105904,40.67391],[-74.105868,40.67391]]],[[[-74.105796,40.673965],[-74.105832,40.673992],[-74.105796,40.673992],[-74.105796,40.673965]]],[[[-74.105687,40.674129],[-74.105723,40.674102],[-74.105723,40.674129],[-74.105687,40.674129]]],[[[-74.105614,40.674211],[-74.10565,40.674184],[-74.10565,40.674211],[-74.105614,40.674211]]],[[[-74.105578,40.674239],[-74.105614,40.674211],[-74.105614,40.674239],[-74.105578,40.674239]]],[[[-74.10536,40.674485],[-74.105396,40.674512],[-74.10536,40.674512],[-74.10536,40.674485]]],[[[-74.105288,40.674567],[-74.105323,40.674595],[-74.105287,40.674594],[-74.105288,40.674567]]],[[[-74.105251,40.674622],[-74.105287,40.674594],[-74.105287,40.674622],[-74.105251,40.674622]]],[[[-74.105251,40.674677],[-74.105215,40.674649],[-74.105251,40.674649],[-74.105251,40.674677]]],[[[-74.105178,40.674759],[-74.105142,40.674731],[-74.105178,40.674731],[-74.105178,40.674759]]],[[[-74.105106,40.674813],[-74.105142,40.674786],[-74.105142,40.674814],[-74.105106,40.674813]]],[[[-74.10507,40.674813],[-74.105106,40.674841],[-74.10507,40.674841],[-74.10507,40.674813]]],[[[-74.105069,40.674896],[-74.105033,40.674868],[-74.105069,40.674868],[-74.105069,40.674896]]],[[[-74.104997,40.674923],[-74.105033,40.674896],[-74.105033,40.674923],[-74.104997,40.674923]]],[[[-74.104997,40.674978],[-74.104961,40.67495],[-74.104997,40.67495],[-74.104997,40.674978]]],[[[-74.104924,40.675032],[-74.104961,40.675005],[-74.10496,40.675033],[-74.104924,40.675032]]],[[[-74.104888,40.675032],[-74.104924,40.67506],[-74.104888,40.67506],[-74.104888,40.675032]]],[[[-74.104888,40.675115],[-74.104852,40.675087],[-74.104888,40.675087],[-74.104888,40.675115]]],[[[-74.104816,40.675114],[-74.104852,40.675142],[-74.104815,40.675142],[-74.104816,40.675114]]],[[[-74.104634,40.675361],[-74.10467,40.675334],[-74.10467,40.675361],[-74.104634,40.675361]]],[[[-74.106588,40.692469],[-74.106624,40.692497],[-74.106588,40.692497],[-74.106588,40.692469]]],[[[-74.140744,40.644926],[-74.13972,40.647586],[-74.139213,40.648106],[-74.138385,40.647994],[-74.138099,40.647581],[-74.13727,40.647441],[-74.137308,40.647249],[-74.136517,40.646752],[-74.135939,40.647107],[-74.135905,40.646778],[-74.135436,40.646749],[-74.135722,40.647189],[-74.133991,40.647403],[-74.133918,40.647623],[-74.133234,40.647401],[-74.132331,40.647865],[-74.132297,40.647398],[-74.131503,40.64756],[-74.131397,40.647175],[-74.130929,40.647146],[-74.131435,40.646874],[-74.131076,40.646708],[-74.131151,40.646159],[-74.130607,40.646761],[-74.129892,40.645688],[-74.128054,40.645682],[-74.127876,40.64538],[-74.126826,40.646118],[-74.126325,40.645622],[-74.125741,40.646828],[-74.12502,40.646935],[-74.124874,40.647209],[-74.124369,40.647317],[-74.123505,40.647177],[-74.12369,40.646272],[-74.12344,40.645942],[-74.121853,40.646074],[-74.121023,40.646373],[-74.120587,40.646866],[-74.12073,40.647196],[-74.120368,40.647332],[-74.120646,40.649282],[-74.120898,40.649365],[-74.12086,40.649667],[-74.120644,40.649666],[-74.120713,40.650133],[-74.121397,40.650272],[-74.121431,40.650657],[-74.121683,40.650713],[-74.122296,40.65055],[-74.122877,40.649838],[-74.123343,40.650251],[-74.123308,40.650059],[-74.123813,40.650006],[-74.124067,40.649705],[-74.124354,40.64998],[-74.124387,40.650584],[-74.12471,40.650695],[-74.124312,40.650996],[-74.124419,40.651188],[-74.1255,40.651356],[-74.125389,40.651768],[-74.126326,40.651771],[-74.126216,40.6521],[-74.12697,40.652651],[-74.127332,40.65235],[-74.1278,40.652407],[-74.127724,40.653148],[-74.12931,40.653125],[-74.12985,40.65321],[-74.129885,40.653402],[-74.129308,40.653482],[-74.129198,40.653949],[-74.128945,40.653948],[-74.128876,40.653481],[-74.127435,40.653284],[-74.127071,40.653887],[-74.125593,40.654019],[-74.125341,40.653881],[-74.124799,40.654209],[-74.123753,40.65426],[-74.123644,40.654425],[-74.122995,40.65445],[-74.122925,40.654175],[-74.122706,40.654641],[-74.122346,40.65453],[-74.122092,40.654859],[-74.12148,40.654747],[-74.121338,40.654335],[-74.121085,40.654499],[-74.121228,40.654746],[-74.120292,40.654551],[-74.120722,40.654854],[-74.119353,40.65474],[-74.119277,40.655536],[-74.119529,40.655509],[-74.119493,40.655564],[-74.119529,40.655619],[-74.119383,40.655783],[-74.119383,40.655893],[-74.119059,40.655727],[-74.119022,40.655919],[-74.118661,40.65611],[-74.11848,40.656274],[-74.118443,40.656357],[-74.118479,40.656412],[-74.117721,40.656574],[-74.118911,40.656495],[-74.119274,40.656057],[-74.119054,40.656606],[-74.119452,40.65647],[-74.119595,40.656525],[-74.119161,40.656826],[-74.119233,40.656936],[-74.118616,40.657702],[-74.118508,40.657675],[-74.118471,40.657757],[-74.118399,40.657784],[-74.118362,40.657894],[-74.118254,40.657976],[-74.118253,40.658085],[-74.117891,40.658414],[-74.117854,40.658578],[-74.1176,40.65877],[-74.117454,40.659071],[-74.116704,40.657888],[-74.116452,40.65786],[-74.116381,40.657695],[-74.116344,40.65775],[-74.116236,40.657749],[-74.115841,40.657583],[-74.115805,40.657473],[-74.115481,40.657445],[-74.115482,40.657363],[-74.11541,40.657307],[-74.115302,40.657307],[-74.115338,40.657252],[-74.115193,40.657334],[-74.115014,40.657169],[-74.114654,40.65714],[-74.116631,40.658135],[-74.117024,40.65863],[-74.117236,40.659509],[-74.116687,40.660798],[-74.115381,40.662303],[-74.115021,40.662275],[-74.115237,40.662358],[-74.115127,40.662604],[-74.114694,40.662658],[-74.114259,40.663068],[-74.114007,40.663067],[-74.114189,40.662684],[-74.11401,40.662491],[-74.114443,40.662437],[-74.114481,40.662108],[-74.113654,40.661803],[-74.113073,40.662488],[-74.113574,40.663066],[-74.112782,40.662953],[-74.112528,40.6632],[-74.112707,40.66353],[-74.112021,40.663692],[-74.111584,40.664322],[-74.111691,40.664624],[-74.111112,40.665007],[-74.111146,40.665281],[-74.11024,40.666211],[-74.110093,40.666705],[-74.109185,40.667718],[-74.10868,40.667881],[-74.108169,40.668867],[-74.108383,40.669252],[-74.107987,40.669278],[-74.107731,40.669881],[-74.108018,40.67002],[-74.107945,40.670184],[-74.108126,40.670102],[-74.108125,40.670212],[-74.108269,40.670322],[-74.108232,40.670405],[-74.108377,40.670405],[-74.108304,40.670515],[-74.108375,40.670597],[-74.109138,40.669694],[-74.109209,40.669804],[-74.108411,40.67068],[-74.108446,40.670927],[-74.108264,40.671173],[-74.108156,40.671145],[-74.108083,40.671255],[-74.108119,40.671338],[-74.107937,40.671584],[-74.107685,40.671583],[-74.107394,40.671912],[-74.107357,40.672076],[-74.107465,40.672159],[-74.107393,40.672131],[-74.107393,40.672159],[-74.107321,40.672158],[-74.107284,40.672241],[-74.10696,40.672212],[-74.107069,40.67202],[-74.106852,40.672157],[-74.10707,40.67191],[-74.106998,40.671855],[-74.107142,40.671856],[-74.107105,40.67202],[-74.107359,40.671856],[-74.107,40.671581],[-74.106744,40.672211],[-74.107068,40.672267],[-74.107175,40.67246],[-74.107103,40.672432],[-74.10703,40.672487],[-74.106994,40.672542],[-74.10703,40.672624],[-74.106958,40.672596],[-74.106957,40.672624],[-74.106921,40.672624],[-74.106921,40.672651],[-74.106885,40.672651],[-74.106812,40.672788],[-74.106776,40.672788],[-74.106776,40.672815],[-74.10674,40.672815],[-74.106776,40.672898],[-74.106704,40.67287],[-74.106558,40.673034],[-74.106594,40.673117],[-74.106522,40.673089],[-74.106522,40.673116],[-74.106486,40.673116],[-74.106486,40.673144],[-74.10645,40.673144],[-74.106412,40.673363],[-74.106268,40.673308],[-74.106267,40.673527],[-74.106087,40.673582],[-74.106122,40.673664],[-74.106014,40.673636],[-74.10605,40.673746],[-74.105978,40.673718],[-74.105977,40.673746],[-74.105941,40.673746],[-74.105832,40.673883],[-74.105868,40.673965],[-74.105796,40.673937],[-74.105796,40.673965],[-74.10576,40.673965],[-74.105759,40.674102],[-74.105687,40.674074],[-74.105542,40.674211],[-74.105577,40.674321],[-74.105432,40.674485],[-74.10536,40.674457],[-74.10536,40.674485],[-74.105324,40.674485],[-74.10536,40.674567],[-74.105288,40.67454],[-74.105288,40.674567],[-74.105252,40.674567],[-74.105251,40.674594],[-74.105215,40.674594],[-74.105215,40.674649],[-74.105143,40.674676],[-74.105106,40.674786],[-74.10507,40.674786],[-74.10507,40.674813],[-74.105034,40.674813],[-74.105033,40.674868],[-74.104925,40.674895],[-74.104961,40.67495],[-74.104888,40.675032],[-74.104852,40.675032],[-74.104852,40.675087],[-74.104816,40.675087],[-74.104816,40.675114],[-74.104743,40.675142],[-74.104743,40.675197],[-74.104671,40.675224],[-74.104634,40.675333],[-74.104527,40.675113],[-74.104382,40.675223],[-74.104203,40.675112],[-74.104165,40.675414],[-74.103296,40.676097],[-74.104712,40.674291],[-74.10457,40.674043],[-74.103665,40.674671],[-74.103126,40.674258],[-74.103052,40.674669],[-74.102076,40.675078],[-74.102541,40.675573],[-74.101676,40.675653],[-74.101388,40.675459],[-74.101171,40.675651],[-74.101638,40.675927],[-74.101564,40.676284],[-74.10088,40.676007],[-74.099793,40.677019],[-74.098928,40.676988],[-74.099822,40.678089],[-74.099208,40.678307],[-74.099024,40.67902],[-74.098339,40.678908],[-74.098194,40.679072],[-74.098264,40.679402],[-74.098874,40.679843],[-74.09898,40.680337],[-74.098508,40.680802],[-74.098183,40.680835],[-74.089871,40.677148],[-74.065716,40.66704],[-74.066645,40.665962],[-74.067988,40.666536],[-74.068218,40.6663],[-74.070086,40.667095],[-74.069986,40.667403],[-74.07263,40.668179],[-74.072508,40.66853],[-74.073901,40.669306],[-74.074973,40.669442],[-74.075104,40.669668],[-74.079084,40.671365],[-74.079667,40.671059],[-74.085286,40.67346],[-74.085162,40.673745],[-74.086261,40.675158],[-74.087643,40.675775],[-74.088146,40.675869],[-74.089359,40.675481],[-74.090193,40.676042],[-74.090651,40.675707],[-74.091274,40.675841],[-74.092198,40.67531],[-74.091857,40.674951],[-74.094762,40.675934],[-74.095302,40.67585],[-74.095947,40.6754],[-74.096426,40.67466],[-74.095805,40.674256],[-74.094067,40.673952],[-74.091514,40.672507],[-74.089712,40.672309],[-74.081944,40.669638],[-74.08203,40.669515],[-74.076129,40.667217],[-74.071439,40.66503],[-74.071346,40.665162],[-74.068232,40.663839],[-74.069456,40.662148],[-74.069766,40.662205],[-74.070046,40.661835],[-74.069839,40.661628],[-74.070701,40.660867],[-74.070557,40.660662],[-74.076928,40.663539],[-74.088195,40.667481],[-74.097682,40.669075],[-74.100341,40.669348],[-74.100914,40.669186],[-74.10135,40.669416],[-74.10098,40.669294],[-74.100936,40.669499],[-74.102885,40.669552],[-74.103432,40.669858],[-74.104972,40.669953],[-74.105304,40.669732],[-74.105445,40.670091],[-74.106559,40.670377],[-74.10696,40.670167],[-74.107615,40.669147],[-74.105718,40.668902],[-74.104914,40.669089],[-74.103569,40.668697],[-74.102598,40.668545],[-74.102106,40.668721],[-74.101522,40.66851],[-74.100838,40.667833],[-74.099674,40.667277],[-74.098123,40.665584],[-74.097067,40.665098],[-74.097044,40.664808],[-74.097391,40.664564],[-74.097268,40.664261],[-74.096972,40.664525],[-74.096508,40.664427],[-74.096455,40.664814],[-74.096948,40.665046],[-74.096759,40.665192],[-74.095884,40.665121],[-74.09588,40.664125],[-74.094898,40.664074],[-74.094011,40.664769],[-74.093515,40.66479],[-74.092589,40.664366],[-74.09247,40.664629],[-74.091405,40.66466],[-74.091088,40.664441],[-74.090897,40.664732],[-74.091333,40.664908],[-74.089528,40.66491],[-74.089516,40.664094],[-74.090591,40.664097],[-74.090757,40.663909],[-74.09072,40.663302],[-74.091203,40.662621],[-74.090888,40.661512],[-74.091371,40.662562],[-74.09132,40.66206],[-74.090872,40.660418],[-74.089957,40.65894],[-74.089817,40.658173],[-74.089086,40.657625],[-74.088852,40.656329],[-74.088306,40.656226],[-74.088403,40.655691],[-74.08605,40.655497],[-74.086873,40.654355],[-74.087176,40.654299],[-74.087248,40.653819],[-74.09342,40.650165],[-74.094791,40.649641],[-74.097783,40.649233],[-74.099329,40.649285],[-74.101117,40.649779],[-74.101628,40.649646],[-74.102815,40.649804],[-74.102824,40.650365],[-74.10359,40.650617],[-74.103832,40.650613],[-74.104077,40.64996],[-74.105686,40.650119],[-74.105599,40.650711],[-74.105925,40.651034],[-74.106727,40.651069],[-74.107142,40.651329],[-74.107394,40.651342],[-74.107578,40.650265],[-74.108468,40.650301],[-74.108451,40.650708],[-74.111375,40.650989],[-74.112966,40.650925],[-74.114045,40.65189],[-74.114403,40.651657],[-74.114011,40.65088],[-74.115447,40.65274],[-74.115889,40.652871],[-74.1165,40.652589],[-74.115038,40.650386],[-74.116445,40.652148],[-74.116801,40.65191],[-74.11505,40.649541],[-74.115843,40.649215],[-74.116241,40.649535],[-74.117098,40.648832],[-74.118644,40.64842],[-74.119002,40.647539],[-74.120136,40.646109],[-74.12801,40.644844],[-74.130745,40.64512],[-74.131048,40.644945],[-74.132858,40.645202],[-74.133579,40.645044],[-74.135752,40.645173],[-74.136796,40.645649],[-74.137508,40.645309],[-74.140314,40.644818],[-74.141108,40.644267],[-74.140744,40.644926]],[[-74.131151,40.646159],[-74.131187,40.646104],[-74.131151,40.646104],[-74.131151,40.646159]],[[-74.119277,40.655536],[-74.11924,40.655563],[-74.119277,40.655563],[-74.119277,40.655536]],[[-74.119421,40.655536],[-74.119385,40.655564],[-74.119421,40.655564],[-74.119421,40.655536]],[[-74.119492,40.655619],[-74.119457,40.655591],[-74.119456,40.655619],[-74.119492,40.655619]],[[-74.119059,40.6557],[-74.1191,40.654931],[-74.118812,40.654821],[-74.1187,40.655534],[-74.118844,40.655589],[-74.118807,40.655699],[-74.118915,40.655754],[-74.119059,40.6557]],[[-74.118772,40.655589],[-74.118736,40.655616],[-74.118772,40.655617],[-74.118772,40.655589]],[[-74.118335,40.656411],[-74.118299,40.656384],[-74.118299,40.656411],[-74.118335,40.656411]],[[-74.11887,40.657319],[-74.118834,40.657291],[-74.118834,40.657319],[-74.11887,40.657319]],[[-74.118834,40.657374],[-74.118798,40.657346],[-74.118798,40.657374],[-74.118834,40.657374]],[[-74.118798,40.657374],[-74.118761,40.657401],[-74.118798,40.657401],[-74.118798,40.657374]],[[-74.118761,40.657456],[-74.118725,40.657428],[-74.118725,40.657456],[-74.118761,40.657456]],[[-74.118725,40.657456],[-74.118689,40.657483],[-74.118725,40.657483],[-74.118725,40.657456]],[[-74.118544,40.657675],[-74.11858,40.65762],[-74.118544,40.65762],[-74.118544,40.657675]],[[-74.11858,40.65762],[-74.118616,40.657593],[-74.11858,40.657592],[-74.11858,40.65762]],[[-74.118616,40.657593],[-74.118653,40.657538],[-74.118617,40.657538],[-74.118616,40.657593]],[[-74.118653,40.657538],[-74.118689,40.65751],[-74.118653,40.65751],[-74.118653,40.657538]],[[-74.116596,40.65786],[-74.116632,40.657833],[-74.116596,40.657833],[-74.116596,40.65786]],[[-74.116596,40.657833],[-74.11656,40.657805],[-74.11656,40.657833],[-74.116596,40.657833]],[[-74.115265,40.657472],[-74.115228,40.657499],[-74.115265,40.657499],[-74.115265,40.657472]],[[-74.115337,40.657499],[-74.1153,40.657527],[-74.115336,40.657527],[-74.115337,40.657499]],[[-74.114481,40.662108],[-74.114517,40.662081],[-74.114481,40.662081],[-74.114481,40.662108]],[[-74.109984,40.666705],[-74.109948,40.666677],[-74.109948,40.666705],[-74.109984,40.666705]],[[-74.109948,40.666677],[-74.109913,40.66665],[-74.109912,40.666677],[-74.109948,40.666677]],[[-74.10791,40.670047],[-74.107874,40.670074],[-74.10791,40.670074],[-74.10791,40.670047]],[[-74.108232,40.670405],[-74.108196,40.670432],[-74.108232,40.670432],[-74.108232,40.670405]],[[-74.108339,40.670652],[-74.108303,40.670624],[-74.108267,40.670652],[-74.108339,40.670652]],[[-74.108267,40.670652],[-74.108231,40.670707],[-74.108303,40.670707],[-74.108267,40.670652]],[[-74.108374,40.670844],[-74.108302,40.670789],[-74.108266,40.670844],[-74.108374,40.670844]],[[-74.10841,40.670927],[-74.108374,40.670899],[-74.108373,40.670927],[-74.10841,40.670927]],[[-74.108373,40.670982],[-74.108337,40.670954],[-74.108337,40.670981],[-74.108373,40.670982]],[[-74.108301,40.671064],[-74.108265,40.671036],[-74.108265,40.671063],[-74.108301,40.671064]],[[-74.108264,40.671118],[-74.108228,40.671091],[-74.108228,40.671118],[-74.108264,40.671118]],[[-74.108083,40.671337],[-74.108047,40.67131],[-74.108047,40.671337],[-74.108083,40.671337]],[[-74.108046,40.671392],[-74.10801,40.671365],[-74.10801,40.671392],[-74.108046,40.671392]],[[-74.107974,40.671474],[-74.107938,40.671447],[-74.107938,40.671474],[-74.107974,40.671474]],[[-74.107937,40.671529],[-74.107901,40.671501],[-74.107901,40.671529],[-74.107937,40.671529]],[[-74.105759,40.674047],[-74.105723,40.674019],[-74.105723,40.674047],[-74.105759,40.674047]],[[-74.105505,40.674348],[-74.105469,40.674321],[-74.105469,40.674348],[-74.105505,40.674348]],[[-74.105433,40.67443],[-74.105397,40.674403],[-74.105397,40.67443],[-74.105433,40.67443]],[[-74.105397,40.674403],[-74.105361,40.674375],[-74.105361,40.674403],[-74.105397,40.674403]],[[-74.104383,40.675168],[-74.104419,40.67514],[-74.104383,40.67514],[-74.104383,40.675168]],[[-74.103803,40.675687],[-74.103731,40.67566],[-74.103731,40.675687],[-74.103803,40.675687]],[[-74.099213,40.677401],[-74.099141,40.677456],[-74.099213,40.677456],[-74.099213,40.677401]],[[-74.099069,40.677455],[-74.098563,40.677728],[-74.098417,40.678002],[-74.098706,40.677893],[-74.099069,40.677455]],[[-74.098766,40.679925],[-74.098802,40.67987],[-74.098766,40.67987],[-74.098766,40.679925]]],[[[-74.104416,40.675635],[-74.10438,40.675662],[-74.10438,40.675634],[-74.104416,40.675635]]],[[[-74.104379,40.675717],[-74.104344,40.675689],[-74.10438,40.675689],[-74.104379,40.675717]]],[[[-74.104307,40.675799],[-74.104271,40.675771],[-74.104307,40.675771],[-74.104307,40.675799]]],[[[-74.103982,40.675798],[-74.104019,40.67577],[-74.104018,40.675798],[-74.103982,40.675798]]],[[[-74.103982,40.675825],[-74.103946,40.675853],[-74.103946,40.675825],[-74.103982,40.675825]]],[[[-74.104198,40.675881],[-74.104234,40.675854],[-74.104234,40.675881],[-74.104198,40.675881]]],[[[-74.104489,40.675498],[-74.10409,40.675935],[-74.104089,40.67599],[-74.103981,40.67599],[-74.103836,40.676209],[-74.103582,40.676373],[-74.104054,40.675798],[-74.104019,40.675716],[-74.104201,40.675387],[-74.104345,40.675387],[-74.104489,40.675498]],[[-74.1038,40.676209],[-74.103764,40.676181],[-74.103764,40.676209],[-74.1038,40.676209]],[[-74.104055,40.675716],[-74.104091,40.675743],[-74.104091,40.675716],[-74.104055,40.675716]],[[-74.104091,40.675716],[-74.104127,40.675689],[-74.104091,40.675688],[-74.104091,40.675716]],[[-74.10438,40.67558],[-74.104344,40.675552],[-74.104344,40.675579],[-74.10438,40.67558]]],[[[-74.104162,40.675936],[-74.104198,40.675908],[-74.104198,40.675936],[-74.104162,40.675936]]],[[[-74.104126,40.675963],[-74.104162,40.675936],[-74.104162,40.675963],[-74.104126,40.675963]]],[[[-74.104125,40.676018],[-74.104089,40.67599],[-74.104125,40.67599],[-74.104125,40.676018]]],[[[-74.104089,40.676018],[-74.104017,40.676045],[-74.104017,40.676018],[-74.104089,40.676018]]],[[[-74.10351,40.6764],[-74.103618,40.676428],[-74.10351,40.676455],[-74.10351,40.6764]]],[[[-74.103437,40.676592],[-74.103437,40.676482],[-74.10351,40.676455],[-74.103437,40.676592]]],[[[-74.103292,40.676729],[-74.103147,40.676893],[-74.103401,40.676592],[-74.103292,40.676729]]],[[[-74.10311,40.67692],[-74.103147,40.676893],[-74.103146,40.67692],[-74.10311,40.67692]]],[[[-74.103074,40.67692],[-74.10311,40.676975],[-74.103074,40.676975],[-74.103074,40.67692]]],[[[-74.103002,40.677002],[-74.103074,40.67703],[-74.103001,40.677057],[-74.103002,40.677002]]],[[[-74.102929,40.677084],[-74.103001,40.677112],[-74.102929,40.677139],[-74.102929,40.677084]]],[[[-74.102893,40.677139],[-74.102928,40.677194],[-74.102892,40.677194],[-74.102893,40.677139]]],[[[-74.102856,40.677194],[-74.102892,40.677221],[-74.102856,40.677221],[-74.102856,40.677194]]],[[[-74.10282,40.677276],[-74.102856,40.677221],[-74.102856,40.677276],[-74.10282,40.677276]]],[[[-74.102784,40.677276],[-74.102819,40.677331],[-74.102783,40.677331],[-74.102784,40.677276]]],[[[-74.102711,40.677358],[-74.102783,40.677386],[-74.102711,40.677413],[-74.102711,40.677358]]],[[[-74.102639,40.67744],[-74.102711,40.677468],[-74.102638,40.677495],[-74.102639,40.67744]]],[[[-74.102566,40.677522],[-74.102638,40.67755],[-74.102566,40.677577],[-74.102566,40.677522]]],[[[-74.102529,40.677632],[-74.102566,40.677577],[-74.102565,40.677632],[-74.102529,40.677632]]],[[[-74.102493,40.677632],[-74.102529,40.677659],[-74.102493,40.677659],[-74.102493,40.677632]]],[[[-74.102457,40.677659],[-74.102493,40.677714],[-74.102457,40.677714],[-74.102457,40.677659]]],[[[-74.10242,40.677741],[-74.102457,40.677714],[-74.102456,40.677742],[-74.10242,40.677741]]],[[[-74.102166,40.678015],[-74.102202,40.678043],[-74.102166,40.678042],[-74.102166,40.678015]]],[[[-74.100458,40.68037],[-74.100494,40.680315],[-74.100494,40.68037],[-74.100458,40.68037]]],[[[-74.1025,40.694651],[-74.1025,40.694663],[-74.102493,40.694651],[-74.1025,40.694651]]],[[[-74.102529,40.694706],[-74.102536,40.694706],[-74.102536,40.694716],[-74.102529,40.694706]]],[[[-74.102566,40.694761],[-74.102572,40.694761],[-74.102572,40.69477],[-74.102566,40.694761]]],[[[-74.100385,40.680452],[-74.100458,40.68037],[-74.100457,40.680425],[-74.100385,40.680452]]],[[[-74.10024,40.680589],[-74.100313,40.680534],[-74.100312,40.680589],[-74.10024,40.680589]]],[[[-74.100168,40.680616],[-74.10024,40.680671],[-74.100167,40.680671],[-74.100168,40.680616]]],[[[-74.099807,40.680697],[-74.099843,40.680725],[-74.099807,40.680724],[-74.099807,40.680697]]],[[[-74.099771,40.680724],[-74.099806,40.680752],[-74.09977,40.680752],[-74.099771,40.680724]]],[[[-74.099734,40.680807],[-74.09977,40.680752],[-74.09977,40.680807],[-74.099734,40.680807]]],[[[-74.100058,40.68089],[-74.100095,40.680698],[-74.100167,40.680698],[-74.100058,40.68089]]],[[[-74.099698,40.680806],[-74.099734,40.680834],[-74.099698,40.680834],[-74.099698,40.680806]]],[[[-74.099661,40.680944],[-74.099553,40.680943],[-74.099698,40.680834],[-74.099661,40.680944]]],[[[-74.098232,40.680966],[-74.098327,40.680939],[-74.098327,40.680966],[-74.098232,40.680966]]],[[[-74.099985,40.680972],[-74.099768,40.681136],[-74.099986,40.68089],[-74.099985,40.680972]]],[[[-74.098254,40.680994],[-74.098326,40.681021],[-74.098254,40.681021],[-74.098254,40.680994]]],[[[-74.099516,40.681053],[-74.099553,40.680998],[-74.099552,40.681053],[-74.099516,40.681053]]],[[[-74.09948,40.68108],[-74.099516,40.681053],[-74.099516,40.68108],[-74.09948,40.68108]]],[[[-74.09948,40.681135],[-74.099335,40.681162],[-74.09948,40.68108],[-74.09948,40.681135]]],[[[-74.099299,40.681217],[-74.099335,40.681272],[-74.099298,40.681272],[-74.099299,40.681217]]],[[[-74.099262,40.681299],[-74.099226,40.681326],[-74.099226,40.681299],[-74.099262,40.681299]]],[[[-74.098577,40.681324],[-74.098865,40.68138],[-74.098467,40.681596],[-74.09829,40.681076],[-74.098831,40.68105],[-74.098577,40.681324]],[[-74.098613,40.681352],[-74.098541,40.681379],[-74.098613,40.681379],[-74.098613,40.681352]]],[[[-74.099226,40.681326],[-74.09919,40.681354],[-74.09919,40.681326],[-74.099226,40.681326]]],[[[-74.099297,40.681601],[-74.099478,40.681464],[-74.099296,40.681683],[-74.099297,40.681601]]],[[[-74.098539,40.681598],[-74.098576,40.681571],[-74.098575,40.681599],[-74.098539,40.681598]]],[[[-74.098755,40.681682],[-74.098792,40.681572],[-74.099154,40.681354],[-74.098571,40.681873],[-74.098468,40.681598],[-74.098755,40.681682]]],[[[-74.098935,40.681765],[-74.098899,40.681792],[-74.098899,40.681764],[-74.098935,40.681765]]],[[[-74.098863,40.681792],[-74.098899,40.681819],[-74.098863,40.681819],[-74.098863,40.681792]]],[[[-74.098826,40.681874],[-74.098862,40.681847],[-74.098862,40.681874],[-74.098826,40.681874]]],[[[-74.09879,40.681874],[-74.098826,40.681901],[-74.09879,40.681901],[-74.09879,40.681874]]],[[[-74.098754,40.681901],[-74.09879,40.681929],[-74.098754,40.681929],[-74.098754,40.681901]]],[[[-74.098609,40.681928],[-74.098646,40.681901],[-74.098646,40.681928],[-74.098609,40.681928]]],[[[-74.098681,40.681956],[-74.098753,40.681984],[-74.098681,40.682011],[-74.098681,40.681956]]],[[[-74.098645,40.682011],[-74.098681,40.682038],[-74.098645,40.682038],[-74.098645,40.682011]]],[[[-74.098645,40.682072],[-74.098632,40.682038],[-74.098645,40.682038],[-74.098645,40.682072]]],[[[-74.098827,40.68256],[-74.099115,40.68182],[-74.099223,40.681793],[-74.098827,40.68256]]],[[[-74.099731,40.681356],[-74.100237,40.68111],[-74.100417,40.681221],[-74.100012,40.682564],[-74.099759,40.682646],[-74.09968,40.683771],[-74.099308,40.683852],[-74.098893,40.68267],[-74.09933,40.682095],[-74.099218,40.682671],[-74.099253,40.682781],[-74.099473,40.682288],[-74.099332,40.681684],[-74.099548,40.681739],[-74.099478,40.68141],[-74.099768,40.681136],[-74.099731,40.681356]],[[-74.099217,40.682781],[-74.099181,40.682836],[-74.099217,40.682836],[-74.099217,40.682781]],[[-74.099181,40.682836],[-74.099145,40.682891],[-74.099181,40.682891],[-74.099181,40.682836]],[[-74.099145,40.682836],[-74.099109,40.682808],[-74.099109,40.682836],[-74.099145,40.682836]],[[-74.099512,40.681767],[-74.099548,40.681794],[-74.099548,40.681767],[-74.099512,40.681767]]]]}}]}