{"type":"FeatureCollection","features":[{"type":"Feature","properties":{"level_ft":17},"geometry":{"type":"MultiPolygon","coordinates":[[[[-74.158248,40.644019],[-74.158263,40.644019],[-74.158263,40.644031],[-74.158248,40.644019]]],[[[-74.158282,40.644046],[-74.161391,40.644357],[-74.161303,40.645451],[-74.160077,40.645246],[-74.160206,40.644951],[-74.159668,40.644486],[-74.159018,40.644694],[-74.159247,40.644938],[-74.158912,40.644855],[-74.158282,40.644046]]],[[[-74.138921,40.648736],[-74.138957,40.648709],[-74.138957,40.648737],[-74.138921,40.648736]]],[[[-74.138631,40.64912],[-74.138667,40.649092],[-74.138667,40.64912],[-74.138631,40.64912]]],[[[-74.138523,40.649119],[-74.138378,40.649311],[-74.138415,40.649119],[-74.138523,40.649119]]],[[[-74.138522,40.649257],[-74.138558,40.649202],[-74.138558,40.649257],[-74.138522,40.649257]]],[[[-74.138486,40.649311],[-74.138522,40.649284],[-74.138522,40.649312],[-74.138486,40.649311]]],[[[-74.137252,40.65079],[-74.136744,40.651447],[-74.136314,40.651034],[-74.136531,40.650925],[-74.136854,40.651173],[-74.137252,40.65079]]],[[[-74.137142,40.651201],[-74.137178,40.651229],[-74.137142,40.651229],[-74.137142,40.651201]]],[[[-74.135474,40.653035],[-74.135115,40.652869],[-74.135188,40.652568],[-74.134934,40.652951],[-74.135008,40.652595],[-74.133962,40.652646],[-74.133315,40.65237],[-74.135045,40.652348],[-74.135266,40.651607],[-74.13559,40.651608],[-74.135478,40.652376],[-74.135693,40.652597],[-74.135404,40.652733],[-74.135367,40.652925],[-74.135619,40.652899],[-74.135619,40.652953],[-74.135583,40.652953],[-74.135582,40.652981],[-74.135546,40.652981],[-74.135546,40.653008],[-74.13551,40.653008],[-74.13551,40.653035],[-74.135474,40.653035]],[[-74.135366,40.65298],[-74.135402,40.652953],[-74.135366,40.652953],[-74.135366,40.65298]]],[[[-74.135115,40.652869],[-74.135078,40.652897],[-74.135078,40.652869],[-74.135115,40.652869]]],[[[-74.135619,40.652953],[-74.135655,40.652981],[-74.135619,40.652981],[-74.135619,40.652953]]],[[[-74.135618,40.653008],[-74.135582,40.652981],[-74.135619,40.652981],[-74.135618,40.653008]]],[[[-74.135582,40.653036],[-74.135546,40.653008],[-74.135582,40.653008],[-74.135582,40.653036]]],[[[-74.134933,40.653061],[-74.135006,40.652979],[-74.135005,40.653061],[-74.134933,40.653061]]],[[[-74.135433,40.653968],[-74.136012,40.653586],[-74.136372,40.653615],[-74.136009,40.654025],[-74.135433,40.653968]]],[[[-74.133126,40.654016],[-74.134389,40.653691],[-74.134063,40.653992],[-74.133126,40.654016]]],[[[-74.133882,40.654128],[-74.13464,40.653939],[-74.133773,40.654238],[-74.133882,40.654128]]],[[[-74.129016,40.654168],[-74.129052,40.65414],[-74.129052,40.654168],[-74.129016,40.654168]]],[[[-74.133666,40.654155],[-74.13381,40.654128],[-74.133665,40.654265],[-74.133666,40.654155]]],[[[-74.133881,40.654375],[-74.133809,40.654403],[-74.133809,40.654375],[-74.133881,40.654375]]],[[[-74.13352,40.654402],[-74.133808,40.65443],[-74.133484,40.654456],[-74.13352,40.654402]]],[[[-74.133736,40.65454],[-74.133195,40.65462],[-74.133195,40.654538],[-74.133736,40.65454]]],[[[-74.11982,40.655099],[-74.119856,40.655126],[-74.11982,40.655126],[-74.11982,40.655099]]],[[[-74.120391,40.656089],[-74.120427,40.656061],[-74.120427,40.656089],[-74.120391,40.656089]]],[[[-74.131336,40.658293],[-74.130546,40.657769],[-74.130439,40.657549],[-74.131554,40.657991],[-74.131915,40.657855],[-74.132056,40.658515],[-74.13166,40.658431],[-74.13119,40.658731],[-74.131336,40.658293]]],[[[-74.11825,40.658662],[-74.118286,40.658635],[-74.118286,40.658662],[-74.11825,40.658662]]],[[[-74.129878,40.654774],[-74.129731,40.655213],[-74.130306,40.655544],[-74.12998,40.655845],[-74.130661,40.656506],[-74.131166,40.656453],[-74.131128,40.656755],[-74.131559,40.657168],[-74.130947,40.657029],[-74.130367,40.657493],[-74.130224,40.657301],[-74.130588,40.656753],[-74.129759,40.656778],[-74.128464,40.65617],[-74.128427,40.656417],[-74.128138,40.656443],[-74.128209,40.656718],[-74.12774,40.656881],[-74.128277,40.657432],[-74.127558,40.657183],[-74.127304,40.657456],[-74.127914,40.657842],[-74.127913,40.658144],[-74.127194,40.657813],[-74.126904,40.658114],[-74.127837,40.658776],[-74.126614,40.658332],[-74.126289,40.658414],[-74.125895,40.658001],[-74.125246,40.658026],[-74.124884,40.658354],[-74.123263,40.658074],[-74.12269,40.657496],[-74.122759,40.658045],[-74.122255,40.657879],[-74.121822,40.658015],[-74.121895,40.657823],[-74.121571,40.657712],[-74.121605,40.658042],[-74.121029,40.65804],[-74.12135,40.65859],[-74.120774,40.658451],[-74.120412,40.658669],[-74.120486,40.658395],[-74.120089,40.658558],[-74.12059,40.659136],[-74.120193,40.65919],[-74.119794,40.659738],[-74.120369,40.660014],[-74.119935,40.66015],[-74.119468,40.659929],[-74.119214,40.660202],[-74.119462,40.660917],[-74.118882,40.661546],[-74.118952,40.661958],[-74.118304,40.661709],[-74.117223,40.661733],[-74.117149,40.66209],[-74.117471,40.66242],[-74.116894,40.662446],[-74.116605,40.662582],[-74.116712,40.662829],[-74.116316,40.6628],[-74.116278,40.663047],[-74.115556,40.663265],[-74.115343,40.662687],[-74.115668,40.662634],[-74.115706,40.662249],[-74.120206,40.656939],[-74.121654,40.655791],[-74.123678,40.654864],[-74.126024,40.654323],[-74.127538,40.654245],[-74.127501,40.65441],[-74.12822,40.654687],[-74.128941,40.654689],[-74.128979,40.65436],[-74.129195,40.65436],[-74.12923,40.654635],[-74.129878,40.654774]],[[-74.12629,40.658304],[-74.126326,40.658277],[-74.12629,40.658276],[-74.12629,40.658304]],[[-74.116894,40.662446],[-74.116822,40.662418],[-74.116822,40.662445],[-74.116894,40.662446]],[[-74.128941,40.654689],[-74.128977,40.654717],[-74.128977,40.654689],[-74.128941,40.654689]],[[-74.128978,40.654634],[-74.129013,40.654662],[-74.129014,40.654634],[-74.128978,40.654634]]],[[[-74.114401,40.663535],[-74.114365,40.663563],[-74.114365,40.663535],[-74.114401,40.663535]]],[[[-74.114364,40.663618],[-74.114328,40.663645],[-74.114328,40.663617],[-74.114364,40.663618]]],[[[-74.137322,40.651284],[-74.137685,40.650764],[-74.138009,40.650902],[-74.138372,40.650409],[-74.138229,40.650079],[-74.138735,40.649944],[-74.138701,40.649395],[-74.140045,40.64745],[-74.141323,40.644352],[-74.141982,40.64453],[-74.14188,40.644033],[-74.143813,40.643797],[-74.163014,40.645898],[-74.15809,40.649737],[-74.14726,40.655124],[-74.142721,40.658943],[-74.140573,40.661318],[-74.132507,40.672932],[-74.125251,40.68406],[-74.120322,40.69066],[-74.117554,40.694949],[-74.106089,40.691479],[-74.107495,40.691594],[-74.108367,40.690526],[-74.1079,40.690223],[-74.107322,40.69033],[-74.107472,40.68937],[-74.108631,40.688578],[-74.109279,40.68869],[-74.109789,40.687868],[-74.109649,40.687182],[-74.110154,40.687101],[-74.110879,40.68639],[-74.111928,40.685844],[-74.111786,40.685459],[-74.112261,40.68439],[-74.111793,40.684279],[-74.111723,40.684004],[-74.112012,40.683895],[-74.112442,40.684226],[-74.11357,40.682556],[-74.113068,40.682115],[-74.113752,40.682227],[-74.114734,40.680803],[-74.114666,40.680089],[-74.113802,40.679784],[-74.113804,40.679509],[-74.114597,40.679512],[-74.114848,40.679815],[-74.115575,40.678692],[-74.116549,40.678613],[-74.116769,40.67801],[-74.117275,40.677792],[-74.118654,40.676341],[-74.118906,40.67637],[-74.120137,40.675358],[-74.120859,40.675251],[-74.121367,40.674731],[-74.122095,40.67347],[-74.121771,40.673387],[-74.121737,40.673085],[-74.122314,40.672977],[-74.1221,40.672537],[-74.122679,40.672237],[-74.122825,40.671881],[-74.123221,40.671937],[-74.123913,40.670759],[-74.124025,40.670128],[-74.123736,40.670154],[-74.123738,40.669742],[-74.123415,40.669494],[-74.124315,40.669799],[-74.123491,40.668836],[-74.124284,40.668866],[-74.124463,40.669059],[-74.124897,40.66895],[-74.124899,40.668593],[-74.124324,40.668125],[-74.125332,40.668403],[-74.125695,40.667937],[-74.126128,40.667966],[-74.12649,40.667583],[-74.125305,40.666783],[-74.124474,40.66711],[-74.124661,40.666012],[-74.125778,40.666071],[-74.126068,40.665742],[-74.127293,40.665829],[-74.127364,40.665993],[-74.128091,40.664925],[-74.128777,40.664845],[-74.129793,40.663558],[-74.130444,40.663176],[-74.130773,40.662299],[-74.131712,40.662],[-74.13157,40.661725],[-74.132114,40.661123],[-74.131972,40.660738],[-74.132406,40.660355],[-74.132626,40.659642],[-74.133132,40.659479],[-74.134509,40.658083],[-74.134909,40.657535],[-74.134658,40.657342],[-74.134877,40.656849],[-74.135638,40.656028],[-74.1355,40.654875],[-74.13579,40.654656],[-74.135176,40.654791],[-74.135142,40.654517],[-74.13554,40.654106],[-74.135973,40.65408],[-74.135899,40.654382],[-74.136512,40.654466],[-74.137197,40.654331],[-74.137415,40.65403],[-74.137417,40.6537],[-74.13702,40.653699],[-74.137203,40.65326],[-74.136517,40.653368],[-74.136375,40.653038],[-74.136704,40.652271],[-74.137102,40.651833],[-74.13714,40.651531],[-74.137285,40.651421],[-74.137322,40.651284]],[[-74.135638,40.656028],[-74.135674,40.656055],[-74.135674,40.656028],[-74.135638,40.656028]],[[-74.13743,40.651175],[-74.137466,40.651202],[-74.137466,40.651175],[-74.13743,40.651175]],[[-74.137503,40.651065],[-74.137539,40.651093],[-74.137539,40.651065],[-74.137503,40.651065]]],[[[-74.114328,40.663562],[-74.114364,40.66359],[-74.114328,40.66359],[-74.114328,40.663562]]],[[[-74.113857,40.664055],[-74.113893,40.664028],[-74.113893,40.664055],[-74.113857,40.664055]]],[[[-74.113785,40.66411],[-74.11382,40.664137],[-74.113784,40.664137],[-74.113785,40.66411]]],[[[-74.113784,40.664137],[-74.113603,40.664356],[-74.11353,40.664438],[-74.11353,40.664493],[-74.113458,40.66452],[-74.113531,40.664328],[-74.113784,40.664137]]],[[[-74.11382,40.664137],[-74.113783,40.664302],[-74.113529,40.664603],[-74.11382,40.664137]]],[[[-74.113457,40.664575],[-74.113313,40.664602],[-74.113458,40.66452],[-74.113457,40.664575]]],[[[-74.113276,40.664739],[-74.113204,40.664821],[-74.113204,40.664739],[-74.113276,40.664739]]],[[[-74.113059,40.664903],[-74.113095,40.664986],[-74.113059,40.664986],[-74.113059,40.664903]]],[[[-74.113022,40.665068],[-74.112986,40.665095],[-74.112986,40.665068],[-74.113022,40.665068]]],[[[-74.112986,40.665095],[-74.11295,40.665123],[-74.11295,40.665095],[-74.112986,40.665095]]],[[[-74.112804,40.665314],[-74.112768,40.665342],[-74.112768,40.665314],[-74.112804,40.665314]]],[[[-74.112696,40.665424],[-74.112768,40.665342],[-74.112732,40.665424],[-74.112696,40.665424]]],[[[-74.11255,40.665615],[-74.112514,40.665643],[-74.112514,40.665615],[-74.11255,40.665615]]],[[[-74.113529,40.664603],[-74.112731,40.665561],[-74.112802,40.665671],[-74.111569,40.667039],[-74.111568,40.667149],[-74.111351,40.667341],[-74.11135,40.667423],[-74.111169,40.667615],[-74.111096,40.667642],[-74.111096,40.667724],[-74.11106,40.667724],[-74.11106,40.667697],[-74.110988,40.667696],[-74.110952,40.667669],[-74.110917,40.667586],[-74.110808,40.667668],[-74.110917,40.667449],[-74.111025,40.667532],[-74.111351,40.667203],[-74.111569,40.666902],[-74.111462,40.666792],[-74.112406,40.66567],[-74.11255,40.665698],[-74.112587,40.665451],[-74.112731,40.665479],[-74.112804,40.665397],[-74.112841,40.66515],[-74.112985,40.665178],[-74.113529,40.664603]],[[-74.111242,40.667478],[-74.111206,40.66745],[-74.111206,40.667477],[-74.111242,40.667478]],[[-74.110917,40.667586],[-74.110953,40.667559],[-74.110917,40.667559],[-74.110917,40.667586]],[[-74.111534,40.66682],[-74.111606,40.666793],[-74.111642,40.666738],[-74.111534,40.66682]],[[-74.111752,40.666546],[-74.111824,40.666574],[-74.111824,40.666519],[-74.111752,40.666546]],[[-74.111751,40.666601],[-74.111715,40.666656],[-74.111751,40.666656],[-74.111751,40.666601]],[[-74.111715,40.666711],[-74.111643,40.666683],[-74.111643,40.66671],[-74.111715,40.666711]],[[-74.112296,40.665944],[-74.112151,40.666136],[-74.112223,40.666136],[-74.112296,40.665944]],[[-74.112151,40.666136],[-74.112114,40.666163],[-74.112151,40.666163],[-74.112151,40.666136]],[[-74.112114,40.666163],[-74.112078,40.666218],[-74.112114,40.666218],[-74.112114,40.666163]],[[-74.112078,40.6663],[-74.112006,40.666245],[-74.112006,40.6663],[-74.112078,40.6663]],[[-74.112005,40.666382],[-74.111969,40.666355],[-74.111824,40.666491],[-74.111932,40.666492],[-74.112005,40.666382]],[[-74.112296,40.665944],[-74.112332,40.665917],[-74.112296,40.665916],[-74.112296,40.665944]],[[-74.112332,40.665917],[-74.112369,40.665862],[-74.112333,40.665862],[-74.112332,40.665917]],[[-74.112369,40.665862],[-74.112405,40.665834],[-74.112369,40.665834],[-74.112369,40.665862]],[[-74.112514,40.665698],[-74.112478,40.665725],[-74.112514,40.665725],[-74.112514,40.665698]],[[-74.112478,40.665725],[-74.112441,40.66578],[-74.112477,40.66578],[-74.112478,40.665725]],[[-74.112441,40.66578],[-74.112405,40.665807],[-74.112441,40.665807],[-74.112441,40.66578]],[[-74.112586,40.665615],[-74.112623,40.665561],[-74.112587,40.665561],[-74.112586,40.665615]],[[-74.112623,40.665561],[-74.112659,40.665533],[-74.112623,40.665533],[-74.112623,40.665561]],[[-74.112695,40.665479],[-74.112659,40.665506],[-74.112695,40.665506],[-74.112695,40.665479]],[[-74.112841,40.665259],[-74.112913,40.665287],[-74.112913,40.665232],[-74.112841,40.665259]],[[-74.112949,40.665177],[-74.112913,40.665205],[-74.112949,40.665205],[-74.112949,40.665177]]],[[[-74.111389,40.666956],[-74.111425,40.666984],[-74.111389,40.666984],[-74.111389,40.666956]]],[[[-74.11128,40.667093],[-74.111207,40.667175],[-74.111208,40.667093],[-74.11128,40.667093]]],[[[-74.111171,40.667285],[-74.111063,40.667257],[-74.111207,40.667175],[-74.111171,40.667285]]],[[[-74.111026,40.667394],[-74.111062,40.667422],[-74.111026,40.667422],[-74.111026,40.667394]]],[[[-74.111386,40.667451],[-74.11135,40.667423],[-74.111386,40.667423],[-74.111386,40.667451]]],[[[-74.111132,40.667752],[-74.111096,40.667724],[-74.111132,40.667724],[-74.111132,40.667752]]],[[[-74.110915,40.667916],[-74.110951,40.667943],[-74.110914,40.667943],[-74.110915,40.667916]]],[[[-74.110914,40.667998],[-74.110878,40.66797],[-74.110914,40.667971],[-74.110914,40.667998]]],[[[-74.110878,40.668025],[-74.110842,40.667998],[-74.110878,40.667998],[-74.110878,40.668025]]],[[[-74.110842,40.66808],[-74.110806,40.668053],[-74.110842,40.668053],[-74.110842,40.66808]]],[[[-74.110805,40.668107],[-74.110769,40.66808],[-74.110806,40.66808],[-74.110805,40.668107]]],[[[-74.110769,40.668162],[-74.110733,40.668135],[-74.110769,40.668135],[-74.110769,40.668162]]],[[[-74.110733,40.66819],[-74.110697,40.668162],[-74.110733,40.668162],[-74.110733,40.66819]]],[[[-74.110696,40.668244],[-74.110661,40.668217],[-74.110697,40.668217],[-74.110696,40.668244]]],[[[-74.11066,40.668272],[-74.110624,40.668244],[-74.11066,40.668244],[-74.11066,40.668272]]],[[[-74.110624,40.668326],[-74.110588,40.668299],[-74.110624,40.668299],[-74.110624,40.668326]]],[[[-74.106194,40.692138],[-74.105511,40.691697],[-74.106052,40.691671],[-74.117428,40.695141],[-74.116046,40.697297],[-74.109968,40.694182],[-74.109032,40.693905],[-74.108423,40.693326],[-74.10612,40.692385],[-74.106194,40.692138]]],[[[-74.110588,40.668354],[-74.110552,40.668326],[-74.110588,40.668326],[-74.110588,40.668354]]],[[[-74.110551,40.668409],[-74.110515,40.668381],[-74.110551,40.668381],[-74.110551,40.668409]]],[[[-74.110515,40.668436],[-74.110479,40.668408],[-74.110515,40.668408],[-74.110515,40.668436]]],[[[-74.110479,40.668463],[-74.110443,40.668491],[-74.110443,40.668463],[-74.110479,40.668463]]],[[[-74.110806,40.667998],[-74.110443,40.668408],[-74.110406,40.6686],[-74.110188,40.668847],[-74.11008,40.668846],[-74.110116,40.668929],[-74.110044,40.668901],[-74.110007,40.668928],[-74.110043,40.669011],[-74.109971,40.668983],[-74.109971,40.66901],[-74.109935,40.66901],[-74.109935,40.669038],[-74.109899,40.669038],[-74.109898,40.669093],[-74.109862,40.669092],[-74.109862,40.669147],[-74.109826,40.669147],[-74.109826,40.669175],[-74.10979,40.669175],[-74.10979,40.669202],[-74.109754,40.669202],[-74.109753,40.669284],[-74.109717,40.669312],[-74.109681,40.669311],[-74.109644,40.669366],[-74.10968,40.669449],[-74.109608,40.669421],[-74.109535,40.669503],[-74.109571,40.669586],[-74.109499,40.669558],[-74.109499,40.669585],[-74.109463,40.669585],[-74.109463,40.669613],[-74.109427,40.669613],[-74.109283,40.669502],[-74.109211,40.669584],[-74.110699,40.667723],[-74.110951,40.667833],[-74.110915,40.667916],[-74.110879,40.667916],[-74.110878,40.66797],[-74.110806,40.667998]],[[-74.110406,40.668545],[-74.11037,40.668518],[-74.11037,40.668545],[-74.110406,40.668545]],[[-74.110334,40.668627],[-74.110298,40.6686],[-74.110298,40.668627],[-74.110334,40.668627]],[[-74.110261,40.66871],[-74.110225,40.668682],[-74.110225,40.668709],[-74.110261,40.66871]],[[-74.110189,40.668792],[-74.110153,40.668764],[-74.110152,40.668792],[-74.110189,40.668792]]],[[[-74.110152,40.668846],[-74.110116,40.668874],[-74.110116,40.668846],[-74.110152,40.668846]]],[[[-74.11008,40.668929],[-74.110043,40.668956],[-74.110044,40.668928],[-74.11008,40.668929]]],[[[-74.110007,40.669038],[-74.109971,40.66901],[-74.110007,40.669011],[-74.110007,40.669038]]],[[[-74.109934,40.66912],[-74.109898,40.669093],[-74.109934,40.669093],[-74.109934,40.66912]]],[[[-74.109898,40.669175],[-74.109862,40.669147],[-74.109898,40.669147],[-74.109898,40.669175]]],[[[-74.109862,40.669202],[-74.109826,40.669175],[-74.109862,40.669175],[-74.109862,40.669202]]],[[[-74.109789,40.669312],[-74.109753,40.669284],[-74.109789,40.669284],[-74.109789,40.669312]]],[[[-74.109753,40.669339],[-74.109717,40.669312],[-74.109753,40.669312],[-74.109753,40.669339]]],[[[-74.109717,40.669366],[-74.10968,40.669394],[-74.10968,40.669366],[-74.109717,40.669366]]],[[[-74.109644,40.669449],[-74.109608,40.669476],[-74.109608,40.669448],[-74.109644,40.669449]]],[[[-74.109608,40.669503],[-74.109571,40.669531],[-74.109572,40.669503],[-74.109608,40.669503]]],[[[-74.109535,40.669613],[-74.109499,40.669585],[-74.109535,40.669585],[-74.109535,40.669613]]],[[[-74.109353,40.669804],[-74.109317,40.669832],[-74.109317,40.669804],[-74.109353,40.669804]]],[[[-74.109281,40.669887],[-74.109245,40.669914],[-74.109245,40.669886],[-74.109281,40.669887]]],[[[-74.109027,40.670188],[-74.108991,40.670215],[-74.108991,40.670188],[-74.109027,40.670188]]],[[[-74.107071,40.671746],[-74.107143,40.671773],[-74.107071,40.671773],[-74.107071,40.671746]]],[[[-74.107356,40.672241],[-74.10732,40.672213],[-74.107356,40.672213],[-74.107356,40.672241]]],[[[-74.10732,40.672296],[-74.107284,40.672268],[-74.10732,40.672268],[-74.10732,40.672296]]],[[[-74.106921,40.672706],[-74.106885,40.672733],[-74.106885,40.672706],[-74.106921,40.672706]]],[[[-74.106848,40.672788],[-74.106812,40.672815],[-74.106812,40.672788],[-74.106848,40.672788]]],[[[-74.104779,40.675224],[-74.104743,40.675251],[-74.104743,40.675224],[-74.104779,40.675224]]],[[[-74.103965,40.69095],[-74.10436,40.691116],[-74.104396,40.691254],[-74.103928,40.691087],[-74.103965,40.69095]]],[[[-74.10371,40.691389],[-74.103855,40.691224],[-74.10425,40.691473],[-74.104033,40.691664],[-74.10371,40.691389]]],[[[-74.106048,40.692303],[-74.106085,40.692275],[-74.106085,40.692303],[-74.106048,40.692303]]],[[[-74.106084,40.69233],[-74.106121,40.692303],[-74.10612,40.69233],[-74.106084,40.69233]]],[[[-74.109248,40.694098],[-74.116009,40.697359],[-74.114232,40.700952],[-74.102852,40.695432],[-74.102511,40.694679],[-74.102896,40.694872],[-74.103152,40.694269],[-74.104129,40.693723],[-74.104855,40.692847],[-74.104786,40.692298],[-74.109248,40.694098]],[[-74.108996,40.694014],[-74.108959,40.694042],[-74.108996,40.694042],[-74.108996,40.694014]]],[[[-74.139466,40.647997],[-74.139066,40.6486],[-74.138524,40.648818],[-74.1377,40.647937],[-74.137519,40.648156],[-74.137231,40.648017],[-74.137018,40.647495],[-74.136657,40.647659],[-74.136261,40.64741],[-74.135863,40.647821],[-74.135794,40.647272],[-74.135506,40.647188],[-74.135033,40.647901],[-74.134387,40.647487],[-74.13377,40.648336],[-74.133481,40.648335],[-74.133339,40.64795],[-74.132689,40.648168],[-74.133517,40.648472],[-74.131787,40.648494],[-74.132221,40.648221],[-74.132185,40.648056],[-74.131427,40.648274],[-74.130964,40.647339],[-74.130748,40.647283],[-74.130638,40.647722],[-74.130458,40.647584],[-74.130313,40.647721],[-74.129854,40.646072],[-74.12946,40.645687],[-74.129313,40.646071],[-74.128774,40.645877],[-74.127296,40.645927],[-74.126968,40.646557],[-74.126464,40.646473],[-74.126102,40.646829],[-74.126208,40.647186],[-74.123682,40.647672],[-74.123857,40.648633],[-74.123423,40.648934],[-74.123566,40.649127],[-74.124035,40.649073],[-74.124355,40.649761],[-74.124859,40.649982],[-74.124748,40.650393],[-74.125467,40.650725],[-74.125213,40.650971],[-74.125683,40.650835],[-74.125968,40.651303],[-74.126905,40.651333],[-74.126976,40.651553],[-74.126615,40.651717],[-74.127477,40.652159],[-74.128199,40.651969],[-74.128735,40.652877],[-74.1296,40.652962],[-74.129635,40.653127],[-74.130285,40.652882],[-74.130535,40.653239],[-74.130824,40.653075],[-74.131544,40.653242],[-74.131835,40.652886],[-74.1323,40.653382],[-74.129596,40.653538],[-74.129235,40.653619],[-74.129198,40.653949],[-74.128945,40.653948],[-74.128911,40.653673],[-74.127866,40.653505],[-74.127396,40.653888],[-74.125593,40.654019],[-74.122055,40.654941],[-74.121515,40.654912],[-74.120972,40.655322],[-74.11946,40.65496],[-74.11935,40.655399],[-74.119676,40.655125],[-74.120072,40.655127],[-74.119456,40.655729],[-74.119527,40.655976],[-74.119996,40.655895],[-74.120644,40.655925],[-74.120211,40.656115],[-74.119955,40.656719],[-74.118141,40.658689],[-74.117487,40.659675],[-74.117312,40.658823],[-74.116668,40.657888],[-74.116488,40.657915],[-74.115445,40.657472],[-74.116379,40.657969],[-74.116882,40.658355],[-74.117238,40.659125],[-74.117124,40.660113],[-74.114293,40.663535],[-74.114328,40.6637],[-74.113965,40.664138],[-74.114402,40.663233],[-74.113751,40.66367],[-74.113356,40.663477],[-74.11321,40.663806],[-74.1122,40.663802],[-74.112414,40.66427],[-74.112125,40.664379],[-74.111942,40.6649],[-74.111472,40.665063],[-74.111397,40.665474],[-74.110964,40.665665],[-74.110962,40.665994],[-74.110673,40.666076],[-74.110453,40.666679],[-74.110056,40.666787],[-74.1098,40.667473],[-74.109185,40.667745],[-74.108351,40.668566],[-74.108527,40.669335],[-74.108023,40.669278],[-74.108092,40.669663],[-74.108344,40.669746],[-74.108666,40.670214],[-74.109138,40.669694],[-74.109317,40.669887],[-74.109209,40.669886],[-74.109244,40.669969],[-74.109099,40.67016],[-74.108955,40.670187],[-74.10899,40.67027],[-74.108772,40.670599],[-74.108009,40.671557],[-74.108478,40.671476],[-74.109053,40.671862],[-74.109196,40.672027],[-74.109087,40.672302],[-74.109375,40.672275],[-74.10984,40.672881],[-74.109012,40.672658],[-74.109154,40.673043],[-74.108866,40.673042],[-74.108004,40.672517],[-74.107426,40.67268],[-74.107645,40.672269],[-74.107357,40.672186],[-74.106852,40.672184],[-74.106998,40.671855],[-74.107286,40.671884],[-74.107215,40.671746],[-74.106999,40.671636],[-74.106744,40.672211],[-74.107211,40.67246],[-74.106957,40.672706],[-74.106885,40.672678],[-74.106849,40.672706],[-74.106884,40.672788],[-74.106812,40.67276],[-74.106776,40.672788],[-74.106812,40.67287],[-74.106448,40.673363],[-74.104815,40.675224],[-74.104743,40.675197],[-74.104707,40.675224],[-74.104706,40.675361],[-74.104094,40.675222],[-74.104094,40.675277],[-74.104561,40.67547],[-74.104561,40.675525],[-74.103617,40.676648],[-74.103545,40.67662],[-74.103509,40.676647],[-74.103399,40.676921],[-74.103291,40.676921],[-74.103254,40.676976],[-74.10329,40.677031],[-74.103218,40.677003],[-74.103218,40.67703],[-74.103182,40.67703],[-74.103145,40.677222],[-74.103036,40.677222],[-74.103036,40.677249],[-74.103,40.677249],[-74.103,40.677304],[-74.102964,40.677304],[-74.102999,40.677387],[-74.102927,40.677359],[-74.102927,40.677386],[-74.102891,40.677386],[-74.102891,40.677441],[-74.102819,40.677468],[-74.102818,40.677523],[-74.102746,40.67755],[-74.102746,40.677633],[-74.102673,40.67766],[-74.102673,40.677715],[-74.102637,40.677715],[-74.102637,40.67777],[-74.102601,40.677769],[-74.102636,40.677852],[-74.102381,40.678263],[-74.102164,40.678427],[-74.102092,40.678399],[-74.102092,40.678427],[-74.10202,40.678426],[-74.101552,40.678233],[-74.102019,40.678618],[-74.101946,40.678701],[-74.101838,40.678673],[-74.101838,40.678728],[-74.101802,40.678727],[-74.10173,40.678672],[-74.101694,40.6787],[-74.101657,40.678837],[-74.101801,40.678865],[-74.1018,40.678975],[-74.101546,40.679331],[-74.101257,40.679384],[-74.101257,40.679412],[-74.101221,40.679412],[-74.10122,40.679439],[-74.101184,40.679439],[-74.101184,40.679467],[-74.101148,40.679466],[-74.101111,40.679576],[-74.101075,40.679576],[-74.101075,40.679631],[-74.101039,40.679631],[-74.101039,40.679658],[-74.101003,40.679658],[-74.101003,40.679713],[-74.100966,40.679713],[-74.100966,40.67985],[-74.100821,40.679877],[-74.101359,40.6804],[-74.100887,40.680893],[-74.100957,40.68125],[-74.100668,40.681359],[-74.101061,40.681992],[-74.100302,40.682291],[-74.100337,40.682538],[-74.100625,40.682594],[-74.100364,40.683938],[-74.100075,40.684074],[-74.100541,40.684598],[-74.100173,40.685722],[-74.10046,40.68608],[-74.100026,40.686284],[-74.098878,40.682698],[-74.099294,40.682095],[-74.099326,40.682644],[-74.099403,40.681849],[-74.099081,40.681463],[-74.099186,40.682067],[-74.098837,40.682588],[-74.098861,40.682039],[-74.098663,40.68212],[-74.09813,40.680694],[-74.065716,40.66704],[-74.066645,40.665962],[-74.067988,40.666536],[-74.068218,40.6663],[-74.070086,40.667095],[-74.069986,40.667403],[-74.07263,40.668179],[-74.072508,40.66853],[-74.073901,40.669306],[-74.074973,40.669442],[-74.075104,40.669668],[-74.079084,40.671365],[-74.079667,40.671059],[-74.085286,40.67346],[-74.085162,40.673745],[-74.086261,40.675158],[-74.087643,40.675775],[-74.088146,40.675869],[-74.089359,40.675481],[-74.090193,40.676042],[-74.090651,40.675707],[-74.091274,40.675841],[-74.092198,40.67531],[-74.091857,40.674951],[-74.094968,40.67594],[-74.095895,40.67545],[-74.096426,40.67466],[-74.095805,40.674256],[-74.094067,40.673952],[-74.091514,40.672507],[-74.089712,40.672309],[-74.081944,40.669638],[-74.08203,40.669515],[-74.076129,40.667217],[-74.071439,40.66503],[-74.071346,40.665162],[-74.068232,40.663839],[-74.069456,40.662148],[-74.069766,40.662205],[-74.070046,40.661835],[-74.069839,40.661628],[-74.070701,40.660867],[-74.070557,40.660662],[-74.076928,40.663539],[-74.088195,40.667481],[-74.097682,40.669075],[-74.100341,40.669348],[-74.100914,40.669186],[-74.10135,40.669416],[-74.10098,40.669294],[-74.100936,40.669499],[-74.102885,40.669552],[-74.103432,40.669858],[-74.104972,40.669953],[-74.105304,40.669732],[-74.105445,40.670091],[-74.106528,40.670382],[-74.10696,40.670167],[-74.107615,40.669147],[-74.105718,40.668902],[-74.104914,40.669089],[-74.103569,40.668697],[-74.102598,40.668545],[-74.102106,40.668721],[-74.101522,40.66851],[-74.100838,40.667833],[-74.099674,40.667277],[-74.098123,40.665584],[-74.097067,40.665098],[-74.097044,40.664808],[-74.097391,40.664564],[-74.097268,40.664261],[-74.096972,40.664525],[-74.096508,40.664427],[-74.096455,40.664814],[-74.096948,40.665046],[-74.096759,40.665192],[-74.095884,40.665121],[-74.09588,40.664125],[-74.094898,40.664074],[-74.094011,40.664769],[-74.093515,40.66479],[-74.092589,40.664366],[-74.09247,40.664629],[-74.091405,40.66466],[-74.091088,40.664441],[-74.090897,40.664732],[-74.091333,40.664908],[-74.089528,40.66491],[-74.089516,40.664094],[-74.090591,40.664097],[-74.090757,40.663909],[-74.09072,40.663302],[-74.091203,40.662621],[-74.090888,40.661512],[-74.091371,40.662562],[-74.09132,40.66206],[-74.090872,40.660418],[-74.089957,40.65894],[-74.089817,40.658173],[-74.089086,40.657625],[-74.088852,40.656329],[-74.088306,40.656226],[-74.088403,40.655691],[-74.08605,40.655497],[-74.087468,40.653667],[-74.09342,40.650165],[-74.094791,40.649641],[-74.097783,40.649233],[-74.099329,40.649285],[-74.101117,40.649779],[-74.101628,40.649646],[-74.102815,40.649804],[-74.102824,40.650365],[-74.10359,40.650617],[-74.103832,40.650613],[-74.104077,40.64996],[-74.105686,40.650119],[-74.105599,40.650711],[-74.105925,40.651034],[-74.106727,40.651069],[-74.107142,40.651329],[-74.107394,40.651342],[-74.107578,40.650265],[-74.108468,40.650301],[-74.108451,40.650708],[-74.111375,40.650989],[-74.112966,40.650925],[-74.114045,40.65189],[-74.114403,40.651657],[-74.114011,40.65088],[-74.115447,40.65274],[-74.115889,40.652871],[-74.1165,40.652589],[-74.115038,40.650386],[-74.116445,40.652148],[-74.116801,40.65191],[-74.115059,40.649532],[-74.115843,40.649215],[-74.116241,40.649535],[-74.117098,40.648832],[-74.118644,40.64842],[-74.119002,40.647539],[-74.120136,40.646109],[-74.125303,40.645306],[-74.125782,40.645068],[-74.126098,40.64519],[-74.128425,40.644838],[-74.130745,40.64512],[-74.131048,40.644945],[-74.132858,40.645202],[-74.133579,40.645044],[-74.135897,40.645193],[-74.136796,40.645649],[-74.137508,40.645309],[-74.140314,40.644818],[-74.141108,40.644267],[-74.139466,40.647997]],[[-74.119783,40.655153],[-74.119747,40.655208],[-74.119783,40.655208],[-74.119783,40.655153]],[[-74.119747,40.655208],[-74.119711,40.655235],[-74.119747,40.655236],[-74.119747,40.655208]],[[-74.119711,40.655235],[-74.119675,40.655263],[-74.119711,40.655263],[-74.119711,40.655235]],[[-74.119675,40.655263],[-74.119639,40.65529],[-74.119675,40.65529],[-74.119675,40.655263]],[[-74.119964,40.655181],[-74.119928,40.655154],[-74.119927,40.655181],[-74.119964,40.655181]],[[-74.119995,40.655923],[-74.120031,40.65595],[-74.120031,40.655923],[-74.119995,40.655923]],[[-74.119995,40.65595],[-74.119959,40.655977],[-74.119995,40.655978],[-74.119995,40.65595]],[[-74.116488,40.65786],[-74.116524,40.657833],[-74.116488,40.657833],[-74.116488,40.65786]],[[-74.115769,40.657556],[-74.115841,40.657501],[-74.115769,40.657501],[-74.115769,40.657556]],[[-74.116307,40.657969],[-74.116271,40.657997],[-74.116307,40.657997],[-74.116307,40.657969]],[[-74.114256,40.663645],[-74.11422,40.663672],[-74.114256,40.663672],[-74.114256,40.663645]],[[-74.1122,40.663802],[-74.112164,40.663775],[-74.112164,40.663802],[-74.1122,40.663802]],[[-74.112164,40.663775],[-74.112128,40.663747],[-74.112128,40.663775],[-74.112164,40.663775]],[[-74.108344,40.669856],[-74.108272,40.669801],[-74.108272,40.669856],[-74.108344,40.669856]],[[-74.108272,40.669856],[-74.108235,40.669883],[-74.108271,40.669883],[-74.108272,40.669856]],[[-74.109208,40.669969],[-74.109172,40.669941],[-74.109172,40.669969],[-74.109208,40.669969]],[[-74.109136,40.670051],[-74.1091,40.670023],[-74.1091,40.670051],[-74.109136,40.670051]],[[-74.109099,40.670106],[-74.109063,40.670078],[-74.109063,40.670105],[-74.109099,40.670106]],[[-74.108954,40.67027],[-74.108918,40.670242],[-74.108918,40.67027],[-74.108954,40.67027]],[[-74.108882,40.670352],[-74.108846,40.670324],[-74.108846,40.670352],[-74.108882,40.670352]],[[-74.109088,40.672027],[-74.109052,40.672054],[-74.109088,40.672055],[-74.109088,40.672027]],[[-74.107357,40.672186],[-74.107393,40.672159],[-74.107357,40.672158],[-74.107357,40.672186]],[[-74.106998,40.671883],[-74.107034,40.67191],[-74.107034,40.671883],[-74.106998,40.671883]],[[-74.107142,40.671938],[-74.107106,40.671965],[-74.107142,40.671966],[-74.107142,40.671938]],[[-74.107287,40.671829],[-74.107359,40.671747],[-74.107251,40.671774],[-74.107287,40.671829]],[[-74.107066,40.672542],[-74.10703,40.672514],[-74.10703,40.672542],[-74.107066,40.672542]],[[-74.106994,40.672624],[-74.106958,40.672596],[-74.106957,40.672624],[-74.106994,40.672624]],[[-74.10674,40.672897],[-74.106704,40.67287],[-74.106704,40.672897],[-74.10674,40.672897]],[[-74.106667,40.67298],[-74.106631,40.672952],[-74.106631,40.672979],[-74.106667,40.67298]],[[-74.106631,40.673034],[-74.106595,40.673007],[-74.106595,40.673034],[-74.106631,40.673034]],[[-74.106485,40.673199],[-74.10645,40.673171],[-74.106449,40.673198],[-74.106485,40.673199]],[[-74.105215,40.674704],[-74.105179,40.674676],[-74.105179,40.674704],[-74.105215,40.674704]],[[-74.105142,40.674786],[-74.105106,40.674759],[-74.105106,40.674786],[-74.105142,40.674786]],[[-74.105069,40.674868],[-74.105034,40.674841],[-74.105033,40.674868],[-74.105069,40.674868]],[[-74.104961,40.675005],[-74.104925,40.674978],[-74.104924,40.675005],[-74.104961,40.675005]],[[-74.104888,40.675087],[-74.104852,40.67506],[-74.104852,40.675087],[-74.104888,40.675087]],[[-74.104815,40.675169],[-74.104779,40.675142],[-74.104779,40.675169],[-74.104815,40.675169]],[[-74.104706,40.675306],[-74.10467,40.675279],[-74.10467,40.675306],[-74.104706,40.675306]],[[-74.104525,40.675525],[-74.104489,40.675498],[-74.104489,40.675525],[-74.104525,40.675525]],[[-74.104452,40.675607],[-74.104416,40.67558],[-74.104416,40.675607],[-74.104452,40.675607]],[[-74.104343,40.675744],[-74.104307,40.675717],[-74.104307,40.675744],[-74.104343,40.675744]],[[-74.104234,40.675854],[-74.104199,40.675826],[-74.104198,40.675853],[-74.104234,40.675854]],[[-74.103762,40.676428],[-74.103726,40.676401],[-74.103726,40.676428],[-74.103762,40.676428]],[[-74.10369,40.676511],[-74.103654,40.676483],[-74.103654,40.67651],[-74.10369,40.676511]],[[-74.103617,40.676593],[-74.103581,40.676565],[-74.103581,40.676592],[-74.103617,40.676593]],[[-74.103399,40.676866],[-74.103363,40.676839],[-74.103363,40.676866],[-74.103399,40.676866]],[[-74.103145,40.677167],[-74.103109,40.67714],[-74.103109,40.677167],[-74.103145,40.677167]],[[-74.1026,40.677852],[-74.102564,40.677824],[-74.102564,40.677852],[-74.1026,40.677852]],[[-74.102564,40.677907],[-74.102528,40.677879],[-74.102528,40.677906],[-74.102564,40.677907]],[[-74.101661,40.678178],[-74.101733,40.678151],[-74.101661,40.678151],[-74.101661,40.678178]],[[-74.101729,40.678864],[-74.101692,40.678892],[-74.101729,40.678892],[-74.101729,40.678864]],[[-74.100966,40.679795],[-74.10093,40.679768],[-74.10093,40.679795],[-74.100966,40.679795]],[[-74.100821,40.679904],[-74.100785,40.679932],[-74.100821,40.679932],[-74.100821,40.679904]],[[-74.100785,40.679932],[-74.100749,40.679959],[-74.100785,40.679959],[-74.100785,40.679932]],[[-74.09929,40.682644],[-74.099254,40.682699],[-74.09929,40.682699],[-74.09929,40.682644]],[[-74.139503,40.647832],[-74.139467,40.647805],[-74.139467,40.647832],[-74.139503,40.647832]]],[[[-74.103581,40.676647],[-74.103544,40.676675],[-74.103545,40.676647],[-74.103581,40.676647]]],[[[-74.103327,40.676948],[-74.10329,40.676976],[-74.10329,40.676948],[-74.103327,40.676948]]],[[[-74.103254,40.677058],[-74.103218,40.67703],[-74.103254,40.677031],[-74.103254,40.677058]]],[[[-74.103218,40.677085],[-74.103181,40.677113],[-74.103182,40.677085],[-74.103218,40.677085]]],[[[-74.103072,40.677277],[-74.103036,40.677249],[-74.103072,40.67725],[-74.103072,40.677277]]],[[[-74.103036,40.677304],[-74.103,40.677332],[-74.103,40.677304],[-74.103036,40.677304]]],[[[-74.102963,40.677414],[-74.102927,40.677386],[-74.102963,40.677386],[-74.102963,40.677414]]],[[[-74.102927,40.677469],[-74.102891,40.677441],[-74.102927,40.677441],[-74.102927,40.677469]]],[[[-74.102781,40.67766],[-74.102746,40.677633],[-74.102782,40.677633],[-74.102781,40.67766]]],[[[-74.102709,40.677742],[-74.102673,40.677715],[-74.102709,40.677715],[-74.102709,40.677742]]],[[[-74.102673,40.67777],[-74.102636,40.677797],[-74.102637,40.67777],[-74.102673,40.67777]]],[[[-74.102128,40.678454],[-74.102092,40.678427],[-74.102128,40.678427],[-74.102128,40.678454]]],[[[-74.101874,40.678755],[-74.101838,40.678728],[-74.101874,40.678728],[-74.101874,40.678755]]],[[[-74.101765,40.678755],[-74.101802,40.678727],[-74.101801,40.678755],[-74.101765,40.678755]]],[[[-74.101801,40.678782],[-74.101838,40.678755],[-74.101837,40.678783],[-74.101801,40.678782]]],[[[-74.101729,40.678782],[-74.101765,40.67881],[-74.101729,40.67881],[-74.101729,40.678782]]],[[[-74.101765,40.678837],[-74.101801,40.67881],[-74.101801,40.678837],[-74.101765,40.678837]]],[[[-74.101293,40.679439],[-74.101257,40.679412],[-74.101293,40.679412],[-74.101293,40.679439]]],[[[-74.101147,40.679604],[-74.101111,40.679576],[-74.101148,40.679576],[-74.101147,40.679604]]],[[[-74.101111,40.679658],[-74.101075,40.679631],[-74.101111,40.679631],[-74.101111,40.679658]]],[[[-74.101075,40.679686],[-74.101039,40.679658],[-74.101075,40.679658],[-74.101075,40.679686]]],[[[-74.101039,40.679713],[-74.101002,40.67974],[-74.101003,40.679713],[-74.101039,40.679713]]],[[[-74.100893,40.679877],[-74.100857,40.679905],[-74.100857,40.679877],[-74.100893,40.679877]]],[[[-74.104566,40.692901],[-74.102946,40.692484],[-74.102911,40.692319],[-74.103492,40.691608],[-74.103455,40.6918],[-74.103708,40.691636],[-74.104498,40.69227],[-74.104566,40.692901]],[[-74.102946,40.692457],[-74.102982,40.692429],[-74.102946,40.692429],[-74.102946,40.692457]],[[-74.102982,40.692429],[-74.103055,40.692402],[-74.102983,40.692374],[-74.102982,40.692429]]],[[[-74.10291,40.692456],[-74.102837,40.692539],[-74.102838,40.692456],[-74.10291,40.692456]]],[[[-74.103161,40.692622],[-74.103198,40.692595],[-74.103198,40.692622],[-74.103161,40.692622]]],[[[-74.102465,40.694596],[-74.102464,40.694609],[-74.102456,40.694596],[-74.102465,40.694596]]],[[[-74.1025,40.694624],[-74.1025,40.694663],[-74.102474,40.694624],[-74.1025,40.694624]]]]}}]}