{
"type": "FeatureCollection",
"name": "boundary",
"crs": { "type": "name", "properties": { "name": "urn:ogc:def:crs:OGC:1.3:CRS84" } },
"features": [
{ "type": "Feature", "properties": { "name": "Perth Amboy", "geoid": "3402358200" }, "geometry": { "type": "Polygon", "coordinates": [ [ [ -74.291696999926614, 40.507825999688684 ], [ -74.291623000306757, 40.507776000317776 ], [ -74.289141000092513, 40.505584000275533 ], [ -74.28835699991987, 40.503191000325039 ], [ -74.288858000235294, 40.500149999773726 ], [ -74.288864999907986, 40.500105999665521 ], [ -74.288981000258929, 40.499401000112712 ], [ -74.287790000380525, 40.498404999782451 ], [ -74.285709999849175, 40.498004000122314 ], [ -74.283629000391215, 40.497604000185873 ], [ -74.280469000309523, 40.496994999870033 ], [ -74.26992100020972, 40.494998999985022 ], [ -74.267329000390589, 40.494507000096469 ], [ -74.258136000200707, 40.497389000259247 ], [ -74.258843000380466, 40.498874999999039 ], [ -74.258753999793683, 40.500103000247044 ], [ -74.258703999564972, 40.500789000172624 ], [ -74.258595999609923, 40.502280999747427 ], [ -74.258576000416767, 40.502545000284002 ], [ -74.258558999800016, 40.502781999950464 ], [ -74.258392000293753, 40.505078999988143 ], [ -74.258312999752718, 40.506177999971023 ], [ -74.258290000186506, 40.506493999755797 ], [ -74.258186000429433, 40.507919000263506 ], [ -74.258168999812682, 40.508163000145174 ], [ -74.258128999629704, 40.508716999917098 ], [ -74.257233000202376, 40.510259000327984 ], [ -74.256983999782051, 40.510687999758545 ], [ -74.25628699964804, 40.511887000267023 ], [ -74.255710000062962, 40.512881000148653 ], [ -74.254760000208961, 40.514516999862956 ], [ -74.254094999862005, 40.515661000189212 ], [ -74.254048000006335, 40.515692000187848 ], [ -74.253016999961503, 40.516369000307563 ], [ -74.246019999755603, 40.520958000330751 ], [ -74.24602700032662, 40.520995000311956 ], [ -74.246083000403118, 40.521274999839719 ], [ -74.24678200018694, 40.524770999699776 ], [ -74.246834000065476, 40.525032000118813 ], [ -74.247460999879294, 40.528171000335675 ], [ -74.249734999681067, 40.539551000208483 ], [ -74.250824000350562, 40.53972999971873 ], [ -74.2541919999464, 40.540285000224451 ], [ -74.254528000405358, 40.540339999827374 ], [ -74.254627000139564, 40.540228000340093 ], [ -74.254458999910071, 40.539681999816871 ], [ -74.254429999597761, 40.539530999688104 ], [ -74.255090999746756, 40.539693999966254 ], [ -74.255681999575543, 40.539839999790694 ], [ -74.256209999655155, 40.540056999713379 ], [ -74.256474000144109, 40.540228000340093 ], [ -74.256588999771836, 40.540228000340093 ], [ -74.257002000223707, 40.540228000340093 ], [ -74.257352000028064, 40.540136000328651 ], [ -74.257686999763834, 40.539971000199323 ], [ -74.258008000154206, 40.539593000121243 ], [ -74.258094000367919, 40.539222000208262 ], [ -74.257920000290653, 40.538537999829771 ], [ -74.257815999635255, 40.538237999832006 ], [ -74.25775100023624, 40.538137999989353 ], [ -74.257716000076144, 40.538009999863696 ], [ -74.257629999862431, 40.537803000316352 ], [ -74.257637000433434, 40.537617000019218 ], [ -74.257686999763834, 40.537496000011153 ], [ -74.257758999733838, 40.537345999895258 ], [ -74.257880000107676, 40.537202999904494 ], [ -74.258065000055609, 40.537160999858735 ], [ -74.258337000042161, 40.537168000323362 ], [ -74.258593000135207, 40.537231999855678 ], [ -74.258999999840981, 40.537446000237431 ], [ -74.25925000008624, 40.537692000157101 ], [ -74.260285000329048, 40.538319000154942 ], [ -74.261210999893578, 40.538714999717158 ], [ -74.262200999930542, 40.539121000334383 ], [ -74.262528999993606, 40.539507000011525 ], [ -74.262650000367429, 40.539718999701606 ], [ -74.262756999599233, 40.54001700033416 ], [ -74.262852000033789, 40.540255000111749 ], [ -74.262933000224635, 40.540411999984038 ], [ -74.263009000392628, 40.540503000185076 ], [ -74.263089999685178, 40.540613999782828 ], [ -74.263206000036121, 40.540724999879345 ], [ -74.263407999702494, 40.540902000132441 ], [ -74.263555000015586, 40.541018000283771 ], [ -74.263702000328664, 40.54111900002831 ], [ -74.263883999903555, 40.541226000240421 ], [ -74.264015000323127, 40.541300999751279 ], [ -74.264206999943738, 40.541437999951697 ], [ -74.264303000203199, 40.541544000238424 ], [ -74.264425000401943, 40.541649999674753 ], [ -74.264535999831708, 40.541786999844071 ], [ -74.26463700011405, 40.541938999758862 ], [ -74.264724000152697, 40.542177000217059 ], [ -74.264735999848256, 40.542318999743472 ], [ -74.264714999931869, 40.542453999739998 ], [ -74.264642999961836, 40.542697000140393 ], [ -74.264592999733111, 40.542881999907543 ], [ -74.264756999764657, 40.542954000062572 ], [ -74.264962999628978, 40.543010999675282 ], [ -74.265059999713358, 40.543026000140152 ], [ -74.265157999622645, 40.543039999842875 ], [ -74.265256000430242, 40.543049999921308 ], [ -74.265355000164448, 40.543058999922309 ], [ -74.265376000080849, 40.543059999998206 ], [ -74.265396999997236, 40.543059999998206 ], [ -74.265417999913637, 40.543059999998206 ], [ -74.265438999830039, 40.543059999998206 ], [ -74.265460999571332, 40.543058999922309 ], [ -74.265482000386044, 40.543056999770506 ], [ -74.265503000302445, 40.543055000301244 ], [ -74.265524000218846, 40.543053000149314 ], [ -74.265545000135234, 40.543048999845226 ], [ -74.265565000226744, 40.543046000299697 ], [ -74.265586000143131, 40.54304099991905 ], [ -74.265606000234612, 40.543036000220674 ], [ -74.265626000326094, 40.543030999839267 ], [ -74.265710999816591, 40.543008000128012 ], [ -74.265796000205412, 40.542986999880149 ], [ -74.265883000244045, 40.542967999780288 ], [ -74.265970000282692, 40.542950999830083 ], [ -74.265986000176213, 40.542948999675048 ], [ -74.266002000069747, 40.54294700020256 ], [ -74.266017999963267, 40.542946000124992 ], [ -74.266034999681708, 40.542946000124992 ], [ -74.266050999575228, 40.54294700020256 ], [ -74.266067000367073, 40.542948999675048 ], [ -74.266090999758205, 40.542952999985054 ], [ -74.266105999826806, 40.542957000294869 ], [ -74.266120999895421, 40.542961999999143 ], [ -74.26613599996405, 40.542966999703033 ], [ -74.266150000207745, 40.542973000166405 ], [ -74.266162999728223, 40.542980000023647 ], [ -74.266176000147027, 40.542987999957163 ], [ -74.266186000192761, 40.542993999735984 ], [ -74.266204999561026, 40.543008000128012 ], [ -74.266213999781854, 40.543014999981594 ], [ -74.266223000002668, 40.543022999910939 ], [ -74.266231000398605, 40.54302999976295 ], [ -74.266247000292125, 40.543046000299697 ], [ -74.26626099963751, 40.5430630002258 ], [ -74.266268000208527, 40.54307200022506 ], [ -74.266274000056299, 40.543080000147597 ], [ -74.266372999790505, 40.543219999660721 ], [ -74.266475999722672, 40.543357000032223 ], [ -74.266500000012115, 40.543384999979004 ], [ -74.266513000430905, 40.543399000289298 ], [ -74.266526999776289, 40.543411999843457 ], [ -74.266541000019998, 40.543425000077697 ], [ -74.266555000263693, 40.543438000309408 ], [ -74.266570000332308, 40.543449999785899 ], [ -74.266586000225828, 40.543461999942899 ], [ -74.266602000119363, 40.543473000028044 ], [ -74.266623000035764, 40.543487000319999 ], [ -74.266638999929285, 40.543496000262294 ], [ -74.266649999799938, 40.543500999926323 ], [ -74.266660999670577, 40.543505000203425 ], [ -74.266673000264475, 40.543508999797616 ], [ -74.266684999960034, 40.543512000005066 ], [ -74.266698000378838, 40.54351400014329 ], [ -74.266710000074397, 40.543516000281507 ], [ -74.266722999594876, 40.543516999667908 ], [ -74.266736000013665, 40.543516999667908 ], [ -74.266747999709239, 40.543516999667908 ], [ -74.266761000128028, 40.543516000281507 ], [ -74.266773999648507, 40.54351400014329 ], [ -74.266786000242377, 40.543512000005066 ], [ -74.266798999762855, 40.543508999797616 ], [ -74.266909000266025, 40.543479999833039 ], [ -74.267019999695776, 40.543452999996042 ], [ -74.2670339999395, 40.543449999785899 ], [ -74.267045999635059, 40.543447000258325 ], [ -74.267069999924502, 40.543438999696981 ], [ -74.267093000389053, 40.543430999817375 ], [ -74.267105000084598, 40.543426000148109 ], [ -74.267115999955266, 40.543420999795828 ], [ -74.267126999825905, 40.543415000055248 ], [ -74.267147999742306, 40.543403999960574 ], [ -74.267157999788068, 40.543398000218474 ], [ -74.267176000229711, 40.543384999979004 ], [ -74.267194999597976, 40.543370000277143 ], [ -74.267212000214727, 40.543354999889274 ], [ -74.267276999613742, 40.54329599974195 ], [ -74.267343999560893, 40.543238000298544 ], [ -74.267352999781721, 40.543229999712274 ], [ -74.267362000002549, 40.543220999734196 ], [ -74.267368999675256, 40.543211999754909 ], [ -74.267376000246273, 40.543202999774458 ], [ -74.267381000269125, 40.543193999792749 ], [ -74.267386000292007, 40.543183999735817 ], [ -74.267389999591643, 40.543173999677435 ], [ -74.267392999964699, 40.543163000225839 ], [ -74.267394999614524, 40.543153000164281 ], [ -74.26739600033774, 40.543143000101232 ], [ -74.26739600033774, 40.543131999961894 ], [ -74.267393999789604, 40.543082000298718 ], [ -74.267388999766737, 40.543037000296891 ], [ -74.267382000094045, 40.542982000177751 ], [ -74.267372999873203, 40.542934999953296 ], [ -74.267362000002549, 40.542888999774298 ], [ -74.267346000109029, 40.542833000137037 ], [ -74.267342999735973, 40.542818000311563 ], [ -74.267342999735973, 40.542803999879823 ], [ -74.267345000284138, 40.542789000047854 ], [ -74.26735000030699, 40.542775000292721 ], [ -74.267356999979683, 40.542760999851943 ], [ -74.267366000200525, 40.542748000171493 ], [ -74.267377999896084, 40.542735999886581 ], [ -74.26739700016266, 40.542721000039386 ], [ -74.267416000429236, 40.542706000188829 ], [ -74.26744300019341, 40.542687000009266 ], [ -74.267470999782503, 40.542666999742522 ], [ -74.267500000094827, 40.542649000316572 ], [ -74.267530000232043, 40.542632000285394 ], [ -74.267561000194192, 40.542615000249903 ], [ -74.267591000331421, 40.542599999692953 ], [ -74.267624999768287, 40.542583999732379 ], [ -74.267656999555342, 40.542568999851149 ], [ -74.267674000172093, 40.542563000034257 ], [ -74.267690000065613, 40.542558000300211 ], [ -74.267706999784053, 40.542552999883114 ], [ -74.26772500022571, 40.54255000031533 ], [ -74.267742999769069, 40.542547000064793 ], [ -74.267761000210712, 40.542544999897643 ], [ -74.267778999754086, 40.542543999814072 ], [ -74.26780600041657, 40.542543999814072 ], [ -74.267833000180744, 40.542542000329547 ], [ -74.26786800034084, 40.542540000162248 ], [ -74.267881999686253, 40.542540000162248 ], [ -74.267896999754839, 40.542540000162248 ], [ -74.267910999998563, 40.542541000245926 ], [ -74.267924000417352, 40.542542999730486 ], [ -74.267937999762736, 40.542545999981257 ], [ -74.267951000181526, 40.54254900023183 ], [ -74.268014999755636, 40.542567999767932 ], [ -74.268078000403136, 40.542588000064185 ], [ -74.268201000426785, 40.542633999767233 ], [ -74.268254000130227, 40.542656000207664 ], [ -74.268306000008764, 40.54267900003979 ], [ -74.268357000062394, 40.542704000026482 ], [ -74.268407000291091, 40.542730000084653 ], [ -74.268454999971681, 40.542758000293517 ], [ -74.268509000398367, 40.542791000207664 ], [ -74.268525000291874, 40.542802999800116 ], [ -74.268533999614405, 40.542815000073027 ], [ -74.268540000360503, 40.542824000105611 ], [ -74.268546000208275, 40.542836999771353 ], [ -74.268550000406236, 40.542851000196194 ], [ -74.268556000254009, 40.542889999852711 ], [ -74.26856100027689, 40.542929000169188 ], [ -74.26856399975162, 40.542967999780288 ], [ -74.268566000299771, 40.543007000051354 ], [ -74.268566000299771, 40.543046999693125 ], [ -74.268567000124676, 40.543059999998206 ], [ -74.268569999599421, 40.543073000300801 ], [ -74.26857799999533, 40.543088000069119 ], [ -74.268586000391252, 40.54310000029097 ], [ -74.268596000436986, 40.543110999752919 ], [ -74.268605999584409, 40.54311800027844 ], [ -74.268625999675905, 40.543129999812258 ], [ -74.26865699963804, 40.543143000101232 ], [ -74.26868900032342, 40.543155999705014 ], [ -74.268721000110475, 40.543167999914743 ], [ -74.268753999722421, 40.543179000048113 ], [ -74.268786000407786, 40.543189000105805 ], [ -74.268829999890414, 40.543201000309551 ], [ -74.268841999585973, 40.543201999700706 ], [ -74.268854000179843, 40.543201999700706 ], [ -74.268870000073392, 40.543201000309551 ], [ -74.268881999768936, 40.543198000088182 ], [ -74.268892999639604, 40.543193999792749 ], [ -74.268907999708219, 40.543185999883882 ], [ -74.268921000126994, 40.543174999751606 ], [ -74.268927999799701, 40.543166999840416 ], [ -74.268938999670354, 40.54315200008979 ], [ -74.268947999891168, 40.543138999802515 ], [ -74.268958999761836, 40.543126000195429 ], [ -74.268969999632489, 40.543112999903158 ], [ -74.268983000051279, 40.54309800014039 ], [ -74.268992000272121, 40.543086999993655 ], [ -74.268998999944813, 40.543073999693824 ], [ -74.269003999967694, 40.543057999846411 ], [ -74.269004999792585, 40.543045000223607 ], [ -74.269003999967694, 40.54303199991557 ], [ -74.268999999769733, 40.543019999681533 ], [ -74.268995999571771, 40.543010000281285 ], [ -74.268988999899065, 40.542996999966498 ], [ -74.268976000378586, 40.54297899994657 ], [ -74.268964999609608, 40.542963000076476 ], [ -74.268952000089143, 40.542940999736864 ], [ -74.26894100021849, 40.542921000228667 ], [ -74.268917999753953, 40.542872999882704 ], [ -74.268896999837565, 40.542824000105611 ], [ -74.268875000096244, 40.542767000333754 ], [ -74.268873000446419, 40.542755000052253 ], [ -74.268871999723203, 40.542738000047976 ], [ -74.268874000271339, 40.542721000039386 ], [ -74.268880999944017, 40.542700999782795 ], [ -74.268885999966898, 40.542691999733691 ], [ -74.268892999639604, 40.542682000284465 ], [ -74.268900000210607, 40.5426720001511 ], [ -74.268907999708219, 40.542663000098095 ], [ -74.268916999929033, 40.542655000125762 ], [ -74.268926999974781, 40.542646000070469 ], [ -74.268942000043396, 40.542634999849511 ], [ -74.268952999914049, 40.542629000038531 ], [ -74.268967000157758, 40.542621000062134 ], [ -74.268978000028412, 40.542615000249903 ], [ -74.26898700024924, 40.542608999754478 ], [ -74.269003999967694, 40.542598000210099 ], [ -74.2690199998612, 40.542585999898314 ], [ -74.269028000257109, 40.542578999999897 ], [ -74.269043000325738, 40.542567999767932 ], [ -74.269055000021297, 40.542561999950955 ], [ -74.269071999739737, 40.542557000216824 ], [ -74.26909600002918, 40.542552999883114 ], [ -74.269116999945581, 40.542552999883114 ], [ -74.269137999861982, 40.542557000216824 ], [ -74.269151000280772, 40.542560999867582 ], [ -74.269167000174292, 40.542567999767932 ], [ -74.269198000136427, 40.542582000248998 ], [ -74.269227000448751, 40.542598000210099 ], [ -74.269255000037845, 40.542615000249903 ], [ -74.269267999558323, 40.542624000309409 ], [ -74.269286999824899, 40.542637000013919 ], [ -74.269306000091476, 40.542649000316572 ], [ -74.269325000358052, 40.542660999934412 ], [ -74.269344999551208, 40.5426720001511 ], [ -74.26936600036592, 40.542682999683322 ], [ -74.269387000282322, 40.542692999815053 ], [ -74.269408000198723, 40.542702999945291 ], [ -74.269459000252354, 40.542724000282128 ], [ -74.26950899958274, 40.542743999849193 ], [ -74.269523999651355, 40.542749000252023 ], [ -74.269540000443186, 40.542752999891356 ], [ -74.26955499961349, 40.542757000213079 ], [ -74.26957100040535, 40.54275999977159 ], [ -74.26958700029887, 40.542761999932274 ], [ -74.26960400001731, 40.542763000012641 ], [ -74.26961999991083, 40.542763000012641 ], [ -74.269635999804365, 40.542761999932274 ], [ -74.269653000421116, 40.54275999977159 ], [ -74.269676999812233, 40.54275600013267 ], [ -74.269691999880862, 40.542752999891356 ], [ -74.269707999774369, 40.542748000171493 ], [ -74.269720000368267, 40.542743999849193 ], [ -74.269738999736504, 40.542734999805859 ], [ -74.269756000353254, 40.542724999680402 ], [ -74.269771000421883, 40.542713000074031 ], [ -74.269780999569292, 40.542702999945291 ], [ -74.269787000315418, 40.542694999977726 ], [ -74.26982099975227, 40.542651999879929 ], [ -74.26985599991238, 40.54261099991966 ], [ -74.269895000270438, 40.542567999767932 ], [ -74.269934999555105, 40.542527999840075 ], [ -74.269982000309071, 40.542484000233216 ], [ -74.269994000004644, 40.542475000154958 ], [ -74.270005999700203, 40.542467000160165 ], [ -74.270018000294087, 40.542459000164463 ], [ -74.270031999639471, 40.54245200025278 ], [ -74.270049000256222, 40.542444000255244 ], [ -74.270060999951795, 40.542439999914841 ], [ -74.27007500019549, 40.542436999659323 ], [ -74.270087999715969, 40.542435000171608 ], [ -74.270102999784584, 40.542434000086345 ], [ -74.270120000401334, 40.542435000171608 ], [ -74.270132000096908, 40.542436999659323 ], [ -74.270144999617372, 40.542439999914841 ], [ -74.270158000036176, 40.542443000170167 ], [ -74.270170999556655, 40.542445999742746 ], [ -74.270183000150524, 40.542450000082795 ], [ -74.270194999846098, 40.542453999739998 ], [ -74.270207000439967, 40.542459000164463 ], [ -74.27021900013554, 40.542462999821133 ], [ -74.270230999831114, 40.542468000244888 ], [ -74.270241999701767, 40.542474000070335 ], [ -74.270252999572406, 40.542478999810655 ], [ -74.270266999816116, 40.542486999803963 ], [ -74.270282999709636, 40.542499000133482 ], [ -74.270296999953345, 40.542512999946354 ], [ -74.270323999717533, 40.542542999730486 ], [ -74.270348999831896, 40.542574000267038 ], [ -74.270372000296419, 40.542606000189195 ], [ -74.270379999794031, 40.542614000167383 ], [ -74.270392000387901, 40.542624000309409 ], [ -74.270408000281435, 40.542631000203123 ], [ -74.270419000152074, 40.542634999849511 ], [ -74.270435999870514, 40.542640000260434 ], [ -74.270452999588954, 40.542642999824182 ], [ -74.270470000205705, 40.542646000070469 ], [ -74.270486999924145, 40.542648000234557 ], [ -74.270505000365802, 40.542649000316572 ], [ -74.270522999909161, 40.542649000316572 ], [ -74.270539999627587, 40.542648000234557 ], [ -74.270565999566855, 40.542643999906275 ], [ -74.270584000008526, 40.542640999659952 ], [ -74.270625000016395, 40.54263299968499 ], [ -74.270666999849198, 40.542624999709126 ], [ -74.270708999681986, 40.54261899989725 ], [ -74.27072100027587, 40.542616999732246 ], [ -74.270747000215138, 40.542612000002237 ], [ -74.270758999910697, 40.542608999754478 ], [ -74.270772000329487, 40.542606000189195 ], [ -74.27078400002506, 40.54260299994116 ], [ -74.270795999720633, 40.542599000292867 ], [ -74.270808000314503, 40.542594999961665 ], [ -74.270820000010076, 40.542591000312932 ], [ -74.270882999759266, 40.542542999730486 ], [ -74.270941000383914, 40.542545999981257 ], [ -74.27102300039968, 40.542530000007737 ], [ -74.271169999814433, 40.542501999703561 ], [ -74.271182000408317, 40.542501000301947 ], [ -74.271229000263986, 40.542485000317733 ], [ -74.271301000234018, 40.542461999736332 ], [ -74.271378000226903, 40.542445000340315 ], [ -74.271420000059692, 40.542442000085074 ], [ -74.271472999763148, 40.542436000256806 ], [ -74.271492999854615, 40.542434000086345 ], [ -74.271560999626686, 40.54242299983062 ], [ -74.271611999680331, 40.542408999998933 ], [ -74.271654000411431, 40.542394000078509 ], [ -74.271764000016276, 40.542343999864464 ], [ -74.271945999591168, 40.542265999892926 ], [ -74.272090000429515, 40.542216999671794 ], [ -74.272270000354567, 40.542164999829851 ], [ -74.27240900027175, 40.54213499987636 ], [ -74.272483999716513, 40.54212099998454 ], [ -74.27251800005169, 40.542112999947477 ], [ -74.272549999838745, 40.542102000321648 ], [ -74.272594000219669, 40.542079999699254 ], [ -74.272635000227552, 40.542052999980555 ], [ -74.27268999958082, 40.54201900029404 ], [ -74.272713000045371, 40.54200799997011 ], [ -74.272743000182587, 40.541997000327051 ], [ -74.272769000121855, 40.541990999776253 ], [ -74.272795999886029, 40.541988000183302 ], [ -74.272825000198367, 40.541985999999504 ], [ -74.272850000312715, 40.541988000183302 ], [ -74.272903000016157, 40.541997000327051 ], [ -74.272952000419963, 40.54200100001129 ], [ -74.272969999963308, 40.541999999919597 ], [ -74.273002999575283, 40.541996000235294 ], [ -74.273051999979074, 40.541976999854334 ], [ -74.273075000443598, 40.541966000206124 ], [ -74.2731020002078, 40.541945999724156 ], [ -74.273124999774012, 40.541922000230109 ], [ -74.273144000040602, 40.541887999794433 ], [ -74.273161999583934, 40.541842000261759 ], [ -74.273174000177804, 40.541806999690849 ], [ -74.273188000421527, 40.54174200033755 ], [ -74.273195999919125, 40.541721999788699 ], [ -74.273209000337914, 40.541712000194678 ], [ -74.273225000231449, 40.541706999714442 ], [ -74.273246000147836, 40.541700999820343 ], [ -74.273263999691181, 40.541700999820343 ], [ -74.273287999980639, 40.541699000310601 ], [ -74.273309999721931, 40.541703000012632 ], [ -74.273369000171485, 40.541715999895942 ], [ -74.273433999570486, 40.541727000267812 ], [ -74.27346500043096, 40.541729999872409 ], [ -74.273494999669865, 40.541730999968131 ], [ -74.273520999609133, 40.541726000171984 ], [ -74.273558000317365, 40.541716999991877 ], [ -74.273579000233752, 40.541708999906554 ], [ -74.273601999799979, 40.54169600002195 ], [ -74.273628999564153, 40.541666999955154 ], [ -74.273641999982942, 40.541642999678473 ], [ -74.273651000203785, 40.541594999782035 ], [ -74.273653999678515, 40.541524000313082 ], [ -74.273660000424627, 40.541501000084374 ], [ -74.273676000318147, 40.541475000231848 ], [ -74.273719999800761, 40.541435000334026 ], [ -74.273743000265299, 40.541414999693451 ], [ -74.273765999831511, 40.541402999852409 ], [ -74.273973000419062, 40.541308999885267 ], [ -74.274017999726595, 40.541280000333607 ], [ -74.274035000343346, 40.541293999718576 ], [ -74.274119999833843, 40.541361999810327 ], [ -74.274165999864593, 40.541399000132458 ], [ -74.27425200007832, 40.541416999894302 ], [ -74.274351999637432, 40.5414070002548 ], [ -74.27525899983371, 40.540941999665904 ], [ -74.275653999843925, 40.540746000153668 ], [ -74.275678000133382, 40.540734000192778 ], [ -74.276932999585895, 40.540272000063496 ], [ -74.277032000218412, 40.540240999826963 ], [ -74.277263000197095, 40.540171999843594 ], [ -74.277489000152912, 40.540101000231722 ], [ -74.277542999681259, 40.540090000275519 ], [ -74.277613999826372, 40.540073000277594 ], [ -74.277685999796404, 40.540056999713379 ], [ -74.277813000018, 40.540026000060038 ], [ -74.277958999607876, 40.53999400027066 ], [ -74.278098000423356, 40.539968999955306 ], [ -74.278469999969033, 40.53989300019532 ], [ -74.278697999574661, 40.539840999914631 ], [ -74.278851999560459, 40.539806999788084 ], [ -74.278941999972133, 40.53977600001901 ], [ -74.279100000155879, 40.539722000078804 ], [ -74.280012000375038, 40.539388999713076 ], [ -74.280145000444435, 40.539340000118223 ], [ -74.28154800003496, 40.53884500013887 ], [ -74.281929999626385, 40.538709999695897 ], [ -74.282049000350383, 40.538680999701825 ], [ -74.282266999910263, 40.538659000003932 ], [ -74.282502999911813, 40.538652999836842 ], [ -74.282745999586055, 40.538665000170496 ], [ -74.282826999776901, 40.538669000053687 ], [ -74.28312600042598, 40.538700999793278 ], [ -74.283379999970876, 40.538734999798457 ], [ -74.283693999790231, 40.538783999835871 ], [ -74.2838329997074, 40.538805000035985 ], [ -74.284000999936907, 40.538818999938179 ], [ -74.284150999724716, 40.538827999825003 ], [ -74.284333000197918, 40.538810000050141 ], [ -74.284443999627683, 40.538791000130857 ], [ -74.284597999613467, 40.538745999977159 ], [ -74.284691000398198, 40.53870000033497 ], [ -74.284889999691515, 40.538608999732766 ], [ -74.285153000355564, 40.538478000074228 ], [ -74.285422999793994, 40.53834099996449 ], [ -74.285700999628347, 40.538195999752439 ], [ -74.285997999729261, 40.538050999909217 ], [ -74.28635599992954, 40.537869000231559 ], [ -74.286437999945306, 40.537828000074661 ], [ -74.286523000334128, 40.537785999738055 ], [ -74.28674900028993, 40.537662999722308 ], [ -74.286944000283597, 40.537558000279567 ], [ -74.287213999722013, 40.537415000058587 ], [ -74.287477000386076, 40.537269999890441 ], [ -74.287831000388408, 40.537057999960226 ], [ -74.288081999560262, 40.536899000084375 ], [ -74.288171999971937, 40.536842000049866 ], [ -74.288431000438024, 40.536686000174612 ], [ -74.288711999747093, 40.536523000087506 ], [ -74.288880999801506, 40.536446000339886 ], [ -74.289222000283345, 40.536307999994435 ], [ -74.289294000253378, 40.536275000300122 ], [ -74.289418000101946, 40.536216000061394 ], [ -74.289464000132696, 40.536189000027356 ], [ -74.28950799961531, 40.536164000340179 ], [ -74.289517999661058, 40.536156999770647 ], [ -74.289597000202079, 40.536099000290534 ], [ -74.289658000301458, 40.53605000033749 ], [ -74.289767000081397, 40.535959000232012 ], [ -74.289849999922083, 40.535855999851051 ], [ -74.289870000013565, 40.535821999750141 ], [ -74.289928999564779, 40.535715999967508 ], [ -74.289973999770638, 40.535597000314361 ], [ -74.290013000128681, 40.535459000268354 ], [ -74.290032000395257, 40.535312999771755 ], [ -74.290020999626307, 40.535184999710637 ], [ -74.289988000014333, 40.535064000089349 ], [ -74.289931999937849, 40.534923999916359 ], [ -74.289874000211526, 40.534798999709771 ], [ -74.289854000120044, 40.534754000288352 ], [ -74.289774999579009, 40.534605999899505 ], [ -74.289716000027781, 40.534452000005935 ], [ -74.2897110000049, 40.534419000080177 ], [ -74.289700000134246, 40.534339000027316 ], [ -74.28968300041582, 40.534219999976706 ], [ -74.289690999913418, 40.534088999929075 ], [ -74.289705999982047, 40.53397700023249 ], [ -74.289740000317224, 40.533851000094039 ], [ -74.289762000058531, 40.533807999781267 ], [ -74.289855999769856, 40.533632000118615 ], [ -74.28991699986922, 40.533529000256806 ], [ -74.290023000174443, 40.533360000041085 ], [ -74.290086999748539, 40.533231000122832 ], [ -74.290140000350306, 40.53312599987899 ], [ -74.290184999657825, 40.532991999745015 ], [ -74.290230999688575, 40.532853999795705 ], [ -74.290284000290342, 40.532657000285866 ], [ -74.290301000008782, 40.532548999809777 ], [ -74.29031000022961, 40.532474000059501 ], [ -74.290341000191759, 40.532260000183015 ], [ -74.290394999720107, 40.531913999862233 ], [ -74.290576000368389, 40.53155199993877 ], [ -74.290599999759522, 40.531451999675504 ], [ -74.290605999607322, 40.531430000334964 ], [ -74.290773000011882, 40.53077700014024 ], [ -74.290825999715338, 40.530555999834561 ], [ -74.290856999677473, 40.53035600028285 ], [ -74.290865999898315, 40.53024899977914 ], [ -74.290868000446437, 40.530228000311112 ], [ -74.290865000073381, 40.530133000099333 ], [ -74.290858000400704, 40.530073000327413 ], [ -74.290819999867551, 40.529987000287598 ], [ -74.290757000118361, 40.529869999881448 ], [ -74.290697999668822, 40.52977499984496 ], [ -74.290588999888868, 40.529600999702019 ], [ -74.290388000047415, 40.529256999871428 ], [ -74.290271999696458, 40.529077000089949 ], [ -74.290202000274576, 40.528955999680612 ], [ -74.290140000350306, 40.528794000195653 ], [ -74.290091999771406, 40.528669999768908 ], [ -74.290009999755654, 40.528223000114792 ], [ -74.289994999687039, 40.528120999748396 ], [ -74.289982999991466, 40.528036000234934 ], [ -74.28994600018153, 40.527837999913899 ], [ -74.2899009999757, 40.527539999734969 ], [ -74.289890000105046, 40.527475000195878 ], [ -74.28988400025726, 40.527440999939103 ], [ -74.289758999685461, 40.526710000147666 ], [ -74.289655999753322, 40.526077999801224 ], [ -74.289628999989134, 40.525906999932047 ], [ -74.289604999699691, 40.525762999775701 ], [ -74.289527999706806, 40.525203999831483 ], [ -74.289593000004132, 40.524884000107981 ], [ -74.289643000232843, 40.5246389999485 ], [ -74.289690999913418, 40.524403999706614 ], [ -74.28977399975409, 40.523993000292933 ], [ -74.289835999678374, 40.523686000217992 ], [ -74.289943999633394, 40.523157000293189 ], [ -74.290045999740656, 40.522651000169645 ], [ -74.29006099980927, 40.522524000204314 ], [ -74.29010799966494, 40.522148000122101 ], [ -74.290143999649956, 40.52189600019409 ], [ -74.290161000266707, 40.521781999817911 ], [ -74.290213000145229, 40.521294999663695 ], [ -74.290225999665708, 40.521157999930551 ], [ -74.290237000434686, 40.521065999683458 ], [ -74.290307999681474, 40.520550999872746 ], [ -74.290373999803705, 40.520145999828195 ], [ -74.290410999613641, 40.519914999860262 ], [ -74.290429999880217, 40.519773999710367 ], [ -74.290460999842352, 40.5195260000784 ], [ -74.290485999956715, 40.519305999978442 ], [ -74.290578999843135, 40.518410000283232 ], [ -74.290619999851017, 40.518011000246531 ], [ -74.290757000118361, 40.516732999862178 ], [ -74.290767999989029, 40.516623999887635 ], [ -74.290807000347087, 40.516267000340541 ], [ -74.290937999868319, 40.515012999755463 ], [ -74.291113999595439, 40.513343999791147 ], [ -74.291136000235042, 40.513140000059451 ], [ -74.291348999772069, 40.511105999926308 ], [ -74.291394999802819, 40.510669000061576 ], [ -74.291553999811484, 40.509109999859305 ], [ -74.291696999926614, 40.507825999688684 ] ] ] } }
]
}
