{
"type": "FeatureCollection",
"name": "study_area",
"crs": { "type": "name", "properties": { "name": "urn:ogc:def:crs:OGC:1.3:CRS84" } },
"features": [
{ "type": "Feature", "properties": { "name": "Perth Amboy study area", "buffer_m": 1000, "muni_area_km2": 15.429, "clipped_to_nj": true }, "geometry": { "type": "Polygon", "coordinates": [ [ [ -74.303318010369779, 40.509840500935191 ], [ -74.303162535076012, 40.511367555368132 ], [ -74.303160229634855, 40.511389840504329 ], [ -74.303114501406469, 40.511824980092371 ], [ -74.302902049558298, 40.513857138996407 ], [ -74.302899793332685, 40.513878402132406 ], [ -74.302878706632725, 40.514074244504393 ], [ -74.302704210953607, 40.515731726503191 ], [ -74.302573781106517, 40.516982364865527 ], [ -74.302570312150493, 40.517014882019268 ], [ -74.302534466012503, 40.517343534081952 ], [ -74.302526342716561, 40.517424169056675 ], [ -74.302521899392275, 40.517466942142079 ], [ -74.302386740121847, 40.518729826674011 ], [ -74.302346634771567, 40.519120749149174 ], [ -74.30225379031549, 40.520016759500919 ], [ -74.302246522539008, 40.520083718887101 ], [ -74.30222156051174, 40.520303721819495 ], [ -74.302212368360685, 40.520380874945054 ], [ -74.302181411223444, 40.520628878050182 ], [ -74.302172841543907, 40.520694950764863 ], [ -74.302153865567647, 40.520835953025831 ], [ -74.3021286120875, 40.521007424597073 ], [ -74.302091651794612, 40.521238428603276 ], [ -74.302088626173372, 40.521257175456512 ], [ -74.30203645366619, 40.521577666641136 ], [ -74.30198999962596, 40.521915051924516 ], [ -74.301987161503732, 40.52194501757134 ], [ -74.301979008144514, 40.522026021065884 ], [ -74.301927092707359, 40.522513027157629 ], [ -74.301890430058037, 40.522800026708509 ], [ -74.301876600330502, 40.522892872583867 ], [ -74.301852281223574, 40.523063314270502 ], [ -74.301815813136344, 40.523355467493694 ], [ -74.301803593030243, 40.523459083649087 ], [ -74.301714109212185, 40.524020068822146 ], [ -74.301612194484079, 40.524526079839632 ], [ -74.301608732551585, 40.524543159214055 ], [ -74.301502315144987, 40.525064849754841 ], [ -74.301441851307615, 40.525364500469877 ], [ -74.301438806527713, 40.525379590666645 ], [ -74.301469858129678, 40.525569916453613 ], [ -74.301596071850867, 40.52630621435069 ], [ -74.301677032040061, 40.526445935813271 ], [ -74.301740047744943, 40.526562930465516 ], [ -74.302007163338928, 40.527108349665077 ], [ -74.302045176652712, 40.527194346173545 ], [ -74.302412092310774, 40.528221074813281 ], [ -74.302617777296291, 40.52927365529947 ], [ -74.302624787395089, 40.529333654453644 ], [ -74.302667962002261, 40.529915367717109 ], [ -74.302670979043199, 40.530010367764319 ], [ -74.302645235431328, 40.530825238344399 ], [ -74.302648306588466, 40.530825388427196 ], [ -74.30263932500624, 40.530932389993104 ], [ -74.302581935587554, 40.531413458931695 ], [ -74.302550969909589, 40.531613461878365 ], [ -74.302439948939863, 40.532176924223371 ], [ -74.302386985965072, 40.532397930101219 ], [ -74.302361277545614, 40.532501761159054 ], [ -74.302195813022692, 40.533149190831182 ], [ -74.302189848994345, 40.533174059463562 ], [ -74.302185477899954, 40.533188510396457 ], [ -74.302165349251212, 40.533264739382524 ], [ -74.302159353003276, 40.53328673934643 ], [ -74.302155930000339, 40.533286196221489 ], [ -74.301972038579365, 40.533894137434508 ], [ -74.301850017912642, 40.534467885023773 ], [ -74.301806047143586, 40.534631425599372 ], [ -74.301813929568993, 40.534722955264186 ], [ -74.301837706495462, 40.535463229855061 ], [ -74.301781715256482, 40.536202493348952 ], [ -74.301762740190469, 40.536348495965385 ], [ -74.301555423318263, 40.537357225807781 ], [ -74.301516445432625, 40.537495229892698 ], [ -74.301319068458426, 40.538093703050535 ], [ -74.30127408653027, 40.538212707224368 ], [ -74.300797604828077, 40.539236741517172 ], [ -74.300738619160285, 40.539342746902534 ], [ -74.3006428668387, 40.539510090728697 ], [ -74.300622871043515, 40.539544092709079 ], [ -74.299909194364247, 40.540573711070209 ], [ -74.29982620390075, 40.540676718673758 ], [ -74.29919719028706, 40.54138052648279 ], [ -74.298483838210117, 40.542035858153525 ], [ -74.298374840139772, 40.542126866403734 ], [ -74.298220029371265, 40.542253655039815 ], [ -74.29815902975335, 40.542302659466174 ], [ -74.297784866788263, 40.542590020406692 ], [ -74.297705865522502, 40.542648025415922 ], [ -74.297501593984222, 40.542794483708448 ], [ -74.297491593762658, 40.542801484959675 ], [ -74.296637091441895, 40.543345421231301 ], [ -74.296547087669722, 40.543397426407338 ], [ -74.295666872975858, 40.543859740835963 ], [ -74.295542864321035, 40.543918747631594 ], [ -74.295375042046203, 40.543997127748796 ], [ -74.295319418473042, 40.544022622617504 ], [ -74.295122387273224, 40.544143997127563 ], [ -74.294768372308837, 40.544356019019951 ], [ -74.294393654978094, 40.544571397710349 ], [ -74.294130640215784, 40.544716413326647 ], [ -74.293948203540893, 40.544815008604836 ], [ -74.293715867508666, 40.544938067223768 ], [ -74.293582692819527, 40.54500977991362 ], [ -74.293380954694811, 40.545119581110285 ], [ -74.292968841794035, 40.545334008400218 ], [ -74.292853263234505, 40.545391454393105 ], [ -74.292546321958937, 40.545547503778998 ], [ -74.292363200340731, 40.54563874546816 ], [ -74.292217484762674, 40.545709889143438 ], [ -74.292087757026096, 40.545777556101584 ], [ -74.291962757430909, 40.545841867110468 ], [ -74.291692740753575, 40.545978882185089 ], [ -74.291608862792287, 40.54602105282936 ], [ -74.291345844774739, 40.546152066871265 ], [ -74.291076205918088, 40.54628244636055 ], [ -74.290784184665853, 40.546419461884305 ], [ -74.289825546702758, 40.546823746462451 ], [ -74.288821916782439, 40.547158525595428 ], [ -74.288667900190873, 40.547203531175235 ], [ -74.287029326410064, 40.547580998464127 ], [ -74.286918313126492, 40.547600000721793 ], [ -74.285851193894558, 40.547743786169583 ], [ -74.285669169573922, 40.547761788106676 ], [ -74.28444874135667, 40.547833682768541 ], [ -74.284247869756143, 40.547829600961613 ], [ -74.284198164120539, 40.547847750216327 ], [ -74.283939517578176, 40.547939279692713 ], [ -74.283691492485332, 40.548024289464266 ], [ -74.282134897709497, 40.548460426386804 ], [ -74.282030787062112, 40.548483412057891 ], [ -74.281852539190609, 40.548524065518549 ], [ -74.281524892146848, 40.548594882742755 ], [ -74.28148803865389, 40.548602412012642 ], [ -74.280939043732502, 40.548883881947347 ], [ -74.280007890004384, 40.549315099613494 ], [ -74.279579525905447, 40.549474291587366 ], [ -74.279347676961578, 40.549598611558238 ], [ -74.279324674875198, 40.549609612427197 ], [ -74.278403150877637, 40.550007584391068 ], [ -74.278354146065851, 40.550026586978127 ], [ -74.277229781673753, 40.550407729191065 ], [ -74.276687403180333, 40.55054205821726 ], [ -74.276661187348026, 40.550552664097111 ], [ -74.276619182582976, 40.550567665782602 ], [ -74.275610588331716, 40.550885409691638 ], [ -74.275559582627878, 40.550899411219859 ], [ -74.274949177316316, 40.55103189804808 ], [ -74.274748215419237, 40.55108894995076 ], [ -74.274651361333412, 40.551108388755736 ], [ -74.27446213426299, 40.551163437184975 ], [ -74.27445013319219, 40.551166437798862 ], [ -74.274316050814875, 40.551199288154343 ], [ -74.274291047798286, 40.551205288700615 ], [ -74.274253725599522, 40.551213348544415 ], [ -74.273975047763273, 40.551325700531017 ], [ -74.27396404685004, 40.551329701295849 ], [ -74.272560165868967, 40.551758434308873 ], [ -74.272548164798138, 40.551761434896065 ], [ -74.271207087125603, 40.552031356196714 ], [ -74.270152632527143, 40.552145084656061 ], [ -74.269306811652456, 40.55231289854482 ], [ -74.269294809554609, 40.552314898928863 ], [ -74.269108977575854, 40.55234467941051 ], [ -74.269095976409275, 40.552346679794198 ], [ -74.267945104414551, 40.55247912264538 ], [ -74.267932102275935, 40.55248012214858 ], [ -74.266747992354212, 40.552525519065632 ], [ -74.266722988889484, 40.552525519036465 ], [ -74.265538798337332, 40.552480113144348 ], [ -74.265525797105113, 40.552479113611277 ], [ -74.264285568961668, 40.552332638351345 ], [ -74.264260565728321, 40.552328637528966 ], [ -74.263006804603592, 40.552072423542938 ], [ -74.262994803555557, 40.552069422945955 ], [ -74.261944880517973, 40.55176399675684 ], [ -74.261932878746435, 40.551759996666753 ], [ -74.261583993218537, 40.551638455503259 ], [ -74.260936131499861, 40.551479611233709 ], [ -74.260730109314707, 40.551422604326198 ], [ -74.259779326465306, 40.551123165507597 ], [ -74.258866318547604, 40.550761748124089 ], [ -74.258702306029733, 40.55068973959176 ], [ -74.257745421936917, 40.550221457193906 ], [ -74.256852015044871, 40.549685154805829 ], [ -74.256244711460624, 40.549242159794481 ], [ -74.255540694130914, 40.549315324186509 ], [ -74.25437195200972, 40.549347723118018 ], [ -74.253204741116747, 40.549291772771902 ], [ -74.252050512682146, 40.549148022102841 ], [ -74.251714470448235, 40.549093015005091 ], [ -74.251698852992391, 40.549090450111947 ], [ -74.248333594126805, 40.548535894642484 ], [ -74.24784893767854, 40.548456231865451 ], [ -74.248982000368898, 40.545592000236695 ], [ -74.249192000431179, 40.545061999802265 ], [ -74.250283999677094, 40.542300000136727 ], [ -74.249937000245779, 40.540559999835438 ], [ -74.249734999681081, 40.539551000208483 ], [ -74.247460999879294, 40.528171000335668 ], [ -74.246834000065476, 40.52503200011882 ], [ -74.24678200018694, 40.524770999699768 ], [ -74.246083000403118, 40.521274999839719 ], [ -74.24602700032662, 40.520995000311942 ], [ -74.246019999755603, 40.520958000330751 ], [ -74.253016999961503, 40.516369000307563 ], [ -74.254048000006335, 40.515692000187862 ], [ -74.254094999862005, 40.515661000189212 ], [ -74.254760000208961, 40.514516999862956 ], [ -74.255710000062962, 40.512881000148653 ], [ -74.25628699964804, 40.511887000267016 ], [ -74.256983999782051, 40.510687999758545 ], [ -74.257233000202376, 40.510259000327977 ], [ -74.258128999629704, 40.508716999917098 ], [ -74.258168999812682, 40.508163000145181 ], [ -74.258186000429447, 40.507919000263506 ], [ -74.258290000186506, 40.506493999755804 ], [ -74.258312999752718, 40.506177999971023 ], [ -74.258392000293753, 40.505078999988143 ], [ -74.258558999800016, 40.502781999950464 ], [ -74.258576000416767, 40.502545000284002 ], [ -74.258595999609923, 40.502280999747434 ], [ -74.258703999564972, 40.500789000172617 ], [ -74.258753999793683, 40.500103000247044 ], [ -74.258843000380466, 40.498874999999032 ], [ -74.258136000200707, 40.497389000259233 ], [ -74.257116999851434, 40.495244999942678 ], [ -74.256290000021096, 40.493506000230717 ], [ -74.256134000385472, 40.49318299978578 ], [ -74.25410677332809, 40.488913641487358 ], [ -74.262846449665304, 40.486173777177058 ], [ -74.264021466095727, 40.485859563014685 ], [ -74.265233296590367, 40.485641622390204 ], [ -74.266468452928919, 40.485522381088458 ], [ -74.267713187562833, 40.485503166336208 ], [ -74.268953646449773, 40.485584192045231 ], [ -74.270176023066824, 40.485764556431945 ], [ -74.272764029724172, 40.486255792102654 ], [ -74.283307072358639, 40.488250828272605 ], [ -74.283357279073016, 40.488260415475487 ], [ -74.286513510432158, 40.488868681701724 ], [ -74.288599229683385, 40.48926958607565 ], [ -74.290678979212643, 40.489670532200591 ], [ -74.291776300138693, 40.48992597743672 ], [ -74.292835953939488, 40.49026156350412 ], [ -74.293847926997472, 40.490674119373622 ], [ -74.294802655753315, 40.49115974663551 ], [ -74.295691117018535, 40.491713856298219 ], [ -74.29650491320804, 40.492331212109647 ], [ -74.297695937147935, 40.493327123844416 ], [ -74.298418909406706, 40.493993239857879 ], [ -74.299054873128171, 40.494709221866707 ], [ -74.29959796234192, 40.495468469068292 ], [ -74.300043166788896, 40.496263981556567 ], [ -74.300386378206596, 40.497088424821925 ], [ -74.300624428319722, 40.49793419734349 ], [ -74.300755118181968, 40.498793500652361 ], [ -74.300777238593838, 40.499658411220508 ], [ -74.30069058140279, 40.500520953513586 ], [ -74.30056713567518, 40.501273457251017 ], [ -74.300478136413162, 40.501814261244952 ], [ -74.301167800863638, 40.502450640642998 ], [ -74.30184439043515, 40.503225837211289 ], [ -74.302412512019842, 40.504050217527897 ], [ -74.302866088593206, 40.504914969391834 ], [ -74.303200266967778, 40.505810848703021 ], [ -74.303411469843056, 40.506728278238285 ], [ -74.303497434241876, 40.50765745000276 ], [ -74.303457235914664, 40.508588430064457 ], [ -74.303318010369779, 40.509840500935191 ] ] ] } }
]
}
