{
"type": "FeatureCollection",
"name": "boundary",
"crs": { "type": "name", "properties": { "name": "urn:ogc:def:crs:OGC:1.3:CRS84" } },
"features": [
{ "type": "Feature", "properties": { "name": "Camden", "geoid": "3400710000" }, "geometry": { "type": "Polygon", "coordinates": [ [ [ -75.136288000388504, 39.946588000005796 ], [ -75.136315999977597, 39.945841000100877 ], [ -75.136227000289139, 39.944932000076619 ], [ -75.136140000250506, 39.944415999678164 ], [ -75.135966000173241, 39.943289000300737 ], [ -75.135860999692937, 39.942649000221287 ], [ -75.135762999783637, 39.941962999827318 ], [ -75.135699000209542, 39.940794999659275 ], [ -75.135721999775754, 39.940148999948846 ], [ -75.13571400027817, 39.939479999925481 ], [ -75.135745000240291, 39.938736999911022 ], [ -75.135799999593559, 39.937433999807226 ], [ -75.135838000126711, 39.936547999703997 ], [ -75.135927999640089, 39.93436100004174 ], [ -75.135953999579343, 39.93380299996717 ], [ -75.135911999746554, 39.93244500001046 ], [ -75.135780000400388, 39.931571999833082 ], [ -75.135607999972933, 39.930656999818545 ], [ -75.135310000047113, 39.92928499970909 ], [ -75.135177999802622, 39.928698000336503 ], [ -75.134653999920999, 39.927369000185394 ], [ -75.134119000168695, 39.926085999930287 ], [ -75.13400799984062, 39.925824000041999 ], [ -75.133569000347791, 39.924859000254109 ], [ -75.132235000354243, 39.921932000214376 ], [ -75.132175999904689, 39.921804000001174 ], [ -75.131379000211581, 39.920052999831874 ], [ -75.13104500030073, 39.919208000233219 ], [ -75.130757000420644, 39.918480000198997 ], [ -75.130485000434092, 39.917693000069562 ], [ -75.130349999816545, 39.917403999970901 ], [ -75.130186999609933, 39.916668999927424 ], [ -75.130058999563417, 39.916150000139538 ], [ -75.12998999996644, 39.915885000235122 ], [ -75.12978499992704, 39.914805999948307 ], [ -75.129682999819778, 39.91422399993791 ], [ -75.129513999765379, 39.913218000337771 ], [ -75.129383000244118, 39.91232399995458 ], [ -75.129298999680216, 39.911304000045696 ], [ -75.129239000304082, 39.910172999821377 ], [ -75.129196999572983, 39.909121999955019 ], [ -75.129231999733079, 39.908216000333844 ], [ -75.129275000289098, 39.907481000227641 ], [ -75.127845999860995, 39.907434999925044 ], [ -75.127050999817698, 39.907355000283921 ], [ -75.126613000149774, 39.907311000303707 ], [ -75.125090000010331, 39.90729300008433 ], [ -75.123759000389839, 39.907363999696955 ], [ -75.122028999662845, 39.907458000080233 ], [ -75.120359999933555, 39.908472000324828 ], [ -75.120041999916239, 39.908491999917729 ], [ -75.117911000229583, 39.90862199988581 ], [ -75.117486000082152, 39.908482000122035 ], [ -75.11733399974618, 39.908413999818528 ], [ -75.11717700028565, 39.908311999925758 ], [ -75.116726000198952, 39.907974999882619 ], [ -75.116456999687117, 39.907752000065138 ], [ -75.11616899980703, 39.907514000305895 ], [ -75.115527999749517, 39.906985000039469 ], [ -75.115249000090259, 39.906749000106188 ], [ -75.115127999716421, 39.906645999933012 ], [ -75.11495299981425, 39.906469000217072 ], [ -75.114849999882097, 39.906363999877449 ], [ -75.114833999988576, 39.906343999663292 ], [ -75.114772999889198, 39.906254000005362 ], [ -75.114714000337969, 39.906116999855058 ], [ -75.114694000246473, 39.905969999957478 ], [ -75.114698000444434, 39.905853000291735 ], [ -75.114711999789833, 39.905726000228157 ], [ -75.1147650003916, 39.905604999921401 ], [ -75.114879000194406, 39.905392000217688 ], [ -75.11501499973852, 39.905202000075235 ], [ -75.115155000378948, 39.905010000309993 ], [ -75.115213999930162, 39.904933000274511 ], [ -75.115393999855229, 39.904718999963052 ], [ -75.115574999605187, 39.904515999948295 ], [ -75.115931000155655, 39.904111999992878 ], [ -75.116125000324402, 39.903897999873557 ], [ -75.116284000333081, 39.90373199966195 ], [ -75.116381000417434, 39.903580999817599 ], [ -75.116429000098023, 39.903474000045932 ], [ -75.116440999793596, 39.903425000062498 ], [ -75.116460000060172, 39.90334000028939 ], [ -75.116527000007324, 39.903046999898422 ], [ -75.116528999657149, 39.90302800001561 ], [ -75.116542000075938, 39.902910000226534 ], [ -75.116551000296752, 39.902829000201116 ], [ -75.116557999969459, 39.902784000145616 ], [ -75.116571000388262, 39.902670000332186 ], [ -75.116564999642165, 39.902535999692397 ], [ -75.116542000075938, 39.90241200016284 ], [ -75.116491999847213, 39.902283999990765 ], [ -75.116639000160305, 39.902115000199437 ], [ -75.116672999597185, 39.902075999976361 ], [ -75.115006000416017, 39.901469999966103 ], [ -75.113715999905068, 39.900812999730469 ], [ -75.113431000398037, 39.899599000323342 ], [ -75.11339200003998, 39.899433000034009 ], [ -75.113337999613321, 39.89941199988985 ], [ -75.113263000168558, 39.89938399991739 ], [ -75.113168999558908, 39.899298999955469 ], [ -75.112966000067644, 39.899164000326302 ], [ -75.112836000371303, 39.899090999839203 ], [ -75.112627999958832, 39.898984999928032 ], [ -75.11243499961499, 39.898887999690139 ], [ -75.112143000435253, 39.898747000037261 ], [ -75.112003999619759, 39.898670999840149 ], [ -75.111873999923418, 39.898596000233987 ], [ -75.111836000288591, 39.898561000022106 ], [ -75.111605000309922, 39.898578999778856 ], [ -75.111435000430603, 39.898609000052133 ], [ -75.111135999781524, 39.89867199982514 ], [ -75.110938000313141, 39.898726999667126 ], [ -75.110744999969285, 39.898800999835956 ], [ -75.110551999625429, 39.898885999726403 ], [ -75.110452000066317, 39.898928000330599 ], [ -75.110387999593925, 39.89895499981936 ], [ -75.109995000131846, 39.899098999669768 ], [ -75.109786999719375, 39.899190999722073 ], [ -75.109775999848722, 39.899195000320866 ], [ -75.109704999703609, 39.899226000301368 ], [ -75.109619000388193, 39.899267000031706 ], [ -75.109529999801438, 39.899307999737516 ], [ -75.109383000386657, 39.899396000300818 ], [ -75.109281000279395, 39.899458000065927 ], [ -75.109211999784108, 39.899519999774952 ], [ -75.109122000270744, 39.899608000065996 ], [ -75.109056999973404, 39.899683999913094 ], [ -75.108948000193465, 39.899766000179596 ], [ -75.108853999583829, 39.899812000117976 ], [ -75.108667999810976, 39.899882999902417 ], [ -75.108514999650097, 39.899940000083824 ], [ -75.108384000128851, 39.899994000320717 ], [ -75.108323999854392, 39.900037000210929 ], [ -75.108237999640664, 39.900119000054957 ], [ -75.108121000363113, 39.900176000040013 ], [ -75.108080000355244, 39.900188000284743 ], [ -75.107938999889925, 39.900230000090971 ], [ -75.107717000132084, 39.90028200017634 ], [ -75.10738900006902, 39.900347999671318 ], [ -75.107144999671547, 39.900369000217729 ], [ -75.1065709995612, 39.900355000083884 ], [ -75.106259000289981, 39.9003399999865 ], [ -75.106138999741063, 39.90033800006514 ], [ -75.105982000280548, 39.900339000025845 ], [ -75.105756000324718, 39.900371000138186 ], [ -75.105472999569201, 39.90041399979183 ], [ -75.105439999957227, 39.90042100019766 ], [ -75.10529400036738, 39.900448999746402 ], [ -75.104875000067707, 39.900519000291084 ], [ -75.104791000402116, 39.900519000291084 ], [ -75.104704000363498, 39.900503000271343 ], [ -75.104593999860313, 39.900466999696405 ], [ -75.104322999698667, 39.900370000177986 ], [ -75.104002000206606, 39.900262000254216 ], [ -75.103705999930597, 39.900198999875506 ], [ -75.103475999776833, 39.900132000273352 ], [ -75.103240999600189, 39.900026999870256 ], [ -75.102915000085261, 39.899874000195879 ], [ -75.102807999955147, 39.899810000181262 ], [ -75.102735000160209, 39.899740000290592 ], [ -75.102643000098695, 39.899641999772257 ], [ -75.10253599996858, 39.899502000265365 ], [ -75.102464999823482, 39.899390999739275 ], [ -75.102426000363735, 39.899330999864354 ], [ -75.102345000172875, 39.899233000139382 ], [ -75.102257000309336, 39.899166000281923 ], [ -75.102114000194192, 39.899098999669768 ], [ -75.101964000406369, 39.899049000024036 ], [ -75.101787999780967, 39.899014000043572 ], [ -75.101597999810167, 39.898975000123009 ], [ -75.101444999649289, 39.898928000330599 ], [ -75.10128700036384, 39.89888699970826 ], [ -75.101140999875668, 39.89887399994285 ], [ -75.101030000445903, 39.898896000233592 ], [ -75.101013999654057, 39.898900000160367 ], [ -75.100900999676156, 39.898945000009967 ], [ -75.10081500036074, 39.898981999986667 ], [ -75.100647999956166, 39.899067000341788 ], [ -75.100433999695923, 39.899164000326302 ], [ -75.1002839999081, 39.899192999676913 ], [ -75.100093000112395, 39.899207000048207 ], [ -75.099883000050113, 39.89921999975045 ], [ -75.099734000087196, 39.899226000301368 ], [ -75.099671000338006, 39.899230000208888 ], [ -75.099514999804072, 39.899262000149932 ], [ -75.099411999871919, 39.899281999674798 ], [ -75.099260000434271, 39.89934400023224 ], [ -75.099108999923203, 39.899409999941462 ], [ -75.098912000279711, 39.899494999765643 ], [ -75.098727000331792, 39.899568999794312 ], [ -75.098538000185911, 39.89964099980137 ], [ -75.098420000185129, 39.899697000214019 ], [ -75.098308999857039, 39.899750999953277 ], [ -75.098150999673294, 39.899855000122407 ], [ -75.098130999581812, 39.899867999701755 ], [ -75.097800000044003, 39.90002999976587 ], [ -75.097601999677309, 39.900120999982718 ], [ -75.097430999973071, 39.900211000116201 ], [ -75.097282000010154, 39.900299000208982 ], [ -75.096993000305162, 39.900402000275839 ], [ -75.096295000346245, 39.901007000132388 ], [ -75.096233000421961, 39.901084999705816 ], [ -75.095983000176702, 39.901398999758591 ], [ -75.095819999970089, 39.901409999844127 ], [ -75.094916999971758, 39.901471999854429 ], [ -75.094758999788027, 39.901482999928184 ], [ -75.094872999590834, 39.901733999878864 ], [ -75.09533399972328, 39.902771999666427 ], [ -75.095398000195701, 39.90289599992272 ], [ -75.095583000143634, 39.9033150002955 ], [ -75.095634000197251, 39.903463000291751 ], [ -75.095665000159386, 39.903553000170447 ], [ -75.095725000433845, 39.903741000240039 ], [ -75.095758999870725, 39.903941000070297 ], [ -75.095828000366012, 39.904184000050215 ], [ -75.095866000000839, 39.90428799969316 ], [ -75.096004999918023, 39.904783000216419 ], [ -75.096143999835206, 39.905121999893865 ], [ -75.096451999806774, 39.905866000111338 ], [ -75.096705000425075, 39.906460999868735 ], [ -75.096739999686861, 39.906548000333679 ], [ -75.096779000044918, 39.906697000105027 ], [ -75.096851999839842, 39.906835000339548 ], [ -75.097153999963624, 39.907502999822206 ], [ -75.097210999865041, 39.9076200001155 ], [ -75.097280000360342, 39.907762999819809 ], [ -75.097302999926555, 39.907813999849324 ], [ -75.097372000421842, 39.907973000184107 ], [ -75.097400000010936, 39.9080360003057 ], [ -75.09697300021368, 39.908332000254454 ], [ -75.094131999974223, 39.909129000160235 ], [ -75.093966000292866, 39.909179000030242 ], [ -75.092494000207054, 39.909589999893967 ], [ -75.092467000442866, 39.909594999711132 ], [ -75.093404999702983, 39.910703999894537 ], [ -75.093506999810245, 39.910825000152876 ], [ -75.094422000402432, 39.911906999829171 ], [ -75.095893999589947, 39.91364700001543 ], [ -75.096086999933789, 39.913664000176965 ], [ -75.096148999858059, 39.913718999697984 ], [ -75.096261000011069, 39.913724999668133 ], [ -75.09630899969163, 39.913729999872508 ], [ -75.096364999768127, 39.913735000076507 ], [ -75.096598000294946, 39.913756999729621 ], [ -75.097703999784557, 39.913753999746007 ], [ -75.098692999996615, 39.913661000189286 ], [ -75.099505999583229, 39.913439999817413 ], [ -75.099712000345875, 39.913384000302045 ], [ -75.099801999859238, 39.913360000298887 ], [ -75.099845000415272, 39.913462000254256 ], [ -75.099944999974383, 39.913699000253111 ], [ -75.100067999998032, 39.913948000022614 ], [ -75.100948000430137, 39.915743999732868 ], [ -75.101002999783404, 39.91586299988758 ], [ -75.101049999639073, 39.915963999827731 ], [ -75.101515999794401, 39.916961999933179 ], [ -75.101728000404819, 39.91741399984209 ], [ -75.101771000062527, 39.91750600010446 ], [ -75.101967999706019, 39.917924999998178 ], [ -75.101981999949714, 39.918149000157555 ], [ -75.101735000077511, 39.918156000129173 ], [ -75.101571999870899, 39.918193999765904 ], [ -75.100144999990931, 39.918595000267715 ], [ -75.099268999756774, 39.91884099970035 ], [ -75.098621000026583, 39.919028000153823 ], [ -75.098385999849938, 39.919096000254711 ], [ -75.097676000195463, 39.919300999836231 ], [ -75.097454000437594, 39.91936300019038 ], [ -75.096537000195568, 39.919616000131327 ], [ -75.095702999794227, 39.919851000151361 ], [ -75.094778999879495, 39.920115000194123 ], [ -75.093874000231366, 39.92037099980633 ], [ -75.093475999848081, 39.920482999766321 ], [ -75.092994999624167, 39.920618000102053 ], [ -75.091831000408234, 39.92094099988639 ], [ -75.091761000088042, 39.920960000312562 ], [ -75.091401000237923, 39.921059999966737 ], [ -75.091352999659037, 39.921084000027349 ], [ -75.091254999749751, 39.921132000123372 ], [ -75.091192000000561, 39.921162000166262 ], [ -75.09079600016544, 39.921352000132856 ], [ -75.090238999773518, 39.921653999683691 ], [ -75.089929000152111, 39.921821999851858 ], [ -75.089905999687588, 39.921833000102723 ], [ -75.088486000378623, 39.922518000094151 ], [ -75.088359999981932, 39.922571000121692 ], [ -75.088063999705923, 39.922695999998041 ], [ -75.087558000265943, 39.922977000011407 ], [ -75.085393000244082, 39.924083000303476 ], [ -75.08519999990024, 39.924178000089 ], [ -75.084039999983972, 39.924772999917039 ], [ -75.083296999819211, 39.925147000291901 ], [ -75.083112999696212, 39.925240000095584 ], [ -75.081540000226354, 39.926040999997113 ], [ -75.082179999560637, 39.926264000202707 ], [ -75.082936999969093, 39.926494999757836 ], [ -75.083318999560518, 39.926610000143391 ], [ -75.08362400005737, 39.926693000133916 ], [ -75.08387500012752, 39.926707999972074 ], [ -75.083916000135417, 39.926717000286736 ], [ -75.083995999603033, 39.92672700017571 ], [ -75.084101000083351, 39.926740000166923 ], [ -75.084214000061252, 39.926753999730813 ], [ -75.084372000244997, 39.926774000185361 ], [ -75.084885000255966, 39.926704000291103 ], [ -75.085435000076899, 39.926662999758847 ], [ -75.085791999553962, 39.92668199997496 ], [ -75.086172000393873, 39.926735000223573 ], [ -75.086487000038119, 39.926819999899756 ], [ -75.086709999620879, 39.92693499973938 ], [ -75.086911000360644, 39.927082000109699 ], [ -75.087091000285724, 39.927294999875336 ], [ -75.087236999875572, 39.927497000328088 ], [ -75.087297000150031, 39.927744999966443 ], [ -75.087319999716243, 39.928024999678392 ], [ -75.087258999616878, 39.928305999864136 ], [ -75.087220000157146, 39.928653000053664 ], [ -75.087164999905539, 39.928883999814047 ], [ -75.087139999791205, 39.929191999889397 ], [ -75.087071000194229, 39.92951099966281 ], [ -75.086968000262061, 39.929835999952473 ], [ -75.086770999720258, 39.930146000306401 ], [ -75.086645000221878, 39.930393999991992 ], [ -75.086518999825174, 39.930576000228484 ], [ -75.08636499983939, 39.930891000315548 ], [ -75.086210999853606, 39.931161000318838 ], [ -75.086112999944319, 39.931372000087769 ], [ -75.086015000035019, 39.931596999846249 ], [ -75.085947000262976, 39.931888999847594 ], [ -75.085999999966418, 39.932011000059482 ], [ -75.08600699963911, 39.932026000110071 ], [ -75.086042999624112, 39.932108999733472 ], [ -75.086194000135166, 39.932266999966664 ], [ -75.086331000402524, 39.932481000311334 ], [ -75.086390999778658, 39.932733999997382 ], [ -75.086394999976619, 39.933047000141698 ], [ -75.086388000303941, 39.933116000267049 ], [ -75.086391999603578, 39.933176000169773 ], [ -75.086403000372542, 39.933274000242193 ], [ -75.086414000243195, 39.933393000239867 ], [ -75.086424000288957, 39.933492000167114 ], [ -75.086430999961621, 39.933604000016523 ], [ -75.086420999915887, 39.933762999715498 ], [ -75.086405000022367, 39.934024000058123 ], [ -75.086399999999486, 39.934057999902841 ], [ -75.086377000433274, 39.934216999924779 ], [ -75.08636400001447, 39.934340999737479 ], [ -75.086363000189579, 39.934368999886274 ], [ -75.086360999641428, 39.934413999855451 ], [ -75.086362000364659, 39.934456000029606 ], [ -75.086369000037351, 39.934594000125067 ], [ -75.086388000303941, 39.934652999961166 ], [ -75.086427999588579, 39.934708999992083 ], [ -75.086471000144599, 39.934758000325957 ], [ -75.086528999870922, 39.934797999996114 ], [ -75.086580999749458, 39.934815999874516 ], [ -75.08677300026838, 39.934827000103972 ], [ -75.086867999804639, 39.934825999957951 ], [ -75.087062999798306, 39.934810999832223 ], [ -75.08721900033224, 39.93478000011298 ], [ -75.087574999984383, 39.934673000174257 ], [ -75.087887999978832, 39.934567999679118 ], [ -75.088190000102614, 39.934452000112522 ], [ -75.088378000423589, 39.934385000261408 ], [ -75.088499999724007, 39.934353999660395 ], [ -75.088719000007131, 39.934345999814099 ], [ -75.088837999832819, 39.934344999661057 ], [ -75.088929000069427, 39.93435899973607 ], [ -75.089021000130927, 39.934381999803875 ], [ -75.089069999636408, 39.934394999718997 ], [ -75.08920000023106, 39.934439000208215 ], [ -75.08938900037694, 39.934511000071041 ], [ -75.089602999738887, 39.934613000206262 ], [ -75.089723000287805, 39.934684999886031 ], [ -75.089811000151343, 39.934767999729047 ], [ -75.089876000448669, 39.934828000249979 ], [ -75.089946999695456, 39.934912000064351 ], [ -75.090002999771983, 39.935012000004178 ], [ -75.090056000373721, 39.935148000073504 ], [ -75.090083000137909, 39.935262999698459 ], [ -75.090102000404471, 39.935388999958107 ], [ -75.090119000122911, 39.935646999897187 ], [ -75.090130999818484, 39.935905000241227 ], [ -75.090133000366635, 39.935953999718812 ], [ -75.090133000366635, 39.93605599976982 ], [ -75.089959000289355, 39.936196999772299 ], [ -75.089852000159226, 39.93628499978297 ], [ -75.089836000265706, 39.936296999900911 ], [ -75.089709000044095, 39.936173000188113 ], [ -75.089649999594556, 39.936114999723138 ], [ -75.089611999959715, 39.936077999828413 ], [ -75.089596999891086, 39.936062999977089 ], [ -75.089287000269707, 39.935763000193575 ], [ -75.088914999825718, 39.936086000161055 ], [ -75.088851000251623, 39.936136000324687 ], [ -75.088642000014232, 39.936316000198126 ], [ -75.088281000339208, 39.936627000252834 ], [ -75.088153000292678, 39.93673100022599 ], [ -75.086926000429258, 39.937785000282211 ], [ -75.086334999702174, 39.93829200023896 ], [ -75.085769999812641, 39.93876899999259 ], [ -75.085173000136066, 39.939282000032421 ], [ -75.084588000155065, 39.939779999944896 ], [ -75.084019999892476, 39.940268999767774 ], [ -75.083410999622032, 39.940786999877155 ], [ -75.083314000435962, 39.94074099990641 ], [ -75.083081999734048, 39.940631000150461 ], [ -75.082777999960442, 39.940487000140088 ], [ -75.082028999947894, 39.94013200016412 ], [ -75.081720000151421, 39.939986000339907 ], [ -75.081059999827332, 39.939673000247282 ], [ -75.080713000396017, 39.939519000202118 ], [ -75.079972999706001, 39.939192000267347 ], [ -75.079316999579888, 39.93888399973175 ], [ -75.078411000106826, 39.939681000159645 ], [ -75.07755599978907, 39.940399000022829 ], [ -75.076692999973716, 39.941133000103278 ], [ -75.07612100041149, 39.941631000319397 ], [ -75.075514999615777, 39.942160000188601 ], [ -75.07513200019946, 39.94249399995261 ], [ -75.075078999597693, 39.942540000122335 ], [ -75.074998000305129, 39.942609999662437 ], [ -75.074603000294928, 39.942936999792614 ], [ -75.073836999665644, 39.943569999805618 ], [ -75.073147999927556, 39.944222000328935 ], [ -75.072588999885824, 39.944709000084281 ], [ -75.072402000288079, 39.944857000160319 ], [ -75.071765000428513, 39.94536200007586 ], [ -75.07081399985131, 39.946117000238651 ], [ -75.069761999890062, 39.946950999982441 ], [ -75.069443999872746, 39.946931999883446 ], [ -75.069253999901946, 39.946920000253179 ], [ -75.069156999817565, 39.946913999748581 ], [ -75.068930000036858, 39.946900000176015 ], [ -75.06830300022304, 39.946856000123418 ], [ -75.06797400033507, 39.946834000086511 ], [ -75.067861000357169, 39.946826000321757 ], [ -75.067780999991228, 39.946819999808916 ], [ -75.067729999937583, 39.946815999925818 ], [ -75.067459999600857, 39.94679699978937 ], [ -75.066763000365157, 39.946826000321757 ], [ -75.066595999960597, 39.946827000292394 ], [ -75.066575000044196, 39.947841000192476 ], [ -75.066545999731886, 39.948518999931778 ], [ -75.066938000267356, 39.948478000071383 ], [ -75.067014000435336, 39.948469999810186 ], [ -75.067088000055179, 39.948462000236795 ], [ -75.067917000433653, 39.948374999994577 ], [ -75.069730999927927, 39.948183000065931 ], [ -75.070212000151855, 39.948130999849027 ], [ -75.070546000062706, 39.948097000109648 ], [ -75.070706999721182, 39.948081000185965 ], [ -75.070998999799215, 39.948049000327295 ], [ -75.071878000406414, 39.947955999835322 ], [ -75.07254500040321, 39.947888000165662 ], [ -75.072710000259647, 39.947871000237726 ], [ -75.072907999728059, 39.948641000110001 ], [ -75.072993000116853, 39.948973000035302 ], [ -75.073051999668095, 39.949142999829633 ], [ -75.073133999683861, 39.949276000245099 ], [ -75.073296000065568, 39.949490999670822 ], [ -75.073331000225664, 39.949536999956685 ], [ -75.073363000012719, 39.949580999662182 ], [ -75.073398000172816, 39.949626999887521 ], [ -75.073456999724044, 39.949706999726672 ], [ -75.073491000059235, 39.949752999867229 ], [ -75.073718999664862, 39.950059999758921 ], [ -75.074456999806756, 39.951051999884285 ], [ -75.074486999943971, 39.951091999670894 ], [ -75.073465000119967, 39.951736000246086 ], [ -75.0724829995806, 39.952357000050874 ], [ -75.07174299978891, 39.952828000238149 ], [ -75.071120999997973, 39.953216999723637 ], [ -75.070426000412112, 39.953631999849357 ], [ -75.069699999965792, 39.954079999883298 ], [ -75.070849000011407, 39.955187000118883 ], [ -75.072008000102784, 39.956262000191771 ], [ -75.072567999969422, 39.956771999735444 ], [ -75.072896000032472, 39.95708999989133 ], [ -75.07371299981709, 39.956770999910191 ], [ -75.074434000240529, 39.956479000041178 ], [ -75.075328999842952, 39.956115999670736 ], [ -75.076147000350772, 39.955782000306371 ], [ -75.076877000096729, 39.955499000318802 ], [ -75.077551999591108, 39.955209000223753 ], [ -75.07782399957766, 39.955572999742451 ], [ -75.078283999885201, 39.956188999970216 ], [ -75.078996999912732, 39.957143999822868 ], [ -75.079600000335418, 39.957952000260775 ], [ -75.080279999852664, 39.958864999967965 ], [ -75.080475999671236, 39.959127999853045 ], [ -75.080534000295884, 39.959206000017204 ], [ -75.080657000319519, 39.959371000230171 ], [ -75.080886999574972, 39.95967800033057 ], [ -75.081017999994543, 39.959855000210545 ], [ -75.081045999583637, 39.959893000109538 ], [ -75.081168999607286, 39.960058000041876 ], [ -75.081736999869847, 39.960821000001538 ], [ -75.082208999872947, 39.961450000060537 ], [ -75.082643000241248, 39.962015000125007 ], [ -75.083830999746596, 39.963564999805747 ], [ -75.084978000142399, 39.965059999924051 ], [ -75.085086000097419, 39.965194000071726 ], [ -75.085122999907355, 39.965274999992538 ], [ -75.085281000091086, 39.965583000132611 ], [ -75.085347000213346, 39.965836999664603 ], [ -75.085434000251979, 39.965989000293909 ], [ -75.086733999910336, 39.967673000180234 ], [ -75.087073999668959, 39.968077999973502 ], [ -75.087140999616111, 39.968158999919659 ], [ -75.088072999926752, 39.969387000137168 ], [ -75.088057000033231, 39.969395000016924 ], [ -75.088097000216194, 39.969444999932691 ], [ -75.088120999607341, 39.969477999746836 ], [ -75.088137000399172, 39.969469999876793 ], [ -75.088765999862801, 39.969167000323154 ], [ -75.090745000111809, 39.968211999713425 ], [ -75.092490000009093, 39.967284000307465 ], [ -75.094318999571968, 39.966312000078808 ], [ -75.094501000045156, 39.966180999808593 ], [ -75.096757000303612, 39.964548000116253 ], [ -75.099019000409825, 39.96291200008055 ], [ -75.10245700032587, 39.960404999660462 ], [ -75.102816000351083, 39.960144000107519 ], [ -75.103175000376282, 39.959881999778567 ], [ -75.10341899987543, 39.959702999715098 ], [ -75.103541000074159, 39.959613999743773 ], [ -75.103818999908526, 39.959411999758139 ], [ -75.108118999814977, 39.958112000339931 ], [ -75.108518999848059, 39.958112000339931 ], [ -75.109322000287278, 39.958286000044211 ], [ -75.110125999653079, 39.958459000193699 ], [ -75.113232000206423, 39.959130000123189 ], [ -75.113721999752883, 39.95923599989775 ], [ -75.117318999677565, 39.960011999946381 ], [ -75.122796000117063, 39.961529000085861 ], [ -75.12429999998993, 39.963298999895528 ], [ -75.125777000098608, 39.962544000039401 ], [ -75.127774999715882, 39.961521999729968 ], [ -75.129087999793043, 39.960708999946824 ], [ -75.12983000013287, 39.960217000238472 ], [ -75.130494999581501, 39.959596000191944 ], [ -75.130880000444293, 39.959143999946953 ], [ -75.131079999562516, 39.958908999869976 ], [ -75.131538000220232, 39.958282999946213 ], [ -75.132267999966203, 39.957043000043655 ], [ -75.132638999686961, 39.956381000150053 ], [ -75.133346999691625, 39.955113000277528 ], [ -75.133698000219226, 39.954619999700512 ], [ -75.133760000143496, 39.954459999714601 ], [ -75.133854999679741, 39.954216999790447 ], [ -75.13424200019233, 39.953419000104361 ], [ -75.134454999729357, 39.952994999762517 ], [ -75.134515000003816, 39.952878999756805 ], [ -75.134688000256176, 39.952498000205857 ], [ -75.134878000226976, 39.952076000140096 ], [ -75.135319000267941, 39.950812999897089 ], [ -75.135741000042344, 39.949518999818544 ], [ -75.135761000133812, 39.949452000257551 ], [ -75.13580499961644, 39.949233000278852 ], [ -75.135890999830153, 39.948884999813806 ], [ -75.136037000318339, 39.948268999914099 ], [ -75.136171000212642, 39.947476000195358 ], [ -75.136288000388504, 39.946588000005796 ] ] ] } }
]
}
