{
"type": "FeatureCollection",
"name": "study_area",
"crs": { "type": "name", "properties": { "name": "urn:ogc:def:crs:OGC:1.3:CRS84" } },
"features": [
{ "type": "Feature", "properties": { "name": "Camden study area", "buffer_m": 1000, "muni_area_km2": 26.858, "clipped_to_nj": true }, "geometry": { "type": "Polygon", "coordinates": [ [ [ -75.110553139448683, 39.967909615267139 ], [ -75.110065192869598, 39.967804058804518 ], [ -75.109500171067893, 39.96768200144983 ], [ -75.10707339251752, 39.969451736369791 ], [ -75.107038971984707, 39.969476735202853 ], [ -75.104778853038724, 39.97111151155103 ], [ -75.103320083786912, 39.972167540095555 ], [ -75.103042000306871, 39.972257999782869 ], [ -75.101351999762855, 39.972718999845057 ], [ -75.099180999893221, 39.973258000206783 ], [ -75.098463999667771, 39.973413999873415 ], [ -75.097389000140282, 39.973705000126927 ], [ -75.096372000339144, 39.973981000031515 ], [ -75.094557000121654, 39.974231999939839 ], [ -75.094014999798347, 39.974337999706563 ], [ -75.093469000175418, 39.974445999819359 ], [ -75.092491999658904, 39.974613000244226 ], [ -75.091541999804917, 39.974775999947965 ], [ -75.088133000201211, 39.975365000324835 ], [ -75.086390999778658, 39.975666000152877 ], [ -75.082576000294097, 39.976402000167845 ], [ -75.081218000011091, 39.976672999770507 ], [ -75.08112855494889, 39.976703488918673 ], [ -75.080256930234654, 39.976153996029574 ], [ -75.079432353469798, 39.97551861290637 ], [ -75.078694085095165, 39.974823239220349 ], [ -75.07804945584374, 39.974074782319825 ], [ -75.07798546414574, 39.973991777087697 ], [ -75.077770266893893, 39.97367952532192 ], [ -75.077151892353825, 39.97286459862196 ], [ -75.076897275175526, 39.972561252547408 ], [ -75.076665888217391, 39.972273890380599 ], [ -75.075366048090174, 39.970589778775214 ], [ -75.074717356597077, 39.969619979168392 ], [ -75.074630375664597, 39.96946797057381 ], [ -75.074397561034516, 39.968992571630835 ], [ -75.073744884985416, 39.96814170127211 ], [ -75.072559949756553, 39.966595404756504 ], [ -75.072157395993344, 39.96607124382006 ], [ -75.07152494825165, 39.966037873778497 ], [ -75.07039586749255, 39.965892058941606 ], [ -75.069290696815045, 39.965662087121153 ], [ -75.068220005214414, 39.965350157636735 ], [ -75.067194031579859, 39.964959253571152 ], [ -75.066222586689236, 39.964493113211397 ], [ -75.065314959319807, 39.963956194261634 ], [ -75.064479827376758, 39.963353631172254 ], [ -75.063725174891232, 39.962691185994998 ], [ -75.063508823108663, 39.962481403750047 ], [ -75.063064736518399, 39.962076919660277 ], [ -75.062997189621612, 39.962014832048801 ], [ -75.061838233262947, 39.960939742926719 ], [ -75.061700886087777, 39.960809895317375 ], [ -75.060551939202639, 39.959702805450092 ], [ -75.059880593393075, 39.958986534790554 ], [ -75.059303611359766, 39.958223123295973 ], [ -75.058826534538341, 39.957419907156627 ], [ -75.058453943796394, 39.956584604815454 ], [ -75.05818941552964, 39.955725242762433 ], [ -75.058035487431027, 39.954850078378421 ], [ -75.05802796454411, 39.954691444979893 ], [ -75.057899500957348, 39.954593109728187 ], [ -75.057178629460466, 39.953922944505948 ], [ -75.05654511966334, 39.953202392514889 ], [ -75.056004876862687, 39.952438173624152 ], [ -75.055562936027897, 39.951637414713083 ], [ -75.055223414938581, 39.950807583171262 ], [ -75.054989475897287, 39.949956417230609 ], [ -75.054863296370314, 39.949091853780715 ], [ -75.054846048825553, 39.948221954341825 ], [ -75.054871883202125, 39.947620367853339 ], [ -75.05489145971805, 39.946682812220338 ], [ -75.054964291283582, 39.945813769800395 ], [ -75.055145783232021, 39.944954198292031 ], [ -75.055434236109022, 39.944112127444605 ], [ -75.055826951540169, 39.943295423235789 ], [ -75.056320257573873, 39.942511714415254 ], [ -75.056909543102535, 39.941768321273912 ], [ -75.057589301035833, 39.941072187302701 ], [ -75.058353179819321, 39.940429814377573 ], [ -75.059194042814653, 39.93984720207439 ], [ -75.060104034984604, 39.939329791678347 ], [ -75.061074656260089, 39.938882415409061 ], [ -75.062096840903621, 39.938509251333343 ], [ -75.063161042130119, 39.938213784384786 ], [ -75.064257321196834, 39.93799877385252 ], [ -75.064690183636571, 39.937947461978297 ], [ -75.064756878829755, 39.937884355430597 ], [ -75.065272370142239, 39.937428699790935 ], [ -75.066034865627842, 39.9367986607283 ], [ -75.066337762499259, 39.936547934086867 ], [ -75.066371122403709, 39.936519058534621 ], [ -75.066738115584769, 39.936199052531038 ], [ -75.06734224469416, 39.935671744886911 ], [ -75.067352490475741, 39.935662813779871 ], [ -75.067924504034821, 39.93516485629636 ], [ -75.068015216250686, 39.935086806112814 ], [ -75.06887823301966, 39.934352869840666 ], [ -75.068928289207207, 39.934310570569686 ], [ -75.06969208132368, 39.933669232326366 ], [ -75.07050920115887, 39.932950497926932 ], [ -75.071322489805439, 39.932303425418155 ], [ -75.072215594461596, 39.931722067666428 ], [ -75.072374933949774, 39.931637797712831 ], [ -75.072302971457518, 39.931573285493094 ], [ -75.071650975581477, 39.930859125108633 ], [ -75.071091821238227, 39.930099740695866 ], [ -75.070630754720952, 39.929302261481396 ], [ -75.070272100984809, 39.928474174081941 ], [ -75.070019223155711, 39.927623252187992 ], [ -75.069874491087745, 39.926757483561204 ], [ -75.069839259259325, 39.925884995032554 ], [ -75.069913854210625, 39.925013976205634 ], [ -75.070097571634363, 39.924152602582303 ], [ -75.070388683141374, 39.923308958832052 ], [ -75.070784452631784, 39.922490962925174 ], [ -75.07128116211257, 39.921706291841204 ], [ -75.071874146714038, 39.920962309548585 ], [ -75.072557838572166, 39.920265997930493 ], [ -75.073325819161326, 39.91962389130309 ], [ -75.074170879583534, 39.919042015139112 ], [ -75.075085088246766, 39.918525829569546 ], [ -75.076657991257221, 39.917724916283483 ], [ -75.076691608072522, 39.91770786228313 ], [ -75.076875596756381, 39.917614872558829 ], [ -75.076894060707758, 39.91760555983754 ], [ -75.077594700888199, 39.917252898422568 ], [ -75.078712557743472, 39.916679541876455 ], [ -75.078897433837668, 39.916586642441203 ], [ -75.079006767983145, 39.916532827779974 ], [ -75.080898581358397, 39.915566433311632 ], [ -75.081219306356658, 39.915388332130654 ], [ -75.082437325593915, 39.914796123975179 ], [ -75.082565119110242, 39.914742159182524 ], [ -75.082772711845649, 39.914642022843978 ], [ -75.082662770856459, 39.914512015151054 ], [ -75.082070912349309, 39.91372857496939 ], [ -75.081584276718885, 39.912903306847461 ], [ -75.081207785446026, 39.912044563482816 ], [ -75.080945244757586, 39.911161036068364 ], [ -75.080799307258857, 39.910261666297743 ], [ -75.080771445259629, 39.909355555847981 ], [ -75.08086193605746, 39.908451874256663 ], [ -75.081069859319413, 39.90755976612661 ], [ -75.081393106581388, 39.906688258597335 ], [ -75.08182840276119, 39.905846170018911 ], [ -75.082371339460707, 39.905042020751836 ], [ -75.083016419713644, 39.904283946993637 ], [ -75.083479645412041, 39.90384346632753 ], [ -75.083398017952319, 39.903631680265526 ], [ -75.083183593599173, 39.902786280659043 ], [ -75.083074973810298, 39.901928974042718 ], [ -75.083073147440842, 39.901067596447788 ], [ -75.083178127184155, 39.900210020824808 ], [ -75.08338894960167, 39.899364085085054 ], [ -75.083703684071949, 39.898537520472736 ], [ -75.084119450572061, 39.897737880922321 ], [ -75.084632446123493, 39.896972474045882 ], [ -75.085237979656753, 39.896248294380172 ], [ -75.08593051497202, 39.895571959502128 ], [ -75.086703721400013, 39.89494964959502 ], [ -75.087550531698099, 39.89438705101589 ], [ -75.088463206650843, 39.893889304377922 ], [ -75.089433405784831, 39.893460957620483 ], [ -75.089711153699383, 39.893364174302839 ], [ -75.090018376332381, 39.893168802156872 ], [ -75.091018153582098, 39.892656039529285 ], [ -75.091227907302809, 39.892570957281038 ], [ -75.091608328471651, 39.892383683029045 ], [ -75.091623043785148, 39.892376920211099 ], [ -75.091707944216424, 39.892334592825264 ], [ -75.092062723836179, 39.892133158603627 ], [ -75.092173716801028, 39.892079164780135 ], [ -75.092284131441829, 39.892026111623316 ], [ -75.092402123306371, 39.891970117388844 ], [ -75.093352402617626, 39.891564779526512 ], [ -75.09338524787546, 39.89155226743619 ], [ -75.093487135359766, 39.891507735736134 ], [ -75.093785858097164, 39.891381567023807 ], [ -75.093937844907472, 39.891319573570399 ], [ -75.09521513228718, 39.890871943889238 ], [ -75.096552804499268, 39.890545349366434 ], [ -75.096580208070776, 39.890540028456961 ], [ -75.096660866763003, 39.890523483278216 ], [ -75.096818229888456, 39.890496917877343 ], [ -75.097403222612826, 39.890330058327343 ], [ -75.097419221623909, 39.890326058894971 ], [ -75.098115123227444, 39.890170276606561 ], [ -75.098226109525854, 39.8901482790885 ], [ -75.099276085168768, 39.889979290049155 ], [ -75.100341739206385, 39.889885098707502 ], [ -75.101414112607003, 39.889866496932356 ], [ -75.102484189916183, 39.88992364110532 ], [ -75.102630171661417, 39.889936639223684 ], [ -75.103839853278529, 39.890094236762323 ], [ -75.105021458076024, 39.890348563823508 ], [ -75.105179439959926, 39.890389559441253 ], [ -75.105235457723751, 39.890405418248527 ], [ -75.10576029638294, 39.890526757163784 ], [ -75.105956083572494, 39.890585159004488 ], [ -75.106969919642708, 39.890251318315165 ], [ -75.107167897926217, 39.890196325195404 ], [ -75.108049775113713, 39.889981309252114 ], [ -75.108348740863534, 39.889918317388229 ], [ -75.108822854047389, 39.889826578505101 ], [ -75.108992833387092, 39.889796582043076 ], [ -75.110427749524334, 39.889614790648181 ], [ -75.110658719730779, 39.889596793249247 ], [ -75.11179731808339, 39.889551091328521 ], [ -75.112936283817007, 39.889590991772614 ], [ -75.114064798530478, 39.889716115582061 ], [ -75.115172142976846, 39.889925274260825 ], [ -75.116247798765215, 39.890216481092601 ], [ -75.117281548165465, 39.890586969990871 ], [ -75.1182635710733, 39.891033221744564 ], [ -75.118715857005171, 39.891287502689018 ], [ -75.118826926148941, 39.891342221392669 ], [ -75.119019914287236, 39.891439211137723 ], [ -75.119082198589254, 39.891470731489704 ], [ -75.119290186173686, 39.891576719981742 ], [ -75.119726773829925, 39.891810356158629 ], [ -75.119856767043899, 39.891883349023026 ], [ -75.120507665282219, 39.892281409765701 ], [ -75.120586824788731, 39.892328973369523 ], [ -75.120601765665526, 39.892338956736296 ], [ -75.120610179143881, 39.892344101979901 ], [ -75.120813173446663, 39.892479088395639 ], [ -75.120812450142097, 39.89247973379517 ], [ -75.121506907179239, 39.89294375555815 ], [ -75.122339021434755, 39.893628899394947 ], [ -75.123074144300048, 39.894376977572428 ], [ -75.123296358809881, 39.894660109726878 ], [ -75.123585306399804, 39.894807312025364 ], [ -75.124454689233801, 39.895348776543749 ], [ -75.125253002525099, 39.895951694542354 ], [ -75.125972953297932, 39.896610559529357 ], [ -75.126607963703762, 39.897319353883411 ], [ -75.127152231138197, 39.898071603773587 ], [ -75.127299438514584, 39.898330489514635 ], [ -75.128126095221504, 39.898376740270812 ], [ -75.12856666495496, 39.898420998721399 ], [ -75.128850043543864, 39.898449515363168 ], [ -75.129763440687995, 39.898478916308022 ], [ -75.130909034639473, 39.898559384473501 ], [ -75.132038832743049, 39.898726118133617 ], [ -75.132110093865137, 39.898742358612509 ], [ -75.13175499995522, 39.899539999913692 ], [ -75.131368000340927, 39.900442999991739 ], [ -75.131231999898489, 39.900785000330472 ], [ -75.130543999985335, 39.902537000310112 ], [ -75.130409000266098, 39.902866000148023 ], [ -75.130127000233799, 39.903735000084481 ], [ -75.129845000201485, 39.904635000315039 ], [ -75.129703999736179, 39.905206000323034 ], [ -75.129672999774044, 39.905328999731985 ], [ -75.129649000382912, 39.905425999810397 ], [ -75.12948299980323, 39.906221000009332 ], [ -75.129395999764597, 39.906629000096942 ], [ -75.129283999611602, 39.907390000138399 ], [ -75.129275000289098, 39.907481000227634 ], [ -75.129231999733079, 39.908216000333852 ], [ -75.129196999572983, 39.909121999955012 ], [ -75.129239000304082, 39.91017299982137 ], [ -75.129298999680216, 39.911304000045696 ], [ -75.129383000244133, 39.912323999954573 ], [ -75.129513999765379, 39.913218000337778 ], [ -75.129682999819778, 39.914223999937903 ], [ -75.12978499992704, 39.914805999948314 ], [ -75.12998999996644, 39.915885000235122 ], [ -75.130058999563431, 39.916150000139531 ], [ -75.130186999609933, 39.916668999927424 ], [ -75.130349999816545, 39.917403999970901 ], [ -75.130485000434092, 39.917693000069555 ], [ -75.130757000420644, 39.91848000019899 ], [ -75.13104500030073, 39.919208000233212 ], [ -75.131379000211581, 39.92005299983186 ], [ -75.132175999904689, 39.921804000001167 ], [ -75.132235000354243, 39.921932000214369 ], [ -75.133569000347791, 39.924859000254109 ], [ -75.13400799984062, 39.925824000041999 ], [ -75.134119000168695, 39.926085999930272 ], [ -75.134653999920999, 39.927369000185394 ], [ -75.135177999802622, 39.928698000336496 ], [ -75.135310000047113, 39.929284999709083 ], [ -75.135607999972933, 39.930656999818552 ], [ -75.135780000400388, 39.931571999833082 ], [ -75.135911999746554, 39.932445000010446 ], [ -75.135953999579343, 39.93380299996717 ], [ -75.135927999640089, 39.934361000041747 ], [ -75.135838000126711, 39.93654799970399 ], [ -75.135799999593559, 39.937433999807233 ], [ -75.135745000240291, 39.938736999911022 ], [ -75.13571400027817, 39.939479999925481 ], [ -75.135721999775754, 39.940148999948839 ], [ -75.135699000209542, 39.940794999659282 ], [ -75.135762999783637, 39.941962999827311 ], [ -75.135860999692937, 39.942649000221287 ], [ -75.135966000173241, 39.94328900030073 ], [ -75.136140000250506, 39.944415999678164 ], [ -75.136227000289139, 39.944932000076612 ], [ -75.136315999977612, 39.94584100010087 ], [ -75.136288000388504, 39.946588000005782 ], [ -75.136171000212642, 39.947476000195351 ], [ -75.136037000318339, 39.948268999914092 ], [ -75.135890999830153, 39.948884999813792 ], [ -75.13580499961644, 39.949233000278859 ], [ -75.135761000133812, 39.949452000257544 ], [ -75.135741000042358, 39.949518999818537 ], [ -75.135319000267941, 39.950812999897089 ], [ -75.134878000226976, 39.952076000140089 ], [ -75.13468800025619, 39.95249800020585 ], [ -75.134515000003816, 39.952878999756798 ], [ -75.134454999729357, 39.952994999762517 ], [ -75.13424200019233, 39.953419000104361 ], [ -75.133854999679741, 39.954216999790447 ], [ -75.133760000143496, 39.954459999714594 ], [ -75.133698000219226, 39.954619999700505 ], [ -75.133346999691625, 39.955113000277521 ], [ -75.132638999686975, 39.956381000150053 ], [ -75.132267999966203, 39.957043000043655 ], [ -75.131538000220232, 39.958282999946221 ], [ -75.131079999562516, 39.958908999869976 ], [ -75.130880000444307, 39.959143999946953 ], [ -75.130494999581501, 39.959596000191951 ], [ -75.12983000013287, 39.96021700023848 ], [ -75.129087999793057, 39.960708999946817 ], [ -75.127774999715896, 39.96152199972996 ], [ -75.125777000098608, 39.962544000039408 ], [ -75.12429999998993, 39.963298999895528 ], [ -75.123366999854383, 39.96377600017621 ], [ -75.119447999714396, 39.965674999681745 ], [ -75.119153999986537, 39.965802999776542 ], [ -75.118821999725512, 39.965947000199108 ], [ -75.113068036818575, 39.968452187171522 ], [ -75.110553139448683, 39.967909615267139 ] ] ] } }
]
}
