{
"type": "FeatureCollection",
"name": "study_area",
"crs": { "type": "name", "properties": { "name": "urn:ogc:def:crs:OGC:1.3:CRS84" } },
"features": [
{ "type": "Feature", "properties": { "name": "New Brunswick study area", "buffer_m": 1000, "muni_area_km2": 14.89, "clipped_to_nj": true }, "geometry": { "type": "Polygon", "coordinates": [ [ [ -74.497611286451047, 40.481364222934822 ], [ -74.497572205407394, 40.481407882865753 ], [ -74.497012862631706, 40.48203893870339 ], [ -74.495379608533739, 40.483882522747223 ], [ -74.494731665100659, 40.484613577617189 ], [ -74.494723201153974, 40.484623113958826 ], [ -74.494699202932054, 40.484650115583449 ], [ -74.494077391550377, 40.485287326148828 ], [ -74.494041498842279, 40.485320904673948 ], [ -74.493445205834433, 40.48587804831859 ], [ -74.49343020726711, 40.485892049341963 ], [ -74.49289588111688, 40.486357269459667 ], [ -74.492719882351125, 40.48650028240359 ], [ -74.492643560025215, 40.486561718908916 ], [ -74.491829582018511, 40.487210792551771 ], [ -74.491357329128206, 40.487589218263281 ], [ -74.491227084483683, 40.487693623536209 ], [ -74.491204359911421, 40.487711788928479 ], [ -74.490864362451404, 40.487982814213971 ], [ -74.490141864528823, 40.488511861650224 ], [ -74.489363220375623, 40.488992240985624 ], [ -74.489002201795756, 40.489196262087901 ], [ -74.488986542442674, 40.489205096287492 ], [ -74.487903476864602, 40.489815041113445 ], [ -74.487176161509353, 40.490224987042126 ], [ -74.48647574224195, 40.490620062808553 ], [ -74.485685362097371, 40.491065175329155 ], [ -74.485506011347695, 40.4911662512907 ], [ -74.484577860821261, 40.491639243816124 ], [ -74.483595324723964, 40.492043173912023 ], [ -74.482567192705147, 40.492374427738994 ], [ -74.48212437456155, 40.492498610923896 ], [ -74.481975567685936, 40.49254074322134 ], [ -74.481918552505448, 40.492556758755093 ], [ -74.481309377905504, 40.492726515343165 ], [ -74.480632171892822, 40.492917225006131 ], [ -74.480518222898581, 40.492948807263666 ], [ -74.480483983151814, 40.492958145481651 ], [ -74.480058131173948, 40.493076387557132 ], [ -74.480001692756431, 40.493092088872693 ], [ -74.479929398648579, 40.493113029467978 ], [ -74.479879375536854, 40.493127420176982 ], [ -74.479823369385841, 40.493143421553135 ], [ -74.47973736955241, 40.493167701887707 ], [ -74.478940038759134, 40.493390123831468 ], [ -74.478166707907278, 40.493606539551003 ], [ -74.478129362791051, 40.493616935930838 ], [ -74.478012319670682, 40.493649348657925 ], [ -74.477848467329778, 40.493695055308066 ], [ -74.47733905713396, 40.493838203441655 ], [ -74.476509390779498, 40.494070913710971 ], [ -74.475769309979754, 40.494277939058918 ], [ -74.475744330680328, 40.494284902136854 ], [ -74.475614590642024, 40.494320941142007 ], [ -74.475228809125625, 40.494428961393751 ], [ -74.475138586041382, 40.494453906698986 ], [ -74.474791105807412, 40.494548760581502 ], [ -74.474303576794156, 40.494683549359294 ], [ -74.474283715705212, 40.494689025025082 ], [ -74.473754139931202, 40.494834617723242 ], [ -74.473519605608516, 40.494949796198185 ], [ -74.474236956199519, 40.495482447573337 ], [ -74.47494929768331, 40.496119978601151 ], [ -74.475131954650749, 40.496318141755665 ], [ -74.475246578010996, 40.496410627180985 ], [ -74.475265887882671, 40.496428138526433 ], [ -74.475558032725544, 40.496689743361756 ], [ -74.475580288991424, 40.496709731782431 ], [ -74.475800236344796, 40.496907850144744 ], [ -74.475931135710766, 40.497025004526456 ], [ -74.476620939531514, 40.49770571038534 ], [ -74.477222523592332, 40.498433555447811 ], [ -74.477265529344407, 40.498491551938031 ], [ -74.477871996442445, 40.499433522159073 ], [ -74.478330842132138, 40.500422944365404 ], [ -74.478341846498353, 40.500451943081394 ], [ -74.478414193707025, 40.500651113038529 ], [ -74.478448209551956, 40.500749109578152 ], [ -74.478467631331355, 40.500805805989295 ], [ -74.478492643221344, 40.500879803510735 ], [ -74.478512401052868, 40.500954417300541 ], [ -74.478629199188603, 40.501227966909056 ], [ -74.478894977422755, 40.502210195141039 ], [ -74.478902984785719, 40.502251194345718 ], [ -74.478999640170201, 40.502912974867293 ], [ -74.479006386595572, 40.503051722387589 ], [ -74.47903012811156, 40.503162787099583 ], [ -74.479145537269417, 40.503885215467243 ], [ -74.479184176576823, 40.504612397333752 ], [ -74.479184196909841, 40.504728397589219 ], [ -74.479135066606801, 40.505550748445721 ], [ -74.479106676658844, 40.50570795535706 ], [ -74.479164186696778, 40.506262630743841 ], [ -74.479167318480748, 40.506275227335564 ], [ -74.479270650963343, 40.50707464480034 ], [ -74.479279672648047, 40.507202644265831 ], [ -74.479254635195517, 40.508446649999058 ], [ -74.479246648167702, 40.508518650606675 ], [ -74.479128369050784, 40.509238571769224 ], [ -74.478934566168675, 40.509948892606886 ], [ -74.478888588351779, 40.510088897481111 ], [ -74.478467488122277, 40.511109695477366 ], [ -74.478449492682159, 40.511145696965031 ], [ -74.478339142872272, 40.511338260282081 ], [ -74.47822200421551, 40.511732802445906 ], [ -74.477864715557388, 40.512557592006992 ], [ -74.477404993100933, 40.513352280449951 ], [ -74.476847108691317, 40.514109477267873 ], [ -74.476196247576482, 40.514822140384574 ], [ -74.475458460273472, 40.51548364168562 ], [ -74.474640606361703, 40.516087828705032 ], [ -74.473750290723956, 40.516629081891644 ], [ -74.472795792827057, 40.517102366921193 ], [ -74.47178598970001, 40.517503281564821 ], [ -74.470730273327064, 40.517828096676439 ], [ -74.469638463226346, 40.518073790915686 ], [ -74.468520715030209, 40.518238078881936 ], [ -74.467387425921657, 40.518319432396176 ], [ -74.46624913781109, 40.518317094731607 ], [ -74.465569135832524, 40.518265462780704 ], [ -74.465294622913305, 40.518258662751883 ], [ -74.465253617501588, 40.518255662631667 ], [ -74.464792322979562, 40.5182021598768 ], [ -74.464699940255372, 40.518209418576326 ], [ -74.464649934254311, 40.51821141927725 ], [ -74.463530048414214, 40.518215622701298 ], [ -74.463413855319573, 40.518207620918133 ], [ -74.462867958946845, 40.518221477519845 ], [ -74.462756351686807, 40.518215749847656 ], [ -74.462657995290172, 40.518218770779633 ], [ -74.462632991829565, 40.518218770758246 ], [ -74.462535728266005, 40.518215488039615 ], [ -74.462483785014044, 40.518217252880682 ], [ -74.462484074049556, 40.518224099444105 ], [ -74.462362057537803, 40.518227099430234 ], [ -74.462098691126187, 40.51823033622626 ], [ -74.462062233026259, 40.51823157480267 ], [ -74.462048202494898, 40.518230956667324 ], [ -74.461981996539549, 40.518231770220829 ], [ -74.46193499039299, 40.518231770180563 ], [ -74.461619518486756, 40.51822855179276 ], [ -74.461472498527712, 40.518225551576371 ], [ -74.460880387280042, 40.518202099004441 ], [ -74.460863385309381, 40.518201098277018 ], [ -74.46082002925543, 40.518197938619338 ], [ -74.460629717125201, 40.518191625784205 ], [ -74.460489698824887, 40.518183624741148 ], [ -74.460120079123342, 40.518158037812171 ], [ -74.460024955074289, 40.51815030027781 ], [ -74.459750565864496, 40.51813115975235 ], [ -74.459422394930755, 40.518121387191869 ], [ -74.459121240399909, 40.518094377346785 ], [ -74.459062626919419, 40.518090714060975 ], [ -74.459001570647828, 40.518083644223033 ], [ -74.458667668900091, 40.518053696059539 ], [ -74.458637136623778, 40.518051999976556 ], [ -74.457661479742356, 40.517966539185075 ], [ -74.456896635552638, 40.517849733039093 ], [ -74.456776593195897, 40.517851579195359 ], [ -74.45656456428604, 40.51784557811493 ], [ -74.455982395141461, 40.517807370742176 ], [ -74.454772798580677, 40.517758578194574 ], [ -74.45376891116446, 40.517636185377548 ], [ -74.453767958569841, 40.517640237945741 ], [ -74.453599936987075, 40.517617234952596 ], [ -74.453461432414286, 40.517597569928576 ], [ -74.453404831869094, 40.517590222602941 ], [ -74.453405040851734, 40.517589284953857 ], [ -74.453341071834515, 40.517579618216899 ], [ -74.453292457239115, 40.517574412094945 ], [ -74.453191444777346, 40.517563410232171 ], [ -74.452687524059158, 40.517500006707955 ], [ -74.452666521485554, 40.517497006580918 ], [ -74.45258527347977, 40.517481376834247 ], [ -74.452544994540474, 40.517476850630402 ], [ -74.452458983325627, 40.517465848775977 ], [ -74.450984148351168, 40.517201977112258 ], [ -74.450768123463391, 40.51715197112803 ], [ -74.450754577844023, 40.51714880117477 ], [ -74.450512330087875, 40.517100101866951 ], [ -74.45047232524179, 40.517091100826988 ], [ -74.45007831886808, 40.516996701508624 ], [ -74.449905299213029, 40.516952695731334 ], [ -74.44991000868437, 40.516941911122395 ], [ -74.449719648129772, 40.516892754107857 ], [ -74.449315361324921, 40.516810680351462 ], [ -74.448820269162326, 40.516670741591405 ], [ -74.448693896750271, 40.516646605888312 ], [ -74.448463249857852, 40.516583686810279 ], [ -74.447261495908307, 40.516367256798922 ], [ -74.447182487237086, 40.516348254502908 ], [ -74.446380617359168, 40.516122308513992 ], [ -74.446213850863757, 40.516085292059266 ], [ -74.446037831758559, 40.516038286279191 ], [ -74.44569170035642, 40.515941193564522 ], [ -74.445623693409601, 40.515921191217686 ], [ -74.445480993857331, 40.515878405593256 ], [ -74.445408986436874, 40.515856402475038 ], [ -74.445288243546884, 40.515818915575245 ], [ -74.445158229732343, 40.51577791017543 ], [ -74.44462442209867, 40.515597629979119 ], [ -74.444548980305854, 40.515570429327845 ], [ -74.444462983410119, 40.515540492896456 ], [ -74.444384827841716, 40.515513022966019 ], [ -74.444322822079897, 40.515491019865152 ], [ -74.444263637357139, 40.51546986551098 ], [ -74.444238634914498, 40.515460864398761 ], [ -74.443847445325162, 40.515309115851707 ], [ -74.443131815593546, 40.515051655610115 ], [ -74.44213784068684, 40.514598318202054 ], [ -74.442078836658297, 40.514568314932994 ], [ -74.441162164618774, 40.514051744720774 ], [ -74.44075753333874, 40.513773930742119 ], [ -74.440642917385972, 40.513706408890513 ], [ -74.440641883036434, 40.513707447924247 ], [ -74.440522878015685, 40.513638440765185 ], [ -74.440510940791469, 40.513631472332868 ], [ -74.440377515352253, 40.513562853802853 ], [ -74.440205138651862, 40.513457264180232 ], [ -74.440092459474513, 40.513392622040897 ], [ -74.439871458575411, 40.51326672820862 ], [ -74.439598796105443, 40.513106629568341 ], [ -74.439572507663556, 40.513090723005895 ], [ -74.439371856507321, 40.512988932244937 ], [ -74.439351855399039, 40.512977931598591 ], [ -74.438922741093663, 40.512730386053484 ], [ -74.438836737644877, 40.51267838044074 ], [ -74.438661278564396, 40.51255732649178 ], [ -74.438658649709666, 40.512555751234402 ], [ -74.438650601417663, 40.512551378579595 ], [ -74.4382665350373, 40.512333629001461 ], [ -74.438151529811392, 40.512265621967707 ], [ -74.438152475403072, 40.512264690482922 ], [ -74.437860042608236, 40.512104326738587 ], [ -74.437463575236237, 40.511832837078153 ], [ -74.437364292662579, 40.511768543094945 ], [ -74.437209757783577, 40.511659028193662 ], [ -74.436909645530122, 40.511453515723701 ], [ -74.436887664056329, 40.511436738921738 ], [ -74.436546655832473, 40.511238490050495 ], [ -74.436491654186469, 40.511202486136881 ], [ -74.436409224791632, 40.511144716520569 ], [ -74.43628333135068, 40.511072236094826 ], [ -74.435784249354612, 40.510796837420173 ], [ -74.435552600158928, 40.510638529226512 ], [ -74.435384859605335, 40.510538007659036 ], [ -74.435371505711373, 40.510532052448163 ], [ -74.435370750359823, 40.510532816895235 ], [ -74.435362256855512, 40.510527927890372 ], [ -74.435311991896114, 40.510505512044126 ], [ -74.434353655078127, 40.509973027214841 ], [ -74.434220651292122, 40.509891018733278 ], [ -74.433836984537734, 40.509628308387313 ], [ -74.433227502434761, 40.509232816691949 ], [ -74.432899328631393, 40.508966081814677 ], [ -74.432895777706378, 40.50896877713032 ], [ -74.432809777724842, 40.50890277117955 ], [ -74.432610118272549, 40.508731013336984 ], [ -74.432321334598058, 40.508496289310628 ], [ -74.432221338842965, 40.508405281988622 ], [ -74.432225966397496, 40.50840231978043 ], [ -74.432185195555547, 40.508368481297268 ], [ -74.432112039601307, 40.508302533855364 ], [ -74.431918944835559, 40.508136419211219 ], [ -74.431876207691744, 40.508089938742266 ], [ -74.431560235328149, 40.507805096656305 ], [ -74.431330122332341, 40.50755938353403 ], [ -74.430745994849062, 40.507074719305308 ], [ -74.430558555555663, 40.506883720000985 ], [ -74.430477846300775, 40.506809740600424 ], [ -74.43047412028686, 40.506812214048004 ], [ -74.430376123321224, 40.506726206705004 ], [ -74.430151118605195, 40.50651025451004 ], [ -74.42997046207087, 40.506344659055387 ], [ -74.429920372775968, 40.506288790292565 ], [ -74.429730528032223, 40.506106580504756 ], [ -74.429158706964827, 40.505446080359988 ], [ -74.429008392912721, 40.505234062896953 ], [ -74.429007375186544, 40.505234510831642 ], [ -74.428939383775941, 40.505144504733614 ], [ -74.428829832733598, 40.504982202386195 ], [ -74.428665074928233, 40.504749808322039 ], [ -74.428630082366624, 40.504694805252321 ], [ -74.428567648964361, 40.504593767618459 ], [ -74.428517599830116, 40.504519617435584 ], [ -74.428348136469083, 40.504285588193824 ], [ -74.428209458639728, 40.504042550802481 ], [ -74.427692992813689, 40.5033812099092 ], [ -74.427681993866997, 40.503365208860778 ], [ -74.427613696536937, 40.503264310310563 ], [ -74.427607697743738, 40.503255309348354 ], [ -74.427539822750958, 40.503141087336402 ], [ -74.427312908623222, 40.502917873089608 ], [ -74.427198917171523, 40.502793863934606 ], [ -74.427140233357505, 40.502729427591028 ], [ -74.427103236729451, 40.502688424349309 ], [ -74.426491402067569, 40.501933163381601 ], [ -74.425979960938847, 40.501135588519688 ], [ -74.425814987321885, 40.500797528608373 ], [ -74.425631165564354, 40.500539455287957 ], [ -74.42521355245097, 40.499803976982648 ], [ -74.425199557053062, 40.499775976001871 ], [ -74.425144140693845, 40.499645020216001 ], [ -74.425018040665904, 40.499410879898257 ], [ -74.424958059143123, 40.499281874310562 ], [ -74.424820963885836, 40.498968948288805 ], [ -74.424813966790069, 40.498951948131754 ], [ -74.424810685180589, 40.498943128195904 ], [ -74.424243421704176, 40.499309248487869 ], [ -74.423288407824799, 40.499811785477533 ], [ -74.422653755773382, 40.500079726004174 ], [ -74.422083081306099, 40.500378704943572 ], [ -74.422012185939309, 40.500408902328807 ], [ -74.421879286483829, 40.500484182113077 ], [ -74.420929852658077, 40.500922873960889 ], [ -74.420294056636564, 40.501157449668646 ], [ -74.420142157143445, 40.501219829952227 ], [ -74.419984912719244, 40.50127150585206 ], [ -74.419930621892917, 40.501291535893614 ], [ -74.419881632023447, 40.501305447263356 ], [ -74.419199037389973, 40.501529766966335 ], [ -74.419030019104056, 40.501578773500327 ], [ -74.418648374292601, 40.501670880271078 ], [ -74.418650112829141, 40.501674662283719 ], [ -74.418538100188954, 40.501704665949703 ], [ -74.418056286733687, 40.501813772628005 ], [ -74.417752773326939, 40.501887020084091 ], [ -74.417680764585526, 40.501901021690095 ], [ -74.417648949996092, 40.501906012201218 ], [ -74.417427719197562, 40.501956108211168 ], [ -74.416495507018752, 40.502093102802355 ], [ -74.415694157055086, 40.502311302757811 ], [ -74.415591145098674, 40.502335306078159 ], [ -74.414601445120439, 40.502530582174813 ], [ -74.413593316195602, 40.502659741269113 ], [ -74.41327612259235, 40.50267906435981 ], [ -74.413233878975007, 40.502684100754962 ], [ -74.413007020970127, 40.50269545704726 ], [ -74.412574324681941, 40.502721813992231 ], [ -74.412489542020651, 40.502721359860907 ], [ -74.41218085647796, 40.502736810243618 ], [ -74.412136771858925, 40.50273600336876 ], [ -74.412035026088759, 40.50274332459518 ], [ -74.410775734392843, 40.502731035710795 ], [ -74.409525331776337, 40.502616370573541 ], [ -74.409510329797655, 40.50261437004211 ], [ -74.409287532847813, 40.502575590468176 ], [ -74.408317611310437, 40.502474360698486 ], [ -74.407650862862738, 40.50235318558159 ], [ -74.406908534415095, 40.502277560762984 ], [ -74.40579773789834, 40.502079583136144 ], [ -74.405298484201339, 40.501950713944531 ], [ -74.404973432800006, 40.501884142838435 ], [ -74.404804414134318, 40.501839136502568 ], [ -74.404327589679738, 40.501703293554499 ], [ -74.404248581845465, 40.501679290724184 ], [ -74.403874739867803, 40.501541859298584 ], [ -74.403312796633074, 40.501432472748746 ], [ -74.402254572156735, 40.501142161290758 ], [ -74.401237358258257, 40.500776276011159 ], [ -74.401032771455021, 40.500683578040082 ], [ -74.4009139019348, 40.500707108485457 ], [ -74.399765649593803, 40.500844247838991 ], [ -74.398605292186559, 40.5008944932638 ], [ -74.397444088040075, 40.500857357289277 ], [ -74.397401082711951, 40.50085435706761 ], [ -74.396273923827977, 40.500733642842427 ], [ -74.395167247156763, 40.500530591219835 ], [ -74.394091350535206, 40.500247091698249 ], [ -74.393056245044917, 40.499885782342595 ], [ -74.392071561768347, 40.499450025208013 ], [ -74.391146462100622, 40.498943875021126 ], [ -74.390289552455442, 40.498372041411741 ], [ -74.389508804160869, 40.497739845048237 ], [ -74.388811479292215, 40.497053168086893 ], [ -74.388412698405887, 40.496570779871142 ], [ -74.387944253794601, 40.496200261836236 ], [ -74.387936931462974, 40.496193955886781 ], [ -74.387886513058731, 40.496151171447764 ], [ -74.387733575819865, 40.49603868415273 ], [ -74.387731550873156, 40.49604014737163 ], [ -74.387689979097075, 40.496006618099919 ], [ -74.387642990437541, 40.495972057173582 ], [ -74.387493354746709, 40.495832344794991 ], [ -74.386695709698841, 40.495102817949856 ], [ -74.386645712959123, 40.495050814365342 ], [ -74.386180265282661, 40.494511081983788 ], [ -74.385610662247004, 40.49404186147337 ], [ -74.384918751586639, 40.493347782164058 ], [ -74.384896449658939, 40.493320239384204 ], [ -74.38456608010398, 40.493123336697536 ], [ -74.383715959159318, 40.492503335725907 ], [ -74.382950885517118, 40.491821822244276 ], [ -74.382278453194957, 40.49108556327176 ], [ -74.381705335677367, 40.490301869183646 ], [ -74.3812372197348, 40.489478521077416 ], [ -74.380878749070519, 40.48862369347232 ], [ -74.380633478350546, 40.48774587311221 ], [ -74.380503838068677, 40.486853774679481 ], [ -74.380491110588451, 40.485956254258546 ], [ -74.380595417594009, 40.485062221408917 ], [ -74.380738550501761, 40.48427923656201 ], [ -74.380749929127361, 40.484218502138248 ], [ -74.380800974150247, 40.483952507861041 ], [ -74.381012955473651, 40.483121963496124 ], [ -74.381326049662064, 40.482310268291712 ], [ -74.381476484134922, 40.482023002061482 ], [ -74.381516387520961, 40.481926260116708 ], [ -74.381893594251125, 40.481140999242086 ], [ -74.382364543202129, 40.480385834159421 ], [ -74.382925172346972, 40.479667273427026 ], [ -74.383570647182211, 40.478991509923752 ], [ -74.384295402462882, 40.478364367508632 ], [ -74.384748105746198, 40.478039155348419 ], [ -74.3852210062757, 40.477623994386448 ], [ -74.385983470369439, 40.477014676957673 ], [ -74.38681714889573, 40.476462429253452 ], [ -74.387714746299508, 40.475972082964695 ], [ -74.387871569305631, 40.475902334597691 ], [ -74.388151301483177, 40.475712890064116 ], [ -74.388574138458239, 40.475335237628158 ], [ -74.389439691686462, 40.474704548707372 ], [ -74.389749682715291, 40.474500568913953 ], [ -74.39053365372834, 40.474027358219793 ], [ -74.391367245026359, 40.473606508406306 ], [ -74.39224447621406, 40.473241038349563 ], [ -74.392678436635592, 40.473078057293606 ], [ -74.393710747685645, 40.472736021996553 ], [ -74.394781028044122, 40.472470649430313 ], [ -74.394820214473469, 40.472464004037974 ], [ -74.395425089499199, 40.472141331765179 ], [ -74.39643100218403, 40.471709716964639 ], [ -74.396792968776936, 40.471571732868462 ], [ -74.397797053971928, 40.471232570893989 ], [ -74.398838071012918, 40.470966161292218 ], [ -74.399907005049386, 40.470774811018408 ], [ -74.400994599762754, 40.470660177048963 ], [ -74.402091437431977, 40.470623252048874 ], [ -74.403188020388768, 40.470664355785182 ], [ -74.404274853161169, 40.470783132360332 ], [ -74.40456281674642, 40.47082512652652 ], [ -74.405577406337756, 40.471008912234218 ], [ -74.406566787168288, 40.471260397774465 ], [ -74.407280890474851, 40.471497243468988 ], [ -74.407644688222803, 40.471488807435328 ], [ -74.408037969714485, 40.471254476954371 ], [ -74.409026701205377, 40.470777510554576 ], [ -74.410072401727291, 40.470377646129073 ], [ -74.411164796364105, 40.470058812390576 ], [ -74.412293151929092, 40.469824141875534 ], [ -74.413446382321297, 40.469675940200183 ], [ -74.413880324860401, 40.469636944767736 ], [ -74.414108855789408, 40.469618129707435 ], [ -74.421834479007728, 40.469039899252579 ], [ -74.422238919027563, 40.469009116957054 ], [ -74.422477799338296, 40.468989076202156 ], [ -74.422555723181119, 40.468982738702408 ], [ -74.422847684782468, 40.468959741964156 ], [ -74.422927417797325, 40.468953670509869 ], [ -74.425701051859519, 40.468749694641254 ], [ -74.425730138414707, 40.468747582990467 ], [ -74.42625708865134, 40.468709828576308 ], [ -74.426286401611975, 40.468707231242796 ], [ -74.426661394340812, 40.468682487346229 ], [ -74.426661192762467, 40.468680807724738 ], [ -74.426855023099009, 40.46866723905859 ], [ -74.427427109478586, 40.46862672859654 ], [ -74.428509785314546, 40.468549955979363 ], [ -74.428726868539158, 40.468534091800002 ], [ -74.430780654201598, 40.468376862111299 ], [ -74.431028071385725, 40.468357607659442 ], [ -74.431049445897642, 40.468355959249422 ], [ -74.432278866192931, 40.468262002797687 ], [ -74.435715995061202, 40.467999066239898 ], [ -74.435729439883119, 40.467998043460554 ], [ -74.435848424011084, 40.467989044545412 ], [ -74.4358640586305, 40.467987870099762 ], [ -74.438390576442686, 40.467799351402739 ], [ -74.440281007850885, 40.46765673124267 ], [ -74.440966758516808, 40.467602719603946 ], [ -74.441007550633401, 40.467599561283969 ], [ -74.441927429013717, 40.467529569362341 ], [ -74.44224114085776, 40.467508923501732 ], [ -74.442434675539957, 40.46749817163338 ], [ -74.443048746543681, 40.467452134703628 ], [ -74.444966777054361, 40.467302085923777 ], [ -74.44508355374542, 40.467293397357423 ], [ -74.44592059910201, 40.467234323105387 ], [ -74.44677148676611, 40.467174330059386 ], [ -74.447899221041325, 40.467136236768539 ], [ -74.449026559824588, 40.467180639048806 ], [ -74.450143182515745, 40.467307130430335 ], [ -74.451238866495316, 40.46751455292322 ], [ -74.452303580604209, 40.46780100760548 ], [ -74.452879035706545, 40.468004928066371 ], [ -74.453728400840049, 40.467895621231705 ], [ -74.454482526549114, 40.467854915195169 ], [ -74.454642065994719, 40.467829764799973 ], [ -74.45474905224728, 40.467817766476038 ], [ -74.455828216059288, 40.467757578556153 ], [ -74.456011535858579, 40.46760911577158 ], [ -74.456621902612369, 40.467115153140313 ], [ -74.457313290498263, 40.466553210358846 ], [ -74.457324857128242, 40.466543822643182 ], [ -74.457836059324492, 40.466129510917071 ], [ -74.459120270715545, 40.465088255516264 ], [ -74.459136348838655, 40.465075244775008 ], [ -74.459240349556183, 40.464991252357869 ], [ -74.460083148860164, 40.464374755071809 ], [ -74.461001569580063, 40.46382487648799 ], [ -74.461986622862796, 40.463346997440475 ], [ -74.46302866846743, 40.462945794113274 ], [ -74.464117509051803, 40.462625192327756 ], [ -74.465242489882357, 40.462388329167993 ], [ -74.466392602995327, 40.462237522317423 ], [ -74.4675565947949, 40.462174247405692 ], [ -74.467592944983451, 40.462175022781551 ], [ -74.467624366977432, 40.462140118546621 ], [ -74.46830983933387, 40.461451917283838 ], [ -74.469078524531554, 40.460817078582707 ], [ -74.469923340168663, 40.460241449822078 ], [ -74.470836503229933, 40.459730332873463 ], [ -74.47180960177505, 40.459288435310789 ], [ -74.472833672392852, 40.458919827092842 ], [ -74.47389928270951, 40.458627903115904 ], [ -74.474996618193273, 40.458415351979426 ], [ -74.476115572459662, 40.458284131251148 ], [ -74.47724584024931, 40.458235449458165 ], [ -74.478377012227043, 40.458269754968761 ], [ -74.479498670733875, 40.45838673186703 ], [ -74.480600485615582, 40.458585302857962 ], [ -74.481672309250229, 40.458863639176535 ], [ -74.482704269904943, 40.459219177409892 ], [ -74.483686862566358, 40.459648643078971 ], [ -74.484611036412744, 40.460148080763311 ], [ -74.485146301320555, 40.460467854113659 ], [ -74.486202386322418, 40.461094926902952 ], [ -74.486939356952107, 40.461532881259011 ], [ -74.48701991469774, 40.46158118341264 ], [ -74.489295070292272, 40.462957542680698 ], [ -74.489866623601671, 40.46329585896197 ], [ -74.490551219823942, 40.463696385914162 ], [ -74.490569735411597, 40.463707240662266 ], [ -74.491272705907122, 40.464120196630333 ], [ -74.491302016154137, 40.464137470546284 ], [ -74.492003598687319, 40.464552284744315 ], [ -74.492674129933519, 40.464946909667155 ], [ -74.493608035648009, 40.465487806681651 ], [ -74.493993142736059, 40.46570880316262 ], [ -74.494166126553907, 40.465809992875087 ], [ -74.494488113947355, 40.466001972791389 ], [ -74.494535760285231, 40.466030531669496 ], [ -74.495200371120418, 40.466431000241172 ], [ -74.495524871812108, 40.466624163380033 ], [ -74.495820704552301, 40.466797852452949 ], [ -74.495883348118312, 40.466834887742969 ], [ -74.49674331401755, 40.467346833970069 ], [ -74.497637790723758, 40.467936628290261 ], [ -74.498450526978161, 40.468591809870723 ], [ -74.49917336557867, 40.469305804857797 ], [ -74.499799050633612, 40.470071449065181 ], [ -74.500321300433299, 40.47088105980729 ], [ -74.500734870580033, 40.47172651294175 ], [ -74.501035606739208, 40.472599324350121 ], [ -74.501220486477635, 40.473490735041437 ], [ -74.50128764976337, 40.47439179902625 ], [ -74.501236417814383, 40.475293473080804 ], [ -74.501067300099393, 40.476186707500908 ], [ -74.500781989413596, 40.477062536935186 ], [ -74.500383345070517, 40.477912170386013 ], [ -74.499875364371889, 40.478727079473352 ], [ -74.499263142635002, 40.479499084075066 ], [ -74.497611286451047, 40.481364222934822 ] ] ] } }
]
}
