{
"type": "FeatureCollection",
"name": "assets",
"crs": { "type": "name", "properties": { "name": "urn:ogc:def:crs:OGC:1.3:CRS84" } },
"features": [
{ "type": "Feature", "properties": { "id": "n1042004039", "name": "Sea Air Atlantic City Seaplane Base", "category": "airport", "address": "", "ground_elev_ft": -2.98, "elev_source": "epqs", "ffo_ft": 1.0, "source": "OpenStreetMap" }, "geometry": { "type": "Point", "coordinates": [ -74.4291914, 39.3898293 ] } },
{ "type": "Feature", "properties": { "id": "n1042012915", "name": "Harrah's Landing Seaplane Base", "category": "airport", "address": "", "ground_elev_ft": -2.98, "elev_source": "epqs", "ffo_ft": 1.0, "source": "OpenStreetMap" }, "geometry": { "type": "Point", "coordinates": [ -74.4254622, 39.3859082 ] } },
{ "type": "Feature", "properties": { "id": "w591379169", "name": "Al Morris Community Resource Center", "category": "community", "address": "705 Lexington Avenue, Atlantic City", "ground_elev_ft": 4.82, "elev_source": "epqs", "ffo_ft": 1.0, "source": "OpenStreetMap" }, "geometry": { "type": "Point", "coordinates": [ -74.4223037, 39.369189 ] } },
{ "type": "Feature", "properties": { "id": "w1047616991", "name": "Walter J. Buzby Community Center", "category": "community", "address": "4300 North Drive", "ground_elev_ft": 6.18, "elev_source": "epqs", "ffo_ft": 1.0, "source": "OpenStreetMap" }, "geometry": { "type": "Point", "coordinates": [ -74.4664479, 39.3563989 ] } },
{ "type": "Feature", "properties": { "id": "w1323180652", "name": "Asbury UM Community Development Center", "category": "community", "address": "", "ground_elev_ft": 9.85, "elev_source": "epqs", "ffo_ft": 1.0, "source": "OpenStreetMap" }, "geometry": { "type": "Point", "coordinates": [ -74.4251429, 39.3616484 ] } },
{ "type": "Feature", "properties": { "id": "w1367398916", "name": "Bungalow Park Civic Association", "category": "community", "address": "600 North New Jersey Avenue, Atlantic City", "ground_elev_ft": 4.92, "elev_source": "epqs", "ffo_ft": 1.0, "source": "OpenStreetMap" }, "geometry": { "type": "Point", "coordinates": [ -74.4249526, 39.3737704 ] } },
{ "type": "Feature", "properties": { "id": "w1367608938", "name": "Atlantic City Tuna Club", "category": "community", "address": "741 North Massachusetts Avenue, Atlantic City", "ground_elev_ft": 5.66, "elev_source": "epqs", "ffo_ft": 1.0, "source": "OpenStreetMap" }, "geometry": { "type": "Point", "coordinates": [ -74.4222895, 39.3746117 ] } },
{ "type": "Feature", "properties": { "id": "w559489618", "name": "Boys & Girls Club of America", "category": "community", "address": "", "ground_elev_ft": 5.97, "elev_source": "epqs", "ffo_ft": 1.0, "source": "OpenStreetMap" }, "geometry": { "type": "Point", "coordinates": [ -74.4270059, 39.3681483 ] } },
{ "type": "Feature", "properties": { "id": "w591289200", "name": "Atlantic City Fire Station #3", "category": "fire", "address": "732 North Indiana Avenue, Atlantic City", "ground_elev_ft": 5.12, "elev_source": "epqs", "ffo_ft": 1.0, "source": "OpenStreetMap" }, "geometry": { "type": "Point", "coordinates": [ -74.4390746, 39.3684795 ] } },
{ "type": "Feature", "properties": { "id": "w937300039", "name": "Atlantic City Fire Department", "category": "fire", "address": "545 Albany Avenue", "ground_elev_ft": 7.94, "elev_source": "epqs", "ffo_ft": 1.0, "source": "OpenStreetMap" }, "geometry": { "type": "Point", "coordinates": [ -74.4574514, 39.3572154 ] } },
{ "type": "Feature", "properties": { "id": "w550946387", "name": "Atlantic City Fire Station #2", "category": "fire", "address": "", "ground_elev_ft": 5.49, "elev_source": "epqs", "ffo_ft": 1.0, "source": "OpenStreetMap" }, "geometry": { "type": "Point", "coordinates": [ -74.4351702, 39.3626993 ] } },
{ "type": "Feature", "properties": { "id": "w550941242", "name": "Atlantic City Fire Station #1", "category": "fire", "address": "", "ground_elev_ft": 8.16, "elev_source": "epqs", "ffo_ft": 1.0, "source": "OpenStreetMap" }, "geometry": { "type": "Point", "coordinates": [ -74.4219044, 39.3642973 ] } },
{ "type": "Feature", "properties": { "id": "w83961333", "name": "Chief Lawrence Skey Memorial Fire Station №5", "category": "fire", "address": "571 North Annapolis Avenue, Atlantic City", "ground_elev_ft": 4.84, "elev_source": "epqs", "ffo_ft": 1.0, "source": "OpenStreetMap" }, "geometry": { "type": "Point", "coordinates": [ -74.4648457, 39.3567309 ] } },
{ "type": "Feature", "properties": { "id": "w229951171", "name": "Unnamed hospital", "category": "hospital", "address": "1925 Pacific Avenue, Atlantic City", "ground_elev_ft": 9.6, "elev_source": "epqs", "ffo_ft": 1.0, "source": "OpenStreetMap" }, "geometry": { "type": "Point", "coordinates": [ -74.4343444, 39.3585535 ] } },
{ "type": "Feature", "properties": { "id": "r14025330", "name": "Atlantic City Free Public Library", "category": "library", "address": "", "ground_elev_ft": 8.53, "elev_source": "epqs", "ffo_ft": 1.0, "source": "OpenStreetMap" }, "geometry": { "type": "Point", "coordinates": [ -74.4278025, 39.3626812 ] } },
{ "type": "Feature", "properties": { "id": "r14025326", "name": "Atlantic City Hall", "category": "municipal", "address": "1301 Bacharach Boulevard", "ground_elev_ft": 6.56, "elev_source": "epqs", "ffo_ft": 1.0, "source": "OpenStreetMap" }, "geometry": { "type": "Point", "coordinates": [ -74.42845, 39.3634801 ] } },
{ "type": "Feature", "properties": { "id": "w626340045", "name": "Atlantic City Public Works Department", "category": "municipal", "address": "1100 North Albany Avenue, Atlantic City", "ground_elev_ft": 10.4, "elev_source": "epqs", "ffo_ft": 1.0, "source": "OpenStreetMap" }, "geometry": { "type": "Point", "coordinates": [ -74.4726936, 39.3638248 ] } },
{ "type": "Feature", "properties": { "id": "w628881789", "name": "Casino Reinvestment Development Authority", "category": "municipal", "address": "", "ground_elev_ft": 5.61, "elev_source": "epqs", "ffo_ft": 1.0, "source": "OpenStreetMap" }, "geometry": { "type": "Point", "coordinates": [ -74.4195649, 39.3663682 ] } },
{ "type": "Feature", "properties": { "id": "w1047616990", "name": "Atlantic City Housing Authority—Buzby Homes", "category": "municipal", "address": "600 South Drive", "ground_elev_ft": 6.06, "elev_source": "epqs", "ffo_ft": 1.0, "source": "OpenStreetMap" }, "geometry": { "type": "Point", "coordinates": [ -74.4661088, 39.3563628 ] } },
{ "type": "Feature", "properties": { "id": "w1050746250", "name": "Atlantic County Offices", "category": "municipal", "address": "", "ground_elev_ft": 8.74, "elev_source": "epqs", "ffo_ft": 1.0, "source": "OpenStreetMap" }, "geometry": { "type": "Point", "coordinates": [ -74.4281352, 39.3626043 ] } },
{ "type": "Feature", "properties": { "id": "n5644720980", "name": "Atlantic City Housing Authority", "category": "municipal", "address": "227 North Vermont Avenue, Atlantic City", "ground_elev_ft": 8.02, "elev_source": "epqs", "ffo_ft": 1.0, "source": "OpenStreetMap" }, "geometry": { "type": "Point", "coordinates": [ -74.4162603, 39.3711954 ] } },
{ "type": "Feature", "properties": { "id": "n8980643726", "name": "Atlantic City Fire Department", "category": "municipal", "address": "2715 Atlantic Avenue, Atlantic City", "ground_elev_ft": 9.18, "elev_source": "epqs", "ffo_ft": 1.0, "source": "OpenStreetMap" }, "geometry": { "type": "Point", "coordinates": [ -74.445567, 39.3556026 ] } },
{ "type": "Feature", "properties": { "id": "w550945309", "name": "Casino Reinvestment Development Authority", "category": "municipal", "address": "", "ground_elev_ft": 8.55, "elev_source": "epqs", "ffo_ft": 1.0, "source": "OpenStreetMap" }, "geometry": { "type": "Point", "coordinates": [ -74.4234441, 39.363129 ] } },
{ "type": "Feature", "properties": { "id": "w229948026", "name": "State Of New Jersey Casino Control Commission", "category": "municipal", "address": "1325 Boardwalk, Atlantic City", "ground_elev_ft": 6.15, "elev_source": "epqs", "ffo_ft": 1.0, "source": "OpenStreetMap" }, "geometry": { "type": "Point", "coordinates": [ -74.4247703, 39.357669 ] } },
{ "type": "Feature", "properties": { "id": "w304134885", "name": "Atlantic City Municipal Utilities Authority", "category": "municipal", "address": "401 North Virginia Avenue, Atlantic City", "ground_elev_ft": 8.27, "elev_source": "epqs", "ffo_ft": 1.0, "source": "OpenStreetMap" }, "geometry": { "type": "Point", "coordinates": [ -74.4263553, 39.3700743 ] } },
{ "type": "Feature", "properties": { "id": "w1049189489", "name": "Unnamed municipal", "category": "municipal", "address": "", "ground_elev_ft": 3.2, "elev_source": "epqs", "ffo_ft": 1.0, "source": "OpenStreetMap" }, "geometry": { "type": "Point", "coordinates": [ -74.4397935, 39.3545266 ] } },
{ "type": "Feature", "properties": { "id": "w550967521", "name": "Atlantic City Beach Patrol", "category": "police", "address": "", "ground_elev_ft": 7.68, "elev_source": "epqs", "ffo_ft": 1.0, "source": "OpenStreetMap" }, "geometry": { "type": "Point", "coordinates": [ -74.4529516, 39.3486618 ] } },
{ "type": "Feature", "properties": { "id": "n8980643727", "name": "Atlantic City Police Department", "category": "police", "address": "2715 Atlantic Avenue, Atlantic City", "ground_elev_ft": 9.13, "elev_source": "epqs", "ffo_ft": 1.0, "source": "OpenStreetMap" }, "geometry": { "type": "Point", "coordinates": [ -74.4451274, 39.3554869 ] } },
{ "type": "Feature", "properties": { "id": "w229924568", "name": "New Jersey State Police Atlantic City", "category": "police", "address": "", "ground_elev_ft": 8.87, "elev_source": "epqs", "ffo_ft": 1.0, "source": "OpenStreetMap" }, "geometry": { "type": "Point", "coordinates": [ -74.4243311, 39.3787025 ] } },
{ "type": "Feature", "properties": { "id": "w229951032", "name": "Atlantic City Police Department - Boardwalk Station", "category": "police", "address": "", "ground_elev_ft": 7.06, "elev_source": "epqs", "ffo_ft": 1.0, "source": "OpenStreetMap" }, "geometry": { "type": "Point", "coordinates": [ -74.4305102, 39.3560545 ] } },
{ "type": "Feature", "properties": { "id": "n357747429", "name": "Our Lady Star of the Sea School", "category": "school", "address": "", "ground_elev_ft": 6.86, "elev_source": "epqs", "ffo_ft": 1.0, "source": "OpenStreetMap" }, "geometry": { "type": "Point", "coordinates": [ -74.4446796, 39.3565212 ] } },
{ "type": "Feature", "properties": { "id": "w1051904452", "name": "Richmond Avenue School", "category": "school", "address": "", "ground_elev_ft": 7.1, "elev_source": "epqs", "ffo_ft": 1.0, "source": "OpenStreetMap" }, "geometry": { "type": "Point", "coordinates": [ -74.4604211, 39.3496854 ] } },
{ "type": "Feature", "properties": { "id": "w1065146588", "name": "New York Avenue School", "category": "school", "address": "", "ground_elev_ft": 8.26, "elev_source": "epqs", "ffo_ft": 1.0, "source": "OpenStreetMap" }, "geometry": { "type": "Point", "coordinates": [ -74.4327888, 39.3679743 ] } },
{ "type": "Feature", "properties": { "id": "w1363489043", "name": "Uptown School Complex", "category": "school", "address": "323 Madison Avenue, Atlantic City", "ground_elev_ft": 7.86, "elev_source": "epqs", "ffo_ft": 1.0, "source": "OpenStreetMap" }, "geometry": { "type": "Point", "coordinates": [ -74.417857, 39.3707001 ] } },
{ "type": "Feature", "properties": { "id": "w1383205277", "name": "Doctor Martin Luther King School", "category": "school", "address": "", "ground_elev_ft": 7.14, "elev_source": "epqs", "ffo_ft": 1.0, "source": "OpenStreetMap" }, "geometry": { "type": "Point", "coordinates": [ -74.4398269, 39.3712594 ] } },
{ "type": "Feature", "properties": { "id": "w1383205280", "name": "Viking Academy School", "category": "school", "address": "", "ground_elev_ft": 6.19, "elev_source": "epqs", "ffo_ft": 1.0, "source": "OpenStreetMap" }, "geometry": { "type": "Point", "coordinates": [ -74.4340025, 39.3625198 ] } },
{ "type": "Feature", "properties": { "id": "n357747833", "name": "Venice Park Elementary School", "category": "school", "address": "", "ground_elev_ft": 6.26, "elev_source": "epqs", "ffo_ft": 1.0, "source": "OpenStreetMap" }, "geometry": { "type": "Point", "coordinates": [ -74.4488583, 39.3758562 ] } },
{ "type": "Feature", "properties": { "id": "n5322821643", "name": "Texas Avenue Elementary School", "category": "school", "address": "", "ground_elev_ft": 8.57, "elev_source": "epqs", "ffo_ft": 1.0, "source": "OpenStreetMap" }, "geometry": { "type": "Point", "coordinates": [ -74.4439708, 39.3579873 ] } },
{ "type": "Feature", "properties": { "id": "n5396135094", "name": "Pennsylvania Avenue School", "category": "school", "address": "", "ground_elev_ft": 6.01, "elev_source": "epqs", "ffo_ft": 1.0, "source": "OpenStreetMap" }, "geometry": { "type": "Point", "coordinates": [ -74.4258251, 39.3673116 ] } },
{ "type": "Feature", "properties": { "id": "n10163932017", "name": "Atlantic City High School", "category": "school", "address": "", "ground_elev_ft": 11.01, "elev_source": "epqs", "ffo_ft": 1.0, "source": "OpenStreetMap" }, "geometry": { "type": "Point", "coordinates": [ -74.4768346, 39.3678226 ] } },
{ "type": "Feature", "properties": { "id": "w26944481", "name": "Atlantic City High School", "category": "school", "address": "1400 North Albany Avenue, Atlantic City", "ground_elev_ft": 8.91, "elev_source": "epqs", "ffo_ft": 1.0, "source": "OpenStreetMap" }, "geometry": { "type": "Point", "coordinates": [ -74.4768506, 39.3665131 ] } },
{ "type": "Feature", "properties": { "id": "w83961332", "name": "Chelsea Heights Elementary School", "category": "school", "address": "", "ground_elev_ft": 5.96, "elev_source": "epqs", "ffo_ft": 1.0, "source": "OpenStreetMap" }, "geometry": { "type": "Point", "coordinates": [ -74.4642259, 39.3561823 ] } },
{ "type": "Feature", "properties": { "id": "w683846553", "name": "Unnamed school", "category": "school", "address": "", "ground_elev_ft": 5.95, "elev_source": "epqs", "ffo_ft": 1.0, "source": "OpenStreetMap" }, "geometry": { "type": "Point", "coordinates": [ -74.434615, 39.3629402 ] } },
{ "type": "Feature", "properties": { "id": "w1065331858", "name": "Unnamed school", "category": "school", "address": "", "ground_elev_ft": 6.26, "elev_source": "epqs", "ffo_ft": 1.0, "source": "OpenStreetMap" }, "geometry": { "type": "Point", "coordinates": [ -74.4342167, 39.3620925 ] } },
{ "type": "Feature", "properties": { "id": "w627857524", "name": "Father Benedict House", "category": "shelter", "address": "1419 Pacific Avenue", "ground_elev_ft": 8.65, "elev_source": "epqs", "ffo_ft": 1.0, "source": "OpenStreetMap" }, "geometry": { "type": "Point", "coordinates": [ -74.4281087, 39.360481 ] } },
{ "type": "Feature", "properties": { "id": "n12684666959", "name": "Turning Point Day Center for the Homeless", "category": "shelter", "address": "1717 Bishop Richard Allen Avenue, Atlantic City", "ground_elev_ft": 5.37, "elev_source": "epqs", "ffo_ft": 1.0, "source": "OpenStreetMap" }, "geometry": { "type": "Point", "coordinates": [ -74.436466, 39.3655629 ] } }
]
}
