{
"type": "FeatureCollection",
"name": "boundary",
"crs": { "type": "name", "properties": { "name": "urn:ogc:def:crs:OGC:1.3:CRS84" } },
"features": [
{ "type": "Feature", "properties": { "name": "Atlantic City", "geoid": "3400102080" }, "geometry": { "type": "Polygon", "coordinates": [ [ [ -74.501168000322252, 39.357839000331921 ], [ -74.501591999746466, 39.357254999685559 ], [ -74.500532000287606, 39.356780999662995 ], [ -74.499560999618922, 39.356378999980954 ], [ -74.499360999602374, 39.356290999945848 ], [ -74.498636999704189, 39.355971999670722 ], [ -74.498326000257876, 39.355921999830834 ], [ -74.498101000126979, 39.355899000337033 ], [ -74.497768000041034, 39.355832000167879 ], [ -74.496666999675995, 39.355362999962885 ], [ -74.496266999642927, 39.355179000244412 ], [ -74.49487400009815, 39.35453900010716 ], [ -74.494110999841894, 39.354234999655226 ], [ -74.493397999814363, 39.353958999954664 ], [ -74.493007999827043, 39.353831999660734 ], [ -74.492748000434347, 39.353748000198195 ], [ -74.492318000264035, 39.353571000082241 ], [ -74.491965000086623, 39.353454999802246 ], [ -74.491525999695483, 39.353370999886444 ], [ -74.490819000414049, 39.353291999765943 ], [ -74.490196999724802, 39.353313000299067 ], [ -74.489708999828167, 39.353383000178248 ], [ -74.489446000062443, 39.35345299998734 ], [ -74.488958000165809, 39.353599999774808 ], [ -74.488559999782552, 39.353729999853698 ], [ -74.488281999948214, 39.353873000147352 ], [ -74.487893999610691, 39.354073999846634 ], [ -74.487362000231442, 39.354375000274409 ], [ -74.486672999595029, 39.354806000260709 ], [ -74.485900000191393, 39.355315000143477 ], [ -74.485495000135415, 39.35556599999228 ], [ -74.485004999690645, 39.355883000292124 ], [ -74.484245999632364, 39.356357999674806 ], [ -74.483863000216047, 39.356604000285024 ], [ -74.483506999665565, 39.3568389998443 ], [ -74.483173999579648, 39.357068999682035 ], [ -74.482287000373162, 39.357566000176 ], [ -74.481805000324329, 39.357788999744585 ], [ -74.481145999825145, 39.357995999734882 ], [ -74.480570999889878, 39.3581699998864 ], [ -74.479863999710147, 39.358228000303676 ], [ -74.479155999705469, 39.358296999934993 ], [ -74.478497999929544, 39.358295000258686 ], [ -74.477605999801867, 39.358379999995108 ], [ -74.477365999602341, 39.358385000221503 ], [ -74.477146000392636, 39.358416999856225 ], [ -74.476862999637106, 39.358389000263486 ], [ -74.476726000268059, 39.358351000202887 ], [ -74.476644000252321, 39.358328000119577 ], [ -74.476477999672653, 39.358214999962826 ], [ -74.476019999913248, 39.357660999967102 ], [ -74.475706999918785, 39.357271000110828 ], [ -74.475619000055246, 39.357161999745678 ], [ -74.475431999559177, 39.356929999804194 ], [ -74.475337999847852, 39.356813000032467 ], [ -74.475228000242993, 39.356677000271155 ], [ -74.475069000234328, 39.356478000148435 ], [ -74.474962999929133, 39.356347000107291 ], [ -74.474850999776137, 39.356208000182114 ], [ -74.474651999584495, 39.355959999823554 ], [ -74.473900999922137, 39.355026000302075 ], [ -74.473885000028631, 39.355007000054272 ], [ -74.473741999913486, 39.354829000114343 ], [ -74.473666999570398, 39.354735999723367 ], [ -74.47361399986697, 39.354671000302794 ], [ -74.473501999713974, 39.354531000276751 ], [ -74.472185000337177, 39.352893000245871 ], [ -74.472104000146317, 39.352790999762647 ], [ -74.471426000278896, 39.351959000011966 ], [ -74.470134999943056, 39.350375000299437 ], [ -74.468955999760198, 39.348884000075124 ], [ -74.468876000292568, 39.348783000313183 ], [ -74.468780000033107, 39.348660000240912 ], [ -74.46800000005841, 39.347676999847671 ], [ -74.467814000285586, 39.34744799999843 ], [ -74.46754499977375, 39.347116000012868 ], [ -74.467487000047441, 39.347044999761025 ], [ -74.467456999910198, 39.347036000115352 ], [ -74.467439000366866, 39.347014999779717 ], [ -74.466785999715484, 39.346195999830165 ], [ -74.466476000094076, 39.345807000252314 ], [ -74.466403000299152, 39.345719000101063 ], [ -74.46631299988745, 39.345609000103579 ], [ -74.465944999641437, 39.345166999719552 ], [ -74.465629999997162, 39.344758999716227 ], [ -74.465553999829183, 39.344660999997473 ], [ -74.465397000368654, 39.34445800024222 ], [ -74.464571000363222, 39.343453999778298 ], [ -74.464343999684189, 39.34338700018062 ], [ -74.464487999624239, 39.34331700001384 ], [ -74.464163999759137, 39.342939999696711 ], [ -74.464003999925566, 39.342748000126576 ], [ -74.463906999841171, 39.342631000227577 ], [ -74.461686999567746, 39.33957700023155 ], [ -74.458641000187185, 39.33554399998507 ], [ -74.455459000364201, 39.337409999873557 ], [ -74.451465999706073, 39.339843999890228 ], [ -74.450280999675442, 39.340393999743334 ], [ -74.448089999714313, 39.341412000122219 ], [ -74.444657999646083, 39.343952000250084 ], [ -74.443948999816499, 39.344476999884982 ], [ -74.441654999923216, 39.346174999936821 ], [ -74.438493000191713, 39.348516000067569 ], [ -74.43389799983413, 39.349263000218571 ], [ -74.429791000271507, 39.349937000019835 ], [ -74.42800600019126, 39.350409000031867 ], [ -74.42146500009494, 39.352633000204662 ], [ -74.420178999781967, 39.353068999735335 ], [ -74.417504999947099, 39.353977000240207 ], [ -74.415129999862955, 39.354724999900483 ], [ -74.411373999929609, 39.356397000337559 ], [ -74.409623000184538, 39.358584999955276 ], [ -74.407720999928415, 39.360846000295318 ], [ -74.404053999683541, 39.36532800028322 ], [ -74.404129999851506, 39.365521999786608 ], [ -74.405637000097414, 39.369380999741843 ], [ -74.405885999619443, 39.369781000250619 ], [ -74.406335000056316, 39.37050399986866 ], [ -74.407961999952832, 39.372066999673805 ], [ -74.409198999861999, 39.373253999928508 ], [ -74.411112999813696, 39.375130999876248 ], [ -74.411448000447777, 39.375477999842836 ], [ -74.412527000173185, 39.376478000117196 ], [ -74.413445000240131, 39.377311999993111 ], [ -74.414619000400094, 39.378318999674249 ], [ -74.415190999962306, 39.378861000294371 ], [ -74.416238999725607, 39.37985400018885 ], [ -74.417166999838301, 39.380715999683396 ], [ -74.418257000332673, 39.381728000195842 ], [ -74.421993000174552, 39.385231000146327 ], [ -74.421048000343418, 39.385759999788931 ], [ -74.420690000143139, 39.385965999704204 ], [ -74.419360000347538, 39.386741999789869 ], [ -74.419001000322353, 39.386951000297351 ], [ -74.418146000004597, 39.387450000120523 ], [ -74.41718000025709, 39.388011000259453 ], [ -74.416974000392756, 39.388116999717234 ], [ -74.416293999977185, 39.388453000327161 ], [ -74.414457999843307, 39.38928599970744 ], [ -74.413179000101337, 39.389855000310611 ], [ -74.413434000369477, 39.390309000001807 ], [ -74.415919000058466, 39.392999000175386 ], [ -74.415975999959869, 39.394333999737427 ], [ -74.415468999796673, 39.395234999986712 ], [ -74.413825000181731, 39.397167000032532 ], [ -74.413894999603613, 39.397271999837642 ], [ -74.414011999779461, 39.397433000018559 ], [ -74.414267000047602, 39.397853999778874 ], [ -74.414508999896938, 39.398164000322865 ], [ -74.414883999815672, 39.398547999740416 ], [ -74.415259999559296, 39.398968999713276 ], [ -74.415592999645227, 39.399329999791867 ], [ -74.415913000210679, 39.399653000287991 ], [ -74.416059999625446, 39.399769999778471 ], [ -74.416277000258759, 39.399903999731023 ], [ -74.416852000194027, 39.400222999924019 ], [ -74.41722600028784, 39.400347999982593 ], [ -74.41757100006933, 39.400451000001333 ], [ -74.418002000064547, 39.400548999884712 ], [ -74.418424999663841, 39.400629999847347 ], [ -74.419080999789955, 39.400790999913603 ], [ -74.419575000432701, 39.400916999917548 ], [ -74.420167000086408, 39.401094000117041 ], [ -74.421182000237721, 39.401428999751438 ], [ -74.42165300041593, 39.401631000268047 ], [ -74.422081999862996, 39.40183399976145 ], [ -74.422580999630284, 39.402052999933865 ], [ -74.423256000022988, 39.402329999991096 ], [ -74.423861999920391, 39.402539999865162 ], [ -74.424440000228699, 39.402704999967199 ], [ -74.425123999943906, 39.402866000102776 ], [ -74.425795000138635, 39.403011000208593 ], [ -74.426473999830989, 39.40313300011195 ], [ -74.426910999673979, 39.403225999906354 ], [ -74.428171000047683, 39.403298999740201 ], [ -74.428976999961648, 39.403395000013901 ], [ -74.42948699959959, 39.403438999863809 ], [ -74.431119000417269, 39.403692000023916 ], [ -74.431812000353318, 39.403814999657726 ], [ -74.432292999678921, 39.403863999682784 ], [ -74.432610999696266, 39.403888999795633 ], [ -74.432767000230172, 39.403928999818724 ], [ -74.432934999561354, 39.404013000000802 ], [ -74.433121000232518, 39.404317999836103 ], [ -74.433236999685136, 39.404593999704922 ], [ -74.433387000371297, 39.404887000007555 ], [ -74.433517000067638, 39.405169000261616 ], [ -74.433618000349966, 39.405478000020821 ], [ -74.433702000015558, 39.405907000004348 ], [ -74.43378900005419, 39.406227000004833 ], [ -74.43385199980338, 39.40660700009375 ], [ -74.433937000192202, 39.407438999794877 ], [ -74.433995999743431, 39.408104999693535 ], [ -74.434066999888543, 39.408457000317981 ], [ -74.434225999897194, 39.408695000040986 ], [ -74.434418000416116, 39.409022000117425 ], [ -74.434661999915278, 39.409288000007948 ], [ -74.434868999604518, 39.409592999677351 ], [ -74.434973000259916, 39.409737000229605 ], [ -74.435216999759078, 39.409925999852426 ], [ -74.435398000407346, 39.410136999894775 ], [ -74.435788000394695, 39.410476000346186 ], [ -74.436292000184835, 39.410872000125359 ], [ -74.436759999989988, 39.41121799993514 ], [ -74.437319000031735, 39.411702000070008 ], [ -74.437659999615263, 39.412045999706429 ], [ -74.437820000347159, 39.412257000273812 ], [ -74.43808800013575, 39.412700000209682 ], [ -74.438441000313176, 39.41315399974895 ], [ -74.438895999699525, 39.413851999795405 ], [ -74.439283000212129, 39.41442799973742 ], [ -74.43952300041164, 39.414886000097503 ], [ -74.440231000416304, 39.416916999737175 ], [ -74.440300000013266, 39.417017000154047 ], [ -74.440578999672525, 39.41726200004878 ], [ -74.440789999559712, 39.417363000003974 ], [ -74.440980000428837, 39.417441999805057 ], [ -74.44129099987515, 39.417522000241604 ], [ -74.44172799971814, 39.417614000248356 ], [ -74.442131999949197, 39.417663000292926 ], [ -74.44259899992943, 39.417678000030577 ], [ -74.442997000312687, 39.417633000113952 ], [ -74.443766000416716, 39.417425999984388 ], [ -74.44423599987168, 39.417314999782377 ], [ -74.444712999897661, 39.417221000004552 ], [ -74.445216999687801, 39.417144000025687 ], [ -74.445537000253253, 39.417114000317305 ], [ -74.446017999578885, 39.41713599973459 ], [ -74.446707000215284, 39.417110000170176 ], [ -74.447032999730212, 39.417046999904173 ], [ -74.447319999785378, 39.416922999974389 ], [ -74.447493000037738, 39.416738000055368 ], [ -74.447637999802694, 39.416524999773095 ], [ -74.44781299970488, 39.416306999986539 ], [ -74.448073999820792, 39.415924999907276 ], [ -74.448459999610179, 39.415412000253937 ], [ -74.448885999582529, 39.414920999717914 ], [ -74.449290999638478, 39.414507000088499 ], [ -74.449697000417657, 39.414335000307489 ], [ -74.450181999941236, 39.414225000120176 ], [ -74.450684999906471, 39.414180000056575 ], [ -74.451068000221142, 39.414194999849677 ], [ -74.45139299991115, 39.414258999994686 ], [ -74.451668000270757, 39.414377000042983 ], [ -74.451920000165828, 39.414511999765075 ], [ -74.452088000395335, 39.41462400033862 ], [ -74.45222800013741, 39.414746000052141 ], [ -74.452295999909467, 39.414895000021424 ], [ -74.452407000237542, 39.415005999912665 ], [ -74.452567999896033, 39.415145000064911 ], [ -74.452757000041913, 39.415285000002989 ], [ -74.4531429998313, 39.415508999874405 ], [ -74.453395999551276, 39.415626999889035 ], [ -74.453741000231091, 39.415734999833198 ], [ -74.454178999899014, 39.41586500012243 ], [ -74.454870000185238, 39.416048000172168 ], [ -74.455286999936746, 39.416102000186086 ], [ -74.455860000222202, 39.416162999817324 ], [ -74.456413000416148, 39.416189999784926 ], [ -74.456929999726782, 39.41620100033424 ], [ -74.457462000004341, 39.416195000034826 ], [ -74.457944000053175, 39.416195000034826 ], [ -74.458468999759745, 39.416177999877732 ], [ -74.458816999914276, 39.416154000057112 ], [ -74.459028999626383, 39.416133999737617 ], [ -74.459484999735977, 39.416045000015934 ], [ -74.459946999693329, 39.415922999799569 ], [ -74.460376000038721, 39.415763000022771 ], [ -74.461032999989754, 39.415510999993934 ], [ -74.466782000415833, 39.410982000050453 ], [ -74.470447000112571, 39.408794999758015 ], [ -74.47416399968786, 39.40656099978397 ], [ -74.478106000292385, 39.404191999729036 ], [ -74.481749000247802, 39.401988000131944 ], [ -74.482914000186952, 39.401283999827463 ], [ -74.487522999889919, 39.398495999928556 ], [ -74.487932999968763, 39.398247999812092 ], [ -74.488040000098877, 39.398186999779881 ], [ -74.488390999728153, 39.397944999741064 ], [ -74.488528999820417, 39.397827999966239 ], [ -74.488660000239975, 39.397705999808139 ], [ -74.488783000263638, 39.397580999874336 ], [ -74.4889000004395, 39.397451000205415 ], [ -74.48901000004436, 39.397316999705723 ], [ -74.489111000326687, 39.397180000063287 ], [ -74.489205000038027, 39.397039000241499 ], [ -74.489291000251754, 39.396894999848769 ], [ -74.489323000038794, 39.396845999787139 ], [ -74.489369000069544, 39.396748999889503 ], [ -74.489437999666521, 39.396600000020193 ], [ -74.489498999765885, 39.396448999860546 ], [ -74.489550999644422, 39.396296000091837 ], [ -74.489595000025361, 39.396141000006644 ], [ -74.489630000185457, 39.395984999931464 ], [ -74.489656000124739, 39.395827999859641 ], [ -74.489673999668071, 39.395669999784381 ], [ -74.489682000063993, 39.395512000045457 ], [ -74.489682000063993, 39.395353999948732 ], [ -74.48967200001826, 39.395196000188356 ], [ -74.489653999576589, 39.395038000070137 ], [ -74.489626999812401, 39.394880999949756 ], [ -74.489590999827399, 39.394724999833905 ], [ -74.489547000344785, 39.394571000089435 ], [ -74.489492999918113, 39.394417999673117 ], [ -74.489470000351886, 39.394371999654709 ], [ -74.489441999864482, 39.394293999765566 ], [ -74.489431999818734, 39.394267000344314 ], [ -74.489324999688606, 39.394054999820305 ], [ -74.489268999612122, 39.393930999961825 ], [ -74.489208000411068, 39.393810000301748 ], [ -74.489132000243089, 39.39367599975057 ], [ -74.489024000288055, 39.393497000109981 ], [ -74.488968000211557, 39.393416000195401 ], [ -74.488893999693389, 39.393234000138598 ], [ -74.488872999777001, 39.393123999988504 ], [ -74.488861999906334, 39.393006999764708 ], [ -74.488856999883467, 39.392892000113072 ], [ -74.488855000233642, 39.392854000083879 ], [ -74.488846000012828, 39.392647999675127 ], [ -74.488863999556173, 39.392442999742961 ], [ -74.488868999579054, 39.392246999972663 ], [ -74.488887000020696, 39.392195000323753 ], [ -74.48891600033302, 39.3921299996667 ], [ -74.488952000318037, 39.392047999851584 ], [ -74.488974999884249, 39.392024000056765 ], [ -74.489061999922896, 39.391940000015758 ], [ -74.489090000410286, 39.391912999683548 ], [ -74.489123999847166, 39.391876999918573 ], [ -74.489177000448933, 39.391820999784485 ], [ -74.48921500008376, 39.39178299986623 ], [ -74.489386999612904, 39.391656000318193 ], [ -74.489432999643654, 39.391621000128772 ], [ -74.489595000025361, 39.39148899965317 ], [ -74.489826999828949, 39.391329999758547 ], [ -74.489968000294269, 39.391234000236139 ], [ -74.490103000013477, 39.391139000296754 ], [ -74.490231000060007, 39.391030999748196 ], [ -74.490328000144373, 39.390926000269495 ], [ -74.490355999733467, 39.390880000031558 ], [ -74.490420000205887, 39.390776000045875 ], [ -74.490512000267387, 39.390581000175601 ], [ -74.49052399996296, 39.390551000147212 ], [ -74.490596999757884, 39.390380999742604 ], [ -74.490615000199554, 39.390336000260447 ], [ -74.490656000207437, 39.390235000036498 ], [ -74.490687000169558, 39.390156999687868 ], [ -74.49071300010884, 39.390071000021308 ], [ -74.490739000048094, 39.389983000091298 ], [ -74.490743000246084, 39.389968999681976 ], [ -74.490768000360418, 39.389871999942464 ], [ -74.49082199988878, 39.389788000087698 ], [ -74.490833999584353, 39.389775000068063 ], [ -74.490744999895895, 39.389689999666508 ], [ -74.490650000359651, 39.389604999855671 ], [ -74.490517000290254, 39.389508000304389 ], [ -74.490479999582021, 39.389477000075821 ], [ -74.490421999855712, 39.389437000096464 ], [ -74.49036699960412, 39.389408999750131 ], [ -74.490266000220103, 39.389364000335419 ], [ -74.490202999572588, 39.389333000042875 ], [ -74.490148000219321, 39.38929500015815 ], [ -74.490092999967729, 39.389265000271138 ], [ -74.490006999754002, 39.389228999834224 ], [ -74.489904999646754, 39.389193000073035 ], [ -74.48983199985183, 39.389166000066396 ], [ -74.489769999927532, 39.389150000006083 ], [ -74.489721000422065, 39.389147000081174 ], [ -74.489601999698053, 39.389128000090736 ], [ -74.489581999606571, 39.38912500016486 ], [ -74.489490000443368, 39.389109999839285 ], [ -74.489369999894464, 39.389090000094427 ], [ -74.489254000441818, 39.389068999904858 ], [ -74.489168000228105, 39.389055999751321 ], [ -74.489099999557723, 39.389049000148233 ], [ -74.489010999869251, 39.389046000218983 ], [ -74.488927000203674, 39.389041000105131 ], [ -74.488911000310154, 39.389041000105131 ], [ -74.488753999951314, 39.389046999964009 ], [ -74.488464000421402, 39.389032000315886 ], [ -74.488367000337021, 39.389033000061112 ], [ -74.488322000131163, 39.389030000131157 ], [ -74.488276999925333, 39.38902400027083 ], [ -74.488233000442733, 39.389016000224856 ], [ -74.488117999916682, 39.388992000081487 ], [ -74.488064000388306, 39.388975999981291 ], [ -74.48801699963434, 39.388961000317906 ], [ -74.487973000151726, 39.388953000264713 ], [ -74.487948999862269, 39.388951999824108 ], [ -74.487915000425417, 39.388951000077725 ], [ -74.487877999717156, 39.388948999890637 ], [ -74.487850999952983, 39.388943000023389 ], [ -74.487830000036595, 39.388934000221504 ], [ -74.487763000089444, 39.388910000049876 ], [ -74.487681000073678, 39.388874000124105 ], [ -74.48763800041597, 39.388852999869535 ], [ -74.487582000339472, 39.38883399979909 ], [ -74.487515000392321, 39.388816000166088 ], [ -74.48746400033869, 39.38879499989406 ], [ -74.487395999668323, 39.38875500021804 ], [ -74.487297999759036, 39.388686000132864 ], [ -74.48726199977402, 39.388658000179461 ], [ -74.48721599974327, 39.388616000228325 ], [ -74.487179999758254, 39.388581999654221 ], [ -74.48713499955241, 39.388541999856102 ], [ -74.48710100011553, 39.388507999940266 ], [ -74.487075000176276, 39.388485999822507 ], [ -74.487050000061913, 39.388467000346417 ], [ -74.487004000031163, 39.388435999655378 ], [ -74.486962000198375, 39.388417000165624 ], [ -74.486923999665223, 39.388403999890571 ], [ -74.486860999916018, 39.388383000188888 ], [ -74.486804000014615, 39.388357000317981 ], [ -74.486763000006732, 39.388330999743154 ], [ -74.486723999648675, 39.388295999968697 ], [ -74.48667500014318, 39.388253999799673 ], [ -74.486643000356139, 39.38822299970824 ], [ -74.486626999564294, 39.388198000229195 ], [ -74.486592000302508, 39.388147000097796 ], [ -74.486572000211027, 39.388113999747851 ], [ -74.486546000271744, 39.388064999767515 ], [ -74.486526000180277, 39.388021999699767 ], [ -74.486486999822205, 39.387910000141609 ], [ -74.486466999730723, 39.387849000095869 ], [ -74.486440999791455, 39.387755000171381 ], [ -74.486436999593508, 39.387720000108025 ], [ -74.486435999768588, 39.387702999951905 ], [ -74.48642599972284, 39.387605999839593 ], [ -74.486414999852187, 39.38754999974914 ], [ -74.486399999783586, 39.387501999834228 ], [ -74.486381000415321, 39.387441000126081 ], [ -74.486367000171612, 39.38739799967383 ], [ -74.486361000323825, 39.387342999880161 ], [ -74.486352999927902, 39.387248999968371 ], [ -74.486352999927902, 39.387212999879999 ], [ -74.486357000125864, 39.387191000048261 ], [ -74.486378000042265, 39.38712199980521 ], [ -74.486389999737824, 39.387087000118676 ], [ -74.486395999585611, 39.387071000275981 ], [ -74.486398999958666, 39.387047000157914 ], [ -74.486398999958666, 39.386992000087602 ], [ -74.486388999912919, 39.386936000198745 ], [ -74.486378999867185, 39.386881000040958 ], [ -74.486373000019384, 39.386847999786625 ], [ -74.486372000194493, 39.386799000305935 ], [ -74.486383000065146, 39.386746000290465 ], [ -74.486397000308841, 39.386690000204162 ], [ -74.486413000202361, 39.386647999762843 ], [ -74.486418000225243, 39.386599999921764 ], [ -74.486428000270976, 39.386564999973423 ], [ -74.486444000164511, 39.386526999969981 ], [ -74.486458000408206, 39.386501000101923 ], [ -74.486470000103765, 39.386479000045725 ], [ -74.486484000347488, 39.386463999845667 ], [ -74.486542999898703, 39.386412000052808 ], [ -74.486604999822987, 39.386366000310588 ], [ -74.486645000005964, 39.38633800012061 ], [ -74.486702999732273, 39.386292000329604 ], [ -74.48673799989237, 39.386267999943577 ], [ -74.48680200036479, 39.386219000055647 ], [ -74.486839000174712, 39.386190999806693 ], [ -74.486876999809553, 39.386170000133319 ], [ -74.486913999619475, 39.386153000293909 ], [ -74.486958999825319, 39.386135999756057 ], [ -74.487044000214141, 39.386096999731741 ], [ -74.48713499955241, 39.386056999897846 ], [ -74.48718200030639, 39.38603900024281 ], [ -74.487260000124195, 39.38600700007315 ], [ -74.48730699997985, 39.385997000103956 ], [ -74.487341000315041, 39.385990999982845 ], [ -74.487378999949883, 39.385990000194042 ], [ -74.487416999584724, 39.38598899971096 ], [ -74.487450999919901, 39.385983000283467 ], [ -74.487487999729836, 39.385970000249287 ], [ -74.487532000110761, 39.385948999815099 ], [ -74.487552000202228, 39.385940000321391 ], [ -74.487589000012164, 39.385921999941914 ], [ -74.487635000042914, 39.385907000316401 ], [ -74.487691000119412, 39.385895000058234 ], [ -74.487737999975081, 39.385894000268053 ], [ -74.487783000180912, 39.385889999718614 ], [ -74.487809999945114, 39.385889999718614 ], [ -74.487845999930101, 39.385894000268053 ], [ -74.487871000044464, 39.385901000187545 ], [ -74.487913999702172, 39.385915000024482 ], [ -74.487938999816535, 39.385930000342604 ], [ -74.488004999938781, 39.385964999915032 ], [ -74.488040000098877, 39.385981999800237 ], [ -74.488069000411187, 39.385987999922122 ], [ -74.488090000327588, 39.385990000194042 ], [ -74.48811399971872, 39.385990000194042 ], [ -74.48814399985595, 39.385987000133277 ], [ -74.488173000168274, 39.385980000222403 ], [ -74.488213000351223, 39.385954000150505 ], [ -74.488265000229788, 39.38592100015213 ], [ -74.488276000100413, 39.38591299975041 ], [ -74.488292999818867, 39.385901999977634 ], [ -74.488327999978978, 39.385882000007662 ], [ -74.488385999705272, 39.385844000326635 ], [ -74.488409000169824, 39.385828999990082 ], [ -74.488447999629557, 39.385812999858921 ], [ -74.488498999683188, 39.38580100027891 ], [ -74.488549999736819, 39.385785000141375 ], [ -74.488594999942649, 39.385758999996817 ], [ -74.488646999821185, 39.385722999834115 ], [ -74.488697999874816, 39.385681000199348 ], [ -74.488728999836951, 39.385667000315529 ], [ -74.488712000118525, 39.385591999798855 ], [ -74.48869700004991, 39.385536999970405 ], [ -74.488685000354323, 39.385508000346412 ], [ -74.488656000042027, 39.385479000016062 ], [ -74.488623000430053, 39.385458000128438 ], [ -74.488572000376422, 39.385418999725232 ], [ -74.488481999964748, 39.38533299977388 ], [ -74.488388000253423, 39.385237000332772 ], [ -74.48836200031414, 39.385210999984061 ], [ -74.488343000047564, 39.385197999806067 ], [ -74.488322000131163, 39.385186000120314 ], [ -74.488286000146175, 39.385171000336605 ], [ -74.488223000396971, 39.385151000157151 ], [ -74.488154999726603, 39.38513400006952 ], [ -74.488132999985297, 39.385127999874214 ], [ -74.488116000266857, 39.385123999975185 ], [ -74.488072999710838, 39.385110999780984 ], [ -74.488030000053129, 39.385095999981203 ], [ -74.487984999847285, 39.385079999681992 ], [ -74.48793799999163, 39.385067000173919 ], [ -74.487888999587824, 39.385053999969102 ], [ -74.487840000082329, 39.385039999959503 ], [ -74.487778999982964, 39.385019999742447 ], [ -74.487696999967184, 39.385001999819956 ], [ -74.487656999784221, 39.384997000110715 ], [ -74.487500000323706, 39.384986999996748 ], [ -74.487428000353688, 39.384979999985575 ], [ -74.487368000079229, 39.384976000078005 ], [ -74.487331000269307, 39.384965000157592 ], [ -74.487246999705405, 39.384905999923532 ], [ -74.48719900002483, 39.384872000319099 ], [ -74.48716399986472, 39.384845999834411 ], [ -74.487026999597376, 39.384765000291821 ], [ -74.486875000159714, 39.38467799972701 ], [ -74.486808000212577, 39.384639000276522 ], [ -74.486764999656572, 39.384592000251146 ], [ -74.486711999953116, 39.384491000045216 ], [ -74.486685000188928, 39.384439000170907 ], [ -74.486655999876632, 39.384403000021578 ], [ -74.486614999868735, 39.384352999706209 ], [ -74.486505000263875, 39.384149000214705 ], [ -74.486436999593508, 39.38397600003568 ], [ -74.486412000377456, 39.383834999913795 ], [ -74.486410999654225, 39.383807999917039 ], [ -74.4864090000044, 39.383780999909831 ], [ -74.486424000073015, 39.383730000022005 ], [ -74.48645500003515, 39.383683000078811 ], [ -74.486484000347488, 39.383645999717132 ], [ -74.486499000416089, 39.383605000044135 ], [ -74.486507999738606, 39.383569000158943 ], [ -74.486511000111662, 39.383534000079187 ], [ -74.486513999586393, 39.383499999806311 ], [ -74.486521999982301, 39.383419000090299 ], [ -74.486558999792237, 39.383327000101588 ], [ -74.486624999914469, 39.383198999915621 ], [ -74.486639999983083, 39.383174999854589 ], [ -74.486706999930234, 39.383063999985851 ], [ -74.486716999975968, 39.383059000137727 ], [ -74.486809999862402, 39.382969999865111 ], [ -74.486875999984647, 39.382911000027505 ], [ -74.486906000121849, 39.382865000060718 ], [ -74.486941000281973, 39.38282799995973 ], [ -74.486990999612374, 39.382777000069872 ], [ -74.487014000076897, 39.382752999863733 ], [ -74.487074000351356, 39.382683000256947 ], [ -74.487094000442838, 39.382654999977952 ], [ -74.487106000138411, 39.382620000134196 ], [ -74.487131000252759, 39.382577000183048 ], [ -74.487132999902585, 39.382556000116573 ], [ -74.487144999598144, 39.382543999976562 ], [ -74.487151000344255, 39.382529000319373 ], [ -74.48715299999408, 39.382499000301024 ], [ -74.48714999962101, 39.382482000261703 ], [ -74.487154999643892, 39.382418999957522 ], [ -74.487148999796119, 39.382388999891901 ], [ -74.487144999598144, 39.382344999957468 ], [ -74.487132999902585, 39.382230999935139 ], [ -74.487128999704623, 39.382164000030009 ], [ -74.487117999833956, 39.382034000103289 ], [ -74.487097999742488, 39.38199400002371 ], [ -74.48705500008478, 39.381859999694193 ], [ -74.487010999703855, 39.381778000308707 ], [ -74.486967000221227, 39.381725999801773 ], [ -74.486943999756704, 39.381679999748307 ], [ -74.486896999901035, 39.381584999994722 ], [ -74.486803000189695, 39.381438000084707 ], [ -74.486776000425522, 39.3814140001125 ], [ -74.48658100043184, 39.381238999689657 ], [ -74.486383999890037, 39.381044000249055 ], [ -74.486291999828552, 39.380955000184422 ], [ -74.486233000277309, 39.380874000292216 ], [ -74.486208000162947, 39.380836999830152 ], [ -74.486181000398773, 39.380794000169274 ], [ -74.486086999789137, 39.380629000320468 ], [ -74.486013000169294, 39.380484000215553 ], [ -74.485957000092782, 39.38033500033022 ], [ -74.485927999780458, 39.380202000159279 ], [ -74.48590500021426, 39.38016800034638 ], [ -74.485889000320725, 39.380133999822604 ], [ -74.485885000122764, 39.380120000214724 ], [ -74.48587400025211, 39.380078999859172 ], [ -74.485866999681107, 39.380010000222519 ], [ -74.485863000381457, 39.379961000107102 ], [ -74.48587199970396, 39.379927000176806 ], [ -74.48589199979547, 39.379862999772961 ], [ -74.485894000343592, 39.379797000249816 ], [ -74.485887999597509, 39.379730999969894 ], [ -74.485880000099883, 39.379698999685431 ], [ -74.485861999658226, 39.379658999656471 ], [ -74.485845999764706, 39.379623999699085 ], [ -74.48582900004628, 39.379563999929701 ], [ -74.485819000000518, 39.379494999784029 ], [ -74.485822000373574, 39.37945100010834 ], [ -74.485834999894053, 39.37941600004666 ], [ -74.485859000183495, 39.379376999739037 ], [ -74.485866999681107, 39.379367000208589 ], [ -74.485909000412221, 39.379327999873595 ], [ -74.485925000305727, 39.379328999757831 ], [ -74.485952999894835, 39.379328999757831 ], [ -74.486013000169294, 39.379324000336538 ], [ -74.48602999988772, 39.379290000095978 ], [ -74.486055999826974, 39.379242999940423 ], [ -74.486120000299408, 39.37913999985814 ], [ -74.486274000285206, 39.378870000006501 ], [ -74.486312999744939, 39.378812999958299 ], [ -74.486367999996531, 39.378730999770809 ], [ -74.486477999601377, 39.378636000169848 ], [ -74.486680000166061, 39.378527999713619 ], [ -74.486951000327707, 39.378534999677548 ], [ -74.487053000434955, 39.378507999713662 ], [ -74.48716399986472, 39.378471999977094 ], [ -74.487235999834752, 39.378377999921526 ], [ -74.487292999736155, 39.378280000142453 ], [ -74.487330000444388, 39.378224000206934 ], [ -74.487424999980647, 39.378100999893306 ], [ -74.48755700022511, 39.377818000025407 ], [ -74.487686999921451, 39.37753399979465 ], [ -74.487732000127309, 39.377432999791061 ], [ -74.487855000150944, 39.37715500026399 ], [ -74.488004000113861, 39.376727999683631 ], [ -74.48830100021479, 39.376015999879044 ], [ -74.488820000073545, 39.375449000205833 ], [ -74.489408000427616, 39.374891000319217 ], [ -74.490984000270487, 39.373704000118522 ], [ -74.491828999644184, 39.373112999674973 ], [ -74.49244799996039, 39.372577000146173 ], [ -74.492688999984807, 39.372063999709049 ], [ -74.492705999703233, 39.371963000125113 ], [ -74.492764000327867, 39.371737999990472 ], [ -74.492836000297899, 39.371332000283275 ], [ -74.49276000012992, 39.370909000218788 ], [ -74.492566999786064, 39.369925999669562 ], [ -74.492289999776631, 39.368964999893308 ], [ -74.492144000186769, 39.368260999739164 ], [ -74.492104000003792, 39.367861000246144 ], [ -74.492098999980911, 39.367349999996598 ], [ -74.492115999699365, 39.36694900008532 ], [ -74.492139000163888, 39.366575999749507 ], [ -74.492190000217533, 39.366269000073181 ], [ -74.492304999845246, 39.365940000157075 ], [ -74.492411999975374, 39.365692999703917 ], [ -74.492561999763197, 39.365429999824386 ], [ -74.492916999590435, 39.365035999928821 ], [ -74.493222999912192, 39.364795000305477 ], [ -74.493659999755195, 39.364437000347053 ], [ -74.494247000284346, 39.363955999711806 ], [ -74.494545000210167, 39.363712000205268 ], [ -74.495787999967121, 39.362682999677453 ], [ -74.497152999922804, 39.36154000018692 ], [ -74.498117999845405, 39.36075200012403 ], [ -74.499559999794002, 39.35964600019436 ], [ -74.500138000102325, 39.359015000187497 ], [ -74.501168000322252, 39.357839000331921 ] ] ] } }
]
}
