{"type":"FeatureCollection","features":[{"type":"Feature","properties":{"level_ft":2},"geometry":{"type":"MultiPolygon","coordinates":[[[[-74.189992,40.687367],[-74.189514,40.689373],[-74.189764,40.689895],[-74.190375,40.690309],[-74.189223,40.689866],[-74.187993,40.690632],[-74.18738,40.690685],[-74.187309,40.690383],[-74.189047,40.688878],[-74.189198,40.687414],[-74.189992,40.687367]]],[[[-74.182872,40.690645],[-74.182693,40.690452],[-74.183271,40.690317],[-74.18367,40.689769],[-74.183958,40.689907],[-74.184608,40.689662],[-74.184643,40.689881],[-74.183956,40.690181],[-74.183701,40.690867],[-74.183484,40.690866],[-74.18345,40.690509],[-74.182872,40.690645]]],[[[-74.185823,40.692026],[-74.185751,40.691971],[-74.185787,40.691971],[-74.185823,40.692026]]],[[[-74.185463,40.691915],[-74.185929,40.692575],[-74.184775,40.692544],[-74.18434,40.692982],[-74.184592,40.69312],[-74.184482,40.693477],[-74.184119,40.693888],[-74.183686,40.693914],[-74.184046,40.694025],[-74.1835,40.695094],[-74.183425,40.695862],[-74.182774,40.69619],[-74.182669,40.695558],[-74.182921,40.695531],[-74.183834,40.693255],[-74.185536,40.691668],[-74.186004,40.691807],[-74.186004,40.691971],[-74.18568,40.691778],[-74.185751,40.691971],[-74.185463,40.691915]]],[[[-74.184567,40.698281],[-74.184676,40.698116],[-74.185324,40.698393],[-74.184963,40.698556],[-74.184567,40.698281]]],[[[-74.184279,40.698308],[-74.184494,40.698418],[-74.184383,40.699022],[-74.18424,40.698911],[-74.184279,40.698308]]],[[[-74.184603,40.698418],[-74.184782,40.698638],[-74.184745,40.698885],[-74.184528,40.699022],[-74.184603,40.698418]]],[[[-74.181988,40.702117],[-74.182542,40.699456],[-74.182663,40.696848],[-74.183168,40.696657],[-74.183237,40.697399],[-74.182985,40.697233],[-74.182913,40.697261],[-74.183237,40.697454],[-74.183199,40.697728],[-74.182876,40.697535],[-74.182839,40.697755],[-74.183233,40.698222],[-74.182861,40.700555],[-74.182501,40.700526],[-74.182861,40.700719],[-74.18242,40.702255],[-74.181988,40.702117]]],[[[-74.180353,40.704748],[-74.181043,40.703597],[-74.181548,40.703735],[-74.181183,40.704585],[-74.180353,40.704748]]],[[[-74.185318,40.707369],[-74.184347,40.706817],[-74.186225,40.706219],[-74.185574,40.706629],[-74.185501,40.70682],[-74.185789,40.706931],[-74.185318,40.707369]]],[[[-74.184594,40.707971],[-74.18265,40.707087],[-74.182651,40.706977],[-74.183948,40.707146],[-74.183803,40.707337],[-74.184668,40.707614],[-74.184989,40.708246],[-74.184556,40.708245],[-74.184594,40.707971]]],[[[-74.185856,40.708029],[-74.186361,40.708058],[-74.186649,40.708169],[-74.185819,40.708194],[-74.185856,40.708029]]],[[[-74.186756,40.708471],[-74.185492,40.708687],[-74.185746,40.708331],[-74.186793,40.708306],[-74.186756,40.708471]]],[[[-74.184373,40.708959],[-74.184337,40.708849],[-74.18452,40.708382],[-74.185276,40.708549],[-74.185203,40.708741],[-74.184373,40.708959]],[[-74.184806,40.708795],[-74.18477,40.708767],[-74.18477,40.708795],[-74.184806,40.708795]]],[[[-74.185672,40.708742],[-74.1856,40.70877],[-74.1856,40.708742],[-74.185672,40.708742]]],[[[-74.185564,40.708797],[-74.185492,40.708769],[-74.185564,40.70877],[-74.185564,40.708797]]],[[[-74.185492,40.708797],[-74.185347,40.708851],[-74.185347,40.708796],[-74.185492,40.708797]]],[[[-74.182606,40.708734],[-74.183581,40.708627],[-74.183832,40.708957],[-74.182315,40.709255],[-74.182606,40.708734]]],[[[-74.184264,40.709095],[-74.185203,40.708851],[-74.184588,40.709096],[-74.184264,40.709095]]],[[[-74.183972,40.709671],[-74.184008,40.709699],[-74.183936,40.709726],[-74.183972,40.709671]]],[[[-74.184296,40.709837],[-74.18426,40.709809],[-74.184296,40.709809],[-74.184296,40.709837]]],[[[-74.186528,40.710804],[-74.184548,40.710057],[-74.18509,40.709921],[-74.185019,40.709592],[-74.186861,40.709103],[-74.186528,40.710804]]],[[[-74.184296,40.709919],[-74.184439,40.710112],[-74.184079,40.710111],[-74.184296,40.709919]]],[[[-74.18426,40.709837],[-74.183536,40.710521],[-74.182886,40.710629],[-74.182778,40.710436],[-74.1835,40.710301],[-74.183755,40.709972],[-74.18426,40.709837]]],[[[-74.182778,40.710601],[-74.182597,40.710546],[-74.182598,40.710491],[-74.182778,40.710601]]],[[[-74.186058,40.711159],[-74.185771,40.710829],[-74.186492,40.710858],[-74.185802,40.711817],[-74.184934,40.712282],[-74.184068,40.712444],[-74.184032,40.712252],[-74.185658,40.711734],[-74.185842,40.711076],[-74.186058,40.711159]],[[-74.186058,40.711159],[-74.186094,40.711187],[-74.186094,40.711159],[-74.186058,40.711159]]],[[[-74.185693,40.711982],[-74.185729,40.712009],[-74.185693,40.712009],[-74.185693,40.711982]]],[[[-74.183851,40.712388],[-74.183959,40.712444],[-74.183959,40.712526],[-74.183851,40.712388]]],[[[-74.185511,40.712338],[-74.184968,40.712831],[-74.184282,40.712829],[-74.184139,40.712554],[-74.185294,40.712365],[-74.185584,40.712119],[-74.185511,40.712338]],[[-74.184968,40.712803],[-74.184932,40.712776],[-74.184932,40.712803],[-74.184968,40.712803]],[[-74.184968,40.712776],[-74.185004,40.712748],[-74.184968,40.712748],[-74.184968,40.712776]],[[-74.184859,40.712803],[-74.184896,40.712776],[-74.18486,40.712775],[-74.184859,40.712803]],[[-74.185149,40.712612],[-74.185185,40.712584],[-74.185149,40.712584],[-74.185149,40.712612]]],[[[-74.183995,40.712581],[-74.183959,40.712553],[-74.183995,40.712553],[-74.183995,40.712581]]],[[[-74.183995,40.712581],[-74.184031,40.712636],[-74.183994,40.712636],[-74.183995,40.712581]]],[[[-74.182985,40.712606],[-74.183489,40.712634],[-74.182948,40.712688],[-74.182985,40.712606]]],[[[-74.18403,40.712663],[-74.184066,40.712691],[-74.18403,40.712691],[-74.18403,40.712663]]],[[[-74.18284,40.71266],[-74.182804,40.712687],[-74.182804,40.71266],[-74.18284,40.71266]]],[[[-74.182696,40.71266],[-74.182732,40.712687],[-74.182696,40.712687],[-74.182696,40.71266]]],[[[-74.184066,40.712718],[-74.184102,40.712746],[-74.184066,40.712746],[-74.184066,40.712718]]],[[[-74.183381,40.712716],[-74.183309,40.712744],[-74.183309,40.712716],[-74.183381,40.712716]]],[[[-74.182948,40.712743],[-74.182876,40.712715],[-74.182948,40.712715],[-74.182948,40.712743]]],[[[-74.181504,40.712821],[-74.182299,40.712604],[-74.181504,40.712903],[-74.181504,40.712821]]],[[[-74.182515,40.712824],[-74.182731,40.712742],[-74.182876,40.712743],[-74.182515,40.712824]]],[[[-74.182082,40.71285],[-74.182117,40.712878],[-74.182081,40.712878],[-74.182082,40.71285]]],[[[-74.182153,40.712933],[-74.182226,40.712878],[-74.182262,40.712851],[-74.182406,40.712878],[-74.182153,40.712933]]],[[[-74.182009,40.712932],[-74.182045,40.71296],[-74.182009,40.71296],[-74.182009,40.712932]]],[[[-74.181973,40.71296],[-74.181937,40.712987],[-74.181937,40.71296],[-74.181973,40.71296]]],[[[-74.182009,40.713015],[-74.182081,40.713042],[-74.182008,40.713042],[-74.182009,40.713015]]],[[[-74.181864,40.713042],[-74.181972,40.713069],[-74.181864,40.713069],[-74.181864,40.713042]]],[[[-74.183489,40.712662],[-74.183668,40.712964],[-74.180491,40.713587],[-74.180636,40.713368],[-74.182116,40.713097],[-74.182117,40.712988],[-74.183164,40.712743],[-74.183308,40.712799],[-74.183417,40.712744],[-74.183489,40.712662]],[[-74.182334,40.712961],[-74.182369,40.712988],[-74.18237,40.712961],[-74.182334,40.712961]],[[-74.182442,40.712933],[-74.182478,40.712961],[-74.182478,40.712934],[-74.182442,40.712933]],[[-74.182803,40.712852],[-74.182839,40.71288],[-74.182839,40.712852],[-74.182803,40.712852]]],[[[-74.184533,40.713214],[-74.184497,40.713186],[-74.184533,40.713186],[-74.184533,40.713214]]],[[[-74.184497,40.713241],[-74.184461,40.713214],[-74.184497,40.713214],[-74.184497,40.713241]]],[[[-74.178398,40.713718],[-74.178361,40.713746],[-74.178362,40.713718],[-74.178398,40.713718]]],[[[-74.178289,40.713773],[-74.178361,40.713801],[-74.178289,40.7138],[-74.178289,40.713773]]],[[[-74.178181,40.713828],[-74.178253,40.7138],[-74.178253,40.713828],[-74.178181,40.713828]]],[[[-74.178144,40.713855],[-74.178072,40.713827],[-74.178145,40.713827],[-74.178144,40.713855]]],[[[-74.178072,40.713882],[-74.177964,40.713854],[-74.178072,40.713855],[-74.178072,40.713882]]],[[[-74.177856,40.713909],[-74.177928,40.713882],[-74.177928,40.713909],[-74.177856,40.713909]]],[[[-74.161025,40.68921],[-74.160883,40.688764],[-74.161277,40.689294],[-74.161025,40.68921]]],[[[-74.161746,40.689405],[-74.161638,40.689377],[-74.161674,40.689332],[-74.161746,40.689405]]],[[[-74.161347,40.689815],[-74.161383,40.689843],[-74.161347,40.689843],[-74.161347,40.689815]]],[[[-74.161347,40.68987],[-74.16131,40.689898],[-74.161311,40.68987],[-74.161347,40.68987]]],[[[-74.16131,40.689925],[-74.161274,40.689952],[-74.161274,40.689925],[-74.16131,40.689925]]],[[[-74.164591,40.690075],[-74.163977,40.69029],[-74.162969,40.689957],[-74.163114,40.689771],[-74.163979,40.689949],[-74.163942,40.690097],[-74.164591,40.690075]]],[[[-74.164847,40.690127],[-74.164627,40.690154],[-74.164627,40.690082],[-74.164847,40.690127]]],[[[-74.161165,40.690089],[-74.161201,40.690117],[-74.161165,40.690117],[-74.161165,40.690089]]],[[[-74.161165,40.690144],[-74.161129,40.690172],[-74.161129,40.690144],[-74.161165,40.690144]]],[[[-74.161056,40.690254],[-74.161092,40.690281],[-74.161056,40.690281],[-74.161056,40.690254]]],[[[-74.161056,40.690336],[-74.16102,40.690308],[-74.161056,40.690309],[-74.161056,40.690336]]],[[[-74.176466,40.710309],[-74.169396,40.710207],[-74.16864,40.710012],[-74.168245,40.7096],[-74.169073,40.710014],[-74.17037,40.710182],[-74.176466,40.710309]]],[[[-74.18006,40.713174],[-74.18021,40.711939],[-74.179957,40.711938],[-74.179162,40.712375],[-74.178151,40.712428],[-74.177468,40.712069],[-74.177038,40.711436],[-74.170795,40.711775],[-74.170543,40.711665],[-74.177219,40.711245],[-74.177756,40.712042],[-74.178982,40.712293],[-74.180356,40.711665],[-74.180719,40.711062],[-74.1822,40.7106],[-74.182344,40.71082],[-74.180499,40.71183],[-74.180313,40.712928],[-74.180601,40.713066],[-74.18006,40.713174]]],[[[-74.177063,40.713687],[-74.177064,40.713577],[-74.17728,40.713633],[-74.177279,40.713688],[-74.177063,40.713687]],[[-74.177172,40.713605],[-74.177135,40.713632],[-74.177172,40.713633],[-74.177172,40.713605]]],[[[-74.177063,40.713687],[-74.177027,40.713715],[-74.177027,40.713687],[-74.177063,40.713687]]],[[[-74.177207,40.713742],[-74.177279,40.713715],[-74.177279,40.713743],[-74.177207,40.713742]]],[[[-74.177063,40.713715],[-74.177099,40.713742],[-74.177063,40.713742],[-74.177063,40.713715]]],[[[-74.176991,40.713714],[-74.177027,40.713742],[-74.176991,40.713742],[-74.176991,40.713714]]],[[[-74.176882,40.713796],[-74.176955,40.713742],[-74.176954,40.713797],[-74.176882,40.713796]]],[[[-74.175259,40.713764],[-74.175187,40.713792],[-74.175187,40.713764],[-74.175259,40.713764]]],[[[-74.174898,40.713763],[-74.175151,40.713792],[-74.174898,40.713791],[-74.174898,40.713763]]],[[[-74.17782,40.713827],[-74.177784,40.713854],[-74.177784,40.713826],[-74.17782,40.713827]]],[[[-74.177856,40.713936],[-74.177747,40.713909],[-74.177856,40.713909],[-74.177856,40.713936]]],[[[-74.176845,40.713934],[-74.177711,40.713881],[-74.176809,40.714016],[-74.176845,40.713934]]],[[[-74.176701,40.713961],[-74.176737,40.713933],[-74.176737,40.713961],[-74.176701,40.713961]]],[[[-74.177386,40.714017],[-74.177603,40.713936],[-74.177747,40.713936],[-74.177567,40.714018],[-74.177386,40.714017]]],[[[-74.177206,40.714017],[-74.177386,40.714045],[-74.177206,40.714044],[-74.177206,40.714017]]],[[[-74.177061,40.714044],[-74.177205,40.714072],[-74.177061,40.714071],[-74.177061,40.714044]]],[[[-74.177025,40.714071],[-74.176989,40.714044],[-74.177025,40.714044],[-74.177025,40.714071]]],[[[-74.176989,40.714071],[-74.176917,40.714099],[-74.176917,40.714071],[-74.176989,40.714071]]],[[[-74.176664,40.714125],[-74.17587,40.71415],[-74.174391,40.714284],[-74.176015,40.713986],[-74.176701,40.713961],[-74.176809,40.714071],[-74.176664,40.714125]],[[-74.176592,40.714015],[-74.176556,40.714043],[-74.176592,40.714043],[-74.176592,40.714015]],[[-74.176628,40.71407],[-74.176592,40.714098],[-74.176628,40.714098],[-74.176628,40.71407]]],[[[-74.176593,40.713851],[-74.170385,40.714547],[-74.164215,40.714639],[-74.17219,40.714305],[-74.174428,40.713954],[-74.176088,40.713794],[-74.175259,40.71371],[-74.176955,40.713605],[-74.176593,40.713851]],[[-74.172767,40.714252],[-74.172731,40.714224],[-74.172731,40.714251],[-74.172767,40.714252]],[[-74.171865,40.714359],[-74.171793,40.714331],[-74.171793,40.714359],[-74.171865,40.714359]],[[-74.171648,40.714386],[-74.171612,40.714358],[-74.171612,40.714386],[-74.171648,40.714386]],[[-74.173634,40.714117],[-74.17367,40.714144],[-74.17367,40.714117],[-74.173634,40.714117]]],[[[-74.172117,40.714414],[-74.172225,40.714442],[-74.172117,40.714442],[-74.172117,40.714414]]],[[[-74.170709,40.714575],[-74.170746,40.714548],[-74.170745,40.714575],[-74.170709,40.714575]]],[[[-74.162916,40.71469],[-74.162988,40.714718],[-74.162916,40.714717],[-74.162916,40.71469]]],[[[-74.162844,40.71469],[-74.162808,40.714717],[-74.162808,40.71469],[-74.162844,40.71469]]],[[[-74.166776,40.714893],[-74.164899,40.714915],[-74.164828,40.714833],[-74.164359,40.714831],[-74.164683,40.71486],[-74.164611,40.714914],[-74.163241,40.714718],[-74.170457,40.714574],[-74.166776,40.714893]],[[-74.165621,40.714862],[-74.165513,40.71489],[-74.165621,40.71489],[-74.165621,40.714862]],[[-74.1649,40.71486],[-74.164936,40.714833],[-74.1649,40.714833],[-74.1649,40.71486]],[[-74.164286,40.714859],[-74.164179,40.714803],[-74.164178,40.714831],[-74.164286,40.714859]]],[[[-74.163133,40.714745],[-74.163169,40.714773],[-74.163132,40.714773],[-74.163133,40.714745]]],[[[-74.167461,40.71484],[-74.167497,40.714868],[-74.167461,40.714868],[-74.167461,40.71484]]],[[[-74.164791,40.714887],[-74.164719,40.714915],[-74.164719,40.714887],[-74.164791,40.714887]]],[[[-74.162988,40.714882],[-74.162951,40.71491],[-74.162952,40.714882],[-74.162988,40.714882]]],[[[-74.163204,40.71491],[-74.163312,40.714938],[-74.163204,40.714938],[-74.163204,40.71491]]],[[[-74.16342,40.714938],[-74.1636,40.715021],[-74.16342,40.714966],[-74.16342,40.714938]]],[[[-74.163672,40.715021],[-74.164069,40.714968],[-74.165945,40.71511],[-74.16793,40.714979],[-74.166702,40.71514],[-74.164934,40.715135],[-74.163672,40.715021]],[[-74.164466,40.715079],[-74.164538,40.715051],[-74.164466,40.715051],[-74.164466,40.715079]]],[[[-74.173766,40.71667],[-74.172937,40.716448],[-74.172971,40.71686],[-74.172754,40.716914],[-74.172758,40.716146],[-74.17348,40.71612],[-74.173698,40.715736],[-74.174094,40.71582],[-74.17341,40.715571],[-74.175576,40.715275],[-74.174708,40.715767],[-74.175067,40.71618],[-74.174453,40.716178],[-74.174272,40.716424],[-74.174775,40.716865],[-74.17409,40.716781],[-74.173728,40.716972],[-74.173766,40.71667]]],[[[-74.171704,40.71768],[-74.171669,40.717488],[-74.170625,40.717128],[-74.170479,40.717319],[-74.170083,40.717236],[-74.170158,40.716632],[-74.172174,40.717462],[-74.172644,40.717326],[-74.172535,40.717572],[-74.172822,40.717793],[-74.171704,40.71768]]],[[[-74.163648,40.719798],[-74.162965,40.719274],[-74.162532,40.71941],[-74.162641,40.719163],[-74.162027,40.719381],[-74.162137,40.71897],[-74.161562,40.718584],[-74.164085,40.719113],[-74.164119,40.719415],[-74.164695,40.719691],[-74.163648,40.719798]]],[[[-74.168512,40.721129],[-74.168045,40.720799],[-74.168658,40.72091],[-74.168804,40.720471],[-74.168228,40.720168],[-74.16877,40.720032],[-74.16895,40.72028],[-74.17003,40.72064],[-74.169705,40.720776],[-74.169164,40.720637],[-74.168946,40.721076],[-74.169197,40.721241],[-74.168727,40.721514],[-74.168474,40.721514],[-74.168512,40.721129]]],[[[-74.161981,40.735604],[-74.161945,40.735577],[-74.161981,40.735577],[-74.161981,40.735604]]],[[[-74.161945,40.735604],[-74.161909,40.735631],[-74.161909,40.735604],[-74.161945,40.735604]]],[[[-74.161871,40.735851],[-74.162053,40.735687],[-74.162125,40.735714],[-74.161871,40.735851]]],[[[-74.161582,40.736049],[-74.161654,40.735933],[-74.161726,40.73596],[-74.161582,40.736049]]],[[[-74.166408,40.745142],[-74.165714,40.745085],[-74.162778,40.737845],[-74.161707,40.736207],[-74.162268,40.735852],[-74.163345,40.73709],[-74.164094,40.738877],[-74.164597,40.739153],[-74.164342,40.739701],[-74.166303,40.744456],[-74.166481,40.745033],[-74.166542,40.747229],[-74.166505,40.747393],[-74.165867,40.747392],[-74.165748,40.74525],[-74.166408,40.745142]]],[[[-74.165863,40.747474],[-74.166469,40.747476],[-74.166538,40.74797],[-74.165838,40.747886],[-74.165863,40.747474]]],[[[-74.166465,40.748189],[-74.165874,40.750988],[-74.16524,40.750958],[-74.1658,40.748133],[-74.166465,40.748189]]],[[[-74.160812,40.688685],[-74.160631,40.68877],[-74.160704,40.688567],[-74.160812,40.688685]]],[[[-74.160953,40.689183],[-74.160989,40.68921],[-74.160953,40.68921],[-74.160953,40.689183]]],[[[-74.16102,40.690336],[-74.160983,40.690363],[-74.160984,40.690336],[-74.16102,40.690336]]],[[[-74.160947,40.690418],[-74.160983,40.690391],[-74.160983,40.690418],[-74.160947,40.690418]]],[[[-74.160947,40.690445],[-74.160911,40.690473],[-74.160911,40.690445],[-74.160947,40.690445]]],[[[-74.160874,40.690555],[-74.160838,40.690582],[-74.160838,40.690555],[-74.160874,40.690555]]],[[[-74.160802,40.69061],[-74.160838,40.690637],[-74.160802,40.690637],[-74.160802,40.69061]]],[[[-74.160766,40.690665],[-74.160801,40.690692],[-74.160765,40.690692],[-74.160766,40.690665]]],[[[-74.160729,40.690719],[-74.160765,40.690747],[-74.160729,40.690747],[-74.160729,40.690719]]],[[[-74.160729,40.690774],[-74.160693,40.690802],[-74.160693,40.690774],[-74.160729,40.690774]]],[[[-74.160693,40.690829],[-74.160656,40.690856],[-74.160657,40.690829],[-74.160693,40.690829]]],[[[-74.16062,40.690911],[-74.160656,40.690884],[-74.160656,40.690911],[-74.16062,40.690911]]],[[[-74.160584,40.690939],[-74.16062,40.690966],[-74.160584,40.690966],[-74.160584,40.690939]]],[[[-74.160548,40.690993],[-74.160583,40.691021],[-74.160547,40.691021],[-74.160548,40.690993]]],[[[-74.160511,40.691076],[-74.160547,40.691048],[-74.160547,40.691076],[-74.160511,40.691076]]],[[[-74.160511,40.69113],[-74.160475,40.691075],[-74.160511,40.691076],[-74.160511,40.69113]]],[[[-74.160439,40.69113],[-74.160474,40.691185],[-74.160438,40.691185],[-74.160439,40.69113]]],[[[-74.160402,40.691185],[-74.160438,40.69124],[-74.160402,40.69124],[-74.160402,40.691185]]],[[[-74.160366,40.69124],[-74.160402,40.691295],[-74.160366,40.691295],[-74.160366,40.69124]]],[[[-74.160366,40.691295],[-74.160329,40.691322],[-74.16033,40.691295],[-74.160366,40.691295]]],[[[-74.160329,40.69135],[-74.160293,40.691377],[-74.160293,40.691349],[-74.160329,40.69135]]],[[[-74.160257,40.691404],[-74.160293,40.691432],[-74.160257,40.691432],[-74.160257,40.691404]]],[[[-74.160221,40.691459],[-74.160257,40.691487],[-74.16022,40.691486],[-74.160221,40.691459]]],[[[-74.16022,40.691541],[-74.160184,40.691514],[-74.16022,40.691514],[-74.16022,40.691541]]],[[[-74.160184,40.691541],[-74.160148,40.691596],[-74.160148,40.691541],[-74.160184,40.691541]]],[[[-74.160111,40.691651],[-74.160148,40.691623],[-74.160147,40.691651],[-74.160111,40.691651]]],[[[-74.160111,40.691651],[-74.160075,40.691706],[-74.160075,40.691651],[-74.160111,40.691651]]],[[[-74.160039,40.691706],[-74.160075,40.691761],[-74.160039,40.69176],[-74.160039,40.691706]]],[[[-74.160003,40.69176],[-74.160038,40.691815],[-74.160002,40.691815],[-74.160003,40.69176]]],[[[-74.160002,40.691815],[-74.159966,40.691843],[-74.159966,40.691815],[-74.160002,40.691815]]],[[[-74.15993,40.69187],[-74.159966,40.691897],[-74.15993,40.691897],[-74.15993,40.69187]]],[[[-74.159894,40.691925],[-74.15993,40.691952],[-74.159894,40.691952],[-74.159894,40.691925]]],[[[-74.159857,40.691979],[-74.159893,40.692007],[-74.159857,40.692007],[-74.159857,40.691979]]],[[[-74.159821,40.692034],[-74.159857,40.692062],[-74.159821,40.692062],[-74.159821,40.692034]]],[[[-74.159784,40.692117],[-74.159821,40.692089],[-74.159821,40.692117],[-74.159784,40.692117]]],[[[-74.159784,40.692199],[-74.159748,40.692116],[-74.159784,40.692117],[-74.159784,40.692199]]],[[[-74.159712,40.692199],[-74.159748,40.692226],[-74.159712,40.692226],[-74.159712,40.692199]]],[[[-74.159675,40.692281],[-74.159712,40.692254],[-74.159712,40.692281],[-74.159675,40.692281]]],[[[-74.159639,40.692308],[-74.159675,40.692336],[-74.159639,40.692336],[-74.159639,40.692308]]],[[[-74.159567,40.69239],[-74.159602,40.692473],[-74.15953,40.6925],[-74.159567,40.69239]]],[[[-74.15953,40.6925],[-74.159494,40.692555],[-74.159494,40.6925],[-74.15953,40.6925]]],[[[-74.162142,40.689532],[-74.157674,40.695734],[-74.157566,40.695733],[-74.161818,40.689416],[-74.162142,40.689532]]],[[[-74.159458,40.692555],[-74.159493,40.69261],[-74.159457,40.69261],[-74.159458,40.692555]]],[[[-74.159421,40.69261],[-74.159457,40.692665],[-74.159421,40.692664],[-74.159421,40.69261]]],[[[-74.159421,40.692664],[-74.159385,40.692719],[-74.159385,40.692664],[-74.159421,40.692664]]],[[[-74.159385,40.692719],[-74.159348,40.692774],[-74.159349,40.692719],[-74.159385,40.692719]]],[[[-74.159312,40.692774],[-74.159348,40.692829],[-74.159312,40.692829],[-74.159312,40.692774]]],[[[-74.159312,40.692829],[-74.159276,40.692856],[-74.159276,40.692829],[-74.159312,40.692829]]],[[[-74.159239,40.692938],[-74.159276,40.692884],[-74.159275,40.692939],[-74.159239,40.692938]]],[[[-74.159239,40.692938],[-74.159203,40.692966],[-74.159203,40.692938],[-74.159239,40.692938]]],[[[-74.159167,40.693021],[-74.159203,40.692993],[-74.159203,40.693021],[-74.159167,40.693021]]],[[[-74.159167,40.693075],[-74.159131,40.69302],[-74.159167,40.693021],[-74.159167,40.693075]]],[[[-74.159094,40.693075],[-74.15913,40.69313],[-74.159094,40.69313],[-74.159094,40.693075]]],[[[-74.159058,40.69313],[-74.159094,40.693213],[-74.159058,40.693212],[-74.159058,40.69313]]],[[[-74.159022,40.693212],[-74.159057,40.69324],[-74.159021,40.69324],[-74.159022,40.693212]]],[[[-74.158912,40.693404],[-74.159021,40.69324],[-74.159021,40.693322],[-74.158912,40.693404]]],[[[-74.158912,40.693404],[-74.158876,40.693459],[-74.158876,40.693404],[-74.158912,40.693404]]],[[[-74.158876,40.693514],[-74.15884,40.693486],[-74.158876,40.693486],[-74.158876,40.693514]]],[[[-74.15884,40.693514],[-74.158803,40.693569],[-74.158804,40.693514],[-74.15884,40.693514]]],[[[-74.158767,40.693568],[-74.158803,40.693623],[-74.158767,40.693623],[-74.158767,40.693568]]],[[[-74.158767,40.693623],[-74.158731,40.693678],[-74.158731,40.693623],[-74.158767,40.693623]]],[[[-74.158658,40.693788],[-74.158694,40.69376],[-74.158694,40.693788],[-74.158658,40.693788]]],[[[-74.158658,40.693788],[-74.158622,40.693815],[-74.158622,40.693788],[-74.158658,40.693788]]],[[[-74.158622,40.69387],[-74.158586,40.693842],[-74.158622,40.693842],[-74.158622,40.69387]]],[[[-74.158585,40.69387],[-74.158549,40.693925],[-74.158549,40.69387],[-74.158585,40.69387]]],[[[-74.158549,40.693925],[-74.158513,40.694007],[-74.158513,40.693925],[-74.158549,40.693925]]],[[[-74.15844,40.694062],[-74.158476,40.694089],[-74.15844,40.694089],[-74.15844,40.694062]]],[[[-74.158368,40.694144],[-74.158404,40.694171],[-74.158368,40.694171],[-74.158368,40.694144]]],[[[-74.158367,40.694253],[-74.158331,40.694198],[-74.158367,40.694199],[-74.158367,40.694253]]],[[[-74.158331,40.694253],[-74.158295,40.694281],[-74.158295,40.694253],[-74.158331,40.694253]]],[[[-74.158295,40.694281],[-74.158259,40.694308],[-74.158259,40.694281],[-74.158295,40.694281]]],[[[-74.158258,40.694336],[-74.158222,40.694363],[-74.158222,40.694335],[-74.158258,40.694336]]],[[[-74.158186,40.69439],[-74.158222,40.694418],[-74.158186,40.694418],[-74.158186,40.69439]]],[[[-74.158004,40.694664],[-74.15804,40.694692],[-74.158004,40.694692],[-74.158004,40.694664]]],[[[-74.157786,40.694965],[-74.157822,40.694993],[-74.157786,40.694993],[-74.157786,40.694965]]],[[[-74.157532,40.695376],[-74.157568,40.695404],[-74.157532,40.695404],[-74.157532,40.695376]]],[[[-74.157532,40.695431],[-74.157495,40.695459],[-74.157496,40.695431],[-74.157532,40.695431]]],[[[-74.157459,40.695486],[-74.157495,40.695514],[-74.157459,40.695513],[-74.157459,40.695486]]],[[[-74.157423,40.695568],[-74.157459,40.695541],[-74.157459,40.695568],[-74.157423,40.695568]]],[[[-74.157386,40.695596],[-74.157422,40.695623],[-74.157386,40.695623],[-74.157386,40.695596]]],[[[-74.157386,40.695651],[-74.15735,40.695678],[-74.15735,40.69565],[-74.157386,40.695651]]],[[[-74.15753,40.695706],[-74.157458,40.695733],[-74.157458,40.695706],[-74.15753,40.695706]]],[[[-74.15332,40.700881],[-74.153284,40.700854],[-74.15332,40.700854],[-74.15332,40.700881]]],[[[-74.153284,40.700881],[-74.153247,40.700964],[-74.153248,40.700881],[-74.153284,40.700881]]],[[[-74.153247,40.701018],[-74.153211,40.700991],[-74.153247,40.700991],[-74.153247,40.701018]]],[[[-74.15339,40.701156],[-74.153427,40.701101],[-74.153426,40.701156],[-74.15339,40.701156]]],[[[-74.153211,40.701018],[-74.152374,40.702333],[-74.152266,40.702361],[-74.153211,40.701018]]],[[[-74.15339,40.701156],[-74.152954,40.701896],[-74.152482,40.702416],[-74.15339,40.701156]]],[[[-74.153206,40.701924],[-74.153279,40.701842],[-74.153278,40.701924],[-74.153206,40.701924]]],[[[-74.152989,40.702006],[-74.153025,40.702033],[-74.152989,40.702033],[-74.152989,40.702006]]],[[[-74.152953,40.702061],[-74.152989,40.702088],[-74.152953,40.702088],[-74.152953,40.702061]]],[[[-74.152952,40.702143],[-74.152916,40.70217],[-74.152916,40.702143],[-74.152952,40.702143]]],[[[-74.15288,40.702225],[-74.152916,40.702253],[-74.15288,40.702253],[-74.15288,40.702225]]],[[[-74.152807,40.702307],[-74.152879,40.702335],[-74.152807,40.702362],[-74.152807,40.702307]]],[[[-74.152771,40.70239],[-74.152807,40.702417],[-74.152771,40.702417],[-74.152771,40.70239]]],[[[-74.152518,40.702416],[-74.152554,40.702444],[-74.152518,40.702444],[-74.152518,40.702416]]],[[[-74.152482,40.702416],[-74.152446,40.702443],[-74.152446,40.702416],[-74.152482,40.702416]]],[[[-74.152735,40.702444],[-74.15277,40.702472],[-74.152734,40.702472],[-74.152735,40.702444]]],[[[-74.152734,40.702554],[-74.152698,40.702499],[-74.152734,40.702499],[-74.152734,40.702554]]],[[[-74.152482,40.702498],[-74.152409,40.702526],[-74.15241,40.702498],[-74.152482,40.702498]]],[[[-74.152442,40.70313],[-74.153097,40.702061],[-74.153242,40.702034],[-74.152442,40.70313]]],[[[-74.152553,40.702691],[-74.152698,40.702554],[-74.152552,40.702773],[-74.152553,40.702691]]],[[[-74.152552,40.702883],[-74.152335,40.703047],[-74.152552,40.702773],[-74.152552,40.702883]]],[[[-74.152722,40.711805],[-74.15265,40.711859],[-74.15265,40.711805],[-74.152722,40.711805]]],[[[-74.152794,40.711832],[-74.152722,40.711887],[-74.152722,40.711832],[-74.152794,40.711832]]],[[[-74.152938,40.71186],[-74.153082,40.711971],[-74.152794,40.71186],[-74.152938,40.71186]]],[[[-74.15427,40.712386],[-74.153226,40.711998],[-74.153875,40.712028],[-74.154018,40.71222],[-74.154308,40.712112],[-74.15427,40.712386]]],[[[-74.154595,40.712442],[-74.154666,40.712524],[-74.154486,40.712441],[-74.154595,40.712442]]],[[[-74.154883,40.712525],[-74.154774,40.71258],[-74.154774,40.712525],[-74.154883,40.712525]]],[[[-74.157023,40.767267],[-74.158573,40.765246],[-74.161643,40.762036],[-74.163014,40.760089],[-74.163961,40.75797],[-74.165214,40.751123],[-74.165837,40.751097],[-74.165541,40.752551],[-74.165719,40.753101],[-74.165391,40.753594],[-74.16524,40.754966],[-74.164808,40.754718],[-74.16524,40.755048],[-74.165306,40.756119],[-74.165053,40.756256],[-74.164865,40.75782],[-74.163988,40.759848],[-74.161589,40.763135],[-74.160464,40.764175],[-74.160463,40.764422],[-74.159702,40.764914],[-74.157739,40.767571],[-74.15719,40.769024],[-74.157365,40.770068],[-74.155655,40.772616],[-74.154384,40.774039],[-74.150649,40.777047],[-74.150218,40.776732],[-74.153373,40.773988],[-74.154816,40.772061],[-74.157023,40.767267]]],[[[-74.151089,40.683742],[-74.152657,40.685232],[-74.153849,40.685922],[-74.155324,40.686124],[-74.157862,40.68596],[-74.159061,40.686433],[-74.160165,40.687671],[-74.159078,40.689232],[-74.144233,40.680101],[-74.136107,40.689135],[-74.140589,40.693898],[-74.14149,40.69401],[-74.142641,40.694618],[-74.15427,40.698524],[-74.153142,40.700359],[-74.138705,40.695511],[-74.137306,40.694107],[-74.137308,40.693777],[-74.132072,40.688463],[-74.131348,40.688818],[-74.130694,40.689859],[-74.125649,40.69547],[-74.127519,40.696574],[-74.127589,40.696821],[-74.127047,40.697039],[-74.128451,40.697592],[-74.128303,40.698168],[-74.117554,40.694949],[-74.120322,40.69066],[-74.125251,40.68406],[-74.131955,40.673797],[-74.139139,40.677125],[-74.148986,40.682244],[-74.151089,40.683742]]],[[[-74.152266,40.702361],[-74.15223,40.702388],[-74.15223,40.70236],[-74.152266,40.702361]]],[[[-74.152266,40.702415],[-74.152302,40.702388],[-74.152302,40.702416],[-74.152266,40.702415]]],[[[-74.152157,40.702497],[-74.152229,40.702553],[-74.152157,40.702552],[-74.152157,40.702497]]],[[[-74.152334,40.703102],[-74.152371,40.703075],[-74.15237,40.703102],[-74.152334,40.703102]]],[[[-74.152298,40.703184],[-74.152334,40.703129],[-74.152334,40.703184],[-74.152298,40.703184]]],[[[-74.152298,40.703212],[-74.152262,40.703184],[-74.152298,40.703184],[-74.152298,40.703212]]],[[[-74.152226,40.703211],[-74.152261,40.703266],[-74.152225,40.703266],[-74.152226,40.703211]]],[[[-74.152189,40.703266],[-74.152225,40.703321],[-74.152189,40.703321],[-74.152189,40.703266]]],[[[-74.133902,40.70977],[-74.133396,40.709933],[-74.132748,40.709684],[-74.133295,40.708698],[-74.135852,40.709529],[-74.135633,40.709995],[-74.134514,40.710019],[-74.133902,40.70977]]],[[[-74.148188,40.709623],[-74.148117,40.709458],[-74.148117,40.709375],[-74.148297,40.709486],[-74.148188,40.709623]]],[[[-74.148116,40.70954],[-74.147573,40.71006],[-74.147755,40.709649],[-74.148116,40.70954]]],[[[-74.138554,40.710032],[-74.138518,40.710004],[-74.138554,40.710005],[-74.138554,40.710032]]],[[[-74.138518,40.710059],[-74.138482,40.710032],[-74.138518,40.710032],[-74.138518,40.710059]]],[[[-74.138662,40.710087],[-74.138626,40.71006],[-74.138662,40.71006],[-74.138662,40.710087]]],[[[-74.138698,40.710115],[-74.138734,40.710087],[-74.138734,40.710115],[-74.138698,40.710115]]],[[[-74.139202,40.710391],[-74.139775,40.711079],[-74.139487,40.710968],[-74.139014,40.711818],[-74.138399,40.712063],[-74.137462,40.711895],[-74.137427,40.711758],[-74.13822,40.711898],[-74.138798,40.711707],[-74.139345,40.710666],[-74.136647,40.70923],[-74.135099,40.708649],[-74.134703,40.708455],[-74.134668,40.708345],[-74.136719,40.709148],[-74.138266,40.710031],[-74.138698,40.710142],[-74.138842,40.710115],[-74.13913,40.710226],[-74.139202,40.710391]],[[-74.138734,40.710142],[-74.13877,40.71017],[-74.13877,40.710142],[-74.138734,40.710142]]],[[[-74.139166,40.710308],[-74.139202,40.710281],[-74.139202,40.710308],[-74.139166,40.710308]]],[[[-74.139238,40.710336],[-74.139274,40.710309],[-74.139274,40.710336],[-74.139238,40.710336]]],[[[-74.149482,40.710505],[-74.149518,40.710532],[-74.149482,40.710532],[-74.149482,40.710505]]],[[[-74.14959,40.71056],[-74.149626,40.710533],[-74.149626,40.71056],[-74.14959,40.71056]]],[[[-74.149554,40.71056],[-74.149518,40.71056],[-74.149518,40.710532],[-74.149554,40.710533],[-74.149554,40.71056]]],[[[-74.14959,40.710588],[-74.149554,40.71056],[-74.14959,40.71056],[-74.14959,40.710588]]],[[[-74.134613,40.711694],[-74.132417,40.710946],[-74.132271,40.711192],[-74.131983,40.711137],[-74.132639,40.709821],[-74.134908,40.710597],[-74.135014,40.710899],[-74.134613,40.711694]]],[[[-74.150093,40.710946],[-74.14959,40.710615],[-74.149735,40.710478],[-74.149554,40.710533],[-74.149518,40.710478],[-74.149482,40.710477],[-74.149482,40.710505],[-74.149446,40.710505],[-74.149266,40.710394],[-74.14952,40.710093],[-74.149914,40.710726],[-74.152544,40.711393],[-74.151426,40.711279],[-74.152614,40.711804],[-74.150489,40.711112],[-74.150093,40.710946]],[[-74.150021,40.710863],[-74.150058,40.710836],[-74.150021,40.710836],[-74.150021,40.710863]]],[[[-74.133957,40.712982],[-74.131976,40.712454],[-74.132341,40.711687],[-74.134286,40.712215],[-74.133957,40.712982]]],[[[-74.133812,40.713037],[-74.133375,40.713831],[-74.131574,40.713331],[-74.131903,40.712564],[-74.133812,40.713037]]],[[[-74.123114,40.742143],[-74.123518,40.740893],[-74.123917,40.74051],[-74.124242,40.740566],[-74.124316,40.740154],[-74.124823,40.739854],[-74.124822,40.740156],[-74.12511,40.740267],[-74.124749,40.740265],[-74.124384,40.741005],[-74.127413,40.7414],[-74.128099,40.741347],[-74.128462,40.741073],[-74.130663,40.741163],[-74.135139,40.740848],[-74.138824,40.740255],[-74.140053,40.739793],[-74.141938,40.738371],[-74.145026,40.7344],[-74.146763,40.7335],[-74.148931,40.73293],[-74.150195,40.732879],[-74.152034,40.733159],[-74.155354,40.733032],[-74.15759,40.733285],[-74.1595,40.733895],[-74.159862,40.733676],[-74.160004,40.734089],[-74.162018,40.73544],[-74.161401,40.735822],[-74.160184,40.73481],[-74.158448,40.734014],[-74.15732,40.733745],[-74.155351,40.733699],[-74.155354,40.733087],[-74.155101,40.733113],[-74.15517,40.733696],[-74.14854,40.733908],[-74.146356,40.734662],[-74.145141,40.735632],[-74.142001,40.73941],[-74.140636,40.740273],[-74.139003,40.740922],[-74.135985,40.741599],[-74.128166,40.742211],[-74.123114,40.742143]]],[[[-74.131365,40.738091],[-74.131329,40.738118],[-74.131329,40.738091],[-74.131365,40.738091]]],[[[-74.131401,40.738118],[-74.131365,40.738146],[-74.131365,40.738118],[-74.131401,40.738118]]],[[[-74.131509,40.738201],[-74.131473,40.738201],[-74.131473,40.738173],[-74.131509,40.738174],[-74.131509,40.738201]]],[[[-74.131545,40.738229],[-74.131509,40.738201],[-74.131545,40.738201],[-74.131545,40.738229]]],[[[-74.131545,40.738256],[-74.131581,40.738229],[-74.131581,40.738256],[-74.131545,40.738256]]],[[[-74.131328,40.738228],[-74.131364,40.738255],[-74.131328,40.738255],[-74.131328,40.738228]]],[[[-74.131653,40.738284],[-74.131617,40.738256],[-74.131653,40.738256],[-74.131653,40.738284]]],[[[-74.131616,40.738339],[-74.131544,40.738311],[-74.131545,40.738283],[-74.131616,40.738339]]],[[[-74.131797,40.738367],[-74.131761,40.738339],[-74.131797,40.738339],[-74.131797,40.738367]]],[[[-74.131689,40.738339],[-74.131761,40.738312],[-74.131725,40.738339],[-74.131761,40.738394],[-74.131689,40.738339]]],[[[-74.131976,40.738532],[-74.13176,40.738449],[-74.131797,40.738367],[-74.131977,40.738395],[-74.131941,40.738477],[-74.131976,40.738532]],[[-74.131941,40.738477],[-74.131905,40.738449],[-74.131904,40.738477],[-74.131941,40.738477]]],[[[-74.132013,40.738477],[-74.131976,40.738504],[-74.131977,40.738477],[-74.132013,40.738477]]],[[[-74.132049,40.738505],[-74.132012,40.738532],[-74.132013,40.738505],[-74.132049,40.738505]]],[[[-74.132048,40.73856],[-74.132085,40.738532],[-74.132084,40.73856],[-74.132048,40.73856]]],[[[-74.131976,40.738532],[-74.132012,40.738559],[-74.131976,40.738559],[-74.131976,40.738532]]],[[[-74.132048,40.73856],[-74.132012,40.738587],[-74.132012,40.738559],[-74.132048,40.73856]]],[[[-74.132192,40.738615],[-74.132156,40.738587],[-74.132193,40.738587],[-74.132192,40.738615]]],[[[-74.132084,40.738615],[-74.132048,40.738614],[-74.132048,40.738587],[-74.132084,40.738587],[-74.132084,40.738615]]],[[[-74.13212,40.738642],[-74.132156,40.738615],[-74.132156,40.73867],[-74.13212,40.73867],[-74.13212,40.738642]]],[[[-74.132192,40.738697],[-74.132156,40.73867],[-74.132192,40.73867],[-74.132192,40.738697]]],[[[-74.1323,40.738725],[-74.132264,40.738698],[-74.1323,40.738698],[-74.1323,40.738725]]],[[[-74.132228,40.738697],[-74.132192,40.738725],[-74.132192,40.738697],[-74.132228,40.738697]]],[[[-74.132228,40.738725],[-74.132264,40.738752],[-74.132228,40.738752],[-74.132228,40.738725]]],[[[-74.131681,40.739656],[-74.132335,40.739],[-74.133163,40.739387],[-74.132691,40.739907],[-74.131861,40.739822],[-74.131681,40.739656]]],[[[-74.150145,40.776799],[-74.150577,40.77713],[-74.149014,40.778964],[-74.148829,40.779752],[-74.148329,40.779601],[-74.148503,40.77874],[-74.149041,40.777987],[-74.150145,40.776799]]],[[[-74.148974,40.779787],[-74.149083,40.779623],[-74.149028,40.779815],[-74.148974,40.779787]]],[[[-74.149191,40.779733],[-74.150814,40.780122],[-74.150813,40.780205],[-74.14931,40.779905],[-74.149191,40.779733]]],[[[-74.117428,40.695143],[-74.124449,40.697277],[-74.127868,40.698606],[-74.126499,40.698272],[-74.126241,40.699397],[-74.125592,40.699312],[-74.124725,40.699529],[-74.124582,40.699337],[-74.124109,40.699966],[-74.124472,40.699611],[-74.124904,40.699695],[-74.124616,40.699694],[-74.124361,40.700077],[-74.122993,40.699633],[-74.12252,40.700483],[-74.116045,40.697305],[-74.117428,40.695143]]],[[[-74.131299,40.710887],[-74.131262,40.710942],[-74.131263,40.710887],[-74.131299,40.710887]]],[[[-74.131298,40.711025],[-74.131262,40.711052],[-74.131262,40.711025],[-74.131298,40.711025]]],[[[-74.131261,40.711134],[-74.130754,40.711654],[-74.130752,40.711846],[-74.129708,40.711596],[-74.130287,40.711241],[-74.129819,40.711047],[-74.131336,40.710613],[-74.131154,40.710914],[-74.131262,40.71097],[-74.131226,40.711079],[-74.131261,40.711134]],[[-74.13025,40.711323],[-74.130286,40.711378],[-74.130322,40.711323],[-74.13025,40.711323]],[[-74.13119,40.711024],[-74.131045,40.711106],[-74.131045,40.711161],[-74.13119,40.711024]],[[-74.131045,40.711161],[-74.131009,40.711188],[-74.131045,40.711189],[-74.131045,40.711161]],[[-74.131225,40.711134],[-74.131189,40.711107],[-74.131189,40.711134],[-74.131225,40.711134]]],[[[-74.13079,40.711654],[-74.130825,40.711709],[-74.130789,40.711709],[-74.13079,40.711654]]],[[[-74.130789,40.711792],[-74.130825,40.711819],[-74.130789,40.711819],[-74.130789,40.711792]]],[[[-74.13068,40.711846],[-74.130716,40.711901],[-74.13068,40.711901],[-74.13068,40.711846]]],[[[-74.13068,40.711901],[-74.130644,40.711928],[-74.130644,40.711901],[-74.13068,40.711901]]],[[[-74.130644,40.711928],[-74.130607,40.711983],[-74.130608,40.711928],[-74.130644,40.711928]]],[[[-74.12591,40.719791],[-74.125401,40.720531],[-74.123421,40.719811],[-74.123201,40.720441],[-74.122693,40.720824],[-74.1224,40.721619],[-74.122579,40.721867],[-74.12229,40.721948],[-74.12254,40.722443],[-74.121848,40.723539],[-74.122136,40.723732],[-74.121481,40.724581],[-74.121403,40.725624],[-74.120893,40.726528],[-74.121217,40.726694],[-74.120855,40.726939],[-74.120413,40.72842],[-74.121673,40.728891],[-74.121636,40.729083],[-74.121237,40.729494],[-74.120877,40.729355],[-74.120914,40.729163],[-74.120589,40.729244],[-74.120519,40.728915],[-74.120151,40.730066],[-74.11961,40.730065],[-74.119464,40.730284],[-74.119422,40.731409],[-74.119096,40.731573],[-74.118946,40.73256],[-74.117937,40.732337],[-74.119044,40.727782],[-74.120642,40.722955],[-74.120962,40.720012],[-74.120551,40.717436],[-74.116105,40.709156],[-74.114309,40.704609],[-74.114097,40.702284],[-74.114315,40.700569],[-74.116009,40.69736],[-74.122519,40.700538],[-74.122697,40.700978],[-74.128128,40.703823],[-74.132473,40.70724],[-74.128091,40.703932],[-74.12266,40.701142],[-74.122802,40.701609],[-74.1224,40.702514],[-74.121602,40.703225],[-74.123077,40.703916],[-74.121673,40.703445],[-74.121057,40.703909],[-74.120729,40.704622],[-74.120791,40.706434],[-74.122253,40.709376],[-74.122143,40.70965],[-74.122641,40.710859],[-74.123613,40.711329],[-74.124442,40.711332],[-74.123396,40.711438],[-74.122856,40.711107],[-74.123062,40.713057],[-74.123314,40.713195],[-74.123367,40.716571],[-74.123943,40.716793],[-74.123977,40.717068],[-74.123577,40.717588],[-74.124083,40.717425],[-74.124982,40.717949],[-74.125992,40.71809],[-74.126495,40.718503],[-74.126821,40.718257],[-74.126383,40.719079],[-74.126059,40.718996],[-74.126094,40.719243],[-74.125369,40.719707],[-74.125012,40.719157],[-74.125699,40.718885],[-74.124332,40.718139],[-74.123863,40.71811],[-74.123577,40.717698],[-74.123467,40.717944],[-74.123826,40.71822],[-74.12361,40.718192],[-74.123537,40.718384],[-74.12379,40.718275],[-74.123753,40.718522],[-74.124294,40.718469],[-74.124473,40.718689],[-74.124183,40.71888],[-74.123751,40.718796],[-74.123604,40.719317],[-74.123134,40.719508],[-74.124034,40.719813],[-74.124648,40.71965],[-74.125476,40.72001],[-74.12591,40.719791]],[[-74.120914,40.729163],[-74.12095,40.729136],[-74.120914,40.729136],[-74.120914,40.729163]],[[-74.12361,40.718192],[-74.123574,40.718164],[-74.123574,40.718192],[-74.12361,40.718192]]],[[[-74.126055,40.719627],[-74.126019,40.7196],[-74.126055,40.7196],[-74.126055,40.719627]]],[[[-74.126055,40.719655],[-74.126091,40.719627],[-74.126091,40.719655],[-74.126055,40.719655]]],[[[-74.126055,40.71971],[-74.126019,40.719654],[-74.126055,40.719655],[-74.126055,40.71971]]],[[[-74.125946,40.719792],[-74.125911,40.719682],[-74.125983,40.719682],[-74.125946,40.719792]]],[[[-74.126055,40.719737],[-74.125982,40.719764],[-74.125983,40.719737],[-74.126055,40.719737]]],[[[-74.126055,40.719764],[-74.12609,40.719792],[-74.126054,40.719792],[-74.126055,40.719764]]],[[[-74.125946,40.719819],[-74.125982,40.719792],[-74.125982,40.719819],[-74.125946,40.719819]]],[[[-74.118873,40.732697],[-74.118608,40.734975],[-74.117414,40.734916],[-74.117827,40.732502],[-74.118873,40.732697]]],[[[-74.124805,40.736642],[-74.124769,40.73667],[-74.124769,40.736642],[-74.124805,40.736642]]],[[[-74.124805,40.736697],[-74.124841,40.736725],[-74.124805,40.736725],[-74.124805,40.736697]]],[[[-74.128955,40.736738],[-74.128919,40.736765],[-74.128919,40.736738],[-74.128955,40.736738]]],[[[-74.129063,40.736821],[-74.129027,40.736793],[-74.129063,40.736793],[-74.129063,40.736821]]],[[[-74.129099,40.736848],[-74.129099,40.736821],[-74.129135,40.736821],[-74.129135,40.736848],[-74.129099,40.736848]]],[[[-74.129171,40.736876],[-74.129135,40.736848],[-74.129171,40.736848],[-74.129171,40.736876]]],[[[-74.129279,40.736904],[-74.129242,40.736931],[-74.129243,40.736904],[-74.129279,40.736904]]],[[[-74.129854,40.737235],[-74.129818,40.737262],[-74.129818,40.737235],[-74.129854,40.737235]]],[[[-74.129962,40.73729],[-74.129926,40.737318],[-74.129926,40.73729],[-74.129962,40.73729]]],[[[-74.131545,40.738283],[-74.130789,40.737869],[-74.130319,40.73795],[-74.129962,40.737373],[-74.129781,40.737399],[-74.129277,40.737206],[-74.129021,40.737864],[-74.128658,40.738274],[-74.128517,40.73767],[-74.128264,40.737614],[-74.128449,40.736764],[-74.127258,40.736815],[-74.127654,40.736981],[-74.127653,40.7372],[-74.126825,40.736841],[-74.124985,40.736753],[-74.124769,40.736587],[-74.128523,40.736572],[-74.128522,40.736709],[-74.129819,40.737152],[-74.129782,40.737235],[-74.129818,40.73729],[-74.129926,40.737345],[-74.130106,40.737318],[-74.130322,40.737484],[-74.130285,40.737566],[-74.130573,40.737731],[-74.130718,40.737704],[-74.130681,40.737787],[-74.130753,40.737814],[-74.130862,40.737787],[-74.130862,40.737815],[-74.130825,40.737815],[-74.130825,40.737842],[-74.131113,40.738035],[-74.131365,40.738173],[-74.131473,40.738146],[-74.131437,40.738201],[-74.131545,40.738283]],[[-74.12989,40.737372],[-74.129854,40.737345],[-74.129854,40.737372],[-74.12989,40.737372]],[[-74.128912,40.737863],[-74.128877,40.737836],[-74.128876,40.737863],[-74.128912,40.737863]],[[-74.129818,40.73729],[-74.129746,40.737317],[-74.129818,40.737317],[-74.129818,40.73729]],[[-74.130214,40.737456],[-74.130178,40.737483],[-74.130214,40.737483],[-74.130214,40.737456]],[[-74.130178,40.737483],[-74.130105,40.73751],[-74.130213,40.737566],[-74.130178,40.737483]],[[-74.130213,40.737566],[-74.130249,40.737593],[-74.130249,40.737566],[-74.130213,40.737566]]],[[[-74.130394,40.737566],[-74.130358,40.737539],[-74.130394,40.737539],[-74.130394,40.737566]]],[[[-74.130502,40.737594],[-74.130466,40.737621],[-74.130466,40.737594],[-74.130502,40.737594]]],[[[-74.130538,40.737621],[-74.130502,40.737649],[-74.130502,40.737621],[-74.130538,40.737621]]],[[[-74.13079,40.73776],[-74.130753,40.737787],[-74.130754,40.737759],[-74.13079,40.73776]]],[[[-74.130861,40.737842],[-74.130862,40.737815],[-74.130898,40.737815],[-74.130897,40.737842],[-74.130861,40.737842]]],[[[-74.130933,40.73787],[-74.130897,40.737842],[-74.130934,40.737842],[-74.130933,40.73787]]],[[[-74.131042,40.737898],[-74.131005,40.737925],[-74.131005,40.737897],[-74.131042,40.737898]]],[[[-74.130753,40.737924],[-74.130789,40.737897],[-74.130789,40.737924],[-74.130753,40.737924]]],[[[-74.131077,40.737925],[-74.131041,40.737952],[-74.131041,40.737925],[-74.131077,40.737925]]],[[[-74.130825,40.737924],[-74.130789,40.737952],[-74.130789,40.737924],[-74.130825,40.737924]]],[[[-74.131077,40.73798],[-74.131113,40.737953],[-74.131113,40.73798],[-74.131077,40.73798]]],[[[-74.130897,40.738007],[-74.130933,40.73798],[-74.130933,40.738007],[-74.130897,40.738007]]],[[[-74.131221,40.738035],[-74.131185,40.738035],[-74.131185,40.738008],[-74.131221,40.738008],[-74.131221,40.738035]]],[[[-74.130933,40.738007],[-74.130969,40.738035],[-74.130932,40.738034],[-74.130933,40.738007]]],[[[-74.131257,40.738063],[-74.131221,40.738035],[-74.131257,40.738035],[-74.131257,40.738063]]],[[[-74.131041,40.738035],[-74.131005,40.738062],[-74.131005,40.738035],[-74.131041,40.738035]]],[[[-74.131041,40.738062],[-74.131077,40.73809],[-74.13104,40.73809],[-74.131041,40.738062]]],[[[-74.131185,40.738118],[-74.131148,40.738145],[-74.131149,40.738117],[-74.131185,40.738118]]],[[[-74.131221,40.738145],[-74.131184,40.738173],[-74.131184,40.738145],[-74.131221,40.738145]]],[[[-74.131292,40.7382],[-74.131328,40.738228],[-74.131292,40.738228],[-74.131292,40.7382]]],[[[-74.120194,40.735255],[-74.12333,40.735814],[-74.123293,40.736006],[-74.122751,40.736114],[-74.122176,40.73581],[-74.119039,40.735361],[-74.118714,40.735387],[-74.118495,40.735771],[-74.118443,40.738461],[-74.119771,40.739892],[-74.121643,40.740612],[-74.121024,40.741608],[-74.118439,40.7403],[-74.117753,40.739422],[-74.117296,40.73812],[-74.117393,40.735053],[-74.120194,40.735255]]],[[[-74.121132,40.741646],[-74.121715,40.740667],[-74.122185,40.740532],[-74.122651,40.741],[-74.122357,40.741987],[-74.121132,40.741646]]]]}}]}