{"type":"FeatureCollection","features":[{"type":"Feature","properties":{"level_ft":4},"geometry":{"type":"MultiPolygon","coordinates":[[[[-74.189696,40.688962],[-74.189479,40.689043],[-74.189657,40.689648],[-74.190375,40.690336],[-74.188934,40.689975],[-74.188029,40.690632],[-74.187308,40.690685],[-74.187309,40.690355],[-74.189047,40.688878],[-74.189162,40.687416],[-74.189992,40.687367],[-74.189696,40.688962]]],[[[-74.185751,40.691971],[-74.185823,40.692053],[-74.185787,40.692053],[-74.185751,40.691971]]],[[[-74.188448,40.693707],[-74.188775,40.693159],[-74.189064,40.693105],[-74.188877,40.69445],[-74.188448,40.693707]]],[[[-74.184999,40.698584],[-74.184496,40.698034],[-74.184966,40.697843],[-74.185324,40.698448],[-74.184999,40.698584]]],[[[-74.18489,40.698694],[-74.184672,40.698995],[-74.184528,40.699049],[-74.184603,40.698418],[-74.18489,40.698694]]],[[[-74.187571,40.703861],[-74.188257,40.703616],[-74.188983,40.70274],[-74.189344,40.702631],[-74.188327,40.704165],[-74.187571,40.703861]]],[[[-74.193261,40.705798],[-74.194243,40.703989],[-74.194676,40.703935],[-74.194383,40.704923],[-74.193621,40.705854],[-74.193261,40.705798]]],[[[-74.189147,40.706172],[-74.189332,40.705266],[-74.189765,40.70524],[-74.189147,40.706172]]],[[[-74.189726,40.705761],[-74.189762,40.705844],[-74.189726,40.705844],[-74.189726,40.705761]]],[[[-74.190014,40.705927],[-74.189978,40.705872],[-74.190014,40.705872],[-74.190014,40.705927]]],[[[-74.189978,40.705954],[-74.189942,40.705982],[-74.189942,40.705954],[-74.189978,40.705954]]],[[[-74.189942,40.705982],[-74.189869,40.706091],[-74.189906,40.705981],[-74.189942,40.705982]]],[[[-74.189472,40.706063],[-74.189509,40.706035],[-74.189508,40.706063],[-74.189472,40.706063]]],[[[-74.189292,40.70609],[-74.189256,40.706117],[-74.189256,40.706089],[-74.189292,40.70609]]],[[[-74.189219,40.706144],[-74.189255,40.706172],[-74.189219,40.706172],[-74.189219,40.706144]]],[[[-74.189941,40.706201],[-74.189905,40.706174],[-74.189941,40.706174],[-74.189941,40.706201]]],[[[-74.189436,40.7062],[-74.1894,40.706172],[-74.189436,40.706172],[-74.189436,40.7062]]],[[[-74.189363,40.706254],[-74.189399,40.706227],[-74.189399,40.706255],[-74.189363,40.706254]]],[[[-74.189832,40.706283],[-74.189868,40.706311],[-74.189832,40.706311],[-74.189832,40.706283]]],[[[-74.189833,40.706091],[-74.189796,40.706228],[-74.189832,40.706283],[-74.189614,40.706557],[-74.189833,40.706091]]],[[[-74.189146,40.706336],[-74.18911,40.706364],[-74.18911,40.706336],[-74.189146,40.706336]]],[[[-74.189831,40.706393],[-74.189796,40.706365],[-74.189832,40.706366],[-74.189831,40.706393]]],[[[-74.189759,40.706448],[-74.189795,40.70642],[-74.189795,40.706448],[-74.189759,40.706448]]],[[[-74.189723,40.70653],[-74.189759,40.706448],[-74.189759,40.70653],[-74.189723,40.70653]]],[[[-74.189434,40.706612],[-74.189398,40.706584],[-74.189434,40.706584],[-74.189434,40.706612]]],[[[-74.185462,40.707452],[-74.184023,40.706707],[-74.184347,40.706817],[-74.185249,40.7066],[-74.18554,40.706162],[-74.185972,40.7063],[-74.185974,40.705834],[-74.186588,40.705808],[-74.185827,40.706492],[-74.185462,40.707452]]],[[[-74.189613,40.706832],[-74.189649,40.706859],[-74.189613,40.706859],[-74.189613,40.706832]]],[[[-74.189613,40.706832],[-74.189432,40.707051],[-74.189466,40.707408],[-74.189897,40.707848],[-74.188345,40.707981],[-74.189291,40.706337],[-74.189399,40.706337],[-74.189726,40.705871],[-74.189326,40.706584],[-74.189361,40.706694],[-74.189723,40.70653],[-74.189613,40.706832]],[[-74.189431,40.707133],[-74.189395,40.707215],[-74.189431,40.707215],[-74.189431,40.707133]],[[-74.188563,40.707707],[-74.188635,40.707735],[-74.188635,40.707707],[-74.188563,40.707707]],[[-74.188743,40.707735],[-74.188707,40.70779],[-74.188815,40.70779],[-74.188743,40.707735]],[[-74.188815,40.70779],[-74.188851,40.707818],[-74.188851,40.70779],[-74.188815,40.70779]],[[-74.188851,40.707818],[-74.188923,40.707845],[-74.188923,40.707818],[-74.188851,40.707818]],[[-74.189362,40.706474],[-74.18929,40.706446],[-74.18929,40.706474],[-74.189362,40.706474]],[[-74.189325,40.706694],[-74.189289,40.706776],[-74.189325,40.706776],[-74.189325,40.706694]],[[-74.189289,40.706776],[-74.189252,40.706803],[-74.189289,40.706803],[-74.189289,40.706776]]],[[[-74.196574,40.706987],[-74.196394,40.707042],[-74.196685,40.706439],[-74.197009,40.706549],[-74.197257,40.707483],[-74.197005,40.707537],[-74.196574,40.706987]]],[[[-74.18954,40.706941],[-74.189576,40.706969],[-74.18954,40.706969],[-74.18954,40.706941]]],[[[-74.18911,40.706309],[-74.189073,40.706501],[-74.188528,40.707378],[-74.188564,40.70746],[-74.188492,40.70746],[-74.188346,40.707707],[-74.188382,40.707789],[-74.188057,40.70798],[-74.188894,40.706418],[-74.18911,40.706309]],[[-74.189038,40.706446],[-74.189001,40.706473],[-74.189038,40.706473],[-74.189038,40.706446]],[[-74.188965,40.70661],[-74.188929,40.706583],[-74.188929,40.70661],[-74.188965,40.70661]]],[[[-74.188455,40.70757],[-74.188491,40.707597],[-74.188455,40.707597],[-74.188455,40.70757]]],[[[-74.185893,40.70781],[-74.186038,40.707645],[-74.186073,40.707865],[-74.185893,40.70781]]],[[[-74.197184,40.707812],[-74.197509,40.707731],[-74.197652,40.708006],[-74.197507,40.708088],[-74.197184,40.707812]]],[[[-74.186866,40.708114],[-74.185494,40.70822],[-74.185531,40.708001],[-74.186866,40.708114]]],[[[-74.197794,40.708363],[-74.197543,40.708198],[-74.197723,40.708116],[-74.197794,40.708363]],[[-74.197759,40.708253],[-74.197723,40.708281],[-74.197759,40.708281],[-74.197759,40.708253]]],[[[-74.189318,40.708203],[-74.188705,40.708257],[-74.188705,40.708229],[-74.189318,40.708203]]],[[[-74.188127,40.708282],[-74.1882,40.708255],[-74.188199,40.708283],[-74.188127,40.708282]]],[[[-74.188091,40.708282],[-74.188055,40.708255],[-74.188091,40.708255],[-74.188091,40.708282]]],[[[-74.187983,40.708255],[-74.187838,40.708337],[-74.187658,40.708336],[-74.187983,40.708255]]],[[[-74.191699,40.708182],[-74.192276,40.708211],[-74.192022,40.708513],[-74.191626,40.708457],[-74.191699,40.708182]]],[[[-74.186901,40.708307],[-74.185239,40.708714],[-74.184228,40.708986],[-74.184484,40.708382],[-74.186901,40.708307]]],[[[-74.1856,40.70877],[-74.185672,40.708742],[-74.185672,40.70877],[-74.1856,40.70877]]],[[[-74.185564,40.70877],[-74.185492,40.708797],[-74.185492,40.708769],[-74.185564,40.70877]]],[[[-74.185492,40.708797],[-74.18448,40.709124],[-74.184228,40.709123],[-74.1843,40.709041],[-74.185492,40.708797]]],[[[-74.190937,40.709196],[-74.190108,40.709029],[-74.189964,40.708836],[-74.191623,40.70906],[-74.192198,40.709501],[-74.191585,40.709445],[-74.191077,40.710047],[-74.19097,40.70991],[-74.190752,40.710074],[-74.190937,40.709196]]],[[[-74.184293,40.710605],[-74.184329,40.710551],[-74.184329,40.710605],[-74.184293,40.710605]]],[[[-74.187541,40.710312],[-74.187646,40.710999],[-74.187068,40.711107],[-74.1871,40.711985],[-74.186739,40.712094],[-74.186774,40.712287],[-74.18634,40.71256],[-74.186015,40.712559],[-74.186415,40.711791],[-74.186596,40.711847],[-74.186453,40.711517],[-74.186452,40.711627],[-74.186236,40.711654],[-74.186163,40.711818],[-74.186091,40.711818],[-74.185836,40.712311],[-74.185764,40.712229],[-74.185656,40.712256],[-74.185293,40.712612],[-74.185437,40.712722],[-74.184282,40.712884],[-74.18364,40.7114],[-74.18382,40.711373],[-74.183784,40.711427],[-74.18382,40.711482],[-74.183747,40.711565],[-74.184069,40.712087],[-74.184612,40.711759],[-74.184036,40.711428],[-74.184147,40.710934],[-74.183893,40.711263],[-74.183821,40.711208],[-74.184184,40.71066],[-74.184292,40.710797],[-74.184546,40.710386],[-74.184835,40.710387],[-74.184511,40.710112],[-74.1848,40.710058],[-74.185019,40.709592],[-74.187005,40.709048],[-74.187221,40.709296],[-74.187366,40.708994],[-74.189135,40.708834],[-74.188119,40.710094],[-74.187541,40.710312]],[[-74.187249,40.710943],[-74.187213,40.710915],[-74.187213,40.710943],[-74.187249,40.710943]],[[-74.186231,40.71256],[-74.186196,40.712532],[-74.186195,40.712559],[-74.186231,40.71256]],[[-74.186525,40.711545],[-74.186561,40.711517],[-74.186525,40.711517],[-74.186525,40.711545]],[[-74.186561,40.711517],[-74.186597,40.71149],[-74.186561,40.71149],[-74.186561,40.711517]],[[-74.186561,40.71149],[-74.186453,40.711435],[-74.186453,40.711462],[-74.186561,40.71149]],[[-74.186163,40.711763],[-74.186127,40.711736],[-74.186127,40.711763],[-74.186163,40.711763]],[[-74.185764,40.712229],[-74.1858,40.712202],[-74.185764,40.712201],[-74.185764,40.712229]],[[-74.185764,40.712201],[-74.185728,40.712174],[-74.185728,40.712201],[-74.185764,40.712201]],[[-74.18562,40.712283],[-74.185584,40.712256],[-74.185583,40.712283],[-74.18562,40.712283]],[[-74.185583,40.712283],[-74.185547,40.712311],[-74.185583,40.712311],[-74.185583,40.712283]],[[-74.185547,40.712311],[-74.185511,40.712338],[-74.185547,40.712338],[-74.185547,40.712311]],[[-74.185293,40.712612],[-74.185257,40.712584],[-74.185257,40.712612],[-74.185293,40.712612]],[[-74.183675,40.711455],[-74.183712,40.711427],[-74.183676,40.711427],[-74.183675,40.711455]],[[-74.183783,40.711482],[-74.183748,40.711455],[-74.183747,40.711482],[-74.183783,40.711482]],[[-74.183747,40.711537],[-74.183711,40.71151],[-74.183711,40.711537],[-74.183747,40.711537]],[[-74.184147,40.710934],[-74.184183,40.710907],[-74.184147,40.710907],[-74.184147,40.710934]],[[-74.184255,40.710852],[-74.184183,40.710825],[-74.184183,40.71088],[-74.184255,40.710852]],[[-74.18451,40.710496],[-74.184546,40.710524],[-74.184546,40.710496],[-74.18451,40.710496]],[[-74.187546,40.709104],[-74.18751,40.709159],[-74.187546,40.709159],[-74.187546,40.709104]],[[-74.187541,40.710312],[-74.187505,40.710285],[-74.187505,40.710312],[-74.187541,40.710312]],[[-74.187504,40.710367],[-74.187468,40.710339],[-74.187468,40.710367],[-74.187504,40.710367]]],[[[-74.186308,40.711681],[-74.186344,40.711736],[-74.186307,40.711736],[-74.186308,40.711681]]],[[[-74.186199,40.711763],[-74.186235,40.711818],[-74.186199,40.711818],[-74.186199,40.711763]]],[[[-74.18609,40.7119],[-74.186126,40.711873],[-74.186126,40.7119],[-74.18609,40.7119]]],[[[-74.185727,40.712339],[-74.185764,40.712284],[-74.185764,40.712339],[-74.185727,40.712339]]],[[[-74.18551,40.712558],[-74.185727,40.712339],[-74.185618,40.712558],[-74.18551,40.712558]]],[[[-74.18551,40.712585],[-74.185546,40.71264],[-74.185437,40.712695],[-74.185402,40.712612],[-74.18551,40.712585]],[[-74.18551,40.71264],[-74.185474,40.712612],[-74.185474,40.71264],[-74.18551,40.71264]]],[[[-74.186411,40.71267],[-74.186339,40.712697],[-74.186339,40.71267],[-74.186411,40.71267]]],[[[-74.186339,40.712752],[-74.186303,40.712724],[-74.186339,40.712725],[-74.186339,40.712752]]],[[[-74.185905,40.712916],[-74.186087,40.712696],[-74.185977,40.712998],[-74.185905,40.712916]]],[[[-74.185869,40.712915],[-74.185905,40.712943],[-74.185869,40.712943],[-74.185869,40.712915]]],[[[-74.185905,40.712998],[-74.185833,40.71297],[-74.185905,40.71297],[-74.185905,40.712998]]],[[[-74.185941,40.712998],[-74.185905,40.713025],[-74.185905,40.712998],[-74.185941,40.712998]]],[[[-74.185219,40.712996],[-74.184892,40.713462],[-74.184821,40.713297],[-74.184495,40.713516],[-74.184461,40.713159],[-74.184787,40.712967],[-74.185219,40.712996]],[[-74.184786,40.71305],[-74.184858,40.713105],[-74.184858,40.713077],[-74.184786,40.71305]],[[-74.184858,40.713105],[-74.184894,40.713132],[-74.184894,40.713105],[-74.184858,40.713105]],[[-74.184894,40.713132],[-74.18493,40.71316],[-74.18493,40.713132],[-74.184894,40.713132]]],[[[-74.184603,40.713598],[-74.184567,40.713626],[-74.184567,40.713598],[-74.184603,40.713598]]],[[[-74.184567,40.713626],[-74.184531,40.713653],[-74.184531,40.713625],[-74.184567,40.713626]]],[[[-74.168453,40.689455],[-74.168344,40.689589],[-74.168241,40.689588],[-74.168453,40.689455]]],[[[-74.182944,40.690782],[-74.182549,40.690452],[-74.183234,40.690317],[-74.183707,40.689604],[-74.183994,40.68988],[-74.184789,40.68958],[-74.184751,40.689936],[-74.183956,40.690181],[-74.183664,40.691032],[-74.183448,40.690976],[-74.18345,40.690537],[-74.182944,40.690782]]],[[[-74.168088,40.690274],[-74.167653,40.690849],[-74.167149,40.690546],[-74.166535,40.690819],[-74.166971,40.690079],[-74.168088,40.690274]]],[[[-74.182365,40.691165],[-74.182114,40.690945],[-74.182259,40.690781],[-74.182943,40.69103],[-74.182866,40.691963],[-74.182539,40.692373],[-74.182288,40.692153],[-74.182365,40.691165]]],[[[-74.180661,40.693109],[-74.181057,40.693248],[-74.180985,40.693083],[-74.181492,40.69281],[-74.18178,40.692893],[-74.182358,40.692565],[-74.182248,40.692977],[-74.181561,40.693441],[-74.180875,40.693467],[-74.180661,40.693109]]],[[[-74.181341,40.6941],[-74.182899,40.692676],[-74.183836,40.692706],[-74.182861,40.693006],[-74.181738,40.693991],[-74.181341,40.6941]]],[[[-74.185607,40.691888],[-74.186252,40.692713],[-74.185424,40.692491],[-74.184702,40.692599],[-74.18434,40.692982],[-74.184628,40.69312],[-74.184371,40.693916],[-74.183686,40.693914],[-74.184154,40.694107],[-74.183573,40.695012],[-74.183461,40.695862],[-74.182665,40.696327],[-74.182488,40.695585],[-74.182885,40.695504],[-74.183761,40.693338],[-74.185572,40.691641],[-74.186039,40.691999],[-74.18568,40.691778],[-74.185751,40.691971],[-74.185679,40.69197],[-74.185607,40.691888]]],[[[-74.177838,40.695188],[-74.17712,40.694472],[-74.177302,40.694143],[-74.177051,40.693676],[-74.177269,40.693429],[-74.17795,40.694337],[-74.179101,40.694889],[-74.179208,40.695137],[-74.178846,40.695465],[-74.177838,40.695188]]],[[[-74.184279,40.698225],[-74.184493,40.69872],[-74.184311,40.699049],[-74.184279,40.698225]]],[[[-74.181952,40.702117],[-74.182542,40.699346],[-74.182626,40.696876],[-74.182735,40.696684],[-74.183277,40.696658],[-74.183273,40.697426],[-74.182913,40.697233],[-74.183235,40.697728],[-74.182876,40.697535],[-74.182839,40.697727],[-74.183269,40.698195],[-74.182897,40.700555],[-74.182501,40.700526],[-74.182897,40.700719],[-74.182457,40.702255],[-74.181952,40.702117]]],[[[-74.16537,40.700258],[-74.165843,40.699326],[-74.16689,40.699219],[-74.167099,40.700565],[-74.165585,40.700506],[-74.16537,40.700258]]],[[[-74.167166,40.701691],[-74.165039,40.701438],[-74.165149,40.701026],[-74.165511,40.700862],[-74.166051,40.701084],[-74.166809,40.700976],[-74.167275,40.701499],[-74.167166,40.701691]]],[[[-74.173152,40.702065],[-74.16868,40.701805],[-74.167635,40.701637],[-74.167456,40.701417],[-74.167818,40.701034],[-74.172218,40.701184],[-74.173334,40.701544],[-74.173442,40.701764],[-74.173152,40.702065]]],[[[-74.164784,40.702068],[-74.166947,40.702157],[-74.167018,40.702431],[-74.165034,40.702563],[-74.164602,40.702342],[-74.164784,40.702068]]],[[[-74.173002,40.703053],[-74.168639,40.702766],[-74.1681,40.702544],[-74.167774,40.702681],[-74.167415,40.702323],[-74.16976,40.702275],[-74.172969,40.702531],[-74.173329,40.702751],[-74.173002,40.703053]]],[[[-74.18122,40.704421],[-74.181906,40.704258],[-74.180894,40.704722],[-74.180281,40.704665],[-74.18108,40.703569],[-74.181656,40.703708],[-74.18122,40.704421]],[[-74.18122,40.704421],[-74.181184,40.704448],[-74.18122,40.704448],[-74.18122,40.704421]]],[[[-74.171439,40.705683],[-74.171626,40.704202],[-74.172059,40.704175],[-74.172274,40.704588],[-74.172017,40.705438],[-74.172269,40.705603],[-74.171942,40.706042],[-74.171581,40.706041],[-74.171439,40.705683]]],[[[-74.173018,40.707335],[-74.173381,40.706732],[-74.173814,40.706843],[-74.174425,40.707147],[-74.174424,40.707366],[-74.173018,40.707335]]],[[[-74.184594,40.707971],[-74.182218,40.707004],[-74.182401,40.706263],[-74.183047,40.707061],[-74.183732,40.707035],[-74.18402,40.707201],[-74.183803,40.707337],[-74.184704,40.707614],[-74.185025,40.708247],[-74.18452,40.708245],[-74.184594,40.707971]]],[[[-74.182606,40.708707],[-74.183581,40.708599],[-74.183867,40.708985],[-74.182315,40.709282],[-74.182606,40.708707]]],[[[-74.184081,40.709671],[-74.184008,40.709726],[-74.183936,40.709726],[-74.183972,40.709671],[-74.184081,40.709671]]],[[[-74.184296,40.709809],[-74.18426,40.709837],[-74.18426,40.709809],[-74.184296,40.709809]]],[[[-74.169468,40.710234],[-74.168496,40.709957],[-74.168209,40.709545],[-74.169073,40.709986],[-74.170442,40.710182],[-74.176899,40.710338],[-74.169468,40.710234]]],[[[-74.184476,40.709974],[-74.184115,40.710138],[-74.183969,40.710385],[-74.184042,40.710111],[-74.184476,40.709974]]],[[[-74.18426,40.709837],[-74.183608,40.710494],[-74.182886,40.710629],[-74.182778,40.710436],[-74.18426,40.709837]]],[[[-74.182813,40.710684],[-74.182597,40.710546],[-74.182598,40.710463],[-74.182813,40.710684]]],[[[-74.183315,40.711289],[-74.183388,40.711179],[-74.183387,40.711344],[-74.183315,40.711289]]],[[[-74.183749,40.711235],[-74.183856,40.711318],[-74.183748,40.71129],[-74.183749,40.711235]]],[[[-74.18382,40.711428],[-74.183856,40.7114],[-74.183856,40.711428],[-74.18382,40.711428]]],[[[-74.183639,40.711454],[-74.183603,40.711482],[-74.183603,40.711454],[-74.183639,40.711454]]],[[[-74.183243,40.711344],[-74.183314,40.711673],[-74.183171,40.711316],[-74.183243,40.711344]]],[[[-74.183458,40.711728],[-74.183422,40.711701],[-74.183458,40.711701],[-74.183458,40.711728]]],[[[-74.18353,40.711784],[-74.183493,40.711866],[-74.183493,40.711783],[-74.18353,40.711784]]],[[[-74.183601,40.712003],[-74.183565,40.711976],[-74.183565,40.711893],[-74.183637,40.711949],[-74.183637,40.712003],[-74.183601,40.712003]]],[[[-74.183673,40.712058],[-74.183637,40.712003],[-74.183673,40.712004],[-74.183673,40.712058]]],[[[-74.183095,40.712057],[-74.183167,40.712112],[-74.183095,40.712112],[-74.183095,40.712057]]],[[[-74.183744,40.712114],[-74.183672,40.712141],[-74.183673,40.712058],[-74.183744,40.712114]]],[[[-74.183744,40.712168],[-74.183816,40.712278],[-74.183852,40.712333],[-74.18378,40.712306],[-74.183744,40.712168]]],[[[-74.183851,40.712416],[-74.183995,40.712499],[-74.183995,40.712581],[-74.183959,40.712581],[-74.183851,40.712416]]],[[[-74.184031,40.712636],[-74.183995,40.712581],[-74.184031,40.712581],[-74.184031,40.712636]]],[[[-74.184066,40.712691],[-74.18403,40.712663],[-74.184067,40.712663],[-74.184066,40.712691]]],[[[-74.184102,40.712746],[-74.184066,40.712718],[-74.184102,40.712718],[-74.184102,40.712746]]],[[[-74.183023,40.712112],[-74.183668,40.712964],[-74.181213,40.713507],[-74.178433,40.713966],[-74.178216,40.713937],[-74.178686,40.713747],[-74.177097,40.714099],[-74.174283,40.714201],[-74.173127,40.71439],[-74.173488,40.714473],[-74.166846,40.71514],[-74.164033,40.715105],[-74.162952,40.714882],[-74.161725,40.714824],[-74.161762,40.714741],[-74.159491,40.71435],[-74.159456,40.714213],[-74.158951,40.714157],[-74.158916,40.713992],[-74.157655,40.713576],[-74.158125,40.713331],[-74.159927,40.71383],[-74.159421,40.713856],[-74.159565,40.714021],[-74.162412,40.714606],[-74.165767,40.714533],[-74.164325,40.714447],[-74.164939,40.714284],[-74.165047,40.714339],[-74.1653,40.71423],[-74.165696,40.714259],[-74.165913,40.714177],[-74.161765,40.71411],[-74.163316,40.71406],[-74.161983,40.713809],[-74.161551,40.713533],[-74.161701,40.712518],[-74.162171,40.71219],[-74.162387,40.712328],[-74.161949,40.713452],[-74.164256,40.713651],[-74.16476,40.713899],[-74.165194,40.713736],[-74.165268,40.713407],[-74.166747,40.713466],[-74.167072,40.713274],[-74.167289,40.713275],[-74.167287,40.713605],[-74.168404,40.713937],[-74.16902,40.713253],[-74.16927,40.713857],[-74.170027,40.713969],[-74.170786,40.713724],[-74.173852,40.713733],[-74.179446,40.713337],[-74.179915,40.713256],[-74.18021,40.711967],[-74.179198,40.712376],[-74.178259,40.712455],[-74.177468,40.712096],[-74.177038,40.711464],[-74.171048,40.711776],[-74.170507,40.711775],[-74.170508,40.711555],[-74.177075,40.711217],[-74.177363,40.711272],[-74.177864,40.712097],[-74.178982,40.712293],[-74.179524,40.712129],[-74.180792,40.711007],[-74.182092,40.710599],[-74.182344,40.71082],[-74.180535,40.71183],[-74.180566,40.712983],[-74.181071,40.712985],[-74.181072,40.712738],[-74.181577,40.712794],[-74.181542,40.712574],[-74.182337,40.712247],[-74.182773,40.711589],[-74.183096,40.711975],[-74.183095,40.712057],[-74.183023,40.712112]],[[-74.161978,40.714824],[-74.162014,40.714797],[-74.161978,40.714797],[-74.161978,40.714824]]],[[[-74.178216,40.713965],[-74.178144,40.713992],[-74.178144,40.713965],[-74.178216,40.713965]]],[[[-74.183446,40.714144],[-74.18341,40.714171],[-74.18341,40.714144],[-74.183446,40.714144]]],[[[-74.183374,40.714171],[-74.183338,40.714144],[-74.183374,40.714144],[-74.183374,40.714171]]],[[[-74.183157,40.714253],[-74.183193,40.714226],[-74.183193,40.714253],[-74.183157,40.714253]]],[[[-74.183157,40.714253],[-74.183121,40.71428],[-74.183121,40.714253],[-74.183157,40.714253]]],[[[-74.183085,40.714335],[-74.183049,40.714308],[-74.183085,40.714308],[-74.183085,40.714335]]],[[[-74.182216,40.714937],[-74.182252,40.714909],[-74.182252,40.714937],[-74.182216,40.714937]]],[[[-74.182396,40.71502],[-74.182505,40.71491],[-74.182576,40.714993],[-74.182396,40.71502]]],[[[-74.182107,40.714991],[-74.182071,40.715019],[-74.182071,40.714991],[-74.182107,40.714991]]],[[[-74.183302,40.714116],[-74.182904,40.714307],[-74.183048,40.714527],[-74.182613,40.71491],[-74.182723,40.714417],[-74.182543,40.714471],[-74.182288,40.714855],[-74.181999,40.715018],[-74.181927,40.714936],[-74.182001,40.714634],[-74.180485,40.71474],[-74.180772,40.715097],[-74.180371,40.715892],[-74.179579,40.715726],[-74.179688,40.715369],[-74.180157,40.715425],[-74.180195,40.715151],[-74.179581,40.715204],[-74.179547,40.714874],[-74.177814,40.715034],[-74.177055,40.715389],[-74.176658,40.715361],[-74.176912,40.715169],[-74.176515,40.715195],[-74.176334,40.715277],[-74.176657,40.715553],[-74.176008,40.715441],[-74.175466,40.715659],[-74.175175,40.716125],[-74.175573,40.715961],[-74.175608,40.716263],[-74.176438,40.716019],[-74.176292,40.716512],[-74.176724,40.716678],[-74.176182,40.716732],[-74.17618,40.717143],[-74.175892,40.717033],[-74.17582,40.717142],[-74.17636,40.717336],[-74.176722,40.717145],[-74.177116,40.717668],[-74.176647,40.717666],[-74.176248,40.718132],[-74.176251,40.7175],[-74.175026,40.717113],[-74.174267,40.717413],[-74.173943,40.717219],[-74.174159,40.717467],[-74.174011,40.718043],[-74.174911,40.718595],[-74.173577,40.718262],[-74.173107,40.718507],[-74.173286,40.71881],[-74.172926,40.718754],[-74.172708,40.719055],[-74.172455,40.719027],[-74.172385,40.718615],[-74.171915,40.718861],[-74.171808,40.718668],[-74.17123,40.718722],[-74.171195,40.718502],[-74.170796,40.718995],[-74.170472,40.718774],[-74.169859,40.718855],[-74.169676,40.719294],[-74.169856,40.719459],[-74.169131,40.720033],[-74.169817,40.719925],[-74.169887,40.720392],[-74.170284,40.720366],[-74.170354,40.720723],[-74.170894,40.721026],[-74.170533,40.72108],[-74.170351,40.721492],[-74.169883,40.721188],[-74.169846,40.72138],[-74.170422,40.721711],[-74.170313,40.721876],[-74.168944,40.721378],[-74.168905,40.721927],[-74.16858,40.722008],[-74.168434,40.722447],[-74.16775,40.721978],[-74.167787,40.721814],[-74.168256,40.721842],[-74.168077,40.72154],[-74.168368,40.721184],[-74.168007,40.721128],[-74.167501,40.721401],[-74.167536,40.721593],[-74.167032,40.7214],[-74.167426,40.721867],[-74.166489,40.721673],[-74.166056,40.721809],[-74.165626,40.721039],[-74.163645,40.720402],[-74.163608,40.720676],[-74.164185,40.720787],[-74.165731,40.72178],[-74.16411,40.721309],[-74.163857,40.721445],[-74.16375,40.721198],[-74.163317,40.721142],[-74.163171,40.721416],[-74.164395,40.722051],[-74.163637,40.722076],[-74.162953,40.721745],[-74.16277,40.722183],[-74.163419,40.722405],[-74.163345,40.722624],[-74.162625,40.722457],[-74.162335,40.722731],[-74.162337,40.722319],[-74.162049,40.722154],[-74.162555,40.721963],[-74.162592,40.721716],[-74.162485,40.721551],[-74.161979,40.721632],[-74.162017,40.721358],[-74.161549,40.721109],[-74.162632,40.721085],[-74.162597,40.720783],[-74.162094,40.720479],[-74.162454,40.720453],[-74.162672,40.720152],[-74.163068,40.720482],[-74.163177,40.720236],[-74.162133,40.719876],[-74.161986,40.720397],[-74.161406,40.720779],[-74.161481,40.720368],[-74.161229,40.720202],[-74.16159,40.720149],[-74.161773,40.719682],[-74.160801,40.719295],[-74.16015,40.719595],[-74.16026,40.719129],[-74.15954,40.718852],[-74.159649,40.718715],[-74.16037,40.71891],[-74.160696,40.718581],[-74.160694,40.719048],[-74.161919,40.719326],[-74.162028,40.719079],[-74.161021,40.718582],[-74.16113,40.718335],[-74.159293,40.717726],[-74.159583,40.71759],[-74.159295,40.717424],[-74.160811,40.717319],[-74.161423,40.71754],[-74.161313,40.717869],[-74.161673,40.71809],[-74.162033,40.718119],[-74.162396,40.717735],[-74.162612,40.717736],[-74.162683,40.718066],[-74.163189,40.717847],[-74.163583,40.71837],[-74.163836,40.718261],[-74.163509,40.718837],[-74.163905,40.718893],[-74.164268,40.718592],[-74.165132,40.718924],[-74.165385,40.718815],[-74.1656,40.71909],[-74.166682,40.71923],[-74.167005,40.71956],[-74.167367,40.719342],[-74.167366,40.719534],[-74.167907,40.719618],[-74.167833,40.719865],[-74.168662,40.720142],[-74.169062,40.719374],[-74.16791,40.718877],[-74.167697,40.71819],[-74.167951,40.717971],[-74.167593,40.717284],[-74.167124,40.71731],[-74.16727,40.717063],[-74.167991,40.717175],[-74.168029,40.716846],[-74.16875,40.71682],[-74.168643,40.716518],[-74.16951,40.716411],[-74.169907,40.716247],[-74.169836,40.716055],[-74.170486,40.715974],[-74.170447,40.716578],[-74.171382,40.717185],[-74.171349,40.716636],[-74.171601,40.716581],[-74.171638,40.716499],[-74.170918,40.716168],[-74.171893,40.715924],[-74.171316,40.71584],[-74.176551,40.715113],[-74.175324,40.715165],[-74.178646,40.714625],[-74.180053,40.714601],[-74.180162,40.714437],[-74.181858,40.71425],[-74.183954,40.713542],[-74.184023,40.714173],[-74.183302,40.714116]],[[-74.182398,40.714663],[-74.182362,40.714635],[-74.182361,40.714663],[-74.182398,40.714663]],[[-74.182144,40.714909],[-74.182108,40.714882],[-74.182108,40.714909],[-74.182144,40.714909]],[[-74.182035,40.714964],[-74.181999,40.714936],[-74.181999,40.714964],[-74.182035,40.714964]],[[-74.182001,40.714634],[-74.182109,40.71458],[-74.182001,40.714579],[-74.182001,40.714634]],[[-74.180664,40.715015],[-74.180628,40.715042],[-74.180664,40.715042],[-74.180664,40.715015]],[[-74.160548,40.719322],[-74.160584,40.719295],[-74.160548,40.719295],[-74.160548,40.719322]],[[-74.159583,40.71759],[-74.159619,40.717617],[-74.159619,40.71759],[-74.159583,40.71759]],[[-74.176588,40.715031],[-74.176768,40.715114],[-74.176732,40.715004],[-74.176588,40.715031]],[[-74.176768,40.715031],[-74.176804,40.715004],[-74.176768,40.715004],[-74.176768,40.715031]],[[-74.176804,40.715032],[-74.17684,40.715059],[-74.17684,40.715032],[-74.176804,40.715032]],[[-74.17684,40.715032],[-74.176985,40.714977],[-74.17684,40.715004],[-74.17684,40.715032]],[[-74.177021,40.714977],[-74.177093,40.715032],[-74.177201,40.714978],[-74.177021,40.714977]],[[-74.180234,40.714492],[-74.180522,40.714575],[-74.180595,40.714466],[-74.180234,40.714492]],[[-74.180522,40.714575],[-74.180558,40.71463],[-74.180558,40.714575],[-74.180522,40.714575]],[[-74.183339,40.714034],[-74.183339,40.713979],[-74.183303,40.713924],[-74.183339,40.714034]],[[-74.183303,40.713924],[-74.183231,40.713869],[-74.183231,40.713924],[-74.183303,40.713924]],[[-74.183303,40.713869],[-74.183339,40.713842],[-74.183303,40.713842],[-74.183303,40.713869]]],[[[-74.181946,40.718559],[-74.182054,40.71856],[-74.181946,40.718642],[-74.181946,40.718559]]],[[[-74.181694,40.718421],[-74.180465,40.718967],[-74.18184,40.718175],[-74.181694,40.718421]],[[-74.181441,40.718531],[-74.181405,40.718476],[-74.181405,40.71853],[-74.181441,40.718531]]],[[[-74.181585,40.718668],[-74.181549,40.718696],[-74.181549,40.718668],[-74.181585,40.718668]]],[[[-74.181549,40.718696],[-74.181512,40.718723],[-74.181513,40.718695],[-74.181549,40.718696]]],[[[-74.180249,40.718912],[-74.180178,40.718692],[-74.180503,40.718583],[-74.180249,40.718912]]],[[[-74.181874,40.718504],[-74.181547,40.719025],[-74.181222,40.719052],[-74.181874,40.718504]]],[[[-74.181222,40.719079],[-74.181401,40.719299],[-74.181041,40.719133],[-74.181222,40.719079]]],[[[-74.171123,40.725913],[-74.170331,40.725417],[-74.170658,40.724924],[-74.170516,40.724621],[-74.17095,40.724348],[-74.170339,40.723797],[-74.171242,40.723745],[-74.171599,40.724377],[-74.171129,40.724705],[-74.172136,40.72523],[-74.171271,40.725063],[-74.170657,40.725308],[-74.17188,40.725998],[-74.171123,40.725913]]],[[[-74.166683,40.747861],[-74.165838,40.747886],[-74.165863,40.747474],[-74.166469,40.747476],[-74.166683,40.747861]]],[[[-74.166465,40.748189],[-74.165874,40.750988],[-74.16524,40.750958],[-74.1658,40.748133],[-74.166465,40.748189]]],[[[-74.160704,40.688567],[-74.160812,40.688685],[-74.160739,40.688825],[-74.160631,40.68877],[-74.160704,40.688567]]],[[[-74.160703,40.688825],[-74.160666,40.68888],[-74.160667,40.688825],[-74.160703,40.688825]]],[[[-74.160846,40.6891],[-74.160883,40.688764],[-74.16135,40.689184],[-74.161169,40.689293],[-74.160846,40.6891]]],[[[-74.161746,40.689405],[-74.161637,40.689459],[-74.161674,40.689332],[-74.161746,40.689405]]],[[[-74.161601,40.689569],[-74.161565,40.689541],[-74.161601,40.689542],[-74.161601,40.689569]]],[[[-74.161564,40.689596],[-74.161528,40.689624],[-74.161528,40.689596],[-74.161564,40.689596]]],[[[-74.165492,40.690166],[-74.165021,40.690677],[-74.165056,40.690952],[-74.164294,40.6918],[-74.164219,40.692377],[-74.162876,40.694047],[-74.162298,40.694292],[-74.162228,40.693881],[-74.161795,40.693962],[-74.161941,40.69355],[-74.161614,40.694016],[-74.160895,40.693684],[-74.159988,40.69467],[-74.159735,40.694669],[-74.160571,40.693546],[-74.160931,40.693547],[-74.160717,40.693217],[-74.163078,40.689793],[-74.163979,40.689949],[-74.163942,40.690097],[-74.164051,40.689964],[-74.165492,40.690166]]],[[[-74.164751,40.694217],[-74.16501,40.6929],[-74.165335,40.692819],[-74.165545,40.694055],[-74.165072,40.694795],[-74.164751,40.694217]]],[[[-74.155147,40.696303],[-74.156019,40.69496],[-74.155516,40.694657],[-74.155842,40.694383],[-74.154258,40.693802],[-74.153248,40.693881],[-74.152386,40.693083],[-74.153864,40.693252],[-74.154403,40.693665],[-74.156383,40.694302],[-74.156417,40.694714],[-74.156707,40.694523],[-74.155326,40.696468],[-74.155147,40.696303]]],[[[-74.157169,40.695869],[-74.157133,40.695842],[-74.157169,40.695842],[-74.157169,40.695869]]],[[[-74.157096,40.695952],[-74.15706,40.695979],[-74.15706,40.695952],[-74.157096,40.695952]]],[[[-74.161528,40.689624],[-74.160983,40.690528],[-74.161818,40.689416],[-74.162142,40.689532],[-74.156803,40.696939],[-74.156186,40.697651],[-74.156114,40.697596],[-74.156077,40.697788],[-74.156005,40.69776],[-74.155969,40.697787],[-74.156004,40.697897],[-74.155896,40.697897],[-74.155822,40.698171],[-74.155641,40.698418],[-74.155569,40.69839],[-74.155533,40.698417],[-74.155568,40.698527],[-74.155387,40.698637],[-74.155351,40.698691],[-74.155386,40.698801],[-74.155314,40.698774],[-74.155242,40.698856],[-74.155277,40.698938],[-74.155168,40.69913],[-74.154987,40.699212],[-74.154805,40.699651],[-74.154697,40.699623],[-74.15466,40.699733],[-74.154696,40.699815],[-74.154551,40.699842],[-74.15455,40.700062],[-74.152877,40.702692],[-74.152261,40.703294],[-74.151534,40.704445],[-74.151317,40.704444],[-74.151066,40.704278],[-74.151212,40.703949],[-74.150994,40.704141],[-74.151177,40.703785],[-74.153284,40.700799],[-74.153427,40.701019],[-74.153572,40.700855],[-74.15368,40.70091],[-74.156733,40.696417],[-74.157024,40.696006],[-74.157132,40.695979],[-74.157787,40.694938],[-74.157931,40.694856],[-74.158259,40.694253],[-74.161528,40.689624]],[[-74.156295,40.697432],[-74.156259,40.697377],[-74.156259,40.697431],[-74.156295,40.697432]],[[-74.156295,40.697377],[-74.156332,40.697322],[-74.156296,40.697322],[-74.156295,40.697377]],[[-74.156222,40.697541],[-74.156186,40.697514],[-74.156186,40.697541],[-74.156222,40.697541]],[[-74.156186,40.697541],[-74.15615,40.697568],[-74.156186,40.697568],[-74.156186,40.697541]],[[-74.156077,40.697733],[-74.156041,40.697705],[-74.156041,40.697733],[-74.156077,40.697733]],[[-74.155823,40.698116],[-74.155787,40.698061],[-74.155787,40.698116],[-74.155823,40.698116]],[[-74.155787,40.698116],[-74.15575,40.698144],[-74.155786,40.698144],[-74.155787,40.698116]],[[-74.155714,40.698253],[-74.155678,40.698226],[-74.155678,40.698253],[-74.155714,40.698253]],[[-74.155677,40.698308],[-74.155641,40.698281],[-74.155641,40.698308],[-74.155677,40.698308]],[[-74.155641,40.698363],[-74.155605,40.698335],[-74.155605,40.698363],[-74.155641,40.698363]],[[-74.155532,40.698527],[-74.155496,40.6985],[-74.155496,40.698527],[-74.155532,40.698527]],[[-74.155241,40.698938],[-74.155205,40.698911],[-74.155205,40.698938],[-74.155241,40.698938]],[[-74.155205,40.698993],[-74.155169,40.698965],[-74.155169,40.698993],[-74.155205,40.698993]],[[-74.155096,40.699157],[-74.15506,40.699102],[-74.15506,40.699157],[-74.155096,40.699157]],[[-74.155096,40.699102],[-74.155132,40.699075],[-74.155096,40.699075],[-74.155096,40.699102]],[[-74.15466,40.699733],[-74.154624,40.69976],[-74.15466,40.69976],[-74.15466,40.699733]],[[-74.154551,40.699952],[-74.154515,40.699924],[-74.154515,40.699952],[-74.154551,40.699952]],[[-74.154515,40.699952],[-74.154478,40.700006],[-74.154514,40.700007],[-74.154515,40.699952]],[[-74.154478,40.700006],[-74.154442,40.700034],[-74.154478,40.700034],[-74.154478,40.700006]],[[-74.153427,40.701074],[-74.153319,40.701101],[-74.153318,40.701156],[-74.153427,40.701074]],[[-74.153318,40.701156],[-74.153282,40.701183],[-74.153318,40.701183],[-74.153318,40.701156]],[[-74.153608,40.700937],[-74.153572,40.700965],[-74.153608,40.700965],[-74.153608,40.700937]],[[-74.154589,40.699622],[-74.154625,40.69965],[-74.154625,40.699623],[-74.154589,40.699622]],[[-74.157023,40.696061],[-74.157059,40.696089],[-74.157059,40.696061],[-74.157023,40.696061]],[[-74.157641,40.695212],[-74.157677,40.69524],[-74.157677,40.695212],[-74.157641,40.695212]],[[-74.158695,40.693678],[-74.158731,40.693706],[-74.158731,40.693678],[-74.158695,40.693678]]],[[[-74.15615,40.697651],[-74.156113,40.697678],[-74.156114,40.697651],[-74.15615,40.697651]]],[[[-74.156041,40.697788],[-74.156004,40.697842],[-74.156005,40.697788],[-74.156041,40.697788]]],[[[-74.155932,40.697952],[-74.155895,40.698007],[-74.155896,40.697952],[-74.155932,40.697952]]],[[[-74.155605,40.698418],[-74.155568,40.698473],[-74.155569,40.698418],[-74.155605,40.698418]]],[[[-74.155423,40.698692],[-74.155387,40.698746],[-74.155387,40.698692],[-74.155423,40.698692]]],[[[-74.155314,40.698801],[-74.15535,40.698856],[-74.155314,40.698856],[-74.155314,40.698801]]],[[[-74.155314,40.698856],[-74.155278,40.698883],[-74.155278,40.698856],[-74.155314,40.698856]]],[[[-74.15506,40.699212],[-74.155023,40.699267],[-74.155024,40.699212],[-74.15506,40.699212]]],[[[-74.156244,40.700259],[-74.15719,40.698669],[-74.157769,40.698287],[-74.157803,40.698781],[-74.156823,40.700013],[-74.156244,40.700259]]],[[[-74.155023,40.699267],[-74.154987,40.699322],[-74.154987,40.699267],[-74.155023,40.699267]]],[[[-74.154769,40.69965],[-74.154733,40.699678],[-74.154733,40.69965],[-74.154769,40.69965]]],[[[-74.154696,40.699733],[-74.154732,40.699705],[-74.154732,40.699733],[-74.154696,40.699733]]],[[[-74.154587,40.699842],[-74.154623,40.699897],[-74.154587,40.699897],[-74.154587,40.699842]]],[[[-74.160605,40.70104],[-74.160681,40.700135],[-74.16151,40.700384],[-74.161253,40.701152],[-74.160605,40.70104]]],[[[-74.153645,40.7008],[-74.153608,40.700855],[-74.153609,40.7008],[-74.153645,40.7008]]],[[[-74.163197,40.701981],[-74.164315,40.70193],[-74.16453,40.702342],[-74.162906,40.70242],[-74.163197,40.701981]]],[[[-74.16012,40.704196],[-74.160523,40.702934],[-74.161136,40.702908],[-74.161025,40.70354],[-74.16012,40.704196]]],[[[-74.161487,40.704913],[-74.161853,40.703816],[-74.162143,40.70357],[-74.162503,40.703599],[-74.162722,40.703215],[-74.16301,40.703243],[-74.162102,40.704503],[-74.162135,40.705217],[-74.161487,40.704913]]],[[[-74.163719,40.705798],[-74.163801,40.70385],[-74.164342,40.703741],[-74.164485,40.704154],[-74.164087,40.704262],[-74.164447,40.70451],[-74.164115,40.705882],[-74.163719,40.705798]]],[[[-74.156064,40.707231],[-74.155778,40.706736],[-74.15596,40.706434],[-74.156357,40.706408],[-74.157182,40.707316],[-74.156929,40.70748],[-74.156064,40.707231]]],[[[-74.15483,40.708737],[-74.154321,40.709531],[-74.154862,40.709478],[-74.155184,40.710055],[-74.153922,40.709914],[-74.153708,40.709502],[-74.154541,40.708873],[-74.153965,40.708652],[-74.153278,40.708869],[-74.153276,40.709391],[-74.152591,40.709252],[-74.152557,40.708895],[-74.151508,40.709413],[-74.150136,40.709574],[-74.151292,40.709357],[-74.152413,40.708729],[-74.153605,40.708459],[-74.154831,40.708627],[-74.156631,40.709291],[-74.15483,40.708737]],[[-74.154429,40.709559],[-74.154465,40.709587],[-74.154465,40.709559],[-74.154429,40.709559]],[[-74.154722,40.708736],[-74.154686,40.708709],[-74.154686,40.708736],[-74.154722,40.708736]]],[[[-74.157331,40.713411],[-74.155927,40.712967],[-74.15618,40.712748],[-74.156504,40.712859],[-74.156359,40.713024],[-74.157225,40.713054],[-74.157331,40.713411]]],[[[-74.159493,40.713939],[-74.159529,40.713911],[-74.159529,40.713939],[-74.159493,40.713939]]],[[[-74.159962,40.713967],[-74.160106,40.71394],[-74.160106,40.713968],[-74.159962,40.713967]]],[[[-74.158843,40.714101],[-74.157942,40.713907],[-74.157834,40.713796],[-74.158843,40.714101]]],[[[-74.158843,40.714047],[-74.158915,40.714074],[-74.158843,40.714074],[-74.158843,40.714047]]],[[[-74.158843,40.714129],[-74.158879,40.714102],[-74.158879,40.714129],[-74.158843,40.714129]]],[[[-74.165625,40.714204],[-74.165661,40.714231],[-74.165624,40.714231],[-74.165625,40.714204]]],[[[-74.164361,40.71442],[-74.164325,40.714392],[-74.164361,40.714392],[-74.164361,40.71442]]],[[[-74.16418,40.714446],[-74.164144,40.714474],[-74.164144,40.714446],[-74.16418,40.714446]]],[[[-74.164324,40.714474],[-74.164216,40.714501],[-74.164216,40.714474],[-74.164324,40.714474]]],[[[-74.160068,40.714462],[-74.160031,40.714489],[-74.160032,40.714462],[-74.160068,40.714462]]],[[[-74.160212,40.714517],[-74.160248,40.71449],[-74.160248,40.714517],[-74.160212,40.714517]]],[[[-74.16032,40.714545],[-74.160284,40.714517],[-74.16032,40.714518],[-74.16032,40.714545]]],[[[-74.1605,40.714573],[-74.160392,40.714545],[-74.1605,40.714546],[-74.1605,40.714573]]],[[[-74.160969,40.714629],[-74.161005,40.714657],[-74.160969,40.714657],[-74.160969,40.714629]]],[[[-74.161113,40.714657],[-74.161077,40.714684],[-74.161077,40.714657],[-74.161113,40.714657]]],[[[-74.161185,40.714685],[-74.161221,40.714712],[-74.161185,40.714712],[-74.161185,40.714685]]],[[[-74.161725,40.714796],[-74.161689,40.714769],[-74.161726,40.714769],[-74.161725,40.714796]]],[[[-74.162951,40.714964],[-74.162915,40.714992],[-74.162915,40.714964],[-74.162951,40.714964]]],[[[-74.164857,40.723425],[-74.164426,40.722957],[-74.165256,40.723042],[-74.165474,40.722658],[-74.164935,40.72219],[-74.165584,40.722301],[-74.165839,40.721863],[-74.166128,40.721836],[-74.16598,40.72244],[-74.166557,40.722551],[-74.166952,40.722909],[-74.165762,40.722823],[-74.165615,40.723235],[-74.166119,40.723456],[-74.166046,40.723648],[-74.165289,40.723618],[-74.165502,40.724223],[-74.165106,40.724112],[-74.164599,40.724549],[-74.164745,40.724056],[-74.163665,40.723586],[-74.164857,40.723425]],[[-74.164243,40.723588],[-74.164206,40.723615],[-74.164242,40.723615],[-74.164243,40.723588]]],[[[-74.162126,40.735495],[-74.162234,40.73544],[-74.162234,40.735468],[-74.162126,40.735495]]],[[[-74.162126,40.735495],[-74.16209,40.735522],[-74.16209,40.735495],[-74.162126,40.735495]]],[[[-74.16209,40.735522],[-74.162053,40.735549],[-74.162053,40.735522],[-74.16209,40.735522]]],[[[-74.161981,40.735604],[-74.161945,40.735577],[-74.161981,40.735577],[-74.161981,40.735604]]],[[[-74.161945,40.735604],[-74.161909,40.735631],[-74.161909,40.735604],[-74.161945,40.735604]]],[[[-74.162234,40.735577],[-74.162378,40.735633],[-74.162197,40.735715],[-74.162234,40.735577]]],[[[-74.161908,40.735796],[-74.162089,40.735659],[-74.162125,40.735659],[-74.162124,40.735769],[-74.161908,40.735796]]],[[[-74.161546,40.735987],[-74.161726,40.735988],[-74.161582,40.736049],[-74.161546,40.735987]]],[[[-74.166373,40.745005],[-74.165714,40.745085],[-74.162778,40.737845],[-74.161707,40.736207],[-74.162702,40.735634],[-74.163206,40.736047],[-74.163095,40.736568],[-74.164026,40.737971],[-74.164166,40.738877],[-74.164597,40.739153],[-74.164342,40.739646],[-74.164809,40.740169],[-74.164806,40.740828],[-74.166054,40.743851],[-74.16645,40.74388],[-74.166593,40.744292],[-74.166443,40.745334],[-74.16673,40.745747],[-74.16676,40.746927],[-74.166543,40.746954],[-74.166541,40.747394],[-74.165867,40.747392],[-74.165748,40.74525],[-74.166408,40.74517],[-74.166373,40.745005]]],[[[-74.158001,40.765908],[-74.161643,40.762036],[-74.163014,40.760089],[-74.163961,40.75797],[-74.165214,40.751123],[-74.165837,40.751097],[-74.165615,40.752167],[-74.165613,40.752469],[-74.165902,40.752415],[-74.165752,40.75354],[-74.16539,40.753786],[-74.165276,40.755021],[-74.164844,40.754745],[-74.16524,40.755048],[-74.165127,40.755871],[-74.165632,40.756038],[-74.165522,40.756312],[-74.165053,40.756283],[-74.165121,40.757052],[-74.164718,40.758231],[-74.164934,40.758479],[-74.164462,40.758944],[-74.164606,40.759082],[-74.164171,40.75941],[-74.164242,40.759684],[-74.16377,40.760067],[-74.162786,40.761986],[-74.161917,40.76256],[-74.161661,40.763136],[-74.160972,40.763655],[-74.16126,40.763876],[-74.160826,40.763984],[-74.160897,40.764286],[-74.16021,40.764449],[-74.159702,40.764942],[-74.15883,40.766064],[-74.158755,40.766641],[-74.157812,40.767489],[-74.157739,40.767681],[-74.158496,40.76793],[-74.15766,40.768916],[-74.157443,40.768943],[-74.15759,40.768531],[-74.157301,40.768613],[-74.157369,40.769354],[-74.157152,40.769491],[-74.157365,40.770068],[-74.155655,40.772616],[-74.15442,40.774012],[-74.150649,40.777047],[-74.150218,40.776732],[-74.153373,40.773988],[-74.154816,40.772061],[-74.157023,40.767267],[-74.158001,40.765908]]],[[[-74.149536,40.693349],[-74.149574,40.692882],[-74.150225,40.692555],[-74.150259,40.693049],[-74.150547,40.69305],[-74.151049,40.693573],[-74.150251,40.694476],[-74.149963,40.694475],[-74.149929,40.694063],[-74.15029,40.6939],[-74.149536,40.693349]],[[-74.149788,40.693514],[-74.149824,40.693487],[-74.149788,40.693487],[-74.149788,40.693514]]],[[[-74.144837,40.695256],[-74.145892,40.693667],[-74.145785,40.693337],[-74.146361,40.693559],[-74.146072,40.69375],[-74.146467,40.693971],[-74.147692,40.694194],[-74.147256,40.694906],[-74.146679,40.69485],[-74.145636,40.69427],[-74.145273,40.694818],[-74.145558,40.695313],[-74.144837,40.695256]]],[[[-74.152228,40.695745],[-74.151469,40.696182],[-74.151364,40.695495],[-74.15104,40.695302],[-74.151257,40.695193],[-74.150428,40.69519],[-74.150214,40.694751],[-74.151079,40.694753],[-74.151222,40.695056],[-74.154247,40.695916],[-74.154894,40.696412],[-74.154281,40.696273],[-74.154352,40.69652],[-74.153379,40.696407],[-74.152764,40.69668],[-74.152803,40.696131],[-74.152228,40.695745]],[[-74.150897,40.69511],[-74.150861,40.695082],[-74.150861,40.695109],[-74.150897,40.69511]],[[-74.150861,40.695082],[-74.150789,40.695054],[-74.150789,40.695082],[-74.150861,40.695082]],[[-74.152588,40.695938],[-74.152624,40.695911],[-74.152588,40.695911],[-74.152588,40.695938]],[[-74.152336,40.6958],[-74.152372,40.695773],[-74.152336,40.695773],[-74.152336,40.6958]]],[[[-74.153229,40.697477],[-74.151213,40.69684],[-74.15078,40.696866],[-74.151033,40.69673],[-74.151034,40.69662],[-74.150672,40.696756],[-74.150133,40.696425],[-74.148656,40.696118],[-74.148442,40.695706],[-74.150962,40.696455],[-74.151648,40.696402],[-74.153229,40.697477]]],[[[-74.151552,40.700876],[-74.146908,40.699242],[-74.146729,40.69894],[-74.151663,40.700492],[-74.151552,40.700876]],[[-74.14842,40.699741],[-74.148457,40.699714],[-74.148421,40.699714],[-74.14842,40.699741]]],[[[-74.153429,40.70069],[-74.153465,40.700662],[-74.153465,40.70069],[-74.153429,40.70069]]],[[[-74.153393,40.700744],[-74.153429,40.70069],[-74.153429,40.700744],[-74.153393,40.700744]]],[[[-74.152116,40.70354],[-74.152152,40.703568],[-74.152115,40.703568],[-74.152116,40.70354]]],[[[-74.150886,40.704168],[-74.150777,40.70425],[-74.150778,40.704168],[-74.150886,40.704168]]],[[[-74.150885,40.70436],[-74.150813,40.704415],[-74.150885,40.704278],[-74.150885,40.70436]]],[[[-74.150993,40.704388],[-74.150921,40.704443],[-74.150921,40.704388],[-74.150993,40.704388]]],[[[-74.151462,40.704472],[-74.151497,40.704499],[-74.151461,40.704499],[-74.151462,40.704472]]],[[[-74.151065,40.704498],[-74.151137,40.704471],[-74.151137,40.704498],[-74.151065,40.704498]]],[[[-74.150953,40.705211],[-74.150735,40.705485],[-74.15077,40.705568],[-74.150662,40.705595],[-74.150698,40.70565],[-74.150481,40.705704],[-74.149364,40.705536],[-74.149044,40.704657],[-74.149836,40.704934],[-74.150631,40.704607],[-74.151279,40.704801],[-74.15117,40.70502],[-74.151062,40.704992],[-74.150953,40.705211]],[[-74.150734,40.705568],[-74.150698,40.70554],[-74.150698,40.705567],[-74.150734,40.705568]],[[-74.150486,40.704798],[-74.15045,40.704853],[-74.150486,40.704853],[-74.150486,40.704798]],[[-74.150485,40.704935],[-74.150341,40.704963],[-74.150377,40.705018],[-74.150485,40.704935]]],[[[-74.150989,40.705239],[-74.150953,40.705211],[-74.150989,40.705212],[-74.150989,40.705239]]],[[[-74.150771,40.705513],[-74.150807,40.705485],[-74.150807,40.705513],[-74.150771,40.705513]]],[[[-74.15048,40.705869],[-74.150372,40.705951],[-74.150192,40.705868],[-74.15048,40.705869]]],[[[-74.149434,40.705948],[-74.149686,40.705976],[-74.149722,40.706031],[-74.14965,40.706031],[-74.14965,40.706004],[-74.149542,40.706003],[-74.149434,40.705948]]],[[[-74.149794,40.706059],[-74.149722,40.706031],[-74.149794,40.706031],[-74.149794,40.706059]]],[[[-74.149866,40.706059],[-74.149794,40.706086],[-74.149794,40.706059],[-74.149866,40.706059]]],[[[-74.150118,40.706142],[-74.149938,40.706169],[-74.149902,40.706087],[-74.150118,40.706142]]],[[[-74.150226,40.706252],[-74.15019,40.706225],[-74.150226,40.706225],[-74.150226,40.706252]]],[[[-74.150189,40.706307],[-74.150154,40.70628],[-74.15019,40.70628],[-74.150189,40.706307]]],[[[-74.149612,40.70636],[-74.149648,40.706333],[-74.149648,40.70636],[-74.149612,40.70636]]],[[[-74.149899,40.706718],[-74.149863,40.70669],[-74.149899,40.706691],[-74.149899,40.706718]]],[[[-74.149862,40.706773],[-74.149826,40.706745],[-74.149863,40.706745],[-74.149862,40.706773]]],[[[-74.149826,40.706828],[-74.14979,40.7068],[-74.149826,40.7068],[-74.149826,40.706828]]],[[[-74.14979,40.706882],[-74.149754,40.706855],[-74.14979,40.706855],[-74.14979,40.706882]]],[[[-74.149573,40.706854],[-74.149609,40.706882],[-74.149573,40.706882],[-74.149573,40.706854]]],[[[-74.149392,40.707101],[-74.149427,40.707156],[-74.149391,40.707156],[-74.149392,40.707101]]],[[[-74.149535,40.707211],[-74.149499,40.707238],[-74.149499,40.707211],[-74.149535,40.707211]]],[[[-74.149355,40.707238],[-74.149391,40.707211],[-74.149391,40.707238],[-74.149355,40.707238]]],[[[-74.149463,40.707293],[-74.149499,40.707266],[-74.149499,40.707293],[-74.149463,40.707293]]],[[[-74.149282,40.707402],[-74.149246,40.707375],[-74.149282,40.707375],[-74.149282,40.707402]]],[[[-74.149281,40.707595],[-74.149245,40.707567],[-74.149281,40.707567],[-74.149281,40.707595]]],[[[-74.149063,40.707868],[-74.149099,40.707841],[-74.149099,40.707868],[-74.149063,40.707868]]],[[[-74.149026,40.708033],[-74.148991,40.707923],[-74.149027,40.707923],[-74.149026,40.708033]]],[[[-74.14899,40.708115],[-74.148845,40.708225],[-74.14899,40.708033],[-74.14899,40.708115]]],[[[-74.149682,40.7068],[-74.149464,40.707074],[-74.149392,40.707101],[-74.149247,40.7071],[-74.149354,40.70732],[-74.149246,40.70732],[-74.149101,40.707512],[-74.148773,40.708169],[-74.148629,40.708032],[-74.14852,40.708196],[-74.148664,40.708361],[-74.148845,40.708225],[-74.149058,40.708911],[-74.147789,40.709978],[-74.147248,40.710086],[-74.146276,40.709617],[-74.145736,40.70945],[-74.146966,40.708823],[-74.147073,40.709098],[-74.147361,40.709126],[-74.14747,40.708962],[-74.147146,40.708768],[-74.147544,40.708577],[-74.148707,40.706907],[-74.148924,40.706962],[-74.149289,40.706112],[-74.149649,40.706278],[-74.14954,40.706387],[-74.149611,40.706498],[-74.149503,40.706552],[-74.1499,40.706471],[-74.149682,40.7068]],[[-74.148883,40.707895],[-74.148847,40.707868],[-74.148846,40.707895],[-74.148883,40.707895]],[[-74.148593,40.708059],[-74.148557,40.708032],[-74.148557,40.708059],[-74.148593,40.708059]],[[-74.148628,40.708361],[-74.148446,40.708498],[-74.148446,40.70858],[-74.148374,40.708607],[-74.148373,40.708662],[-74.148337,40.708662],[-74.148337,40.70869],[-74.148301,40.70869],[-74.148337,40.708745],[-74.148156,40.708771],[-74.148155,40.708964],[-74.148372,40.708964],[-74.148628,40.708361]],[[-74.148518,40.708635],[-74.148554,40.708663],[-74.148554,40.708635],[-74.148518,40.708635]],[[-74.14954,40.706305],[-74.149468,40.706277],[-74.149468,40.706305],[-74.14954,40.706305]],[[-74.149575,40.70658],[-74.149539,40.706607],[-74.149575,40.706607],[-74.149575,40.70658]],[[-74.149827,40.706553],[-74.149792,40.706526],[-74.149791,40.706553],[-74.149827,40.706553]]],[[[-74.148953,40.70817],[-74.148989,40.708198],[-74.148953,40.708197],[-74.148953,40.70817]]],[[[-74.148665,40.708169],[-74.148628,40.708196],[-74.148629,40.708169],[-74.148665,40.708169]]],[[[-74.148701,40.708197],[-74.148664,40.708224],[-74.148665,40.708197],[-74.148701,40.708197]]],[[[-74.1487,40.708224],[-74.148736,40.708252],[-74.1487,40.708252],[-74.1487,40.708224]]],[[[-74.148482,40.708608],[-74.148446,40.708635],[-74.148446,40.708608],[-74.148482,40.708608]]],[[[-74.148373,40.708717],[-74.148337,40.70869],[-74.148373,40.70869],[-74.148373,40.708717]]],[[[-74.148373,40.708745],[-74.148409,40.708717],[-74.148409,40.708745],[-74.148373,40.708745]]],[[[-74.148337,40.708745],[-74.148409,40.708827],[-74.148337,40.708827],[-74.148337,40.708745]]],[[[-74.148337,40.708827],[-74.1483,40.708854],[-74.1483,40.708827],[-74.148337,40.708827]]],[[[-74.145664,40.70934],[-74.145629,40.709313],[-74.145665,40.709313],[-74.145664,40.70934]]],[[[-74.145628,40.70934],[-74.145592,40.709368],[-74.145592,40.70934],[-74.145628,40.70934]]],[[[-74.145736,40.709395],[-74.145664,40.70934],[-74.145808,40.709396],[-74.145736,40.709395]]],[[[-74.145628,40.709368],[-74.145664,40.709395],[-74.145628,40.709395],[-74.145628,40.709368]]],[[[-74.145736,40.709395],[-74.1457,40.709423],[-74.1457,40.709395],[-74.145736,40.709395]]],[[[-74.146168,40.709616],[-74.146096,40.709644],[-74.146096,40.709616],[-74.146168,40.709616]]],[[[-74.14869,40.710283],[-74.148654,40.710255],[-74.14869,40.710255],[-74.14869,40.710283]]],[[[-74.155638,40.712912],[-74.152253,40.711803],[-74.154809,40.712827],[-74.150379,40.711413],[-74.150018,40.711467],[-74.148615,40.710722],[-74.148977,40.710531],[-74.149445,40.710724],[-74.149085,40.710504],[-74.149086,40.710421],[-74.149992,40.709655],[-74.149628,40.710203],[-74.149914,40.710643],[-74.151139,40.710977],[-74.151757,40.710155],[-74.151573,40.710731],[-74.152148,40.711117],[-74.152437,40.711145],[-74.153089,40.710543],[-74.153703,40.710408],[-74.154386,40.710822],[-74.15554,40.711072],[-74.156473,40.711898],[-74.155638,40.712912]],[[-74.149085,40.710586],[-74.149013,40.710613],[-74.149085,40.710613],[-74.149085,40.710586]],[[-74.149373,40.710752],[-74.149336,40.710779],[-74.149372,40.710779],[-74.149373,40.710752]],[[-74.149445,40.710724],[-74.149481,40.710752],[-74.149481,40.710724],[-74.149445,40.710724]],[[-74.149337,40.710642],[-74.149373,40.710614],[-74.149337,40.710614],[-74.149337,40.710642]],[[-74.154846,40.712635],[-74.154918,40.712607],[-74.154846,40.712607],[-74.154846,40.712635]]],[[[-74.146875,40.712281],[-74.146659,40.712363],[-74.146659,40.712281],[-74.146875,40.712281]]],[[[-74.145342,40.715708],[-74.145924,40.714913],[-74.146281,40.715464],[-74.146063,40.715902],[-74.145342,40.715708]]],[[[-74.147968,40.717143],[-74.146095,40.716588],[-74.145593,40.716093],[-74.146314,40.716177],[-74.147968,40.717143]]],[[[-74.15003,40.778061],[-74.150249,40.77765],[-74.150648,40.777294],[-74.15097,40.777762],[-74.150574,40.777679],[-74.150357,40.777733],[-74.150823,40.778338],[-74.15003,40.778061]]],[[[-74.150145,40.776799],[-74.150577,40.77713],[-74.149014,40.778964],[-74.148829,40.779752],[-74.148329,40.779601],[-74.148503,40.77874],[-74.149041,40.777987],[-74.150145,40.776799]]],[[[-74.149047,40.779595],[-74.149046,40.779815],[-74.148974,40.779798],[-74.149047,40.779595]]],[[[-74.149227,40.779623],[-74.150742,40.780095],[-74.150813,40.780205],[-74.14919,40.779866],[-74.149227,40.779623]]],[[[-74.127443,40.697205],[-74.128523,40.697647],[-74.12834,40.698004],[-74.128627,40.698307],[-74.117554,40.694949],[-74.120322,40.69066],[-74.125251,40.68406],[-74.131955,40.673797],[-74.139139,40.677125],[-74.148986,40.682244],[-74.150435,40.683156],[-74.152657,40.685232],[-74.153849,40.685922],[-74.155324,40.686124],[-74.158342,40.686031],[-74.15938,40.686682],[-74.160165,40.687671],[-74.158898,40.689232],[-74.144161,40.680101],[-74.136107,40.689135],[-74.140589,40.693898],[-74.140806,40.693761],[-74.14257,40.694398],[-74.142821,40.694673],[-74.153765,40.69844],[-74.15427,40.698414],[-74.154304,40.698798],[-74.153214,40.700469],[-74.138633,40.695484],[-74.137306,40.694107],[-74.136985,40.693447],[-74.132072,40.688463],[-74.131457,40.688818],[-74.131564,40.688955],[-74.131348,40.688955],[-74.125686,40.695442],[-74.12795,40.696795],[-74.12784,40.697096],[-74.127443,40.697205]],[[-74.127444,40.696985],[-74.127299,40.697122],[-74.127371,40.697177],[-74.127443,40.697177],[-74.127444,40.696985]]],[[[-74.141314,40.693268],[-74.139628,40.691616],[-74.13927,40.691093],[-74.139702,40.691205],[-74.139992,40.690904],[-74.140353,40.690905],[-74.14028,40.691069],[-74.140676,40.691125],[-74.140894,40.690879],[-74.141288,40.691264],[-74.141395,40.691622],[-74.140671,40.692004],[-74.139809,40.691342],[-74.139737,40.691452],[-74.140453,40.692278],[-74.141426,40.692528],[-74.141314,40.693268]]],[[[-74.143415,40.691381],[-74.144574,40.690506],[-74.143963,40.690202],[-74.144467,40.690259],[-74.145835,40.69073],[-74.146877,40.691529],[-74.146404,40.692241],[-74.145792,40.692129],[-74.145794,40.691773],[-74.14547,40.691607],[-74.144524,40.693114],[-74.1442,40.69314],[-74.143185,40.69407],[-74.143224,40.693439],[-74.14366,40.692837],[-74.143301,40.692561],[-74.144455,40.692564],[-74.144385,40.69218],[-74.144927,40.691907],[-74.145182,40.691524],[-74.144967,40.691276],[-74.145329,40.691002],[-74.145222,40.690783],[-74.14432,40.690807],[-74.143194,40.692396],[-74.142869,40.69234],[-74.14345,40.69171],[-74.142585,40.691516],[-74.142732,40.691132],[-74.143415,40.691381]],[[-74.143415,40.691381],[-74.143487,40.691409],[-74.143488,40.691381],[-74.143415,40.691381]]],[[[-74.145593,40.70923],[-74.145556,40.709313],[-74.145449,40.70923],[-74.145593,40.70923]]],[[[-74.139346,40.710391],[-74.139346,40.710364],[-74.139382,40.710364],[-74.139382,40.710391],[-74.139346,40.710391]]],[[[-74.139418,40.710419],[-74.139382,40.710391],[-74.139418,40.710392],[-74.139418,40.710419]]],[[[-74.139418,40.710446],[-74.139454,40.710419],[-74.139454,40.710447],[-74.139418,40.710446]]],[[[-74.139631,40.711024],[-74.139231,40.711571],[-74.139666,40.711326],[-74.139845,40.711491],[-74.139446,40.711874],[-74.138326,40.7122],[-74.137462,40.711923],[-74.137427,40.711758],[-74.138725,40.711734],[-74.139273,40.710611],[-74.134092,40.708096],[-74.139167,40.710226],[-74.139777,40.710804],[-74.142192,40.711086],[-74.142551,40.711472],[-74.143344,40.711612],[-74.144066,40.711367],[-74.144859,40.711479],[-74.143921,40.711558],[-74.141209,40.712813],[-74.14121,40.712593],[-74.143235,40.711721],[-74.142406,40.711526],[-74.142011,40.711196],[-74.140966,40.711055],[-74.140316,40.711053],[-74.140424,40.711218],[-74.13999,40.711436],[-74.140172,40.710998],[-74.139631,40.711024]],[[-74.138905,40.711955],[-74.138833,40.711927],[-74.138833,40.711954],[-74.138905,40.711955]],[[-74.139238,40.710309],[-74.139202,40.710336],[-74.139238,40.710336],[-74.139238,40.710309]],[[-74.139812,40.710942],[-74.139776,40.710914],[-74.139776,40.710942],[-74.139812,40.710942]],[[-74.139776,40.710914],[-74.13974,40.710859],[-74.13974,40.710914],[-74.139776,40.710914]],[[-74.13974,40.710859],[-74.139705,40.710804],[-74.139704,40.710859],[-74.13974,40.710859]],[[-74.139705,40.710804],[-74.139669,40.710749],[-74.139668,40.710804],[-74.139705,40.710804]],[[-74.139669,40.710749],[-74.139633,40.710722],[-74.139633,40.710749],[-74.139669,40.710749]]],[[[-74.139813,40.71075],[-74.139777,40.710777],[-74.139777,40.710749],[-74.139813,40.71075]]],[[[-74.145318,40.713402],[-74.145354,40.713429],[-74.145318,40.713429],[-74.145318,40.713402]]],[[[-74.145282,40.713457],[-74.145318,40.713484],[-74.145282,40.713484],[-74.145282,40.713457]]],[[[-74.145172,40.713676],[-74.145209,40.713621],[-74.145209,40.713676],[-74.145172,40.713676]]],[[[-74.144956,40.713758],[-74.144992,40.713785],[-74.144955,40.713785],[-74.144956,40.713758]]],[[[-74.145064,40.713785],[-74.1451,40.713813],[-74.145064,40.713813],[-74.145064,40.713785]]],[[[-74.145028,40.713785],[-74.144991,40.71384],[-74.144992,40.713785],[-74.145028,40.713785]]],[[[-74.145027,40.713868],[-74.145063,40.71384],[-74.145063,40.713868],[-74.145027,40.713868]]],[[[-74.144991,40.71384],[-74.144955,40.713867],[-74.144955,40.71384],[-74.144991,40.71384]]],[[[-74.144955,40.713922],[-74.145027,40.713895],[-74.145027,40.71395],[-74.144955,40.713922]]],[[[-74.144918,40.713977],[-74.144991,40.71395],[-74.14499,40.714005],[-74.144918,40.713977]]],[[[-74.144773,40.714141],[-74.144737,40.714114],[-74.144773,40.714114],[-74.144773,40.714141]]],[[[-74.147885,40.712367],[-74.148929,40.712836],[-74.148352,40.712725],[-74.14799,40.712943],[-74.146433,40.714092],[-74.145996,40.714831],[-74.145816,40.714721],[-74.146253,40.714009],[-74.147992,40.712696],[-74.146983,40.712446],[-74.146332,40.712636],[-74.145969,40.713074],[-74.145717,40.712991],[-74.145245,40.713621],[-74.145137,40.713539],[-74.145136,40.713786],[-74.145064,40.713758],[-74.145064,40.713785],[-74.145028,40.713785],[-74.144992,40.71373],[-74.144956,40.71373],[-74.144956,40.713758],[-74.14492,40.713757],[-74.144484,40.714305],[-74.1447,40.714333],[-74.144737,40.714169],[-74.144954,40.714005],[-74.144843,40.714581],[-74.144447,40.71447],[-74.143501,40.715977],[-74.143644,40.716142],[-74.144043,40.715786],[-74.145087,40.716174],[-74.145085,40.716613],[-74.144652,40.716529],[-74.144543,40.716694],[-74.144939,40.716859],[-74.144865,40.717216],[-74.144648,40.71727],[-74.14447,40.716913],[-74.143998,40.717433],[-74.143529,40.717377],[-74.143676,40.71702],[-74.143026,40.717101],[-74.143208,40.716689],[-74.143643,40.716389],[-74.143355,40.716168],[-74.143101,40.716552],[-74.1431,40.716717],[-74.143028,40.716689],[-74.142992,40.716716],[-74.142882,40.717018],[-74.14281,40.71699],[-74.142701,40.717127],[-74.1427,40.717292],[-74.142628,40.717264],[-74.142555,40.717346],[-74.142555,40.717511],[-74.142483,40.717483],[-74.142446,40.717511],[-74.142265,40.717757],[-74.143139,40.71625],[-74.141721,40.718195],[-74.141469,40.718084],[-74.145032,40.713044],[-74.146406,40.712335],[-74.146658,40.71239],[-74.147885,40.712367]],[[-74.145245,40.713566],[-74.145209,40.713539],[-74.145209,40.713566],[-74.145245,40.713566]],[[-74.144773,40.714224],[-74.144809,40.714196],[-74.144773,40.714196],[-74.144773,40.714224]],[[-74.144447,40.71447],[-74.144411,40.714442],[-74.144411,40.71447],[-74.144447,40.71447]],[[-74.143639,40.71702],[-74.143604,40.716993],[-74.143603,40.71702],[-74.143639,40.71702]],[[-74.14357,40.716471],[-74.143606,40.716581],[-74.143606,40.716471],[-74.14357,40.716471]],[[-74.1431,40.716662],[-74.143064,40.716634],[-74.143064,40.716661],[-74.1431,40.716662]],[[-74.142919,40.716908],[-74.142883,40.716881],[-74.142882,40.716908],[-74.142919,40.716908]],[[-74.142882,40.716963],[-74.142846,40.716935],[-74.142846,40.716963],[-74.142882,40.716963]],[[-74.1427,40.717237],[-74.142664,40.717209],[-74.142664,40.717237],[-74.1427,40.717237]],[[-74.142555,40.717456],[-74.142519,40.717428],[-74.142519,40.717456],[-74.142555,40.717456]],[[-74.142957,40.716414],[-74.142921,40.716387],[-74.142921,40.716414],[-74.142957,40.716414]]],[[[-74.143719,40.71573],[-74.143898,40.715813],[-74.143609,40.715922],[-74.143719,40.71573]]],[[[-74.143573,40.715977],[-74.143609,40.715949],[-74.143609,40.715977],[-74.143573,40.715977]]],[[[-74.143537,40.715977],[-74.143573,40.716004],[-74.143537,40.716004],[-74.143537,40.715977]]],[[[-74.143282,40.716333],[-74.143318,40.71636],[-74.143282,40.71636],[-74.143282,40.716333]]],[[[-74.143246,40.716415],[-74.143282,40.716388],[-74.143282,40.716415],[-74.143246,40.716415]]],[[[-74.14321,40.716442],[-74.143246,40.71647],[-74.143209,40.71647],[-74.14321,40.716442]]],[[[-74.143173,40.716497],[-74.143209,40.716525],[-74.143173,40.716525],[-74.143173,40.716497]]],[[[-74.143137,40.716579],[-74.143173,40.716552],[-74.143173,40.716579],[-74.143137,40.716579]]],[[[-74.143028,40.716716],[-74.143064,40.716744],[-74.143028,40.716744],[-74.143028,40.716716]]],[[[-74.142991,40.716771],[-74.143027,40.716799],[-74.142991,40.716799],[-74.142991,40.716771]]],[[[-74.142955,40.716853],[-74.142991,40.716826],[-74.142991,40.716853],[-74.142955,40.716853]]],[[[-74.14281,40.717018],[-74.142846,40.717045],[-74.14281,40.717045],[-74.14281,40.717018]]],[[[-74.142773,40.717072],[-74.142809,40.7171],[-74.142773,40.7171],[-74.142773,40.717072]]],[[[-74.142737,40.717127],[-74.142773,40.717155],[-74.142737,40.717155],[-74.142737,40.717127]]],[[[-74.142628,40.717319],[-74.142664,40.717292],[-74.142664,40.717319],[-74.142628,40.717319]]],[[[-74.142592,40.717346],[-74.142627,40.717374],[-74.142591,40.717374],[-74.142592,40.717346]]],[[[-74.142338,40.717455],[-74.142302,40.717428],[-74.142339,40.717428],[-74.142338,40.717455]]],[[[-74.142302,40.717483],[-74.142266,40.717537],[-74.142266,40.717483],[-74.142302,40.717483]]],[[[-74.142482,40.717511],[-74.142518,40.717538],[-74.142482,40.717538],[-74.142482,40.717511]]],[[[-74.142266,40.717537],[-74.142229,40.717592],[-74.14223,40.717537],[-74.142266,40.717537]]],[[[-74.142446,40.717565],[-74.142482,40.717593],[-74.142446,40.717593],[-74.142446,40.717565]]],[[[-74.142337,40.717757],[-74.142373,40.71773],[-74.142373,40.717757],[-74.142337,40.717757]]],[[[-74.142084,40.717839],[-74.142048,40.717811],[-74.142229,40.71762],[-74.142084,40.717839]]],[[[-74.142301,40.717757],[-74.142337,40.717785],[-74.142301,40.717785],[-74.142301,40.717757]]],[[[-74.142265,40.717757],[-74.142228,40.717784],[-74.142229,40.717757],[-74.142265,40.717757]]],[[[-74.142192,40.717839],[-74.142228,40.717812],[-74.142228,40.717839],[-74.142192,40.717839]]],[[[-74.142192,40.717894],[-74.142156,40.717866],[-74.142192,40.717867],[-74.142192,40.717894]]],[[[-74.142047,40.717894],[-74.142011,40.717921],[-74.142011,40.717893],[-74.142047,40.717894]]],[[[-74.142119,40.717921],[-74.142155,40.717949],[-74.142119,40.717949],[-74.142119,40.717921]]],[[[-74.142119,40.717949],[-74.142083,40.718004],[-74.142083,40.717949],[-74.142119,40.717949]]],[[[-74.142083,40.718004],[-74.142047,40.718058],[-74.142047,40.718003],[-74.142083,40.718004]]],[[[-74.142083,40.718058],[-74.142119,40.718086],[-74.142082,40.718086],[-74.142083,40.718058]]],[[[-74.142047,40.718058],[-74.14201,40.718113],[-74.14201,40.718058],[-74.142047,40.718058]]],[[[-74.141757,40.71825],[-74.142011,40.717948],[-74.141865,40.718222],[-74.141757,40.71825]]],[[[-74.142046,40.718113],[-74.142082,40.718141],[-74.142046,40.718141],[-74.142046,40.718113]]],[[[-74.141974,40.718113],[-74.14201,40.718141],[-74.141974,40.71814],[-74.141974,40.718113]]],[[[-74.141793,40.718277],[-74.141757,40.718304],[-74.141757,40.718277],[-74.141793,40.718277]]],[[[-74.141757,40.718304],[-74.14172,40.718332],[-74.141721,40.718304],[-74.141757,40.718304]]],[[[-74.143874,40.720397],[-74.143694,40.720287],[-74.143405,40.720478],[-74.143692,40.720644],[-74.143583,40.720918],[-74.143116,40.720395],[-74.142575,40.720393],[-74.14254,40.720228],[-74.142069,40.720556],[-74.141096,40.720334],[-74.140806,40.72058],[-74.1411,40.719565],[-74.141966,40.719568],[-74.142148,40.719294],[-74.141755,40.718661],[-74.143661,40.719765],[-74.14431,40.719822],[-74.144746,40.719302],[-74.144851,40.719824],[-74.146221,40.72013],[-74.146003,40.720294],[-74.145427,40.720127],[-74.145137,40.720429],[-74.144633,40.720207],[-74.144378,40.720591],[-74.144774,40.720839],[-74.144088,40.720782],[-74.143943,40.721029],[-74.14369,40.721001],[-74.143874,40.720397]]],[[[-74.136005,40.734372],[-74.135105,40.734013],[-74.13561,40.733987],[-74.135432,40.733574],[-74.13565,40.733301],[-74.136406,40.73355],[-74.136477,40.733825],[-74.137126,40.733909],[-74.13705,40.734677],[-74.135859,40.734701],[-74.136005,40.734372]]],[[[-74.137234,40.733909],[-74.138282,40.733776],[-74.138316,40.734078],[-74.137701,40.734268],[-74.137233,40.734157],[-74.137234,40.733909]]],[[[-74.1604,40.734145],[-74.161371,40.734944],[-74.161948,40.734945],[-74.162235,40.735275],[-74.161438,40.735822],[-74.160184,40.73481],[-74.158448,40.734014],[-74.15732,40.733745],[-74.155351,40.733699],[-74.155354,40.733087],[-74.155101,40.733113],[-74.15517,40.733696],[-74.15036,40.733746],[-74.147719,40.734073],[-74.146356,40.734662],[-74.145141,40.735632],[-74.142001,40.73941],[-74.139754,40.740681],[-74.135339,40.741671],[-74.128166,40.742211],[-74.123114,40.742143],[-74.123666,40.740344],[-74.124244,40.740127],[-74.124282,40.739907],[-74.124968,40.739854],[-74.124858,40.740156],[-74.12511,40.740294],[-74.124749,40.740293],[-74.124457,40.740868],[-74.124852,40.741089],[-74.126367,40.741231],[-74.126624,40.740601],[-74.127092,40.740767],[-74.127454,40.740631],[-74.128,40.739645],[-74.128215,40.739947],[-74.127889,40.740276],[-74.127811,40.741181],[-74.12727,40.741262],[-74.126946,40.740959],[-74.126837,40.741233],[-74.127666,40.7414],[-74.128425,40.741073],[-74.13023,40.741107],[-74.130376,40.740778],[-74.130374,40.74108],[-74.130735,40.741108],[-74.13128,40.740506],[-74.131247,40.739875],[-74.131793,40.739108],[-74.131795,40.738723],[-74.131362,40.738612],[-74.131509,40.738283],[-74.1314,40.738256],[-74.131292,40.738283],[-74.130572,40.737896],[-74.130391,40.738088],[-74.129961,40.737592],[-74.129561,40.73803],[-74.128948,40.737946],[-74.129053,40.738523],[-74.128691,40.738686],[-74.128942,40.739016],[-74.129231,40.739017],[-74.129193,40.739319],[-74.13013,40.739569],[-74.129946,40.740282],[-74.129583,40.740583],[-74.129297,40.740143],[-74.12955,40.740116],[-74.12966,40.739677],[-74.129156,40.739456],[-74.127605,40.739369],[-74.127603,40.739643],[-74.126915,40.740163],[-74.127574,40.738353],[-74.126958,40.7389],[-74.127027,40.739477],[-74.126448,40.739804],[-74.126196,40.739556],[-74.125904,40.740132],[-74.125218,40.740322],[-74.12576,40.740077],[-74.126272,40.739008],[-74.127322,40.73838],[-74.12765,40.737832],[-74.127184,40.737226],[-74.126174,40.737196],[-74.126248,40.736866],[-74.124768,40.736834],[-74.124152,40.737354],[-74.1247,40.736038],[-74.12477,40.73656],[-74.125455,40.736672],[-74.126249,40.736619],[-74.126507,40.735714],[-74.12694,40.735633],[-74.127841,40.735801],[-74.127765,40.736542],[-74.128561,40.736243],[-74.128776,40.736463],[-74.129605,40.736575],[-74.129786,40.736521],[-74.129751,40.736411],[-74.130003,40.736439],[-74.130437,40.736249],[-74.130437,40.736304],[-74.130003,40.736467],[-74.129966,40.736522],[-74.130002,40.736549],[-74.129858,40.736604],[-74.129677,40.736576],[-74.129063,40.736683],[-74.129099,40.736821],[-74.130395,40.737264],[-74.13061,40.737677],[-74.131689,40.738284],[-74.132915,40.738453],[-74.133205,40.738234],[-74.133136,40.73774],[-74.133352,40.737713],[-74.133673,40.738427],[-74.13425,40.738594],[-74.134467,40.738375],[-74.134574,40.73865],[-74.134899,40.738624],[-74.134607,40.739309],[-74.134967,40.739392],[-74.134642,40.739446],[-74.134494,40.740159],[-74.134132,40.740241],[-74.133954,40.739883],[-74.13352,40.740074],[-74.133557,40.739772],[-74.134135,40.739664],[-74.134103,40.73906],[-74.133306,40.739497],[-74.132903,40.740566],[-74.132938,40.740896],[-74.133299,40.740869],[-74.133554,40.740431],[-74.133841,40.740651],[-74.134204,40.740296],[-74.134529,40.740352],[-74.134778,40.740874],[-74.138535,40.740309],[-74.140633,40.73941],[-74.142338,40.737796],[-74.142377,40.73722],[-74.141876,40.736504],[-74.142345,40.736396],[-74.142709,40.735903],[-74.143101,40.736755],[-74.144954,40.734428],[-74.146546,40.733582],[-74.148281,40.733038],[-74.149906,40.732851],[-74.152358,40.733133],[-74.157087,40.732927],[-74.157988,40.733149],[-74.158277,40.73304],[-74.159609,40.733648],[-74.160187,40.733568],[-74.1604,40.734145]],[[-74.131508,40.738421],[-74.131544,40.738476],[-74.131616,40.738503],[-74.131508,40.738421]],[[-74.131508,40.738311],[-74.131544,40.738338],[-74.131544,40.738311],[-74.131508,40.738311]],[[-74.131544,40.738338],[-74.131616,40.738393],[-74.131616,40.738339],[-74.131544,40.738338]],[[-74.131256,40.7382],[-74.131293,40.738173],[-74.131257,40.738173],[-74.131256,40.7382]],[[-74.131112,40.738117],[-74.131149,40.73809],[-74.131113,40.73809],[-74.131112,40.738117]],[[-74.128691,40.738686],[-74.128656,40.738631],[-74.128655,40.738686],[-74.128691,40.738686]],[[-74.129786,40.736494],[-74.129822,40.736466],[-74.129786,40.736466],[-74.129786,40.736494]],[[-74.129895,40.736439],[-74.129859,40.736466],[-74.129895,40.736466],[-74.129895,40.736439]],[[-74.12993,40.736549],[-74.129894,40.736521],[-74.129894,40.736549],[-74.12993,40.736549]],[[-74.129858,40.736576],[-74.129822,40.736549],[-74.129822,40.736576],[-74.129858,40.736576]],[[-74.129063,40.736683],[-74.128991,40.736656],[-74.128991,40.736683],[-74.129063,40.736683]],[[-74.129099,40.736821],[-74.129062,40.736848],[-74.129099,40.736848],[-74.129099,40.736821]],[[-74.13061,40.737677],[-74.130573,40.737704],[-74.13061,40.737704],[-74.13061,40.737677]],[[-74.130754,40.737759],[-74.130717,40.737787],[-74.130753,40.737787],[-74.130754,40.737759]],[[-74.130753,40.737787],[-74.130789,40.737814],[-74.13079,40.737787],[-74.130753,40.737787]],[[-74.131329,40.738091],[-74.131293,40.738118],[-74.131329,40.738118],[-74.131329,40.738091]],[[-74.160149,40.733924],[-74.160113,40.733952],[-74.160149,40.733952],[-74.160149,40.733924]]],[[[-74.136497,40.696959],[-74.136058,40.698083],[-74.136381,40.698386],[-74.136743,40.698223],[-74.13634,40.699264],[-74.135117,40.698794],[-74.134904,40.698162],[-74.134721,40.698518],[-74.134289,40.698489],[-74.134399,40.698133],[-74.134147,40.69794],[-74.132852,40.697359],[-74.132745,40.697085],[-74.132385,40.697111],[-74.132968,40.695987],[-74.135253,40.693524],[-74.135578,40.693498],[-74.135503,40.694129],[-74.135395,40.694019],[-74.135286,40.694101],[-74.136724,40.694983],[-74.136507,40.695175],[-74.136648,40.695669],[-74.137119,40.695287],[-74.135991,40.69726],[-74.136207,40.697315],[-74.136209,40.696931],[-74.136497,40.696959]],[[-74.135918,40.697259],[-74.135446,40.697917],[-74.135373,40.698109],[-74.135951,40.697808],[-74.135918,40.697259]]],[[[-74.132689,40.707406],[-74.133301,40.707627],[-74.13301,40.708011],[-74.132689,40.707406]]],[[[-74.132612,40.708201],[-74.132579,40.70768],[-74.132363,40.707624],[-74.132472,40.707432],[-74.132687,40.707653],[-74.132793,40.708202],[-74.132792,40.708284],[-74.132756,40.708284],[-74.132756,40.708394],[-74.132683,40.708394],[-74.132612,40.708201]]],[[[-74.132794,40.70801],[-74.132758,40.707982],[-74.132794,40.707982],[-74.132794,40.70801]]],[[[-74.132866,40.708038],[-74.13283,40.70801],[-74.132866,40.70801],[-74.132866,40.708038]]],[[[-74.1329,40.708285],[-74.132829,40.708065],[-74.132974,40.708038],[-74.1329,40.708285]]],[[[-74.132828,40.708339],[-74.132792,40.708284],[-74.132828,40.708285],[-74.132828,40.708339]]],[[[-74.132864,40.70834],[-74.132828,40.708367],[-74.132828,40.708339],[-74.132864,40.70834]]],[[[-74.132575,40.708339],[-74.132647,40.708449],[-74.132575,40.708448],[-74.132575,40.708339]]],[[[-74.132536,40.708887],[-74.132572,40.708915],[-74.132536,40.708915],[-74.132536,40.708887]]],[[[-74.1325,40.70897],[-74.132536,40.708997],[-74.1325,40.708997],[-74.1325,40.70897]]],[[[-74.132463,40.709025],[-74.132499,40.709052],[-74.132463,40.709052],[-74.132463,40.709025]]],[[[-74.132427,40.709079],[-74.132463,40.709107],[-74.132427,40.709107],[-74.132427,40.709079]]],[[[-74.132391,40.709134],[-74.132427,40.709162],[-74.132391,40.709162],[-74.132391,40.709134]]],[[[-74.132318,40.709299],[-74.132354,40.709271],[-74.132354,40.709299],[-74.132318,40.709299]]],[[[-74.132281,40.709326],[-74.132317,40.709353],[-74.132281,40.709353],[-74.132281,40.709326]]],[[[-74.132245,40.709381],[-74.132281,40.709408],[-74.132245,40.709408],[-74.132245,40.709381]]],[[[-74.134441,40.710129],[-74.132748,40.709684],[-74.133295,40.708698],[-74.135852,40.709529],[-74.135633,40.709995],[-74.134441,40.710129]]],[[[-74.132209,40.709463],[-74.132244,40.70949],[-74.132208,40.70949],[-74.132209,40.709463]]],[[[-74.132172,40.709518],[-74.132208,40.709545],[-74.132172,40.709545],[-74.132172,40.709518]]],[[[-74.132136,40.7096],[-74.132172,40.709573],[-74.132172,40.7096],[-74.132136,40.7096]]],[[[-74.132099,40.709627],[-74.132135,40.709655],[-74.132099,40.709655],[-74.132099,40.709627]]],[[[-74.132027,40.709764],[-74.132062,40.709792],[-74.132026,40.709792],[-74.132027,40.709764]]],[[[-74.131954,40.709874],[-74.13199,40.709901],[-74.131954,40.709901],[-74.131954,40.709874]]],[[[-74.131771,40.710258],[-74.131735,40.710285],[-74.131735,40.710257],[-74.131771,40.710258]]],[[[-74.134613,40.711694],[-74.132417,40.710946],[-74.131982,40.711219],[-74.132639,40.709821],[-74.134944,40.710624],[-74.13505,40.710899],[-74.134613,40.711694]]],[[[-74.132539,40.708476],[-74.132645,40.708805],[-74.132537,40.708778],[-74.132536,40.708887],[-74.1325,40.70897],[-74.132464,40.70897],[-74.132463,40.709025],[-74.132427,40.709024],[-74.132427,40.709079],[-74.132391,40.709079],[-74.132391,40.709134],[-74.132355,40.709134],[-74.132354,40.709189],[-74.132318,40.709189],[-74.132318,40.709271],[-74.132282,40.709271],[-74.132281,40.709326],[-74.132245,40.709326],[-74.132245,40.709381],[-74.132209,40.709381],[-74.132209,40.709463],[-74.132172,40.709463],[-74.132172,40.709518],[-74.132136,40.709518],[-74.132136,40.709572],[-74.1321,40.709572],[-74.132099,40.709627],[-74.132063,40.709627],[-74.132063,40.709682],[-74.132027,40.709682],[-74.132027,40.709764],[-74.131954,40.709791],[-74.131954,40.709874],[-74.131917,40.709929],[-74.131701,40.71001],[-74.131807,40.710258],[-74.131699,40.710257],[-74.131698,40.710449],[-74.131043,40.711491],[-74.131222,40.711793],[-74.130601,40.713109],[-74.134311,40.714191],[-74.13431,40.714383],[-74.130311,40.713355],[-74.129841,40.713545],[-74.129331,40.714422],[-74.129259,40.714395],[-74.129295,40.714504],[-74.12904,40.71486],[-74.129004,40.714805],[-74.128896,40.714805],[-74.12977,40.713353],[-74.129516,40.713682],[-74.12959,40.713325],[-74.129084,40.713406],[-74.128758,40.713789],[-74.128796,40.71335],[-74.128147,40.713348],[-74.127678,40.713374],[-74.127711,40.713841],[-74.127278,40.713949],[-74.127203,40.71447],[-74.12612,40.714577],[-74.125834,40.714054],[-74.126522,40.713562],[-74.125981,40.713533],[-74.12591,40.713286],[-74.126886,40.713069],[-74.126453,40.712958],[-74.126527,40.712766],[-74.129556,40.712858],[-74.130172,40.712503],[-74.130609,40.711764],[-74.129454,40.711732],[-74.128844,40.711236],[-74.127943,40.711069],[-74.128125,40.71085],[-74.129641,40.710608],[-74.127442,40.710326],[-74.12748,40.709969],[-74.127804,40.710108],[-74.128166,40.709862],[-74.128959,40.709947],[-74.129034,40.709535],[-74.129395,40.709481],[-74.129644,40.710031],[-74.130618,40.710144],[-74.131593,40.70979],[-74.132108,40.708118],[-74.13254,40.708201],[-74.132576,40.708229],[-74.132575,40.708339],[-74.132539,40.708338],[-74.132539,40.708476]],[[-74.132537,40.708778],[-74.132321,40.708695],[-74.132284,40.708777],[-74.132537,40.708778]],[[-74.132537,40.708695],[-74.132574,40.708641],[-74.132538,40.70864],[-74.132537,40.708695]],[[-74.132501,40.708778],[-74.132465,40.708832],[-74.132501,40.708832],[-74.132501,40.708778]],[[-74.132465,40.708832],[-74.132428,40.708887],[-74.132464,40.708887],[-74.132465,40.708832]],[[-74.132428,40.708887],[-74.132392,40.708942],[-74.132428,40.708942],[-74.132428,40.708887]],[[-74.132392,40.708942],[-74.132355,40.709024],[-74.132391,40.709024],[-74.132392,40.708942]],[[-74.132355,40.709024],[-74.132319,40.709052],[-74.132355,40.709052],[-74.132355,40.709024]],[[-74.131699,40.710367],[-74.131663,40.71034],[-74.131662,40.710367],[-74.131699,40.710367]],[[-74.13148,40.710723],[-74.131444,40.710696],[-74.131444,40.710723],[-74.13148,40.710723]],[[-74.131444,40.710778],[-74.131408,40.710751],[-74.131408,40.710778],[-74.131444,40.710778]],[[-74.131152,40.711271],[-74.131117,40.711244],[-74.131116,40.711271],[-74.131152,40.711271]],[[-74.129586,40.713956],[-74.12955,40.713929],[-74.12955,40.713956],[-74.129586,40.713956]],[[-74.129477,40.714148],[-74.129441,40.714121],[-74.129441,40.714148],[-74.129477,40.714148]],[[-74.129441,40.714203],[-74.129405,40.714175],[-74.129405,40.714203],[-74.129441,40.714203]],[[-74.129404,40.714258],[-74.129368,40.71423],[-74.129368,40.714258],[-74.129404,40.714258]],[[-74.129368,40.714313],[-74.129332,40.714285],[-74.129332,40.714312],[-74.129368,40.714313]],[[-74.129332,40.714367],[-74.129296,40.71434],[-74.129295,40.714367],[-74.129332,40.714367]],[[-74.129259,40.714504],[-74.129223,40.714477],[-74.129223,40.714504],[-74.129259,40.714504]],[[-74.129222,40.714559],[-74.129186,40.714532],[-74.129186,40.714559],[-74.129222,40.714559]],[[-74.129186,40.714614],[-74.12915,40.714586],[-74.12915,40.714614],[-74.129186,40.714614]],[[-74.129077,40.714806],[-74.129041,40.714778],[-74.129041,40.714806],[-74.129077,40.714806]],[[-74.132284,40.708804],[-74.132212,40.708832],[-74.132284,40.708887],[-74.132284,40.708804]]],[[[-74.133591,40.713832],[-74.131574,40.713359],[-74.131903,40.712564],[-74.133055,40.712952],[-74.133596,40.712953],[-74.131976,40.712454],[-74.132304,40.711714],[-74.134286,40.71216],[-74.133993,40.712982],[-74.133632,40.712981],[-74.133883,40.713229],[-74.133591,40.713832]]],[[[-74.12948,40.713682],[-74.129443,40.713764],[-74.129444,40.713681],[-74.12948,40.713682]]],[[[-74.129443,40.713764],[-74.129407,40.713819],[-74.129407,40.713764],[-74.129443,40.713764]]],[[[-74.129407,40.713819],[-74.12937,40.713873],[-74.129371,40.713818],[-74.129407,40.713819]]],[[[-74.12937,40.713873],[-74.129334,40.713928],[-74.129334,40.713873],[-74.12937,40.713873]]],[[[-74.12901,40.713872],[-74.129081,40.713927],[-74.129009,40.713955],[-74.12901,40.713872]]],[[[-74.129334,40.713928],[-74.129261,40.714065],[-74.129298,40.713928],[-74.129334,40.713928]]],[[[-74.129225,40.714065],[-74.129261,40.71412],[-74.129225,40.71412],[-74.129225,40.714065]]],[[[-74.129225,40.71412],[-74.129188,40.714175],[-74.129189,40.71412],[-74.129225,40.71412]]],[[[-74.129188,40.714257],[-74.128934,40.714421],[-74.129116,40.714147],[-74.129188,40.714257]]],[[[-74.128862,40.714421],[-74.128898,40.714448],[-74.128862,40.714448],[-74.128862,40.714421]]],[[[-74.129006,40.714476],[-74.12897,40.714558],[-74.12897,40.714476],[-74.129006,40.714476]]],[[[-74.128898,40.714531],[-74.128862,40.714558],[-74.128862,40.71453],[-74.128898,40.714531]]],[[[-74.12897,40.714558],[-74.128933,40.714613],[-74.128934,40.714558],[-74.12897,40.714558]]],[[[-74.128897,40.714613],[-74.128933,40.714668],[-74.128897,40.714668],[-74.128897,40.714613]]],[[[-74.128897,40.714668],[-74.128861,40.714723],[-74.128861,40.714668],[-74.128897,40.714668]]],[[[-74.129004,40.714833],[-74.128968,40.71486],[-74.128968,40.714833],[-74.129004,40.714833]]],[[[-74.12904,40.71486],[-74.129004,40.714888],[-74.129004,40.71486],[-74.12904,40.71486]]],[[[-74.128932,40.714888],[-74.12886,40.71486],[-74.128932,40.71486],[-74.128932,40.714888]]],[[[-74.129004,40.714915],[-74.128932,40.714942],[-74.128932,40.714915],[-74.129004,40.714915]]],[[[-74.128931,40.714997],[-74.128895,40.71497],[-74.128931,40.71497],[-74.128931,40.714997]]],[[[-74.128967,40.714997],[-74.128931,40.715025],[-74.128931,40.714997],[-74.128967,40.714997]]],[[[-74.132825,40.721955],[-74.131314,40.721154],[-74.133115,40.721736],[-74.133625,40.720914],[-74.132565,40.723299],[-74.131984,40.723983],[-74.132825,40.721955]]],[[[-74.131185,40.724969],[-74.129201,40.724908],[-74.129022,40.724688],[-74.129134,40.724029],[-74.129859,40.723318],[-74.130037,40.723867],[-74.130542,40.723896],[-74.130795,40.723678],[-74.130937,40.724117],[-74.13119,40.724146],[-74.130826,40.724721],[-74.131185,40.724969]]],[[[-74.132867,40.727445],[-74.132182,40.727443],[-74.132978,40.727061],[-74.133699,40.7272],[-74.133696,40.727585],[-74.133154,40.727803],[-74.132902,40.727774],[-74.132867,40.727445]]],[[[-74.133161,40.733018],[-74.133018,40.732908],[-74.132402,40.733235],[-74.132039,40.733728],[-74.131607,40.733535],[-74.130487,40.733723],[-74.131609,40.733233],[-74.131502,40.733013],[-74.132513,40.732879],[-74.132514,40.732604],[-74.133055,40.732661],[-74.132559,40.731095],[-74.132812,40.730903],[-74.13328,40.731179],[-74.133062,40.731343],[-74.133199,40.732716],[-74.13338,40.732689],[-74.133161,40.733018]],[[-74.133163,40.732799],[-74.133091,40.732743],[-74.133054,40.732798],[-74.133163,40.732799]]],[[[-74.133548,40.734831],[-74.13362,40.734886],[-74.133548,40.734886],[-74.133548,40.734831]]],[[[-74.13481,40.735082],[-74.135891,40.735333],[-74.135242,40.735358],[-74.134803,40.73629],[-74.134516,40.736042],[-74.133938,40.736232],[-74.133796,40.735765],[-74.133542,40.735929],[-74.133292,40.735462],[-74.133512,40.734941],[-74.134307,40.734751],[-74.134667,40.734835],[-74.133873,40.734942],[-74.133872,40.735134],[-74.13481,40.735082]],[[-74.133873,40.734942],[-74.133837,40.734914],[-74.133837,40.734942],[-74.133873,40.734942]]],[[[-74.130112,40.73633],[-74.130076,40.736357],[-74.130076,40.73633],[-74.130112,40.73633]]],[[[-74.13022,40.736413],[-74.130256,40.73644],[-74.13022,40.73644],[-74.13022,40.736413]]],[[[-74.130147,40.73644],[-74.130183,40.736467],[-74.130147,40.736467],[-74.130147,40.73644]]],[[[-74.130075,40.736467],[-74.130111,40.736495],[-74.130075,40.736495],[-74.130075,40.736467]]],[[[-74.130003,40.736522],[-74.130039,40.736494],[-74.130039,40.736522],[-74.130003,40.736522]]],[[[-74.129714,40.736493],[-74.129678,40.736521],[-74.129678,40.736493],[-74.129714,40.736493]]],[[[-74.129533,40.73663],[-74.129569,40.736658],[-74.129533,40.736657],[-74.129533,40.73663]]],[[[-74.1314,40.73831],[-74.131436,40.738283],[-74.131436,40.738311],[-74.1314,40.73831]]],[[[-74.127473,40.698358],[-74.131685,40.699771],[-74.126463,40.698327],[-74.126204,40.699452],[-74.127824,40.700088],[-74.125663,40.69956],[-74.125445,40.699779],[-74.12458,40.699721],[-74.124289,40.700104],[-74.123281,40.699772],[-74.12252,40.700483],[-74.116046,40.697297],[-74.117428,40.695143],[-74.125205,40.6975],[-74.12542,40.697747],[-74.125565,40.69761],[-74.128158,40.698442],[-74.127473,40.698358]],[[-74.125025,40.697499],[-74.124953,40.697554],[-74.125024,40.697581],[-74.125025,40.697499]],[[-74.125528,40.697748],[-74.1256,40.697775],[-74.125601,40.697748],[-74.125528,40.697748]],[[-74.125709,40.697776],[-74.125672,40.69783],[-74.125781,40.697831],[-74.125709,40.697776]],[[-74.125781,40.697831],[-74.125852,40.697858],[-74.125853,40.697831],[-74.125781,40.697831]],[[-74.127473,40.698358],[-74.127437,40.69833],[-74.127437,40.698358],[-74.127473,40.698358]]],[[[-74.128098,40.709148],[-74.128784,40.70904],[-74.129107,40.709343],[-74.12878,40.709699],[-74.128275,40.70978],[-74.127951,40.709559],[-74.128098,40.709148]]],[[[-74.128862,40.714558],[-74.128825,40.714613],[-74.128825,40.714558],[-74.128862,40.714558]]],[[[-74.128608,40.714777],[-74.12846,40.715325],[-74.12828,40.715407],[-74.128649,40.713816],[-74.128902,40.713817],[-74.129008,40.714174],[-74.128863,40.714338],[-74.128862,40.714421],[-74.128826,40.714448],[-74.128862,40.714503],[-74.128608,40.714777]]],[[[-74.128825,40.714613],[-74.128789,40.714668],[-74.128789,40.714613],[-74.128825,40.714613]]],[[[-74.12868,40.71475],[-74.128789,40.714668],[-74.12868,40.714832],[-74.12868,40.71475]]],[[[-74.128788,40.714777],[-74.12886,40.714805],[-74.128788,40.71486],[-74.128788,40.714777]]],[[[-74.128788,40.71486],[-74.128715,40.714942],[-74.128715,40.714887],[-74.128788,40.71486]]],[[[-74.128859,40.71497],[-74.128823,40.714915],[-74.12886,40.714915],[-74.128859,40.71497]]],[[[-74.128787,40.714997],[-74.128823,40.715024],[-74.128787,40.715024],[-74.128787,40.714997]]],[[[-74.128787,40.715024],[-74.12875,40.715079],[-74.128751,40.715024],[-74.128787,40.715024]]],[[[-74.128495,40.715518],[-74.128205,40.715901],[-74.128166,40.716395],[-74.12689,40.718806],[-74.126673,40.718833],[-74.126163,40.719792],[-74.125908,40.720121],[-74.1258,40.720148],[-74.125832,40.720779],[-74.125686,40.721218],[-74.125213,40.721793],[-74.12507,40.721628],[-74.124744,40.721929],[-74.124814,40.722176],[-74.124995,40.722094],[-74.124776,40.722643],[-74.124559,40.722724],[-74.124453,40.722285],[-74.12438,40.722477],[-74.12402,40.722366],[-74.123913,40.722008],[-74.124454,40.72212],[-74.124528,40.721846],[-74.123953,40.721322],[-74.123916,40.721569],[-74.123483,40.721513],[-74.123776,40.720828],[-74.123164,40.720524],[-74.122766,40.720797],[-74.122655,40.721181],[-74.122946,40.720797],[-74.123235,40.720798],[-74.123087,40.721319],[-74.122726,40.721483],[-74.123337,40.721897],[-74.12276,40.721785],[-74.122687,40.721949],[-74.123659,40.722255],[-74.123658,40.722474],[-74.123189,40.7225],[-74.124414,40.722724],[-74.12445,40.722889],[-74.12463,40.722862],[-74.124737,40.723027],[-74.12488,40.723357],[-74.124411,40.723355],[-74.124119,40.723848],[-74.124045,40.724205],[-74.124477,40.724371],[-74.124259,40.724617],[-74.124694,40.724372],[-74.125271,40.724401],[-74.128333,40.725207],[-74.12862,40.725482],[-74.12902,40.72499],[-74.129381,40.725046],[-74.12938,40.72521],[-74.13028,40.725488],[-74.129698,40.726309],[-74.129949,40.726612],[-74.12948,40.726638],[-74.129225,40.727131],[-74.128685,40.726773],[-74.128288,40.726936],[-74.128617,40.726114],[-74.128476,40.725564],[-74.127287,40.725149],[-74.12671,40.725229],[-74.126386,40.724926],[-74.126205,40.72509],[-74.124762,40.725086],[-74.124144,40.725907],[-74.123849,40.726977],[-74.122912,40.726781],[-74.122878,40.72637],[-74.122696,40.726671],[-74.121758,40.72664],[-74.121936,40.727135],[-74.121069,40.727324],[-74.12103,40.727736],[-74.120705,40.727872],[-74.12139,40.728039],[-74.121099,40.728313],[-74.121533,40.728204],[-74.121857,40.72837],[-74.121599,40.729357],[-74.122142,40.72903],[-74.12434,40.729586],[-74.124229,40.730107],[-74.124772,40.729642],[-74.122737,40.732326],[-74.121761,40.732515],[-74.120683,40.731825],[-74.120685,40.731386],[-74.12003,40.732427],[-74.11938,40.732397],[-74.119166,40.732067],[-74.119054,40.732588],[-74.117937,40.732337],[-74.119044,40.727782],[-74.120642,40.722955],[-74.120962,40.720012],[-74.120551,40.717436],[-74.116105,40.709156],[-74.114309,40.704609],[-74.114097,40.702284],[-74.114315,40.700569],[-74.116009,40.69736],[-74.122519,40.700538],[-74.122769,40.701005],[-74.127912,40.703685],[-74.132366,40.707075],[-74.132473,40.707295],[-74.127983,40.703877],[-74.122696,40.70117],[-74.122838,40.701609],[-74.122472,40.702541],[-74.121782,40.703308],[-74.129089,40.706077],[-74.129088,40.706241],[-74.128584,40.706102],[-74.121889,40.703473],[-74.120984,40.704074],[-74.120723,40.705555],[-74.121111,40.707176],[-74.122217,40.709266],[-74.122507,40.70913],[-74.121898,40.708359],[-74.122044,40.707975],[-74.123089,40.708308],[-74.123012,40.709049],[-74.123337,40.709105],[-74.123227,40.709406],[-74.122867,40.709186],[-74.122687,40.70924],[-74.123441,40.709791],[-74.122611,40.709789],[-74.122574,40.710063],[-74.123293,40.71045],[-74.123978,40.710425],[-74.124161,40.710123],[-74.124592,40.710289],[-74.125134,40.710181],[-74.126502,40.71079],[-74.126824,40.71123],[-74.124875,40.711388],[-74.124768,40.711141],[-74.123362,40.710999],[-74.123685,40.711302],[-74.124442,40.711442],[-74.123143,40.711465],[-74.122892,40.711107],[-74.123062,40.713029],[-74.12335,40.713195],[-74.123166,40.713689],[-74.123408,40.715611],[-74.123515,40.715803],[-74.124093,40.715723],[-74.124019,40.716107],[-74.124309,40.715778],[-74.125282,40.716029],[-74.125098,40.716632],[-74.126718,40.717186],[-74.126899,40.717077],[-74.126721,40.716774],[-74.125786,40.71625],[-74.126257,40.715895],[-74.125573,40.715645],[-74.125502,40.715425],[-74.127951,40.716092],[-74.128495,40.715518]],[[-74.12813,40.716395],[-74.128094,40.716367],[-74.128094,40.716395],[-74.12813,40.716395]],[[-74.128093,40.71645],[-74.128057,40.716422],[-74.128057,40.716449],[-74.128093,40.71645]],[[-74.125945,40.720011],[-74.125909,40.719984],[-74.125909,40.720011],[-74.125945,40.720011]],[[-74.125909,40.720066],[-74.125873,40.720038],[-74.125872,40.720066],[-74.125909,40.720066]],[[-74.1258,40.720203],[-74.125763,40.720258],[-74.125799,40.720258],[-74.1258,40.720203]],[[-74.125142,40.721628],[-74.125179,40.721573],[-74.125142,40.721573],[-74.125142,40.721628]],[[-74.124889,40.721792],[-74.124853,40.721764],[-74.124853,40.721792],[-74.124889,40.721792]],[[-74.124453,40.722285],[-74.124489,40.72223],[-74.124453,40.72223],[-74.124453,40.722285]],[[-74.124489,40.72223],[-74.124526,40.722175],[-74.12449,40.722175],[-74.124489,40.72223]],[[-74.12463,40.722917],[-74.124594,40.722944],[-74.12463,40.722944],[-74.12463,40.722917]],[[-74.124808,40.723274],[-74.124772,40.723301],[-74.124808,40.723301],[-74.124808,40.723274]],[[-74.124653,40.72514],[-74.124618,40.725085],[-74.124617,40.72514],[-74.124653,40.72514]],[[-74.124229,40.730107],[-74.124192,40.730135],[-74.124228,40.730135],[-74.124229,40.730107]],[[-74.120721,40.731386],[-74.120757,40.731359],[-74.120721,40.731358],[-74.120721,40.731386]],[[-74.122579,40.709157],[-74.122507,40.709157],[-74.122579,40.709157],[-74.122579,40.709157]],[[-74.122651,40.709185],[-74.122651,40.709185],[-74.122656,40.709185],[-74.122651,40.709185]]],[[[-74.12875,40.715107],[-74.128714,40.715161],[-74.128714,40.715106],[-74.12875,40.715107]]],[[[-74.128714,40.715161],[-74.128677,40.715216],[-74.128678,40.715161],[-74.128714,40.715161]]],[[[-74.128786,40.715244],[-74.12875,40.715216],[-74.128786,40.715216],[-74.128786,40.715244]]],[[[-74.128677,40.715216],[-74.128641,40.715271],[-74.128641,40.715216],[-74.128677,40.715216]]],[[[-74.128785,40.715271],[-74.128822,40.715244],[-74.128821,40.715272],[-74.128785,40.715271]]],[[[-74.128568,40.71538],[-74.128569,40.715216],[-74.128604,40.715381],[-74.128568,40.71538]]],[[[-74.128785,40.715354],[-74.128713,40.715326],[-74.128713,40.715271],[-74.128785,40.715354]]],[[[-74.128713,40.715326],[-74.128713,40.715408],[-74.128677,40.715326],[-74.128713,40.715326]]],[[[-74.128641,40.715381],[-74.128713,40.715408],[-74.128712,40.715463],[-74.128641,40.715381]]],[[[-74.128568,40.715463],[-74.128532,40.715408],[-74.128568,40.715408],[-74.128568,40.715463]]],[[[-74.128532,40.715463],[-74.128496,40.71549],[-74.128496,40.715463],[-74.128532,40.715463]]],[[[-74.128676,40.715546],[-74.128604,40.715518],[-74.128604,40.715463],[-74.128676,40.715546]]],[[[-74.12864,40.715545],[-74.128567,40.715573],[-74.128568,40.715518],[-74.12864,40.715545]]],[[[-74.128567,40.715573],[-74.128531,40.7156],[-74.128531,40.715573],[-74.128567,40.715573]]],[[[-74.128567,40.7156],[-74.128603,40.715628],[-74.128567,40.715628],[-74.128567,40.7156]]],[[[-74.128495,40.715627],[-74.128567,40.715655],[-74.128567,40.71571],[-74.128495,40.715627]]],[[[-74.128494,40.715737],[-74.12853,40.715765],[-74.128494,40.715765],[-74.128494,40.715737]]],[[[-74.128458,40.715792],[-74.128494,40.715819],[-74.128458,40.715819],[-74.128458,40.715792]]],[[[-74.128421,40.715847],[-74.128457,40.715874],[-74.128421,40.715874],[-74.128421,40.715847]]],[[[-74.128385,40.715901],[-74.128421,40.715929],[-74.128385,40.715929],[-74.128385,40.715901]]],[[[-74.125836,40.720148],[-74.125872,40.720176],[-74.125836,40.720175],[-74.125836,40.720148]]],[[[-74.127262,40.723145],[-74.12694,40.722677],[-74.126543,40.722703],[-74.126473,40.722428],[-74.127914,40.72279],[-74.128241,40.722297],[-74.128208,40.721775],[-74.12919,40.720461],[-74.126849,40.719602],[-74.126449,40.720177],[-74.126233,40.720149],[-74.126671,40.719272],[-74.130955,40.720906],[-74.130774,40.721042],[-74.12937,40.720516],[-74.128861,40.721173],[-74.128606,40.721639],[-74.128819,40.722299],[-74.128418,40.722956],[-74.129462,40.723289],[-74.128021,40.72301],[-74.12744,40.723557],[-74.12766,40.722926],[-74.127262,40.723145]]],[[[-74.12488,40.723357],[-74.124988,40.723467],[-74.124915,40.723466],[-74.12488,40.723357]]],[[[-74.124879,40.723494],[-74.124806,40.723603],[-74.124663,40.723438],[-74.124879,40.723494]]],[[[-74.125082,40.725938],[-74.124687,40.725525],[-74.124905,40.725278],[-74.1266,40.725503],[-74.12649,40.725723],[-74.125805,40.72561],[-74.125694,40.726104],[-74.125082,40.725938]]],[[[-74.124565,40.734363],[-74.124749,40.733787],[-74.125002,40.733733],[-74.126168,40.731733],[-74.127038,40.730995],[-74.127506,40.731133],[-74.12754,40.731518],[-74.126745,40.731762],[-74.126237,40.732227],[-74.126417,40.73231],[-74.126091,40.732666],[-74.126234,40.732831],[-74.126922,40.732477],[-74.126556,40.733381],[-74.125472,40.73357],[-74.125255,40.733706],[-74.125723,40.733873],[-74.125073,40.733953],[-74.125939,40.733956],[-74.125722,40.73412],[-74.125902,40.734175],[-74.125178,40.734475],[-74.124565,40.734363]]],[[[-74.123383,40.732822],[-74.123453,40.733289],[-74.123776,40.73351],[-74.12363,40.733866],[-74.123127,40.733453],[-74.123383,40.732822]],[[-74.123272,40.733316],[-74.123308,40.733371],[-74.123308,40.733316],[-74.123272,40.733316]]],[[[-74.118873,40.732725],[-74.118644,40.734975],[-74.117414,40.734916],[-74.117827,40.732502],[-74.118873,40.732725]]],[[[-74.124425,40.733676],[-74.124279,40.734033],[-74.124134,40.734005],[-74.124137,40.733621],[-74.124425,40.733676]]],[[[-74.123088,40.734029],[-74.123016,40.734001],[-74.123088,40.734001],[-74.123088,40.734029]]],[[[-74.123989,40.734224],[-74.124242,40.73406],[-74.124205,40.734252],[-74.123989,40.734224]]],[[[-74.123988,40.734361],[-74.124169,40.734307],[-74.124168,40.734389],[-74.123988,40.734361]]],[[[-74.125864,40.734422],[-74.125829,40.73434],[-74.126045,40.73434],[-74.125864,40.734422]]],[[[-74.123951,40.734498],[-74.12406,40.734389],[-74.124132,40.734444],[-74.123951,40.734498]]],[[[-74.123485,40.73392],[-74.123519,40.734387],[-74.123087,40.734248],[-74.122072,40.734959],[-74.121422,40.735066],[-74.122871,40.734028],[-74.123088,40.734056],[-74.123196,40.733974],[-74.123413,40.734002],[-74.123485,40.73392]]],[[[-74.125972,40.734532],[-74.126044,40.73456],[-74.125972,40.73456],[-74.125972,40.734532]]],[[[-74.123987,40.734553],[-74.123951,40.734526],[-74.123987,40.734526],[-74.123987,40.734553]]],[[[-74.125972,40.73456],[-74.125935,40.734587],[-74.125936,40.73456],[-74.125972,40.73456]]],[[[-74.125864,40.734422],[-74.12543,40.734695],[-74.125033,40.734721],[-74.125864,40.734422]]],[[[-74.123878,40.734608],[-74.124095,40.734609],[-74.124059,40.734663],[-74.123878,40.734608]]],[[[-74.126079,40.734807],[-74.126442,40.734424],[-74.126801,40.734755],[-74.126079,40.734807]]],[[[-74.125791,40.734669],[-74.125863,40.734587],[-74.125935,40.734587],[-74.125791,40.734669]]],[[[-74.125934,40.734917],[-74.125826,40.734806],[-74.125934,40.734834],[-74.125934,40.734917]]],[[[-74.125357,40.734832],[-74.125248,40.734887],[-74.125212,40.734832],[-74.125357,40.734832]]],[[[-74.125646,40.734751],[-74.124957,40.73538],[-74.124741,40.735297],[-74.12423,40.736201],[-74.124306,40.735515],[-74.124995,40.734996],[-74.124779,40.73483],[-74.125213,40.734777],[-74.125176,40.734859],[-74.125284,40.734914],[-74.125646,40.734751]],[[-74.124377,40.735845],[-74.12434,40.735872],[-74.124377,40.735872],[-74.124377,40.735845]],[[-74.124995,40.734941],[-74.125031,40.734914],[-74.124995,40.734913],[-74.124995,40.734941]],[[-74.125031,40.734941],[-74.125067,40.734996],[-74.125067,40.734941],[-74.125031,40.734941]],[[-74.125212,40.734887],[-74.12514,40.734914],[-74.125212,40.734914],[-74.125212,40.734887]],[[-74.12514,40.734914],[-74.125104,40.734941],[-74.12514,40.734941],[-74.12514,40.734914]]],[[[-74.123909,40.735596],[-74.123648,40.73716],[-74.123729,40.735541],[-74.123909,40.735596]]],[[[-74.124265,40.736503],[-74.124192,40.736558],[-74.124265,40.736421],[-74.124265,40.736503]]],[[[-74.12023,40.735255],[-74.12333,40.735786],[-74.123328,40.736171],[-74.123076,40.736033],[-74.123004,40.73617],[-74.123327,40.736473],[-74.123246,40.737927],[-74.121827,40.739981],[-74.121722,40.739459],[-74.122049,40.739131],[-74.12165,40.739459],[-74.121109,40.739265],[-74.12158,40.738992],[-74.121909,40.738225],[-74.121734,40.737373],[-74.122385,40.737128],[-74.121448,40.736823],[-74.121667,40.736467],[-74.121162,40.736411],[-74.121165,40.735917],[-74.120732,40.73586],[-74.120622,40.736162],[-74.120369,40.736161],[-74.12012,40.735611],[-74.118894,40.735442],[-74.118491,40.736374],[-74.118707,40.736622],[-74.118372,40.738268],[-74.118729,40.738928],[-74.119735,40.739865],[-74.120778,40.740362],[-74.121356,40.740309],[-74.121643,40.740612],[-74.121024,40.741608],[-74.118439,40.7403],[-74.117753,40.739422],[-74.117296,40.73812],[-74.117393,40.735053],[-74.12023,40.735255]]],[[[-74.121132,40.741646],[-74.122406,40.739654],[-74.122984,40.739683],[-74.122357,40.741987],[-74.121132,40.741646]]]]}}]}