{"type":"FeatureCollection","features":[{"type":"Feature","properties":{"level_ft":1},"geometry":{"type":"MultiPolygon","coordinates":[[[[-74.189956,40.687369],[-74.189477,40.689428],[-74.190339,40.690308],[-74.189223,40.689811],[-74.187993,40.690632],[-74.187416,40.690657],[-74.187345,40.690383],[-74.189083,40.68885],[-74.189234,40.687412],[-74.189956,40.687369]]],[[[-74.183486,40.690482],[-74.182765,40.69048],[-74.183343,40.690289],[-74.18367,40.689824],[-74.1845,40.689689],[-74.184571,40.689881],[-74.183956,40.690181],[-74.183701,40.690812],[-74.183486,40.690482]]],[[[-74.185787,40.691971],[-74.185751,40.692025],[-74.185751,40.691971],[-74.185787,40.691971]]],[[[-74.185967,40.691971],[-74.185463,40.691942],[-74.185714,40.69208],[-74.185605,40.692409],[-74.184702,40.692599],[-74.18434,40.692982],[-74.184591,40.69323],[-74.1843,40.693696],[-74.183686,40.693914],[-74.184046,40.694025],[-74.183537,40.694957],[-74.183425,40.695835],[-74.182846,40.696162],[-74.18263,40.695997],[-74.182741,40.695558],[-74.18387,40.693228],[-74.185572,40.691668],[-74.186004,40.691807],[-74.185967,40.691971]]],[[[-74.182024,40.702144],[-74.182542,40.699456],[-74.182663,40.696848],[-74.183132,40.696685],[-74.183237,40.697371],[-74.182985,40.697233],[-74.182913,40.697261],[-74.1832,40.697673],[-74.182876,40.697535],[-74.182839,40.697755],[-74.183233,40.698195],[-74.182861,40.700555],[-74.182501,40.700526],[-74.182824,40.700747],[-74.182457,40.702228],[-74.182024,40.702144]]],[[[-74.180353,40.704748],[-74.181043,40.703624],[-74.181512,40.703708],[-74.181147,40.704585],[-74.180353,40.704748]]],[[[-74.184594,40.707971],[-74.182722,40.707115],[-74.182651,40.706977],[-74.18384,40.70709],[-74.183948,40.707283],[-74.183695,40.70731],[-74.184668,40.707614],[-74.184953,40.708246],[-74.184556,40.708245],[-74.184594,40.707971]]],[[[-74.186072,40.708112],[-74.186288,40.708195],[-74.186072,40.708195],[-74.186072,40.708112]]],[[[-74.186756,40.708361],[-74.185926,40.708578],[-74.185855,40.708331],[-74.186756,40.708361]]],[[[-74.184734,40.70885],[-74.184373,40.708931],[-74.184483,40.708437],[-74.184952,40.708384],[-74.184734,40.70885]]],[[[-74.185672,40.708742],[-74.1856,40.70877],[-74.1856,40.708742],[-74.185672,40.708742]]],[[[-74.185492,40.708769],[-74.185564,40.708797],[-74.185492,40.708797],[-74.185492,40.708769]]],[[[-74.185455,40.708824],[-74.185492,40.708797],[-74.185491,40.708824],[-74.185455,40.708824]]],[[[-74.18257,40.708761],[-74.183472,40.708627],[-74.183832,40.708957],[-74.182459,40.709255],[-74.18257,40.708761]]],[[[-74.184733,40.708959],[-74.18448,40.709124],[-74.184336,40.709123],[-74.184733,40.708959]]],[[[-74.184008,40.709726],[-74.183972,40.709671],[-74.184081,40.709671],[-74.184008,40.709726]]],[[[-74.18426,40.709837],[-74.184296,40.709809],[-74.184296,40.709837],[-74.18426,40.709837]]],[[[-74.185197,40.710114],[-74.185019,40.709592],[-74.186789,40.709102],[-74.186532,40.710062],[-74.186098,40.710336],[-74.186638,40.710529],[-74.186528,40.710804],[-74.184511,40.710167],[-74.184801,40.710003],[-74.185197,40.710114]],[[-74.185197,40.710114],[-74.185305,40.710141],[-74.185629,40.710252],[-74.185485,40.710142],[-74.185197,40.710114]]],[[[-74.184115,40.710056],[-74.184512,40.710029],[-74.184223,40.710138],[-74.184115,40.710056]]],[[[-74.184152,40.709919],[-74.183572,40.710494],[-74.182886,40.710629],[-74.182814,40.710464],[-74.184152,40.709919]]],[[[-74.18267,40.710491],[-74.182705,40.710683],[-74.182598,40.710491],[-74.18267,40.710491]]],[[[-74.170616,40.711555],[-74.175884,40.711351],[-74.17563,40.711569],[-74.170543,40.711775],[-74.170616,40.711555]]],[[[-74.180246,40.711967],[-74.179234,40.712348],[-74.178187,40.712428],[-74.177468,40.712069],[-74.177074,40.711436],[-74.175956,40.711323],[-74.177147,40.711244],[-74.177828,40.712097],[-74.178982,40.712293],[-74.180247,40.711747],[-74.180936,40.71098],[-74.182236,40.710627],[-74.182308,40.710819],[-74.181911,40.710873],[-74.180463,40.711857],[-74.180204,40.713174],[-74.180246,40.711967]]],[[[-74.175619,40.713875],[-74.175547,40.713903],[-74.175547,40.713875],[-74.175619,40.713875]]],[[[-74.175727,40.713876],[-74.175655,40.71393],[-74.175655,40.713875],[-74.175727,40.713876]]],[[[-74.174536,40.713955],[-74.17551,40.713957],[-74.172984,40.714225],[-74.174536,40.713955]],[[-74.174645,40.713982],[-74.174572,40.71401],[-74.174644,40.71401],[-74.174645,40.713982]]],[[[-74.172876,40.714197],[-74.172912,40.714252],[-74.172876,40.714252],[-74.172876,40.714197]]],[[[-74.17284,40.714197],[-74.172767,40.714252],[-74.172768,40.714197],[-74.17284,40.714197]]],[[[-74.172659,40.714224],[-74.172695,40.714251],[-74.172659,40.714251],[-74.172659,40.714224]]],[[[-74.172659,40.714251],[-74.172118,40.714332],[-74.172226,40.71425],[-74.172659,40.714251]]],[[[-74.171937,40.714277],[-74.172045,40.714359],[-74.171973,40.714359],[-74.171937,40.714277]]],[[[-74.171829,40.714359],[-74.171793,40.714386],[-74.171793,40.714359],[-74.171829,40.714359]]],[[[-74.171612,40.714358],[-74.171576,40.714413],[-74.171576,40.714358],[-74.171612,40.714358]]],[[[-74.171251,40.714412],[-74.171359,40.71444],[-74.171251,40.714439],[-74.171251,40.714412]]],[[[-74.171215,40.714439],[-74.171179,40.714412],[-74.171215,40.714412],[-74.171215,40.714439]]],[[[-74.171576,40.714331],[-74.171504,40.714413],[-74.171252,40.714357],[-74.170963,40.714411],[-74.170963,40.714439],[-74.170927,40.714438],[-74.170926,40.714493],[-74.17071,40.71452],[-74.169411,40.714489],[-74.17035,40.714327],[-74.171901,40.714304],[-74.171937,40.714359],[-74.171576,40.714331]],[[-74.171432,40.71433],[-74.171468,40.714358],[-74.171468,40.71433],[-74.171432,40.71433]]],[[[-74.169303,40.714406],[-74.169267,40.714434],[-74.169267,40.714406],[-74.169303,40.714406]]],[[[-74.171143,40.714439],[-74.171107,40.714466],[-74.171107,40.714439],[-74.171143,40.714439]]],[[[-74.171071,40.714466],[-74.170963,40.714439],[-74.171071,40.714439],[-74.171071,40.714466]]],[[[-74.16923,40.714543],[-74.168473,40.714569],[-74.168473,40.714486],[-74.169195,40.714406],[-74.16923,40.714543]]],[[[-74.170349,40.714574],[-74.170312,40.714601],[-74.170313,40.714574],[-74.170349,40.714574]]],[[[-74.169049,40.71468],[-74.168942,40.714597],[-74.169194,40.714598],[-74.169086,40.714625],[-74.169049,40.71468]]],[[[-74.169555,40.714627],[-74.16923,40.714598],[-74.170168,40.714601],[-74.169555,40.714627]]],[[[-74.169086,40.714653],[-74.169194,40.714681],[-74.169085,40.71468],[-74.169086,40.714653]]],[[[-74.16923,40.714681],[-74.169194,40.714708],[-74.169194,40.714681],[-74.16923,40.714681]]],[[[-74.169085,40.71468],[-74.169049,40.714708],[-74.169049,40.71468],[-74.169085,40.71468]]],[[[-74.169085,40.714735],[-74.169194,40.714708],[-74.169193,40.714735],[-74.169085,40.714735]]],[[[-74.168833,40.714762],[-74.168977,40.714707],[-74.169013,40.714762],[-74.168833,40.714762]]],[[[-74.168796,40.714762],[-74.168761,40.714734],[-74.168797,40.714734],[-74.168796,40.714762]]],[[[-74.168724,40.714762],[-74.168436,40.714788],[-74.168436,40.714761],[-74.168724,40.714762]]],[[[-74.168327,40.714815],[-74.168219,40.714788],[-74.168327,40.714788],[-74.168327,40.714815]]],[[[-74.168147,40.714815],[-74.168183,40.714787],[-74.168183,40.714815],[-74.168147,40.714815]]],[[[-74.167752,40.714457],[-74.167896,40.714485],[-74.167896,40.71454],[-74.167752,40.714457]]],[[[-74.16721,40.714593],[-74.167679,40.714484],[-74.167787,40.714567],[-74.16721,40.714593]]],[[[-74.166489,40.714536],[-74.166453,40.714563],[-74.166453,40.714535],[-74.166489,40.714536]]],[[[-74.167932,40.71454],[-74.168256,40.714568],[-74.167931,40.714595],[-74.167932,40.71454]]],[[[-74.166633,40.714536],[-74.167174,40.714592],[-74.166669,40.714618],[-74.166633,40.714536]]],[[[-74.166488,40.71459],[-74.16656,40.714646],[-74.166488,40.714645],[-74.166488,40.71459]]],[[[-74.164576,40.714722],[-74.164612,40.71475],[-74.164576,40.71475],[-74.164576,40.714722]]],[[[-74.168906,40.714597],[-74.1684,40.714706],[-74.1684,40.714761],[-74.167967,40.714759],[-74.167858,40.714814],[-74.167822,40.714814],[-74.167822,40.714786],[-74.167714,40.714786],[-74.167642,40.714841],[-74.16757,40.714786],[-74.167389,40.714785],[-74.1671,40.714894],[-74.166415,40.714837],[-74.166415,40.71492],[-74.166379,40.714837],[-74.16627,40.714919],[-74.165693,40.714918],[-74.165694,40.714835],[-74.165297,40.714834],[-74.165296,40.714889],[-74.164972,40.714888],[-74.164792,40.714805],[-74.168906,40.714597]],[[-74.166234,40.714892],[-74.166163,40.714837],[-74.166162,40.714864],[-74.166234,40.714892]],[[-74.165044,40.714861],[-74.165008,40.714833],[-74.165008,40.714861],[-74.165044,40.714861]]],[[[-74.16472,40.714777],[-74.164756,40.714805],[-74.16472,40.714805],[-74.16472,40.714777]]],[[[-74.164467,40.714832],[-74.16389,40.714775],[-74.16389,40.714857],[-74.163602,40.714747],[-74.164468,40.714722],[-74.16472,40.714832],[-74.164467,40.714832]]],[[[-74.168111,40.714815],[-74.168075,40.714842],[-74.168075,40.714815],[-74.168111,40.714815]]],[[[-74.168039,40.714814],[-74.16793,40.714842],[-74.16793,40.714814],[-74.168039,40.714814]]],[[[-74.167894,40.714842],[-74.167858,40.714814],[-74.167894,40.714814],[-74.167894,40.714842]]],[[[-74.167786,40.714814],[-74.167714,40.714841],[-74.167714,40.714814],[-74.167786,40.714814]]],[[[-74.167533,40.71484],[-74.16757,40.714813],[-74.167569,40.714841],[-74.167533,40.71484]]],[[[-74.164756,40.714832],[-74.164792,40.714805],[-74.164792,40.714833],[-74.164756,40.714832]]],[[[-74.164755,40.71486],[-74.16472,40.714832],[-74.164756,40.714832],[-74.164755,40.71486]]],[[[-74.164359,40.714831],[-74.164286,40.714859],[-74.164287,40.714831],[-74.164359,40.714831]]],[[[-74.164142,40.714831],[-74.163998,40.714858],[-74.163998,40.71483],[-74.164142,40.714831]]],[[[-74.164792,40.71486],[-74.164827,40.714888],[-74.164791,40.714887],[-74.164792,40.71486]]],[[[-74.164683,40.71486],[-74.164503,40.714887],[-74.164503,40.714859],[-74.164683,40.71486]]],[[[-74.165585,40.71489],[-74.165549,40.714917],[-74.165549,40.71489],[-74.165585,40.71489]]],[[[-74.165332,40.714916],[-74.165296,40.714889],[-74.165333,40.714889],[-74.165332,40.714916]]],[[[-74.165748,40.74525],[-74.166373,40.745005],[-74.165714,40.745085],[-74.162778,40.737845],[-74.161707,40.736207],[-74.162268,40.735852],[-74.163166,40.736815],[-74.164093,40.738904],[-74.164597,40.739153],[-74.164342,40.739701],[-74.164591,40.740498],[-74.166374,40.74473],[-74.166542,40.747229],[-74.166505,40.747393],[-74.165867,40.747392],[-74.165748,40.74525]]],[[[-74.165838,40.747886],[-74.165863,40.747474],[-74.166469,40.747476],[-74.166538,40.74797],[-74.165838,40.747886]]],[[[-74.166465,40.748189],[-74.165874,40.750988],[-74.16524,40.750958],[-74.1658,40.748133],[-74.166465,40.748189]]],[[[-74.139139,40.677125],[-74.148986,40.682244],[-74.150435,40.683156],[-74.152657,40.685232],[-74.153849,40.685922],[-74.155324,40.686124],[-74.158342,40.686031],[-74.15938,40.686682],[-74.160093,40.687544],[-74.158898,40.689232],[-74.144161,40.680101],[-74.136107,40.68908],[-74.140553,40.693897],[-74.14131,40.693955],[-74.142641,40.694618],[-74.154089,40.698496],[-74.154232,40.69877],[-74.153142,40.700359],[-74.138669,40.695484],[-74.13727,40.694052],[-74.137308,40.693777],[-74.132036,40.688435],[-74.131349,40.68879],[-74.130802,40.689722],[-74.125649,40.69547],[-74.126008,40.69591],[-74.127483,40.696574],[-74.127481,40.696876],[-74.127011,40.697011],[-74.128451,40.697592],[-74.128303,40.698168],[-74.117554,40.694949],[-74.120322,40.69066],[-74.125251,40.68406],[-74.131955,40.673797],[-74.139139,40.677125]]],[[[-74.160631,40.68877],[-74.160812,40.688685],[-74.160739,40.688798],[-74.160631,40.68877]]],[[[-74.161355,40.689129],[-74.160774,40.688963],[-74.160883,40.688764],[-74.161355,40.689129]]],[[[-74.161674,40.689332],[-74.161709,40.68946],[-74.161637,40.689487],[-74.161674,40.689332]]],[[[-74.161818,40.689416],[-74.162142,40.689532],[-74.162069,40.689653],[-74.161781,40.68957],[-74.161818,40.689416]]],[[[-74.164576,40.690072],[-74.163941,40.690207],[-74.162969,40.689957],[-74.163114,40.689771],[-74.163979,40.689949],[-74.163942,40.690097],[-74.164051,40.689964],[-74.164576,40.690072]]],[[[-74.161888,40.689817],[-74.158764,40.6942],[-74.158256,40.69483],[-74.158112,40.694857],[-74.161454,40.689953],[-74.161781,40.689624],[-74.161888,40.689817]]],[[[-74.117428,40.695143],[-74.124449,40.697277],[-74.127256,40.698439],[-74.126463,40.698245],[-74.126133,40.699287],[-74.124366,40.699281],[-74.124038,40.699911],[-74.124254,40.699994],[-74.1244,40.699693],[-74.124652,40.699611],[-74.124361,40.700077],[-74.122957,40.699633],[-74.12252,40.700483],[-74.116045,40.697305],[-74.117428,40.695143]]],[[[-74.134083,40.709798],[-74.133396,40.709933],[-74.132748,40.709684],[-74.133295,40.708698],[-74.135852,40.709529],[-74.135633,40.709995],[-74.134083,40.709798]]],[[[-74.137426,40.711868],[-74.138725,40.711762],[-74.139345,40.710638],[-74.138265,40.710223],[-74.136611,40.709202],[-74.135243,40.708704],[-74.134703,40.708455],[-74.134668,40.708345],[-74.136647,40.70912],[-74.139561,40.710639],[-74.139775,40.711051],[-74.139487,40.710968],[-74.138905,40.711872],[-74.138038,40.712062],[-74.137426,40.711868]]],[[[-74.134613,40.711694],[-74.132417,40.710946],[-74.132235,40.711192],[-74.131983,40.711137],[-74.132639,40.709821],[-74.134908,40.710597],[-74.134613,40.711694]]],[[[-74.133957,40.712982],[-74.131976,40.712454],[-74.132341,40.711687],[-74.134286,40.712215],[-74.133957,40.712982]]],[[[-74.133555,40.713832],[-74.131574,40.713331],[-74.131903,40.712564],[-74.132947,40.712979],[-74.133848,40.713064],[-74.133555,40.713832]]],[[[-74.122624,40.701142],[-74.1224,40.702404],[-74.121566,40.703197],[-74.121926,40.703473],[-74.121493,40.703389],[-74.120985,40.703991],[-74.120722,40.70583],[-74.122677,40.710914],[-74.123182,40.710971],[-74.12354,40.711329],[-74.124442,40.711332],[-74.123396,40.711438],[-74.122856,40.711107],[-74.123062,40.713057],[-74.123313,40.713222],[-74.123367,40.716599],[-74.123834,40.71682],[-74.123832,40.717177],[-74.123616,40.717204],[-74.123463,40.718713],[-74.12299,40.719452],[-74.123349,40.719646],[-74.123201,40.720414],[-74.122693,40.720824],[-74.1224,40.721592],[-74.122579,40.721867],[-74.12229,40.721948],[-74.122395,40.722525],[-74.120857,40.7265],[-74.120413,40.72842],[-74.120736,40.728696],[-74.120192,40.729216],[-74.120043,40.730093],[-74.119538,40.730119],[-74.119422,40.731354],[-74.119133,40.731463],[-74.118874,40.73256],[-74.117863,40.73231],[-74.120642,40.722955],[-74.120962,40.720012],[-74.120551,40.717436],[-74.116105,40.709156],[-74.114309,40.704609],[-74.114097,40.702284],[-74.114315,40.700569],[-74.116009,40.69736],[-74.122519,40.700538],[-74.122697,40.700978],[-74.128307,40.703933],[-74.132473,40.707295],[-74.128019,40.703877],[-74.122624,40.701142]],[[-74.121566,40.703197],[-74.12153,40.70317],[-74.12153,40.703197],[-74.121566,40.703197]],[[-74.122624,40.701142],[-74.122588,40.701114],[-74.122588,40.701142],[-74.122624,40.701142]]],[[[-74.117827,40.732502],[-74.118837,40.732697],[-74.118572,40.734975],[-74.117414,40.734916],[-74.117827,40.732502]]],[[[-74.161945,40.735577],[-74.161981,40.735604],[-74.161945,40.735604],[-74.161945,40.735577]]],[[[-74.161945,40.735631],[-74.161909,40.735604],[-74.161945,40.735604],[-74.161945,40.735631]]],[[[-74.16198,40.735851],[-74.162053,40.735687],[-74.162125,40.735714],[-74.16198,40.735851]]],[[[-74.16169,40.736015],[-74.161582,40.73596],[-74.161726,40.73596],[-74.16169,40.736015]]],[[[-74.123114,40.742143],[-74.123518,40.740893],[-74.124204,40.740895],[-74.124751,40.739963],[-74.12511,40.740267],[-74.124713,40.740293],[-74.124312,40.741005],[-74.127666,40.741428],[-74.128606,40.741074],[-74.130663,40.741163],[-74.135139,40.740848],[-74.139511,40.740038],[-74.141938,40.738371],[-74.14499,40.734428],[-74.146799,40.7335],[-74.148967,40.73293],[-74.150122,40.732879],[-74.151997,40.733159],[-74.155354,40.733032],[-74.157554,40.733285],[-74.1595,40.733895],[-74.159753,40.733786],[-74.161982,40.735439],[-74.161401,40.735822],[-74.160184,40.73481],[-74.158448,40.734014],[-74.15732,40.733745],[-74.155351,40.733699],[-74.155354,40.733087],[-74.155101,40.733113],[-74.15517,40.733696],[-74.14854,40.733908],[-74.146356,40.734662],[-74.145141,40.735632],[-74.142001,40.73941],[-74.140636,40.740273],[-74.139003,40.740922],[-74.135985,40.741599],[-74.128166,40.742211],[-74.123114,40.742143]]],[[[-74.117393,40.735053],[-74.12333,40.735814],[-74.123293,40.736006],[-74.122968,40.736005],[-74.118822,40.735332],[-74.118495,40.735716],[-74.118408,40.738405],[-74.119771,40.739892],[-74.121643,40.740612],[-74.121024,40.741608],[-74.118439,40.7403],[-74.117753,40.739422],[-74.117296,40.73812],[-74.117393,40.735053]]],[[[-74.121132,40.741646],[-74.121715,40.740667],[-74.122149,40.740586],[-74.122651,40.741],[-74.122357,40.741987],[-74.121132,40.741646]]],[[[-74.15674,40.767862],[-74.158001,40.765908],[-74.161643,40.762036],[-74.163014,40.760089],[-74.163961,40.75797],[-74.165214,40.751123],[-74.165837,40.751097],[-74.16524,40.754966],[-74.164808,40.754718],[-74.16524,40.755048],[-74.165049,40.757052],[-74.163988,40.759821],[-74.162715,40.761711],[-74.160463,40.764367],[-74.159702,40.764914],[-74.157739,40.767571],[-74.15719,40.769024],[-74.157365,40.770068],[-74.155655,40.772616],[-74.154384,40.774039],[-74.150649,40.777047],[-74.150218,40.776732],[-74.153373,40.773988],[-74.154816,40.772061],[-74.15674,40.767862]]],[[[-74.150253,40.776881],[-74.150577,40.77713],[-74.149014,40.778964],[-74.148829,40.779752],[-74.148329,40.779601],[-74.148635,40.778535],[-74.150253,40.776881]]],[[[-74.149046,40.779815],[-74.149011,40.77965],[-74.149083,40.779623],[-74.149046,40.779815]]],[[[-74.149191,40.779733],[-74.150705,40.780095],[-74.150813,40.780205],[-74.14931,40.779905],[-74.149191,40.779733]]]]}}]}