{"type":"FeatureCollection","features":[{"type":"Feature","properties":{"level_ft":15},"geometry":{"type":"MultiPolygon","coordinates":[[[[-74.191723,40.687264],[-74.191723,40.687265],[-74.191701,40.687265],[-74.191723,40.687264]]],[[[-74.199974,40.688797],[-74.199866,40.688741],[-74.200011,40.688714],[-74.199974,40.688797]]],[[[-74.196999,40.692797],[-74.197035,40.692824],[-74.196999,40.692824],[-74.196999,40.692797]]],[[[-74.19678,40.693318],[-74.196744,40.69329],[-74.196781,40.69329],[-74.19678,40.693318]]],[[[-74.196672,40.693317],[-74.196744,40.693345],[-74.196672,40.693345],[-74.196672,40.693317]]],[[[-74.207875,40.696421],[-74.207449,40.694827],[-74.208242,40.694994],[-74.208243,40.694692],[-74.20864,40.694638],[-74.208674,40.695023],[-74.209359,40.695107],[-74.209753,40.695849],[-74.208994,40.696176],[-74.209249,40.695491],[-74.208528,40.695407],[-74.208453,40.696203],[-74.207875,40.696421]]],[[[-74.193761,40.698964],[-74.193797,40.698937],[-74.193797,40.698965],[-74.193761,40.698964]]],[[[-74.204923,40.703276],[-74.204959,40.703303],[-74.204923,40.703303],[-74.204923,40.703276]]],[[[-74.205139,40.703331],[-74.205103,40.703359],[-74.205103,40.703331],[-74.205139,40.703331]]],[[[-74.205067,40.703386],[-74.205031,40.703358],[-74.205067,40.703358],[-74.205067,40.703386]]],[[[-74.204995,40.703413],[-74.205031,40.703386],[-74.205031,40.703413],[-74.204995,40.703413]]],[[[-74.181894,40.706838],[-74.179652,40.70793],[-74.181027,40.706945],[-74.180956,40.706698],[-74.181427,40.706343],[-74.182221,40.706235],[-74.1851,40.707698],[-74.185134,40.708137],[-74.185676,40.708001],[-74.187154,40.70817],[-74.184484,40.708245],[-74.184413,40.70797],[-74.183186,40.708104],[-74.183189,40.7075],[-74.182469,40.707114],[-74.181925,40.707826],[-74.181275,40.708017],[-74.181894,40.706838]],[[-74.181028,40.706808],[-74.181064,40.706781],[-74.181028,40.706781],[-74.181028,40.706808]],[[-74.181677,40.70681],[-74.181714,40.706755],[-74.181678,40.706755],[-74.181677,40.70681]],[[-74.181714,40.706755],[-74.18175,40.706728],[-74.181714,40.706728],[-74.181714,40.706755]]],[[[-74.198412,40.707404],[-74.198086,40.707678],[-74.197942,40.70765],[-74.197978,40.707595],[-74.198412,40.707404]],[[-74.198014,40.70765],[-74.19805,40.707623],[-74.198014,40.707622],[-74.198014,40.70765]]],[[[-74.188488,40.708283],[-74.188524,40.708256],[-74.188524,40.708284],[-74.188488,40.708283]]],[[[-74.188416,40.708256],[-74.188452,40.708283],[-74.188416,40.708283],[-74.188416,40.708256]]],[[[-74.188344,40.708283],[-74.18838,40.708256],[-74.18838,40.708283],[-74.188344,40.708283]]],[[[-74.197029,40.710118],[-74.196094,40.709374],[-74.197615,40.708116],[-74.198193,40.708007],[-74.200363,40.706668],[-74.19866,40.708338],[-74.198764,40.709271],[-74.197967,40.710175],[-74.197029,40.710118]]],[[[-74.198014,40.707732],[-74.197507,40.708143],[-74.197038,40.708087],[-74.195953,40.708825],[-74.195701,40.708605],[-74.195085,40.709317],[-74.194689,40.709014],[-74.194077,40.708847],[-74.19386,40.708984],[-74.193572,40.708709],[-74.192455,40.708459],[-74.18856,40.708256],[-74.19657,40.707976],[-74.198014,40.707677],[-74.198014,40.707732]],[[-74.197797,40.707842],[-74.197761,40.707814],[-74.197761,40.707841],[-74.197797,40.707842]],[[-74.191158,40.708181],[-74.191194,40.708208],[-74.191194,40.708181],[-74.191158,40.708181]],[[-74.197941,40.70776],[-74.197905,40.707732],[-74.197905,40.707759],[-74.197941,40.70776]]],[[[-74.182968,40.708515],[-74.182932,40.708543],[-74.182932,40.708515],[-74.182968,40.708515]]],[[[-74.185853,40.708743],[-74.185889,40.708716],[-74.185889,40.708743],[-74.185853,40.708743]]],[[[-74.1856,40.70877],[-74.185672,40.708742],[-74.185672,40.70877],[-74.1856,40.70877]]],[[[-74.185492,40.708769],[-74.1856,40.708797],[-74.185492,40.708797],[-74.185492,40.708769]]],[[[-74.185492,40.708797],[-74.183216,40.709532],[-74.182999,40.709559],[-74.182927,40.709531],[-74.182492,40.709914],[-74.182241,40.709666],[-74.182208,40.709035],[-74.18304,40.708543],[-74.182968,40.708461],[-74.183834,40.70849],[-74.184265,40.708821],[-74.184484,40.708382],[-74.188308,40.708255],[-74.185637,40.708633],[-74.182603,40.70942],[-74.185492,40.708797]],[[-74.182999,40.709531],[-74.183035,40.709504],[-74.182999,40.709504],[-74.182999,40.709531]],[[-74.183653,40.70849],[-74.183617,40.708517],[-74.183653,40.708517],[-74.183653,40.70849]],[[-74.182639,40.709503],[-74.18253,40.70953],[-74.182638,40.70953],[-74.182639,40.709503]]],[[[-74.194651,40.709508],[-74.194723,40.709563],[-74.194651,40.709563],[-74.194651,40.709508]]],[[[-74.182927,40.709558],[-74.182999,40.709586],[-74.182927,40.709586],[-74.182927,40.709558]]],[[[-74.194289,40.709726],[-74.194289,40.709699],[-74.194325,40.709699],[-74.194325,40.709726],[-74.194289,40.709726]]],[[[-74.182098,40.709474],[-74.182276,40.709859],[-74.181953,40.709446],[-74.182098,40.709474]]],[[[-74.194397,40.709754],[-74.194325,40.709726],[-74.194397,40.709727],[-74.194397,40.709754]]],[[[-74.183864,40.709753],[-74.183972,40.709671],[-74.184081,40.709671],[-74.183864,40.709753]]],[[[-74.184296,40.709837],[-74.18426,40.709809],[-74.184296,40.709809],[-74.184296,40.709837]]],[[[-74.182276,40.709968],[-74.182312,40.709886],[-74.182348,40.709969],[-74.182276,40.709968]]],[[[-74.182383,40.710051],[-74.182312,40.709996],[-74.182384,40.709996],[-74.182383,40.710051]]],[[[-74.196812,40.710172],[-74.196848,40.710145],[-74.196848,40.710172],[-74.196812,40.710172]]],[[[-74.194395,40.710193],[-74.194359,40.710166],[-74.194395,40.710166],[-74.194395,40.710193]]],[[[-74.196667,40.710337],[-74.196523,40.710226],[-74.196811,40.710392],[-74.196667,40.710337]]],[[[-74.196811,40.710419],[-74.196847,40.710392],[-74.196847,40.710419],[-74.196811,40.710419]]],[[[-74.196775,40.710419],[-74.196811,40.710447],[-74.196775,40.710447],[-74.196775,40.710419]]],[[[-74.18426,40.709837],[-74.183608,40.710439],[-74.183351,40.711344],[-74.182707,40.710326],[-74.18426,40.709837]]],[[[-74.18473,40.709728],[-74.18715,40.709021],[-74.190073,40.708837],[-74.191623,40.70906],[-74.193604,40.709752],[-74.193603,40.709972],[-74.193892,40.70989],[-74.194072,40.709973],[-74.190096,40.711582],[-74.18652,40.712533],[-74.184282,40.712884],[-74.183638,40.711729],[-74.183532,40.711317],[-74.183533,40.710988],[-74.183934,40.71022],[-74.18473,40.709728]],[[-74.183568,40.711317],[-74.18364,40.711262],[-74.183568,40.71129],[-74.183568,40.711317]],[[-74.184548,40.70992],[-74.184512,40.710002],[-74.184548,40.710002],[-74.184548,40.70992]],[[-74.184729,40.709838],[-74.184801,40.70992],[-74.184801,40.709866],[-74.184729,40.709838]],[[-74.184693,40.70992],[-74.184657,40.709947],[-74.184693,40.709948],[-74.184693,40.70992]]],[[[-74.192191,40.711093],[-74.192154,40.711148],[-74.192154,40.711093],[-74.192191,40.711093]]],[[[-74.191937,40.71123],[-74.191865,40.711202],[-74.191938,40.711202],[-74.191937,40.71123]]],[[[-74.191829,40.71123],[-74.191757,40.711284],[-74.191757,40.711257],[-74.191829,40.71123]]],[[[-74.19237,40.711396],[-74.192406,40.711368],[-74.192406,40.711396],[-74.19237,40.711396]]],[[[-74.191432,40.711393],[-74.191468,40.711366],[-74.191468,40.711393],[-74.191432,40.711393]]],[[[-74.192189,40.71145],[-74.192225,40.711423],[-74.192225,40.71145],[-74.192189,40.71145]]],[[[-74.184031,40.712636],[-74.182991,40.711178],[-74.182526,40.710381],[-74.182778,40.710574],[-74.184031,40.712636]]],[[[-74.18403,40.712691],[-74.184067,40.712663],[-74.184066,40.712691],[-74.18403,40.712691]]],[[[-74.184066,40.712746],[-74.184102,40.712718],[-74.184102,40.712746],[-74.184066,40.712746]]],[[[-74.183704,40.713019],[-74.18374,40.713047],[-74.183704,40.713047],[-74.183704,40.713019]]],[[[-74.184425,40.713131],[-74.184389,40.713104],[-74.184425,40.713104],[-74.184425,40.713131]]],[[[-74.185939,40.713355],[-74.185975,40.713327],[-74.185975,40.713355],[-74.185939,40.713355]]],[[[-74.185903,40.713382],[-74.185939,40.713355],[-74.185939,40.713382],[-74.185903,40.713382]]],[[[-74.185903,40.71341],[-74.185867,40.713382],[-74.185903,40.713382],[-74.185903,40.71341]]],[[[-74.183882,40.713459],[-74.183919,40.713404],[-74.183918,40.713459],[-74.183882,40.713459]]],[[[-74.184052,40.715655],[-74.184089,40.715628],[-74.184088,40.715656],[-74.184052,40.715655]]],[[[-74.183579,40.716588],[-74.183543,40.71656],[-74.183579,40.71656],[-74.183579,40.716588]]],[[[-74.182783,40.717107],[-74.182747,40.717079],[-74.182783,40.717079],[-74.182783,40.717107]]],[[[-74.181644,40.706288],[-74.181608,40.706261],[-74.181644,40.706261],[-74.181644,40.706288]]],[[[-74.179512,40.707106],[-74.180562,40.706121],[-74.181285,40.705958],[-74.182078,40.70607],[-74.181391,40.70626],[-74.179291,40.708066],[-74.179512,40.707106]]],[[[-74.204923,40.703276],[-74.204742,40.703495],[-74.204923,40.703413],[-74.204995,40.703441],[-74.204235,40.703988],[-74.198556,40.707404],[-74.198629,40.70724],[-74.19798,40.707156],[-74.198306,40.706937],[-74.198198,40.706909],[-74.197439,40.707154],[-74.197257,40.707483],[-74.196319,40.707673],[-74.18683,40.708004],[-74.185569,40.707699],[-74.184202,40.706982],[-74.183734,40.706596],[-74.183737,40.706129],[-74.183519,40.706293],[-74.183342,40.705717],[-74.182762,40.706209],[-74.18197,40.705905],[-74.181105,40.705875],[-74.179479,40.706365],[-74.17908,40.706858],[-74.179078,40.707269],[-74.179476,40.706996],[-74.179218,40.708093],[-74.178459,40.708421],[-74.178639,40.708476],[-74.178422,40.70875],[-74.179324,40.708643],[-74.179898,40.709248],[-74.181806,40.710104],[-74.182165,40.710517],[-74.183526,40.712635],[-74.183704,40.713019],[-74.176301,40.714563],[-74.170381,40.71526],[-74.170092,40.715342],[-74.17446,40.71486],[-74.17464,40.714888],[-74.173629,40.715105],[-74.173592,40.715187],[-74.175361,40.715055],[-74.178682,40.71457],[-74.17843,40.714487],[-74.178683,40.714405],[-74.18092,40.714302],[-74.181066,40.714083],[-74.183304,40.713759],[-74.183739,40.713349],[-74.184167,40.714283],[-74.184018,40.715271],[-74.184052,40.715738],[-74.183761,40.716286],[-74.182421,40.717243],[-74.182131,40.717627],[-74.18169,40.719382],[-74.182348,40.717463],[-74.183543,40.716587],[-74.1826,40.717655],[-74.182923,40.717876],[-74.184302,40.716178],[-74.184706,40.714697],[-74.184461,40.713131],[-74.186808,40.712616],[-74.185976,40.71319],[-74.185831,40.713355],[-74.185902,40.713492],[-74.187313,40.712645],[-74.190132,40.711692],[-74.190636,40.711775],[-74.191503,40.711476],[-74.191649,40.711284],[-74.191792,40.711394],[-74.192046,40.71123],[-74.191974,40.711175],[-74.19219,40.711203],[-74.192299,40.711039],[-74.194287,40.710166],[-74.194503,40.710276],[-74.194069,40.710604],[-74.194321,40.710715],[-74.193561,40.711152],[-74.193488,40.711454],[-74.192803,40.711315],[-74.193273,40.711014],[-74.193201,40.710931],[-74.192189,40.711395],[-74.192153,40.711423],[-74.192189,40.711478],[-74.1919,40.711559],[-74.192115,40.711917],[-74.192619,40.712083],[-74.1924,40.712576],[-74.192651,40.712851],[-74.191531,40.713397],[-74.191239,40.714],[-74.190553,40.714246],[-74.190081,40.714821],[-74.189865,40.714683],[-74.189755,40.715067],[-74.188745,40.714982],[-74.189175,40.715642],[-74.188562,40.715585],[-74.188883,40.716327],[-74.188125,40.716518],[-74.188845,40.716767],[-74.188805,40.717782],[-74.188259,40.718796],[-74.187862,40.71885],[-74.188004,40.71918],[-74.187134,40.720111],[-74.1867,40.720274],[-74.185114,40.720133],[-74.185184,40.720545],[-74.183923,40.720212],[-74.183525,40.720375],[-74.183595,40.720787],[-74.182946,40.720758],[-74.182692,40.721005],[-74.182799,40.721279],[-74.18233,40.721388],[-74.18197,40.721057],[-74.182076,40.721497],[-74.181716,40.721496],[-74.181859,40.721743],[-74.181209,40.721906],[-74.181315,40.722263],[-74.180629,40.722481],[-74.180699,40.722866],[-74.180157,40.723001],[-74.180119,40.723495],[-74.179359,40.723823],[-74.17943,40.724043],[-74.178198,40.725219],[-74.178018,40.725054],[-74.178309,40.724616],[-74.177878,40.72434],[-74.178383,40.724232],[-74.178349,40.723847],[-74.176908,40.723294],[-74.176511,40.72343],[-74.176473,40.72387],[-74.17575,40.723977],[-74.175965,40.724362],[-74.175749,40.724362],[-74.175602,40.724855],[-74.174879,40.725128],[-74.174407,40.725621],[-74.174297,40.726114],[-74.173718,40.72636],[-74.173648,40.72603],[-74.173463,40.726826],[-74.173065,40.727154],[-74.17256,40.727153],[-74.172342,40.727481],[-74.172521,40.727756],[-74.171871,40.727754],[-74.171834,40.728084],[-74.171327,40.728329],[-74.170928,40.728877],[-74.171177,40.729509],[-74.170454,40.729727],[-74.17067,40.729975],[-74.17002,40.729945],[-74.169297,40.730327],[-74.168318,40.731285],[-74.167554,40.732491],[-74.167229,40.7326],[-74.167008,40.733313],[-74.166937,40.733203],[-74.166611,40.733422],[-74.166282,40.734327],[-74.166064,40.734545],[-74.165631,40.734462],[-74.16523,40.735284],[-74.164725,40.735283],[-74.164546,40.735063],[-74.164511,40.734843],[-74.165018,40.734488],[-74.164838,40.734295],[-74.166542,40.732708],[-74.166831,40.732681],[-74.167631,40.731393],[-74.170605,40.72841],[-74.183727,40.715792],[-74.182678,40.716475],[-74.177675,40.721375],[-74.177388,40.721045],[-74.176955,40.721016],[-74.177169,40.721566],[-74.17619,40.722688],[-74.175502,40.723043],[-74.175573,40.723373],[-74.165386,40.733006],[-74.161438,40.735822],[-74.160184,40.73481],[-74.158448,40.734014],[-74.15732,40.733745],[-74.155351,40.733699],[-74.155354,40.733087],[-74.155101,40.733113],[-74.15517,40.733696],[-74.14854,40.733908],[-74.147363,40.734175],[-74.145864,40.735025],[-74.142001,40.73941],[-74.139754,40.740681],[-74.135339,40.741671],[-74.128166,40.742211],[-74.123114,40.742143],[-74.123886,40.739686],[-74.124154,40.73686],[-74.124991,40.735627],[-74.126261,40.734478],[-74.132921,40.730849],[-74.13513,40.729456],[-74.136685,40.728802],[-74.136722,40.728555],[-74.137514,40.728969],[-74.137769,40.728531],[-74.138202,40.728422],[-74.137879,40.728092],[-74.138749,40.727409],[-74.140377,40.7267],[-74.142622,40.725225],[-74.154418,40.71859],[-74.155792,40.718073],[-74.157815,40.717585],[-74.158754,40.71745],[-74.158933,40.717588],[-74.159187,40.717396],[-74.163266,40.716859],[-74.16092,40.717017],[-74.160234,40.71718],[-74.160162,40.717097],[-74.158285,40.717421],[-74.156845,40.716731],[-74.156633,40.715989],[-74.157109,40.71459],[-74.157505,40.714701],[-74.157577,40.714647],[-74.157686,40.714647],[-74.157685,40.714757],[-74.157793,40.714785],[-74.161218,40.715261],[-74.158659,40.71476],[-74.158408,40.714567],[-74.157794,40.714538],[-74.157254,40.714371],[-74.157255,40.714289],[-74.158529,40.711932],[-74.158854,40.711905],[-74.159796,40.71103],[-74.160627,40.710785],[-74.161457,40.710815],[-74.16099,40.710512],[-74.162936,40.710847],[-74.163009,40.710573],[-74.161568,40.710321],[-74.160809,40.710456],[-74.16027,40.71018],[-74.161174,40.709634],[-74.162873,40.709062],[-74.163016,40.709173],[-74.16273,40.708705],[-74.161358,40.708976],[-74.161577,40.708565],[-74.161109,40.708234],[-74.161069,40.708975],[-74.159586,40.709876],[-74.159118,40.709738],[-74.159044,40.709957],[-74.158431,40.709928],[-74.157526,40.710639],[-74.157741,40.710941],[-74.157486,40.711325],[-74.155204,40.71324],[-74.154953,40.712937],[-74.150595,40.711524],[-74.149982,40.711549],[-74.149875,40.711302],[-74.148507,40.710804],[-74.151223,40.708644],[-74.153462,40.708129],[-74.153356,40.707854],[-74.154008,40.707362],[-74.153326,40.706646],[-74.151056,40.706145],[-74.1516,40.705515],[-74.152106,40.705434],[-74.153399,40.706536],[-74.15279,40.705656],[-74.152287,40.705353],[-74.151565,40.705351],[-74.150912,40.706117],[-74.150156,40.705895],[-74.150842,40.70576],[-74.151531,40.704911],[-74.153008,40.70541],[-74.153189,40.705218],[-74.151173,40.704389],[-74.150959,40.704059],[-74.150595,40.704579],[-74.151423,40.704856],[-74.151133,40.705294],[-74.150517,40.705704],[-74.149724,40.705647],[-74.147312,40.704816],[-74.143929,40.703241],[-74.138997,40.701496],[-74.117574,40.694977],[-74.120322,40.69066],[-74.125251,40.68406],[-74.131955,40.673797],[-74.139139,40.677125],[-74.148986,40.682244],[-74.150435,40.683156],[-74.152657,40.685232],[-74.153849,40.685922],[-74.155324,40.686124],[-74.158342,40.686031],[-74.15938,40.686682],[-74.16063,40.688486],[-74.161494,40.689267],[-74.165051,40.69017],[-74.167635,40.689971],[-74.169273,40.688625],[-74.180938,40.687905],[-74.179674,40.688303],[-74.179745,40.688578],[-74.180033,40.688551],[-74.179961,40.688688],[-74.180033,40.688716],[-74.181081,40.688115],[-74.18202,40.687925],[-74.183028,40.688175],[-74.183998,40.688891],[-74.183353,40.688148],[-74.182489,40.687812],[-74.191687,40.687266],[-74.191104,40.688609],[-74.191464,40.688747],[-74.191863,40.688254],[-74.193738,40.688231],[-74.191647,40.688143],[-74.191795,40.687259],[-74.197783,40.686904],[-74.197565,40.687198],[-74.197854,40.687117],[-74.197926,40.687282],[-74.197671,40.68783],[-74.199651,40.688466],[-74.199831,40.688714],[-74.198817,40.689645],[-74.19842,40.689698],[-74.198965,40.688657],[-74.197381,40.688049],[-74.19702,40.68813],[-74.196877,40.68791],[-74.196154,40.688293],[-74.195933,40.689253],[-74.196149,40.689418],[-74.195426,40.6898],[-74.195421,40.690871],[-74.195745,40.691119],[-74.194912,40.69183],[-74.195521,40.692628],[-74.196494,40.692768],[-74.197183,40.691946],[-74.197689,40.691783],[-74.197761,40.691893],[-74.196855,40.692824],[-74.196962,40.693016],[-74.196782,40.693071],[-74.196817,40.693235],[-74.196709,40.693235],[-74.196672,40.693317],[-74.1966,40.693345],[-74.196453,40.693976],[-74.196309,40.693975],[-74.19638,40.694113],[-74.194344,40.697731],[-74.193762,40.698855],[-74.193688,40.699156],[-74.193942,40.698965],[-74.197287,40.693017],[-74.197904,40.692113],[-74.19776,40.691975],[-74.198268,40.6914],[-74.198303,40.691537],[-74.198157,40.691866],[-74.198374,40.691812],[-74.200227,40.688715],[-74.200878,40.68825],[-74.202066,40.68872],[-74.202101,40.688994],[-74.201627,40.690119],[-74.202167,40.690312],[-74.201874,40.691409],[-74.202126,40.691465],[-74.202017,40.691794],[-74.202376,40.692152],[-74.20187,40.692343],[-74.202158,40.692343],[-74.201975,40.693057],[-74.201468,40.693412],[-74.201755,40.693797],[-74.2015,40.694401],[-74.201716,40.694566],[-74.201641,40.695169],[-74.200952,40.695909],[-74.201167,40.696321],[-74.200879,40.696238],[-74.200769,40.696595],[-74.200264,40.696621],[-74.200407,40.696896],[-74.199973,40.697059],[-74.199899,40.697635],[-74.199214,40.697469],[-74.198889,40.697633],[-74.199139,40.698128],[-74.19849,40.698153],[-74.198559,40.698757],[-74.198127,40.698674],[-74.19798,40.699223],[-74.197656,40.699139],[-74.197221,40.699605],[-74.196971,40.699083],[-74.196717,40.699302],[-74.196249,40.699191],[-74.196391,40.69963],[-74.196102,40.699794],[-74.196245,40.700042],[-74.195992,40.700068],[-74.196027,40.700453],[-74.196279,40.700536],[-74.195844,40.700946],[-74.196278,40.700673],[-74.196385,40.700893],[-74.196566,40.700784],[-74.196382,40.701552],[-74.197138,40.701993],[-74.198294,40.701502],[-74.198218,40.70238],[-74.198613,40.70271],[-74.199732,40.702604],[-74.200311,40.702248],[-74.200421,40.701892],[-74.201504,40.701483],[-74.201218,40.701015],[-74.200821,40.700987],[-74.201147,40.700768],[-74.200173,40.700738],[-74.199742,40.70049],[-74.199959,40.700161],[-74.199599,40.700023],[-74.199963,40.69942],[-74.200614,40.698982],[-74.201227,40.698902],[-74.201373,40.698518],[-74.202168,40.698328],[-74.202527,40.698658],[-74.202596,40.699289],[-74.201473,40.700467],[-74.202302,40.700579],[-74.202885,40.699345],[-74.203678,40.69932],[-74.204366,40.698772],[-74.204943,40.698884],[-74.205234,40.698143],[-74.205777,40.697706],[-74.206895,40.697818],[-74.20762,40.696969],[-74.207688,40.697848],[-74.208949,40.698125],[-74.209847,40.698979],[-74.209449,40.699362],[-74.210601,40.699914],[-74.210889,40.69986],[-74.211033,40.699915],[-74.205284,40.703277],[-74.205139,40.703331],[-74.205212,40.703222],[-74.205031,40.703276],[-74.204923,40.703248],[-74.204923,40.703276]],[[-74.204778,40.703385],[-74.204742,40.703358],[-74.204742,40.703385],[-74.204778,40.703385]],[[-74.204742,40.703385],[-74.204706,40.703412],[-74.204742,40.703413],[-74.204742,40.703385]],[[-74.204742,40.703495],[-74.204706,40.703522],[-74.204742,40.703522],[-74.204742,40.703495]],[[-74.204706,40.703522],[-74.204669,40.70355],[-74.204705,40.70355],[-74.204706,40.703522]],[[-74.203512,40.70437],[-74.203476,40.704343],[-74.203475,40.70437],[-74.203512,40.70437]],[[-74.198991,40.707076],[-74.198955,40.707048],[-74.198954,40.707076],[-74.198991,40.707076]],[[-74.179078,40.707269],[-74.179042,40.707297],[-74.179078,40.707297],[-74.179078,40.707269]],[[-74.179042,40.707297],[-74.179006,40.707324],[-74.179042,40.707324],[-74.179042,40.707297]],[[-74.178459,40.708448],[-74.178423,40.708475],[-74.178459,40.708476],[-74.178459,40.708448]],[[-74.179359,40.708753],[-74.179323,40.70878],[-74.179359,40.70878],[-74.179359,40.708753]],[[-74.183167,40.712139],[-74.183095,40.712112],[-74.183167,40.712194],[-74.183167,40.712139]],[[-74.175579,40.714644],[-74.175616,40.714589],[-74.175399,40.714643],[-74.175579,40.714644]],[[-74.178682,40.71457],[-74.178718,40.714598],[-74.178718,40.71457],[-74.178682,40.71457]],[[-74.183304,40.713759],[-74.18334,40.713787],[-74.18334,40.713759],[-74.183304,40.713759]],[[-74.184018,40.715271],[-74.183946,40.715243],[-74.183946,40.715271],[-74.184018,40.715271]],[[-74.182671,40.71782],[-74.182635,40.717848],[-74.182671,40.717848],[-74.182671,40.71782]],[[-74.184706,40.714697],[-74.184742,40.714724],[-74.184742,40.714697],[-74.184706,40.714697]],[[-74.192552,40.710984],[-74.192588,40.711012],[-74.192588,40.710985],[-74.192552,40.710984]],[[-74.192117,40.711477],[-74.192081,40.71145],[-74.192081,40.711477],[-74.192117,40.711477]],[[-74.192044,40.711505],[-74.192008,40.711477],[-74.192008,40.711505],[-74.192044,40.711505]],[[-74.188745,40.714982],[-74.188709,40.714954],[-74.188709,40.714982],[-74.188745,40.714982]],[[-74.188709,40.714954],[-74.188674,40.714927],[-74.188673,40.714954],[-74.188709,40.714954]],[[-74.167046,40.732929],[-74.167083,40.732847],[-74.167011,40.732874],[-74.167046,40.732929]],[[-74.167083,40.732847],[-74.167119,40.732819],[-74.167083,40.732819],[-74.167083,40.732847]],[[-74.164582,40.73498],[-74.164691,40.734926],[-74.164582,40.734953],[-74.164582,40.73498]],[[-74.164691,40.734926],[-74.164727,40.734898],[-74.164691,40.734898],[-74.164691,40.734926]],[[-74.183328,40.71623],[-74.183364,40.716258],[-74.183364,40.71623],[-74.183328,40.71623]],[[-74.183475,40.715736],[-74.183511,40.715681],[-74.183439,40.715681],[-74.183475,40.715736]],[[-74.18304,40.716119],[-74.183076,40.716065],[-74.18304,40.716064],[-74.18304,40.716119]],[[-74.153875,40.718945],[-74.153911,40.718973],[-74.153912,40.718945],[-74.153875,40.718945]],[[-74.155214,40.718318],[-74.155249,40.718346],[-74.15525,40.718318],[-74.155214,40.718318]],[[-74.155213,40.718345],[-74.155177,40.718373],[-74.155213,40.718373],[-74.155213,40.718345]],[[-74.163266,40.716832],[-74.163339,40.716805],[-74.163267,40.716805],[-74.163266,40.716832]],[[-74.160307,40.717125],[-74.160343,40.717098],[-74.160307,40.717098],[-74.160307,40.717125]],[[-74.157577,40.714674],[-74.157613,40.714729],[-74.157613,40.714674],[-74.157577,40.714674]],[[-74.157542,40.714427],[-74.157579,40.7144],[-74.157543,40.7144],[-74.157542,40.714427]],[[-74.163089,40.709036],[-74.163125,40.709008],[-74.163089,40.709008],[-74.163089,40.709036]],[[-74.157489,40.710721],[-74.157453,40.710748],[-74.157489,40.710748],[-74.157489,40.710721]],[[-74.151295,40.708644],[-74.151331,40.708671],[-74.151332,40.708644],[-74.151295,40.708644]],[[-74.153435,40.706509],[-74.153471,40.706537],[-74.153471,40.706509],[-74.153435,40.706509]],[[-74.15308,40.70541],[-74.153116,40.705438],[-74.153116,40.70541],[-74.15308,40.70541]],[[-74.17996,40.688715],[-74.179924,40.688743],[-74.17996,40.688743],[-74.17996,40.688715]],[[-74.197255,40.692001],[-74.197219,40.692056],[-74.197255,40.692056],[-74.197255,40.692001]],[[-74.197219,40.692056],[-74.197183,40.692111],[-74.197219,40.692111],[-74.197219,40.692056]],[[-74.197327,40.692166],[-74.19711,40.692166],[-74.197326,40.692194],[-74.197327,40.692166]],[[-74.197326,40.692194],[-74.197362,40.692221],[-74.197363,40.692194],[-74.197326,40.692194]],[[-74.196855,40.692824],[-74.196783,40.692796],[-74.196783,40.692824],[-74.196855,40.692824]],[[-74.196675,40.692796],[-74.196711,40.692768],[-74.196675,40.692741],[-74.196675,40.692796]],[[-74.196711,40.692741],[-74.196747,40.692714],[-74.196711,40.692714],[-74.196711,40.692741]],[[-74.197032,40.693565],[-74.197068,40.693593],[-74.197068,40.693565],[-74.197032,40.693565]],[[-74.198231,40.69162],[-74.198195,40.691592],[-74.198195,40.691619],[-74.198231,40.69162]],[[-74.201946,40.691519],[-74.201909,40.691574],[-74.201945,40.691574],[-74.201946,40.691519]],[[-74.202231,40.692151],[-74.202195,40.692124],[-74.202195,40.692151],[-74.202231,40.692151]],[[-74.201834,40.692343],[-74.201834,40.692288],[-74.201798,40.69226],[-74.201834,40.692343]],[[-74.2015,40.69451],[-74.201463,40.694538],[-74.201499,40.694538],[-74.2015,40.69451]],[[-74.196385,40.700893],[-74.196349,40.70092],[-74.196385,40.70092],[-74.196385,40.700893]],[[-74.205212,40.703222],[-74.205284,40.703139],[-74.205212,40.703139],[-74.205212,40.703222]]],[[[-74.178639,40.708449],[-74.178676,40.708421],[-74.178676,40.708449],[-74.178639,40.708449]]],[[[-74.179613,40.708561],[-74.179577,40.708588],[-74.179577,40.708561],[-74.179613,40.708561]]],[[[-74.17918,40.708615],[-74.179252,40.708588],[-74.179252,40.708615],[-74.17918,40.708615]]],[[[-74.179685,40.708534],[-74.180876,40.7084],[-74.181055,40.708647],[-74.180261,40.708837],[-74.179685,40.708534]]],[[[-74.180946,40.708867],[-74.180765,40.708949],[-74.180766,40.708894],[-74.180946,40.708867]]],[[[-74.181915,40.709967],[-74.179935,40.709084],[-74.179613,40.708589],[-74.181628,40.709527],[-74.181915,40.709967]]],[[[-74.181915,40.709995],[-74.181951,40.709968],[-74.181951,40.709995],[-74.181915,40.709995]]],[[[-74.180344,40.714136],[-74.180308,40.714108],[-74.180344,40.714108],[-74.180344,40.714136]]],[[[-74.180235,40.714218],[-74.179478,40.714133],[-74.180236,40.714053],[-74.180235,40.714218]]],[[[-74.180091,40.714245],[-74.180127,40.714272],[-74.180091,40.714272],[-74.180091,40.714245]]],[[[-74.169265,40.729531],[-74.169229,40.729504],[-74.169265,40.729504],[-74.169265,40.729531]]],[[[-74.169228,40.729531],[-74.169192,40.729559],[-74.169192,40.729531],[-74.169228,40.729531]]],[[[-74.169192,40.729559],[-74.169156,40.729586],[-74.169156,40.729558],[-74.169192,40.729559]]],[[[-74.168322,40.730489],[-74.168285,40.730517],[-74.168285,40.730489],[-74.168322,40.730489]]],[[[-74.168213,40.730517],[-74.168177,40.730489],[-74.168213,40.730489],[-74.168213,40.730517]]],[[[-74.168285,40.730517],[-74.168249,40.730544],[-74.168249,40.730517],[-74.168285,40.730517]]],[[[-74.168141,40.730516],[-74.168177,40.730544],[-74.168141,40.730544],[-74.168141,40.730516]]],[[[-74.168249,40.730544],[-74.168213,40.730571],[-74.168213,40.730544],[-74.168249,40.730544]]],[[[-74.167523,40.731365],[-74.167487,40.731338],[-74.167523,40.731338],[-74.167523,40.731365]]],[[[-74.167451,40.731365],[-74.167487,40.731393],[-74.167451,40.731393],[-74.167451,40.731365]]],[[[-74.166864,40.73334],[-74.1669,40.733313],[-74.1669,40.73334],[-74.166864,40.73334]]],[[[-74.166791,40.733422],[-74.166827,40.73345],[-74.166791,40.73345],[-74.166791,40.733422]]],[[[-74.164297,40.734238],[-74.164261,40.734211],[-74.164297,40.734211],[-74.164297,40.734238]]],[[[-74.164189,40.734293],[-74.164225,40.734266],[-74.164225,40.734293],[-74.164189,40.734293]]],[[[-74.16408,40.734402],[-74.164044,40.734375],[-74.16408,40.734375],[-74.16408,40.734402]]],[[[-74.164008,40.734402],[-74.164044,40.73443],[-74.164008,40.73443],[-74.164008,40.734402]]],[[[-74.164008,40.73443],[-74.163971,40.734457],[-74.163972,40.73443],[-74.164008,40.73443]]],[[[-74.163971,40.734457],[-74.163935,40.734484],[-74.163935,40.734457],[-74.163971,40.734457]]],[[[-74.163899,40.734484],[-74.163935,40.734512],[-74.163899,40.734512],[-74.163899,40.734484]]],[[[-74.163899,40.734512],[-74.163863,40.734539],[-74.163863,40.734512],[-74.163899,40.734512]]],[[[-74.163863,40.734539],[-74.163827,40.734566],[-74.163827,40.734539],[-74.163863,40.734539]]],[[[-74.16379,40.734566],[-74.163826,40.734594],[-74.16379,40.734594],[-74.16379,40.734566]]],[[[-74.163682,40.734621],[-74.163718,40.734648],[-74.163682,40.734648],[-74.163682,40.734621]]],[[[-74.1635,40.73484],[-74.163464,40.734812],[-74.163501,40.734813],[-74.1635,40.73484]]],[[[-74.163464,40.73484],[-74.163428,40.734867],[-74.163428,40.73484],[-74.163464,40.73484]]],[[[-74.163428,40.734867],[-74.163392,40.734895],[-74.163392,40.734867],[-74.163428,40.734867]]],[[[-74.163356,40.734922],[-74.16332,40.734894],[-74.163356,40.734894],[-74.163356,40.734922]]],[[[-74.16332,40.734922],[-74.163283,40.734949],[-74.163283,40.734922],[-74.16332,40.734922]]],[[[-74.164438,40.735062],[-74.164474,40.735035],[-74.164474,40.735062],[-74.164438,40.735062]]],[[[-74.165348,40.740665],[-74.165384,40.740692],[-74.165348,40.740692],[-74.165348,40.740665]]],[[[-74.165636,40.740775],[-74.165672,40.740803],[-74.165636,40.740803],[-74.165636,40.740775]]],[[[-74.167309,40.745392],[-74.167624,40.747397],[-74.165867,40.747392],[-74.165748,40.74525],[-74.166227,40.745197],[-74.166192,40.745059],[-74.165714,40.745085],[-74.162778,40.737845],[-74.161707,40.736207],[-74.163969,40.734951],[-74.164112,40.735144],[-74.16433,40.73498],[-74.164438,40.73498],[-74.163676,40.735746],[-74.16461,40.736737],[-74.164784,40.737891],[-74.164566,40.738247],[-74.165427,40.739265],[-74.165532,40.739897],[-74.165606,40.739622],[-74.16582,40.73998],[-74.165853,40.740694],[-74.165745,40.740638],[-74.165745,40.740693],[-74.165708,40.740693],[-74.165636,40.740775],[-74.1656,40.740775],[-74.165312,40.74061],[-74.165058,40.740884],[-74.16638,40.74344],[-74.166842,40.745006],[-74.166623,40.745417],[-74.166913,40.745253],[-74.167309,40.745392]],[[-74.16433,40.735007],[-74.164366,40.735035],[-74.164366,40.735007],[-74.16433,40.735007]],[[-74.165211,40.739072],[-74.165139,40.739127],[-74.165211,40.7391],[-74.165211,40.739072]],[[-74.165139,40.739127],[-74.165103,40.739182],[-74.165139,40.739182],[-74.165139,40.739127]],[[-74.165139,40.739182],[-74.165175,40.739209],[-74.165175,40.739182],[-74.165139,40.739182]],[[-74.165138,40.739209],[-74.165102,40.739237],[-74.165138,40.739237],[-74.165138,40.739209]],[[-74.165138,40.739237],[-74.165174,40.739264],[-74.165174,40.739237],[-74.165138,40.739237]],[[-74.165354,40.739402],[-74.165281,40.739621],[-74.165353,40.739622],[-74.165354,40.739402]],[[-74.167164,40.745446],[-74.1672,40.745474],[-74.167201,40.745446],[-74.167164,40.745446]],[[-74.1672,40.745529],[-74.167127,40.745666],[-74.167199,40.745694],[-74.1672,40.745529]]],[[[-74.166119,40.745141],[-74.166156,40.745114],[-74.166155,40.745141],[-74.166119,40.745141]]],[[[-74.166047,40.745114],[-74.166083,40.745141],[-74.166047,40.745141],[-74.166047,40.745114]]],[[[-74.16583,40.745168],[-74.165867,40.745141],[-74.165867,40.745168],[-74.16583,40.745168]]],[[[-74.167696,40.747507],[-74.167911,40.747809],[-74.167369,40.747917],[-74.167117,40.747725],[-74.166683,40.74797],[-74.165838,40.747886],[-74.165863,40.747474],[-74.167696,40.747507]]],[[[-74.167946,40.747892],[-74.167838,40.747864],[-74.167947,40.747864],[-74.167946,40.747892]]],[[[-74.16773,40.747891],[-74.167838,40.747919],[-74.16773,40.747918],[-74.16773,40.747891]]],[[[-74.167585,40.747946],[-74.167657,40.747918],[-74.167657,40.747946],[-74.167585,40.747946]]],[[[-74.168053,40.748276],[-74.168017,40.748249],[-74.168053,40.748249],[-74.168053,40.748276]]],[[[-74.165476,40.751069],[-74.16544,40.751096],[-74.16544,40.751014],[-74.165476,40.751069]]],[[[-74.165368,40.751096],[-74.165404,40.751014],[-74.165404,40.751096],[-74.165368,40.751096]]],[[[-74.165295,40.751096],[-74.165332,40.751041],[-74.165332,40.751096],[-74.165295,40.751096]]],[[[-74.163038,40.762042],[-74.16322,40.761768],[-74.163474,40.761604],[-74.163473,40.761823],[-74.163038,40.762042]]],[[[-74.150993,40.704361],[-74.151029,40.704498],[-74.150885,40.704388],[-74.150993,40.704361]]],[[[-74.150156,40.705868],[-74.150084,40.70584],[-74.150156,40.70584],[-74.150156,40.705868]]],[[[-74.153325,40.706811],[-74.15192,40.706532],[-74.15192,40.706477],[-74.153325,40.706811]]],[[[-74.152057,40.707823],[-74.151881,40.707108],[-74.151483,40.707244],[-74.151593,40.706915],[-74.151088,40.706886],[-74.151089,40.706694],[-74.150547,40.706857],[-74.15001,40.706197],[-74.149218,40.705838],[-74.151054,40.706447],[-74.151089,40.706667],[-74.151306,40.70653],[-74.152279,40.706862],[-74.152924,40.707606],[-74.152743,40.70777],[-74.152274,40.707713],[-74.152057,40.707823]],[[-74.151593,40.706915],[-74.151629,40.706888],[-74.151593,40.706888],[-74.151593,40.706915]]],[[[-74.153216,40.706948],[-74.153577,40.706921],[-74.153648,40.707086],[-74.153216,40.706948]]],[[[-74.153574,40.707525],[-74.15325,40.707359],[-74.153611,40.707333],[-74.153574,40.707525]]],[[[-74.15231,40.707741],[-74.152274,40.707768],[-74.152274,40.707741],[-74.15231,40.707741]]],[[[-74.152346,40.707768],[-74.15231,40.707796],[-74.15231,40.707768],[-74.152346,40.707768]]],[[[-74.162657,40.708979],[-74.162693,40.708952],[-74.162693,40.70898],[-74.162657,40.708979]]],[[[-74.150103,40.709079],[-74.150176,40.708915],[-74.15032,40.708888],[-74.150284,40.70897],[-74.150103,40.709079]]],[[[-74.150103,40.709079],[-74.150067,40.709107],[-74.150067,40.709079],[-74.150103,40.709079]]],[[[-74.149994,40.709134],[-74.150066,40.709162],[-74.149994,40.709189],[-74.149994,40.709134]]],[[[-74.160054,40.710015],[-74.16009,40.709988],[-74.16009,40.710015],[-74.160054,40.710015]]],[[[-74.159044,40.710094],[-74.158972,40.710039],[-74.159044,40.710012],[-74.159044,40.710094]]],[[[-74.158935,40.710121],[-74.158828,40.710039],[-74.158936,40.710039],[-74.158935,40.710121]]],[[[-74.157113,40.713794],[-74.155528,40.713296],[-74.157846,40.711436],[-74.158241,40.711794],[-74.157113,40.713794]]],[[[-74.15318,40.713947],[-74.153216,40.713975],[-74.15318,40.713975],[-74.15318,40.713947]]],[[[-74.154443,40.713896],[-74.153938,40.713922],[-74.15401,40.713895],[-74.154443,40.713896]]],[[[-74.153288,40.714003],[-74.153324,40.713975],[-74.153324,40.714003],[-74.153288,40.714003]]],[[[-74.154189,40.714115],[-74.154225,40.714088],[-74.154225,40.714115],[-74.154189,40.714115]]],[[[-74.154586,40.714171],[-74.154621,40.714226],[-74.154585,40.714226],[-74.154586,40.714171]]],[[[-74.154549,40.714253],[-74.154585,40.714226],[-74.154585,40.714253],[-74.154549,40.714253]]],[[[-74.157181,40.714563],[-74.157217,40.714536],[-74.157217,40.714563],[-74.157181,40.714563]]],[[[-74.157181,40.714591],[-74.157145,40.714563],[-74.157181,40.714563],[-74.157181,40.714591]]],[[[-74.157505,40.714646],[-74.157541,40.714619],[-74.157541,40.714647],[-74.157505,40.714646]]],[[[-74.15783,40.714702],[-74.157722,40.714675],[-74.15783,40.714675],[-74.15783,40.714702]]],[[[-74.156636,40.715248],[-74.1566,40.715303],[-74.1566,40.715248],[-74.156636,40.715248]]],[[[-74.1566,40.715303],[-74.156377,40.71662],[-74.155908,40.716618],[-74.1566,40.715303]]],[[[-74.151508,40.71633],[-74.151472,40.716303],[-74.151508,40.716303],[-74.151508,40.71633]]],[[[-74.160848,40.717072],[-74.160776,40.717099],[-74.160776,40.717072],[-74.160848,40.717072]]],[[[-74.155835,40.716838],[-74.15623,40.717113],[-74.156157,40.71736],[-74.155616,40.717221],[-74.155835,40.716838]]],[[[-74.160054,40.717152],[-74.16009,40.71718],[-74.160054,40.717179],[-74.160054,40.717152]]],[[[-74.155436,40.717138],[-74.155508,40.717248],[-74.155399,40.717248],[-74.155436,40.717138]]],[[[-74.157851,40.717557],[-74.157887,40.71753],[-74.157887,40.717557],[-74.157851,40.717557]]],[[[-74.154238,40.718535],[-74.155291,40.717385],[-74.155469,40.71766],[-74.155938,40.717716],[-74.156589,40.717499],[-74.156698,40.717252],[-74.157888,40.717475],[-74.15619,40.717799],[-74.154238,40.718535]]],[[[-74.156676,40.714479],[-74.155584,40.71648],[-74.154359,40.716092],[-74.153276,40.716226],[-74.154394,40.716312],[-74.155439,40.716672],[-74.154603,40.717877],[-74.149427,40.720991],[-74.147583,40.721754],[-74.150158,40.719236],[-74.151685,40.716962],[-74.153932,40.71491],[-74.154006,40.714609],[-74.154693,40.714281],[-74.154731,40.714034],[-74.156676,40.714479]],[[-74.156276,40.715137],[-74.156168,40.715082],[-74.156168,40.715137],[-74.156276,40.715137]]],[[[-74.163211,40.735031],[-74.163175,40.735004],[-74.163211,40.735004],[-74.163211,40.735031]]],[[[-74.163102,40.735058],[-74.163139,40.735031],[-74.163138,40.735059],[-74.163102,40.735058]]],[[[-74.163102,40.735058],[-74.163066,40.735086],[-74.163066,40.735058],[-74.163102,40.735058]]],[[[-74.162597,40.735167],[-74.162741,40.735195],[-74.162632,40.735222],[-74.162597,40.735167]]],[[[-74.162776,40.735305],[-74.162813,40.735277],[-74.162812,40.735305],[-74.162776,40.735305]]],[[[-74.162776,40.735305],[-74.16274,40.735332],[-74.16274,40.735304],[-74.162776,40.735305]]],[[[-74.162704,40.735332],[-74.16274,40.735359],[-74.162704,40.735359],[-74.162704,40.735332]]],[[[-74.161981,40.735577],[-74.162596,40.735222],[-74.162162,40.73555],[-74.161981,40.735577]]],[[[-74.161981,40.735577],[-74.161945,40.735604],[-74.161945,40.735577],[-74.161981,40.735577]]],[[[-74.161909,40.735604],[-74.161945,40.735631],[-74.161909,40.735631],[-74.161909,40.735604]]],[[[-74.162631,40.735414],[-74.162197,40.735742],[-74.161871,40.735851],[-74.162631,40.735414]]],[[[-74.161618,40.736042],[-74.161691,40.735905],[-74.161799,40.735933],[-74.161618,40.736042]]],[[[-74.168377,40.748332],[-74.168336,40.749348],[-74.168914,40.749239],[-74.168912,40.749651],[-74.169561,40.749763],[-74.169776,40.750065],[-74.169307,40.750064],[-74.168762,40.750776],[-74.168258,40.750528],[-74.167893,40.751405],[-74.167713,40.751295],[-74.167603,40.751596],[-74.167026,40.751567],[-74.166949,40.752473],[-74.166367,40.753459],[-74.166615,40.754201],[-74.166355,40.755765],[-74.166533,40.756342],[-74.166134,40.756561],[-74.165907,40.758646],[-74.164817,40.760153],[-74.163076,40.761712],[-74.159984,40.766397],[-74.159106,40.768481],[-74.159035,40.768343],[-74.157256,40.770287],[-74.15747,40.770837],[-74.155905,40.773138],[-74.155974,40.773824],[-74.156299,40.773825],[-74.156514,40.77421],[-74.156081,40.774154],[-74.155898,40.774593],[-74.155464,40.774591],[-74.155172,40.775194],[-74.155459,40.775607],[-74.155384,40.776101],[-74.154842,40.776237],[-74.154338,40.775988],[-74.153758,40.776425],[-74.153828,40.776782],[-74.15426,40.777003],[-74.15397,40.777222],[-74.154258,40.777415],[-74.154073,40.77832],[-74.152881,40.778372],[-74.152305,40.777986],[-74.152016,40.778067],[-74.152914,40.778976],[-74.152913,40.779195],[-74.152588,40.779222],[-74.152261,40.779605],[-74.152656,40.779936],[-74.152186,40.780017],[-74.152185,40.780264],[-74.15341,40.780816],[-74.148329,40.779601],[-74.148635,40.778535],[-74.150145,40.776799],[-74.150613,40.77713],[-74.149778,40.778005],[-74.149083,40.779678],[-74.150721,40.777185],[-74.1518,40.778012],[-74.151623,40.777352],[-74.151441,40.777462],[-74.15083,40.777075],[-74.153874,40.774998],[-74.153693,40.774998],[-74.153077,40.775463],[-74.152969,40.775435],[-74.152896,40.775517],[-74.15286,40.775517],[-74.152896,40.775599],[-74.152787,40.775681],[-74.150685,40.777048],[-74.150205,40.776744],[-74.153904,40.77338],[-74.155822,40.770247],[-74.157171,40.767025],[-74.161643,40.762036],[-74.163014,40.760089],[-74.163961,40.75797],[-74.165214,40.751123],[-74.165692,40.751124],[-74.165657,40.750959],[-74.165235,40.750986],[-74.1658,40.748133],[-74.166609,40.74819],[-74.166572,40.748546],[-74.166931,40.748822],[-74.167328,40.748768],[-74.167403,40.748247],[-74.168377,40.748332]],[[-74.157397,40.770864],[-74.157361,40.770836],[-74.157361,40.770864],[-74.157397,40.770864]],[[-74.157325,40.770891],[-74.157289,40.770809],[-74.157253,40.770918],[-74.157325,40.770891]],[[-74.157253,40.770918],[-74.157216,40.770973],[-74.157252,40.770973],[-74.157253,40.770918]],[[-74.157216,40.770973],[-74.15718,40.771028],[-74.157216,40.771028],[-74.157216,40.770973]],[[-74.15718,40.771028],[-74.157144,40.771055],[-74.15718,40.771055],[-74.15718,40.771028]],[[-74.149778,40.778005],[-74.149742,40.777978],[-74.149741,40.778005],[-74.149778,40.778005]],[[-74.14934,40.778855],[-74.149304,40.778828],[-74.149304,40.778855],[-74.14934,40.778855]],[[-74.14923,40.779074],[-74.149194,40.779047],[-74.149194,40.779074],[-74.14923,40.779074]],[[-74.149194,40.779157],[-74.149158,40.779129],[-74.149158,40.779157],[-74.149194,40.779157]],[[-74.149157,40.779266],[-74.149121,40.779239],[-74.149121,40.779266],[-74.149157,40.779266]],[[-74.14912,40.779376],[-74.149084,40.779348],[-74.149084,40.779376],[-74.14912,40.779376]],[[-74.153874,40.774998],[-74.15391,40.774971],[-74.153874,40.774971],[-74.153874,40.774998]],[[-74.153077,40.775408],[-74.153041,40.77538],[-74.153041,40.775408],[-74.153077,40.775408]],[[-74.15286,40.775544],[-74.152823,40.775572],[-74.15286,40.775572],[-74.15286,40.775544]]],[[[-74.160777,40.766619],[-74.160125,40.767002],[-74.160528,40.765932],[-74.160815,40.766235],[-74.160777,40.766619]]],[[[-74.159907,40.767193],[-74.159908,40.767001],[-74.159981,40.767001],[-74.159907,40.767193]]],[[[-74.157056,40.774129],[-74.158041,40.772129],[-74.158118,40.771141],[-74.158551,40.771142],[-74.158301,40.770729],[-74.158554,40.770593],[-74.158484,40.770263],[-74.158088,40.769933],[-74.159177,40.768865],[-74.15873,40.771472],[-74.157056,40.774129]]],[[[-74.152968,40.775462],[-74.153004,40.77549],[-74.152968,40.77549],[-74.152968,40.775462]]],[[[-74.152932,40.77549],[-74.152968,40.775517],[-74.152932,40.775517],[-74.152932,40.77549]]],[[[-74.152932,40.775545],[-74.152896,40.775517],[-74.152932,40.775517],[-74.152932,40.775545]]],[[[-74.15341,40.780836],[-74.154384,40.781039],[-74.154455,40.781176],[-74.15341,40.780836]]],[[[-74.154582,40.781314],[-74.157231,40.782228],[-74.15759,40.782476],[-74.154582,40.781314]]],[[[-74.14875,40.705671],[-74.148714,40.705644],[-74.14875,40.705644],[-74.14875,40.705671]]],[[[-74.148786,40.705699],[-74.148822,40.705672],[-74.148822,40.705699],[-74.148786,40.705699]]],[[[-74.148858,40.705727],[-74.148894,40.705699],[-74.148894,40.705727],[-74.148858,40.705727]]],[[[-74.149002,40.705755],[-74.14893,40.705754],[-74.14893,40.705727],[-74.149002,40.705727],[-74.149002,40.705755]]],[[[-74.149002,40.705782],[-74.149002,40.705755],[-74.149074,40.705755],[-74.149074,40.705782],[-74.149002,40.705782]]],[[[-74.149146,40.70581],[-74.149074,40.705782],[-74.149146,40.705782],[-74.149146,40.70581]]],[[[-74.149218,40.70581],[-74.149146,40.705837],[-74.149146,40.70581],[-74.149218,40.70581]]],[[[-74.149648,40.706415],[-74.149684,40.706443],[-74.149612,40.706443],[-74.149648,40.706415]]],[[[-74.141634,40.707434],[-74.14167,40.707461],[-74.141634,40.707461],[-74.141634,40.707434]]],[[[-74.141562,40.707461],[-74.141526,40.707433],[-74.141562,40.707434],[-74.141562,40.707461]]],[[[-74.141742,40.707544],[-74.141778,40.707517],[-74.141778,40.707544],[-74.141742,40.707544]]],[[[-74.141634,40.707544],[-74.14167,40.707516],[-74.14167,40.707544],[-74.141634,40.707544]]],[[[-74.141886,40.707544],[-74.14185,40.707572],[-74.14185,40.707544],[-74.141886,40.707544]]],[[[-74.141778,40.707599],[-74.141814,40.707572],[-74.141814,40.707599],[-74.141778,40.707599]]],[[[-74.141886,40.707572],[-74.141922,40.707627],[-74.141886,40.707627],[-74.141886,40.707572]]],[[[-74.141994,40.7076],[-74.14203,40.707627],[-74.141994,40.707627],[-74.141994,40.7076]]],[[[-74.142102,40.707627],[-74.14203,40.707655],[-74.14203,40.707627],[-74.142102,40.707627]]],[[[-74.142174,40.707655],[-74.142138,40.707682],[-74.142138,40.707655],[-74.142174,40.707655]]],[[[-74.142174,40.707683],[-74.142246,40.70771],[-74.142174,40.70771],[-74.142174,40.707683]]],[[[-74.142462,40.707821],[-74.142426,40.707848],[-74.142426,40.707821],[-74.142462,40.707821]]],[[[-74.149994,40.709189],[-74.149958,40.709216],[-74.149958,40.709189],[-74.149994,40.709189]]],[[[-74.149958,40.709216],[-74.149922,40.709243],[-74.149922,40.709216],[-74.149958,40.709216]]],[[[-74.149922,40.709243],[-74.149849,40.709326],[-74.149849,40.709271],[-74.149922,40.709243]]],[[[-74.149849,40.709326],[-74.149813,40.709353],[-74.149813,40.709325],[-74.149849,40.709326]]],[[[-74.149813,40.709353],[-74.149777,40.70938],[-74.149777,40.709353],[-74.149813,40.709353]]],[[[-74.14974,40.70938],[-74.149776,40.709408],[-74.14974,40.709408],[-74.14974,40.70938]]],[[[-74.14974,40.709463],[-74.149704,40.709435],[-74.14974,40.709435],[-74.14974,40.709463]]],[[[-74.149704,40.709462],[-74.149668,40.70949],[-74.149668,40.709462],[-74.149704,40.709462]]],[[[-74.149632,40.70949],[-74.149668,40.709517],[-74.149632,40.709517],[-74.149632,40.70949]]],[[[-74.149632,40.709517],[-74.149595,40.709544],[-74.149595,40.709517],[-74.149632,40.709517]]],[[[-74.149595,40.709544],[-74.149559,40.709572],[-74.149559,40.709544],[-74.149595,40.709544]]],[[[-74.149378,40.709736],[-74.149414,40.709709],[-74.149414,40.709736],[-74.149378,40.709736]]],[[[-74.148726,40.710256],[-74.14869,40.710228],[-74.148726,40.710228],[-74.148726,40.710256]]],[[[-74.14869,40.710255],[-74.148654,40.710283],[-74.148654,40.710255],[-74.14869,40.710255]]],[[[-74.148581,40.710283],[-74.148617,40.710338],[-74.148545,40.710337],[-74.148581,40.710283]]],[[[-74.148545,40.710392],[-74.148509,40.710337],[-74.148545,40.710337],[-74.148545,40.710392]]],[[[-74.148473,40.710392],[-74.148436,40.710419],[-74.148437,40.710392],[-74.148473,40.710392]]],[[[-74.1484,40.710419],[-74.148436,40.710447],[-74.1484,40.710447],[-74.1484,40.710419]]],[[[-74.1484,40.710447],[-74.148364,40.710474],[-74.148364,40.710447],[-74.1484,40.710447]]],[[[-74.148364,40.710474],[-74.148328,40.710501],[-74.148328,40.710474],[-74.148364,40.710474]]],[[[-74.148292,40.710501],[-74.148328,40.710529],[-74.148292,40.710529],[-74.148292,40.710501]]],[[[-74.148292,40.710529],[-74.148255,40.710556],[-74.148255,40.710529],[-74.148292,40.710529]]],[[[-74.14811,40.710665],[-74.148075,40.710638],[-74.148111,40.710638],[-74.14811,40.710665]]],[[[-74.148038,40.710665],[-74.148074,40.710693],[-74.148038,40.710693],[-74.148038,40.710665]]],[[[-74.14818,40.711105],[-74.148109,40.711022],[-74.148181,40.711022],[-74.14818,40.711105]]],[[[-74.149281,40.721347],[-74.149136,40.721456],[-74.149028,40.721456],[-74.149281,40.721347]]],[[[-74.148955,40.721511],[-74.148919,40.721483],[-74.148955,40.721483],[-74.148955,40.721511]]],[[[-74.154117,40.714087],[-74.151509,40.716111],[-74.151327,40.716412],[-74.151797,40.716249],[-74.151578,40.71677],[-74.148201,40.720877],[-74.147295,40.721643],[-74.147078,40.72167],[-74.145846,40.722709],[-74.141394,40.725331],[-74.140783,40.724972],[-74.140815,40.725658],[-74.140092,40.72593],[-74.139841,40.725628],[-74.13926,40.726285],[-74.139008,40.726229],[-74.13868,40.726859],[-74.137306,40.727404],[-74.134807,40.729043],[-74.133686,40.729451],[-74.133472,40.729039],[-74.133432,40.72967],[-74.132382,40.730408],[-74.13061,40.731116],[-74.12989,40.730757],[-74.129536,40.72963],[-74.128853,40.729134],[-74.12925,40.729025],[-74.129574,40.729246],[-74.129648,40.728889],[-74.129359,40.728998],[-74.129323,40.728888],[-74.131281,40.727248],[-74.132914,40.725469],[-74.133203,40.725497],[-74.134623,40.723086],[-74.135173,40.721496],[-74.134986,40.72262],[-74.133711,40.725004],[-74.134903,40.724706],[-74.1357,40.724187],[-74.13853,40.721259],[-74.138606,40.720491],[-74.138282,40.72038],[-74.138284,40.719913],[-74.137639,40.719115],[-74.137862,40.718045],[-74.137288,40.71744],[-74.136669,40.718343],[-74.135791,40.720646],[-74.135392,40.721057],[-74.13532,40.720974],[-74.137253,40.71711],[-74.139176,40.715195],[-74.142395,40.71353],[-74.143981,40.713919],[-74.144817,40.712714],[-74.146734,40.711814],[-74.150406,40.713253],[-74.152747,40.713973],[-74.154117,40.714087]],[[-74.147911,40.721068],[-74.147875,40.721041],[-74.147875,40.721068],[-74.147911,40.721068]],[[-74.147911,40.721041],[-74.147948,40.721014],[-74.147912,40.721014],[-74.147911,40.721041]],[[-74.147766,40.721205],[-74.14773,40.721178],[-74.14773,40.721205],[-74.147766,40.721205]],[[-74.147331,40.721588],[-74.147295,40.721561],[-74.147295,40.721588],[-74.147331,40.721588]],[[-74.133782,40.72506],[-74.133602,40.725087],[-74.133746,40.725114],[-74.133782,40.72506]]],[[[-74.148811,40.721565],[-74.148847,40.721538],[-74.148847,40.721565],[-74.148811,40.721565]]],[[[-74.148775,40.721565],[-74.148811,40.721593],[-74.148774,40.721593],[-74.148775,40.721565]]],[[[-74.148738,40.72162],[-74.148702,40.721592],[-74.148738,40.721592],[-74.148738,40.72162]]],[[[-74.148702,40.72162],[-74.148666,40.721647],[-74.148666,40.72162],[-74.148702,40.72162]]],[[[-74.148594,40.721647],[-74.14863,40.721702],[-74.148557,40.721702],[-74.148594,40.721647]]],[[[-74.148557,40.721702],[-74.148485,40.721729],[-74.148485,40.721702],[-74.148557,40.721702]]],[[[-74.148485,40.721729],[-74.148449,40.721756],[-74.148449,40.721729],[-74.148485,40.721729]]],[[[-74.148449,40.721756],[-74.148195,40.72192],[-74.148268,40.721811],[-74.148449,40.721756]]],[[[-74.147001,40.72263],[-74.147037,40.722658],[-74.147001,40.722658],[-74.147001,40.72263]]],[[[-74.138323,40.706161],[-74.13825,40.706188],[-74.138251,40.706161],[-74.138323,40.706161]]],[[[-74.137998,40.706215],[-74.137962,40.706187],[-74.137998,40.706187],[-74.137998,40.706215]]],[[[-74.138214,40.706298],[-74.13825,40.70627],[-74.13825,40.706298],[-74.138214,40.706298]]],[[[-74.138286,40.706325],[-74.138322,40.706298],[-74.138322,40.706325],[-74.138286,40.706325]]],[[[-74.138466,40.706381],[-74.13843,40.706353],[-74.138466,40.706353],[-74.138466,40.706381]]],[[[-74.138538,40.706408],[-74.138574,40.706381],[-74.138574,40.706409],[-74.138538,40.706408]]],[[[-74.13861,40.706409],[-74.138646,40.706436],[-74.13861,40.706436],[-74.13861,40.706409]]],[[[-74.138718,40.706464],[-74.138682,40.706436],[-74.138718,40.706436],[-74.138718,40.706464]]],[[[-74.138754,40.706491],[-74.13879,40.706464],[-74.13879,40.706492],[-74.138754,40.706491]]],[[[-74.138826,40.706492],[-74.138862,40.706519],[-74.138826,40.706519],[-74.138826,40.706492]]],[[[-74.138934,40.706547],[-74.13897,40.70652],[-74.13897,40.706547],[-74.138934,40.706547]]],[[[-74.139006,40.706575],[-74.139042,40.706547],[-74.139042,40.706575],[-74.139006,40.706575]]],[[[-74.139078,40.706602],[-74.139114,40.706575],[-74.139114,40.706602],[-74.139078,40.706602]]],[[[-74.13915,40.706603],[-74.139186,40.70663],[-74.13915,40.70663],[-74.13915,40.706603]]],[[[-74.139222,40.70663],[-74.139258,40.706658],[-74.139222,40.706658],[-74.139222,40.70663]]],[[[-74.13933,40.706685],[-74.139366,40.706658],[-74.139366,40.706686],[-74.13933,40.706685]]],[[[-74.139402,40.706713],[-74.139438,40.706686],[-74.139438,40.706713],[-74.139402,40.706713]]],[[[-74.13951,40.706741],[-74.139474,40.706713],[-74.13951,40.706713],[-74.13951,40.706741]]],[[[-74.139546,40.706768],[-74.139582,40.706741],[-74.139582,40.706769],[-74.139546,40.706768]]],[[[-74.139798,40.706852],[-74.139834,40.706824],[-74.139834,40.706852],[-74.139798,40.706852]]],[[[-74.13987,40.706879],[-74.139906,40.706852],[-74.139906,40.706879],[-74.13987,40.706879]]],[[[-74.139942,40.70688],[-74.139978,40.706907],[-74.139942,40.706907],[-74.139942,40.70688]]],[[[-74.140014,40.706935],[-74.14005,40.706907],[-74.14005,40.706935],[-74.140014,40.706935]]],[[[-74.14095,40.70724],[-74.140914,40.707212],[-74.14095,40.707212],[-74.14095,40.70724]]],[[[-74.141131,40.70724],[-74.141094,40.707267],[-74.141094,40.70724],[-74.141131,40.70724]]],[[[-74.141382,40.707406],[-74.141418,40.707378],[-74.141418,40.707406],[-74.141382,40.707406]]],[[[-74.141526,40.707488],[-74.14149,40.707461],[-74.141526,40.707461],[-74.141526,40.707488]]],[[[-74.135461,40.708293],[-74.135354,40.70821],[-74.13557,40.708293],[-74.135461,40.708293]]],[[[-74.13557,40.708293],[-74.135642,40.708321],[-74.13557,40.708321],[-74.13557,40.708293]]],[[[-74.135642,40.708348],[-74.135678,40.708321],[-74.135678,40.708348],[-74.135642,40.708348]]],[[[-74.135714,40.708376],[-74.13575,40.708349],[-74.13575,40.708376],[-74.135714,40.708376]]],[[[-74.135858,40.708431],[-74.135894,40.708404],[-74.135894,40.708431],[-74.135858,40.708431]]],[[[-74.13593,40.708459],[-74.136002,40.708432],[-74.136002,40.708459],[-74.13593,40.708459]]],[[[-74.138916,40.709896],[-74.13888,40.709868],[-74.138916,40.709868],[-74.138916,40.709896]]],[[[-74.137986,40.715136],[-74.13795,40.715108],[-74.137986,40.715108],[-74.137986,40.715136]]],[[[-74.137697,40.715135],[-74.137552,40.715217],[-74.137806,40.715053],[-74.137697,40.715135]]],[[[-74.13795,40.715136],[-74.137913,40.715163],[-74.137913,40.715136],[-74.13795,40.715136]]],[[[-74.137552,40.715217],[-74.137516,40.715244],[-74.137516,40.715217],[-74.137552,40.715217]]],[[[-74.13748,40.715244],[-74.137516,40.715272],[-74.13748,40.715272],[-74.13748,40.715244]]],[[[-74.137913,40.715163],[-74.137659,40.715409],[-74.137551,40.715409],[-74.137913,40.715163]]],[[[-74.13748,40.715272],[-74.137444,40.715299],[-74.137444,40.715271],[-74.13748,40.715272]]],[[[-74.137407,40.715299],[-74.137443,40.715326],[-74.137407,40.715326],[-74.137407,40.715299]]],[[[-74.137407,40.715326],[-74.137371,40.715354],[-74.137371,40.715326],[-74.137407,40.715326]]],[[[-74.135632,40.716638],[-74.135669,40.716611],[-74.135669,40.716638],[-74.135632,40.716638]]],[[[-74.13556,40.716665],[-74.135632,40.716693],[-74.13556,40.71672],[-74.13556,40.716665]]],[[[-74.13556,40.71672],[-74.135523,40.716775],[-74.135524,40.71672],[-74.13556,40.71672]]],[[[-74.136174,40.71664],[-74.136136,40.716887],[-74.135811,40.716996],[-74.135848,40.716776],[-74.136174,40.71664]]],[[[-74.136713,40.716971],[-74.136677,40.716916],[-74.136713,40.716916],[-74.136713,40.716971]]],[[[-74.136677,40.716971],[-74.136641,40.716998],[-74.136641,40.716971],[-74.136677,40.716971]]],[[[-74.136641,40.716998],[-74.136604,40.717053],[-74.136605,40.716998],[-74.136641,40.716998]]],[[[-74.136568,40.717053],[-74.136604,40.717108],[-74.136568,40.717108],[-74.136568,40.717053]]],[[[-74.136784,40.717109],[-74.136893,40.716972],[-74.136675,40.717245],[-74.136784,40.717109]]],[[[-74.136568,40.717108],[-74.136532,40.717163],[-74.136532,40.717108],[-74.136568,40.717108]]],[[[-74.135948,40.718341],[-74.135912,40.718369],[-74.135912,40.718341],[-74.135948,40.718341]]],[[[-74.135948,40.718396],[-74.135984,40.718369],[-74.135984,40.718396],[-74.135948,40.718396]]],[[[-74.135434,40.719932],[-74.135361,40.720014],[-74.135398,40.719932],[-74.135434,40.719932]]],[[[-74.135323,40.720398],[-74.135325,40.720069],[-74.135397,40.720041],[-74.135323,40.720398]]],[[[-74.1499,40.706443],[-74.150149,40.707213],[-74.149311,40.708693],[-74.147246,40.710333],[-74.145511,40.711069],[-74.145152,40.710821],[-74.145764,40.710933],[-74.146525,40.710413],[-74.146094,40.709918],[-74.140695,40.707705],[-74.136119,40.706758],[-74.135617,40.706289],[-74.135004,40.706178],[-74.134862,40.705738],[-74.135116,40.705519],[-74.135621,40.705548],[-74.142138,40.707765],[-74.142318,40.70771],[-74.141995,40.707517],[-74.136919,40.705552],[-74.135874,40.70533],[-74.135119,40.704915],[-74.134758,40.704942],[-74.130834,40.703557],[-74.130403,40.703308],[-74.130943,40.703502],[-74.131051,40.703475],[-74.129539,40.702921],[-74.129359,40.702893],[-74.129863,40.703114],[-74.125434,40.701783],[-74.116046,40.697297],[-74.117536,40.695169],[-74.1422,40.702824],[-74.146877,40.705117],[-74.149541,40.706195],[-74.1499,40.706443]],[[-74.149531,40.708062],[-74.149495,40.708089],[-74.149531,40.708089],[-74.149531,40.708062]],[[-74.142246,40.707738],[-74.142282,40.707793],[-74.142318,40.707738],[-74.142246,40.707738]],[[-74.142318,40.707765],[-74.14239,40.707793],[-74.14239,40.707766],[-74.142318,40.707765]],[[-74.142462,40.707793],[-74.142354,40.707848],[-74.142498,40.707903],[-74.142606,40.707876],[-74.142462,40.707793]],[[-74.134903,40.704915],[-74.134939,40.704887],[-74.134903,40.704887],[-74.134903,40.704915]],[[-74.131051,40.703503],[-74.131123,40.70353],[-74.131123,40.703503],[-74.131051,40.703503]],[[-74.131123,40.70353],[-74.131195,40.703558],[-74.131195,40.70353],[-74.131123,40.70353]],[[-74.131303,40.703558],[-74.131483,40.703696],[-74.131591,40.703696],[-74.131303,40.703558]],[[-74.131591,40.703696],[-74.131663,40.703724],[-74.131663,40.703697],[-74.131591,40.703696]],[[-74.131663,40.703724],[-74.131735,40.703752],[-74.131735,40.703724],[-74.131663,40.703724]],[[-74.131843,40.703752],[-74.132311,40.704001],[-74.132563,40.704056],[-74.131843,40.703752]],[[-74.129251,40.702893],[-74.129071,40.702755],[-74.128963,40.702755],[-74.129251,40.702893]],[[-74.128855,40.702754],[-74.128891,40.702727],[-74.128783,40.702672],[-74.128855,40.702754]],[[-74.149648,40.706333],[-74.149539,40.706442],[-74.14972,40.70647],[-74.14972,40.706333],[-74.149648,40.706333]]],[[[-74.129863,40.703142],[-74.129935,40.703142],[-74.130007,40.70317],[-74.129863,40.703142]]],[[[-74.130151,40.70328],[-74.130115,40.70317],[-74.130403,40.703308],[-74.130151,40.70328]]],[[[-74.135299,40.705081],[-74.135335,40.705108],[-74.135299,40.705108],[-74.135299,40.705081]]],[[[-74.130176,40.705174],[-74.130176,40.705147],[-74.130212,40.705147],[-74.130212,40.705174],[-74.130176,40.705174]]],[[[-74.130248,40.705202],[-74.130212,40.705174],[-74.130248,40.705174],[-74.130248,40.705202]]],[[[-74.130427,40.705395],[-74.130248,40.705202],[-74.130644,40.705395],[-74.130679,40.70556],[-74.130427,40.705395]],[[-74.130643,40.705505],[-74.130607,40.705478],[-74.130607,40.705505],[-74.130643,40.705505]]],[[[-74.130715,40.705505],[-74.130751,40.705533],[-74.130715,40.705533],[-74.130715,40.705505]]],[[[-74.130679,40.70556],[-74.130715,40.705588],[-74.130679,40.705588],[-74.130679,40.70556]]],[[[-74.130715,40.705615],[-74.130751,40.705588],[-74.130751,40.705615],[-74.130715,40.705615]]],[[[-74.130787,40.70567],[-74.130823,40.705643],[-74.130823,40.70567],[-74.130787,40.70567]]],[[[-74.131183,40.705809],[-74.131147,40.705781],[-74.131183,40.705781],[-74.131183,40.705809]]],[[[-74.131219,40.705836],[-74.131182,40.705836],[-74.131183,40.705809],[-74.131219,40.705809],[-74.131219,40.705836]]],[[[-74.131254,40.705864],[-74.131219,40.705836],[-74.131255,40.705836],[-74.131254,40.705864]]],[[[-74.131038,40.705863],[-74.131074,40.705836],[-74.131074,40.705863],[-74.131038,40.705863]]],[[[-74.131291,40.705837],[-74.131363,40.705864],[-74.131362,40.705892],[-74.131326,40.705892],[-74.131326,40.705919],[-74.131291,40.705837]]],[[[-74.131146,40.705891],[-74.13111,40.705863],[-74.131146,40.705864],[-74.131146,40.705891]]],[[[-74.131398,40.705919],[-74.131362,40.705892],[-74.131399,40.705892],[-74.131398,40.705919]]],[[[-74.131182,40.705919],[-74.131146,40.705918],[-74.131146,40.705891],[-74.131182,40.705891],[-74.131182,40.705919]]],[[[-74.131326,40.705919],[-74.131362,40.705947],[-74.131326,40.705946],[-74.131326,40.705919]]],[[[-74.131218,40.705946],[-74.131182,40.705919],[-74.131218,40.705919],[-74.131218,40.705946]]],[[[-74.131254,40.705946],[-74.131218,40.705974],[-74.131218,40.705946],[-74.131254,40.705946]]],[[[-74.131254,40.706001],[-74.13129,40.705974],[-74.13129,40.706001],[-74.131254,40.706001]]],[[[-74.131326,40.706056],[-74.131362,40.706029],[-74.131362,40.706056],[-74.131326,40.706056]]],[[[-74.132261,40.706553],[-74.131506,40.706084],[-74.131362,40.705947],[-74.131902,40.706168],[-74.132189,40.706388],[-74.132189,40.706443],[-74.132153,40.706471],[-74.132261,40.706553]],[[-74.132153,40.706443],[-74.132117,40.706416],[-74.132117,40.706443],[-74.132153,40.706443]]],[[[-74.132225,40.706471],[-74.132189,40.706443],[-74.132225,40.706443],[-74.132225,40.706471]]],[[[-74.132225,40.706498],[-74.132261,40.706471],[-74.132261,40.706498],[-74.132225,40.706498]]],[[[-74.132297,40.706499],[-74.132441,40.706581],[-74.132441,40.706609],[-74.132404,40.706636],[-74.13226,40.706608],[-74.132297,40.706499]],[[-74.132369,40.706554],[-74.132333,40.706581],[-74.132369,40.706581],[-74.132369,40.706554]]],[[[-74.132441,40.706636],[-74.132441,40.706609],[-74.132477,40.706609],[-74.132477,40.706636],[-74.132441,40.706636]]],[[[-74.132513,40.706664],[-74.132477,40.706636],[-74.132513,40.706636],[-74.132513,40.706664]]],[[[-74.132585,40.706664],[-74.132512,40.706691],[-74.132513,40.706664],[-74.132585,40.706664]]],[[[-74.132404,40.706773],[-74.132368,40.706746],[-74.132404,40.706746],[-74.132404,40.706773]]],[[[-74.135101,40.708292],[-74.135137,40.708264],[-74.135137,40.708292],[-74.135101,40.708292]]],[[[-74.135209,40.70832],[-74.135173,40.708292],[-74.135209,40.708292],[-74.135209,40.70832]]],[[[-74.134872,40.717075],[-74.13429,40.718116],[-74.134509,40.717541],[-74.134872,40.717075]]],[[[-74.134608,40.719215],[-74.134644,40.719188],[-74.134644,40.719215],[-74.134608,40.719215]]],[[[-74.135947,40.718506],[-74.135874,40.718643],[-74.135437,40.719465],[-74.13522,40.719547],[-74.134671,40.720835],[-74.134719,40.718722],[-74.135515,40.718257],[-74.13555,40.718477],[-74.135912,40.718369],[-74.135947,40.718506]],[[-74.135656,40.718972],[-74.13562,40.718944],[-74.13562,40.718971],[-74.135656,40.718972]],[[-74.135911,40.718506],[-74.135875,40.718478],[-74.135875,40.718506],[-74.135911,40.718506]]],[[[-74.134455,40.720862],[-74.134177,40.718939],[-74.134502,40.718776],[-74.134455,40.720862]]],[[[-74.132301,40.725357],[-74.132337,40.725412],[-74.132301,40.725412],[-74.132301,40.725357]]],[[[-74.132265,40.725412],[-74.132301,40.725439],[-74.132265,40.725439],[-74.132265,40.725412]]],[[[-74.132192,40.725549],[-74.132229,40.725494],[-74.132228,40.725549],[-74.132192,40.725549]]],[[[-74.13201,40.725795],[-74.131975,40.72574],[-74.132011,40.72574],[-74.13201,40.725795]]],[[[-74.131938,40.725795],[-74.131974,40.725822],[-74.131938,40.725822],[-74.131938,40.725795]]],[[[-74.131938,40.725822],[-74.131902,40.725877],[-74.131902,40.725822],[-74.131938,40.725822]]],[[[-74.131902,40.725877],[-74.131865,40.725904],[-74.131866,40.725877],[-74.131902,40.725877]]],[[[-74.131829,40.725904],[-74.131865,40.725959],[-74.131829,40.725959],[-74.131829,40.725904]]],[[[-74.131829,40.725959],[-74.131793,40.725987],[-74.131793,40.725959],[-74.131829,40.725959]]],[[[-74.131103,40.726726],[-74.131067,40.726698],[-74.131103,40.726698],[-74.131103,40.726726]]],[[[-74.131031,40.726725],[-74.131067,40.726753],[-74.131031,40.726753],[-74.131031,40.726725]]],[[[-74.131031,40.726753],[-74.130995,40.726808],[-74.130995,40.726753],[-74.131031,40.726753]]],[[[-74.130995,40.726808],[-74.130958,40.726835],[-74.130958,40.726807],[-74.130995,40.726808]]],[[[-74.130922,40.726835],[-74.130958,40.726862],[-74.130922,40.726862],[-74.130922,40.726835]]],[[[-74.130922,40.726862],[-74.130886,40.72689],[-74.130886,40.726862],[-74.130922,40.726862]]],[[[-74.130886,40.72689],[-74.130849,40.726944],[-74.13085,40.726889],[-74.130886,40.72689]]],[[[-74.130849,40.726944],[-74.130813,40.726972],[-74.130813,40.726944],[-74.130849,40.726944]]],[[[-74.130813,40.726972],[-74.130777,40.726999],[-74.130777,40.726972],[-74.130813,40.726972]]],[[[-74.132668,40.73093],[-74.132632,40.730875],[-74.132668,40.730876],[-74.132668,40.73093]]],[[[-74.128666,40.704209],[-74.128703,40.704181],[-74.128703,40.704209],[-74.128666,40.704209]]],[[[-74.139132,40.710006],[-74.145076,40.711397],[-74.139292,40.713658],[-74.136831,40.715132],[-74.134983,40.716664],[-74.134292,40.71765],[-74.133998,40.718555],[-74.133919,40.719927],[-74.134272,40.721328],[-74.134127,40.72152],[-74.133514,40.721463],[-74.131616,40.725382],[-74.126283,40.724047],[-74.131506,40.725574],[-74.130345,40.726805],[-74.128028,40.72828],[-74.128244,40.728308],[-74.128135,40.7285],[-74.126621,40.728166],[-74.12597,40.728466],[-74.125861,40.72863],[-74.1268,40.728414],[-74.127808,40.728884],[-74.127878,40.729296],[-74.127768,40.729515],[-74.126753,40.730445],[-74.127547,40.730392],[-74.127906,40.730586],[-74.127689,40.730777],[-74.129096,40.730782],[-74.129599,40.731223],[-74.12938,40.731716],[-74.12891,40.731797],[-74.129197,40.732045],[-74.127604,40.733],[-74.127604,40.733055],[-74.127568,40.733055],[-74.127568,40.733083],[-74.127532,40.733083],[-74.127567,40.733138],[-74.128617,40.732647],[-74.127711,40.733248],[-74.125612,40.734312],[-74.124528,40.73461],[-74.125296,40.732828],[-74.126931,40.730802],[-74.126067,40.73047],[-74.126283,40.730608],[-74.125485,40.731347],[-74.126028,40.730937],[-74.126136,40.731019],[-74.124465,40.73299],[-74.12512,40.731922],[-74.125123,40.73151],[-74.125267,40.731565],[-74.125339,40.731483],[-74.125521,40.731209],[-74.12545,40.731017],[-74.126067,40.730415],[-74.126032,40.730305],[-74.125923,40.730305],[-74.125598,40.730468],[-74.126397,40.729565],[-74.126109,40.72929],[-74.125346,40.730248],[-74.125597,40.730606],[-74.123852,40.732878],[-74.123371,40.734936],[-74.120772,40.735064],[-74.117414,40.734916],[-74.117827,40.732502],[-74.120206,40.733086],[-74.120637,40.733554],[-74.12038,40.734212],[-74.120741,40.734158],[-74.121028,40.734461],[-74.120414,40.734624],[-74.121171,40.734736],[-74.122221,40.734246],[-74.123169,40.73241],[-74.122916,40.732464],[-74.122989,40.732382],[-74.122953,40.732299],[-74.122591,40.732545],[-74.122518,40.732709],[-74.12147,40.732926],[-74.121218,40.73287],[-74.121328,40.732458],[-74.120424,40.732895],[-74.117863,40.73231],[-74.120642,40.722955],[-74.120962,40.720012],[-74.120551,40.717436],[-74.116105,40.709156],[-74.114309,40.704609],[-74.114097,40.702284],[-74.114315,40.700569],[-74.116009,40.69736],[-74.122591,40.700565],[-74.128452,40.703906],[-74.12863,40.704208],[-74.129349,40.70476],[-74.129817,40.704953],[-74.130607,40.705615],[-74.132583,40.706994],[-74.132655,40.706939],[-74.132404,40.706801],[-74.132404,40.706636],[-74.132728,40.706857],[-74.133448,40.707161],[-74.133624,40.707848],[-74.134165,40.707932],[-74.133769,40.707711],[-74.134059,40.70752],[-74.135354,40.708183],[-74.134741,40.708044],[-74.135065,40.708209],[-74.134884,40.708264],[-74.139132,40.710006]],[[-74.134055,40.721465],[-74.134091,40.721437],[-74.134055,40.721437],[-74.134055,40.721465]],[[-74.133695,40.721354],[-74.133586,40.721326],[-74.133586,40.721353],[-74.133695,40.721354]],[[-74.127162,40.728168],[-74.127198,40.72814],[-74.127162,40.72814],[-74.127162,40.728168]],[[-74.126621,40.728166],[-74.126585,40.728138],[-74.126585,40.728166],[-74.126621,40.728166]],[[-74.126368,40.728248],[-74.126332,40.72822],[-74.126332,40.728247],[-74.126368,40.728248]],[[-74.126259,40.728302],[-74.126223,40.728275],[-74.126223,40.728302],[-74.126259,40.728302]],[[-74.127807,40.728993],[-74.127771,40.729021],[-74.127807,40.729021],[-74.127807,40.728993]],[[-74.126753,40.730445],[-74.126716,40.730472],[-74.126752,40.730472],[-74.126753,40.730445]],[[-74.127567,40.733165],[-74.127459,40.733165],[-74.127459,40.733192],[-74.127567,40.733165]],[[-74.127459,40.733192],[-74.127423,40.733219],[-74.127459,40.73322],[-74.127459,40.733192]],[[-74.127423,40.733219],[-74.127386,40.733247],[-74.127423,40.733247],[-74.127423,40.733219]],[[-74.126931,40.730775],[-74.126967,40.730747],[-74.126931,40.730747],[-74.126931,40.730775]],[[-74.126859,40.73072],[-74.126896,40.730692],[-74.126859,40.730692],[-74.126859,40.73072]],[[-74.126896,40.730692],[-74.126932,40.730665],[-74.126896,40.730665],[-74.126896,40.730692]],[[-74.125486,40.731072],[-74.125522,40.731045],[-74.125486,40.731045],[-74.125486,40.731072]],[[-74.125523,40.73099],[-74.125559,40.731017],[-74.125559,40.73099],[-74.125523,40.73099]],[[-74.125559,40.73099],[-74.125595,40.730963],[-74.125559,40.730962],[-74.125559,40.73099]],[[-74.125595,40.730963],[-74.125631,40.730908],[-74.125595,40.730908],[-74.125595,40.730963]],[[-74.125631,40.730908],[-74.125668,40.73088],[-74.125631,40.73088],[-74.125631,40.730908]],[[-74.125923,40.730305],[-74.125887,40.730277],[-74.125887,40.730305],[-74.125923,40.730305]],[[-74.125924,40.730277],[-74.12596,40.73025],[-74.125924,40.73025],[-74.125924,40.730277]],[[-74.122591,40.732545],[-74.122519,40.732517],[-74.122519,40.732545],[-74.122591,40.732545]],[[-74.124712,40.70189],[-74.124639,40.701945],[-74.124711,40.701945],[-74.124712,40.70189]],[[-74.129493,40.704843],[-74.129456,40.70487],[-74.129492,40.70487],[-74.129493,40.704843]],[[-74.129888,40.705036],[-74.12978,40.705091],[-74.129888,40.705063],[-74.129888,40.705036]],[[-74.129852,40.705091],[-74.129888,40.705118],[-74.129888,40.705091],[-74.129852,40.705091]],[[-74.132476,40.706774],[-74.132512,40.706801],[-74.132512,40.706774],[-74.132476,40.706774]],[[-74.133374,40.707463],[-74.133337,40.707518],[-74.133374,40.707518],[-74.133374,40.707463]]],[[[-74.125969,40.728521],[-74.126006,40.728493],[-74.126006,40.728521],[-74.125969,40.728521]]],[[[-74.128098,40.728583],[-74.128026,40.728637],[-74.12799,40.728582],[-74.128098,40.728583]]],[[[-74.12788,40.728774],[-74.127844,40.728774],[-74.127845,40.728746],[-74.127881,40.728747],[-74.12788,40.728774]]],[[[-74.127916,40.728802],[-74.12788,40.728774],[-74.127917,40.728774],[-74.127916,40.728802]]],[[[-74.127916,40.728856],[-74.12806,40.728857],[-74.128024,40.728939],[-74.127916,40.728856]]],[[[-74.128887,40.729381],[-74.1291,40.730178],[-74.128882,40.730424],[-74.128521,40.730396],[-74.128379,40.729928],[-74.12834,40.73045],[-74.127114,40.730254],[-74.127876,40.729543],[-74.127988,40.728966],[-74.128784,40.728557],[-74.12842,40.729105],[-74.128887,40.729381]],[[-74.128635,40.729271],[-74.128599,40.729298],[-74.128635,40.729298],[-74.128635,40.729271]],[[-74.128599,40.729298],[-74.128563,40.729325],[-74.128599,40.729325],[-74.128599,40.729298]],[[-74.128815,40.729408],[-74.128779,40.729381],[-74.128779,40.729408],[-74.128815,40.729408]]],[[[-74.126031,40.73036],[-74.125995,40.730387],[-74.125995,40.73036],[-74.126031,40.73036]]],[[[-74.126787,40.730774],[-74.126751,40.730747],[-74.126787,40.730747],[-74.126787,40.730774]]],[[[-74.126715,40.730774],[-74.126751,40.730802],[-74.126714,40.730802],[-74.126715,40.730774]]],[[[-74.126787,40.730774],[-74.126823,40.730829],[-74.126786,40.730829],[-74.126787,40.730774]]],[[[-74.12545,40.731072],[-74.125414,40.731099],[-74.125414,40.731072],[-74.12545,40.731072]]],[[[-74.125414,40.731127],[-74.125377,40.731154],[-74.125378,40.731127],[-74.125414,40.731127]]],[[[-74.125377,40.731154],[-74.125341,40.731181],[-74.125341,40.731154],[-74.125377,40.731154]]],[[[-74.125305,40.731236],[-74.125341,40.731209],[-74.125341,40.731236],[-74.125305,40.731236]]],[[[-74.125341,40.731264],[-74.125377,40.731236],[-74.125377,40.731264],[-74.125341,40.731264]]],[[[-74.125268,40.731263],[-74.125305,40.731236],[-74.125305,40.731264],[-74.125268,40.731263]]],[[[-74.125232,40.731318],[-74.125268,40.731263],[-74.125268,40.731318],[-74.125232,40.731318]]],[[[-74.125268,40.731318],[-74.12534,40.731346],[-74.125268,40.731373],[-74.125268,40.731318]]],[[[-74.125196,40.731346],[-74.125232,40.731318],[-74.125232,40.731346],[-74.125196,40.731346]]],[[[-74.125159,40.7314],[-74.125196,40.731346],[-74.125196,40.7314],[-74.125159,40.7314]]],[[[-74.125268,40.731373],[-74.125232,40.731401],[-74.125232,40.731373],[-74.125268,40.731373]]],[[[-74.12534,40.731428],[-74.125304,40.731401],[-74.12534,40.731401],[-74.12534,40.731428]]],[[[-74.125232,40.731401],[-74.125195,40.731428],[-74.125196,40.7314],[-74.125232,40.731401]]],[[[-74.125159,40.731455],[-74.125123,40.7314],[-74.125159,40.7314],[-74.125159,40.731455]]],[[[-74.125087,40.731455],[-74.125123,40.731483],[-74.125087,40.731482],[-74.125087,40.731455]]],[[[-74.125159,40.731455],[-74.125195,40.731483],[-74.125159,40.73151],[-74.125159,40.731455]]],[[[-74.125085,40.731757],[-74.125013,40.731729],[-74.125013,40.731702],[-74.125085,40.731757]]],[[[-74.125013,40.731757],[-74.125049,40.731784],[-74.125013,40.731784],[-74.125013,40.731757]]],[[[-74.123097,40.732464],[-74.12306,40.732492],[-74.123061,40.732464],[-74.123097,40.732464]]],[[[-74.1227,40.73249],[-74.122735,40.732518],[-74.122699,40.732518],[-74.1227,40.73249]]],[[[-74.122663,40.732545],[-74.122699,40.732518],[-74.122699,40.732545],[-74.122663,40.732545]]],[[[-74.122627,40.732572],[-74.122663,40.732545],[-74.122663,40.732573],[-74.122627,40.732572]]],[[[-74.127604,40.73311],[-74.127568,40.733083],[-74.127604,40.733083],[-74.127604,40.73311]]],[[[-74.122477,40.733533],[-74.122441,40.733588],[-74.122441,40.733533],[-74.122477,40.733533]]],[[[-74.121141,40.733748],[-74.121972,40.733504],[-74.121181,40.733062],[-74.122625,40.732847],[-74.12186,40.734135],[-74.121174,40.73427],[-74.121141,40.733748]]],[[[-74.122441,40.733588],[-74.122404,40.733642],[-74.122405,40.733587],[-74.122441,40.733588]]],[[[-74.122368,40.733642],[-74.122404,40.733725],[-74.122368,40.733725],[-74.122368,40.733642]]],[[[-74.122368,40.733725],[-74.122331,40.733779],[-74.122332,40.733724],[-74.122368,40.733725]]],[[[-74.122331,40.733779],[-74.122295,40.733834],[-74.122295,40.733779],[-74.122331,40.733779]]],[[[-74.124173,40.733566],[-74.124461,40.733622],[-74.124058,40.734773],[-74.123805,40.734827],[-74.124173,40.733566]]],[[[-74.126225,40.734423],[-74.126189,40.734396],[-74.126225,40.734396],[-74.126225,40.734423]]],[[[-74.126189,40.734423],[-74.125863,40.734697],[-74.125755,40.734669],[-74.126189,40.734423]]],[[[-74.124528,40.734665],[-74.124456,40.734637],[-74.124528,40.73461],[-74.124528,40.734665]]],[[[-74.124344,40.735323],[-74.124308,40.735296],[-74.124344,40.735296],[-74.124344,40.735323]]],[[[-74.124382,40.734939],[-74.126082,40.734286],[-74.125647,40.734614],[-74.124996,40.734721],[-74.125754,40.734779],[-74.124848,40.735544],[-74.124192,40.736558],[-74.12438,40.735323],[-74.124382,40.734939]]],[[[-74.123719,40.737325],[-74.123768,40.734964],[-74.124021,40.734938],[-74.123719,40.737325]]],[[[-74.120483,40.735201],[-74.123407,40.735073],[-74.123245,40.738092],[-74.121024,40.741608],[-74.118693,40.740495],[-74.117753,40.739422],[-74.117243,40.737612],[-74.117393,40.735053],[-74.120483,40.735201]]],[[[-74.1236,40.739191],[-74.123157,40.740892],[-74.123048,40.741028],[-74.123453,40.739657],[-74.123609,40.737681],[-74.123754,40.737517],[-74.1236,40.739191]]],[[[-74.121132,40.741646],[-74.122843,40.739051],[-74.123208,40.738366],[-74.123055,40.739821],[-74.122357,40.741987],[-74.121132,40.741646]]]]}}]}