{"type":"FeatureCollection","features":[{"type":"Feature","properties":{"level_ft":3},"geometry":{"type":"MultiPolygon","coordinates":[[[[-74.189992,40.687367],[-74.189479,40.689071],[-74.189764,40.689895],[-74.190375,40.690309],[-74.189259,40.689894],[-74.187993,40.690632],[-74.187344,40.690685],[-74.187309,40.690383],[-74.189047,40.688878],[-74.189162,40.687416],[-74.189992,40.687367]]],[[[-74.189399,40.706364],[-74.189435,40.70631],[-74.189435,40.706364],[-74.189399,40.706364]]],[[[-74.189399,40.706364],[-74.189362,40.706419],[-74.189363,40.706364],[-74.189399,40.706364]]],[[[-74.189326,40.706419],[-74.189362,40.706447],[-74.189326,40.706447],[-74.189326,40.706419]]],[[[-74.189326,40.706556],[-74.18929,40.706474],[-74.189362,40.706474],[-74.189326,40.706556]]],[[[-74.189253,40.706584],[-74.189217,40.706638],[-74.189217,40.706583],[-74.189253,40.706584]]],[[[-74.189614,40.706667],[-74.18965,40.706722],[-74.189614,40.706722],[-74.189614,40.706667]]],[[[-74.189181,40.706721],[-74.189217,40.706666],[-74.189217,40.706721],[-74.189181,40.706721]]],[[[-74.189181,40.706721],[-74.189144,40.706775],[-74.189145,40.706721],[-74.189181,40.706721]]],[[[-74.189144,40.706775],[-74.189108,40.70683],[-74.189108,40.706775],[-74.189144,40.706775]]],[[[-74.18954,40.706941],[-74.189576,40.706969],[-74.18954,40.706969],[-74.18954,40.706941]]],[[[-74.188999,40.707077],[-74.189072,40.70683],[-74.189108,40.70683],[-74.188999,40.707077]]],[[[-74.189324,40.707023],[-74.189288,40.706995],[-74.189324,40.706996],[-74.189324,40.707023]]],[[[-74.18954,40.706941],[-74.189283,40.707901],[-74.189031,40.707928],[-74.18896,40.707736],[-74.189614,40.706722],[-74.189613,40.706804],[-74.189577,40.706804],[-74.18954,40.706941]],[[-74.189286,40.707407],[-74.189249,40.707462],[-74.189285,40.707462],[-74.189286,40.707407]]],[[[-74.189105,40.707379],[-74.18907,40.707352],[-74.189106,40.707352],[-74.189105,40.707379]]],[[[-74.188963,40.707077],[-74.188671,40.707707],[-74.188563,40.707707],[-74.188963,40.707077]]],[[[-74.188708,40.707433],[-74.188672,40.707406],[-74.188709,40.707406],[-74.188708,40.707433]]],[[[-74.189033,40.707489],[-74.188997,40.707461],[-74.189033,40.707461],[-74.189033,40.707489]]],[[[-74.188672,40.707515],[-74.188636,40.707488],[-74.188672,40.707488],[-74.188672,40.707515]]],[[[-74.188996,40.707571],[-74.18896,40.707544],[-74.188997,40.707544],[-74.188996,40.707571]]],[[[-74.188636,40.707543],[-74.1886,40.70757],[-74.1886,40.707543],[-74.188636,40.707543]]],[[[-74.188599,40.707625],[-74.188563,40.707597],[-74.188599,40.707597],[-74.188599,40.707625]]],[[[-74.188851,40.707763],[-74.188887,40.707735],[-74.188887,40.707763],[-74.188851,40.707763]]],[[[-74.188851,40.707763],[-74.188815,40.70779],[-74.188815,40.707763],[-74.188851,40.707763]]],[[[-74.188563,40.707762],[-74.188526,40.707789],[-74.188527,40.707762],[-74.188563,40.707762]]],[[[-74.18849,40.707817],[-74.188454,40.707789],[-74.18849,40.707789],[-74.18849,40.707817]]],[[[-74.188815,40.707873],[-74.188779,40.707818],[-74.188815,40.707818],[-74.188815,40.707873]]],[[[-74.188995,40.707928],[-74.188959,40.707845],[-74.188995,40.707846],[-74.188995,40.707928]]],[[[-74.18849,40.707844],[-74.188526,40.707927],[-74.188454,40.707926],[-74.18849,40.707844]]],[[[-74.188849,40.708257],[-74.188741,40.708229],[-74.188849,40.70823],[-74.188849,40.708257]]],[[[-74.188196,40.708941],[-74.18816,40.708914],[-74.188197,40.708914],[-74.188196,40.708941]]],[[[-74.188015,40.709078],[-74.188052,40.708969],[-74.18816,40.708941],[-74.188124,40.709051],[-74.188015,40.709078]]],[[[-74.187979,40.709051],[-74.187944,40.709023],[-74.18798,40.709023],[-74.187979,40.709051]]],[[[-74.187907,40.709105],[-74.187835,40.70905],[-74.187907,40.70905],[-74.187907,40.709105]]],[[[-74.187871,40.709133],[-74.187835,40.709188],[-74.187762,40.709187],[-74.187871,40.709133]]],[[[-74.187943,40.709188],[-74.188051,40.709188],[-74.187979,40.709243],[-74.187943,40.709188]]],[[[-74.187726,40.70927],[-74.187762,40.709242],[-74.187762,40.70927],[-74.187726,40.70927]]],[[[-74.187834,40.709325],[-74.187798,40.709297],[-74.187834,40.709297],[-74.187834,40.709325]]],[[[-74.187365,40.709406],[-74.187329,40.709241],[-74.187437,40.709241],[-74.187365,40.709406]]],[[[-74.187979,40.709243],[-74.187688,40.709709],[-74.187797,40.709434],[-74.187979,40.709243]]],[[[-74.187725,40.709462],[-74.187689,40.709489],[-74.187689,40.709462],[-74.187725,40.709462]]],[[[-74.187616,40.709626],[-74.187654,40.709324],[-74.187726,40.70927],[-74.187616,40.709626]]],[[[-74.187722,40.710203],[-74.188269,40.708914],[-74.188846,40.708861],[-74.188119,40.710094],[-74.187722,40.710203]]],[[[-74.187436,40.709543],[-74.1874,40.709516],[-74.187436,40.709516],[-74.187436,40.709543]]],[[[-74.187436,40.709626],[-74.1874,40.709598],[-74.187436,40.709598],[-74.187436,40.709626]]],[[[-74.187327,40.70968],[-74.187399,40.709653],[-74.187399,40.70968],[-74.187327,40.70968]]],[[[-74.187507,40.709708],[-74.187435,40.709735],[-74.187435,40.709708],[-74.187507,40.709708]]],[[[-74.187688,40.709764],[-74.187615,40.709846],[-74.187615,40.709763],[-74.187688,40.709764]]],[[[-74.187615,40.709846],[-74.187579,40.709873],[-74.187579,40.709846],[-74.187615,40.709846]]],[[[-74.187578,40.709983],[-74.187543,40.7099],[-74.187615,40.709901],[-74.187578,40.709983]]],[[[-74.187435,40.70979],[-74.187289,40.710147],[-74.187217,40.710147],[-74.187435,40.70979]]],[[[-74.187542,40.709983],[-74.187506,40.710038],[-74.187506,40.709983],[-74.187542,40.709983]]],[[[-74.187506,40.710038],[-74.18747,40.710092],[-74.18747,40.710037],[-74.187506,40.710038]]],[[[-74.18747,40.710092],[-74.187433,40.710175],[-74.187433,40.710092],[-74.18747,40.710092]]],[[[-74.187613,40.710175],[-74.187541,40.710202],[-74.187541,40.710175],[-74.187613,40.710175]]],[[[-74.187433,40.710175],[-74.187397,40.710229],[-74.187397,40.710175],[-74.187433,40.710175]]],[[[-74.187577,40.71023],[-74.187505,40.710257],[-74.187505,40.71023],[-74.187577,40.71023]]],[[[-74.187361,40.710229],[-74.187397,40.710284],[-74.18736,40.710284],[-74.187361,40.710229]]],[[[-74.187505,40.710312],[-74.187469,40.710285],[-74.187505,40.710285],[-74.187505,40.710312]]],[[[-74.18736,40.710284],[-74.187324,40.710339],[-74.187324,40.710284],[-74.18736,40.710284]]],[[[-74.187541,40.710312],[-74.187504,40.71034],[-74.187505,40.710312],[-74.187541,40.710312]]],[[[-74.187324,40.710367],[-74.187288,40.710394],[-74.187288,40.710366],[-74.187324,40.710367]]],[[[-74.187504,40.710367],[-74.187396,40.710449],[-74.187432,40.710367],[-74.187504,40.710367]]],[[[-74.185751,40.691971],[-74.185823,40.692026],[-74.185751,40.692025],[-74.185751,40.691971]]],[[[-74.184568,40.698171],[-74.184893,40.69798],[-74.185324,40.698393],[-74.184963,40.698556],[-74.184568,40.698171]]],[[[-74.185426,40.707424],[-74.184274,40.706817],[-74.185394,40.706573],[-74.185719,40.706409],[-74.185395,40.706436],[-74.18554,40.706189],[-74.1859,40.706327],[-74.186225,40.706164],[-74.185574,40.706656],[-74.185825,40.706904],[-74.185426,40.707424]]],[[[-74.185711,40.708221],[-74.186145,40.70803],[-74.186793,40.708169],[-74.185711,40.708221]]],[[[-74.185565,40.708495],[-74.18571,40.708331],[-74.186865,40.708306],[-74.186792,40.708471],[-74.1843,40.708958],[-74.184484,40.708382],[-74.185565,40.708495]]],[[[-74.185672,40.70877],[-74.1856,40.708742],[-74.185672,40.708742],[-74.185672,40.70877]]],[[[-74.185492,40.708797],[-74.185564,40.70877],[-74.185564,40.708797],[-74.185492,40.708797]]],[[[-74.185383,40.708824],[-74.185347,40.708796],[-74.185492,40.708797],[-74.185383,40.708824]]],[[[-74.1843,40.709041],[-74.185239,40.708851],[-74.184264,40.709123],[-74.1843,40.709041]]],[[[-74.187328,40.70957],[-74.187292,40.709543],[-74.187328,40.709543],[-74.187328,40.70957]]],[[[-74.187255,40.709735],[-74.187219,40.709653],[-74.187255,40.709653],[-74.187255,40.709735]]],[[[-74.187291,40.70968],[-74.187327,40.709735],[-74.187291,40.709735],[-74.187291,40.70968]]],[[[-74.187219,40.709735],[-74.187183,40.709762],[-74.187183,40.709735],[-74.187219,40.709735]]],[[[-74.187291,40.709763],[-74.187254,40.709817],[-74.187255,40.709762],[-74.187291,40.709763]]],[[[-74.187146,40.709844],[-74.187182,40.70979],[-74.187182,40.709845],[-74.187146,40.709844]]],[[[-74.187254,40.709817],[-74.187218,40.709872],[-74.187218,40.709817],[-74.187254,40.709817]]],[[[-74.18711,40.709844],[-74.187146,40.709872],[-74.18711,40.709872],[-74.18711,40.709844]]],[[[-74.187218,40.709872],[-74.187182,40.709899],[-74.187182,40.709872],[-74.187218,40.709872]]],[[[-74.187145,40.709982],[-74.187181,40.710009],[-74.187145,40.710009],[-74.187145,40.709982]]],[[[-74.187145,40.710009],[-74.187109,40.710037],[-74.187109,40.710009],[-74.187145,40.710009]]],[[[-74.187109,40.710064],[-74.187073,40.710091],[-74.187073,40.710064],[-74.187109,40.710064]]],[[[-74.186964,40.710118],[-74.187001,40.710091],[-74.187,40.710119],[-74.186964,40.710118]]],[[[-74.187217,40.710147],[-74.187181,40.710174],[-74.187181,40.710147],[-74.187217,40.710147]]],[[[-74.187072,40.710229],[-74.187036,40.710201],[-74.187072,40.710201],[-74.187072,40.710229]]],[[[-74.18718,40.710256],[-74.187144,40.710201],[-74.18718,40.710201],[-74.18718,40.710256]]],[[[-74.187072,40.710338],[-74.187108,40.710366],[-74.187071,40.710366],[-74.187072,40.710338]]],[[[-74.187071,40.710366],[-74.187035,40.710421],[-74.187035,40.710366],[-74.187071,40.710366]]],[[[-74.187288,40.710421],[-74.187251,40.710476],[-74.187252,40.710421],[-74.187288,40.710421]]],[[[-74.187251,40.710504],[-74.187215,40.710558],[-74.187215,40.710503],[-74.187251,40.710504]]],[[[-74.187106,40.71064],[-74.187215,40.710558],[-74.187106,40.71075],[-74.187106,40.71064]]],[[[-74.187106,40.710778],[-74.187069,40.710805],[-74.18707,40.710778],[-74.187106,40.710778]]],[[[-74.186672,40.710831],[-74.186637,40.710804],[-74.186673,40.710804],[-74.186672,40.710831]]],[[[-74.187069,40.710832],[-74.187033,40.71086],[-74.187033,40.710832],[-74.187069,40.710832]]],[[[-74.187033,40.710915],[-74.186997,40.710887],[-74.187033,40.710887],[-74.187033,40.710915]]],[[[-74.186672,40.710914],[-74.186636,40.710886],[-74.186672,40.710886],[-74.186672,40.710914]]],[[[-74.186636,40.710969],[-74.1866,40.710941],[-74.186636,40.710941],[-74.186636,40.710969]]],[[[-74.186997,40.710942],[-74.18696,40.710997],[-74.186961,40.710942],[-74.186997,40.710942]]],[[[-74.186965,40.709899],[-74.186818,40.710585],[-74.186565,40.710721],[-74.1866,40.710886],[-74.186383,40.711023],[-74.186418,40.71116],[-74.186164,40.711489],[-74.186056,40.711543],[-74.186128,40.711626],[-74.1862,40.711599],[-74.1862,40.711654],[-74.185982,40.71201],[-74.185511,40.712311],[-74.185438,40.71253],[-74.185221,40.712584],[-74.185184,40.712776],[-74.184282,40.712856],[-74.183746,40.711702],[-74.184069,40.712142],[-74.184829,40.711705],[-74.184542,40.711347],[-74.184109,40.711401],[-74.184401,40.710578],[-74.184907,40.710442],[-74.184548,40.710057],[-74.1848,40.710058],[-74.185019,40.709592],[-74.186861,40.709075],[-74.186894,40.709734],[-74.187256,40.709515],[-74.18711,40.709844],[-74.186965,40.709899]],[[-74.186346,40.711215],[-74.18631,40.711132],[-74.18631,40.711215],[-74.186346,40.711215]],[[-74.186273,40.711324],[-74.186237,40.711297],[-74.186237,40.711324],[-74.186273,40.711324]],[[-74.18602,40.711598],[-74.185983,40.711653],[-74.185947,40.711653],[-74.185947,40.711708],[-74.18573,40.711844],[-74.18573,40.711899],[-74.185512,40.712036],[-74.184753,40.712363],[-74.185548,40.712091],[-74.186019,40.711735],[-74.18602,40.711598]]],[[[-74.186527,40.710996],[-74.186563,40.711023],[-74.186527,40.711023],[-74.186527,40.710996]]],[[[-74.186888,40.711024],[-74.18696,40.711052],[-74.186888,40.711079],[-74.186888,40.711024]]],[[[-74.186454,40.711215],[-74.186418,40.711188],[-74.186454,40.711188],[-74.186454,40.711215]]],[[[-74.186778,40.711353],[-74.186852,40.711106],[-74.186924,40.711107],[-74.186778,40.711353]]],[[[-74.186418,40.711242],[-74.186382,40.711297],[-74.186382,40.711242],[-74.186418,40.711242]]],[[[-74.186959,40.711271],[-74.186887,40.711299],[-74.186887,40.711271],[-74.186959,40.711271]]],[[[-74.186382,40.711297],[-74.186346,40.711325],[-74.186346,40.711297],[-74.186382,40.711297]]],[[[-74.186345,40.71138],[-74.186309,40.711352],[-74.186345,40.711352],[-74.186345,40.71138]]],[[[-74.186273,40.711407],[-74.186309,40.711462],[-74.186273,40.711462],[-74.186273,40.711407]]],[[[-74.186778,40.71149],[-74.18685,40.711463],[-74.18685,40.711518],[-74.186778,40.71149]]],[[[-74.186273,40.711462],[-74.1862,40.711571],[-74.186237,40.711462],[-74.186273,40.711462]]],[[[-74.186164,40.711571],[-74.186128,40.711599],[-74.186128,40.711571],[-74.186164,40.711571]]],[[[-74.186813,40.711573],[-74.186668,40.711847],[-74.186488,40.711792],[-74.186706,40.711353],[-74.186813,40.711573]],[[-74.186777,40.711573],[-74.186741,40.711545],[-74.186741,40.711573],[-74.186777,40.711573]],[[-74.186741,40.711655],[-74.186705,40.711628],[-74.186705,40.711655],[-74.186741,40.711655]],[[-74.186704,40.71171],[-74.186668,40.711682],[-74.186668,40.71171],[-74.186704,40.71171]]],[[[-74.186019,40.711681],[-74.185983,40.711653],[-74.186019,40.711653],[-74.186019,40.711681]]],[[[-74.186306,40.712121],[-74.186269,40.712148],[-74.18627,40.71212],[-74.186306,40.712121]]],[[[-74.186632,40.711847],[-74.18634,40.712395],[-74.186232,40.712422],[-74.186231,40.712587],[-74.186087,40.712587],[-74.186378,40.712093],[-74.186451,40.711819],[-74.186632,40.711847]],[[-74.186413,40.712231],[-74.186377,40.712203],[-74.186377,40.712231],[-74.186413,40.712231]],[[-74.186377,40.712285],[-74.186341,40.712258],[-74.186341,40.712285],[-74.186377,40.712285]],[[-74.186341,40.71234],[-74.186305,40.712313],[-74.186305,40.71234],[-74.186341,40.71234]],[[-74.186595,40.711902],[-74.186559,40.711874],[-74.186559,40.711902],[-74.186595,40.711902]],[[-74.186523,40.712039],[-74.186487,40.712011],[-74.186486,40.712039],[-74.186523,40.712039]],[[-74.186486,40.712094],[-74.18645,40.712066],[-74.18645,40.712093],[-74.186486,40.712094]]],[[[-74.185583,40.712283],[-74.185619,40.712311],[-74.185583,40.712311],[-74.185583,40.712283]]],[[[-74.185547,40.712366],[-74.185583,40.712338],[-74.185583,40.712366],[-74.185547,40.712366]]],[[[-74.186268,40.712422],[-74.186304,40.71245],[-74.186268,40.71245],[-74.186268,40.712422]]],[[[-74.186087,40.712696],[-74.18605,40.712724],[-74.18605,40.712696],[-74.186087,40.712696]]],[[[-74.185329,40.712722],[-74.185365,40.712749],[-74.185293,40.712749],[-74.185329,40.712722]]],[[[-74.18605,40.712724],[-74.186014,40.712806],[-74.185978,40.712806],[-74.185978,40.712724],[-74.18605,40.712724]]],[[[-74.185184,40.712914],[-74.185038,40.713133],[-74.18475,40.713022],[-74.185184,40.712914]],[[-74.185039,40.712968],[-74.185003,40.712995],[-74.185039,40.712996],[-74.185039,40.712968]]],[[[-74.184966,40.713133],[-74.185002,40.71316],[-74.184966,40.71316],[-74.184966,40.713133]]],[[[-74.184858,40.713215],[-74.184604,40.713379],[-74.18446,40.713351],[-74.184714,40.71305],[-74.184858,40.713215]]],[[[-74.182908,40.690727],[-74.182621,40.690452],[-74.183307,40.690289],[-74.183706,40.689714],[-74.183994,40.68988],[-74.18468,40.689662],[-74.184643,40.689909],[-74.183956,40.690181],[-74.183664,40.690949],[-74.183448,40.690894],[-74.183486,40.690537],[-74.182908,40.690727]]],[[[-74.185607,40.691888],[-74.186181,40.692576],[-74.184775,40.692544],[-74.18434,40.692982],[-74.184628,40.69312],[-74.184336,40.693723],[-74.183686,40.693914],[-74.184046,40.694107],[-74.183573,40.694957],[-74.183461,40.695835],[-74.182737,40.696272],[-74.182522,40.696107],[-74.182597,40.695558],[-74.182885,40.695531],[-74.183761,40.693365],[-74.185572,40.691641],[-74.18604,40.691971],[-74.18568,40.691778],[-74.185751,40.691971],[-74.185679,40.69197],[-74.185607,40.691888]]],[[[-74.177874,40.695188],[-74.17712,40.694417],[-74.177337,40.694198],[-74.177086,40.693896],[-74.177269,40.693539],[-74.177985,40.694639],[-74.1791,40.695082],[-74.178882,40.695438],[-74.177874,40.695188]]],[[[-74.184351,40.698225],[-74.184493,40.69872],[-74.184311,40.699021],[-74.184204,40.698829],[-74.184351,40.698225]]],[[[-74.18489,40.698694],[-74.1846,40.69905],[-74.184528,40.699049],[-74.184603,40.698418],[-74.18489,40.698694]]],[[[-74.181988,40.702144],[-74.182542,40.699373],[-74.182626,40.696876],[-74.18324,40.696658],[-74.183273,40.697399],[-74.182913,40.697233],[-74.183235,40.697728],[-74.182876,40.697535],[-74.182839,40.697727],[-74.183233,40.69825],[-74.182897,40.700555],[-74.182501,40.700526],[-74.18286,40.700747],[-74.182457,40.702255],[-74.181988,40.702144]]],[[[-74.180427,40.704309],[-74.181007,40.703596],[-74.18162,40.703708],[-74.181147,40.704475],[-74.181726,40.70423],[-74.181834,40.704285],[-74.181436,40.704503],[-74.180461,40.704803],[-74.180427,40.704309]]],[[[-74.184594,40.707971],[-74.182434,40.706949],[-74.182401,40.706263],[-74.182689,40.706428],[-74.182759,40.706923],[-74.183912,40.707118],[-74.183803,40.707337],[-74.184632,40.707587],[-74.184989,40.708246],[-74.18452,40.708245],[-74.184594,40.707971]]],[[[-74.183148,40.708598],[-74.183761,40.708682],[-74.183868,40.708957],[-74.182315,40.709282],[-74.182461,40.708816],[-74.183148,40.708598]]],[[[-74.183972,40.709671],[-74.184008,40.709699],[-74.183936,40.709726],[-74.183972,40.709671]]],[[[-74.18426,40.709809],[-74.184296,40.709837],[-74.18426,40.709837],[-74.18426,40.709809]]],[[[-74.184296,40.709919],[-74.184331,40.710166],[-74.184079,40.710111],[-74.184296,40.709919]]],[[[-74.169721,40.710263],[-74.168676,40.71004],[-74.168209,40.709572],[-74.169037,40.709986],[-74.17037,40.710182],[-74.176899,40.710228],[-74.176682,40.71042],[-74.169721,40.710263]]],[[[-74.18426,40.709837],[-74.183536,40.710521],[-74.182886,40.710629],[-74.182778,40.710436],[-74.18426,40.709837]]],[[[-74.182705,40.710711],[-74.182598,40.710491],[-74.182777,40.710711],[-74.182705,40.710711]]],[[[-74.183816,40.712306],[-74.18378,40.712278],[-74.183816,40.712278],[-74.183816,40.712306]]],[[[-74.183852,40.712306],[-74.183816,40.712333],[-74.183816,40.712306],[-74.183852,40.712306]]],[[[-74.183274,40.712414],[-74.183238,40.712387],[-74.183274,40.712387],[-74.183274,40.712414]]],[[[-74.183852,40.712333],[-74.183959,40.712444],[-74.183959,40.712526],[-74.183923,40.712526],[-74.183851,40.712416],[-74.183852,40.712333]]],[[[-74.183995,40.712581],[-74.183959,40.712526],[-74.183995,40.712526],[-74.183995,40.712581]]],[[[-74.184031,40.712581],[-74.183994,40.712636],[-74.183995,40.712581],[-74.184031,40.712581]]],[[[-74.184066,40.712691],[-74.18403,40.712663],[-74.184067,40.712663],[-74.184066,40.712691]]],[[[-74.184102,40.712746],[-74.184066,40.712718],[-74.184102,40.712718],[-74.184102,40.712746]]],[[[-74.183346,40.712414],[-74.183668,40.712964],[-74.183126,40.713128],[-74.179046,40.713885],[-74.178252,40.713965],[-74.178794,40.713774],[-74.178614,40.713719],[-74.177458,40.714045],[-74.174175,40.714201],[-74.172406,40.714443],[-74.173163,40.7145],[-74.168218,40.715035],[-74.168038,40.714952],[-74.169843,40.714737],[-74.165873,40.714973],[-74.16187,40.714659],[-74.163457,40.714719],[-74.163241,40.714636],[-74.165948,40.714534],[-74.165515,40.71445],[-74.166887,40.714345],[-74.168726,40.714377],[-74.172659,40.714224],[-74.175114,40.713846],[-74.174718,40.71379],[-74.170821,40.713944],[-74.170352,40.71397],[-74.170387,40.71408],[-74.170279,40.713997],[-74.16963,40.713996],[-74.16714,40.714098],[-74.167574,40.713962],[-74.167466,40.713825],[-74.165446,40.713929],[-74.165266,40.713681],[-74.167684,40.713633],[-74.167863,40.713936],[-74.168512,40.71402],[-74.168802,40.713581],[-74.169378,40.713967],[-74.177063,40.71366],[-74.179915,40.713256],[-74.180206,40.712708],[-74.18021,40.711939],[-74.17927,40.712348],[-74.178259,40.712455],[-74.177575,40.712179],[-74.177074,40.711464],[-74.170507,40.711775],[-74.170616,40.711555],[-74.177219,40.711245],[-74.1779,40.712125],[-74.178982,40.712293],[-74.18032,40.71161],[-74.180755,40.711035],[-74.1822,40.7106],[-74.182344,40.71082],[-74.180499,40.711858],[-74.180565,40.71323],[-74.182409,40.712302],[-74.182627,40.711918],[-74.182843,40.711974],[-74.182625,40.71244],[-74.183346,40.712414]]],[[[-74.180673,40.713148],[-74.180637,40.713121],[-74.180673,40.713121],[-74.180673,40.713148]]],[[[-74.183954,40.713542],[-74.184061,40.713844],[-74.183411,40.714034],[-74.183737,40.713788],[-74.183447,40.713924],[-74.18334,40.713814],[-74.183954,40.713542]]],[[[-74.174825,40.713873],[-74.174717,40.713845],[-74.174826,40.713846],[-74.174825,40.713873]]],[[[-74.174681,40.713845],[-74.174645,40.713873],[-74.174645,40.713845],[-74.174681,40.713845]]],[[[-74.174573,40.7139],[-74.174537,40.713872],[-74.174573,40.713872],[-74.174573,40.7139]]],[[[-74.174465,40.713872],[-74.174429,40.713899],[-74.174429,40.713872],[-74.174465,40.713872]]],[[[-74.174284,40.713926],[-74.174393,40.713872],[-74.174392,40.713927],[-74.174284,40.713926]]],[[[-74.17818,40.713992],[-74.178144,40.713965],[-74.17818,40.713965],[-74.17818,40.713992]]],[[[-74.183267,40.713979],[-74.182111,40.714278],[-74.181894,40.714277],[-74.183304,40.713787],[-74.183267,40.713979]],[[-74.182942,40.714005],[-74.182906,40.713978],[-74.182906,40.714005],[-74.182942,40.714005]],[[-74.183231,40.713924],[-74.183195,40.713951],[-74.183231,40.713951],[-74.183231,40.713924]]],[[[-74.183375,40.714034],[-74.183302,40.714089],[-74.183266,40.714034],[-74.183375,40.714034]]],[[[-74.173165,40.713978],[-74.173129,40.714006],[-74.173129,40.713978],[-74.173165,40.713978]]],[[[-74.172552,40.714059],[-74.171397,40.71411],[-74.172372,40.714031],[-74.171722,40.713974],[-74.174212,40.713871],[-74.174212,40.713926],[-74.173057,40.71395],[-74.172552,40.714059]]],[[[-74.183266,40.714061],[-74.18323,40.714089],[-74.18323,40.714061],[-74.183266,40.714061]]],[[[-74.171686,40.713974],[-74.171398,40.714028],[-74.171398,40.714001],[-74.171686,40.713974]]],[[[-74.171361,40.714028],[-74.171289,40.714],[-74.171362,40.714],[-74.171361,40.714028]]],[[[-74.171073,40.714027],[-74.171037,40.714],[-74.171073,40.714],[-74.171073,40.714027]]],[[[-74.170965,40.713999],[-74.171001,40.714027],[-74.170965,40.714027],[-74.170965,40.713999]]],[[[-74.183302,40.714089],[-74.183266,40.714116],[-74.183266,40.714089],[-74.183302,40.714089]]],[[[-74.18323,40.714089],[-74.183158,40.714116],[-74.183158,40.714088],[-74.18323,40.714089]]],[[[-74.183014,40.714088],[-74.182977,40.714115],[-74.182978,40.714088],[-74.183014,40.714088]]],[[[-74.170784,40.714026],[-74.170893,40.713999],[-74.170892,40.714054],[-74.170784,40.714026]]],[[[-74.170784,40.714026],[-74.170748,40.714054],[-74.170748,40.714026],[-74.170784,40.714026]]],[[[-74.170712,40.714054],[-74.170676,40.714026],[-74.170712,40.714026],[-74.170712,40.714054]]],[[[-74.18323,40.714171],[-74.183266,40.714144],[-74.183266,40.714171],[-74.18323,40.714171]]],[[[-74.183086,40.714116],[-74.183194,40.714171],[-74.183085,40.714198],[-74.183086,40.714116]]],[[[-74.182833,40.71417],[-74.182833,40.714142],[-74.182869,40.714142],[-74.182869,40.71417],[-74.182833,40.71417]]],[[[-74.171361,40.714083],[-74.171253,40.71411],[-74.171253,40.714083],[-74.171361,40.714083]]],[[[-74.171217,40.714082],[-74.171145,40.71411],[-74.171145,40.714082],[-74.171217,40.714082]]],[[[-74.183194,40.714171],[-74.18323,40.714198],[-74.183193,40.714198],[-74.183194,40.714171]]],[[[-74.171109,40.714082],[-74.171,40.714137],[-74.171,40.714082],[-74.171109,40.714082]]],[[[-74.170784,40.714109],[-74.170964,40.714137],[-74.170784,40.714136],[-74.170784,40.714109]]],[[[-74.170784,40.714109],[-74.170712,40.714136],[-74.170676,40.714081],[-74.170784,40.714081],[-74.170784,40.714109]]],[[[-74.182761,40.71417],[-74.182904,40.714307],[-74.182796,40.714307],[-74.182761,40.71417]]],[[[-74.182977,40.714253],[-74.182941,40.71428],[-74.182941,40.714252],[-74.182977,40.714253]]],[[[-74.182615,40.714361],[-74.182579,40.714389],[-74.182579,40.714361],[-74.182615,40.714361]]],[[[-74.18247,40.714498],[-74.182182,40.71458],[-74.181966,40.714442],[-74.181893,40.714606],[-74.180522,40.714658],[-74.182688,40.714224],[-74.182652,40.714361],[-74.182543,40.714361],[-74.18247,40.714498]],[[-74.182398,40.714498],[-74.182362,40.71447],[-74.182362,40.714498],[-74.182398,40.714498]],[[-74.182398,40.714471],[-74.182435,40.714443],[-74.182399,40.714443],[-74.182398,40.714471]],[[-74.182435,40.714443],[-74.182471,40.714416],[-74.182435,40.714416],[-74.182435,40.714443]],[[-74.182471,40.714416],[-74.182507,40.714389],[-74.182471,40.714388],[-74.182471,40.714416]]],[[[-74.182398,40.714525],[-74.182434,40.714553],[-74.182398,40.714553],[-74.182398,40.714525]]],[[[-74.171273,40.717404],[-74.170661,40.717155],[-74.170479,40.717319],[-74.170047,40.717236],[-74.170123,40.716385],[-74.17095,40.717046],[-74.172391,40.71749],[-74.172392,40.717297],[-74.171851,40.717214],[-74.172538,40.716914],[-74.172287,40.716556],[-74.171962,40.716528],[-74.172613,40.7162],[-74.172543,40.715925],[-74.173987,40.715682],[-74.172182,40.715869],[-74.172073,40.716089],[-74.171316,40.715867],[-74.176479,40.715168],[-74.175323,40.715412],[-74.175032,40.71585],[-74.175031,40.71607],[-74.176147,40.716567],[-74.174778,40.716234],[-74.174561,40.716425],[-74.174453,40.716205],[-74.174379,40.716617],[-74.175172,40.716756],[-74.175567,40.717142],[-74.174954,40.717058],[-74.174304,40.717275],[-74.173944,40.717027],[-74.173471,40.717904],[-74.174082,40.71829],[-74.173398,40.718096],[-74.172855,40.718534],[-74.17293,40.71793],[-74.172209,40.717709],[-74.171559,40.717817],[-74.171273,40.717404]],[[-74.171596,40.717597],[-74.171633,40.71757],[-74.171597,40.71757],[-74.171596,40.717597]]],[[[-74.171232,40.718255],[-74.170658,40.717759],[-74.171522,40.718036],[-74.172208,40.717983],[-74.17271,40.718561],[-74.171845,40.718449],[-74.171303,40.718612],[-74.171232,40.718255]]],[[[-74.160812,40.688685],[-74.160631,40.68877],[-74.160704,40.688567],[-74.160812,40.688685]]],[[[-74.160703,40.688825],[-74.160667,40.688853],[-74.160667,40.688825],[-74.160703,40.688825]]],[[[-74.161277,40.689294],[-74.160774,40.688963],[-74.160883,40.688764],[-74.161355,40.689129],[-74.161277,40.689294]]],[[[-74.161638,40.689377],[-74.161746,40.689405],[-74.161637,40.689487],[-74.161638,40.689377]]],[[[-74.161455,40.689733],[-74.16142,40.689706],[-74.161456,40.689706],[-74.161455,40.689733]]],[[[-74.161419,40.689761],[-74.161383,40.689788],[-74.161383,40.689761],[-74.161419,40.689761]]],[[[-74.161383,40.689843],[-74.161347,40.689815],[-74.161383,40.689815],[-74.161383,40.689843]]],[[[-74.161347,40.68987],[-74.16131,40.689925],[-74.161311,40.68987],[-74.161347,40.68987]]],[[[-74.161274,40.689925],[-74.16131,40.689952],[-74.161274,40.689952],[-74.161274,40.689925]]],[[[-74.161274,40.690007],[-74.161238,40.68998],[-74.161274,40.68998],[-74.161274,40.690007]]],[[[-74.161238,40.690035],[-74.161201,40.690089],[-74.161202,40.690034],[-74.161238,40.690035]]],[[[-74.161201,40.690089],[-74.161165,40.690144],[-74.161165,40.690089],[-74.161201,40.690089]]],[[[-74.161165,40.690144],[-74.161129,40.690172],[-74.161129,40.690144],[-74.161165,40.690144]]],[[[-74.161129,40.690199],[-74.160947,40.690528],[-74.160874,40.690555],[-74.161129,40.690199]]],[[[-74.164768,40.690813],[-74.163567,40.692924],[-74.162443,40.694046],[-74.162445,40.693689],[-74.164261,40.691114],[-74.164192,40.690675],[-74.163722,40.69081],[-74.163033,40.691605],[-74.163036,40.691028],[-74.16282,40.690973],[-74.162529,40.691411],[-74.162815,40.691933],[-74.162632,40.692509],[-74.162306,40.692755],[-74.161332,40.692698],[-74.162424,40.690752],[-74.162965,40.690808],[-74.163256,40.690178],[-74.163004,40.69015],[-74.163078,40.689793],[-74.165096,40.690183],[-74.164985,40.690595],[-74.164589,40.690538],[-74.164768,40.690813]],[[-74.163257,40.69015],[-74.163293,40.690123],[-74.163257,40.690123],[-74.163257,40.69015]],[[-74.164589,40.690538],[-74.164517,40.690456],[-74.164517,40.690538],[-74.164589,40.690538]]],[[[-74.171134,40.701675],[-74.167996,40.701556],[-74.167781,40.701336],[-74.168142,40.701172],[-74.171568,40.701347],[-74.171495,40.701593],[-74.171134,40.701675]]],[[[-74.17064,40.714053],[-74.170532,40.714026],[-74.17064,40.714026],[-74.17064,40.714053]]],[[[-74.16981,40.714024],[-74.169846,40.714051],[-74.16981,40.714051],[-74.16981,40.714024]]],[[[-74.17046,40.714025],[-74.170387,40.714053],[-74.170387,40.714025],[-74.17046,40.714025]]],[[[-74.170135,40.714024],[-74.170062,40.714079],[-74.170063,40.714052],[-74.170135,40.714024]]],[[[-74.170027,40.714052],[-74.16999,40.714079],[-74.16999,40.714051],[-74.170027,40.714052]]],[[[-74.169954,40.714079],[-74.169918,40.714051],[-74.169954,40.714051],[-74.169954,40.714079]]],[[[-74.169846,40.714079],[-74.169882,40.714051],[-74.169882,40.714079],[-74.169846,40.714079]]],[[[-74.166888,40.71407],[-74.166888,40.714043],[-74.166924,40.714043],[-74.166924,40.71407],[-74.166888,40.71407]]],[[[-74.16999,40.714079],[-74.169954,40.714106],[-74.169954,40.714079],[-74.16999,40.714079]]],[[[-74.167068,40.714098],[-74.166924,40.71407],[-74.167068,40.714071],[-74.167068,40.714098]]],[[[-74.170387,40.714135],[-74.170351,40.714107],[-74.170387,40.714108],[-74.170387,40.714135]]],[[[-74.168836,40.714103],[-74.1688,40.71413],[-74.1688,40.714103],[-74.168836,40.714103]]],[[[-74.170279,40.714162],[-74.170243,40.714135],[-74.170279,40.714135],[-74.170279,40.714162]]],[[[-74.170134,40.714134],[-74.170062,40.714161],[-74.170062,40.714134],[-74.170134,40.714134]]],[[[-74.169774,40.714133],[-74.169737,40.714161],[-74.169738,40.714133],[-74.169774,40.714133]]],[[[-74.169701,40.71416],[-74.169665,40.714133],[-74.169701,40.714133],[-74.169701,40.71416]]],[[[-74.169629,40.714133],[-74.169593,40.71416],[-74.169593,40.714133],[-74.169629,40.714133]]],[[[-74.169377,40.71416],[-74.169304,40.714187],[-74.169305,40.714159],[-74.169377,40.71416]]],[[[-74.168726,40.714322],[-74.168691,40.714295],[-74.168727,40.714295],[-74.168726,40.714322]]],[[[-74.168041,40.714293],[-74.168005,40.71432],[-74.168005,40.714293],[-74.168041,40.714293]]],[[[-74.168618,40.71435],[-74.168654,40.714295],[-74.168654,40.71435],[-74.168618,40.71435]]],[[[-74.165443,40.714505],[-74.165407,40.714477],[-74.165443,40.714478],[-74.165443,40.714505]]],[[[-74.161834,40.714632],[-74.161762,40.714604],[-74.161835,40.714604],[-74.161834,40.714632]]],[[[-74.163205,40.714636],[-74.162881,40.714662],[-74.162881,40.714635],[-74.163205,40.714636]]],[[[-74.161582,40.714713],[-74.161473,40.714686],[-74.161582,40.714686],[-74.161582,40.714713]]],[[[-74.161798,40.714741],[-74.161654,40.714714],[-74.161798,40.714714],[-74.161798,40.714741]]],[[[-74.16205,40.714852],[-74.161798,40.714741],[-74.16223,40.714825],[-74.16205,40.714852]]],[[[-74.162375,40.714798],[-74.162266,40.714825],[-74.162267,40.714798],[-74.162375,40.714798]]],[[[-74.161906,40.714797],[-74.16187,40.714824],[-74.16187,40.714797],[-74.161906,40.714797]]],[[[-74.162627,40.714854],[-74.162519,40.714826],[-74.162627,40.714826],[-74.162627,40.714854]]],[[[-74.162699,40.714881],[-74.162699,40.714854],[-74.162843,40.714854],[-74.162843,40.714882],[-74.162699,40.714881]]],[[[-74.162879,40.714909],[-74.162843,40.714882],[-74.162879,40.714882],[-74.162879,40.714909]]],[[[-74.16378,40.715077],[-74.162952,40.714882],[-74.164646,40.715024],[-74.167533,40.714978],[-74.167929,40.715006],[-74.165872,40.715165],[-74.16378,40.715077]],[[-74.1636,40.715021],[-74.163636,40.714994],[-74.1636,40.714994],[-74.1636,40.715021]],[[-74.163636,40.714994],[-74.163673,40.714967],[-74.163637,40.714966],[-74.163636,40.714994]],[[-74.1636,40.714994],[-74.163564,40.714966],[-74.163564,40.714994],[-74.1636,40.714994]]],[[[-74.169244,40.719183],[-74.168487,40.719016],[-74.168344,40.718796],[-74.169136,40.719072],[-74.169426,40.718826],[-74.168778,40.718577],[-74.168524,40.718686],[-74.168381,40.718466],[-74.168923,40.718413],[-74.169462,40.718717],[-74.16968,40.718443],[-74.170004,40.718526],[-74.169314,40.719567],[-74.16899,40.719319],[-74.169244,40.719183]]],[[[-74.16844,40.721184],[-74.16725,40.721098],[-74.167321,40.721373],[-74.166996,40.721345],[-74.166853,40.721152],[-74.167107,40.720769],[-74.16671,40.720712],[-74.166421,40.720959],[-74.166243,40.720437],[-74.164226,40.719772],[-74.163937,40.719799],[-74.163791,40.7201],[-74.164403,40.720431],[-74.16361,40.720292],[-74.163464,40.720676],[-74.164579,40.7212],[-74.16465,40.72142],[-74.163354,40.721005],[-74.162632,40.721085],[-74.162813,40.720811],[-74.162598,40.720563],[-74.163175,40.720675],[-74.163429,40.720456],[-74.162926,40.719933],[-74.163503,40.719935],[-74.163504,40.719742],[-74.162497,40.719245],[-74.162243,40.719519],[-74.162602,40.719877],[-74.162097,40.719766],[-74.161843,40.719985],[-74.161594,40.719435],[-74.161918,40.719436],[-74.162065,40.719052],[-74.161129,40.71861],[-74.16131,40.718363],[-74.160555,40.717977],[-74.16178,40.718255],[-74.161995,40.718558],[-74.162393,40.718422],[-74.162571,40.718806],[-74.163041,40.718561],[-74.163007,40.718121],[-74.163224,40.718095],[-74.16358,40.719029],[-74.16423,40.718866],[-74.164192,40.719278],[-74.164625,40.719361],[-74.164696,40.719609],[-74.165203,40.719198],[-74.165092,40.719747],[-74.165379,40.719967],[-74.166606,40.719861],[-74.166716,40.719697],[-74.166428,40.719531],[-74.166573,40.719422],[-74.167258,40.719506],[-74.167437,40.719754],[-74.167798,40.719645],[-74.167797,40.719892],[-74.168661,40.720169],[-74.169133,40.719649],[-74.16913,40.720253],[-74.169599,40.720172],[-74.169562,40.720364],[-74.170425,40.72097],[-74.169417,40.720665],[-74.169126,40.721076],[-74.169702,40.721325],[-74.169701,40.721545],[-74.168944,40.72135],[-74.168508,40.722035],[-74.168292,40.721925],[-74.16844,40.721184]]],[[[-74.164206,40.723725],[-74.165037,40.723508],[-74.164966,40.72315],[-74.165617,40.72285],[-74.165687,40.723372],[-74.165253,40.723618],[-74.16525,40.724085],[-74.164781,40.72422],[-74.164206,40.723725]]],[[[-74.162126,40.735495],[-74.16209,40.735522],[-74.16209,40.735495],[-74.162126,40.735495]]],[[[-74.161981,40.735577],[-74.161945,40.735604],[-74.161945,40.735577],[-74.161981,40.735577]]],[[[-74.162233,40.735632],[-74.162197,40.735605],[-74.162234,40.735605],[-74.162233,40.735632]]],[[[-74.161945,40.735604],[-74.161909,40.735631],[-74.161909,40.735604],[-74.161945,40.735604]]],[[[-74.162269,40.735632],[-74.162197,40.735687],[-74.162197,40.73566],[-74.162269,40.735632]]],[[[-74.161872,40.735823],[-74.162124,40.735769],[-74.161871,40.735851],[-74.161872,40.735823]]],[[[-74.161582,40.736049],[-74.161691,40.735933],[-74.161726,40.735988],[-74.161582,40.736049]]],[[[-74.165748,40.74525],[-74.166373,40.745005],[-74.165714,40.745085],[-74.162778,40.737845],[-74.161707,40.736207],[-74.162377,40.735797],[-74.163918,40.737971],[-74.164094,40.738877],[-74.164597,40.739153],[-74.164342,40.739674],[-74.164591,40.74047],[-74.166054,40.743851],[-74.166378,40.743962],[-74.16676,40.746845],[-74.166505,40.747393],[-74.165867,40.747392],[-74.165748,40.74525]]],[[[-74.166468,40.747531],[-74.166574,40.74797],[-74.165838,40.747886],[-74.165863,40.747474],[-74.166468,40.747531]]],[[[-74.166465,40.748189],[-74.165874,40.750988],[-74.16524,40.750958],[-74.1658,40.748133],[-74.166465,40.748189]]],[[[-74.157532,40.766512],[-74.161643,40.762036],[-74.163014,40.760089],[-74.163961,40.75797],[-74.165214,40.751123],[-74.165837,40.751097],[-74.165577,40.752469],[-74.165794,40.752497],[-74.165791,40.753073],[-74.165354,40.753758],[-74.165276,40.754966],[-74.164808,40.754773],[-74.16524,40.755048],[-74.165127,40.755871],[-74.165487,40.756174],[-74.165053,40.756256],[-74.164865,40.75782],[-74.163988,40.759876],[-74.161625,40.763136],[-74.159448,40.765215],[-74.15861,40.766668],[-74.157739,40.767571],[-74.15719,40.769107],[-74.157365,40.770068],[-74.155655,40.772616],[-74.154602,40.773848],[-74.150649,40.777047],[-74.150218,40.776732],[-74.153373,40.773988],[-74.154816,40.772061],[-74.157532,40.766512]]],[[[-74.160874,40.690555],[-74.160547,40.691158],[-74.161818,40.689416],[-74.162142,40.689532],[-74.156803,40.696939],[-74.156296,40.697322],[-74.156259,40.697431],[-74.156295,40.697486],[-74.156223,40.697459],[-74.156187,40.697486],[-74.156186,40.697651],[-74.156114,40.697596],[-74.156005,40.697733],[-74.154624,40.699705],[-74.154842,40.699376],[-74.154771,40.699294],[-74.156878,40.696225],[-74.156987,40.696226],[-74.157823,40.694911],[-74.158112,40.694829],[-74.158257,40.694555],[-74.158077,40.694527],[-74.160874,40.690555]],[[-74.160547,40.691158],[-74.16051,40.691213],[-74.160546,40.691213],[-74.160547,40.691158]],[[-74.160474,40.691213],[-74.160329,40.691377],[-74.160365,40.691432],[-74.16051,40.691378],[-74.160474,40.691213]],[[-74.160546,40.691213],[-74.160618,40.691241],[-74.160619,40.691213],[-74.160546,40.691213]],[[-74.156186,40.697541],[-74.15615,40.697568],[-74.156186,40.697568],[-74.156186,40.697541]],[[-74.154843,40.699239],[-74.154915,40.699267],[-74.154915,40.699212],[-74.154843,40.699239]],[[-74.154952,40.699102],[-74.154988,40.699157],[-74.154988,40.699102],[-74.154952,40.699102]],[[-74.154988,40.699102],[-74.155024,40.699047],[-74.154988,40.699047],[-74.154988,40.699102]],[[-74.155061,40.698938],[-74.155097,40.698993],[-74.155133,40.698938],[-74.155061,40.698938]],[[-74.155061,40.698993],[-74.155025,40.69902],[-74.155061,40.69902],[-74.155061,40.698993]],[[-74.155206,40.698718],[-74.155278,40.698746],[-74.155279,40.698719],[-74.155206,40.698718]],[[-74.155497,40.698308],[-74.155533,40.698363],[-74.155569,40.698308],[-74.155497,40.698308]],[[-74.155533,40.698253],[-74.155605,40.69828],[-74.155606,40.698253],[-74.155533,40.698253]],[[-74.15586,40.697787],[-74.155896,40.697842],[-74.155896,40.697787],[-74.15586,40.697787]],[[-74.15626,40.697212],[-74.156296,40.697267],[-74.156296,40.697212],[-74.15626,40.697212]],[[-74.156333,40.697102],[-74.156405,40.69713],[-74.156405,40.697102],[-74.156333,40.697102]],[[-74.156442,40.696965],[-74.156478,40.696993],[-74.156478,40.696965],[-74.156442,40.696965]],[[-74.156769,40.696445],[-74.156805,40.696472],[-74.156805,40.696445],[-74.156769,40.696445]],[[-74.157677,40.69524],[-74.157713,40.695267],[-74.157713,40.69524],[-74.157677,40.69524]],[[-74.158221,40.694528],[-74.158294,40.6945],[-74.158222,40.6945],[-74.158221,40.694528]],[[-74.158294,40.6945],[-74.15833,40.694446],[-74.158294,40.694445],[-74.158294,40.6945]]],[[[-74.158185,40.694582],[-74.158221,40.694555],[-74.158221,40.694582],[-74.158185,40.694582]]],[[[-74.158041,40.694609],[-74.15804,40.694829],[-74.157967,40.694829],[-74.158041,40.694609]]],[[[-74.156951,40.696198],[-74.156915,40.696171],[-74.156951,40.696171],[-74.156951,40.696198]]],[[[-74.156368,40.697349],[-74.156331,40.697404],[-74.156332,40.697349],[-74.156368,40.697349]]],[[[-74.156295,40.697432],[-74.156331,40.697404],[-74.156331,40.697432],[-74.156295,40.697432]]],[[[-74.156223,40.697486],[-74.156258,40.697541],[-74.156222,40.697541],[-74.156223,40.697486]]],[[[-74.15615,40.697651],[-74.156113,40.697678],[-74.156114,40.697651],[-74.15615,40.697651]]],[[[-74.156041,40.697733],[-74.156077,40.69776],[-74.156041,40.69776],[-74.156041,40.697733]]],[[[-74.155823,40.698062],[-74.155859,40.698089],[-74.155823,40.698089],[-74.155823,40.698062]]],[[[-74.155823,40.698144],[-74.155787,40.698116],[-74.155823,40.698116],[-74.155823,40.698144]]],[[[-74.155641,40.698308],[-74.155677,40.698336],[-74.155641,40.698335],[-74.155641,40.698308]]],[[[-74.155605,40.698363],[-74.155641,40.698418],[-74.155605,40.698418],[-74.155605,40.698363]]],[[[-74.155532,40.6985],[-74.155568,40.698473],[-74.155568,40.6985],[-74.155532,40.6985]]],[[[-74.155496,40.698527],[-74.155532,40.698555],[-74.155496,40.698555],[-74.155496,40.698527]]],[[[-74.155423,40.698637],[-74.155459,40.698664],[-74.155423,40.698664],[-74.155423,40.698637]]],[[[-74.155387,40.698692],[-74.155423,40.698719],[-74.155387,40.698719],[-74.155387,40.698692]]],[[[-74.155314,40.698801],[-74.15535,40.698829],[-74.155314,40.698829],[-74.155314,40.698801]]],[[[-74.155205,40.698993],[-74.155241,40.698966],[-74.155241,40.698993],[-74.155205,40.698993]]],[[[-74.155169,40.698993],[-74.155205,40.69902],[-74.155169,40.69902],[-74.155169,40.698993]]],[[[-74.155096,40.69913],[-74.155132,40.699103],[-74.155132,40.69913],[-74.155096,40.69913]]],[[[-74.15506,40.699157],[-74.155096,40.699185],[-74.15506,40.699185],[-74.15506,40.699157]]],[[[-74.155024,40.699212],[-74.155059,40.699267],[-74.155023,40.699267],[-74.155024,40.699212]]],[[[-74.154987,40.699267],[-74.155023,40.699294],[-74.154987,40.699294],[-74.154987,40.699267]]],[[[-74.154951,40.699377],[-74.154987,40.699322],[-74.154987,40.699377],[-74.154951,40.699377]]],[[[-74.15477,40.699403],[-74.154734,40.699348],[-74.15477,40.699349],[-74.15477,40.699403]]],[[[-74.154914,40.699404],[-74.154951,40.699377],[-74.15495,40.699404],[-74.154914,40.699404]]],[[[-74.154878,40.699431],[-74.154914,40.699459],[-74.154878,40.699459],[-74.154878,40.699431]]],[[[-74.154805,40.699541],[-74.154841,40.699568],[-74.154805,40.699568],[-74.154805,40.699541]]],[[[-74.154805,40.699568],[-74.154769,40.699623],[-74.154769,40.699568],[-74.154805,40.699568]]],[[[-74.154625,40.699623],[-74.154589,40.699595],[-74.154625,40.699595],[-74.154625,40.699623]]],[[[-74.154769,40.699678],[-74.154733,40.69965],[-74.154769,40.69965],[-74.154769,40.699678]]],[[[-74.154552,40.699677],[-74.154588,40.69965],[-74.154588,40.699677],[-74.154552,40.699677]]],[[[-74.154696,40.699705],[-74.154732,40.699733],[-74.154696,40.699733],[-74.154696,40.699705]]],[[[-74.15466,40.699787],[-74.154696,40.69976],[-74.154696,40.699788],[-74.15466,40.699787]]],[[[-74.154624,40.699787],[-74.15466,40.699842],[-74.154624,40.699842],[-74.154624,40.699787]]],[[[-74.154624,40.699842],[-74.154587,40.699897],[-74.154587,40.699842],[-74.154624,40.699842]]],[[[-74.154587,40.699897],[-74.154551,40.699952],[-74.154551,40.699897],[-74.154587,40.699897]]],[[[-74.153393,40.700744],[-74.153429,40.700717],[-74.153429,40.700744],[-74.153393,40.700744]]],[[[-74.153356,40.700799],[-74.153393,40.700744],[-74.153392,40.700799],[-74.153356,40.700799]]],[[[-74.153535,40.701019],[-74.153463,40.700992],[-74.153536,40.700964],[-74.153535,40.701019]]],[[[-74.154479,40.699979],[-74.15455,40.700062],[-74.153314,40.702062],[-74.152261,40.703266],[-74.151607,40.704335],[-74.151317,40.704444],[-74.151935,40.70354],[-74.151573,40.703896],[-74.151646,40.703594],[-74.152081,40.703348],[-74.152083,40.702827],[-74.151284,40.70395],[-74.151393,40.703758],[-74.151394,40.703593],[-74.152776,40.701484],[-74.15332,40.700799],[-74.152919,40.701621],[-74.153427,40.701046],[-74.153462,40.701239],[-74.15448,40.699677],[-74.154552,40.699677],[-74.154624,40.699787],[-74.154479,40.699979]],[[-74.154442,40.700061],[-74.154406,40.700116],[-74.154442,40.700116],[-74.154442,40.700061]],[[-74.154406,40.700116],[-74.15437,40.700143],[-74.154406,40.700143],[-74.154406,40.700116]],[[-74.154369,40.700226],[-74.154224,40.700308],[-74.154224,40.700363],[-74.154369,40.700226]],[[-74.154224,40.700363],[-74.154188,40.700417],[-74.154224,40.700417],[-74.154224,40.700363]],[[-74.154188,40.700417],[-74.154151,40.700472],[-74.154187,40.700472],[-74.154188,40.700417]],[[-74.154151,40.700472],[-74.154115,40.700527],[-74.154151,40.700527],[-74.154151,40.700472]],[[-74.154115,40.700527],[-74.154079,40.700582],[-74.154115,40.700582],[-74.154115,40.700527]],[[-74.154079,40.700582],[-74.154042,40.700637],[-74.154078,40.700637],[-74.154079,40.700582]],[[-74.151934,40.703732],[-74.151898,40.703705],[-74.151898,40.703732],[-74.151934,40.703732]],[[-74.152084,40.702744],[-74.152265,40.702635],[-74.152265,40.702553],[-74.152084,40.702744]],[[-74.152265,40.702553],[-74.152301,40.702498],[-74.152265,40.702498],[-74.152265,40.702553]],[[-74.152338,40.702388],[-74.152374,40.702471],[-74.15241,40.702388],[-74.152338,40.702388]],[[-74.153753,40.700828],[-74.153789,40.700883],[-74.153789,40.700828],[-74.153753,40.700828]],[[-74.154298,40.700006],[-74.154334,40.700033],[-74.154334,40.700006],[-74.154298,40.700006]],[[-74.154334,40.700033],[-74.15437,40.700061],[-74.15437,40.700034],[-74.154334,40.700033]],[[-74.154334,40.700061],[-74.154298,40.700116],[-74.154334,40.700116],[-74.154334,40.700061]],[[-74.154552,40.699815],[-74.154516,40.699732],[-74.154479,40.699814],[-74.154552,40.699815]],[[-74.154479,40.699897],[-74.154443,40.699842],[-74.154443,40.699897],[-74.154479,40.699897]],[[-74.154443,40.699897],[-74.154407,40.699951],[-74.154443,40.699951],[-74.154443,40.699897]]],[[[-74.151973,40.703238],[-74.151937,40.703293],[-74.151937,40.703238],[-74.151973,40.703238]]],[[[-74.15237,40.703267],[-74.152333,40.703294],[-74.152333,40.703267],[-74.15237,40.703267]]],[[[-74.151937,40.703293],[-74.1519,40.70332],[-74.1519,40.703293],[-74.151937,40.703293]]],[[[-74.152152,40.703486],[-74.152188,40.703513],[-74.152152,40.703513],[-74.152152,40.703486]]],[[[-74.151357,40.70373],[-74.151321,40.703703],[-74.151357,40.703703],[-74.151357,40.70373]]],[[[-74.151501,40.703868],[-74.151573,40.703923],[-74.151464,40.703923],[-74.151501,40.703868]]],[[[-74.151536,40.703978],[-74.1515,40.704005],[-74.1515,40.703978],[-74.151536,40.703978]]],[[[-74.151463,40.704115],[-74.151464,40.704005],[-74.151536,40.704033],[-74.151463,40.704115]]],[[[-74.151427,40.704115],[-74.151391,40.70417],[-74.151391,40.704115],[-74.151427,40.704115]]],[[[-74.151427,40.704225],[-74.151355,40.704197],[-74.151427,40.704197],[-74.151427,40.704225]]],[[[-74.151318,40.704252],[-74.151354,40.704334],[-74.151282,40.704334],[-74.151318,40.704252]]],[[[-74.152811,40.708593],[-74.154182,40.708488],[-74.15573,40.709014],[-74.154722,40.708709],[-74.153207,40.708677],[-74.152882,40.708786],[-74.152807,40.709252],[-74.152521,40.708867],[-74.15158,40.709386],[-74.150822,40.709493],[-74.152811,40.708593]]],[[[-74.155105,40.711483],[-74.153629,40.710792],[-74.153666,40.710627],[-74.154783,40.710905],[-74.156077,40.711733],[-74.155535,40.71195],[-74.155105,40.711483]]],[[[-74.15319,40.712053],[-74.153226,40.712081],[-74.153189,40.712081],[-74.15319,40.712053]]],[[[-74.154918,40.712607],[-74.154774,40.712634],[-74.15481,40.71258],[-74.154702,40.712524],[-74.154378,40.712496],[-74.154306,40.712386],[-74.154054,40.712385],[-74.153262,40.712026],[-74.15319,40.712026],[-74.15319,40.712053],[-74.153117,40.712053],[-74.152686,40.71186],[-74.153119,40.711833],[-74.154452,40.712139],[-74.154993,40.712031],[-74.155101,40.712251],[-74.155605,40.712335],[-74.155388,40.712499],[-74.155783,40.712775],[-74.155566,40.712884],[-74.155062,40.712663],[-74.155026,40.71269],[-74.154954,40.71269],[-74.154918,40.712607]],[[-74.15319,40.712026],[-74.153154,40.711998],[-74.153154,40.712026],[-74.15319,40.712026]],[[-74.152758,40.711887],[-74.152794,40.71186],[-74.152758,40.71186],[-74.152758,40.711887]]],[[[-74.154342,40.712441],[-74.154306,40.712468],[-74.154306,40.712441],[-74.154342,40.712441]]],[[[-74.154594,40.712524],[-74.154558,40.712551],[-74.154558,40.712524],[-74.154594,40.712524]]],[[[-74.154666,40.712579],[-74.15463,40.712552],[-74.154666,40.712552],[-74.154666,40.712579]]],[[[-74.154738,40.712607],[-74.154702,40.712579],[-74.154738,40.712579],[-74.154738,40.712607]]],[[[-74.154882,40.712635],[-74.154918,40.712662],[-74.154882,40.712662],[-74.154882,40.712635]]],[[[-74.155062,40.712718],[-74.155026,40.71269],[-74.155062,40.71269],[-74.155062,40.712718]]],[[[-74.151912,40.684605],[-74.153849,40.685922],[-74.155324,40.686124],[-74.157862,40.68596],[-74.159061,40.686433],[-74.160165,40.687671],[-74.159078,40.68926],[-74.144233,40.680101],[-74.136107,40.689135],[-74.140589,40.693898],[-74.140806,40.693788],[-74.14167,40.694066],[-74.14257,40.694398],[-74.142641,40.694618],[-74.154306,40.698496],[-74.153142,40.700359],[-74.138705,40.695511],[-74.137306,40.694107],[-74.137308,40.693777],[-74.132072,40.688463],[-74.131421,40.688818],[-74.131528,40.688955],[-74.125686,40.695387],[-74.125721,40.695635],[-74.127519,40.696546],[-74.127626,40.696821],[-74.127191,40.697122],[-74.128487,40.69762],[-74.128339,40.698251],[-74.117554,40.694949],[-74.120322,40.69066],[-74.125251,40.68406],[-74.131955,40.673797],[-74.139139,40.677125],[-74.148986,40.682244],[-74.150435,40.683156],[-74.151912,40.684605]]],[[[-74.145937,40.69202],[-74.145687,40.691443],[-74.14529,40.691442],[-74.14551,40.690893],[-74.14641,40.691088],[-74.146625,40.691391],[-74.146369,40.692104],[-74.145937,40.69202]]],[[[-74.151284,40.70395],[-74.151211,40.704059],[-74.151248,40.70395],[-74.151284,40.70395]]],[[[-74.151211,40.704059],[-74.151175,40.704087],[-74.151175,40.704059],[-74.151211,40.704059]]],[[[-74.151279,40.704801],[-74.151207,40.704828],[-74.151207,40.7048],[-74.151279,40.704801]]],[[[-74.151207,40.704883],[-74.151243,40.70491],[-74.151207,40.70491],[-74.151207,40.704883]]],[[[-74.151207,40.70491],[-74.151134,40.704992],[-74.151134,40.704937],[-74.151207,40.70491]]],[[[-74.151171,40.704883],[-74.150735,40.705375],[-74.151135,40.704745],[-74.151171,40.704883]]],[[[-74.150735,40.705458],[-74.150699,40.705375],[-74.150735,40.705375],[-74.150735,40.705458]]],[[[-74.150626,40.70554],[-74.150699,40.705485],[-74.150662,40.70554],[-74.150626,40.70554]]],[[[-74.150626,40.70554],[-74.15059,40.705595],[-74.15059,40.70554],[-74.150626,40.70554]]],[[[-74.15059,40.705595],[-74.150554,40.705622],[-74.150554,40.705595],[-74.15059,40.705595]]],[[[-74.150518,40.705622],[-74.150553,40.705677],[-74.150517,40.705677],[-74.150518,40.705622]]],[[[-74.150444,40.705951],[-74.150408,40.705923],[-74.150444,40.705924],[-74.150444,40.705951]]],[[[-74.148954,40.708115],[-74.14899,40.70806],[-74.14899,40.708115],[-74.148954,40.708115]]],[[[-74.148917,40.708115],[-74.148953,40.708143],[-74.148917,40.708142],[-74.148917,40.708115]]],[[[-74.148808,40.708362],[-74.148772,40.708334],[-74.148808,40.708334],[-74.148808,40.708362]]],[[[-74.148699,40.708416],[-74.149058,40.708911],[-74.148697,40.708828],[-74.148479,40.709212],[-74.148481,40.7088],[-74.148699,40.708416]],[[-74.148517,40.7088],[-74.148553,40.708855],[-74.148553,40.7088],[-74.148517,40.7088]],[[-74.148663,40.708526],[-74.148699,40.708554],[-74.148699,40.708526],[-74.148663,40.708526]],[[-74.148699,40.708526],[-74.148735,40.708499],[-74.148699,40.708499],[-74.148699,40.708526]]],[[[-74.148406,40.709404],[-74.148551,40.709239],[-74.148478,40.709431],[-74.148406,40.709404]]],[[[-74.133794,40.709825],[-74.133504,40.709961],[-74.132748,40.709684],[-74.133295,40.708698],[-74.135852,40.709529],[-74.135633,40.709995],[-74.134478,40.710074],[-74.133794,40.709825]]],[[[-74.147572,40.710087],[-74.148081,40.709485],[-74.148263,40.709046],[-74.148296,40.709595],[-74.147572,40.710087]]],[[[-74.138122,40.709893],[-74.138086,40.709866],[-74.138122,40.709866],[-74.138122,40.709893]]],[[[-74.138374,40.709949],[-74.138411,40.709922],[-74.13841,40.709949],[-74.138374,40.709949]]],[[[-74.138482,40.709977],[-74.138447,40.709949],[-74.138483,40.709949],[-74.138482,40.709977]]],[[[-74.138626,40.71006],[-74.13859,40.710032],[-74.138626,40.710032],[-74.138626,40.71006]]],[[[-74.138734,40.710087],[-74.138698,40.710115],[-74.138698,40.710087],[-74.138734,40.710087]]],[[[-74.139561,40.710666],[-74.139775,40.711079],[-74.139487,40.710996],[-74.138796,40.711954],[-74.13811,40.712117],[-74.137426,40.711895],[-74.137427,40.711758],[-74.138039,40.711897],[-74.138689,40.711762],[-74.139309,40.710638],[-74.134416,40.708235],[-74.138086,40.709921],[-74.138446,40.710004],[-74.138555,40.709977],[-74.138554,40.710059],[-74.138698,40.710142],[-74.139095,40.710198],[-74.139238,40.710281],[-74.139238,40.710309],[-74.139202,40.710308],[-74.139202,40.710336],[-74.139238,40.710363],[-74.139346,40.710336],[-74.139346,40.710364],[-74.13931,40.710364],[-74.13931,40.710391],[-74.139597,40.710584],[-74.139597,40.710612],[-74.139561,40.710612],[-74.139561,40.710666]],[[-74.139166,40.710281],[-74.13913,40.710308],[-74.139166,40.710308],[-74.139166,40.710281]]],[[[-74.139274,40.710336],[-74.139238,40.710309],[-74.139274,40.710309],[-74.139274,40.710336]]],[[[-74.139346,40.710391],[-74.139346,40.710364],[-74.139382,40.710364],[-74.139382,40.710391],[-74.139346,40.710391]]],[[[-74.139418,40.710419],[-74.139382,40.710391],[-74.139418,40.710392],[-74.139418,40.710419]]],[[[-74.139418,40.710446],[-74.139454,40.710419],[-74.139454,40.710447],[-74.139418,40.710446]]],[[[-74.131662,40.710422],[-74.131626,40.710449],[-74.131626,40.710422],[-74.131662,40.710422]]],[[[-74.148904,40.71064],[-74.149013,40.710531],[-74.149156,40.710696],[-74.148904,40.71064]]],[[[-74.149589,40.710807],[-74.149086,40.710421],[-74.149949,40.710973],[-74.149516,40.710862],[-74.149589,40.710807]]],[[[-74.139633,40.710639],[-74.139597,40.710612],[-74.139633,40.710612],[-74.139633,40.710639]]],[[[-74.131553,40.710559],[-74.131589,40.710586],[-74.131553,40.710586],[-74.131553,40.710559]]],[[[-74.149192,40.710696],[-74.149156,40.710723],[-74.149156,40.710696],[-74.149192,40.710696]]],[[[-74.149336,40.710779],[-74.149301,40.710724],[-74.149337,40.710724],[-74.149336,40.710779]]],[[[-74.149409,40.710752],[-74.149516,40.710834],[-74.149372,40.710806],[-74.149409,40.710752]]],[[[-74.152722,40.711832],[-74.150129,40.710973],[-74.149267,40.710257],[-74.149846,40.709902],[-74.149592,40.710258],[-74.14995,40.710671],[-74.152508,40.711283],[-74.152362,40.711666],[-74.152722,40.711832]]],[[[-74.134613,40.711694],[-74.132417,40.710946],[-74.132235,40.71122],[-74.131983,40.711164],[-74.132639,40.709821],[-74.134944,40.710624],[-74.134613,40.711694]]],[[[-74.131153,40.711216],[-74.131189,40.711244],[-74.131153,40.711244],[-74.131153,40.711216]]],[[[-74.133993,40.712982],[-74.131976,40.712454],[-74.132341,40.711687],[-74.134286,40.71216],[-74.133993,40.712982]]],[[[-74.133701,40.713585],[-74.133339,40.713831],[-74.13161,40.713359],[-74.131903,40.712564],[-74.133812,40.713037],[-74.133701,40.713585]]],[[[-74.143767,40.720177],[-74.143047,40.719873],[-74.14233,40.719075],[-74.143733,40.719793],[-74.144274,40.719849],[-74.144672,40.719631],[-74.144635,40.719851],[-74.145355,40.71999],[-74.144561,40.72007],[-74.144416,40.720289],[-74.144201,40.720041],[-74.143767,40.720177]]],[[[-74.131868,40.738504],[-74.131185,40.73809],[-74.131077,40.738035],[-74.130968,40.738062],[-74.130824,40.738007],[-74.130753,40.737924],[-74.130391,40.738033],[-74.129925,40.737427],[-74.129457,40.737343],[-74.129708,40.737564],[-74.129238,40.737645],[-74.129309,40.737974],[-74.128912,40.737946],[-74.128909,40.73844],[-74.128546,40.738823],[-74.12923,40.739127],[-74.128688,40.739235],[-74.128329,40.739042],[-74.128513,40.738246],[-74.128117,40.738135],[-74.127678,40.739287],[-74.127097,40.739889],[-74.127646,40.738463],[-74.127322,40.738325],[-74.127721,40.738024],[-74.127545,40.7372],[-74.126896,40.737088],[-74.126861,40.736868],[-74.125057,40.736835],[-74.124877,40.736807],[-74.124733,40.736615],[-74.124986,40.736588],[-74.125383,40.736672],[-74.126285,40.73662],[-74.12647,40.735797],[-74.126904,40.735688],[-74.127083,40.735854],[-74.126686,40.735825],[-74.126609,40.736703],[-74.128451,40.736572],[-74.128488,40.736352],[-74.129677,40.736576],[-74.128919,40.736683],[-74.129099,40.736793],[-74.129062,40.736848],[-74.129098,40.736876],[-74.129207,40.736849],[-74.130071,40.737208],[-74.130609,40.737731],[-74.130753,40.737814],[-74.130898,40.737787],[-74.131005,40.737952],[-74.13115,40.737925],[-74.131581,40.738201],[-74.131545,40.738283],[-74.133131,40.73859],[-74.133349,40.738207],[-74.1336,40.738537],[-74.134249,40.738676],[-74.134067,40.739033],[-74.133454,40.738976],[-74.132829,40.740923],[-74.133479,40.74087],[-74.133517,40.74065],[-74.133913,40.740762],[-74.134023,40.74046],[-74.134564,40.740544],[-74.134815,40.740874],[-74.138824,40.740255],[-74.140597,40.739437],[-74.142265,40.737988],[-74.144736,40.734619],[-74.146546,40.733582],[-74.148281,40.733038],[-74.149401,40.732877],[-74.152286,40.73316],[-74.155426,40.733032],[-74.157158,40.733174],[-74.1595,40.733895],[-74.159934,40.733567],[-74.160148,40.734144],[-74.162018,40.73544],[-74.161401,40.735822],[-74.160184,40.73481],[-74.158448,40.734014],[-74.15732,40.733745],[-74.155351,40.733699],[-74.155354,40.733087],[-74.155101,40.733113],[-74.15517,40.733696],[-74.14854,40.733908],[-74.147363,40.734175],[-74.145864,40.735025],[-74.142001,40.73941],[-74.139754,40.740681],[-74.135339,40.741671],[-74.128166,40.742211],[-74.123114,40.742143],[-74.123629,40.740481],[-74.124171,40.740373],[-74.124281,40.740072],[-74.124787,40.739854],[-74.12511,40.740267],[-74.124749,40.740265],[-74.12442,40.740978],[-74.124924,40.741117],[-74.126042,40.741313],[-74.126584,40.74115],[-74.127702,40.7414],[-74.128462,40.741073],[-74.130626,40.741163],[-74.131061,40.740862],[-74.131277,40.741028],[-74.131457,40.741028],[-74.131206,40.740835],[-74.13139,40.740232],[-74.132363,40.740345],[-74.13204,40.740152],[-74.132113,40.739905],[-74.131573,40.739738],[-74.131974,40.738999],[-74.131868,40.738504]],[[-74.130969,40.738035],[-74.131005,40.738007],[-74.130969,40.738007],[-74.130969,40.738035]],[[-74.124805,40.736697],[-74.124841,40.73667],[-74.124805,40.73667],[-74.124805,40.736697]],[[-74.124769,40.736615],[-74.124805,40.736642],[-74.124805,40.736615],[-74.124769,40.736615]],[[-74.129027,40.736793],[-74.12899,40.73682],[-74.129027,40.736821],[-74.129027,40.736793]],[[-74.129279,40.736931],[-74.129242,40.736958],[-74.129278,40.736959],[-74.129279,40.736931]],[[-74.130933,40.73787],[-74.130897,40.737897],[-74.130933,40.737897],[-74.130933,40.73787]],[[-74.131185,40.738008],[-74.131149,40.738035],[-74.131185,40.738035],[-74.131185,40.738008]],[[-74.131329,40.738091],[-74.131293,40.738118],[-74.131329,40.738118],[-74.131329,40.738091]],[[-74.131473,40.738173],[-74.131437,40.738201],[-74.131473,40.738201],[-74.131473,40.738173]],[[-74.131653,40.738311],[-74.131689,40.738339],[-74.131689,40.738311],[-74.131653,40.738311]],[[-74.131566,40.741029],[-74.131529,40.741056],[-74.131565,40.741083],[-74.131566,40.741029]],[[-74.132048,40.738642],[-74.132084,40.738669],[-74.132084,40.738642],[-74.132048,40.738642]],[[-74.132084,40.738669],[-74.13212,40.738697],[-74.13212,40.73867],[-74.132084,40.738669]],[[-74.13212,40.738697],[-74.132156,40.738725],[-74.132156,40.738697],[-74.13212,40.738697]]],[[[-74.130754,40.737759],[-74.13079,40.737787],[-74.130753,40.737787],[-74.130754,40.737759]]],[[[-74.131005,40.737897],[-74.131041,40.737925],[-74.131005,40.737925],[-74.131005,40.737897]]],[[[-74.131077,40.738062],[-74.13104,40.73809],[-74.131041,40.738062],[-74.131077,40.738062]]],[[[-74.131113,40.73809],[-74.131076,40.738117],[-74.131077,40.73809],[-74.131113,40.73809]]],[[[-74.131185,40.738118],[-74.131148,40.738145],[-74.131149,40.738117],[-74.131185,40.738118]]],[[[-74.131221,40.738145],[-74.131184,40.738173],[-74.131184,40.738145],[-74.131221,40.738145]]],[[[-74.131257,40.738173],[-74.13122,40.7382],[-74.13122,40.738173],[-74.131257,40.738173]]],[[[-74.131364,40.738228],[-74.131328,40.738255],[-74.131328,40.738228],[-74.131364,40.738228]]],[[[-74.131617,40.738284],[-74.131653,40.738256],[-74.131653,40.738284],[-74.131617,40.738284]]],[[[-74.1314,40.738256],[-74.131364,40.738283],[-74.131364,40.738255],[-74.1314,40.738256]]],[[[-74.131436,40.738283],[-74.1314,40.73831],[-74.1314,40.738283],[-74.131436,40.738283]]],[[[-74.131508,40.738311],[-74.131472,40.738338],[-74.131472,40.738311],[-74.131508,40.738311]]],[[[-74.131616,40.738393],[-74.13158,40.738421],[-74.13158,40.738393],[-74.131616,40.738393]]],[[[-74.149994,40.778034],[-74.150575,40.777377],[-74.150392,40.77798],[-74.149994,40.778034]]],[[[-74.150145,40.776799],[-74.150577,40.77713],[-74.149014,40.778964],[-74.148829,40.779752],[-74.148329,40.779601],[-74.148503,40.77874],[-74.149041,40.777987],[-74.150145,40.776799]]],[[[-74.149047,40.779595],[-74.149046,40.779815],[-74.148974,40.779798],[-74.149047,40.779595]]],[[[-74.149191,40.779706],[-74.150742,40.780095],[-74.150813,40.780205],[-74.14931,40.779905],[-74.149191,40.779706]]],[[[-74.117428,40.695143],[-74.124629,40.697333],[-74.128912,40.698939],[-74.126463,40.6983],[-74.126204,40.699452],[-74.127176,40.699839],[-74.125699,40.699532],[-74.125481,40.699751],[-74.124616,40.699694],[-74.124181,40.700104],[-74.122993,40.699716],[-74.122809,40.700347],[-74.12252,40.700483],[-74.116045,40.697305],[-74.117428,40.695143]]],[[[-74.131553,40.710559],[-74.131407,40.710915],[-74.130788,40.711984],[-74.130426,40.71212],[-74.130609,40.711709],[-74.129599,40.711733],[-74.129349,40.711293],[-74.128629,40.711044],[-74.130686,40.710748],[-74.13094,40.710475],[-74.127984,40.710218],[-74.128165,40.710054],[-74.130581,40.710171],[-74.131556,40.709982],[-74.1317,40.710175],[-74.13159,40.710422],[-74.131625,40.710532],[-74.131553,40.710504],[-74.131553,40.710559]],[[-74.131409,40.710558],[-74.131373,40.710586],[-74.131409,40.710586],[-74.131409,40.710558]],[[-74.131407,40.710833],[-74.131371,40.710805],[-74.131371,40.710833],[-74.131407,40.710833]],[[-74.131371,40.710915],[-74.131335,40.710888],[-74.131335,40.710915],[-74.131371,40.710915]],[[-74.131334,40.71097],[-74.131299,40.710942],[-74.131298,40.71097],[-74.131334,40.71097]],[[-74.131298,40.711025],[-74.131262,40.710997],[-74.131262,40.711025],[-74.131298,40.711025]],[[-74.131116,40.711326],[-74.13108,40.711298],[-74.13108,40.711326],[-74.131116,40.711326]],[[-74.13108,40.711381],[-74.131044,40.711353],[-74.131044,40.711381],[-74.13108,40.711381]],[[-74.131043,40.711436],[-74.131007,40.711408],[-74.131007,40.711435],[-74.131043,40.711436]],[[-74.131007,40.711518],[-74.130971,40.71149],[-74.130971,40.711518],[-74.131007,40.711518]],[[-74.13097,40.711573],[-74.130934,40.711545],[-74.130934,40.711573],[-74.13097,40.711573]],[[-74.13094,40.710475],[-74.130977,40.710447],[-74.130941,40.710447],[-74.13094,40.710475]]],[[[-74.130534,40.712285],[-74.130497,40.712312],[-74.130498,40.712285],[-74.130534,40.712285]]],[[[-74.130388,40.712504],[-74.130424,40.712477],[-74.130424,40.712504],[-74.130388,40.712504]]],[[[-74.130461,40.712285],[-74.130352,40.712477],[-74.130351,40.712696],[-74.130567,40.712779],[-74.130457,40.713136],[-74.130708,40.713411],[-74.130059,40.713217],[-74.129587,40.713819],[-74.129623,40.713929],[-74.129514,40.713956],[-74.129513,40.714121],[-74.129296,40.714257],[-74.129879,40.713216],[-74.128074,40.713375],[-74.127678,40.713237],[-74.127173,40.713235],[-74.127605,40.713401],[-74.12728,40.713537],[-74.126415,40.713315],[-74.126921,40.713179],[-74.126923,40.71285],[-74.129448,40.712913],[-74.130063,40.71264],[-74.130354,40.712147],[-74.13057,40.71223],[-74.130461,40.712285]],[[-74.130352,40.712586],[-74.130316,40.712559],[-74.130315,40.712586],[-74.130352,40.712586]],[[-74.129514,40.714066],[-74.129478,40.714038],[-74.129478,40.714066],[-74.129514,40.714066]]],[[[-74.12955,40.713956],[-74.129586,40.713984],[-74.12955,40.713984],[-74.12955,40.713956]]],[[[-74.129187,40.714394],[-74.129151,40.714422],[-74.129151,40.714394],[-74.129187,40.714394]]],[[[-74.129151,40.714477],[-74.129115,40.714449],[-74.129151,40.714449],[-74.129151,40.714477]]],[[[-74.126857,40.718202],[-74.127001,40.718313],[-74.126783,40.718449],[-74.126674,40.718668],[-74.126709,40.718778],[-74.126565,40.71886],[-74.1266,40.71897],[-74.126419,40.719107],[-74.126454,40.719217],[-74.126382,40.719326],[-74.12631,40.719299],[-74.126345,40.719409],[-74.126126,40.71982],[-74.125946,40.719901],[-74.1258,40.720093],[-74.125434,40.721053],[-74.125036,40.721243],[-74.124708,40.721819],[-74.124278,40.721296],[-74.124891,40.72138],[-74.124568,40.72105],[-74.125073,40.721024],[-74.125365,40.720476],[-74.123456,40.719838],[-74.123236,40.720524],[-74.122729,40.720824],[-74.122288,40.722278],[-74.122936,40.722637],[-74.123153,40.722473],[-74.124306,40.722778],[-74.124303,40.723272],[-74.124555,40.723301],[-74.124339,40.7233],[-74.123681,40.724862],[-74.123175,40.724943],[-74.122924,40.724613],[-74.121591,40.724416],[-74.121368,40.725541],[-74.122701,40.725875],[-74.122844,40.726122],[-74.122447,40.726066],[-74.121795,40.726476],[-74.121291,40.726392],[-74.121468,40.726914],[-74.120854,40.726967],[-74.121031,40.727709],[-74.120525,40.727872],[-74.120522,40.728256],[-74.121673,40.728891],[-74.121379,40.729878],[-74.121923,40.729441],[-74.121775,40.729989],[-74.122388,40.730184],[-74.122498,40.7298],[-74.123328,40.729912],[-74.123511,40.729446],[-74.12434,40.729586],[-74.124154,40.730519],[-74.123429,40.731203],[-74.123792,40.730765],[-74.121989,40.730457],[-74.121883,40.730127],[-74.121195,40.730482],[-74.120909,40.730124],[-74.120726,40.730535],[-74.120256,40.730698],[-74.119824,40.73045],[-74.120223,40.730149],[-74.119826,40.73012],[-74.119391,40.730531],[-74.119279,40.731189],[-74.119495,40.731272],[-74.119605,40.730998],[-74.120508,40.730754],[-74.12032,40.732071],[-74.119706,40.732206],[-74.119458,40.731409],[-74.119205,40.731408],[-74.118982,40.732561],[-74.117937,40.732337],[-74.119044,40.727782],[-74.120642,40.722955],[-74.120962,40.720012],[-74.120551,40.717436],[-74.116105,40.709156],[-74.114309,40.704609],[-74.114097,40.702284],[-74.114315,40.700569],[-74.116009,40.69736],[-74.122519,40.700538],[-74.122481,40.70084],[-74.128271,40.703905],[-74.132473,40.70724],[-74.128091,40.703932],[-74.122696,40.70117],[-74.122802,40.701637],[-74.122436,40.702514],[-74.121674,40.703253],[-74.124589,40.70447],[-74.121709,40.703445],[-74.121418,40.703856],[-74.121057,40.703937],[-74.120729,40.704649],[-74.120791,40.706434],[-74.122325,40.709321],[-74.122143,40.709623],[-74.122677,40.710887],[-74.12311,40.710943],[-74.122896,40.710531],[-74.123545,40.710588],[-74.124122,40.710507],[-74.124268,40.710233],[-74.12452,40.710399],[-74.125098,40.710236],[-74.125853,40.710568],[-74.125779,40.710925],[-74.126643,40.711229],[-74.125272,40.71139],[-74.125058,40.710977],[-74.12329,40.710944],[-74.123541,40.711302],[-74.124442,40.711332],[-74.123396,40.711438],[-74.122856,40.711107],[-74.123062,40.713029],[-74.123349,40.713222],[-74.123166,40.713716],[-74.123403,40.716572],[-74.124339,40.716794],[-74.125098,40.716605],[-74.126898,40.717269],[-74.126536,40.717515],[-74.127221,40.717627],[-74.126857,40.718202]],[[-74.126673,40.718778],[-74.126637,40.718751],[-74.126637,40.718778],[-74.126673,40.718778]],[[-74.126564,40.71897],[-74.126528,40.718942],[-74.126528,40.71897],[-74.126564,40.71897]],[[-74.126528,40.719025],[-74.126492,40.718997],[-74.126492,40.719025],[-74.126528,40.719025]],[[-74.126418,40.719217],[-74.126382,40.719189],[-74.126382,40.719216],[-74.126418,40.719217]],[[-74.126382,40.719271],[-74.126346,40.719244],[-74.126346,40.719271],[-74.126382,40.719271]],[[-74.126309,40.719408],[-74.126273,40.719381],[-74.126273,40.719408],[-74.126309,40.719408]],[[-74.126273,40.719463],[-74.126237,40.719436],[-74.126237,40.719463],[-74.126273,40.719463]],[[-74.126236,40.719518],[-74.1262,40.71949],[-74.1262,40.719518],[-74.126236,40.719518]],[[-74.1262,40.7196],[-74.126164,40.719573],[-74.126164,40.7196],[-74.1262,40.7196]],[[-74.126163,40.719655],[-74.126127,40.719627],[-74.126127,40.719655],[-74.126163,40.719655]],[[-74.125471,40.720806],[-74.125436,40.720778],[-74.125435,40.720806],[-74.125471,40.720806]],[[-74.121627,40.724417],[-74.121663,40.724389],[-74.121627,40.724389],[-74.121627,40.724417]],[[-74.12099,40.728559],[-74.120954,40.728587],[-74.12099,40.728587],[-74.12099,40.728559]],[[-74.119422,40.731354],[-74.119422,40.731354],[-74.119422,40.731409],[-74.119422,40.731354]],[[-74.122696,40.70117],[-74.12266,40.701142],[-74.12266,40.70117],[-74.122696,40.70117]],[[-74.123159,40.710971],[-74.123146,40.710971],[-74.123146,40.710971],[-74.123159,40.710971]]],[[[-74.127186,40.717462],[-74.127258,40.717517],[-74.127185,40.7176],[-74.127186,40.717462]]],[[[-74.12711,40.718038],[-74.127074,40.718066],[-74.127074,40.718038],[-74.12711,40.718038]]],[[[-74.126856,40.718422],[-74.126892,40.71845],[-74.126856,40.718449],[-74.126856,40.718422]]],[[[-74.126783,40.718532],[-74.126819,40.718559],[-74.126783,40.718559],[-74.126783,40.718532]]],[[[-74.12671,40.718669],[-74.126746,40.718696],[-74.12671,40.718696],[-74.12671,40.718669]]],[[[-74.126601,40.71886],[-74.126637,40.718888],[-74.126601,40.718888],[-74.126601,40.71886]]],[[[-74.126455,40.719107],[-74.126491,40.719134],[-74.126455,40.719134],[-74.126455,40.719107]]],[[[-74.125981,40.719929],[-74.126018,40.719902],[-74.126018,40.719929],[-74.125981,40.719929]]],[[[-74.125945,40.719956],[-74.125981,40.719984],[-74.125945,40.719984],[-74.125945,40.719956]]],[[[-74.125036,40.721326],[-74.125071,40.721381],[-74.125035,40.721381],[-74.125036,40.721326]]],[[[-74.128132,40.722461],[-74.128208,40.721803],[-74.129226,40.720433],[-74.126922,40.719575],[-74.126305,40.720177],[-74.12667,40.7193],[-74.130955,40.720933],[-74.130774,40.721042],[-74.129334,40.720516],[-74.128569,40.721721],[-74.128783,40.722244],[-74.128418,40.722984],[-74.128634,40.723122],[-74.128093,40.722983],[-74.127441,40.72353],[-74.128132,40.722461]]],[[[-74.124999,40.721381],[-74.125035,40.721436],[-74.124999,40.721435],[-74.124999,40.721381]]],[[[-74.124963,40.721463],[-74.124998,40.721518],[-74.124962,40.721518],[-74.124963,40.721463]]],[[[-74.124926,40.721518],[-74.124962,40.721545],[-74.124926,40.721545],[-74.124926,40.721518]]],[[[-74.124591,40.723356],[-74.124555,40.723328],[-74.124591,40.723328],[-74.124591,40.723356]]],[[[-74.124519,40.723355],[-74.124555,40.723383],[-74.124519,40.723383],[-74.124519,40.723355]]],[[[-74.12971,40.724113],[-74.13025,40.724417],[-74.130396,40.724088],[-74.130685,40.724116],[-74.130501,40.724637],[-74.12978,40.724525],[-74.129453,40.724936],[-74.129129,40.72488],[-74.129642,40.723509],[-74.129894,40.72362],[-74.12971,40.724113]],[[-74.129749,40.723619],[-74.129713,40.723647],[-74.129749,40.723647],[-74.129749,40.723619]]],[[[-74.128542,40.726662],[-74.12902,40.725017],[-74.129381,40.725046],[-74.129271,40.72532],[-74.129487,40.72543],[-74.129198,40.725484],[-74.128905,40.726224],[-74.129661,40.726501],[-74.128542,40.726662]]],[[[-74.123429,40.731203],[-74.1227,40.732353],[-74.122086,40.732543],[-74.120791,40.731825],[-74.121044,40.731689],[-74.122449,40.73205],[-74.123175,40.731421],[-74.122705,40.731557],[-74.122164,40.731418],[-74.121805,40.731115],[-74.121084,40.730975],[-74.121194,40.730784],[-74.123429,40.731203]]],[[[-74.125295,40.732965],[-74.126567,40.731323],[-74.127001,40.731159],[-74.126055,40.732666],[-74.12652,40.733381],[-74.125147,40.733651],[-74.125295,40.732965]]],[[[-74.12374,40.733619],[-74.12363,40.733838],[-74.123199,40.733535],[-74.123345,40.733289],[-74.12374,40.733619]],[[-74.123416,40.733481],[-74.123452,40.733508],[-74.123452,40.733481],[-74.123416,40.733481]],[[-74.123452,40.733508],[-74.123488,40.733536],[-74.123488,40.733509],[-74.123452,40.733508]]],[[[-74.118873,40.732697],[-74.118608,40.734975],[-74.117414,40.734916],[-74.117827,40.732502],[-74.118873,40.732697]]],[[[-74.124137,40.733621],[-74.124315,40.733978],[-74.124063,40.733922],[-74.124137,40.733621]]],[[[-74.124857,40.733897],[-74.125002,40.733788],[-74.125182,40.733898],[-74.124857,40.733897]]],[[[-74.124928,40.734145],[-74.124712,40.733897],[-74.125867,40.733956],[-74.125395,40.734393],[-74.125035,40.734282],[-74.125433,40.734174],[-74.125072,40.734145],[-74.125072,40.734173],[-74.124963,40.734172],[-74.124928,40.734145]],[[-74.125251,40.73431],[-74.12536,40.734256],[-74.125288,40.734256],[-74.125251,40.73431]]],[[[-74.125108,40.7342],[-74.125072,40.734173],[-74.125108,40.734173],[-74.125108,40.7342]]],[[[-74.125035,40.734227],[-74.124999,40.7342],[-74.125036,40.7342],[-74.125035,40.734227]]],[[[-74.125973,40.734395],[-74.125828,40.734367],[-74.125829,40.73434],[-74.125973,40.734395]]],[[[-74.125972,40.734532],[-74.126008,40.73456],[-74.125972,40.73456],[-74.125972,40.734532]]],[[[-74.125828,40.73445],[-74.125502,40.734668],[-74.125286,40.734612],[-74.125431,40.734503],[-74.125828,40.73445]]],[[[-74.125972,40.73456],[-74.125935,40.734587],[-74.125936,40.73456],[-74.125972,40.73456]]],[[[-74.125863,40.734587],[-74.125899,40.734642],[-74.125827,40.734642],[-74.125863,40.734587]]],[[[-74.126151,40.734698],[-74.12608,40.734615],[-74.126152,40.734615],[-74.126151,40.734698]]],[[[-74.130148,40.736385],[-74.130111,40.736412],[-74.130112,40.736385],[-74.130148,40.736385]]],[[[-74.130039,40.736439],[-74.130075,40.736412],[-74.130075,40.73644],[-74.130039,40.736439]]],[[[-74.129859,40.736439],[-74.129822,40.736466],[-74.129823,40.736439],[-74.129859,40.736439]]],[[[-74.130003,40.736494],[-74.130039,40.736522],[-74.130003,40.736522],[-74.130003,40.736494]]],[[[-74.129967,40.736439],[-74.130039,40.736467],[-74.130003,40.736494],[-74.129931,40.736494],[-74.12993,40.736521],[-74.129858,40.736521],[-74.129858,40.736549],[-74.129786,40.736548],[-74.129786,40.736576],[-74.129677,40.736576],[-74.129967,40.736439]]],[[[-74.12993,40.736521],[-74.129966,40.736549],[-74.12993,40.736549],[-74.12993,40.736521]]],[[[-74.129678,40.736548],[-74.129642,40.736521],[-74.129678,40.736521],[-74.129678,40.736548]]],[[[-74.124229,40.736448],[-74.124229,40.736503],[-74.124192,40.736558],[-74.124229,40.736448]]],[[[-74.129858,40.736549],[-74.129894,40.736576],[-74.129858,40.736576],[-74.129858,40.736549]]],[[[-74.129786,40.736603],[-74.129822,40.736576],[-74.129822,40.736603],[-74.129786,40.736603]]],[[[-74.123756,40.737051],[-74.123651,40.736556],[-74.123832,40.736392],[-74.12383,40.736749],[-74.123756,40.737051]]],[[[-74.129099,40.736821],[-74.129135,40.736848],[-74.129099,40.736848],[-74.129099,40.736821]]],[[[-74.124696,40.736834],[-74.124514,40.737026],[-74.124153,40.737162],[-74.124409,40.736476],[-74.124696,40.736834]]],[[[-74.13061,40.737677],[-74.130646,40.737704],[-74.13061,40.737704],[-74.13061,40.737677]]],[[[-74.122671,40.737569],[-74.122996,40.73746],[-74.123035,40.736911],[-74.122313,40.736963],[-74.121882,40.736688],[-74.122028,40.736386],[-74.122678,40.736224],[-74.1225,40.735948],[-74.11875,40.73536],[-74.118458,40.735935],[-74.118372,40.738296],[-74.119735,40.739865],[-74.121643,40.740612],[-74.121024,40.741608],[-74.118693,40.740495],[-74.117753,40.739422],[-74.117243,40.737612],[-74.117393,40.735053],[-74.120375,40.735228],[-74.123294,40.735786],[-74.122931,40.736197],[-74.123327,40.736473],[-74.123246,40.737927],[-74.123065,40.737982],[-74.122671,40.737569]],[[-74.123102,40.737844],[-74.123139,40.73779],[-74.123103,40.73779],[-74.123102,40.737844]]],[[[-74.121132,40.741646],[-74.122261,40.7399],[-74.122694,40.739792],[-74.122726,40.740643],[-74.122328,40.740724],[-74.122651,40.741],[-74.122357,40.741987],[-74.121132,40.741646]]]]}}]}