{"type":"FeatureCollection","features":[{"type":"Feature","properties":{"level_ft":11},"geometry":{"type":"MultiPolygon","coordinates":[[[[-74.193271,40.687873],[-74.193235,40.687846],[-74.193271,40.687846],[-74.193271,40.687873]]],[[[-74.199974,40.688797],[-74.199866,40.688741],[-74.200011,40.688714],[-74.199974,40.688797]]],[[[-74.199001,40.688684],[-74.198713,40.688519],[-74.198787,40.688299],[-74.199831,40.688604],[-74.198818,40.68926],[-74.199001,40.688684]]],[[[-74.200116,40.689456],[-74.199973,40.689208],[-74.200227,40.688742],[-74.201487,40.689185],[-74.201197,40.689651],[-74.200116,40.689456]]],[[[-74.196747,40.692769],[-74.196819,40.692741],[-74.196819,40.692769],[-74.196747,40.692769]]],[[[-74.196746,40.692851],[-74.196711,40.692796],[-74.196747,40.692796],[-74.196746,40.692851]]],[[[-74.19653,40.692905],[-74.196567,40.692768],[-74.196675,40.692741],[-74.19653,40.692905]]],[[[-74.196746,40.692878],[-74.196783,40.692851],[-74.196782,40.692878],[-74.196746,40.692878]]],[[[-74.196602,40.692878],[-74.196674,40.692933],[-74.196602,40.692933],[-74.196602,40.692878]]],[[[-74.197467,40.692935],[-74.197431,40.692908],[-74.197468,40.692908],[-74.197467,40.692935]]],[[[-74.196891,40.692851],[-74.196854,40.693016],[-74.196782,40.693016],[-74.196891,40.692851]]],[[[-74.197358,40.6931],[-74.197359,40.693017],[-74.197431,40.692935],[-74.197358,40.6931]]],[[[-74.197177,40.693291],[-74.197322,40.693127],[-74.197177,40.693374],[-74.197177,40.693291]]],[[[-74.197177,40.693374],[-74.197104,40.693511],[-74.197141,40.693373],[-74.197177,40.693374]]],[[[-74.197068,40.693511],[-74.197104,40.693593],[-74.197068,40.693593],[-74.197068,40.693511]]],[[[-74.195625,40.693617],[-74.195589,40.693589],[-74.195625,40.693589],[-74.195625,40.693617]]],[[[-74.196995,40.693703],[-74.197068,40.693593],[-74.196959,40.693757],[-74.196995,40.693703]]],[[[-74.196922,40.69384],[-74.196959,40.693785],[-74.196958,40.69384],[-74.196922,40.69384]]],[[[-74.19685,40.693977],[-74.196922,40.69384],[-74.196886,40.693977],[-74.19685,40.693977]]],[[[-74.195432,40.696389],[-74.195396,40.696416],[-74.195396,40.696388],[-74.195432,40.696389]]],[[[-74.210672,40.700106],[-74.210708,40.700079],[-74.210708,40.700106],[-74.210672,40.700106]]],[[[-74.210057,40.700434],[-74.210021,40.700406],[-74.210057,40.700406],[-74.210057,40.700434]]],[[[-74.20843,40.701363],[-74.208466,40.701391],[-74.20843,40.701391],[-74.20843,40.701363]]],[[[-74.207562,40.701883],[-74.20749,40.701937],[-74.207454,40.701882],[-74.207562,40.701883]]],[[[-74.207454,40.701965],[-74.207418,40.701937],[-74.207454,40.701937],[-74.207454,40.701965]]],[[[-74.207418,40.701964],[-74.207381,40.701992],[-74.207382,40.701964],[-74.207418,40.701964]]],[[[-74.207381,40.701992],[-74.207345,40.702019],[-74.207345,40.701992],[-74.207381,40.701992]]],[[[-74.207345,40.702019],[-74.207309,40.702047],[-74.207309,40.702019],[-74.207345,40.702019]]],[[[-74.189695,40.704746],[-74.189912,40.704499],[-74.189731,40.704828],[-74.189695,40.704746]]],[[[-74.197435,40.708088],[-74.197183,40.708005],[-74.196351,40.708469],[-74.196065,40.707974],[-74.197942,40.707677],[-74.197435,40.708088]],[[-74.197652,40.707896],[-74.197616,40.707868],[-74.197616,40.707896],[-74.197652,40.707896]]],[[[-74.187082,40.708142],[-74.185855,40.708194],[-74.18517,40.70822],[-74.185423,40.708001],[-74.187082,40.708142]]],[[[-74.188416,40.708283],[-74.188452,40.708256],[-74.188452,40.708283],[-74.188416,40.708283]]],[[[-74.188344,40.708256],[-74.18838,40.708283],[-74.188344,40.708283],[-74.188344,40.708256]]],[[[-74.193644,40.708709],[-74.19195,40.708512],[-74.188633,40.708229],[-74.195776,40.708001],[-74.195125,40.708383],[-74.195304,40.708604],[-74.194908,40.70841],[-74.194583,40.708602],[-74.194798,40.708959],[-74.193969,40.70882],[-74.193752,40.708956],[-74.193644,40.708709]]],[[[-74.196959,40.709624],[-74.197176,40.709569],[-74.196995,40.709569],[-74.196562,40.709732],[-74.196131,40.709347],[-74.197579,40.708143],[-74.198012,40.708117],[-74.20011,40.706914],[-74.19848,40.708365],[-74.198261,40.708886],[-74.198475,40.709326],[-74.198185,40.709819],[-74.197788,40.709845],[-74.197714,40.710092],[-74.197029,40.710118],[-74.196959,40.709624]]],[[[-74.1856,40.70877],[-74.185672,40.708742],[-74.185672,40.70877],[-74.1856,40.70877]]],[[[-74.185564,40.708797],[-74.185492,40.708769],[-74.185564,40.70877],[-74.185564,40.708797]]],[[[-74.184301,40.708849],[-74.184484,40.708382],[-74.188272,40.708255],[-74.182243,40.709337],[-74.182317,40.708871],[-74.183076,40.708543],[-74.183653,40.70849],[-74.18387,40.708518],[-74.184301,40.708849]],[[-74.183725,40.708518],[-74.183689,40.708545],[-74.183725,40.708545],[-74.183725,40.708518]]],[[[-74.185492,40.708797],[-74.18448,40.709124],[-74.184083,40.70915],[-74.184192,40.709068],[-74.185492,40.708797]]],[[[-74.183975,40.709122],[-74.184047,40.709177],[-74.183975,40.709177],[-74.183975,40.709122]]],[[[-74.183939,40.709177],[-74.183685,40.709341],[-74.183469,40.709368],[-74.183939,40.709177]]],[[[-74.183864,40.709753],[-74.183972,40.709671],[-74.184081,40.709671],[-74.183864,40.709753]]],[[[-74.184296,40.709809],[-74.18426,40.709837],[-74.18426,40.709809],[-74.184296,40.709809]]],[[[-74.184549,40.709837],[-74.18444,40.709919],[-74.18444,40.709865],[-74.184549,40.709837]]],[[[-74.18426,40.709837],[-74.183681,40.710329],[-74.183462,40.710878],[-74.183065,40.710876],[-74.182743,40.710354],[-74.18426,40.709837]]],[[[-74.185148,40.712776],[-74.184282,40.712884],[-74.183638,40.711729],[-74.183532,40.711317],[-74.183533,40.710988],[-74.184042,40.710111],[-74.184296,40.709919],[-74.184512,40.710002],[-74.184549,40.709892],[-74.184801,40.70992],[-74.184585,40.70981],[-74.185236,40.70951],[-74.187511,40.708967],[-74.190037,40.708837],[-74.191407,40.709005],[-74.193423,40.709697],[-74.192988,40.710162],[-74.192447,40.710216],[-74.192446,40.710463],[-74.191833,40.710488],[-74.191614,40.710927],[-74.191218,40.710844],[-74.191072,40.711228],[-74.185148,40.712776]],[[-74.183568,40.71129],[-74.183676,40.711345],[-74.183712,40.71129],[-74.183568,40.71129]],[[-74.183712,40.711317],[-74.183748,40.711345],[-74.183748,40.711318],[-74.183712,40.711317]],[[-74.184693,40.70992],[-74.184657,40.709947],[-74.184693,40.709948],[-74.184693,40.70992]],[[-74.185582,40.71264],[-74.185618,40.712613],[-74.185582,40.712613],[-74.185582,40.71264]],[[-74.185582,40.712613],[-74.185546,40.712558],[-74.185546,40.712613],[-74.185582,40.712613]]],[[[-74.192805,40.710903],[-74.192841,40.710958],[-74.192768,40.710958],[-74.192805,40.710903]]],[[[-74.183387,40.711344],[-74.183244,40.711097],[-74.183425,40.710987],[-74.183387,40.711344]]],[[[-74.191683,40.711586],[-74.191719,40.711614],[-74.191683,40.711613],[-74.191683,40.711586]]],[[[-74.191611,40.711613],[-74.191647,40.711641],[-74.191611,40.711641],[-74.191611,40.711613]]],[[[-74.184031,40.712636],[-74.183135,40.711398],[-74.183135,40.711261],[-74.183816,40.712196],[-74.184031,40.712636]]],[[[-74.18403,40.712663],[-74.184066,40.712691],[-74.18403,40.712691],[-74.18403,40.712663]]],[[[-74.184066,40.712746],[-74.184102,40.712718],[-74.184102,40.712746],[-74.184066,40.712746]]],[[[-74.185798,40.712778],[-74.186628,40.712643],[-74.185324,40.71371],[-74.184924,40.71434],[-74.184635,40.714422],[-74.184425,40.713159],[-74.185798,40.712778]],[[-74.185107,40.713956],[-74.185035,40.713929],[-74.185034,40.713956],[-74.185107,40.713956]],[[-74.184853,40.714285],[-74.184889,40.71423],[-74.184781,40.71423],[-74.184853,40.714285]],[[-74.184781,40.71423],[-74.184709,40.714202],[-74.184708,40.71423],[-74.184781,40.71423]],[[-74.184637,40.714147],[-74.184781,40.714175],[-74.184781,40.71412],[-74.184637,40.714147]],[[-74.184782,40.714038],[-74.184817,40.714065],[-74.18489,40.713956],[-74.184782,40.714038]],[[-74.185364,40.712969],[-74.185292,40.712941],[-74.185291,40.713024],[-74.185364,40.712969]],[[-74.185291,40.713024],[-74.185255,40.713051],[-74.185291,40.713051],[-74.185291,40.713024]],[[-74.185255,40.713051],[-74.185219,40.713106],[-74.185255,40.713106],[-74.185255,40.713051]]],[[[-74.183846,40.713514],[-74.18381,40.713486],[-74.183846,40.713486],[-74.183846,40.713514]]],[[[-74.184816,40.714395],[-74.184852,40.714422],[-74.184816,40.714422],[-74.184816,40.714395]]],[[[-74.18478,40.71445],[-74.184816,40.714477],[-74.184779,40.714477],[-74.18478,40.71445]]],[[[-74.184743,40.714587],[-74.184707,40.714559],[-74.184743,40.714559],[-74.184743,40.714587]]],[[[-74.184634,40.714696],[-74.18467,40.714724],[-74.184634,40.714724],[-74.184634,40.714696]]],[[[-74.18391,40.715161],[-74.183946,40.715216],[-74.18391,40.715216],[-74.18391,40.715161]]],[[[-74.183874,40.715216],[-74.18391,40.715271],[-74.183874,40.715271],[-74.183874,40.715216]]],[[[-74.183874,40.715271],[-74.183838,40.715298],[-74.183838,40.715271],[-74.183874,40.715271]]],[[[-74.192768,40.710958],[-74.192117,40.711422],[-74.191792,40.711504],[-74.191756,40.711559],[-74.191683,40.711559],[-74.191683,40.711586],[-74.191611,40.711586],[-74.191611,40.711613],[-74.191539,40.711613],[-74.191393,40.711915],[-74.191935,40.711861],[-74.191931,40.712575],[-74.191462,40.712711],[-74.191207,40.713177],[-74.190125,40.713201],[-74.190338,40.713806],[-74.190014,40.713668],[-74.189795,40.714216],[-74.189362,40.714297],[-74.189325,40.714517],[-74.189002,40.714187],[-74.188785,40.714268],[-74.189107,40.714791],[-74.188602,40.714844],[-74.188599,40.715448],[-74.188202,40.71542],[-74.188057,40.715694],[-74.188307,40.716134],[-74.187765,40.716324],[-74.18816,40.716765],[-74.187402,40.716845],[-74.187473,40.71712],[-74.188049,40.717423],[-74.187541,40.717916],[-74.188045,40.718137],[-74.187936,40.718356],[-74.187539,40.7183],[-74.187574,40.71863],[-74.187864,40.718411],[-74.187607,40.719179],[-74.186742,40.719149],[-74.186812,40.719451],[-74.186415,40.719532],[-74.185622,40.719338],[-74.185188,40.719666],[-74.185047,40.719007],[-74.184217,40.718977],[-74.184144,40.719169],[-74.184684,40.7195],[-74.18371,40.719443],[-74.183203,40.719743],[-74.183241,40.719414],[-74.182449,40.71911],[-74.182159,40.719301],[-74.182591,40.719604],[-74.18187,40.719493],[-74.181471,40.719931],[-74.182348,40.717463],[-74.182602,40.717189],[-74.182783,40.717134],[-74.183181,40.716779],[-74.183579,40.716615],[-74.183181,40.716861],[-74.1826,40.717628],[-74.182492,40.717628],[-74.182383,40.717737],[-74.182418,40.717984],[-74.182814,40.718068],[-74.184157,40.716452],[-74.184633,40.714834],[-74.185902,40.713492],[-74.187132,40.712754],[-74.189589,40.711992],[-74.189481,40.711882],[-74.190636,40.711775],[-74.192768,40.710958]],[[-74.1826,40.717573],[-74.182564,40.717545],[-74.182564,40.717573],[-74.1826,40.717573]]],[[[-74.183584,40.715462],[-74.183548,40.715517],[-74.183548,40.715462],[-74.183584,40.715462]]],[[[-74.183512,40.715517],[-74.183548,40.715544],[-74.183512,40.715544],[-74.183512,40.715517]]],[[[-74.183543,40.716587],[-74.183579,40.71656],[-74.183579,40.716588],[-74.183543,40.716587]]],[[[-74.180325,40.687941],[-74.180505,40.68793],[-74.180505,40.687948],[-74.180325,40.687941]]],[[[-74.180212,40.687948],[-74.180253,40.687945],[-74.180253,40.687948],[-74.180212,40.687948]]],[[[-74.18118,40.705162],[-74.181108,40.705189],[-74.181108,40.705161],[-74.18118,40.705162]]],[[[-74.18118,40.705216],[-74.181144,40.705244],[-74.181144,40.705216],[-74.18118,40.705216]]],[[[-74.180964,40.705216],[-74.181072,40.705216],[-74.180963,40.705271],[-74.180964,40.705216]]],[[[-74.180927,40.705243],[-74.180819,40.705325],[-74.180819,40.705243],[-74.180927,40.705243]]],[[[-74.180818,40.705463],[-74.180746,40.705435],[-74.180818,40.705435],[-74.180818,40.705463]]],[[[-74.180746,40.705462],[-74.18071,40.70549],[-74.18071,40.705462],[-74.180746,40.705462]]],[[[-74.180674,40.705517],[-74.180638,40.70549],[-74.180674,40.70549],[-74.180674,40.705517]]],[[[-74.180637,40.705517],[-74.180565,40.705544],[-74.180565,40.705517],[-74.180637,40.705517]]],[[[-74.180565,40.705572],[-74.180601,40.705599],[-74.180565,40.705599],[-74.180565,40.705572]]],[[[-74.181644,40.706288],[-74.181608,40.706261],[-74.181644,40.706261],[-74.181644,40.706288]]],[[[-74.177098,40.70644],[-74.177134,40.706413],[-74.177134,40.706441],[-74.177098,40.70644]]],[[[-74.180921,40.706561],[-74.181029,40.706561],[-74.180921,40.706616],[-74.180921,40.706561]]],[[[-74.180342,40.706861],[-74.180379,40.706834],[-74.180379,40.706861],[-74.180342,40.706861]]],[[[-74.180306,40.706889],[-74.180342,40.706861],[-74.180342,40.706889],[-74.180306,40.706889]]],[[[-74.181175,40.706232],[-74.180633,40.706533],[-74.180598,40.706258],[-74.180126,40.706888],[-74.180305,40.707136],[-74.179291,40.708011],[-74.179475,40.707161],[-74.180199,40.706669],[-74.180345,40.70623],[-74.181285,40.705958],[-74.182078,40.70607],[-74.1815,40.706206],[-74.181065,40.706534],[-74.181175,40.706232]],[[-74.181211,40.706315],[-74.181247,40.706287],[-74.181211,40.706287],[-74.181211,40.706315]],[[-74.181247,40.706287],[-74.181283,40.70626],[-74.181247,40.70626],[-74.181247,40.706287]]],[[[-74.180565,40.705627],[-74.180131,40.7059],[-74.180491,40.706038],[-74.179733,40.706173],[-74.179044,40.706803],[-74.178933,40.707434],[-74.17944,40.707051],[-74.179182,40.708093],[-74.178424,40.708338],[-74.178207,40.708283],[-74.178026,40.708447],[-74.178575,40.706774],[-74.17836,40.706471],[-74.179337,40.70587],[-74.180565,40.705544],[-74.180565,40.705572],[-74.180529,40.705572],[-74.180565,40.705627]],[[-74.180312,40.705708],[-74.180276,40.705681],[-74.180276,40.705708],[-74.180312,40.705708]],[[-74.178568,40.708256],[-74.178532,40.708229],[-74.178532,40.708256],[-74.178568,40.708256]],[[-74.178496,40.708283],[-74.17846,40.708256],[-74.17846,40.708283],[-74.178496,40.708283]],[[-74.178424,40.708311],[-74.178388,40.708283],[-74.178388,40.708311],[-74.178424,40.708311]],[[-74.180493,40.705626],[-74.180457,40.705599],[-74.180457,40.705626],[-74.180493,40.705626]],[[-74.18042,40.705654],[-74.180384,40.705626],[-74.180384,40.705654],[-74.18042,40.705654]]],[[[-74.180305,40.707081],[-74.180342,40.707053],[-74.180341,40.707081],[-74.180305,40.707081]]],[[[-74.182221,40.706235],[-74.184956,40.707642],[-74.185134,40.708219],[-74.184484,40.708245],[-74.18445,40.707943],[-74.183259,40.70805],[-74.183225,40.707473],[-74.18247,40.707087],[-74.181889,40.707799],[-74.181456,40.70788],[-74.182112,40.706537],[-74.181209,40.706671],[-74.181101,40.706589],[-74.181536,40.706288],[-74.181644,40.706316],[-74.18186,40.706234],[-74.182221,40.706235]],[[-74.181859,40.706481],[-74.181895,40.706454],[-74.181859,40.706454],[-74.181859,40.706481]],[[-74.181859,40.706454],[-74.181823,40.706426],[-74.181823,40.706454],[-74.181859,40.706454]],[[-74.18186,40.706426],[-74.181932,40.706399],[-74.18186,40.706399],[-74.18186,40.706426]],[[-74.181932,40.706426],[-74.181968,40.706481],[-74.181968,40.706426],[-74.181932,40.706426]],[[-74.181968,40.706426],[-74.182004,40.706399],[-74.181968,40.706399],[-74.181968,40.706426]],[[-74.182041,40.706262],[-74.181968,40.706289],[-74.182041,40.706289],[-74.182041,40.706262]],[[-74.181968,40.706289],[-74.181932,40.706317],[-74.181968,40.706317],[-74.181968,40.706289]],[[-74.181968,40.706317],[-74.182004,40.706344],[-74.182004,40.706317],[-74.181968,40.706317]],[[-74.182293,40.706318],[-74.182257,40.706372],[-74.182293,40.706372],[-74.182293,40.706318]],[[-74.182257,40.706372],[-74.18222,40.706427],[-74.182256,40.706427],[-74.182257,40.706372]]],[[[-74.180919,40.707027],[-74.179977,40.707793],[-74.179688,40.707875],[-74.180919,40.707027]]],[[[-74.178171,40.708365],[-74.178279,40.708393],[-74.178171,40.708392],[-74.178171,40.708365]]],[[[-74.180406,40.708646],[-74.180045,40.708782],[-74.179793,40.708616],[-74.180406,40.708646]]],[[[-74.179721,40.708644],[-74.179755,40.708918],[-74.179612,40.708671],[-74.179721,40.708644]]],[[[-74.182278,40.709502],[-74.18217,40.709419],[-74.18235,40.70942],[-74.182278,40.709502]]],[[[-74.182278,40.709557],[-74.182313,40.709584],[-74.182277,40.709584],[-74.182278,40.709557]]],[[[-74.181879,40.70994],[-74.180799,40.709415],[-74.1808,40.709333],[-74.181664,40.709555],[-74.181879,40.70994]]],[[[-74.182385,40.709694],[-74.182241,40.709611],[-74.182386,40.709584],[-74.182385,40.709694]]],[[[-74.181953,40.709446],[-74.18224,40.709776],[-74.18224,40.709859],[-74.181953,40.709446]]],[[[-74.182526,40.710436],[-74.182921,40.710849],[-74.182884,40.710903],[-74.182526,40.710436]]],[[[-74.17623,40.714399],[-74.176338,40.714426],[-74.17623,40.714426],[-74.17623,40.714399]]],[[[-74.176158,40.714398],[-74.176194,40.714453],[-74.176157,40.714453],[-74.176158,40.714398]]],[[[-74.176049,40.71448],[-74.176085,40.714453],[-74.176085,40.71448],[-74.176049,40.71448]]],[[[-74.175977,40.714563],[-74.176085,40.714535],[-74.176085,40.714563],[-74.175977,40.714563]]],[[[-74.175182,40.71467],[-74.17529,40.714698],[-74.175182,40.714698],[-74.175182,40.71467]]],[[[-74.174857,40.714724],[-74.175074,40.714697],[-74.175074,40.714725],[-74.174857,40.714724]]],[[[-74.173847,40.714831],[-74.173774,40.714858],[-74.173775,40.714831],[-74.173847,40.714831]]],[[[-74.173522,40.714858],[-74.173594,40.714885],[-74.173522,40.714885],[-74.173522,40.714858]]],[[[-74.173269,40.714884],[-74.173413,40.714912],[-74.173269,40.714912],[-74.173269,40.714884]]],[[[-74.170995,40.71518],[-74.171031,40.715207],[-74.170995,40.715207],[-74.170995,40.71518]]],[[[-74.172401,40.715349],[-74.172437,40.715376],[-74.172401,40.715376],[-74.172401,40.715349]]],[[[-74.182747,40.717107],[-74.182783,40.717079],[-74.182783,40.717107],[-74.182747,40.717107]]],[[[-74.182528,40.717655],[-74.182491,40.717683],[-74.182492,40.717655],[-74.182528,40.717655]]],[[[-74.179471,40.723082],[-74.179295,40.722258],[-74.179257,40.722532],[-74.178498,40.722914],[-74.178536,40.722448],[-74.17832,40.722365],[-74.178354,40.722804],[-74.178103,40.722529],[-74.178034,40.721788],[-74.177382,40.722417],[-74.178065,40.722831],[-74.17738,40.722664],[-74.177163,40.722828],[-74.176804,40.722553],[-74.184016,40.715655],[-74.183688,40.716341],[-74.182421,40.717243],[-74.182131,40.717627],[-74.181399,40.719711],[-74.180966,40.719819],[-74.18111,40.719957],[-74.180533,40.719873],[-74.180602,40.720532],[-74.179951,40.72075],[-74.18031,40.721272],[-74.179804,40.721463],[-74.180164,40.721601],[-74.180418,40.721273],[-74.18067,40.721328],[-74.180451,40.721849],[-74.18063,40.722124],[-74.180342,40.722096],[-74.179471,40.723082]]],[[[-74.174447,40.724852],[-74.174556,40.724743],[-74.174556,40.724852],[-74.174447,40.724852]]],[[[-74.171874,40.72726],[-74.174447,40.72488],[-74.17372,40.725975],[-74.171874,40.72726]]],[[[-74.171656,40.727424],[-74.171584,40.727507],[-74.17162,40.727424],[-74.171656,40.727424]]],[[[-74.169407,40.729943],[-74.170605,40.72841],[-74.170895,40.728218],[-74.170094,40.729561],[-74.169407,40.729943]]],[[[-74.168321,40.730517],[-74.168285,40.730489],[-74.168322,40.730489],[-74.168321,40.730517]]],[[[-74.167195,40.732078],[-74.168139,40.730901],[-74.16861,40.730545],[-74.168535,40.731012],[-74.16752,40.732052],[-74.167195,40.732078]]],[[[-74.167487,40.731338],[-74.167523,40.731365],[-74.167487,40.731365],[-74.167487,40.731338]]],[[[-74.165781,40.733502],[-74.166216,40.733064],[-74.166324,40.733064],[-74.165781,40.733502]]],[[[-74.165272,40.734077],[-74.165019,40.734186],[-74.165491,40.733775],[-74.165525,40.73405],[-74.165416,40.734159],[-74.165272,40.734077]],[[-74.165417,40.734104],[-74.165381,40.734077],[-74.165381,40.734104],[-74.165417,40.734104]]],[[[-74.163827,40.734566],[-74.163863,40.734539],[-74.163863,40.734567],[-74.163827,40.734566]]],[[[-74.167483,40.746655],[-74.167444,40.747396],[-74.165867,40.747392],[-74.165748,40.74525],[-74.166408,40.74517],[-74.166373,40.745005],[-74.165714,40.745085],[-74.162778,40.737845],[-74.161707,40.736207],[-74.163643,40.73517],[-74.163317,40.735498],[-74.163459,40.735828],[-74.163892,40.735912],[-74.164573,40.736765],[-74.164605,40.737588],[-74.164389,40.737642],[-74.164568,40.737918],[-74.164313,40.738219],[-74.164419,40.738713],[-74.164923,40.739071],[-74.165097,40.740335],[-74.164806,40.740691],[-74.165273,40.741159],[-74.166344,40.743495],[-74.1667,40.744567],[-74.166514,40.745527],[-74.166839,40.745665],[-74.167124,40.746297],[-74.167341,40.746161],[-74.167483,40.746655]],[[-74.16716,40.746297],[-74.167232,40.74638],[-74.167232,40.746297],[-74.16716,40.746297]],[[-74.167376,40.746435],[-74.16734,40.746463],[-74.167376,40.746463],[-74.167376,40.746435]],[[-74.167412,40.746545],[-74.167375,40.746572],[-74.167412,40.746573],[-74.167412,40.746545]],[[-74.167447,40.746655],[-74.167411,40.746682],[-74.167447,40.746682],[-74.167447,40.746655]]],[[[-74.166865,40.747504],[-74.166683,40.74797],[-74.165838,40.747886],[-74.165863,40.747474],[-74.166865,40.747504]]],[[[-74.167835,40.748468],[-74.167907,40.748495],[-74.167835,40.748495],[-74.167835,40.748468]]],[[[-74.16786,40.750746],[-74.167824,40.750719],[-74.16786,40.750719],[-74.16786,40.750746]]],[[[-74.167824,40.750801],[-74.16786,40.750829],[-74.167823,40.750828],[-74.167824,40.750801]]],[[[-74.165132,40.754938],[-74.165096,40.754966],[-74.165096,40.754938],[-74.165132,40.754938]]],[[[-74.165168,40.754966],[-74.165132,40.754993],[-74.165132,40.754966],[-74.165168,40.754966]]],[[[-74.164494,40.759685],[-74.164458,40.759713],[-74.164458,40.759685],[-74.164494,40.759685]]],[[[-74.164422,40.759767],[-74.164458,40.75974],[-74.164458,40.759767],[-74.164422,40.759767]]],[[[-74.164349,40.759877],[-74.164385,40.759904],[-74.164349,40.759904],[-74.164349,40.759877]]],[[[-74.164313,40.759932],[-74.164348,40.759959],[-74.164312,40.759959],[-74.164313,40.759932]]],[[[-74.164167,40.760151],[-74.164203,40.760178],[-74.164167,40.760178],[-74.164167,40.760151]]],[[[-74.161493,40.689404],[-74.161421,40.689459],[-74.161421,40.689404],[-74.161493,40.689404]]],[[[-74.16142,40.689541],[-74.161384,40.689568],[-74.161384,40.689541],[-74.16142,40.689541]]],[[[-74.160929,40.708178],[-74.160965,40.708206],[-74.160929,40.708206],[-74.160929,40.708178]]],[[[-74.2106,40.700051],[-74.210094,40.700407],[-74.209985,40.700379],[-74.210021,40.700461],[-74.209876,40.700571],[-74.209768,40.700543],[-74.209804,40.700625],[-74.207671,40.701855],[-74.207454,40.701855],[-74.207419,40.701772],[-74.207057,40.702018],[-74.208215,40.701143],[-74.206594,40.700617],[-74.206339,40.701193],[-74.206553,40.701798],[-74.206226,40.702346],[-74.204923,40.703248],[-74.204382,40.703274],[-74.20406,40.702697],[-74.203304,40.702476],[-74.202582,40.702556],[-74.20236,40.703818],[-74.203514,40.703766],[-74.20315,40.704561],[-74.199027,40.707049],[-74.198414,40.706992],[-74.198812,40.706719],[-74.19874,40.706691],[-74.197439,40.707099],[-74.197077,40.707538],[-74.186397,40.707948],[-74.183914,40.706789],[-74.183699,40.706514],[-74.18381,40.7058],[-74.183629,40.705964],[-74.18345,40.705717],[-74.183089,40.705716],[-74.182726,40.706209],[-74.18161,40.705849],[-74.180744,40.705956],[-74.181069,40.705738],[-74.180637,40.705544],[-74.182227,40.704917],[-74.182156,40.704753],[-74.182155,40.70489],[-74.181288,40.705217],[-74.18118,40.705134],[-74.181795,40.704916],[-74.178869,40.705704],[-74.177856,40.706333],[-74.177568,40.706167],[-74.177858,40.705839],[-74.176919,40.706111],[-74.177388,40.706139],[-74.176773,40.706467],[-74.176445,40.707152],[-74.176954,40.706467],[-74.17735,40.706523],[-74.177339,40.708802],[-74.176077,40.708798],[-74.176544,40.709184],[-74.174705,40.708987],[-74.174847,40.709454],[-74.174594,40.709618],[-74.173874,40.709259],[-74.173512,40.709505],[-74.173726,40.710082],[-74.174592,40.709947],[-74.174627,40.710112],[-74.176936,40.710201],[-74.176971,40.710365],[-74.176284,40.710638],[-74.174589,40.710661],[-74.174371,40.710852],[-74.176464,40.710831],[-74.177548,40.71034],[-74.177435,40.711382],[-74.177757,40.711932],[-74.178549,40.712291],[-74.179415,40.712184],[-74.180213,40.711308],[-74.179452,40.711992],[-74.178478,40.711934],[-74.177832,40.711246],[-74.177837,40.710368],[-74.178415,40.71004],[-74.179461,40.71007],[-74.178957,40.709904],[-74.178814,40.709602],[-74.179431,40.70878],[-74.179647,40.709028],[-74.179464,40.709467],[-74.180004,40.709688],[-74.180583,40.70947],[-74.181231,40.709718],[-74.18177,40.710077],[-74.182487,40.71104],[-74.18216,40.711423],[-74.181765,40.711147],[-74.180716,40.711693],[-74.180567,40.712736],[-74.18082,40.712517],[-74.18165,40.712465],[-74.181941,40.711971],[-74.182591,40.711863],[-74.182809,40.711535],[-74.183704,40.712992],[-74.17836,40.71413],[-74.176014,40.714343],[-74.175904,40.71459],[-74.174749,40.714669],[-74.174424,40.714805],[-74.174063,40.714777],[-74.173739,40.714803],[-74.173738,40.714858],[-74.173342,40.71483],[-74.173197,40.714857],[-74.173233,40.714939],[-74.169984,40.715342],[-74.172257,40.715266],[-74.171787,40.715429],[-74.172149,40.715375],[-74.172401,40.715431],[-74.179007,40.714598],[-74.18269,40.713922],[-74.183773,40.713596],[-74.183702,40.713404],[-74.18381,40.713541],[-74.18399,40.713569],[-74.184026,40.713652],[-74.184164,40.71497],[-74.183983,40.715161],[-74.183911,40.715134],[-74.18391,40.715161],[-74.183874,40.715161],[-74.183874,40.715216],[-74.183838,40.715216],[-74.183802,40.715188],[-74.18362,40.715462],[-74.183585,40.715297],[-74.182133,40.717133],[-74.177712,40.72132],[-74.17764,40.721128],[-74.176811,40.720961],[-74.176954,40.721291],[-74.176304,40.721453],[-74.176952,40.72173],[-74.176375,40.721673],[-74.176336,40.722222],[-74.175974,40.722468],[-74.175361,40.722494],[-74.175146,40.722191],[-74.175001,40.722328],[-74.175324,40.722549],[-74.174747,40.72252],[-74.17471,40.722767],[-74.173917,40.722517],[-74.173844,40.722737],[-74.174311,40.723122],[-74.173843,40.723039],[-74.173769,40.723313],[-74.174993,40.72392],[-74.165386,40.733006],[-74.16401,40.733991],[-74.163866,40.73399],[-74.163648,40.734154],[-74.163648,40.734237],[-74.16354,40.734181],[-74.162561,40.735112],[-74.161438,40.735822],[-74.160184,40.73481],[-74.158448,40.734014],[-74.15732,40.733745],[-74.155351,40.733699],[-74.155354,40.733087],[-74.155101,40.733113],[-74.15517,40.733696],[-74.14854,40.733908],[-74.147363,40.734175],[-74.145864,40.735025],[-74.142001,40.73941],[-74.139754,40.740681],[-74.135339,40.741671],[-74.128166,40.742211],[-74.123114,40.742143],[-74.123886,40.739686],[-74.124154,40.73686],[-74.124591,40.736175],[-74.12499,40.735792],[-74.124914,40.736533],[-74.126213,40.736564],[-74.126325,40.735933],[-74.126761,40.735441],[-74.12759,40.735553],[-74.126727,40.735056],[-74.126257,40.735165],[-74.126435,40.735632],[-74.12611,40.735631],[-74.125571,40.735162],[-74.125645,40.73497],[-74.126804,40.734151],[-74.132993,40.730822],[-74.135347,40.729347],[-74.135924,40.729376],[-74.13639,40.729844],[-74.136286,40.729213],[-74.136538,40.729186],[-74.137291,40.730067],[-74.137978,40.729822],[-74.13841,40.730125],[-74.138154,40.730591],[-74.138834,40.731773],[-74.139157,40.731967],[-74.139555,40.731885],[-74.139842,40.732161],[-74.140383,40.73219],[-74.140529,40.731916],[-74.140816,40.732164],[-74.14125,40.732055],[-74.141393,40.73233],[-74.141718,40.732276],[-74.142041,40.732525],[-74.142111,40.732991],[-74.142437,40.732828],[-74.142759,40.733213],[-74.142976,40.733159],[-74.142834,40.732774],[-74.142943,40.732665],[-74.143948,40.733546],[-74.144203,40.733217],[-74.144598,40.733576],[-74.145247,40.733578],[-74.145465,40.733331],[-74.145716,40.733606],[-74.14521,40.73377],[-74.146039,40.733882],[-74.146763,40.733472],[-74.148895,40.732902],[-74.153333,40.733026],[-74.153408,40.732614],[-74.153841,40.732588],[-74.154097,40.73182],[-74.152836,40.731459],[-74.153415,40.731187],[-74.153236,40.730912],[-74.153418,40.730638],[-74.153093,40.730582],[-74.152658,40.730965],[-74.152593,40.729757],[-74.152012,40.730386],[-74.151836,40.72948],[-74.151548,40.729397],[-74.151731,40.728986],[-74.151441,40.729067],[-74.151334,40.728902],[-74.151296,40.729286],[-74.150683,40.729257],[-74.15021,40.729887],[-74.150285,40.729393],[-74.149995,40.729584],[-74.14812,40.729496],[-74.148084,40.729304],[-74.14841,40.729223],[-74.148267,40.728865],[-74.148015,40.728755],[-74.147941,40.729111],[-74.147652,40.729165],[-74.147401,40.728835],[-74.148053,40.728371],[-74.148737,40.728757],[-74.14838,40.728015],[-74.148525,40.727823],[-74.14903,40.727852],[-74.149065,40.728017],[-74.149248,40.727523],[-74.149682,40.72736],[-74.150691,40.727692],[-74.150544,40.728131],[-74.150938,40.728736],[-74.151336,40.728628],[-74.151229,40.72827],[-74.151626,40.728327],[-74.151808,40.728025],[-74.152492,40.728274],[-74.152889,40.728166],[-74.152928,40.727754],[-74.153359,40.72803],[-74.15372,40.727976],[-74.153544,40.727207],[-74.154085,40.727181],[-74.153907,40.726741],[-74.154196,40.726715],[-74.154161,40.72644],[-74.154521,40.726606],[-74.155063,40.72647],[-74.154488,40.726002],[-74.155572,40.72584],[-74.155285,40.7254],[-74.156259,40.725403],[-74.155613,40.724852],[-74.15684,40.724746],[-74.156157,40.724332],[-74.156988,40.724143],[-74.156124,40.723646],[-74.15656,40.723071],[-74.156056,40.722932],[-74.156348,40.722302],[-74.155374,40.722271],[-74.155808,40.721943],[-74.155774,40.721669],[-74.156352,40.721478],[-74.156064,40.721285],[-74.155558,40.721531],[-74.155921,40.721093],[-74.155777,40.720955],[-74.154044,40.721252],[-74.154443,40.720814],[-74.154695,40.720869],[-74.154481,40.720539],[-74.15412,40.720566],[-74.15401,40.720895],[-74.153648,40.721003],[-74.153864,40.721224],[-74.153106,40.721221],[-74.153213,40.721469],[-74.15379,40.721416],[-74.153428,40.721662],[-74.153499,40.722046],[-74.15303,40.722045],[-74.153211,40.721853],[-74.152455,40.721494],[-74.152021,40.721657],[-74.152092,40.72185],[-74.151732,40.721849],[-74.151731,40.722041],[-74.151443,40.721903],[-74.151081,40.722039],[-74.151517,40.721409],[-74.151338,40.721326],[-74.151012,40.721517],[-74.151191,40.721792],[-74.150686,40.721653],[-74.150144,40.721899],[-74.15054,40.722065],[-74.150287,40.722174],[-74.150392,40.722668],[-74.149238,40.722555],[-74.149059,40.722307],[-74.148517,40.722553],[-74.148298,40.723046],[-74.148657,40.723322],[-74.148223,40.723567],[-74.148437,40.724035],[-74.147933,40.723813],[-74.146774,40.724633],[-74.147315,40.724663],[-74.148436,40.724199],[-74.147132,40.725238],[-74.147202,40.725513],[-74.148142,40.725187],[-74.147888,40.725488],[-74.148211,40.725791],[-74.147957,40.726037],[-74.1481,40.726312],[-74.147666,40.726503],[-74.14788,40.72708],[-74.14691,40.726253],[-74.14644,40.726389],[-74.146546,40.726774],[-74.145862,40.726607],[-74.145536,40.726826],[-74.145822,40.727348],[-74.14539,40.727127],[-74.144991,40.727373],[-74.145708,40.728336],[-74.145276,40.728142],[-74.144662,40.728223],[-74.143689,40.727973],[-74.143616,40.728165],[-74.143401,40.727917],[-74.142896,40.72797],[-74.143976,40.728303],[-74.144011,40.728468],[-74.143723,40.728467],[-74.139292,40.727108],[-74.140448,40.726782],[-74.140993,40.726208],[-74.143924,40.724515],[-74.14443,40.724462],[-74.145878,40.723423],[-74.146131,40.723506],[-74.147109,40.722686],[-74.147469,40.722769],[-74.148338,40.722332],[-74.148339,40.722003],[-74.149244,40.721457],[-74.149569,40.721485],[-74.14964,40.721623],[-74.150255,40.721323],[-74.150474,40.720884],[-74.154563,40.718536],[-74.155502,40.718264],[-74.156293,40.71887],[-74.156295,40.718568],[-74.155756,40.718127],[-74.156585,40.718267],[-74.156839,40.718021],[-74.156514,40.71791],[-74.157815,40.717585],[-74.158969,40.717615],[-74.159403,40.71737],[-74.165613,40.716537],[-74.160487,40.717126],[-74.160163,40.71707],[-74.159007,40.717368],[-74.158177,40.717393],[-74.156953,40.716786],[-74.156704,40.716209],[-74.156744,40.715276],[-74.15718,40.714838],[-74.162948,40.715651],[-74.164319,40.7156],[-74.161219,40.715124],[-74.164392,40.715408],[-74.161327,40.715042],[-74.161508,40.714933],[-74.160968,40.714712],[-74.158228,40.714319],[-74.1583,40.714484],[-74.157687,40.714455],[-74.157796,40.71429],[-74.157327,40.714262],[-74.157911,40.713001],[-74.158162,40.713248],[-74.157947,40.712891],[-74.158384,40.712151],[-74.158961,40.712235],[-74.159504,40.711743],[-74.159868,40.711085],[-74.160663,40.71084],[-74.161709,40.710953],[-74.161062,40.710512],[-74.163296,40.71104],[-74.163189,40.710765],[-74.163658,40.710657],[-74.161604,40.710294],[-74.160846,40.710456],[-74.160306,40.710125],[-74.161102,40.709661],[-74.162944,40.709172],[-74.163269,40.709146],[-74.163957,40.708736],[-74.163379,40.708817],[-74.163452,40.708597],[-74.162371,40.708457],[-74.161901,40.708675],[-74.161972,40.708813],[-74.161358,40.708976],[-74.161648,40.70862],[-74.161542,40.708345],[-74.160388,40.708122],[-74.160749,40.708205],[-74.16046,40.708314],[-74.160856,40.708425],[-74.161033,40.709002],[-74.159622,40.709849],[-74.158974,40.709682],[-74.1589,40.709957],[-74.158251,40.709845],[-74.157164,40.710912],[-74.157452,40.710941],[-74.15745,40.711352],[-74.15524,40.713212],[-74.155025,40.712937],[-74.150667,40.711524],[-74.150018,40.711522],[-74.149875,40.711275],[-74.148507,40.710804],[-74.150173,40.709491],[-74.151436,40.709276],[-74.150318,40.709409],[-74.151223,40.708644],[-74.153389,40.708403],[-74.15404,40.708076],[-74.15397,40.707636],[-74.155376,40.707723],[-74.153794,40.706812],[-74.152323,40.705353],[-74.151565,40.705323],[-74.150912,40.706117],[-74.150156,40.705895],[-74.150842,40.70576],[-74.151567,40.704911],[-74.153187,40.705575],[-74.154268,40.705743],[-74.151173,40.704389],[-74.150994,40.704168],[-74.151032,40.703867],[-74.150595,40.704579],[-74.151423,40.704856],[-74.151314,40.705048],[-74.150698,40.70565],[-74.149724,40.705647],[-74.147312,40.704816],[-74.143929,40.703241],[-74.138997,40.701496],[-74.117574,40.694977],[-74.120322,40.69066],[-74.125251,40.68406],[-74.131955,40.673797],[-74.139139,40.677125],[-74.148986,40.682244],[-74.150435,40.683156],[-74.152657,40.685232],[-74.153849,40.685922],[-74.155324,40.686124],[-74.158342,40.686031],[-74.15967,40.686981],[-74.16063,40.688486],[-74.161494,40.689294],[-74.165051,40.69017],[-74.167635,40.689971],[-74.169273,40.688625],[-74.179711,40.687977],[-74.179422,40.68811],[-74.179529,40.68833],[-74.179206,40.688164],[-74.178735,40.688465],[-74.179277,40.688274],[-74.179312,40.688631],[-74.17996,40.688825],[-74.181081,40.688115],[-74.182236,40.687953],[-74.182956,40.688147],[-74.183567,40.688725],[-74.184251,40.688947],[-74.183714,40.688122],[-74.183102,40.687776],[-74.191687,40.687266],[-74.191031,40.688801],[-74.191391,40.688911],[-74.191827,40.688281],[-74.193232,40.688504],[-74.194172,40.688095],[-74.193706,40.687298],[-74.193273,40.687379],[-74.1932,40.687681],[-74.193199,40.687928],[-74.193631,40.688011],[-74.193558,40.688176],[-74.191684,40.688034],[-74.191904,40.687253],[-74.197278,40.686934],[-74.197024,40.687334],[-74.195617,40.687468],[-74.195365,40.68733],[-74.195003,40.687603],[-74.195833,40.687551],[-74.195832,40.687798],[-74.195001,40.688042],[-74.195752,40.689527],[-74.195101,40.689909],[-74.194914,40.691281],[-74.195239,40.691337],[-74.194623,40.691802],[-74.194983,40.692023],[-74.194404,40.692433],[-74.194475,40.69268],[-74.195446,40.693232],[-74.195444,40.693698],[-74.195733,40.693589],[-74.195624,40.693946],[-74.196385,40.692987],[-74.196529,40.693152],[-74.196746,40.692906],[-74.196782,40.693071],[-74.192925,40.700527],[-74.193358,40.700281],[-74.193506,40.69965],[-74.193722,40.699705],[-74.193542,40.699595],[-74.19536,40.696443],[-74.195612,40.696499],[-74.195432,40.696334],[-74.196705,40.694114],[-74.196886,40.694004],[-74.196594,40.694662],[-74.198047,40.692305],[-74.19866,40.692307],[-74.198915,40.691813],[-74.198628,40.691428],[-74.199892,40.69102],[-74.199353,40.690607],[-74.200291,40.690582],[-74.200833,40.690226],[-74.201086,40.690227],[-74.201084,40.690611],[-74.201698,40.690558],[-74.201442,40.691134],[-74.201154,40.691106],[-74.200975,40.690748],[-74.200686,40.690857],[-74.200829,40.691269],[-74.201513,40.691601],[-74.201112,40.692423],[-74.201581,40.692424],[-74.20118,40.693411],[-74.201612,40.693605],[-74.201501,40.694153],[-74.201212,40.694263],[-74.201173,40.694839],[-74.200813,40.694865],[-74.200846,40.695552],[-74.200521,40.695633],[-74.200303,40.696044],[-74.20005,40.696016],[-74.200446,40.696209],[-74.200409,40.696429],[-74.199577,40.696921],[-74.199575,40.697415],[-74.199107,40.697249],[-74.198745,40.69744],[-74.198744,40.697852],[-74.198419,40.697906],[-74.197947,40.698564],[-74.197623,40.698398],[-74.198024,40.697384],[-74.197413,40.696998],[-74.197163,40.696448],[-74.196694,40.696529],[-74.195974,40.696115],[-74.1959,40.696609],[-74.195684,40.696499],[-74.194593,40.698418],[-74.194699,40.698967],[-74.194266,40.698993],[-74.19314,40.700747],[-74.192956,40.701543],[-74.193713,40.701654],[-74.191729,40.701759],[-74.191874,40.70143],[-74.191802,40.701375],[-74.191584,40.701759],[-74.191079,40.701785],[-74.191987,40.700387],[-74.191628,40.700194],[-74.190322,40.701838],[-74.187616,40.701968],[-74.187615,40.70216],[-74.190104,40.702029],[-74.18985,40.702358],[-74.189957,40.702715],[-74.190462,40.702634],[-74.191042,40.701977],[-74.191403,40.702005],[-74.190023,40.70395],[-74.189586,40.7048],[-74.18973,40.704883],[-74.190202,40.704308],[-74.190526,40.704418],[-74.190271,40.704967],[-74.190778,40.704501],[-74.190523,40.705022],[-74.190668,40.704968],[-74.191686,40.703159],[-74.190887,40.704364],[-74.190707,40.704309],[-74.191398,40.703048],[-74.190635,40.704254],[-74.190239,40.704116],[-74.191148,40.702444],[-74.191547,40.701978],[-74.194073,40.70182],[-74.194432,40.702096],[-74.19483,40.701904],[-74.195225,40.702207],[-74.195732,40.70177],[-74.195875,40.702072],[-74.196561,40.702019],[-74.196559,40.702293],[-74.19569,40.70306],[-74.195725,40.703444],[-74.196049,40.703472],[-74.19612,40.703774],[-74.195362,40.703827],[-74.19536,40.704376],[-74.195033,40.704705],[-74.195429,40.70509],[-74.195211,40.705282],[-74.195643,40.705585],[-74.195788,40.705338],[-74.196221,40.705367],[-74.196544,40.705725],[-74.196582,40.70534],[-74.19781,40.705014],[-74.198428,40.703808],[-74.198681,40.703699],[-74.198788,40.704056],[-74.199186,40.703728],[-74.199406,40.702987],[-74.200383,40.702248],[-74.20042,40.701974],[-74.201468,40.701565],[-74.201291,40.700796],[-74.202374,40.700524],[-74.202884,40.699373],[-74.203678,40.699347],[-74.204474,40.698773],[-74.204942,40.698939],[-74.205596,40.69798],[-74.206138,40.697734],[-74.206966,40.697928],[-74.207364,40.697655],[-74.207291,40.697984],[-74.208193,40.697904],[-74.208949,40.698153],[-74.209775,40.699061],[-74.209341,40.699389],[-74.210493,40.699804],[-74.210564,40.700023],[-74.210925,40.699887],[-74.2106,40.700051]],[[-74.210274,40.70027],[-74.210239,40.700242],[-74.210238,40.70027],[-74.210274,40.70027]],[[-74.210239,40.700242],[-74.210203,40.700215],[-74.210202,40.700242],[-74.210239,40.700242]],[[-74.21013,40.700352],[-74.210094,40.700324],[-74.210094,40.700352],[-74.21013,40.700352]],[[-74.209949,40.700434],[-74.209913,40.700461],[-74.209949,40.700461],[-74.209949,40.700434]],[[-74.207563,40.701828],[-74.207635,40.701773],[-74.207563,40.7018],[-74.207563,40.701828]],[[-74.207455,40.701772],[-74.207527,40.701718],[-74.207455,40.701745],[-74.207455,40.701772]],[[-74.203369,40.703985],[-74.203333,40.704013],[-74.203369,40.704013],[-74.203369,40.703985]],[[-74.19881,40.707021],[-74.198847,40.706993],[-74.198811,40.706993],[-74.19881,40.707021]],[[-74.198486,40.706992],[-74.198522,40.706965],[-74.198486,40.706965],[-74.198486,40.706992]],[[-74.198812,40.706691],[-74.198848,40.706664],[-74.198812,40.706664],[-74.198812,40.706691]],[[-74.198848,40.706664],[-74.198957,40.706609],[-74.198848,40.706636],[-74.198848,40.706664]],[[-74.198957,40.706609],[-74.198993,40.706582],[-74.198957,40.706582],[-74.198957,40.706609]],[[-74.198993,40.706554],[-74.199065,40.706555],[-74.199137,40.7065],[-74.198993,40.706554]],[[-74.199137,40.7065],[-74.199174,40.706473],[-74.199138,40.706473],[-74.199137,40.7065]],[[-74.199174,40.706473],[-74.199282,40.706418],[-74.19921,40.706418],[-74.199174,40.706473]],[[-74.182264,40.704863],[-74.1823,40.704835],[-74.182264,40.704835],[-74.182264,40.704863]],[[-74.1823,40.704835],[-74.182372,40.704808],[-74.1823,40.704808],[-74.1823,40.704835]],[[-74.181252,40.705134],[-74.181288,40.705162],[-74.181289,40.705134],[-74.181252,40.705134]],[[-74.181795,40.704916],[-74.181831,40.704861],[-74.181795,40.704861],[-74.181795,40.704916]],[[-74.176847,40.706193],[-74.176811,40.70622],[-74.176847,40.70622],[-74.176847,40.706193]],[[-74.177208,40.706166],[-74.177172,40.706139],[-74.177172,40.706166],[-74.177208,40.706166]],[[-74.177099,40.706221],[-74.177063,40.706193],[-74.177063,40.706221],[-74.177099,40.706221]],[[-74.180213,40.711308],[-74.180249,40.71128],[-74.180213,40.71128],[-74.180213,40.711308]],[[-74.179236,40.711909],[-74.179272,40.711882],[-74.179236,40.711882],[-74.179236,40.711909]],[[-74.179317,40.710097],[-74.179353,40.710125],[-74.179353,40.710098],[-74.179317,40.710097]],[[-74.18177,40.710132],[-74.181734,40.710159],[-74.18177,40.710159],[-74.18177,40.710132]],[[-74.181805,40.710214],[-74.181733,40.710241],[-74.181805,40.710242],[-74.181805,40.710214]],[[-74.183167,40.712139],[-74.183095,40.712112],[-74.183167,40.712194],[-74.183167,40.712139]],[[-74.183095,40.712112],[-74.183023,40.712084],[-74.183023,40.712112],[-74.183095,40.712112]],[[-74.1741,40.714777],[-74.174208,40.71475],[-74.1741,40.714749],[-74.1741,40.714777]],[[-74.17363,40.71483],[-74.173703,40.714803],[-74.17363,40.714803],[-74.17363,40.71483]],[[-74.170886,40.715317],[-74.170778,40.715344],[-74.170886,40.715344],[-74.170886,40.715317]],[[-74.172256,40.71543],[-74.172184,40.715458],[-74.172256,40.715458],[-74.172256,40.71543]],[[-74.183304,40.713759],[-74.18334,40.713787],[-74.18334,40.713759],[-74.183304,40.713759]],[[-74.183448,40.713705],[-74.183484,40.713732],[-74.183484,40.713705],[-74.183448,40.713705]],[[-74.183657,40.71527],[-74.183694,40.715243],[-74.183657,40.715243],[-74.183657,40.71527]],[[-74.164083,40.733853],[-74.164047,40.733826],[-74.164047,40.733853],[-74.164083,40.733853]],[[-74.16296,40.734701],[-74.162924,40.734674],[-74.162924,40.734701],[-74.16296,40.734701]],[[-74.153487,40.731187],[-74.153451,40.731242],[-74.153487,40.731242],[-74.153487,40.731187]],[[-74.146774,40.724633],[-74.146738,40.724578],[-74.146738,40.724633],[-74.146774,40.724633]],[[-74.149424,40.721512],[-74.149388,40.72154],[-74.149424,40.72154],[-74.149424,40.721512]],[[-74.165613,40.716564],[-74.166407,40.716484],[-74.166552,40.716402],[-74.165722,40.716455],[-74.165613,40.716564]],[[-74.166588,40.716348],[-74.16666,40.71643],[-74.166624,40.716348],[-74.166588,40.716348]],[[-74.160307,40.71707],[-74.160235,40.717015],[-74.160271,40.71707],[-74.160307,40.71707]],[[-74.159115,40.717286],[-74.159079,40.717259],[-74.159079,40.717286],[-74.159115,40.717286]],[[-74.158935,40.717341],[-74.158971,40.717286],[-74.158935,40.717286],[-74.158935,40.717341]],[[-74.158177,40.717366],[-74.158213,40.717339],[-74.158177,40.717339],[-74.158177,40.717366]],[[-74.157179,40.715002],[-74.157251,40.71503],[-74.157251,40.715003],[-74.157179,40.715002]],[[-74.157615,40.714262],[-74.157652,40.714235],[-74.157616,40.714235],[-74.157615,40.714262]],[[-74.157544,40.714098],[-74.15776,40.714181],[-74.157689,40.714071],[-74.157544,40.714098]],[[-74.159868,40.711167],[-74.159904,40.711195],[-74.159904,40.711167],[-74.159868,40.711167]],[[-74.159868,40.711195],[-74.159832,40.711222],[-74.159868,40.711222],[-74.159868,40.711195]],[[-74.161535,40.709553],[-74.161571,40.70958],[-74.161572,40.709553],[-74.161535,40.709553]],[[-74.161571,40.70958],[-74.161643,40.709608],[-74.161644,40.70958],[-74.161571,40.70958]],[[-74.163272,40.708569],[-74.163236,40.708542],[-74.163236,40.708569],[-74.163272,40.708569]],[[-74.1619,40.708813],[-74.161864,40.708785],[-74.161864,40.708812],[-74.1619,40.708813]],[[-74.159948,40.709521],[-74.159877,40.709465],[-74.159876,40.70952],[-74.159948,40.709521]],[[-74.159877,40.709465],[-74.159841,40.709438],[-74.159841,40.709465],[-74.159877,40.709465]],[[-74.159841,40.709465],[-74.159804,40.709493],[-74.15984,40.709493],[-74.159841,40.709465]],[[-74.159804,40.709493],[-74.159768,40.70952],[-74.159804,40.70952],[-74.159804,40.709493]],[[-74.159768,40.70952],[-74.159732,40.709547],[-74.159768,40.709547],[-74.159768,40.70952]],[[-74.159876,40.70952],[-74.15984,40.709548],[-74.159876,40.709548],[-74.159876,40.70952]],[[-74.15984,40.709548],[-74.159804,40.709575],[-74.15984,40.709575],[-74.15984,40.709548]],[[-74.159984,40.70963],[-74.159948,40.709603],[-74.159948,40.70963],[-74.159984,40.70963]],[[-74.159658,40.709794],[-74.159623,40.709767],[-74.159622,40.709794],[-74.159658,40.709794]],[[-74.15955,40.709766],[-74.159587,40.709712],[-74.159479,40.709711],[-74.15955,40.709766]],[[-74.159479,40.709711],[-74.159443,40.709684],[-74.159442,40.709711],[-74.159479,40.709711]],[[-74.157163,40.710995],[-74.157091,40.710967],[-74.157091,40.710994],[-74.157163,40.710995]],[[-74.157091,40.710994],[-74.157055,40.711022],[-74.157091,40.711022],[-74.157091,40.710994]],[[-74.150498,40.7093],[-74.150534,40.709328],[-74.150535,40.7093],[-74.150498,40.7093]],[[-74.151295,40.708644],[-74.151331,40.708671],[-74.151332,40.708644],[-74.151295,40.708644]],[[-74.153281,40.70843],[-74.153317,40.708458],[-74.153317,40.70843],[-74.153281,40.70843]],[[-74.155304,40.707832],[-74.155267,40.707887],[-74.15534,40.707887],[-74.155304,40.707832]],[[-74.15534,40.707887],[-74.155412,40.707915],[-74.155412,40.707887],[-74.15534,40.707887]],[[-74.155412,40.707915],[-74.155484,40.707943],[-74.155484,40.707915],[-74.155412,40.707915]],[[-74.155484,40.707943],[-74.155519,40.70797],[-74.15552,40.707943],[-74.155484,40.707943]],[[-74.155519,40.70797],[-74.155591,40.707998],[-74.155592,40.70797],[-74.155519,40.70797]],[[-74.155591,40.707998],[-74.155627,40.708025],[-74.155628,40.707998],[-74.155591,40.707998]],[[-74.155304,40.70775],[-74.155268,40.707777],[-74.155304,40.707777],[-74.155304,40.70775]],[[-74.15534,40.70775],[-74.155376,40.707778],[-74.155376,40.70775],[-74.15534,40.70775]],[[-74.155376,40.707778],[-74.155448,40.707805],[-74.155448,40.707778],[-74.155376,40.707778]],[[-74.155448,40.707805],[-74.15552,40.707833],[-74.15552,40.707805],[-74.155448,40.707805]],[[-74.155448,40.707833],[-74.155412,40.70786],[-74.155448,40.70786],[-74.155448,40.707833]],[[-74.155305,40.70764],[-74.155269,40.707613],[-74.155269,40.70764],[-74.155305,40.70764]],[[-74.154981,40.70742],[-74.154945,40.707474],[-74.155053,40.707475],[-74.154981,40.70742]],[[-74.155053,40.707475],[-74.155125,40.707502],[-74.155125,40.707475],[-74.155053,40.707475]],[[-74.155125,40.707502],[-74.155233,40.707558],[-74.155233,40.707503],[-74.155125,40.707502]],[[-74.151067,40.704114],[-74.151103,40.704086],[-74.151067,40.704086],[-74.151067,40.704114]],[[-74.151103,40.704086],[-74.151139,40.704032],[-74.151103,40.704032],[-74.151103,40.704086]],[[-74.151139,40.704032],[-74.151176,40.703977],[-74.151139,40.703977],[-74.151139,40.704032]],[[-74.151176,40.703977],[-74.151212,40.703949],[-74.151176,40.703949],[-74.151176,40.703977]],[[-74.150843,40.705486],[-74.150807,40.705458],[-74.150807,40.705485],[-74.150843,40.705486]],[[-74.161458,40.689294],[-74.161385,40.689404],[-74.161421,40.689486],[-74.161529,40.689459],[-74.161458,40.689294]],[[-74.161385,40.689486],[-74.161348,40.689568],[-74.16142,40.689623],[-74.161456,40.689541],[-74.161385,40.689486]],[[-74.161384,40.689623],[-74.161348,40.689651],[-74.161384,40.689651],[-74.161384,40.689623]],[[-74.195661,40.693699],[-74.195625,40.693671],[-74.195625,40.693699],[-74.195661,40.693699]],[[-74.19296,40.700554],[-74.192924,40.700609],[-74.19296,40.700609],[-74.19296,40.700554]],[[-74.19405,40.698993],[-74.194122,40.69902],[-74.194122,40.698993],[-74.19405,40.698993]],[[-74.19514,40.697074],[-74.195212,40.697102],[-74.195213,40.697074],[-74.19514,40.697074]],[[-74.196594,40.694662],[-74.196558,40.69469],[-74.196594,40.69469],[-74.196594,40.694662]],[[-74.199892,40.69102],[-74.199964,40.691048],[-74.199964,40.69102],[-74.199892,40.69102]],[[-74.199964,40.691048],[-74.200072,40.691103],[-74.200072,40.691075],[-74.199964,40.691048]],[[-74.200072,40.691103],[-74.200252,40.691158],[-74.200253,40.691103],[-74.200072,40.691103]],[[-74.201212,40.694263],[-74.201176,40.694235],[-74.201176,40.694262],[-74.201212,40.694263]],[[-74.191839,40.70132],[-74.192056,40.701128],[-74.192093,40.700991],[-74.191839,40.70132]],[[-74.192057,40.700964],[-74.192129,40.700937],[-74.192057,40.700936],[-74.192057,40.700964]],[[-74.19115,40.702087],[-74.191078,40.702059],[-74.191078,40.702114],[-74.19115,40.702087]],[[-74.190493,40.703705],[-74.190529,40.703732],[-74.190529,40.703705],[-74.190493,40.703705]],[[-74.190966,40.702855],[-74.191073,40.703047],[-74.191147,40.702828],[-74.190966,40.702855]]],[[[-74.162045,40.708703],[-74.162117,40.708676],[-74.162117,40.708703],[-74.162045,40.708703]]],[[[-74.162008,40.708758],[-74.162044,40.708785],[-74.162008,40.708785],[-74.162008,40.708758]]],[[[-74.159542,40.711331],[-74.159687,40.711304],[-74.159542,40.711413],[-74.159542,40.711331]]],[[[-74.161364,40.71496],[-74.1614,40.714932],[-74.1614,40.71496],[-74.161364,40.71496]]],[[[-74.159163,40.714953],[-74.159235,40.714981],[-74.159163,40.714981],[-74.159163,40.714953]]],[[[-74.159488,40.715009],[-74.15956,40.715037],[-74.159487,40.715037],[-74.159488,40.715009]]],[[[-74.161219,40.715042],[-74.161183,40.715069],[-74.161183,40.715042],[-74.161219,40.715042]]],[[[-74.159632,40.715065],[-74.159704,40.715037],[-74.159704,40.715065],[-74.159632,40.715065]]],[[[-74.159415,40.715064],[-74.159451,40.715037],[-74.159451,40.715064],[-74.159415,40.715064]]],[[[-74.161183,40.715069],[-74.161147,40.715096],[-74.161147,40.715069],[-74.161183,40.715069]]],[[[-74.15974,40.715065],[-74.159848,40.715093],[-74.15974,40.715092],[-74.15974,40.715065]]],[[[-74.159956,40.715093],[-74.160064,40.715148],[-74.159956,40.71512],[-74.159956,40.715093]]],[[[-74.160136,40.715121],[-74.160172,40.715148],[-74.160136,40.715148],[-74.160136,40.715121]]],[[[-74.160317,40.715176],[-74.160353,40.715149],[-74.160353,40.715176],[-74.160317,40.715176]]],[[[-74.160497,40.715204],[-74.160533,40.715177],[-74.160533,40.715204],[-74.160497,40.715204]]],[[[-74.160389,40.715177],[-74.160461,40.715204],[-74.160389,40.715204],[-74.160389,40.715177]]],[[[-74.160641,40.715232],[-74.160713,40.715232],[-74.160893,40.71526],[-74.160749,40.715287],[-74.160641,40.715232]]],[[[-74.161038,40.715261],[-74.160929,40.715315],[-74.160893,40.71526],[-74.161038,40.715261]]],[[[-74.161073,40.715343],[-74.161218,40.715289],[-74.161218,40.715344],[-74.161073,40.715343]]],[[[-74.161254,40.715316],[-74.161326,40.715371],[-74.161253,40.715371],[-74.161254,40.715316]]],[[[-74.161722,40.7154],[-74.16165,40.715372],[-74.161722,40.715373],[-74.161722,40.7154]]],[[[-74.161975,40.715428],[-74.161831,40.7154],[-74.161975,40.715401],[-74.161975,40.715428]]],[[[-74.162119,40.715429],[-74.162191,40.715456],[-74.162119,40.715456],[-74.162119,40.715429]]],[[[-74.161975,40.715456],[-74.162011,40.715428],[-74.162011,40.715456],[-74.161975,40.715456]]],[[[-74.162119,40.715484],[-74.162444,40.715457],[-74.162443,40.715539],[-74.162371,40.715484],[-74.162119,40.715484]]],[[[-74.162696,40.715513],[-74.16248,40.715485],[-74.162696,40.715485],[-74.162696,40.715513]]],[[[-74.162768,40.71554],[-74.162912,40.715513],[-74.162912,40.715541],[-74.162768,40.71554]]],[[[-74.163201,40.715569],[-74.163129,40.715541],[-74.163201,40.715542],[-74.163201,40.715569]]],[[[-74.162587,40.71554],[-74.162696,40.715568],[-74.162587,40.715567],[-74.162587,40.71554]]],[[[-74.160234,40.717153],[-74.160271,40.717125],[-74.16027,40.717153],[-74.160234,40.717153]]],[[[-74.157815,40.717502],[-74.157888,40.717475],[-74.157887,40.717502],[-74.157815,40.717502]]],[[[-74.163829,40.734045],[-74.163865,40.734072],[-74.163829,40.734072],[-74.163829,40.734045]]],[[[-74.163721,40.734127],[-74.163756,40.734154],[-74.16372,40.734154],[-74.163721,40.734127]]],[[[-74.163684,40.734182],[-74.16372,40.734154],[-74.16372,40.734182],[-74.163684,40.734182]]],[[[-74.163827,40.734566],[-74.16379,40.734594],[-74.16379,40.734566],[-74.163827,40.734566]]],[[[-74.163718,40.734648],[-74.163682,40.734621],[-74.163718,40.734621],[-74.163718,40.734648]]],[[[-74.163464,40.73484],[-74.163501,40.734813],[-74.1635,40.73484],[-74.163464,40.73484]]],[[[-74.163464,40.73484],[-74.163428,40.734867],[-74.163428,40.73484],[-74.163464,40.73484]]],[[[-74.163428,40.734867],[-74.163392,40.734895],[-74.163392,40.734867],[-74.163428,40.734867]]],[[[-74.16332,40.734922],[-74.163356,40.734894],[-74.163356,40.734922],[-74.16332,40.734922]]],[[[-74.16332,40.734922],[-74.163283,40.734949],[-74.163283,40.734922],[-74.16332,40.734922]]],[[[-74.163175,40.735031],[-74.163211,40.735004],[-74.163211,40.735031],[-74.163175,40.735031]]],[[[-74.163138,40.735059],[-74.163102,40.735031],[-74.163139,40.735031],[-74.163138,40.735059]]],[[[-74.163102,40.735058],[-74.163066,40.735086],[-74.163066,40.735058],[-74.163102,40.735058]]],[[[-74.162669,40.735167],[-74.162633,40.735139],[-74.162669,40.73514],[-74.162669,40.735167]]],[[[-74.162669,40.735194],[-74.162705,40.735167],[-74.162705,40.735195],[-74.162669,40.735194]]],[[[-74.162633,40.735167],[-74.162596,40.735194],[-74.162597,40.735167],[-74.162633,40.735167]]],[[[-74.162669,40.735194],[-74.162632,40.735222],[-74.162633,40.735194],[-74.162669,40.735194]]],[[[-74.16274,40.735332],[-74.162776,40.735305],[-74.162776,40.735332],[-74.16274,40.735332]]],[[[-74.162307,40.735331],[-74.162596,40.735222],[-74.16209,40.735522],[-74.162307,40.735331]]],[[[-74.16245,40.735578],[-74.162523,40.735414],[-74.162631,40.735441],[-74.16245,40.735578]]],[[[-74.162017,40.735522],[-74.162053,40.735577],[-74.161981,40.735577],[-74.162017,40.735522]]],[[[-74.161981,40.735577],[-74.161945,40.735604],[-74.161945,40.735577],[-74.161981,40.735577]]],[[[-74.161945,40.735604],[-74.161909,40.735631],[-74.161909,40.735604],[-74.161945,40.735604]]],[[[-74.162197,40.735742],[-74.161871,40.735851],[-74.162414,40.735578],[-74.162197,40.735742]]],[[[-74.161618,40.736042],[-74.161691,40.735905],[-74.161799,40.735933],[-74.161618,40.736042]]],[[[-74.163439,40.761247],[-74.163475,40.761274],[-74.163439,40.761274],[-74.163439,40.761247]]],[[[-74.163403,40.761302],[-74.163439,40.761329],[-74.163403,40.761329],[-74.163403,40.761302]]],[[[-74.168088,40.748359],[-74.168046,40.749539],[-74.168803,40.749925],[-74.168692,40.750309],[-74.168367,40.750363],[-74.168185,40.750747],[-74.167788,40.750664],[-74.167788,40.750773],[-74.167534,40.750992],[-74.167028,40.751046],[-74.166771,40.751923],[-74.16634,40.751565],[-74.16637,40.752773],[-74.166003,40.754062],[-74.165496,40.754308],[-74.165312,40.755021],[-74.164844,40.7548],[-74.165815,40.755489],[-74.165995,40.755517],[-74.166353,40.756232],[-74.165435,40.759194],[-74.16511,40.75922],[-74.164747,40.759686],[-74.164495,40.759466],[-74.16453,40.759685],[-74.164458,40.759658],[-74.164422,40.759685],[-74.164385,40.759795],[-74.164421,40.75985],[-74.164349,40.759822],[-74.164349,40.759877],[-74.164313,40.759877],[-74.164313,40.759932],[-74.164168,40.760041],[-74.164167,40.760151],[-74.164131,40.760206],[-74.164238,40.760343],[-74.164056,40.760727],[-74.16304,40.76174],[-74.160092,40.766343],[-74.159984,40.76637],[-74.159072,40.768234],[-74.159034,40.768563],[-74.158386,40.768259],[-74.158635,40.768864],[-74.157948,40.769136],[-74.158055,40.769356],[-74.156964,40.770808],[-74.156999,40.771],[-74.156927,40.771137],[-74.157072,40.771],[-74.157215,40.771165],[-74.156015,40.772891],[-74.155943,40.772863],[-74.155834,40.772945],[-74.155726,40.77289],[-74.155617,40.773082],[-74.155436,40.773136],[-74.155435,40.773274],[-74.155327,40.773273],[-74.155218,40.773383],[-74.155254,40.773465],[-74.155144,40.773657],[-74.154418,40.774533],[-74.153512,40.775025],[-74.153331,40.775161],[-74.153367,40.775244],[-74.153186,40.775381],[-74.153077,40.775353],[-74.152824,40.775544],[-74.152859,40.775627],[-74.152787,40.775681],[-74.150649,40.777047],[-74.150218,40.776732],[-74.153373,40.773988],[-74.154816,40.772061],[-74.157532,40.766512],[-74.161643,40.762036],[-74.163014,40.760089],[-74.163961,40.75797],[-74.165214,40.751123],[-74.165837,40.751097],[-74.16524,40.750958],[-74.1658,40.748133],[-74.166501,40.748189],[-74.166931,40.748822],[-74.167328,40.748768],[-74.167438,40.748412],[-74.167511,40.748412],[-74.167618,40.748659],[-74.167762,40.74866],[-74.168088,40.748359]],[[-74.167715,40.750773],[-74.167679,40.750746],[-74.167679,40.750773],[-74.167715,40.750773]],[[-74.167716,40.750746],[-74.167752,40.750718],[-74.167716,40.750718],[-74.167716,40.750746]],[[-74.164131,40.760206],[-74.164094,40.76026],[-74.16413,40.760261],[-74.164131,40.760206]],[[-74.161839,40.763575],[-74.161768,40.763465],[-74.161695,40.763602],[-74.161839,40.763575]],[[-74.160202,40.766068],[-74.16013,40.765986],[-74.160021,40.766123],[-74.160202,40.766068]],[[-74.156963,40.771],[-74.156927,40.770972],[-74.156927,40.771],[-74.156963,40.771]],[[-74.156927,40.771137],[-74.15689,40.771192],[-74.156926,40.771192],[-74.156927,40.771137]],[[-74.15689,40.771192],[-74.156854,40.771219],[-74.15689,40.771219],[-74.15689,40.771192]],[[-74.156088,40.772727],[-74.156052,40.772699],[-74.156052,40.772727],[-74.156088,40.772727]],[[-74.156052,40.772781],[-74.156016,40.772754],[-74.156015,40.772781],[-74.156052,40.772781]],[[-74.156015,40.772836],[-74.155979,40.772809],[-74.155979,40.772836],[-74.156015,40.772836]],[[-74.155653,40.772972],[-74.155618,40.772917],[-74.155617,40.772972],[-74.155653,40.772972]],[[-74.155617,40.772972],[-74.155581,40.773],[-74.155617,40.773],[-74.155617,40.772972]],[[-74.155544,40.773082],[-74.155508,40.773054],[-74.155508,40.773082],[-74.155544,40.773082]],[[-74.155545,40.773054],[-74.155581,40.773027],[-74.155545,40.773027],[-74.155545,40.773054]],[[-74.155435,40.773219],[-74.155399,40.773191],[-74.155399,40.773219],[-74.155435,40.773219]],[[-74.155217,40.773465],[-74.155182,40.773438],[-74.155181,40.773465],[-74.155217,40.773465]],[[-74.153295,40.775244],[-74.153259,40.775216],[-74.153258,40.775244],[-74.153295,40.775244]],[[-74.152823,40.775572],[-74.152787,40.775599],[-74.152823,40.775599],[-74.152823,40.775572]],[[-74.167582,40.748577],[-74.167546,40.748632],[-74.167582,40.748632],[-74.167582,40.748577]]],[[[-74.159144,40.768289],[-74.15918,40.768316],[-74.159143,40.768316],[-74.159144,40.768289]]],[[[-74.159071,40.768398],[-74.159107,40.768426],[-74.159071,40.768426],[-74.159071,40.768398]]],[[[-74.15914,40.768975],[-74.158916,40.770347],[-74.158735,40.770429],[-74.158887,40.769112],[-74.15914,40.768975]]],[[[-74.150885,40.704443],[-74.150993,40.704415],[-74.151137,40.704498],[-74.150885,40.704443]]],[[[-74.151137,40.704526],[-74.151173,40.704498],[-74.151173,40.704526],[-74.151137,40.704526]]],[[[-74.150156,40.705868],[-74.150084,40.70584],[-74.150156,40.70584],[-74.150156,40.705868]]],[[[-74.1512,40.7062],[-74.1516,40.705515],[-74.152106,40.705434],[-74.152753,40.705821],[-74.153255,40.706371],[-74.153002,40.706535],[-74.15329,40.706646],[-74.151452,40.706283],[-74.151417,40.706064],[-74.151417,40.706146],[-74.1512,40.7062]],[[-74.151345,40.706146],[-74.151309,40.706118],[-74.151308,40.706146],[-74.151345,40.706146]]],[[[-74.149218,40.705838],[-74.150766,40.706336],[-74.150476,40.70672],[-74.15001,40.706197],[-74.149218,40.705838]]],[[[-74.149684,40.706443],[-74.149648,40.70636],[-74.149684,40.70636],[-74.149684,40.706443]]],[[[-74.151018,40.706584],[-74.150946,40.706419],[-74.151054,40.706447],[-74.151018,40.706584]]],[[[-74.153325,40.706811],[-74.15192,40.706532],[-74.15192,40.706477],[-74.153325,40.706811]]],[[[-74.151774,40.706724],[-74.151846,40.706916],[-74.151737,40.706916],[-74.151774,40.706724]]],[[[-74.15235,40.706945],[-74.152386,40.706973],[-74.15235,40.706972],[-74.15235,40.706945]]],[[[-74.152385,40.707137],[-74.152708,40.707577],[-74.152275,40.707549],[-74.152135,40.706835],[-74.152351,40.706918],[-74.15235,40.706945],[-74.152314,40.706945],[-74.152314,40.707027],[-74.152385,40.707137]]],[[[-74.155016,40.707612],[-74.155052,40.707639],[-74.155016,40.707639],[-74.155016,40.707612]]],[[[-74.155088,40.707639],[-74.155124,40.707667],[-74.155088,40.707667],[-74.155088,40.707639]]],[[[-74.155016,40.707694],[-74.15498,40.707667],[-74.155016,40.707667],[-74.155016,40.707694]]],[[[-74.149565,40.708419],[-74.14953,40.708336],[-74.149602,40.708337],[-74.149565,40.708419]]],[[[-74.150103,40.708997],[-74.150284,40.708915],[-74.150103,40.709079],[-74.150103,40.708997]]],[[[-74.150103,40.709079],[-74.150067,40.709107],[-74.150067,40.709079],[-74.150103,40.709079]]],[[[-74.150067,40.709107],[-74.15003,40.709134],[-74.150031,40.709107],[-74.150067,40.709107]]],[[[-74.149921,40.709298],[-74.149885,40.709271],[-74.149921,40.709271],[-74.149921,40.709298]]],[[[-74.149885,40.709298],[-74.149849,40.709326],[-74.149849,40.709298],[-74.149885,40.709298]]],[[[-74.149849,40.709326],[-74.149813,40.709353],[-74.149813,40.709325],[-74.149849,40.709326]]],[[[-74.149813,40.709353],[-74.149777,40.70938],[-74.149777,40.709353],[-74.149813,40.709353]]],[[[-74.149704,40.709462],[-74.14974,40.709435],[-74.14974,40.709463],[-74.149704,40.709462]]],[[[-74.149704,40.709462],[-74.149668,40.70949],[-74.149668,40.709462],[-74.149704,40.709462]]],[[[-74.149668,40.70949],[-74.149632,40.709517],[-74.149632,40.70949],[-74.149668,40.70949]]],[[[-74.149632,40.709517],[-74.149595,40.709544],[-74.149595,40.709517],[-74.149632,40.709517]]],[[[-74.149595,40.709544],[-74.149559,40.709572],[-74.149559,40.709544],[-74.149595,40.709544]]],[[[-74.157736,40.711902],[-74.158059,40.71215],[-74.157113,40.713767],[-74.155673,40.713214],[-74.157774,40.711463],[-74.157917,40.711656],[-74.157736,40.711902]],[[-74.157556,40.711709],[-74.157592,40.711737],[-74.157592,40.71171],[-74.157556,40.711709]],[[-74.157593,40.711627],[-74.157665,40.711655],[-74.157665,40.711627],[-74.157593,40.711627]],[[-74.157665,40.711655],[-74.157701,40.711682],[-74.157701,40.711655],[-74.157665,40.711655]],[[-74.157845,40.71171],[-74.157809,40.711683],[-74.157809,40.71171],[-74.157845,40.71171]]],[[[-74.155528,40.713296],[-74.155672,40.713296],[-74.155528,40.713323],[-74.155528,40.713296]]],[[[-74.151773,40.713833],[-74.151809,40.713861],[-74.151773,40.713861],[-74.151773,40.713833]]],[[[-74.157651,40.714372],[-74.157687,40.714345],[-74.157687,40.714373],[-74.157651,40.714372]]],[[[-74.156386,40.71478],[-74.156314,40.714753],[-74.156386,40.714753],[-74.156386,40.71478]]],[[[-74.156494,40.714836],[-74.156386,40.714863],[-74.156386,40.71478],[-74.156531,40.714753],[-74.156494,40.714836]],[[-74.156458,40.714836],[-74.156422,40.714808],[-74.156422,40.714835],[-74.156458,40.714836]]],[[[-74.156963,40.714892],[-74.156999,40.714865],[-74.156999,40.714892],[-74.156963,40.714892]]],[[[-74.156927,40.714919],[-74.156962,40.714974],[-74.156926,40.714974],[-74.156927,40.714919]]],[[[-74.1566,40.715303],[-74.156636,40.715248],[-74.156636,40.715303],[-74.1566,40.715303]]],[[[-74.155584,40.716425],[-74.153602,40.716062],[-74.154001,40.715679],[-74.153714,40.715212],[-74.154079,40.714554],[-74.156421,40.714973],[-74.156132,40.715109],[-74.156312,40.715192],[-74.155584,40.716425]]],[[[-74.156308,40.715933],[-74.156341,40.716565],[-74.155908,40.716591],[-74.1566,40.715303],[-74.156525,40.715906],[-74.156308,40.715933]]],[[[-74.15569,40.716837],[-74.156158,40.717113],[-74.156121,40.717305],[-74.155616,40.717194],[-74.15569,40.716837]]],[[[-74.157816,40.717447],[-74.155106,40.718126],[-74.154455,40.718508],[-74.154238,40.718507],[-74.155254,40.71744],[-74.155469,40.717715],[-74.156227,40.71769],[-74.156698,40.717307],[-74.157816,40.717447]],[[-74.154383,40.71848],[-74.154419,40.718453],[-74.154383,40.718453],[-74.154383,40.71848]]],[[[-74.156442,40.717937],[-74.15637,40.717992],[-74.15637,40.717965],[-74.156442,40.717937]]],[[[-74.15212,40.716579],[-74.154214,40.716311],[-74.155402,40.716781],[-74.153806,40.718506],[-74.147727,40.721782],[-74.147692,40.721589],[-74.150085,40.719428],[-74.151685,40.716962],[-74.15212,40.716579]],[[-74.151611,40.717374],[-74.151647,40.717401],[-74.151647,40.717374],[-74.151611,40.717374]],[[-74.152192,40.716634],[-74.152156,40.716662],[-74.152192,40.716662],[-74.152192,40.716634]]],[[[-74.149858,40.721376],[-74.149786,40.721321],[-74.149858,40.721321],[-74.149858,40.721376]]],[[[-74.149208,40.721429],[-74.149209,40.721347],[-74.149245,40.721347],[-74.149208,40.721429]]],[[[-74.155943,40.772891],[-74.155979,40.772918],[-74.155942,40.772918],[-74.155943,40.772891]]],[[[-74.155906,40.772946],[-74.155942,40.772973],[-74.155906,40.772973],[-74.155906,40.772946]]],[[[-74.155508,40.773137],[-74.155472,40.773164],[-74.155472,40.773137],[-74.155508,40.773137]]],[[[-74.155363,40.773301],[-74.155327,40.773328],[-74.155327,40.773301],[-74.155363,40.773301]]],[[[-74.15529,40.773383],[-74.155254,40.77341],[-74.155254,40.773383],[-74.15529,40.773383]]],[[[-74.153548,40.775052],[-74.153512,40.77508],[-74.153512,40.775052],[-74.153548,40.775052]]],[[[-74.153512,40.77508],[-74.153476,40.775107],[-74.153476,40.77508],[-74.153512,40.77508]]],[[[-74.15344,40.775107],[-74.153476,40.775134],[-74.15344,40.775134],[-74.15344,40.775107]]],[[[-74.15344,40.775134],[-74.153403,40.775162],[-74.153403,40.775134],[-74.15344,40.775134]]],[[[-74.153403,40.775162],[-74.153367,40.775189],[-74.153367,40.775162],[-74.153403,40.775162]]],[[[-74.153113,40.77538],[-74.153077,40.775408],[-74.153077,40.77538],[-74.153113,40.77538]]],[[[-74.153077,40.775408],[-74.153041,40.775435],[-74.153041,40.775408],[-74.153077,40.775408]]],[[[-74.153041,40.775435],[-74.153005,40.775462],[-74.153005,40.775435],[-74.153041,40.775435]]],[[[-74.153005,40.775462],[-74.152968,40.77549],[-74.152968,40.775462],[-74.153005,40.775462]]],[[[-74.152932,40.77549],[-74.152968,40.775517],[-74.152932,40.775517],[-74.152932,40.77549]]],[[[-74.152932,40.775517],[-74.152896,40.775544],[-74.152896,40.775517],[-74.152932,40.775517]]],[[[-74.152896,40.775544],[-74.15286,40.775572],[-74.15286,40.775544],[-74.152896,40.775544]]],[[[-74.154563,40.774424],[-74.15329,40.77604],[-74.153648,40.776727],[-74.153356,40.77733],[-74.15357,40.777907],[-74.152884,40.777768],[-74.152125,40.77793],[-74.151868,40.778698],[-74.152047,40.779028],[-74.151721,40.779164],[-74.152152,40.779769],[-74.151717,40.780043],[-74.15341,40.780816],[-74.152329,40.78042],[-74.14919,40.779866],[-74.149812,40.77828],[-74.150612,40.777267],[-74.151763,40.778066],[-74.151731,40.777353],[-74.15083,40.777075],[-74.151482,40.776611],[-74.151842,40.776722],[-74.151988,40.77653],[-74.151626,40.776611],[-74.151627,40.776529],[-74.153438,40.775381],[-74.154563,40.774424]]],[[[-74.150145,40.776799],[-74.150613,40.77713],[-74.149887,40.777841],[-74.149412,40.778828],[-74.149305,40.778553],[-74.148829,40.779752],[-74.148329,40.779601],[-74.148503,40.77874],[-74.149041,40.777987],[-74.150145,40.776799]],[[-74.149778,40.778005],[-74.149742,40.777978],[-74.149741,40.778005],[-74.149778,40.778005]],[[-74.149414,40.778471],[-74.14945,40.778416],[-74.149414,40.778416],[-74.149414,40.778471]]],[[[-74.149046,40.779705],[-74.148974,40.779787],[-74.149083,40.779595],[-74.149046,40.779705]]],[[[-74.15341,40.780836],[-74.154384,40.781066],[-74.154419,40.781204],[-74.15341,40.780836]]],[[[-74.154924,40.781315],[-74.154582,40.781314],[-74.154636,40.781232],[-74.154924,40.781315]]],[[[-74.148714,40.705644],[-74.14875,40.705671],[-74.148714,40.705671],[-74.148714,40.705644]]],[[[-74.148786,40.705671],[-74.148822,40.705699],[-74.148786,40.705699],[-74.148786,40.705671]]],[[[-74.148858,40.705727],[-74.148894,40.705699],[-74.148894,40.705727],[-74.148858,40.705727]]],[[[-74.14893,40.705754],[-74.14893,40.705727],[-74.149002,40.705727],[-74.149002,40.705755],[-74.14893,40.705754]]],[[[-74.149002,40.705782],[-74.149002,40.705755],[-74.149074,40.705755],[-74.149074,40.705782],[-74.149002,40.705782]]],[[[-74.149146,40.70581],[-74.149074,40.705782],[-74.149146,40.705782],[-74.149146,40.70581]]],[[[-74.149218,40.705838],[-74.149146,40.705837],[-74.149146,40.70581],[-74.149218,40.70581],[-74.149218,40.705838]]],[[[-74.140015,40.70666],[-74.13998,40.706605],[-74.14016,40.706633],[-74.14016,40.706661],[-74.140015,40.70666]]],[[[-74.140232,40.706688],[-74.14016,40.706661],[-74.140232,40.706661],[-74.140232,40.706688]]],[[[-74.140232,40.706688],[-74.140412,40.706744],[-74.140267,40.706771],[-74.140232,40.706688]]],[[[-74.140412,40.706771],[-74.140412,40.706744],[-74.140484,40.706744],[-74.140484,40.706771],[-74.140412,40.706771]]],[[[-74.140556,40.706799],[-74.140484,40.706771],[-74.140556,40.706772],[-74.140556,40.706799]]],[[[-74.140339,40.706798],[-74.140376,40.706771],[-74.140375,40.706799],[-74.140339,40.706798]]],[[[-74.140628,40.706854],[-74.140664,40.706827],[-74.140664,40.706854],[-74.140628,40.706854]]],[[[-74.140952,40.706938],[-74.14088,40.70691],[-74.140952,40.70691],[-74.140952,40.706938]]],[[[-74.140988,40.706993],[-74.14106,40.706938],[-74.141132,40.706993],[-74.140988,40.706993]]],[[[-74.141168,40.706993],[-74.141204,40.707021],[-74.141168,40.707021],[-74.141168,40.706993]]],[[[-74.14124,40.707048],[-74.141276,40.707021],[-74.141276,40.707048],[-74.14124,40.707048]]],[[[-74.141636,40.707187],[-74.141672,40.707159],[-74.141672,40.707187],[-74.141636,40.707187]]],[[[-74.141708,40.707187],[-74.14178,40.707215],[-74.141708,40.707214],[-74.141708,40.707187]]],[[[-74.14196,40.70727],[-74.141924,40.707243],[-74.14196,40.707243],[-74.14196,40.70727]]],[[[-74.141455,40.707241],[-74.141491,40.707269],[-74.141455,40.707269],[-74.141455,40.707241]]],[[[-74.14351,40.70744],[-74.143474,40.707467],[-74.143474,40.707439],[-74.14351,40.70744]]],[[[-74.142138,40.707655],[-74.142174,40.707683],[-74.142138,40.707682],[-74.142138,40.707655]]],[[[-74.143002,40.708042],[-74.142966,40.708069],[-74.142966,40.708042],[-74.143002,40.708042]]],[[[-74.143074,40.70807],[-74.143038,40.708097],[-74.143038,40.708069],[-74.143074,40.70807]]],[[[-74.14869,40.710255],[-74.148726,40.710228],[-74.148726,40.710256],[-74.14869,40.710255]]],[[[-74.14869,40.710255],[-74.148654,40.710283],[-74.148654,40.710255],[-74.14869,40.710255]]],[[[-74.148617,40.710283],[-74.148653,40.71031],[-74.148617,40.71031],[-74.148617,40.710283]]],[[[-74.148509,40.710337],[-74.148545,40.710392],[-74.148509,40.710392],[-74.148509,40.710337]]],[[[-74.1484,40.710447],[-74.148436,40.710419],[-74.148436,40.710447],[-74.1484,40.710447]]],[[[-74.1484,40.710447],[-74.148364,40.710474],[-74.148364,40.710447],[-74.1484,40.710447]]],[[[-74.148364,40.710474],[-74.148328,40.710501],[-74.148328,40.710474],[-74.148364,40.710474]]],[[[-74.148328,40.710501],[-74.148292,40.710529],[-74.148292,40.710501],[-74.148328,40.710501]]],[[[-74.139634,40.710557],[-74.13967,40.710584],[-74.139634,40.710584],[-74.139634,40.710557]]],[[[-74.139669,40.710612],[-74.139706,40.710585],[-74.139706,40.710612],[-74.139669,40.710612]]],[[[-74.139706,40.710612],[-74.139741,40.71064],[-74.139705,40.710639],[-74.139706,40.710612]]],[[[-74.139741,40.710694],[-74.139777,40.710667],[-74.139777,40.710695],[-74.139741,40.710694]]],[[[-74.139777,40.710695],[-74.139813,40.710722],[-74.139777,40.710722],[-74.139777,40.710695]]],[[[-74.142395,40.713558],[-74.142287,40.713612],[-74.142287,40.713585],[-74.142395,40.713558]]],[[[-74.137986,40.715136],[-74.13795,40.715108],[-74.137986,40.715108],[-74.137986,40.715136]]],[[[-74.13795,40.715136],[-74.137913,40.715163],[-74.137913,40.715136],[-74.13795,40.715136]]],[[[-74.137913,40.715163],[-74.137659,40.715409],[-74.137551,40.715409],[-74.137913,40.715163]]],[[[-74.151737,40.713888],[-74.153826,40.714498],[-74.153284,40.714661],[-74.15122,40.716275],[-74.151146,40.716631],[-74.151507,40.71644],[-74.151578,40.71677],[-74.148201,40.720877],[-74.147983,40.721069],[-74.147875,40.721041],[-74.147803,40.721096],[-74.147839,40.721178],[-74.147585,40.721424],[-74.147477,40.721396],[-74.147332,40.721451],[-74.14505,40.723228],[-74.141394,40.725331],[-74.140639,40.724862],[-74.140858,40.724423],[-74.139957,40.724256],[-74.139919,40.72464],[-74.13952,40.724913],[-74.139952,40.725106],[-74.139878,40.725463],[-74.138867,40.725652],[-74.138863,40.726283],[-74.138427,40.726886],[-74.136986,40.72647],[-74.136807,40.726222],[-74.135761,40.726136],[-74.135871,40.725807],[-74.135257,40.725943],[-74.135402,40.725861],[-74.135185,40.725833],[-74.135258,40.725751],[-74.1345,40.725831],[-74.135078,40.72564],[-74.134464,40.725775],[-74.134501,40.725583],[-74.133346,40.725635],[-74.1336,40.725361],[-74.133672,40.725471],[-74.134141,40.725445],[-74.134251,40.725171],[-74.133926,40.725142],[-74.133709,40.725224],[-74.133819,40.725005],[-74.134867,40.724761],[-74.135772,40.724133],[-74.135916,40.724161],[-74.136061,40.724024],[-74.13599,40.723914],[-74.136135,40.723749],[-74.138094,40.721752],[-74.138021,40.721834],[-74.138057,40.721944],[-74.137948,40.722053],[-74.137876,40.722026],[-74.137876,40.722053],[-74.13784,40.722053],[-74.13784,40.72208],[-74.137804,40.72208],[-74.137839,40.72219],[-74.137658,40.722244],[-74.136751,40.723257],[-74.13675,40.723367],[-74.136388,40.723723],[-74.136316,40.723695],[-74.136207,40.723777],[-74.136134,40.723997],[-74.136423,40.723888],[-74.138164,40.722081],[-74.13813,40.721807],[-74.138565,40.721341],[-74.13853,40.721177],[-74.138674,40.721232],[-74.138675,40.720985],[-74.139074,40.720629],[-74.13886,40.720299],[-74.139437,40.720246],[-74.139547,40.719862],[-74.138933,40.72008],[-74.13861,40.719832],[-74.139228,40.718846],[-74.139662,40.718765],[-74.139088,40.718131],[-74.138367,40.717964],[-74.138732,40.717142],[-74.137797,40.716645],[-74.137362,40.71711],[-74.137504,40.717468],[-74.137216,40.717412],[-74.136924,40.717905],[-74.136817,40.717795],[-74.138125,40.716097],[-74.139864,40.71473],[-74.141564,40.713884],[-74.140839,40.714486],[-74.142061,40.715286],[-74.142312,40.715616],[-74.142056,40.716219],[-74.142596,40.716413],[-74.144014,40.714359],[-74.142466,40.71375],[-74.14398,40.714002],[-74.144889,40.712769],[-74.146697,40.711841],[-74.14839,40.712341],[-74.150189,40.713279],[-74.151666,40.713778],[-74.151737,40.713888]],[[-74.15111,40.716576],[-74.151074,40.716604],[-74.15111,40.716604],[-74.15111,40.716576]],[[-74.151074,40.716604],[-74.151037,40.716658],[-74.151073,40.716659],[-74.151074,40.716604]],[[-74.147911,40.721041],[-74.147948,40.721014],[-74.147912,40.721014],[-74.147911,40.721041]],[[-74.147766,40.721205],[-74.14773,40.721178],[-74.14773,40.721205],[-74.147766,40.721205]],[[-74.135871,40.725807],[-74.135907,40.72578],[-74.135871,40.72578],[-74.135871,40.725807]],[[-74.135258,40.725778],[-74.13533,40.725806],[-74.13533,40.725778],[-74.135258,40.725778]],[[-74.135078,40.72564],[-74.135151,40.725586],[-74.135115,40.725585],[-74.135078,40.72564]],[[-74.134501,40.725583],[-74.134537,40.725556],[-74.134501,40.725556],[-74.134501,40.725583]],[[-74.135844,40.724188],[-74.135808,40.724215],[-74.135844,40.724215],[-74.135844,40.724188]],[[-74.135808,40.724215],[-74.135771,40.724242],[-74.135807,40.724243],[-74.135808,40.724215]],[[-74.135771,40.724242],[-74.135735,40.72427],[-74.135771,40.72427],[-74.135771,40.724242]],[[-74.136062,40.723969],[-74.136098,40.723941],[-74.136062,40.723941],[-74.136062,40.723969]],[[-74.137985,40.721971],[-74.137949,40.721916],[-74.137949,40.721971],[-74.137985,40.721971]],[[-74.136606,40.723449],[-74.13657,40.723421],[-74.136569,40.723449],[-74.136606,40.723449]],[[-74.136497,40.723558],[-74.136461,40.723531],[-74.136461,40.723558],[-74.136497,40.723558]],[[-74.138602,40.721232],[-74.138566,40.721259],[-74.138602,40.721259],[-74.138602,40.721232]],[[-74.150801,40.713528],[-74.150692,40.713583],[-74.150801,40.713611],[-74.150801,40.713528]],[[-74.151557,40.713778],[-74.151485,40.713805],[-74.151557,40.713833],[-74.151557,40.713778]]],[[[-74.147875,40.721068],[-74.147911,40.721096],[-74.147875,40.721096],[-74.147875,40.721068]]],[[[-74.147839,40.721123],[-74.147875,40.721096],[-74.147875,40.721123],[-74.147839,40.721123]]],[[[-74.138675,40.721122],[-74.138639,40.72115],[-74.138639,40.721122],[-74.138675,40.721122]]],[[[-74.149136,40.721429],[-74.149028,40.721456],[-74.149028,40.721429],[-74.149136,40.721429]]],[[[-74.147477,40.721424],[-74.147512,40.721451],[-74.147476,40.721451],[-74.147477,40.721424]]],[[[-74.138457,40.721369],[-74.138421,40.721396],[-74.138421,40.721368],[-74.138457,40.721369]]],[[[-74.14744,40.721451],[-74.147476,40.721479],[-74.14744,40.721479],[-74.14744,40.721451]]],[[[-74.13842,40.721451],[-74.138384,40.721423],[-74.138421,40.721423],[-74.13842,40.721451]]],[[[-74.148847,40.721565],[-74.148811,40.721538],[-74.148847,40.721538],[-74.148847,40.721565]]],[[[-74.148811,40.721565],[-74.148774,40.721593],[-74.148775,40.721565],[-74.148811,40.721565]]],[[[-74.13824,40.721505],[-74.138275,40.721588],[-74.138239,40.721588],[-74.13824,40.721505]]],[[[-74.148666,40.721647],[-74.148702,40.72162],[-74.148702,40.721647],[-74.148666,40.721647]]],[[[-74.14863,40.721647],[-74.148666,40.721675],[-74.14863,40.721675],[-74.14863,40.721647]]],[[[-74.148557,40.721702],[-74.148594,40.721674],[-74.148594,40.721702],[-74.148557,40.721702]]],[[[-74.138239,40.721588],[-74.138167,40.72167],[-74.138167,40.721587],[-74.138239,40.721588]]],[[[-74.148557,40.721702],[-74.148521,40.721729],[-74.148521,40.721702],[-74.148557,40.721702]]],[[[-74.148449,40.721756],[-74.148485,40.721729],[-74.148485,40.721756],[-74.148449,40.721756]]],[[[-74.138167,40.72167],[-74.138094,40.721752],[-74.138095,40.721669],[-74.138167,40.72167]]],[[[-74.138057,40.721889],[-74.138093,40.721862],[-74.138093,40.721889],[-74.138057,40.721889]]],[[[-74.137876,40.722135],[-74.13784,40.72208],[-74.137876,40.72208],[-74.137876,40.722135]]],[[[-74.137766,40.722355],[-74.13773,40.722382],[-74.137694,40.7223],[-74.137766,40.722355]]],[[[-74.147001,40.72263],[-74.147037,40.722658],[-74.147001,40.722658],[-74.147001,40.72263]]],[[[-74.1499,40.706471],[-74.150149,40.707185],[-74.149311,40.708693],[-74.147789,40.709978],[-74.145727,40.711097],[-74.145584,40.710932],[-74.146669,40.710386],[-74.146634,40.710139],[-74.141307,40.707982],[-74.140229,40.707237],[-74.138607,40.706903],[-74.138069,40.706434],[-74.143074,40.708152],[-74.143146,40.70807],[-74.142282,40.707738],[-74.142103,40.707545],[-74.141599,40.707351],[-74.141563,40.707241],[-74.140411,40.706799],[-74.140627,40.706882],[-74.140736,40.706827],[-74.140808,40.706937],[-74.140987,40.70702],[-74.14142,40.707076],[-74.141816,40.707297],[-74.141852,40.707242],[-74.141888,40.707297],[-74.14196,40.70727],[-74.14214,40.707298],[-74.143544,40.707797],[-74.143438,40.707522],[-74.143653,40.707632],[-74.143762,40.707578],[-74.143367,40.707302],[-74.137571,40.705115],[-74.137317,40.705362],[-74.136669,40.705058],[-74.13638,40.705139],[-74.136452,40.705331],[-74.135982,40.705357],[-74.134796,40.704585],[-74.133894,40.70461],[-74.132383,40.704028],[-74.132887,40.704195],[-74.132707,40.704057],[-74.130979,40.703475],[-74.131016,40.703393],[-74.130836,40.70331],[-74.1335,40.704224],[-74.131305,40.703311],[-74.131702,40.703175],[-74.130442,40.702759],[-74.130227,40.702484],[-74.129722,40.70251],[-74.129616,40.70218],[-74.129869,40.701989],[-74.128357,40.701463],[-74.128831,40.700476],[-74.128219,40.700309],[-74.127533,40.700499],[-74.127639,40.700829],[-74.127205,40.701075],[-74.126267,40.701099],[-74.125724,40.701399],[-74.1254,40.701343],[-74.125724,40.701536],[-74.125363,40.70159],[-74.12252,40.700483],[-74.116046,40.697297],[-74.117536,40.695169],[-74.140364,40.702187],[-74.143244,40.703239],[-74.146877,40.705117],[-74.149541,40.706195],[-74.1499,40.706471]],[[-74.143146,40.708152],[-74.143218,40.708207],[-74.143218,40.708152],[-74.143146,40.708152]],[[-74.141599,40.707296],[-74.141635,40.707269],[-74.141599,40.707269],[-74.141599,40.707296]],[[-74.141635,40.707297],[-74.141671,40.707324],[-74.141671,40.707297],[-74.141635,40.707297]],[[-74.141348,40.707103],[-74.141384,40.707131],[-74.141384,40.707104],[-74.141348,40.707103]],[[-74.142032,40.707298],[-74.141996,40.707325],[-74.142032,40.707325],[-74.142032,40.707298]],[[-74.142176,40.707353],[-74.14214,40.70738],[-74.142176,40.707381],[-74.142176,40.707353]],[[-74.143617,40.707714],[-74.143653,40.707742],[-74.143653,40.707715],[-74.143617,40.707714]],[[-74.143653,40.707742],[-74.143689,40.70777],[-74.143689,40.707742],[-74.143653,40.707742]],[[-74.133428,40.704224],[-74.133391,40.704251],[-74.133428,40.704251],[-74.133428,40.704224]],[[-74.13163,40.70323],[-74.131666,40.703257],[-74.131666,40.70323],[-74.13163,40.70323]],[[-74.125833,40.701262],[-74.125798,40.701235],[-74.125797,40.701262],[-74.125833,40.701262]],[[-74.149648,40.706333],[-74.149539,40.706442],[-74.14972,40.706498],[-74.14972,40.706333],[-74.149648,40.706333]]],[[[-74.131414,40.703174],[-74.13145,40.703147],[-74.13145,40.703174],[-74.131414,40.703174]]],[[[-74.131414,40.703174],[-74.131377,40.703202],[-74.131377,40.703174],[-74.131414,40.703174]]],[[[-74.131341,40.703256],[-74.131377,40.703229],[-74.131377,40.703256],[-74.131341,40.703256]]],[[[-74.131663,40.703806],[-74.130834,40.703529],[-74.130799,40.703474],[-74.131771,40.703807],[-74.131663,40.703806]]],[[[-74.131771,40.703834],[-74.131771,40.703807],[-74.131843,40.703807],[-74.131843,40.703834],[-74.131771,40.703834]]],[[[-74.131843,40.703862],[-74.131843,40.703834],[-74.131915,40.703835],[-74.131915,40.703862],[-74.131843,40.703862]]],[[[-74.131915,40.70389],[-74.131915,40.703862],[-74.131987,40.703862],[-74.131987,40.70389],[-74.131915,40.70389]]],[[[-74.132275,40.704028],[-74.132095,40.70389],[-74.132383,40.704028],[-74.132275,40.704028]]],[[[-74.134291,40.704693],[-74.134327,40.704721],[-74.134291,40.704721],[-74.134291,40.704693]]],[[[-74.137661,40.715162],[-74.137552,40.715217],[-74.137806,40.715053],[-74.137661,40.715162]]],[[[-74.137552,40.715217],[-74.137516,40.715244],[-74.137516,40.715217],[-74.137552,40.715217]]],[[[-74.13748,40.715244],[-74.137516,40.715272],[-74.13748,40.715272],[-74.13748,40.715244]]],[[[-74.13748,40.715272],[-74.137444,40.715299],[-74.137444,40.715271],[-74.13748,40.715272]]],[[[-74.137444,40.715299],[-74.137407,40.715326],[-74.137407,40.715299],[-74.137444,40.715299]]],[[[-74.137407,40.715326],[-74.137371,40.715354],[-74.137371,40.715326],[-74.137407,40.715326]]],[[[-74.135669,40.716638],[-74.135633,40.716611],[-74.135669,40.716611],[-74.135669,40.716638]]],[[[-74.135596,40.716638],[-74.135596,40.716693],[-74.13556,40.71672],[-74.135596,40.716638]]],[[[-74.13556,40.71672],[-74.135523,40.716775],[-74.135524,40.71672],[-74.13556,40.71672]]],[[[-74.135812,40.716858],[-74.136245,40.716723],[-74.136064,40.716942],[-74.135812,40.716858]]],[[[-74.136677,40.716971],[-74.136713,40.716944],[-74.136713,40.716971],[-74.136677,40.716971]]],[[[-74.136677,40.716971],[-74.136641,40.716998],[-74.136641,40.716971],[-74.136677,40.716971]]],[[[-74.136641,40.716998],[-74.136604,40.717053],[-74.136605,40.716998],[-74.136641,40.716998]]],[[[-74.136604,40.717053],[-74.136568,40.717108],[-74.136568,40.717053],[-74.136604,40.717053]]],[[[-74.136712,40.717136],[-74.136893,40.716972],[-74.136675,40.717245],[-74.136712,40.717136]]],[[[-74.136568,40.717108],[-74.136532,40.717163],[-74.136532,40.717108],[-74.136568,40.717108]]],[[[-74.134581,40.717513],[-74.134509,40.717595],[-74.134545,40.717513],[-74.134581,40.717513]]],[[[-74.134643,40.719408],[-74.135332,40.718861],[-74.134671,40.720835],[-74.134643,40.719408]]],[[[-74.134173,40.719681],[-74.134465,40.71894],[-74.134491,40.720835],[-74.134347,40.720779],[-74.134173,40.719681]]],[[[-74.137585,40.722409],[-74.137622,40.722382],[-74.137621,40.722409],[-74.137585,40.722409]]],[[[-74.136787,40.723312],[-74.136787,40.723285],[-74.136823,40.723285],[-74.136823,40.723312],[-74.136787,40.723312]]],[[[-74.136859,40.72334],[-74.136823,40.723312],[-74.136859,40.723313],[-74.136859,40.72334]]],[[[-74.136315,40.723723],[-74.136351,40.723778],[-74.136315,40.723777],[-74.136315,40.723723]]],[[[-74.135881,40.724023],[-74.135953,40.724051],[-74.13588,40.724106],[-74.135881,40.724023]]],[[[-74.134106,40.725198],[-74.134215,40.725171],[-74.134215,40.725198],[-74.134106,40.725198]]],[[[-74.133709,40.725224],[-74.133673,40.725251],[-74.133673,40.725224],[-74.133709,40.725224]]],[[[-74.133962,40.725225],[-74.133889,40.72528],[-74.13389,40.725252],[-74.133962,40.725225]]],[[[-74.133781,40.725279],[-74.133853,40.725307],[-74.133781,40.725307],[-74.133781,40.725279]]],[[[-74.133997,40.725335],[-74.134034,40.725307],[-74.134034,40.725335],[-74.133997,40.725335]]],[[[-74.133961,40.725362],[-74.133997,40.725335],[-74.133997,40.725362],[-74.133961,40.725362]]],[[[-74.133817,40.725334],[-74.133781,40.725389],[-74.133781,40.725334],[-74.133817,40.725334]]],[[[-74.133492,40.725361],[-74.133528,40.725388],[-74.133492,40.725388],[-74.133492,40.725361]]],[[[-74.133311,40.725525],[-74.133275,40.725552],[-74.133275,40.725525],[-74.133311,40.725525]]],[[[-74.134321,40.725638],[-74.134393,40.725665],[-74.13432,40.725665],[-74.134321,40.725638]]],[[[-74.131974,40.725795],[-74.132011,40.725768],[-74.13201,40.725795],[-74.131974,40.725795]]],[[[-74.131974,40.725795],[-74.131938,40.725822],[-74.131938,40.725795],[-74.131974,40.725795]]],[[[-74.131938,40.725822],[-74.131902,40.725877],[-74.131902,40.725822],[-74.131938,40.725822]]],[[[-74.131866,40.725877],[-74.131902,40.725905],[-74.131865,40.725904],[-74.131866,40.725877]]],[[[-74.131865,40.725904],[-74.131829,40.725959],[-74.131829,40.725904],[-74.131865,40.725904]]],[[[-74.135147,40.726244],[-74.135039,40.726189],[-74.135147,40.726189],[-74.135147,40.726244]]],[[[-74.13558,40.726301],[-74.135399,40.726327],[-74.135363,40.726272],[-74.13558,40.726301]]],[[[-74.135398,40.726465],[-74.13475,40.72627],[-74.135471,40.726437],[-74.135398,40.726465]]],[[[-74.135724,40.726356],[-74.135651,40.726411],[-74.135652,40.726356],[-74.135724,40.726356]]],[[[-74.135832,40.726439],[-74.13576,40.726383],[-74.135868,40.726384],[-74.135832,40.726439]]],[[[-74.135868,40.726411],[-74.135904,40.726466],[-74.135831,40.726466],[-74.135868,40.726411]]],[[[-74.136048,40.726439],[-74.135976,40.726494],[-74.135976,40.726439],[-74.136048,40.726439]]],[[[-74.136192,40.726522],[-74.136228,40.726495],[-74.136228,40.726522],[-74.136192,40.726522]]],[[[-74.137057,40.726662],[-74.136877,40.726689],[-74.136841,40.726634],[-74.137057,40.726662]]],[[[-74.136192,40.726577],[-74.13666,40.726661],[-74.137561,40.726966],[-74.13547,40.726492],[-74.135471,40.726437],[-74.136083,40.726577],[-74.136084,40.726467],[-74.136192,40.726467],[-74.136156,40.726522],[-74.136192,40.726577]]],[[[-74.137093,40.72669],[-74.137273,40.726773],[-74.137093,40.726745],[-74.137093,40.72669]]],[[[-74.131031,40.726753],[-74.131067,40.726725],[-74.131067,40.726753],[-74.131031,40.726753]]],[[[-74.131031,40.726753],[-74.130995,40.726808],[-74.130995,40.726753],[-74.131031,40.726753]]],[[[-74.130995,40.726808],[-74.130958,40.726835],[-74.130958,40.726807],[-74.130995,40.726808]]],[[[-74.130958,40.726835],[-74.130922,40.726862],[-74.130922,40.726835],[-74.130958,40.726835]]],[[[-74.13345,40.726431],[-74.133416,40.726074],[-74.136912,40.726881],[-74.137415,40.727267],[-74.134843,40.729016],[-74.133759,40.729342],[-74.133473,40.728847],[-74.133433,40.729615],[-74.132527,40.730326],[-74.130683,40.730952],[-74.130684,40.730704],[-74.130037,40.730263],[-74.130188,40.729056],[-74.130838,40.728976],[-74.131558,40.729335],[-74.131489,40.728703],[-74.130806,40.728289],[-74.130846,40.727631],[-74.132443,40.725934],[-74.13345,40.726431]],[[-74.130916,40.727878],[-74.130989,40.727796],[-74.130953,40.727796],[-74.130916,40.727878]],[[-74.13345,40.726431],[-74.133522,40.726486],[-74.133486,40.726431],[-74.13345,40.726431]]],[[[-74.132668,40.73093],[-74.132632,40.730875],[-74.132668,40.730876],[-74.132668,40.73093]]],[[[-74.123453,40.701255],[-74.123489,40.701282],[-74.123453,40.701282],[-74.123453,40.701255]]],[[[-74.123525,40.70131],[-74.123561,40.701282],[-74.123561,40.70131],[-74.123525,40.70131]]],[[[-74.123669,40.701365],[-74.123633,40.701337],[-74.123669,40.701338],[-74.123669,40.701365]]],[[[-74.123669,40.701392],[-74.123705,40.701365],[-74.123705,40.701393],[-74.123669,40.701392]]],[[[-74.123777,40.701393],[-74.12374,40.701448],[-74.123741,40.701393],[-74.123777,40.701393]]],[[[-74.123884,40.701503],[-74.123849,40.701448],[-74.123957,40.701476],[-74.123957,40.701503],[-74.123884,40.701503]]],[[[-74.123992,40.701531],[-74.123957,40.701503],[-74.123993,40.701503],[-74.123992,40.701531]]],[[[-74.124208,40.701641],[-74.124316,40.701697],[-74.124208,40.701669],[-74.124208,40.701641]]],[[[-74.124316,40.701697],[-74.124424,40.701752],[-74.124352,40.701752],[-74.124316,40.701697]]],[[[-74.130621,40.703034],[-74.130657,40.703007],[-74.130657,40.703035],[-74.130621,40.703034]]],[[[-74.130765,40.70309],[-74.130801,40.703063],[-74.130801,40.70309],[-74.130765,40.70309]]],[[[-74.130115,40.703143],[-74.130151,40.703115],[-74.130151,40.703143],[-74.130115,40.703143]]],[[[-74.130404,40.703144],[-74.13044,40.703171],[-74.130404,40.703171],[-74.130404,40.703144]]],[[[-74.131125,40.703201],[-74.131161,40.703228],[-74.131125,40.703228],[-74.131125,40.703201]]],[[[-74.130548,40.703199],[-74.130584,40.703227],[-74.130548,40.703226],[-74.130548,40.703199]]],[[[-74.130331,40.703226],[-74.130367,40.703198],[-74.130367,40.703226],[-74.130331,40.703226]]],[[[-74.131197,40.703228],[-74.131233,40.703256],[-74.131197,40.703256],[-74.131197,40.703228]]],[[[-74.130475,40.703254],[-74.130403,40.703253],[-74.130403,40.703226],[-74.130475,40.703226],[-74.130475,40.703254]]],[[[-74.130728,40.703254],[-74.130764,40.703282],[-74.130728,40.703282],[-74.130728,40.703254]]],[[[-74.130475,40.703281],[-74.130475,40.703254],[-74.130547,40.703254],[-74.130547,40.703281],[-74.130475,40.703281]]],[[[-74.130836,40.70331],[-74.1308,40.703282],[-74.130836,40.703282],[-74.130836,40.70331]]],[[[-74.130547,40.703309],[-74.130547,40.703281],[-74.130619,40.703282],[-74.130619,40.703309],[-74.130547,40.703309]]],[[[-74.130619,40.703336],[-74.130619,40.703309],[-74.130691,40.703309],[-74.130691,40.703337],[-74.130619,40.703336]]],[[[-74.130691,40.703364],[-74.130691,40.703337],[-74.130763,40.703337],[-74.130763,40.703364],[-74.130691,40.703364]]],[[[-74.130835,40.703392],[-74.130763,40.703364],[-74.130835,40.703365],[-74.130835,40.703392]]],[[[-74.130835,40.703392],[-74.130907,40.70342],[-74.130835,40.703419],[-74.130835,40.703392]]],[[[-74.130979,40.703447],[-74.130943,40.70342],[-74.130979,40.70342],[-74.130979,40.703447]]],[[[-74.129565,40.704843],[-74.129528,40.704898],[-74.129493,40.704843],[-74.129565,40.704843]]],[[[-74.144968,40.711342],[-74.139871,40.713385],[-74.138387,40.714204],[-74.137811,40.71401],[-74.138026,40.714395],[-74.135128,40.716554],[-74.13502,40.716389],[-74.13571,40.715678],[-74.135026,40.715319],[-74.134515,40.716415],[-74.135091,40.716609],[-74.134329,40.717567],[-74.133961,40.718802],[-74.133883,40.719954],[-74.134063,40.719927],[-74.134238,40.720998],[-74.133624,40.721106],[-74.132818,40.723217],[-74.131653,40.725108],[-74.131147,40.725326],[-74.125815,40.723909],[-74.128732,40.724934],[-74.131434,40.725546],[-74.131397,40.725738],[-74.130309,40.726833],[-74.128425,40.728117],[-74.126477,40.728028],[-74.125645,40.72841],[-74.125388,40.729287],[-74.125714,40.729041],[-74.126183,40.72907],[-74.126614,40.729484],[-74.126468,40.72962],[-74.126037,40.729262],[-74.125566,40.729645],[-74.12538,40.730742],[-74.124508,40.7317],[-74.123633,40.733289],[-74.123408,40.734908],[-74.122035,40.735069],[-74.119474,40.734978],[-74.119909,40.734622],[-74.120845,40.734955],[-74.121748,40.734875],[-74.120882,40.73479],[-74.122148,40.734355],[-74.123641,40.73189],[-74.123317,40.731834],[-74.122085,40.732681],[-74.122265,40.732763],[-74.121542,40.732926],[-74.12129,40.732843],[-74.121329,40.732404],[-74.121185,40.732266],[-74.121147,40.732623],[-74.120424,40.732867],[-74.117863,40.73231],[-74.120642,40.722955],[-74.120962,40.720012],[-74.120551,40.717436],[-74.116105,40.709156],[-74.114309,40.704609],[-74.114097,40.702284],[-74.114315,40.700569],[-74.116009,40.69736],[-74.122735,40.700648],[-74.123273,40.701254],[-74.123956,40.701586],[-74.124065,40.701531],[-74.124208,40.701614],[-74.124208,40.701641],[-74.124136,40.701641],[-74.124136,40.701668],[-74.124388,40.701807],[-74.124568,40.70178],[-74.127445,40.703326],[-74.128416,40.703906],[-74.128558,40.704181],[-74.12881,40.704264],[-74.12942,40.704842],[-74.130606,40.70567],[-74.130642,40.70578],[-74.13075,40.70578],[-74.130821,40.705917],[-74.131037,40.706],[-74.131396,40.706358],[-74.132942,40.707269],[-74.133408,40.707765],[-74.133119,40.707874],[-74.133009,40.708203],[-74.132281,40.709463],[-74.132569,40.709546],[-74.133187,40.70856],[-74.133585,40.708507],[-74.137509,40.709837],[-74.134559,40.708427],[-74.133767,40.708178],[-74.133441,40.708314],[-74.133588,40.707793],[-74.139168,40.710006],[-74.139239,40.710254],[-74.139634,40.710502],[-74.139634,40.710557],[-74.139597,40.710584],[-74.139777,40.710749],[-74.141436,40.710892],[-74.14086,40.710616],[-74.141005,40.710479],[-74.144211,40.71134],[-74.144536,40.711231],[-74.144968,40.711342]],[[-74.125605,40.729178],[-74.125641,40.729206],[-74.125641,40.729178],[-74.125605,40.729178]],[[-74.123521,40.73392],[-74.123486,40.733893],[-74.123485,40.73392],[-74.123521,40.73392]],[[-74.121748,40.734821],[-74.12182,40.734793],[-74.121748,40.734793],[-74.121748,40.734821]],[[-74.122841,40.700951],[-74.122769,40.701005],[-74.122841,40.701005],[-74.122841,40.700951]],[[-74.124712,40.70189],[-74.124639,40.701945],[-74.124711,40.701945],[-74.124712,40.70189]],[[-74.124784,40.701945],[-74.124747,40.702],[-74.124819,40.702],[-74.124784,40.701945]],[[-74.124819,40.702],[-74.124855,40.702028],[-74.124855,40.702],[-74.124819,40.702]],[[-74.130247,40.705421],[-74.130211,40.705449],[-74.130247,40.705449],[-74.130247,40.705421]],[[-74.132654,40.707159],[-74.132618,40.707186],[-74.132654,40.707186],[-74.132654,40.707159]],[[-74.132827,40.708449],[-74.132791,40.708422],[-74.132791,40.708449],[-74.132827,40.708449]],[[-74.144608,40.711259],[-74.144463,40.711368],[-74.144715,40.711424],[-74.144608,40.711259]]],[[[-74.130922,40.726862],[-74.130886,40.72689],[-74.130886,40.726862],[-74.130922,40.726862]]],[[[-74.130886,40.72689],[-74.130849,40.726944],[-74.13085,40.726889],[-74.130886,40.72689]]],[[[-74.126833,40.72899],[-74.125968,40.728768],[-74.1268,40.728441],[-74.127376,40.72869],[-74.127554,40.72902],[-74.126866,40.729457],[-74.126833,40.72899]]],[[[-74.126363,40.729098],[-74.126327,40.729071],[-74.126363,40.729071],[-74.126363,40.729098]]],[[[-74.123569,40.731889],[-74.123496,40.731971],[-74.123533,40.731889],[-74.123569,40.731889]]],[[[-74.123496,40.731971],[-74.12346,40.731999],[-74.12346,40.731971],[-74.123496,40.731971]]],[[[-74.127386,40.733384],[-74.125612,40.734312],[-74.124528,40.73461],[-74.124749,40.733732],[-74.126531,40.731295],[-74.1274,40.730804],[-74.128591,40.730835],[-74.128334,40.73163],[-74.128659,40.731439],[-74.128694,40.731659],[-74.128369,40.731768],[-74.128401,40.732427],[-74.126735,40.733601],[-74.127386,40.733384]],[[-74.126735,40.733601],[-74.126626,40.733656],[-74.126735,40.733629],[-74.126735,40.733601]],[[-74.12659,40.733711],[-74.126519,40.733573],[-74.126445,40.733765],[-74.12659,40.733711]],[[-74.126445,40.733765],[-74.126409,40.733793],[-74.126445,40.733793],[-74.126445,40.733765]]],[[[-74.121288,40.733172],[-74.121542,40.732981],[-74.12248,40.732956],[-74.122117,40.733339],[-74.121288,40.733172]]],[[[-74.122297,40.73356],[-74.122297,40.733422],[-74.122369,40.733532],[-74.122297,40.73356]]],[[[-74.122477,40.733588],[-74.122441,40.733533],[-74.122477,40.733533],[-74.122477,40.733588]]],[[[-74.122405,40.733587],[-74.12244,40.733642],[-74.122404,40.733642],[-74.122405,40.733587]]],[[[-74.12226,40.733669],[-74.122296,40.733642],[-74.122296,40.733669],[-74.12226,40.733669]]],[[[-74.122512,40.733698],[-74.122476,40.73367],[-74.122512,40.73367],[-74.122512,40.733698]]],[[[-74.122404,40.733642],[-74.122368,40.733725],[-74.122368,40.733642],[-74.122404,40.733642]]],[[[-74.122152,40.733669],[-74.122188,40.733696],[-74.122151,40.733696],[-74.122152,40.733669]]],[[[-74.12226,40.733669],[-74.122223,40.733724],[-74.122224,40.733669],[-74.12226,40.733669]]],[[[-74.122368,40.733725],[-74.122331,40.733779],[-74.122332,40.733724],[-74.122368,40.733725]]],[[[-74.117827,40.732502],[-74.119954,40.733003],[-74.120061,40.733223],[-74.120206,40.733086],[-74.120562,40.733938],[-74.120056,40.734156],[-74.120741,40.734213],[-74.120992,40.734544],[-74.119875,40.734265],[-74.119229,40.733577],[-74.11894,40.733658],[-74.118866,40.734015],[-74.118863,40.734427],[-74.119187,40.734565],[-74.118826,40.734729],[-74.119293,40.735005],[-74.117414,40.734916],[-74.117827,40.732502]]],[[[-74.122331,40.733779],[-74.122295,40.733834],[-74.122295,40.733779],[-74.122331,40.733779]]],[[[-74.122223,40.733724],[-74.121282,40.73427],[-74.121032,40.73383],[-74.121394,40.733612],[-74.122223,40.733724]]],[[[-74.124136,40.733758],[-74.124425,40.733621],[-74.124058,40.734773],[-74.123805,40.734827],[-74.124136,40.733758]]],[[[-74.126189,40.734423],[-74.126225,40.734396],[-74.126225,40.734423],[-74.126189,40.734423]]],[[[-74.126189,40.734423],[-74.126153,40.734451],[-74.126153,40.734423],[-74.126189,40.734423]]],[[[-74.126045,40.734286],[-74.12543,40.734695],[-74.12496,40.734721],[-74.126045,40.734286]]],[[[-74.126153,40.734451],[-74.125863,40.734697],[-74.125755,40.734669],[-74.126153,40.734451]]],[[[-74.124456,40.734665],[-74.124528,40.734637],[-74.124528,40.734665],[-74.124456,40.734665]]],[[[-74.124344,40.735296],[-74.124307,40.735323],[-74.124308,40.735296],[-74.124344,40.735296]]],[[[-74.12478,40.734721],[-74.125754,40.734779],[-74.124848,40.735544],[-74.124192,40.736558],[-74.124379,40.735351],[-74.124382,40.734939],[-74.12478,40.734721]]],[[[-74.123647,40.737297],[-74.123768,40.734964],[-74.124021,40.734938],[-74.123647,40.737297]]],[[[-74.123335,40.735073],[-74.123245,40.738065],[-74.121024,40.741608],[-74.118693,40.740495],[-74.117753,40.739422],[-74.117243,40.737612],[-74.117393,40.735053],[-74.120483,40.735201],[-74.123335,40.735073]]],[[[-74.1236,40.739191],[-74.123157,40.740892],[-74.123048,40.741028],[-74.123453,40.739657],[-74.123608,40.737709],[-74.123753,40.7376],[-74.1236,40.739191]]],[[[-74.121132,40.741646],[-74.123099,40.738503],[-74.123207,40.738449],[-74.122357,40.741987],[-74.121132,40.741646]]]]}}]}