{"type":"FeatureCollection","features":[{"type":"Feature","properties":{"level_ft":13},"geometry":{"type":"MultiPolygon","coordinates":[[[[-74.191723,40.687264],[-74.191723,40.687265],[-74.191701,40.687265],[-74.191723,40.687264]]],[[[-74.199974,40.688797],[-74.199866,40.688741],[-74.200011,40.688714],[-74.199974,40.688797]]],[[[-74.198607,40.688244],[-74.199831,40.688604],[-74.198709,40.68948],[-74.198566,40.68926],[-74.199001,40.688684],[-74.198569,40.688491],[-74.198607,40.688244]]],[[[-74.197833,40.691893],[-74.197869,40.691866],[-74.197869,40.691893],[-74.197833,40.691893]]],[[[-74.197652,40.692002],[-74.197688,40.691975],[-74.197688,40.692002],[-74.197652,40.692002]]],[[[-74.197796,40.692003],[-74.197977,40.692003],[-74.197976,40.692086],[-74.197796,40.692003]]],[[[-74.19758,40.692002],[-74.197616,40.69203],[-74.19758,40.69203],[-74.19758,40.692002]]],[[[-74.197363,40.692084],[-74.197399,40.692057],[-74.197399,40.692084],[-74.197363,40.692084]]],[[[-74.197399,40.692111],[-74.197435,40.692084],[-74.197435,40.692112],[-74.197399,40.692111]]],[[[-74.197183,40.692111],[-74.197147,40.692083],[-74.197183,40.692083],[-74.197183,40.692111]]],[[[-74.197577,40.692633],[-74.197868,40.69214],[-74.19794,40.692113],[-74.197577,40.692633]]],[[[-74.197577,40.692633],[-74.197541,40.692661],[-74.197541,40.692633],[-74.197577,40.692633]]],[[[-74.197649,40.692634],[-74.197685,40.692689],[-74.197649,40.692689],[-74.197649,40.692634]]],[[[-74.197577,40.692688],[-74.197613,40.692661],[-74.197613,40.692688],[-74.197577,40.692688]]],[[[-74.196744,40.693345],[-74.196708,40.693317],[-74.196744,40.693318],[-74.196744,40.693345]]],[[[-74.208127,40.696366],[-74.207627,40.695377],[-74.207629,40.694883],[-74.209179,40.695106],[-74.209142,40.695353],[-74.208384,40.695461],[-74.208381,40.696175],[-74.208127,40.696366]],[[-74.208132,40.695214],[-74.207953,40.695076],[-74.207988,40.69535],[-74.208132,40.695214]]],[[[-74.192124,40.701952],[-74.192089,40.701925],[-74.192125,40.701925],[-74.192124,40.701952]]],[[[-74.206442,40.702456],[-74.206261,40.702511],[-74.206261,40.702483],[-74.206442,40.702456]]],[[[-74.190422,40.703595],[-74.190458,40.703622],[-74.190421,40.703622],[-74.190422,40.703595]]],[[[-74.20409,40.703987],[-74.204054,40.70396],[-74.20409,40.70396],[-74.20409,40.703987]]],[[[-74.204018,40.703987],[-74.204054,40.704015],[-74.204018,40.704015],[-74.204018,40.703987]]],[[[-74.203946,40.704042],[-74.203982,40.704015],[-74.203982,40.704042],[-74.203946,40.704042]]],[[[-74.203946,40.704042],[-74.20391,40.704069],[-74.20391,40.704042],[-74.203946,40.704042]]],[[[-74.203873,40.704097],[-74.203838,40.704069],[-74.203874,40.704069],[-74.203873,40.704097]]],[[[-74.190059,40.704005],[-74.190095,40.703978],[-74.190095,40.704006],[-74.190059,40.704005]]],[[[-74.203657,40.704178],[-74.203693,40.704151],[-74.203693,40.704178],[-74.203657,40.704178]]],[[[-74.203512,40.704288],[-74.203548,40.704315],[-74.203512,40.704315],[-74.203512,40.704288]]],[[[-74.203403,40.704397],[-74.203439,40.70437],[-74.203439,40.704397],[-74.203403,40.704397]]],[[[-74.203403,40.704425],[-74.203367,40.704397],[-74.203403,40.704397],[-74.203403,40.704425]]],[[[-74.198629,40.707295],[-74.198593,40.707322],[-74.198593,40.707295],[-74.198629,40.707295]]],[[[-74.198593,40.707322],[-74.198556,40.707349],[-74.198557,40.707322],[-74.198593,40.707322]]],[[[-74.198556,40.707349],[-74.198484,40.707404],[-74.198484,40.707349],[-74.198556,40.707349]]],[[[-74.19834,40.707431],[-74.198375,40.707486],[-74.198303,40.707486],[-74.19834,40.707431]]],[[[-74.198303,40.707486],[-74.198267,40.707513],[-74.198267,40.707486],[-74.198303,40.707486]]],[[[-74.198231,40.707568],[-74.198014,40.707595],[-74.198267,40.707513],[-74.198231,40.707568]]],[[[-74.198014,40.707705],[-74.197978,40.707677],[-74.198014,40.707677],[-74.198014,40.707705]]],[[[-74.197833,40.707814],[-74.197797,40.707842],[-74.197797,40.707814],[-74.197833,40.707814]]],[[[-74.188488,40.708283],[-74.188524,40.708256],[-74.188524,40.708284],[-74.188488,40.708283]]],[[[-74.188416,40.708283],[-74.188452,40.708256],[-74.188452,40.708283],[-74.188416,40.708283]]],[[[-74.188344,40.708256],[-74.18838,40.708283],[-74.188344,40.708283],[-74.188344,40.708256]]],[[[-74.197797,40.707787],[-74.197543,40.708115],[-74.197111,40.708032],[-74.196387,40.708497],[-74.196135,40.708304],[-74.19552,40.708686],[-74.195052,40.708603],[-74.19505,40.70907],[-74.194149,40.708848],[-74.19386,40.708984],[-74.193536,40.708681],[-74.192347,40.708431],[-74.188596,40.708256],[-74.19657,40.707976],[-74.197942,40.70765],[-74.197797,40.707787]]],[[[-74.197137,40.710173],[-74.196094,40.709374],[-74.196782,40.708772],[-74.197579,40.708143],[-74.198048,40.708089],[-74.200218,40.706805],[-74.198624,40.708283],[-74.198442,40.708694],[-74.19862,40.709299],[-74.197895,40.71012],[-74.197137,40.710173]]],[[[-74.185853,40.708715],[-74.185889,40.708743],[-74.185853,40.708743],[-74.185853,40.708715]]],[[[-74.185672,40.708742],[-74.1856,40.70877],[-74.1856,40.708742],[-74.185672,40.708742]]],[[[-74.1856,40.70877],[-74.185492,40.708797],[-74.185492,40.708769],[-74.1856,40.70877]]],[[[-74.184265,40.708848],[-74.184484,40.708382],[-74.188308,40.708255],[-74.183542,40.709066],[-74.182459,40.70942],[-74.182638,40.709558],[-74.182493,40.709832],[-74.182277,40.709721],[-74.182208,40.709062],[-74.182606,40.708679],[-74.183545,40.708435],[-74.183906,40.708518],[-74.184265,40.708848]],[[-74.182493,40.709695],[-74.182457,40.709667],[-74.182457,40.709694],[-74.182493,40.709695]],[[-74.183545,40.708462],[-74.183509,40.708489],[-74.183545,40.70849],[-74.183545,40.708462]],[[-74.183653,40.70849],[-74.183617,40.708517],[-74.183653,40.708517],[-74.183653,40.70849]]],[[[-74.185492,40.708797],[-74.183541,40.709423],[-74.183216,40.709422],[-74.185492,40.708797]]],[[[-74.184296,40.709809],[-74.18426,40.709837],[-74.18426,40.709809],[-74.184296,40.709809]]],[[[-74.184296,40.709919],[-74.18715,40.709021],[-74.190037,40.708837],[-74.192883,40.709476],[-74.193604,40.709752],[-74.193818,40.710109],[-74.189988,40.711609],[-74.18652,40.712533],[-74.184282,40.712884],[-74.183638,40.711729],[-74.183532,40.711317],[-74.183533,40.710988],[-74.183934,40.71022],[-74.184296,40.709919]],[[-74.183568,40.711317],[-74.18364,40.711262],[-74.183568,40.71129],[-74.183568,40.711317]],[[-74.184548,40.70992],[-74.184512,40.710002],[-74.184548,40.710002],[-74.184548,40.70992]],[[-74.184729,40.709838],[-74.184801,40.70992],[-74.184801,40.709866],[-74.184729,40.709838]],[[-74.184693,40.70992],[-74.184657,40.709947],[-74.184693,40.709948],[-74.184693,40.70992]]],[[[-74.192154,40.711148],[-74.19219,40.711121],[-74.19219,40.711148],[-74.192154,40.711148]]],[[[-74.191395,40.711421],[-74.191432,40.711393],[-74.191432,40.711421],[-74.191395,40.711421]]],[[[-74.192225,40.71145],[-74.192189,40.711423],[-74.192225,40.711423],[-74.192225,40.71145]]],[[[-74.184066,40.712718],[-74.184102,40.712746],[-74.184066,40.712746],[-74.184066,40.712718]]],[[[-74.184053,40.715436],[-74.18409,40.715409],[-74.184089,40.715436],[-74.184053,40.715436]]],[[[-74.181644,40.706288],[-74.181608,40.706261],[-74.181644,40.706261],[-74.181644,40.706288]]],[[[-74.177243,40.706221],[-74.177315,40.706276],[-74.177243,40.706276],[-74.177243,40.706221]]],[[[-74.181391,40.70626],[-74.179291,40.708039],[-74.179475,40.707161],[-74.180345,40.70623],[-74.181285,40.705958],[-74.182078,40.70607],[-74.181391,40.70626]],[[-74.180595,40.706862],[-74.180559,40.706834],[-74.180559,40.706862],[-74.180595,40.706862]]],[[[-74.180631,40.706944],[-74.180666,40.706999],[-74.180558,40.707081],[-74.180631,40.706944]]],[[[-74.180413,40.707108],[-74.180522,40.707109],[-74.180413,40.707163],[-74.180413,40.707108]]],[[[-74.180305,40.707218],[-74.180341,40.707191],[-74.180341,40.707218],[-74.180305,40.707218]]],[[[-74.182473,40.706291],[-74.185028,40.70767],[-74.185134,40.708165],[-74.185279,40.708],[-74.187118,40.70817],[-74.184484,40.708245],[-74.184449,40.707971],[-74.183186,40.708077],[-74.183225,40.707501],[-74.182397,40.707086],[-74.181853,40.707854],[-74.181383,40.707935],[-74.182003,40.706701],[-74.181172,40.706918],[-74.181281,40.706754],[-74.180993,40.706671],[-74.181536,40.706288],[-74.181644,40.706316],[-74.181824,40.706234],[-74.182473,40.706291]]],[[[-74.180268,40.707245],[-74.180305,40.707218],[-74.180305,40.707245],[-74.180268,40.707245]]],[[[-74.180991,40.707],[-74.179941,40.707821],[-74.179652,40.707902],[-74.180991,40.707]]],[[[-74.178423,40.708503],[-74.178387,40.708475],[-74.178423,40.708475],[-74.178423,40.708503]]],[[[-74.179613,40.708589],[-74.179577,40.708561],[-74.179613,40.708561],[-74.179613,40.708589]]],[[[-74.179685,40.708479],[-74.180191,40.708425],[-74.180912,40.708427],[-74.18001,40.70859],[-74.180514,40.708646],[-74.180622,40.708838],[-74.179973,40.708754],[-74.179685,40.708479]]],[[[-74.178026,40.708529],[-74.17835,40.70853],[-74.178025,40.708776],[-74.178026,40.708529]]],[[[-74.179613,40.708589],[-74.181628,40.709527],[-74.181915,40.70994],[-74.179935,40.709084],[-74.179613,40.708589]]],[[[-74.181953,40.709446],[-74.18224,40.709776],[-74.18224,40.709859],[-74.181953,40.709446]]],[[[-74.183936,40.709753],[-74.183972,40.709671],[-74.184081,40.709671],[-74.183936,40.709753]]],[[[-74.18224,40.709913],[-74.182312,40.709886],[-74.182312,40.709914],[-74.18224,40.709913]]],[[[-74.181915,40.709995],[-74.181951,40.709968],[-74.181951,40.709995],[-74.181915,40.709995]]],[[[-74.18426,40.709837],[-74.183608,40.710439],[-74.183351,40.711344],[-74.182707,40.710326],[-74.18426,40.709837]]],[[[-74.184031,40.712636],[-74.183314,40.711673],[-74.182526,40.710381],[-74.182634,40.710381],[-74.184031,40.712636]]],[[[-74.18403,40.712663],[-74.184066,40.712691],[-74.18403,40.712691],[-74.18403,40.712663]]],[[[-74.183475,40.715764],[-74.183511,40.715736],[-74.183511,40.715764],[-74.183475,40.715764]]],[[[-74.183475,40.715764],[-74.183438,40.715791],[-74.183439,40.715764],[-74.183475,40.715764]]],[[[-74.183294,40.715846],[-74.183258,40.715873],[-74.183258,40.715845],[-74.183294,40.715846]]],[[[-74.183221,40.715928],[-74.183258,40.7159],[-74.183257,40.715928],[-74.183221,40.715928]]],[[[-74.183543,40.716587],[-74.183579,40.71656],[-74.183579,40.716588],[-74.183543,40.716587]]],[[[-74.182783,40.717107],[-74.182747,40.717079],[-74.182783,40.717079],[-74.182783,40.717107]]],[[[-74.192189,40.711478],[-74.191791,40.711724],[-74.192259,40.711944],[-74.192291,40.712713],[-74.191894,40.712822],[-74.192001,40.713042],[-74.191313,40.713616],[-74.190989,40.713588],[-74.190554,40.713971],[-74.19005,40.713805],[-74.190119,40.714327],[-74.189505,40.714572],[-74.189539,40.714902],[-74.188638,40.714899],[-74.188924,40.715477],[-74.188382,40.71564],[-74.188595,40.716244],[-74.187945,40.716325],[-74.188592,40.717013],[-74.187546,40.716928],[-74.188122,40.717176],[-74.188121,40.717396],[-74.188482,40.717369],[-74.188551,40.718001],[-74.187789,40.718877],[-74.187715,40.719426],[-74.187136,40.719727],[-74.186667,40.719615],[-74.185944,40.720025],[-74.185223,40.719886],[-74.185078,40.720105],[-74.184825,40.720077],[-74.184863,40.719775],[-74.184105,40.719883],[-74.183853,40.719718],[-74.184103,40.720157],[-74.183346,40.720073],[-74.183055,40.720539],[-74.182587,40.720455],[-74.182842,40.719825],[-74.182121,40.719713],[-74.181976,40.719959],[-74.182407,40.720372],[-74.18147,40.72015],[-74.181033,40.720863],[-74.181103,40.72133],[-74.181391,40.721495],[-74.180958,40.721521],[-74.180703,40.721905],[-74.180991,40.722153],[-74.180521,40.722316],[-74.179215,40.723877],[-74.178745,40.724068],[-74.178821,40.723217],[-74.178605,40.723079],[-74.178207,40.723298],[-74.178101,40.722941],[-74.177343,40.722856],[-74.177161,40.723295],[-74.176764,40.723266],[-74.175606,40.724004],[-74.175061,40.724881],[-74.174663,40.725045],[-74.174552,40.725484],[-74.173539,40.726057],[-74.173357,40.726523],[-74.17296,40.726577],[-74.172994,40.726907],[-74.172089,40.727426],[-74.172197,40.727646],[-74.1718,40.727644],[-74.17122,40.728192],[-74.170675,40.728959],[-74.170817,40.729344],[-74.17042,40.729342],[-74.170273,40.729864],[-74.168936,40.730299],[-74.168934,40.730601],[-74.168064,40.731394],[-74.167155,40.732847],[-74.166939,40.732764],[-74.166649,40.73312],[-74.167631,40.731393],[-74.175681,40.723456],[-74.183436,40.716258],[-74.183546,40.715984],[-74.184053,40.715436],[-74.183761,40.716286],[-74.182421,40.717243],[-74.182131,40.717627],[-74.181582,40.7193],[-74.181545,40.719492],[-74.181689,40.719547],[-74.182348,40.717463],[-74.182602,40.717189],[-74.182783,40.717134],[-74.183181,40.716779],[-74.183579,40.716615],[-74.182491,40.717737],[-74.182851,40.717958],[-74.183902,40.71689],[-74.184375,40.716013],[-74.184706,40.714697],[-74.184425,40.713159],[-74.1867,40.712643],[-74.185324,40.71371],[-74.185504,40.713848],[-74.187096,40.712754],[-74.190132,40.711692],[-74.190636,40.711775],[-74.193925,40.710521],[-74.193527,40.710822],[-74.193057,40.710958],[-74.192406,40.711259],[-74.192153,40.711423],[-74.192189,40.711478]],[[-74.191828,40.711559],[-74.1919,40.711504],[-74.191828,40.711504],[-74.191828,40.711559]],[[-74.183582,40.716039],[-74.183618,40.716011],[-74.183582,40.716011],[-74.183582,40.716039]],[[-74.183763,40.715847],[-74.183799,40.715874],[-74.183799,40.715847],[-74.183763,40.715847]],[[-74.182563,40.717902],[-74.182526,40.71793],[-74.182562,40.71793],[-74.182563,40.717902]],[[-74.184706,40.714697],[-74.184778,40.714724],[-74.184778,40.714697],[-74.184706,40.714697]],[[-74.185468,40.713848],[-74.185432,40.713875],[-74.185468,40.713875],[-74.185468,40.713848]],[[-74.189553,40.711965],[-74.189589,40.711992],[-74.189589,40.711965],[-74.189553,40.711965]],[[-74.192117,40.711477],[-74.192081,40.71145],[-74.192081,40.711477],[-74.192117,40.711477]],[[-74.192044,40.711505],[-74.192008,40.711477],[-74.192008,40.711505],[-74.192044,40.711505]]],[[[-74.169228,40.729531],[-74.169265,40.729504],[-74.169265,40.729531],[-74.169228,40.729531]]],[[[-74.169228,40.729531],[-74.169192,40.729559],[-74.169192,40.729531],[-74.169228,40.729531]]],[[[-74.169156,40.729558],[-74.169192,40.729586],[-74.169156,40.729586],[-74.169156,40.729558]]],[[[-74.168321,40.730517],[-74.168285,40.730489],[-74.168322,40.730489],[-74.168321,40.730517]]],[[[-74.168285,40.730517],[-74.168249,40.730544],[-74.168249,40.730517],[-74.168285,40.730517]]],[[[-74.167523,40.731365],[-74.167487,40.731338],[-74.167523,40.731338],[-74.167523,40.731365]]],[[[-74.167487,40.731365],[-74.167451,40.731393],[-74.167451,40.731365],[-74.167487,40.731365]]],[[[-74.164838,40.734322],[-74.166143,40.733091],[-74.166577,40.732982],[-74.166575,40.733339],[-74.166033,40.733502],[-74.166212,40.733832],[-74.165815,40.733859],[-74.165451,40.734489],[-74.165234,40.734543],[-74.165199,40.734351],[-74.165054,40.734543],[-74.164838,40.734322]]],[[[-74.164297,40.734238],[-74.164261,40.734211],[-74.164297,40.734211],[-74.164297,40.734238]]],[[[-74.164189,40.734293],[-74.164225,40.734266],[-74.164225,40.734293],[-74.164189,40.734293]]],[[[-74.16408,40.734402],[-74.164044,40.734375],[-74.16408,40.734375],[-74.16408,40.734402]]],[[[-74.164008,40.734402],[-74.164044,40.73443],[-74.164008,40.73443],[-74.164008,40.734402]]],[[[-74.163972,40.73443],[-74.164008,40.734457],[-74.163971,40.734457],[-74.163972,40.73443]]],[[[-74.163935,40.734457],[-74.163971,40.734485],[-74.163935,40.734484],[-74.163935,40.734457]]],[[[-74.165018,40.734515],[-74.164981,40.734542],[-74.164982,40.734515],[-74.165018,40.734515]]],[[[-74.165054,40.734543],[-74.165017,40.73457],[-74.165018,40.734542],[-74.165054,40.734543]]],[[[-74.164945,40.734625],[-74.164981,40.734542],[-74.165017,40.734625],[-74.164945,40.734625]]],[[[-74.164873,40.734652],[-74.164909,40.734679],[-74.164873,40.734679],[-74.164873,40.734652]]],[[[-74.167443,40.747424],[-74.165867,40.747392],[-74.165748,40.74525],[-74.166263,40.745197],[-74.166192,40.745114],[-74.166373,40.745005],[-74.165714,40.745085],[-74.162778,40.737845],[-74.161707,40.736207],[-74.163969,40.734951],[-74.163931,40.73528],[-74.163352,40.735608],[-74.164573,40.736737],[-74.164676,40.737918],[-74.164458,40.738274],[-74.164995,40.738962],[-74.165098,40.740143],[-74.164843,40.740608],[-74.16638,40.743495],[-74.166735,40.744649],[-74.166514,40.745527],[-74.166983,40.745665],[-74.167161,40.746078],[-74.167307,40.745749],[-74.167661,40.747259],[-74.167443,40.747424]],[[-74.166264,40.745169],[-74.166408,40.745142],[-74.166264,40.745142],[-74.166264,40.745169]],[[-74.1663,40.745087],[-74.166372,40.745115],[-74.166372,40.745087],[-74.1663,40.745087]],[[-74.167589,40.747177],[-74.167553,40.747149],[-74.167553,40.747177],[-74.167589,40.747177]]],[[[-74.166047,40.745141],[-74.166083,40.745114],[-74.166083,40.745141],[-74.166047,40.745141]]],[[[-74.167803,40.747617],[-74.167622,40.747699],[-74.167623,40.747506],[-74.167803,40.747617]]],[[[-74.167441,40.747863],[-74.166792,40.747724],[-74.166683,40.74797],[-74.165838,40.747886],[-74.165863,40.747474],[-74.167551,40.747534],[-74.167441,40.747863]]],[[[-74.167477,40.74789],[-74.167513,40.747863],[-74.167513,40.74789],[-74.167477,40.74789]]],[[[-74.168017,40.748304],[-74.167981,40.748276],[-74.168017,40.748276],[-74.168017,40.748304]]],[[[-74.16362,40.761192],[-74.16362,40.761165],[-74.163656,40.761165],[-74.163656,40.761193],[-74.16362,40.761192]]],[[[-74.163692,40.76122],[-74.163656,40.761193],[-74.163692,40.761193],[-74.163692,40.76122]]],[[[-74.210925,40.699997],[-74.206333,40.702648],[-74.206297,40.702593],[-74.206478,40.702484],[-74.206442,40.702429],[-74.20655,40.702319],[-74.206225,40.702483],[-74.206297,40.702566],[-74.205683,40.702756],[-74.203911,40.70385],[-74.203657,40.704069],[-74.203621,40.704151],[-74.203657,40.704206],[-74.203548,40.704178],[-74.203548,40.70426],[-74.203512,40.70426],[-74.203512,40.704288],[-74.203476,40.704288],[-74.20344,40.704343],[-74.203367,40.704342],[-74.203259,40.704424],[-74.203367,40.70448],[-74.203222,40.704589],[-74.198701,40.707295],[-74.198846,40.707103],[-74.198593,40.707157],[-74.198197,40.707074],[-74.198523,40.706855],[-74.198451,40.706828],[-74.197439,40.707127],[-74.197257,40.707483],[-74.196319,40.707673],[-74.18683,40.708004],[-74.185929,40.707837],[-74.184381,40.707092],[-74.183806,40.706679],[-74.183558,40.705827],[-74.183089,40.705716],[-74.182762,40.706209],[-74.18197,40.705905],[-74.181105,40.705875],[-74.179552,40.706283],[-74.179007,40.706967],[-74.179006,40.707324],[-74.179476,40.707023],[-74.179182,40.708121],[-74.17799,40.708502],[-74.178433,40.706389],[-74.181469,40.705025],[-74.178905,40.705704],[-74.177856,40.70636],[-74.177424,40.706112],[-74.177099,40.706221],[-74.177494,40.706579],[-74.1772,40.707758],[-74.177339,40.708829],[-74.176221,40.708826],[-74.176795,40.709349],[-74.176507,40.709266],[-74.175892,40.709621],[-74.17607,40.710088],[-74.177007,40.710338],[-74.176284,40.710638],[-74.174877,40.710662],[-74.17484,40.710826],[-74.176464,40.710831],[-74.177548,40.710312],[-74.177471,40.711437],[-74.177757,40.711905],[-74.178549,40.712291],[-74.179415,40.712184],[-74.179922,40.711746],[-74.179055,40.712128],[-74.178262,40.711851],[-74.177832,40.711246],[-74.177837,40.710313],[-74.178343,40.710012],[-74.179173,40.71007],[-74.178385,40.708832],[-74.178926,40.708889],[-74.179069,40.709109],[-74.179396,40.708753],[-74.180222,40.709441],[-74.181123,40.709663],[-74.181806,40.710104],[-74.182559,40.71115],[-74.182483,40.711808],[-74.182809,40.711535],[-74.183704,40.713019],[-74.176374,40.714536],[-74.175544,40.714589],[-74.175507,40.714671],[-74.175002,40.714752],[-74.170129,40.715287],[-74.170092,40.715342],[-74.172763,40.715048],[-74.173196,40.715076],[-74.172834,40.715267],[-74.173664,40.715242],[-74.173665,40.715187],[-74.174603,40.715053],[-74.175216,40.715109],[-74.17861,40.71457],[-74.179007,40.714598],[-74.183304,40.713759],[-74.183701,40.713568],[-74.18363,40.713376],[-74.184097,40.713899],[-74.184127,40.715216],[-74.183149,40.715873],[-74.182133,40.717133],[-74.17782,40.721238],[-74.177567,40.721347],[-74.17764,40.721128],[-74.176847,40.720988],[-74.177134,40.721346],[-74.177024,40.721785],[-74.176081,40.722743],[-74.175431,40.722961],[-74.175573,40.723373],[-74.175212,40.723482],[-74.174993,40.72392],[-74.165386,40.733006],[-74.161438,40.735822],[-74.160184,40.73481],[-74.158448,40.734014],[-74.15732,40.733745],[-74.155351,40.733699],[-74.155354,40.733087],[-74.155101,40.733113],[-74.15517,40.733696],[-74.14854,40.733908],[-74.147363,40.734175],[-74.145864,40.735025],[-74.142001,40.73941],[-74.139754,40.740681],[-74.135339,40.741671],[-74.128166,40.742211],[-74.123114,40.742143],[-74.123886,40.739686],[-74.124154,40.73686],[-74.124955,40.735682],[-74.125171,40.735738],[-74.12495,40.736533],[-74.126213,40.736537],[-74.12629,40.735686],[-74.1251,40.735518],[-74.12684,40.734123],[-74.132776,40.730931],[-74.1356,40.729238],[-74.136249,40.72924],[-74.136431,40.728938],[-74.136863,40.729105],[-74.136938,40.72872],[-74.137116,40.72916],[-74.137621,40.729079],[-74.13762,40.729327],[-74.138163,40.729054],[-74.138487,40.729137],[-74.138561,40.728835],[-74.138202,40.728505],[-74.138527,40.728478],[-74.138314,40.727846],[-74.138749,40.727409],[-74.140376,40.726755],[-74.142622,40.725225],[-74.144502,40.724352],[-74.147145,40.722658],[-74.148266,40.722277],[-74.148448,40.721921],[-74.149714,40.721403],[-74.154418,40.71859],[-74.155213,40.718373],[-74.15525,40.718291],[-74.156009,40.718018],[-74.157815,40.717585],[-74.158934,40.717451],[-74.158969,40.717615],[-74.159187,40.717396],[-74.164746,40.716699],[-74.16453,40.716616],[-74.160307,40.71707],[-74.159332,40.717205],[-74.159043,40.717369],[-74.158177,40.717393],[-74.15742,40.717144],[-74.156738,40.716511],[-74.156671,40.715522],[-74.157109,40.714618],[-74.159848,40.715175],[-74.160208,40.715203],[-74.160136,40.715121],[-74.160281,40.715121],[-74.16147,40.715317],[-74.161361,40.715426],[-74.161687,40.715345],[-74.162876,40.715486],[-74.160497,40.715095],[-74.16039,40.714984],[-74.159777,40.714873],[-74.160282,40.714847],[-74.159417,40.714652],[-74.157687,40.714482],[-74.157291,40.714234],[-74.15842,40.712096],[-74.158889,40.71218],[-74.15925,40.711989],[-74.158674,40.711932],[-74.159724,40.711112],[-74.160627,40.710813],[-74.161601,40.71087],[-74.161026,40.710512],[-74.163116,40.71093],[-74.163262,40.710601],[-74.161496,40.710294],[-74.160846,40.710456],[-74.16027,40.71018],[-74.161102,40.709661],[-74.163378,40.709009],[-74.163018,40.708871],[-74.163055,40.708651],[-74.161358,40.708976],[-74.161613,40.708537],[-74.161037,40.708179],[-74.160856,40.708453],[-74.161069,40.708975],[-74.159622,40.709849],[-74.159118,40.70971],[-74.158936,40.709957],[-74.158323,40.709955],[-74.157309,40.710803],[-74.157633,40.710831],[-74.157486,40.711325],[-74.155204,40.71324],[-74.154989,40.712937],[-74.150559,40.711496],[-74.150018,40.71155],[-74.149839,40.711275],[-74.148507,40.710804],[-74.151223,40.708644],[-74.153896,40.708075],[-74.153716,40.707992],[-74.154041,40.707938],[-74.153608,40.707882],[-74.153646,40.707553],[-74.154332,40.707473],[-74.153792,40.707141],[-74.153721,40.706977],[-74.153758,40.706867],[-74.153579,40.706564],[-74.152467,40.705408],[-74.151565,40.705351],[-74.150912,40.706117],[-74.150156,40.705895],[-74.150842,40.70576],[-74.151567,40.704911],[-74.153116,40.705383],[-74.153189,40.705191],[-74.151173,40.704389],[-74.150995,40.704059],[-74.150595,40.704579],[-74.151423,40.704856],[-74.151024,40.705431],[-74.150517,40.705704],[-74.149724,40.705647],[-74.147312,40.704816],[-74.143929,40.703241],[-74.138997,40.701496],[-74.117574,40.694977],[-74.120322,40.69066],[-74.125251,40.68406],[-74.131955,40.673797],[-74.139139,40.677125],[-74.148986,40.682244],[-74.150435,40.683156],[-74.152657,40.685232],[-74.153849,40.685922],[-74.155324,40.686124],[-74.158342,40.686031],[-74.15938,40.686682],[-74.16063,40.688486],[-74.161494,40.689267],[-74.165051,40.69017],[-74.167635,40.689971],[-74.169273,40.688625],[-74.180758,40.687915],[-74.180071,40.688194],[-74.179819,40.688084],[-74.179384,40.688494],[-74.179924,40.688798],[-74.181298,40.688033],[-74.182236,40.687953],[-74.183136,40.68823],[-74.184035,40.688891],[-74.183605,40.688177],[-74.182864,40.68779],[-74.191687,40.687266],[-74.191104,40.688609],[-74.191427,40.688857],[-74.191791,40.688281],[-74.193377,40.68845],[-74.193919,40.688204],[-74.193956,40.68793],[-74.193704,40.687874],[-74.193415,40.687928],[-74.193631,40.688011],[-74.19345,40.688203],[-74.191683,40.688116],[-74.191868,40.687255],[-74.197531,40.686919],[-74.197203,40.687664],[-74.197491,40.687637],[-74.197634,40.68794],[-74.196301,40.687771],[-74.195723,40.687962],[-74.195932,40.689472],[-74.195173,40.689992],[-74.195388,40.690212],[-74.19524,40.690953],[-74.195492,40.691201],[-74.194876,40.691748],[-74.195019,40.691995],[-74.194802,40.692187],[-74.19498,40.692627],[-74.195485,40.69271],[-74.196131,40.693316],[-74.196893,40.692275],[-74.197146,40.692166],[-74.197362,40.692221],[-74.197183,40.692111],[-74.197435,40.692139],[-74.197508,40.692002],[-74.197579,40.692112],[-74.196963,40.692824],[-74.196675,40.692741],[-74.196999,40.692906],[-74.196527,40.693482],[-74.193324,40.699924],[-74.197505,40.692688],[-74.197575,40.693045],[-74.198374,40.69173],[-74.198518,40.691977],[-74.198807,40.691868],[-74.198592,40.691428],[-74.199717,40.689949],[-74.200191,40.68877],[-74.200732,40.688771],[-74.201021,40.688552],[-74.201128,40.688772],[-74.201958,40.688774],[-74.201702,40.689515],[-74.201051,40.689897],[-74.201555,40.690256],[-74.201987,40.690257],[-74.201948,40.691053],[-74.201511,40.691903],[-74.201799,40.692013],[-74.201796,40.692644],[-74.201326,40.693],[-74.201505,40.693275],[-74.201288,40.693412],[-74.201684,40.693605],[-74.201391,40.69451],[-74.20157,40.694977],[-74.201061,40.695799],[-74.200736,40.695798],[-74.200519,40.696072],[-74.200589,40.696484],[-74.19983,40.696949],[-74.199683,40.697553],[-74.198998,40.697441],[-74.198923,40.697962],[-74.198455,40.697934],[-74.19838,40.698592],[-74.197983,40.698619],[-74.198018,40.698866],[-74.197547,40.699167],[-74.19726,40.698974],[-74.197844,40.697438],[-74.19727,40.696695],[-74.196261,40.696473],[-74.196115,40.696939],[-74.195791,40.696829],[-74.195465,40.697157],[-74.195466,40.696938],[-74.194702,40.69839],[-74.195421,40.698914],[-74.195599,40.699381],[-74.194878,40.699214],[-74.194697,40.699379],[-74.194193,40.69913],[-74.194191,40.699652],[-74.193975,40.699487],[-74.193067,40.700994],[-74.192992,40.701543],[-74.194543,40.701547],[-74.194362,40.701656],[-74.194433,40.701821],[-74.195335,40.701851],[-74.195481,40.701549],[-74.195265,40.701494],[-74.195517,40.701495],[-74.195627,40.701193],[-74.196058,40.701414],[-74.196239,40.701304],[-74.19602,40.701908],[-74.196526,40.701799],[-74.196885,40.702129],[-74.195835,40.70295],[-74.195834,40.703252],[-74.196194,40.703308],[-74.196337,40.703638],[-74.197312,40.703421],[-74.197452,40.704382],[-74.197885,40.704356],[-74.198103,40.703999],[-74.197635,40.703806],[-74.197817,40.703367],[-74.199299,40.702657],[-74.199623,40.702768],[-74.200457,40.701919],[-74.201504,40.701483],[-74.20129,40.701015],[-74.200858,40.700905],[-74.202338,40.700552],[-74.202885,40.699345],[-74.203714,40.69932],[-74.204402,40.698773],[-74.204906,40.698939],[-74.205813,40.697761],[-74.206786,40.6979],[-74.207473,40.697518],[-74.207544,40.697902],[-74.208625,40.697987],[-74.209811,40.699006],[-74.209377,40.699362],[-74.210925,40.699997]],[[-74.206514,40.702374],[-74.206586,40.702402],[-74.206586,40.702374],[-74.206514,40.702374]],[[-74.20655,40.702319],[-74.206587,40.702292],[-74.206551,40.702292],[-74.20655,40.702319]],[[-74.206587,40.702292],[-74.206659,40.702237],[-74.206587,40.702264],[-74.206587,40.702292]],[[-74.206225,40.70251],[-74.206189,40.702538],[-74.206225,40.702538],[-74.206225,40.70251]],[[-74.203259,40.704452],[-74.203223,40.704479],[-74.203259,40.704479],[-74.203259,40.704452]],[[-74.202716,40.704807],[-74.20268,40.70478],[-74.20268,40.704807],[-74.202716,40.704807]],[[-74.198991,40.707076],[-74.198955,40.707048],[-74.198954,40.707076],[-74.198991,40.707076]],[[-74.198594,40.70713],[-74.19863,40.707075],[-74.198594,40.707075],[-74.198594,40.70713]],[[-74.198269,40.707074],[-74.198305,40.707047],[-74.198269,40.707047],[-74.198269,40.707074]],[[-74.198523,40.706828],[-74.198595,40.7068],[-74.198523,40.7068],[-74.198523,40.706828]],[[-74.198595,40.7068],[-74.198667,40.706773],[-74.198595,40.706773],[-74.198595,40.7068]],[[-74.198667,40.706773],[-74.198703,40.706746],[-74.198667,40.706746],[-74.198667,40.706773]],[[-74.177099,40.706248],[-74.177063,40.706276],[-74.177099,40.706276],[-74.177099,40.706248]],[[-74.179091,40.712018],[-74.179164,40.711991],[-74.179091,40.711991],[-74.179091,40.712018]],[[-74.179173,40.71007],[-74.179209,40.710097],[-74.179209,40.71007],[-74.179173,40.71007]],[[-74.181877,40.710269],[-74.181805,40.710297],[-74.181877,40.710297],[-74.181877,40.710269]],[[-74.183167,40.712139],[-74.183095,40.712112],[-74.183167,40.712194],[-74.183167,40.712139]],[[-74.175363,40.714671],[-74.174749,40.714669],[-74.174641,40.714723],[-74.175363,40.714671]],[[-74.174026,40.715161],[-74.174061,40.715189],[-74.174062,40.715161],[-74.174026,40.715161]],[[-74.183304,40.713759],[-74.18334,40.713787],[-74.18334,40.713759],[-74.183304,40.713759]],[[-74.183701,40.713568],[-74.183773,40.713596],[-74.183774,40.713569],[-74.183701,40.713568]],[[-74.164083,40.733853],[-74.164047,40.733826],[-74.164047,40.733853],[-74.164083,40.733853]],[[-74.163576,40.734209],[-74.16354,40.734181],[-74.16354,40.734209],[-74.163576,40.734209]],[[-74.138487,40.729137],[-74.138595,40.729247],[-74.138668,40.72911],[-74.138487,40.729137]],[[-74.155322,40.718291],[-74.155358,40.718318],[-74.155358,40.718291],[-74.155322,40.718291]],[[-74.155394,40.718264],[-74.15543,40.718291],[-74.15543,40.718264],[-74.155394,40.718264]],[[-74.155575,40.718209],[-74.155611,40.718237],[-74.155611,40.718209],[-74.155575,40.718209]],[[-74.156876,40.717829],[-74.156948,40.717856],[-74.156948,40.717829],[-74.156876,40.717829]],[[-74.159115,40.717286],[-74.159079,40.717259],[-74.159079,40.717286],[-74.159115,40.717286]],[[-74.158826,40.717341],[-74.158863,40.717313],[-74.158826,40.717313],[-74.158826,40.717341]],[[-74.158826,40.717313],[-74.158791,40.717285],[-74.15879,40.717313],[-74.158826,40.717313]],[[-74.160208,40.715176],[-74.160244,40.715149],[-74.160208,40.715149],[-74.160208,40.715176]],[[-74.161326,40.715371],[-74.161289,40.715399],[-74.161326,40.715399],[-74.161326,40.715371]],[[-74.161867,40.715428],[-74.161938,40.71551],[-74.161939,40.715456],[-74.161867,40.715428]],[[-74.162913,40.715458],[-74.162984,40.715514],[-74.162985,40.715486],[-74.162913,40.715458]],[[-74.162586,40.708677],[-74.16255,40.70865],[-74.16255,40.708677],[-74.162586,40.708677]],[[-74.16002,40.709548],[-74.159948,40.709521],[-74.159948,40.709548],[-74.16002,40.709548]],[[-74.159948,40.709521],[-74.159876,40.709493],[-74.159876,40.70952],[-74.159948,40.709521]],[[-74.157453,40.710858],[-74.157416,40.710886],[-74.157452,40.710886],[-74.157453,40.710858]],[[-74.151295,40.708644],[-74.151331,40.708671],[-74.151332,40.708644],[-74.151295,40.708644]],[[-74.154476,40.707418],[-74.154368,40.7075],[-74.154476,40.707528],[-74.154476,40.707418]],[[-74.153757,40.706894],[-74.153793,40.706922],[-74.153794,40.706894],[-74.153757,40.706894]],[[-74.153793,40.706922],[-74.153829,40.706949],[-74.153829,40.706922],[-74.153793,40.706922]],[[-74.153829,40.706949],[-74.153865,40.706977],[-74.153865,40.70695],[-74.153829,40.706949]],[[-74.153865,40.706977],[-74.153901,40.707005],[-74.153901,40.706977],[-74.153865,40.706977]],[[-74.153901,40.707005],[-74.153937,40.707032],[-74.153937,40.707005],[-74.153901,40.707005]],[[-74.153937,40.707032],[-74.153973,40.70706],[-74.153973,40.707032],[-74.153937,40.707032]],[[-74.153973,40.70706],[-74.154009,40.707087],[-74.154009,40.70706],[-74.153973,40.70706]],[[-74.154009,40.707087],[-74.154045,40.707115],[-74.154045,40.707087],[-74.154009,40.707087]],[[-74.153901,40.706977],[-74.153938,40.706922],[-74.153902,40.706922],[-74.153901,40.706977]],[[-74.153758,40.706867],[-74.153794,40.706812],[-74.153758,40.706812],[-74.153758,40.706867]],[[-74.15308,40.70541],[-74.153116,40.705465],[-74.153116,40.70541],[-74.15308,40.70541]],[[-74.191104,40.688718],[-74.191067,40.688746],[-74.191103,40.688746],[-74.191104,40.688718]],[[-74.193451,40.687901],[-74.193415,40.687874],[-74.193415,40.687901],[-74.193451,40.687901]],[[-74.197074,40.692248],[-74.197038,40.692275],[-74.197074,40.692275],[-74.197074,40.692248]],[[-74.19689,40.693016],[-74.196854,40.692961],[-74.196854,40.693016],[-74.19689,40.693016]],[[-74.193578,40.69965],[-74.193686,40.699678],[-74.193686,40.69965],[-74.193578,40.69965]],[[-74.193686,40.699678],[-74.193722,40.699705],[-74.193722,40.699678],[-74.193686,40.699678]],[[-74.195032,40.697046],[-74.19514,40.697074],[-74.195141,40.697047],[-74.195032,40.697046]],[[-74.19514,40.697074],[-74.195212,40.697102],[-74.195213,40.697074],[-74.19514,40.697074]],[[-74.195396,40.696416],[-74.195504,40.696444],[-74.195504,40.696416],[-74.195396,40.696416]],[[-74.195504,40.696444],[-74.195576,40.696471],[-74.195576,40.696444],[-74.195504,40.696444]],[[-74.195576,40.696471],[-74.195612,40.696499],[-74.195612,40.696471],[-74.195576,40.696471]],[[-74.201511,40.691985],[-74.201439,40.691957],[-74.201439,40.692012],[-74.201511,40.691985]],[[-74.19744,40.699029],[-74.197476,40.699002],[-74.19744,40.699002],[-74.19744,40.699029]],[[-74.195502,40.696938],[-74.195538,40.696883],[-74.195502,40.696883],[-74.195502,40.696938]],[[-74.194325,40.701985],[-74.19411,40.701628],[-74.191729,40.701759],[-74.191765,40.701594],[-74.190935,40.701784],[-74.191117,40.701428],[-74.190973,40.70129],[-74.190358,40.701838],[-74.187724,40.701968],[-74.187723,40.702132],[-74.190104,40.702029],[-74.189994,40.702413],[-74.190355,40.702469],[-74.190862,40.701976],[-74.191403,40.701978],[-74.190458,40.70354],[-74.190059,40.703923],[-74.189841,40.704362],[-74.189948,40.704554],[-74.19013,40.704308],[-74.190526,40.704418],[-74.190307,40.704912],[-74.190778,40.704501],[-74.190524,40.70494],[-74.190632,40.704995],[-74.191213,40.703954],[-74.190887,40.704392],[-74.190707,40.704309],[-74.190925,40.703843],[-74.190635,40.704281],[-74.190239,40.704116],[-74.190894,40.702855],[-74.191402,40.702087],[-74.194001,40.701792],[-74.194325,40.701985]],[[-74.19115,40.702004],[-74.191114,40.702032],[-74.19115,40.702032],[-74.19115,40.702004]],[[-74.189948,40.704636],[-74.189731,40.704828],[-74.189766,40.704883],[-74.189948,40.704636]],[[-74.189731,40.704828],[-74.189695,40.7048],[-74.189694,40.704828],[-74.189731,40.704828]],[[-74.190307,40.704912],[-74.190271,40.704939],[-74.190307,40.704939],[-74.190307,40.704912]],[[-74.190925,40.703843],[-74.190962,40.703816],[-74.190926,40.703816],[-74.190925,40.703843]],[[-74.191038,40.702828],[-74.191073,40.703047],[-74.191146,40.702855],[-74.191038,40.702828]],[[-74.210745,40.699942],[-74.210781,40.699969],[-74.210781,40.699942],[-74.210745,40.699942]]],[[[-74.163018,40.708871],[-74.162982,40.708898],[-74.162982,40.708871],[-74.163018,40.708871]]],[[[-74.163234,40.709036],[-74.163198,40.708981],[-74.163234,40.708981],[-74.163234,40.709036]]],[[[-74.158133,40.711821],[-74.158169,40.711794],[-74.158169,40.711821],[-74.158133,40.711821]]],[[[-74.158134,40.711656],[-74.157113,40.713794],[-74.155673,40.713214],[-74.157774,40.711436],[-74.158134,40.711656]]],[[[-74.157866,40.71473],[-74.157902,40.714703],[-74.157902,40.71473],[-74.157866,40.71473]]],[[[-74.157974,40.71473],[-74.15801,40.714785],[-74.157974,40.714785],[-74.157974,40.71473]]],[[[-74.158226,40.714813],[-74.158334,40.714786],[-74.158334,40.714814],[-74.158226,40.714813]]],[[[-74.158478,40.714842],[-74.158514,40.714897],[-74.158406,40.714814],[-74.158478,40.714842]]],[[[-74.158695,40.714897],[-74.158803,40.714897],[-74.158983,40.714925],[-74.158695,40.714897]]],[[[-74.158695,40.714897],[-74.158658,40.714924],[-74.158658,40.714897],[-74.158695,40.714897]]],[[[-74.158983,40.714953],[-74.159127,40.714926],[-74.159127,40.714953],[-74.158983,40.714953]]],[[[-74.159163,40.714953],[-74.159271,40.715009],[-74.159163,40.715008],[-74.159163,40.714953]]],[[[-74.160281,40.715012],[-74.160245,40.714984],[-74.160281,40.714984],[-74.160281,40.715012]]],[[[-74.159271,40.715009],[-74.159307,40.715036],[-74.159271,40.715036],[-74.159271,40.715009]]],[[[-74.159848,40.71512],[-74.159632,40.715037],[-74.15992,40.715065],[-74.159848,40.71512]]],[[[-74.159956,40.715093],[-74.160064,40.715148],[-74.159956,40.715148],[-74.159956,40.715093]]],[[[-74.1601,40.715176],[-74.160064,40.715148],[-74.1601,40.715148],[-74.1601,40.715176]]],[[[-74.156636,40.715303],[-74.1566,40.715248],[-74.156636,40.715248],[-74.156636,40.715303]]],[[[-74.1566,40.715303],[-74.156377,40.716565],[-74.155872,40.716591],[-74.1566,40.715303]]],[[[-74.160054,40.717179],[-74.16009,40.717152],[-74.16009,40.71718],[-74.160054,40.717179]]],[[[-74.159729,40.717206],[-74.159693,40.717233],[-74.159693,40.717206],[-74.159729,40.717206]]],[[[-74.163935,40.734484],[-74.163899,40.734512],[-74.163899,40.734484],[-74.163935,40.734484]]],[[[-74.163863,40.734512],[-74.163899,40.734539],[-74.163863,40.734539],[-74.163863,40.734512]]],[[[-74.163863,40.734539],[-74.163827,40.734566],[-74.163827,40.734539],[-74.163863,40.734539]]],[[[-74.163827,40.734566],[-74.16379,40.734594],[-74.16379,40.734566],[-74.163827,40.734566]]],[[[-74.163718,40.734648],[-74.163682,40.734621],[-74.163718,40.734621],[-74.163718,40.734648]]],[[[-74.163464,40.73484],[-74.163501,40.734813],[-74.1635,40.73484],[-74.163464,40.73484]]],[[[-74.163464,40.73484],[-74.163428,40.734867],[-74.163428,40.73484],[-74.163464,40.73484]]],[[[-74.163392,40.734867],[-74.163428,40.734895],[-74.163392,40.734895],[-74.163392,40.734867]]],[[[-74.163356,40.734922],[-74.16332,40.734894],[-74.163356,40.734894],[-74.163356,40.734922]]],[[[-74.16332,40.734922],[-74.163283,40.734949],[-74.163283,40.734922],[-74.16332,40.734922]]],[[[-74.163175,40.735031],[-74.163211,40.735004],[-74.163211,40.735031],[-74.163175,40.735031]]],[[[-74.163139,40.735031],[-74.163102,40.735058],[-74.163102,40.735031],[-74.163139,40.735031]]],[[[-74.163066,40.735058],[-74.163102,40.735086],[-74.163066,40.735086],[-74.163066,40.735058]]],[[[-74.162669,40.73514],[-74.162632,40.735222],[-74.162597,40.735167],[-74.162669,40.73514]]],[[[-74.16274,40.735332],[-74.162776,40.735305],[-74.162776,40.735332],[-74.16274,40.735332]]],[[[-74.162307,40.735331],[-74.162596,40.735222],[-74.16209,40.735522],[-74.162307,40.735331]]],[[[-74.162486,40.735578],[-74.162523,40.735414],[-74.162631,40.735414],[-74.162486,40.735578]]],[[[-74.162017,40.735522],[-74.162053,40.735577],[-74.161981,40.735577],[-74.162017,40.735522]]],[[[-74.161945,40.735577],[-74.161981,40.735604],[-74.161945,40.735604],[-74.161945,40.735577]]],[[[-74.161945,40.735604],[-74.161909,40.735631],[-74.161909,40.735604],[-74.161945,40.735604]]],[[[-74.16245,40.735578],[-74.16198,40.735851],[-74.161871,40.735851],[-74.16227,40.73555],[-74.16245,40.735578]]],[[[-74.161618,40.736042],[-74.161691,40.735905],[-74.161799,40.735933],[-74.161618,40.736042]]],[[[-74.163257,40.761603],[-74.163221,40.76163],[-74.163221,40.761603],[-74.163257,40.761603]]],[[[-74.163185,40.76163],[-74.163221,40.761658],[-74.163185,40.761658],[-74.163185,40.76163]]],[[[-74.163039,40.761987],[-74.16322,40.761768],[-74.163474,40.761604],[-74.163219,40.762042],[-74.163039,40.761987]]],[[[-74.168305,40.748304],[-74.167977,40.74899],[-74.168264,40.749402],[-74.168805,40.749349],[-74.16884,40.749678],[-74.168587,40.749733],[-74.169164,40.749844],[-74.169235,40.750064],[-74.168946,40.750118],[-74.168763,40.750529],[-74.168439,40.750364],[-74.168222,40.750528],[-74.16793,40.751103],[-74.167245,40.751101],[-74.166913,40.752363],[-74.166336,40.752252],[-74.166515,40.752719],[-74.166182,40.754173],[-74.166541,40.754695],[-74.166245,40.756012],[-74.16646,40.756342],[-74.166134,40.756561],[-74.165872,40.758564],[-74.165507,40.759276],[-74.164928,40.759549],[-74.164709,40.760125],[-74.164311,40.760289],[-74.163584,40.761165],[-74.16362,40.761302],[-74.163293,40.761603],[-74.163221,40.761548],[-74.163185,40.76163],[-74.163112,40.761658],[-74.159984,40.76637],[-74.159035,40.768343],[-74.159034,40.768563],[-74.158458,40.768287],[-74.158671,40.768836],[-74.157256,40.77026],[-74.157073,40.770643],[-74.157253,40.770864],[-74.157144,40.771055],[-74.157288,40.771001],[-74.157142,40.77133],[-74.155651,40.773384],[-74.155471,40.773301],[-74.155325,40.773575],[-74.155217,40.773602],[-74.15554,40.773878],[-74.154924,40.77437],[-74.154778,40.774699],[-74.155177,40.774398],[-74.155248,40.774591],[-74.154667,40.775111],[-74.154956,40.775084],[-74.155098,40.775661],[-74.154231,40.775741],[-74.153542,40.776205],[-74.153864,40.776892],[-74.153607,40.777743],[-74.15393,40.7781],[-74.153496,40.778236],[-74.15263,40.777959],[-74.152016,40.778067],[-74.152015,40.778314],[-74.152447,40.778563],[-74.152444,40.779002],[-74.15208,40.779605],[-74.152368,40.77988],[-74.151862,40.779961],[-74.15341,40.780816],[-74.152329,40.78042],[-74.149118,40.779843],[-74.149812,40.77828],[-74.150612,40.777267],[-74.151763,40.778039],[-74.151873,40.77771],[-74.151551,40.777215],[-74.151298,40.777351],[-74.15083,40.777075],[-74.154055,40.774889],[-74.153077,40.775353],[-74.152896,40.775517],[-74.15286,40.775517],[-74.152896,40.775599],[-74.152787,40.775681],[-74.150685,40.777048],[-74.150217,40.776744],[-74.153904,40.77338],[-74.155822,40.770247],[-74.157171,40.767025],[-74.161643,40.762036],[-74.163014,40.760089],[-74.163961,40.75797],[-74.165214,40.751123],[-74.165765,40.751124],[-74.165765,40.75096],[-74.165235,40.750986],[-74.1658,40.748133],[-74.166501,40.748189],[-74.166931,40.748822],[-74.167328,40.748768],[-74.167403,40.748247],[-74.167836,40.748358],[-74.168305,40.748304]],[[-74.161839,40.763575],[-74.161768,40.763465],[-74.161695,40.763602],[-74.161839,40.763575]],[[-74.157217,40.770863],[-74.157181,40.770891],[-74.157217,40.770891],[-74.157217,40.770863]],[[-74.155942,40.772946],[-74.155906,40.772918],[-74.155906,40.772946],[-74.155942,40.772946]],[[-74.15587,40.773],[-74.155762,40.77289],[-74.15569,40.772918],[-74.15587,40.773]],[[-74.15587,40.773055],[-74.155834,40.773028],[-74.155833,40.773055],[-74.15587,40.773055]],[[-74.155833,40.77311],[-74.155797,40.773083],[-74.155797,40.77311],[-74.155833,40.77311]],[[-74.155543,40.773301],[-74.15558,40.773274],[-74.155543,40.773274],[-74.155543,40.773301]],[[-74.155398,40.773411],[-74.155362,40.773383],[-74.155362,40.773411],[-74.155398,40.773411]],[[-74.15518,40.773822],[-74.155071,40.773849],[-74.155071,40.773904],[-74.15518,40.773822]],[[-74.155071,40.773904],[-74.155035,40.773931],[-74.155071,40.773931],[-74.155071,40.773904]],[[-74.154055,40.774862],[-74.154091,40.774834],[-74.154055,40.774834],[-74.154055,40.774862]],[[-74.154091,40.774834],[-74.154127,40.774807],[-74.154091,40.774807],[-74.154091,40.774834]],[[-74.154091,40.774779],[-74.154164,40.774752],[-74.154092,40.774725],[-74.154091,40.774779]],[[-74.15286,40.775544],[-74.152823,40.775572],[-74.15286,40.775572],[-74.15286,40.775544]],[[-74.151374,40.776528],[-74.151302,40.7765],[-74.151302,40.776528],[-74.151374,40.776528]]],[[[-74.159981,40.767001],[-74.159835,40.76722],[-74.159908,40.767001],[-74.159981,40.767001]]],[[[-74.15907,40.768481],[-74.159107,40.768399],[-74.159106,40.768481],[-74.15907,40.768481]]],[[[-74.158588,40.771115],[-74.15845,40.769824],[-74.158848,40.769606],[-74.159177,40.768865],[-74.158658,40.771389],[-74.157711,40.772979],[-74.158588,40.771115]]],[[[-74.157289,40.770919],[-74.157361,40.770891],[-74.157361,40.770946],[-74.157289,40.770919]]],[[[-74.157324,40.771001],[-74.157252,40.770946],[-74.157325,40.770946],[-74.157324,40.771001]]],[[[-74.154564,40.781204],[-74.156582,40.782006],[-74.156581,40.782122],[-74.154564,40.781204]]],[[[-74.151173,40.704526],[-74.150885,40.704443],[-74.150921,40.70436],[-74.151173,40.704471],[-74.151173,40.704526]]],[[[-74.149074,40.705782],[-74.149002,40.705782],[-74.149002,40.705755],[-74.149074,40.705755],[-74.149074,40.705782]]],[[[-74.149074,40.70581],[-74.149074,40.705782],[-74.149146,40.705782],[-74.149146,40.70581],[-74.149074,40.70581]]],[[[-74.149218,40.705838],[-74.149146,40.70581],[-74.149218,40.70581],[-74.149218,40.705838]]],[[[-74.150156,40.70584],[-74.150084,40.705868],[-74.150084,40.70584],[-74.150156,40.70584]]],[[[-74.153326,40.706646],[-74.151092,40.70609],[-74.1516,40.705515],[-74.152106,40.705434],[-74.152753,40.705821],[-74.153326,40.706646]]],[[[-74.149218,40.705838],[-74.150766,40.706336],[-74.150692,40.706693],[-74.150404,40.706747],[-74.15001,40.706197],[-74.149218,40.705838]]],[[[-74.149684,40.70636],[-74.149612,40.706443],[-74.149648,40.70636],[-74.149684,40.70636]]],[[[-74.150945,40.706694],[-74.150946,40.706419],[-74.151162,40.706502],[-74.150945,40.706694]]],[[[-74.151305,40.706722],[-74.15127,40.70653],[-74.151486,40.706613],[-74.151305,40.706722]]],[[[-74.153325,40.706811],[-74.15192,40.706532],[-74.15192,40.706477],[-74.153325,40.706811]]],[[[-74.151558,40.706641],[-74.151486,40.706668],[-74.151486,40.70664],[-74.151558,40.706641]]],[[[-74.151738,40.706724],[-74.151702,40.706696],[-74.151738,40.706696],[-74.151738,40.706724]]],[[[-74.15347,40.706756],[-74.153542,40.706702],[-74.153542,40.706756],[-74.15347,40.706756]]],[[[-74.153721,40.706894],[-74.153685,40.706867],[-74.153722,40.706867],[-74.153721,40.706894]]],[[[-74.153252,40.706948],[-74.153577,40.706921],[-74.153648,40.707059],[-74.153252,40.706948]]],[[[-74.151592,40.70708],[-74.151738,40.706724],[-74.152279,40.706862],[-74.152816,40.707633],[-74.152347,40.707686],[-74.152204,40.707301],[-74.151916,40.707328],[-74.152025,40.706999],[-74.151592,40.70708]],[[-74.152025,40.706999],[-74.152062,40.706972],[-74.152026,40.706971],[-74.152025,40.706999]]],[[[-74.153575,40.70736],[-74.153321,40.707524],[-74.153322,40.707387],[-74.153575,40.70736]]],[[[-74.150103,40.709079],[-74.150176,40.708915],[-74.150284,40.708888],[-74.150103,40.709079]]],[[[-74.150067,40.709079],[-74.150103,40.709107],[-74.150067,40.709107],[-74.150067,40.709079]]],[[[-74.150067,40.709107],[-74.15003,40.709161],[-74.150031,40.709107],[-74.150067,40.709107]]],[[[-74.15003,40.709161],[-74.149994,40.709189],[-74.149994,40.709161],[-74.15003,40.709161]]],[[[-74.149958,40.709189],[-74.149994,40.709216],[-74.149958,40.709216],[-74.149958,40.709189]]],[[[-74.149921,40.709298],[-74.149885,40.709243],[-74.149922,40.709243],[-74.149921,40.709298]]],[[[-74.149885,40.709298],[-74.149849,40.709326],[-74.149849,40.709298],[-74.149885,40.709298]]],[[[-74.149813,40.709325],[-74.149849,40.709353],[-74.149813,40.709353],[-74.149813,40.709325]]],[[[-74.149777,40.709353],[-74.149813,40.70938],[-74.149777,40.70938],[-74.149777,40.709353]]],[[[-74.14974,40.70938],[-74.149776,40.709408],[-74.14974,40.709408],[-74.14974,40.70938]]],[[[-74.14974,40.709463],[-74.149704,40.709435],[-74.14974,40.709435],[-74.14974,40.709463]]],[[[-74.149704,40.709462],[-74.149668,40.70949],[-74.149668,40.709462],[-74.149704,40.709462]]],[[[-74.149632,40.70949],[-74.149668,40.709517],[-74.149632,40.709517],[-74.149632,40.70949]]],[[[-74.149632,40.709517],[-74.149595,40.709544],[-74.149595,40.709517],[-74.149632,40.709517]]],[[[-74.149595,40.709544],[-74.149559,40.709572],[-74.149559,40.709544],[-74.149595,40.709544]]],[[[-74.155528,40.713296],[-74.155673,40.713214],[-74.155528,40.713323],[-74.155528,40.713296]]],[[[-74.154801,40.714282],[-74.15664,40.714507],[-74.155584,40.716452],[-74.154395,40.716092],[-74.153349,40.716171],[-74.153242,40.715787],[-74.153675,40.715898],[-74.153929,40.715651],[-74.15357,40.715239],[-74.154006,40.714609],[-74.154801,40.714282]],[[-74.154873,40.714392],[-74.154945,40.714447],[-74.154981,40.714392],[-74.154873,40.714392]],[[-74.154981,40.714419],[-74.155017,40.714474],[-74.155017,40.714419],[-74.154981,40.714419]]],[[[-74.152265,40.716525],[-74.1523,40.716552],[-74.152264,40.716552],[-74.152265,40.716525]]],[[[-74.155798,40.716837],[-74.156158,40.717058],[-74.156157,40.717333],[-74.155616,40.717194],[-74.155798,40.716837]]],[[[-74.155436,40.717138],[-74.155508,40.717221],[-74.155436,40.717221],[-74.155436,40.717138]]],[[[-74.154238,40.718535],[-74.155254,40.71744],[-74.155577,40.717715],[-74.156299,40.717662],[-74.156698,40.717279],[-74.157888,40.717475],[-74.15619,40.717799],[-74.154238,40.718535]]],[[[-74.155213,40.718345],[-74.155177,40.718318],[-74.155214,40.718318],[-74.155213,40.718345]]],[[[-74.152735,40.716279],[-74.15443,40.716339],[-74.155402,40.716781],[-74.153806,40.718506],[-74.147727,40.721809],[-74.147692,40.721589],[-74.150049,40.7194],[-74.151685,40.716962],[-74.152156,40.716497],[-74.152735,40.716279]]],[[[-74.149208,40.721429],[-74.149209,40.721347],[-74.149245,40.721347],[-74.149208,40.721429]]],[[[-74.149028,40.721429],[-74.149136,40.721456],[-74.149028,40.721456],[-74.149028,40.721429]]],[[[-74.148811,40.721565],[-74.148847,40.721538],[-74.148847,40.721565],[-74.148811,40.721565]]],[[[-74.148811,40.721565],[-74.148774,40.721593],[-74.148775,40.721565],[-74.148811,40.721565]]],[[[-74.153077,40.775408],[-74.153113,40.77538],[-74.153113,40.775408],[-74.153077,40.775408]]],[[[-74.153041,40.775408],[-74.153077,40.775435],[-74.153041,40.775435],[-74.153041,40.775408]]],[[[-74.153005,40.775435],[-74.153041,40.775463],[-74.153005,40.775462],[-74.153005,40.775435]]],[[[-74.152968,40.77549],[-74.153005,40.775462],[-74.153004,40.77549],[-74.152968,40.77549]]],[[[-74.152932,40.775517],[-74.152968,40.77549],[-74.152968,40.775517],[-74.152932,40.775517]]],[[[-74.152932,40.775545],[-74.152896,40.775517],[-74.152932,40.775517],[-74.152932,40.775545]]],[[[-74.149631,40.778334],[-74.149157,40.779349],[-74.149048,40.779376],[-74.149046,40.779815],[-74.148938,40.779786],[-74.148938,40.77976],[-74.149049,40.779156],[-74.148829,40.779752],[-74.148329,40.779601],[-74.148635,40.778535],[-74.150181,40.776799],[-74.150613,40.77713],[-74.149631,40.778334]],[[-74.14934,40.778855],[-74.149304,40.778828],[-74.149304,40.778855],[-74.14934,40.778855]],[[-74.149303,40.77891],[-74.149267,40.778882],[-74.149267,40.77891],[-74.149303,40.77891]],[[-74.149267,40.778992],[-74.149231,40.778965],[-74.149231,40.778992],[-74.149267,40.778992]],[[-74.14923,40.779074],[-74.149194,40.779047],[-74.149194,40.779074],[-74.14923,40.779074]],[[-74.149194,40.779157],[-74.149158,40.779129],[-74.149158,40.779157],[-74.149194,40.779157]],[[-74.148974,40.77976],[-74.14901,40.779787],[-74.14901,40.77976],[-74.148974,40.77976]],[[-74.149778,40.778005],[-74.149742,40.777978],[-74.149741,40.778005],[-74.149778,40.778005]]],[[[-74.149084,40.779376],[-74.14912,40.779403],[-74.149084,40.779403],[-74.149084,40.779376]]],[[[-74.15341,40.780836],[-74.154348,40.781039],[-74.154455,40.781176],[-74.15341,40.780836]]],[[[-74.148714,40.705671],[-74.14875,40.705644],[-74.14875,40.705671],[-74.148714,40.705671]]],[[[-74.148786,40.705699],[-74.148822,40.705672],[-74.148822,40.705699],[-74.148786,40.705699]]],[[[-74.148894,40.705727],[-74.148858,40.705699],[-74.148894,40.705699],[-74.148894,40.705727]]],[[[-74.149002,40.705755],[-74.14893,40.705727],[-74.149002,40.705727],[-74.149002,40.705755]]],[[[-74.140159,40.706853],[-74.140195,40.70688],[-74.140159,40.70688],[-74.140159,40.706853]]],[[[-74.139906,40.706879],[-74.13987,40.706852],[-74.139906,40.706852],[-74.139906,40.706879]]],[[[-74.140231,40.70688],[-74.140267,40.706908],[-74.140231,40.706908],[-74.140231,40.70688]]],[[[-74.140375,40.706936],[-74.140303,40.706908],[-74.140375,40.706908],[-74.140375,40.706936]]],[[[-74.140447,40.706963],[-74.140375,40.706963],[-74.140375,40.706936],[-74.140447,40.706936],[-74.140447,40.706963]]],[[[-74.140446,40.706991],[-74.140447,40.706963],[-74.140519,40.706964],[-74.140519,40.706991],[-74.140446,40.706991]]],[[[-74.140627,40.707019],[-74.140519,40.706991],[-74.140627,40.706991],[-74.140627,40.707019]]],[[[-74.140699,40.707047],[-74.140627,40.707046],[-74.140627,40.707019],[-74.140699,40.707019],[-74.140699,40.707047]]],[[[-74.140699,40.707074],[-74.140699,40.707047],[-74.140771,40.707047],[-74.140771,40.707074],[-74.140699,40.707074]]],[[[-74.140843,40.707102],[-74.140771,40.707074],[-74.140843,40.707074],[-74.140843,40.707102]]],[[[-74.140915,40.707102],[-74.140843,40.707129],[-74.140843,40.707102],[-74.140915,40.707102]]],[[[-74.141743,40.707434],[-74.141815,40.707462],[-74.141743,40.707462],[-74.141743,40.707434]]],[[[-74.141634,40.707461],[-74.141671,40.707434],[-74.14167,40.707461],[-74.141634,40.707461]]],[[[-74.14203,40.707627],[-74.141994,40.7076],[-74.14203,40.7076],[-74.14203,40.707627]]],[[[-74.142066,40.707627],[-74.142102,40.707655],[-74.142066,40.707655],[-74.142066,40.707627]]],[[[-74.142138,40.707655],[-74.142174,40.707683],[-74.142138,40.707682],[-74.142138,40.707655]]],[[[-74.142246,40.707683],[-74.14221,40.70771],[-74.14221,40.707683],[-74.142246,40.707683]]],[[[-74.14221,40.707765],[-74.142246,40.707738],[-74.142246,40.707765],[-74.14221,40.707765]]],[[[-74.142318,40.707793],[-74.142282,40.707765],[-74.142318,40.707765],[-74.142318,40.707793]]],[[[-74.14239,40.707793],[-74.142354,40.70782],[-74.142354,40.707793],[-74.14239,40.707793]]],[[[-74.14275,40.707931],[-74.142714,40.707959],[-74.142714,40.707931],[-74.14275,40.707931]]],[[[-74.142786,40.707959],[-74.142822,40.707986],[-74.142786,40.707986],[-74.142786,40.707959]]],[[[-74.14869,40.710255],[-74.148726,40.710228],[-74.148726,40.710256],[-74.14869,40.710255]]],[[[-74.14869,40.710255],[-74.148654,40.710283],[-74.148654,40.710255],[-74.14869,40.710255]]],[[[-74.148581,40.710283],[-74.148617,40.710338],[-74.148545,40.710337],[-74.148581,40.710283]]],[[[-74.148545,40.710392],[-74.148509,40.710337],[-74.148545,40.710337],[-74.148545,40.710392]]],[[[-74.148436,40.710447],[-74.1484,40.710419],[-74.148436,40.710419],[-74.148436,40.710447]]],[[[-74.148364,40.710447],[-74.1484,40.710474],[-74.148364,40.710474],[-74.148364,40.710447]]],[[[-74.148364,40.710474],[-74.148328,40.710501],[-74.148328,40.710474],[-74.148364,40.710474]]],[[[-74.148328,40.710501],[-74.148292,40.710529],[-74.148292,40.710501],[-74.148328,40.710501]]],[[[-74.148255,40.710529],[-74.148291,40.710556],[-74.148255,40.710556],[-74.148255,40.710529]]],[[[-74.137986,40.715136],[-74.13795,40.715108],[-74.137986,40.715108],[-74.137986,40.715136]]],[[[-74.137697,40.715162],[-74.137552,40.715217],[-74.137806,40.715053],[-74.137697,40.715162]]],[[[-74.137913,40.715136],[-74.137949,40.715163],[-74.137913,40.715163],[-74.137913,40.715136]]],[[[-74.137552,40.715217],[-74.137516,40.715244],[-74.137516,40.715217],[-74.137552,40.715217]]],[[[-74.137516,40.715244],[-74.13748,40.715272],[-74.13748,40.715244],[-74.137516,40.715244]]],[[[-74.137913,40.715163],[-74.137659,40.715409],[-74.137551,40.715409],[-74.137913,40.715163]]],[[[-74.147875,40.721096],[-74.147911,40.721068],[-74.147911,40.721096],[-74.147875,40.721096]]],[[[-74.138457,40.721396],[-74.138421,40.721368],[-74.138457,40.721369],[-74.138457,40.721396]]],[[[-74.150801,40.713501],[-74.154008,40.714334],[-74.151509,40.716083],[-74.151291,40.716385],[-74.151688,40.716358],[-74.151578,40.71677],[-74.150524,40.718167],[-74.148201,40.720877],[-74.147983,40.721069],[-74.147875,40.721041],[-74.147839,40.721068],[-74.147875,40.721151],[-74.147621,40.721397],[-74.145846,40.722709],[-74.141322,40.725358],[-74.140855,40.724945],[-74.14053,40.724998],[-74.140606,40.724367],[-74.140065,40.724283],[-74.139883,40.724475],[-74.140206,40.724943],[-74.139879,40.725326],[-74.140491,40.725547],[-74.140309,40.725876],[-74.139625,40.725462],[-74.13919,40.725955],[-74.138793,40.725899],[-74.138971,40.726394],[-74.13868,40.726859],[-74.13727,40.727404],[-74.135965,40.728388],[-74.133903,40.729425],[-74.133472,40.728957],[-74.133433,40.729643],[-74.132382,40.730408],[-74.130646,40.731034],[-74.13036,40.730703],[-74.130107,40.73073],[-74.129644,40.729576],[-74.130408,40.728535],[-74.130265,40.728315],[-74.130047,40.728424],[-74.12994,40.728341],[-74.132479,40.725906],[-74.13756,40.727021],[-74.133345,40.725964],[-74.133562,40.725855],[-74.132878,40.725578],[-74.133528,40.725443],[-74.133312,40.72525],[-74.133457,40.725251],[-74.133565,40.725169],[-74.13371,40.725169],[-74.133747,40.725005],[-74.135446,40.724406],[-74.138312,40.721423],[-74.138457,40.721423],[-74.138565,40.721341],[-74.138857,40.720793],[-74.138678,40.720491],[-74.138931,40.720409],[-74.138463,40.720325],[-74.138145,40.718979],[-74.138686,40.719063],[-74.138759,40.718872],[-74.138582,40.718295],[-74.137792,40.717606],[-74.137215,40.717439],[-74.136267,40.719358],[-74.136159,40.719248],[-74.137253,40.71711],[-74.139176,40.715195],[-74.142395,40.71353],[-74.14398,40.713974],[-74.144853,40.712769],[-74.146734,40.711814],[-74.14821,40.712258],[-74.150801,40.713501]],[[-74.151327,40.71644],[-74.151146,40.716549],[-74.151254,40.716632],[-74.151327,40.71644]],[[-74.151146,40.716549],[-74.15111,40.716576],[-74.151146,40.716576],[-74.151146,40.716549]],[[-74.147911,40.721041],[-74.147948,40.721014],[-74.147912,40.721014],[-74.147911,40.721041]],[[-74.147766,40.721205],[-74.14773,40.721178],[-74.14773,40.721205],[-74.147766,40.721205]],[[-74.147404,40.721479],[-74.14744,40.721451],[-74.147404,40.721451],[-74.147404,40.721479]],[[-74.14744,40.721451],[-74.147477,40.721424],[-74.14744,40.721424],[-74.14744,40.721451]],[[-74.130265,40.728315],[-74.130301,40.728288],[-74.130265,40.728288],[-74.130265,40.728315]],[[-74.138312,40.72156],[-74.138167,40.72167],[-74.138202,40.721752],[-74.138312,40.72156]],[[-74.13813,40.721724],[-74.138093,40.721916],[-74.13784,40.722053],[-74.137912,40.722108],[-74.137658,40.722244],[-74.137658,40.722299],[-74.137586,40.722327],[-74.137586,40.722382],[-74.137549,40.722381],[-74.137549,40.722491],[-74.136751,40.723312],[-74.137003,40.723313],[-74.137765,40.722464],[-74.137694,40.722272],[-74.137838,40.722382],[-74.138055,40.722218],[-74.13813,40.721724]],[[-74.137513,40.722491],[-74.137477,40.722464],[-74.137477,40.722491],[-74.137513,40.722491]],[[-74.13675,40.72334],[-74.136207,40.723777],[-74.13617,40.723997],[-74.136495,40.723805],[-74.136894,40.723422],[-74.13675,40.72334]],[[-74.136606,40.723449],[-74.13657,40.723421],[-74.136569,40.723449],[-74.136606,40.723449]],[[-74.138931,40.720437],[-74.139039,40.720465],[-74.139039,40.720437],[-74.138931,40.720437]],[[-74.139039,40.720465],[-74.139111,40.720492],[-74.139111,40.720465],[-74.139039,40.720465]],[[-74.152386,40.714],[-74.152277,40.714054],[-74.152386,40.714055],[-74.152386,40.714]],[[-74.152386,40.714055],[-74.152458,40.714082],[-74.152458,40.714055],[-74.152386,40.714055]]],[[[-74.148738,40.72162],[-74.148702,40.721592],[-74.148738,40.721592],[-74.148738,40.72162]]],[[[-74.148702,40.72162],[-74.148666,40.721647],[-74.148666,40.72162],[-74.148702,40.72162]]],[[[-74.148594,40.721647],[-74.14863,40.721702],[-74.148557,40.721702],[-74.148594,40.721647]]],[[[-74.148557,40.721702],[-74.148485,40.721729],[-74.148485,40.721702],[-74.148557,40.721702]]],[[[-74.148485,40.721729],[-74.148449,40.721756],[-74.148449,40.721729],[-74.148485,40.721729]]],[[[-74.148413,40.721756],[-74.148449,40.721784],[-74.148413,40.721784],[-74.148413,40.721756]]],[[[-74.148413,40.721784],[-74.14834,40.721811],[-74.148341,40.721783],[-74.148413,40.721784]]],[[[-74.13773,40.722272],[-74.137767,40.722245],[-74.137767,40.722272],[-74.13773,40.722272]]],[[[-74.137621,40.722409],[-74.137586,40.722382],[-74.137622,40.722382],[-74.137621,40.722409]]],[[[-74.147001,40.72263],[-74.147037,40.722658],[-74.147001,40.722658],[-74.147001,40.72263]]],[[[-74.129791,40.703087],[-74.129863,40.703114],[-74.129791,40.703114],[-74.129791,40.703087]]],[[[-74.149864,40.706443],[-74.150149,40.707185],[-74.149386,40.708226],[-74.149603,40.708172],[-74.149565,40.708419],[-74.147789,40.709978],[-74.145583,40.711069],[-74.14544,40.710904],[-74.1458,40.710933],[-74.146597,40.710414],[-74.146526,40.710112],[-74.142386,40.708479],[-74.140264,40.707402],[-74.139616,40.707208],[-74.138966,40.707288],[-74.137131,40.706349],[-74.136806,40.706458],[-74.135656,40.705713],[-74.136845,40.705964],[-74.142822,40.708041],[-74.14293,40.708014],[-74.141815,40.707407],[-74.141743,40.707407],[-74.141743,40.707434],[-74.141707,40.707434],[-74.141635,40.707379],[-74.141599,40.707406],[-74.140915,40.707157],[-74.141167,40.70713],[-74.139836,40.706577],[-74.137171,40.70569],[-74.137748,40.705665],[-74.137461,40.705417],[-74.137064,40.705553],[-74.135874,40.70533],[-74.134939,40.704832],[-74.134758,40.704942],[-74.13087,40.703557],[-74.130763,40.703447],[-74.131015,40.70353],[-74.131123,40.703503],[-74.129071,40.702755],[-74.129791,40.703087],[-74.129647,40.703086],[-74.129502,40.703058],[-74.12745,40.702448],[-74.127379,40.702255],[-74.127847,40.702422],[-74.127955,40.702367],[-74.127379,40.702173],[-74.127416,40.702063],[-74.126912,40.701925],[-74.126804,40.701814],[-74.126084,40.701592],[-74.125506,40.701728],[-74.12457,40.701368],[-74.116046,40.697297],[-74.117536,40.695169],[-74.140364,40.702187],[-74.143244,40.703239],[-74.146877,40.705117],[-74.149541,40.706195],[-74.149864,40.706443]],[[-74.149566,40.708254],[-74.14953,40.708227],[-74.14953,40.708254],[-74.149566,40.708254]],[[-74.142894,40.708069],[-74.143074,40.708152],[-74.143146,40.708152],[-74.14311,40.70807],[-74.142894,40.708069]],[[-74.143146,40.708152],[-74.143218,40.70818],[-74.143218,40.708152],[-74.143146,40.708152]],[[-74.137785,40.705583],[-74.137821,40.705555],[-74.137785,40.705555],[-74.137785,40.705583]],[[-74.131231,40.703531],[-74.132383,40.704028],[-74.132743,40.704112],[-74.131231,40.703531]],[[-74.132743,40.704112],[-74.132815,40.704139],[-74.132815,40.704112],[-74.132743,40.704112]],[[-74.132815,40.704139],[-74.132887,40.704167],[-74.132887,40.70414],[-74.132815,40.704139]],[[-74.130547,40.703281],[-74.130583,40.703254],[-74.130547,40.703254],[-74.130547,40.703281]],[[-74.128855,40.702754],[-74.128891,40.702727],[-74.128747,40.702672],[-74.128855,40.702754]],[[-74.127955,40.702395],[-74.127991,40.702422],[-74.127991,40.702395],[-74.127955,40.702395]],[[-74.127488,40.702146],[-74.12756,40.702174],[-74.12756,40.702146],[-74.127488,40.702146]],[[-74.127164,40.70198],[-74.1272,40.701953],[-74.127164,40.701953],[-74.127164,40.70198]],[[-74.127056,40.701952],[-74.127092,40.701925],[-74.127056,40.701925],[-74.127056,40.701952]],[[-74.126912,40.701897],[-74.126948,40.70187],[-74.126912,40.70187],[-74.126912,40.701897]],[[-74.126948,40.701815],[-74.128065,40.70212],[-74.12875,40.702178],[-74.128392,40.701627],[-74.126948,40.701815]],[[-74.125976,40.701592],[-74.125904,40.701564],[-74.125904,40.701592],[-74.125976,40.701592]],[[-74.149648,40.706333],[-74.149539,40.706442],[-74.14972,40.706498],[-74.14972,40.706333],[-74.149648,40.706333]]],[[[-74.129863,40.703114],[-74.129935,40.703142],[-74.129863,40.703142],[-74.129863,40.703114]]],[[[-74.129935,40.703142],[-74.130007,40.70317],[-74.129935,40.70317],[-74.129935,40.703142]]],[[[-74.130007,40.703197],[-74.130079,40.70317],[-74.130079,40.703197],[-74.130007,40.703197]]],[[[-74.130151,40.703225],[-74.130115,40.703198],[-74.130151,40.703198],[-74.130151,40.703225]]],[[[-74.130151,40.703225],[-74.130223,40.703253],[-74.130151,40.703253],[-74.130151,40.703225]]],[[[-74.130331,40.703253],[-74.130295,40.703308],[-74.130259,40.703253],[-74.130331,40.703253]]],[[[-74.130403,40.703308],[-74.130511,40.703391],[-74.130403,40.703363],[-74.130403,40.703308]]],[[[-74.130763,40.703447],[-74.130619,40.703391],[-74.130763,40.703419],[-74.130763,40.703447]]],[[[-74.129601,40.70487],[-74.129529,40.70487],[-74.129493,40.704843],[-74.129601,40.70487]]],[[[-74.129996,40.705201],[-74.129959,40.705228],[-74.12996,40.705201],[-74.129996,40.705201]]],[[[-74.137171,40.705636],[-74.137099,40.705663],[-74.137099,40.705635],[-74.137171,40.705636]]],[[[-74.13748,40.715272],[-74.137444,40.715299],[-74.137444,40.715271],[-74.13748,40.715272]]],[[[-74.137444,40.715299],[-74.137407,40.715326],[-74.137407,40.715299],[-74.137444,40.715299]]],[[[-74.137371,40.715326],[-74.137407,40.715354],[-74.137371,40.715354],[-74.137371,40.715326]]],[[[-74.130929,40.705918],[-74.133624,40.707848],[-74.139276,40.710034],[-74.139885,40.710695],[-74.141147,40.710836],[-74.140067,40.710421],[-74.140645,40.710368],[-74.145076,40.711397],[-74.143993,40.711668],[-74.139292,40.713658],[-74.136831,40.715132],[-74.134983,40.716664],[-74.134292,40.71765],[-74.133998,40.718555],[-74.133919,40.719927],[-74.134272,40.721301],[-74.133768,40.721134],[-74.133551,40.721298],[-74.132782,40.723327],[-74.131544,40.7253],[-74.129201,40.724908],[-74.126067,40.723964],[-74.128732,40.724906],[-74.131506,40.725601],[-74.130309,40.726833],[-74.12857,40.728062],[-74.127739,40.728252],[-74.128171,40.728473],[-74.127235,40.728141],[-74.126621,40.728166],[-74.126838,40.728112],[-74.126766,40.728029],[-74.12579,40.72841],[-74.125607,40.728822],[-74.126908,40.728441],[-74.127699,40.728883],[-74.127699,40.728911],[-74.127663,40.728911],[-74.127663,40.728938],[-74.127699,40.72902],[-74.127554,40.729157],[-74.127698,40.729185],[-74.127517,40.729294],[-74.127516,40.729377],[-74.127697,40.729405],[-74.127806,40.729268],[-74.127878,40.729296],[-74.126499,40.730664],[-74.126211,40.730525],[-74.126646,40.730088],[-74.126574,40.730032],[-74.126575,40.729978],[-74.126647,40.729895],[-74.126503,40.729813],[-74.126214,40.729976],[-74.126362,40.729373],[-74.12611,40.729262],[-74.125675,40.729535],[-74.12531,40.730275],[-74.125416,40.730715],[-74.124508,40.731728],[-74.123633,40.733344],[-74.123408,40.734908],[-74.122035,40.735069],[-74.117414,40.734916],[-74.117827,40.732502],[-74.119954,40.733003],[-74.120061,40.733223],[-74.120206,40.733086],[-74.120565,40.733444],[-74.120598,40.733938],[-74.120164,40.734211],[-74.120741,40.734186],[-74.120992,40.734544],[-74.119839,40.734293],[-74.119621,40.734457],[-74.120593,40.734899],[-74.121098,40.734956],[-74.120486,40.734652],[-74.121424,40.73471],[-74.122039,40.734437],[-74.122366,40.734054],[-74.123278,40.732273],[-74.123134,40.732217],[-74.123061,40.732299],[-74.123171,40.732053],[-74.123027,40.732025],[-74.122409,40.732736],[-74.121542,40.732926],[-74.121254,40.732842],[-74.121293,40.732403],[-74.12028,40.732867],[-74.117863,40.73231],[-74.120642,40.722955],[-74.120962,40.720012],[-74.120551,40.717436],[-74.116105,40.709156],[-74.114309,40.704609],[-74.114097,40.702284],[-74.114315,40.700569],[-74.116009,40.69736],[-74.122591,40.700565],[-74.122986,40.700978],[-74.127337,40.703244],[-74.128344,40.703851],[-74.12942,40.704842],[-74.129708,40.705035],[-74.12978,40.705008],[-74.129959,40.705256],[-74.130068,40.705229],[-74.130821,40.705917],[-74.130929,40.705918]],[[-74.126838,40.728112],[-74.12691,40.728139],[-74.12691,40.728112],[-74.126838,40.728112]],[[-74.126465,40.730307],[-74.126537,40.730252],[-74.126465,40.730279],[-74.126465,40.730307]],[[-74.126537,40.730252],[-74.126573,40.730225],[-74.126537,40.730224],[-74.126537,40.730252]],[[-74.126611,40.730033],[-74.126647,40.730005],[-74.126611,40.730005],[-74.126611,40.730033]],[[-74.126647,40.730005],[-74.126683,40.729978],[-74.126647,40.729978],[-74.126647,40.730005]],[[-74.126683,40.729978],[-74.126719,40.729951],[-74.126683,40.72995],[-74.126683,40.729978]],[[-74.126503,40.729813],[-74.12654,40.729785],[-74.126504,40.729785],[-74.126503,40.729813]],[[-74.126359,40.729895],[-74.126323,40.729867],[-74.126323,40.729894],[-74.126359,40.729895]],[[-74.121257,40.732403],[-74.121221,40.732348],[-74.121221,40.732403],[-74.121257,40.732403]],[[-74.121221,40.732348],[-74.121185,40.732321],[-74.121185,40.732348],[-74.121221,40.732348]],[[-74.121185,40.732321],[-74.121149,40.732293],[-74.121149,40.732321],[-74.121185,40.732321]],[[-74.124712,40.70189],[-74.124639,40.701945],[-74.124711,40.701945],[-74.124712,40.70189]],[[-74.124784,40.701945],[-74.124747,40.702],[-74.124783,40.702],[-74.124784,40.701945]],[[-74.128595,40.704153],[-74.128558,40.704181],[-74.128595,40.704181],[-74.128595,40.704153]],[[-74.129852,40.705118],[-74.129816,40.705146],[-74.129852,40.705146],[-74.129852,40.705118]],[[-74.131217,40.706138],[-74.131181,40.706166],[-74.131217,40.706166],[-74.131217,40.706138]]],[[[-74.135669,40.716638],[-74.135633,40.716611],[-74.135669,40.716611],[-74.135669,40.716638]]],[[[-74.13556,40.716665],[-74.135632,40.716693],[-74.13556,40.71672],[-74.13556,40.716665]]],[[[-74.13556,40.71672],[-74.135523,40.716775],[-74.135524,40.71672],[-74.13556,40.71672]]],[[[-74.136245,40.71675],[-74.136064,40.716942],[-74.135775,40.716886],[-74.135993,40.716639],[-74.136245,40.71675]]],[[[-74.136713,40.716916],[-74.136677,40.716971],[-74.136677,40.716916],[-74.136713,40.716916]]],[[[-74.136677,40.716971],[-74.136641,40.716998],[-74.136641,40.716971],[-74.136677,40.716971]]],[[[-74.136641,40.716998],[-74.136604,40.717053],[-74.136605,40.716998],[-74.136641,40.716998]]],[[[-74.136568,40.717053],[-74.136604,40.717108],[-74.136568,40.717108],[-74.136568,40.717053]]],[[[-74.136784,40.717109],[-74.136893,40.716972],[-74.136675,40.717245],[-74.136784,40.717109]]],[[[-74.136568,40.717108],[-74.136532,40.717163],[-74.136532,40.717108],[-74.136568,40.717108]]],[[[-74.134836,40.71713],[-74.134398,40.717979],[-74.134326,40.717979],[-74.134509,40.717541],[-74.134836,40.71713]]],[[[-74.134935,40.718887],[-74.134971,40.71886],[-74.134971,40.718887],[-74.134935,40.718887]]],[[[-74.134608,40.719188],[-74.134644,40.719215],[-74.134608,40.719215],[-74.134608,40.719188]]],[[[-74.13497,40.718942],[-74.135514,40.718422],[-74.134671,40.720835],[-74.134646,40.718941],[-74.13497,40.718942]]],[[[-74.134491,40.720835],[-74.134176,40.719132],[-74.134466,40.718831],[-74.134491,40.720835]]],[[[-74.136749,40.723532],[-74.136714,40.723504],[-74.13675,40.723504],[-74.136749,40.723532]]],[[[-74.136315,40.723777],[-74.136352,40.723723],[-74.136351,40.723778],[-74.136315,40.723777]]],[[[-74.136459,40.723778],[-74.136423,40.723805],[-74.136423,40.723778],[-74.136459,40.723778]]],[[[-74.133457,40.725223],[-74.133421,40.725196],[-74.133457,40.725196],[-74.133457,40.725223]]],[[[-74.13342,40.725388],[-74.133384,40.725415],[-74.133384,40.725388],[-74.13342,40.725388]]],[[[-74.131974,40.725795],[-74.132011,40.725768],[-74.13201,40.725795],[-74.131974,40.725795]]],[[[-74.131974,40.725795],[-74.131938,40.725822],[-74.131938,40.725795],[-74.131974,40.725795]]],[[[-74.131902,40.725822],[-74.131938,40.725877],[-74.131902,40.725877],[-74.131902,40.725822]]],[[[-74.133273,40.725909],[-74.133237,40.725881],[-74.133273,40.725882],[-74.133273,40.725909]]],[[[-74.131902,40.725877],[-74.131865,40.725904],[-74.131866,40.725877],[-74.131902,40.725877]]],[[[-74.131829,40.725904],[-74.131865,40.725959],[-74.131829,40.725959],[-74.131829,40.725904]]],[[[-74.131103,40.726726],[-74.131067,40.726698],[-74.131103,40.726698],[-74.131103,40.726726]]],[[[-74.131067,40.726725],[-74.131031,40.726753],[-74.131031,40.726725],[-74.131067,40.726725]]],[[[-74.130995,40.726753],[-74.131031,40.726808],[-74.130995,40.726808],[-74.130995,40.726753]]],[[[-74.130995,40.726808],[-74.130958,40.726835],[-74.130958,40.726807],[-74.130995,40.726808]]],[[[-74.130958,40.726835],[-74.130922,40.726862],[-74.130922,40.726835],[-74.130958,40.726835]]],[[[-74.130886,40.726862],[-74.130922,40.72689],[-74.130886,40.72689],[-74.130886,40.726862]]],[[[-74.130886,40.72689],[-74.130849,40.726944],[-74.13085,40.726889],[-74.130886,40.72689]]],[[[-74.130849,40.726944],[-74.130813,40.726972],[-74.130813,40.726944],[-74.130849,40.726944]]],[[[-74.130777,40.726972],[-74.130813,40.726999],[-74.130777,40.726999],[-74.130777,40.726972]]],[[[-74.128815,40.729408],[-74.128851,40.729381],[-74.128851,40.729408],[-74.128815,40.729408]]],[[[-74.132668,40.730876],[-74.132596,40.73093],[-74.132596,40.730903],[-74.132668,40.730876]]],[[[-74.127344,40.702091],[-74.127271,40.702118],[-74.127272,40.70209],[-74.127344,40.702091]]],[[[-74.126802,40.728084],[-74.126766,40.728112],[-74.126766,40.728084],[-74.126802,40.728084]]],[[[-74.126621,40.728111],[-74.126585,40.728138],[-74.126585,40.728111],[-74.126621,40.728111]]],[[[-74.127735,40.728938],[-74.127699,40.728911],[-74.127735,40.728911],[-74.127735,40.728938]]],[[[-74.127734,40.729158],[-74.127698,40.72913],[-74.127734,40.72913],[-74.127734,40.729158]]],[[[-74.127625,40.729267],[-74.127661,40.72924],[-74.127661,40.729267],[-74.127625,40.729267]]],[[[-74.127589,40.729267],[-74.127625,40.729295],[-74.127589,40.729295],[-74.127589,40.729267]]],[[[-74.128958,40.729683],[-74.128918,40.730315],[-74.128557,40.730368],[-74.128453,40.729654],[-74.128269,40.73034],[-74.127583,40.730338],[-74.127477,40.730008],[-74.127259,40.730144],[-74.128168,40.729022],[-74.128384,40.729105],[-74.128238,40.729352],[-74.128382,40.729352],[-74.128273,40.729626],[-74.128815,40.729353],[-74.128779,40.729408],[-74.128815,40.729518],[-74.128958,40.729683]],[[-74.128489,40.729654],[-74.128525,40.729627],[-74.128489,40.729627],[-74.128489,40.729654]],[[-74.127548,40.730118],[-74.127584,40.730091],[-74.127548,40.730091],[-74.127548,40.730118]],[[-74.127477,40.730008],[-74.127513,40.729981],[-74.127477,40.72998],[-74.127477,40.730008]],[[-74.128346,40.729407],[-74.12831,40.729434],[-74.128346,40.729434],[-74.128346,40.729407]]],[[[-74.126467,40.729867],[-74.126503,40.72984],[-74.126503,40.729868],[-74.126467,40.729867]]],[[[-74.126539,40.729868],[-74.126503,40.729895],[-74.126503,40.729868],[-74.126539,40.729868]]],[[[-74.126574,40.730032],[-74.126538,40.73006],[-74.126538,40.730032],[-74.126574,40.730032]]],[[[-74.126574,40.73006],[-74.12661,40.730087],[-74.126574,40.730087],[-74.126574,40.73006]]],[[[-74.126538,40.730087],[-74.126502,40.730087],[-74.126502,40.73006],[-74.126538,40.73006],[-74.126538,40.730087]]],[[[-74.126574,40.730115],[-74.126538,40.730087],[-74.126574,40.730087],[-74.126574,40.730115]]],[[[-74.127476,40.730118],[-74.127512,40.730145],[-74.127476,40.730145],[-74.127476,40.730118]]],[[[-74.126538,40.730115],[-74.126502,40.730142],[-74.126502,40.730115],[-74.126538,40.730115]]],[[[-74.127259,40.730144],[-74.127223,40.730172],[-74.127223,40.730144],[-74.127259,40.730144]]],[[[-74.126502,40.730142],[-74.126465,40.730169],[-74.126466,40.730142],[-74.126502,40.730142]]],[[[-74.12744,40.7302],[-74.127367,40.730227],[-74.12744,40.730145],[-74.12744,40.7302]]],[[[-74.126465,40.730169],[-74.126429,40.730197],[-74.126429,40.730169],[-74.126465,40.730169]]],[[[-74.127439,40.730227],[-74.127476,40.7302],[-74.127475,40.730228],[-74.127439,40.730227]]],[[[-74.127115,40.730226],[-74.127223,40.730227],[-74.127114,40.730254],[-74.127115,40.730226]]],[[[-74.127111,40.73083],[-74.127475,40.730392],[-74.127798,40.730585],[-74.127111,40.73083]]],[[[-74.126175,40.730553],[-74.126174,40.730663],[-74.126102,40.73069],[-74.126175,40.730553]]],[[[-74.126065,40.730745],[-74.126029,40.730717],[-74.126065,40.730717],[-74.126065,40.730745]]],[[[-74.126029,40.730744],[-74.125957,40.730827],[-74.125957,40.730772],[-74.126029,40.730744]]],[[[-74.12592,40.730826],[-74.125956,40.730854],[-74.12592,40.730854],[-74.12592,40.730826]]],[[[-74.127039,40.730885],[-74.127003,40.730857],[-74.127039,40.730857],[-74.127039,40.730885]]],[[[-74.125848,40.730936],[-74.125884,40.730909],[-74.125884,40.730936],[-74.125848,40.730936]]],[[[-74.123206,40.732272],[-74.123242,40.7323],[-74.123206,40.7323],[-74.123206,40.732272]]],[[[-74.128843,40.730836],[-74.129598,40.73136],[-74.129489,40.731524],[-74.129129,40.731386],[-74.128729,40.731961],[-74.128871,40.732263],[-74.127314,40.733274],[-74.128002,40.732919],[-74.12811,40.733002],[-74.125865,40.734203],[-74.124528,40.73461],[-74.125332,40.732773],[-74.125805,40.732089],[-74.127075,40.730885],[-74.127039,40.73083],[-74.128843,40.730836]],[[-74.127314,40.733274],[-74.127242,40.733301],[-74.127314,40.733301],[-74.127314,40.733274]],[[-74.127242,40.733301],[-74.127206,40.733329],[-74.127242,40.733329],[-74.127242,40.733301]]],[[[-74.122477,40.733588],[-74.122441,40.733533],[-74.122477,40.733533],[-74.122477,40.733588]]],[[[-74.121864,40.733558],[-74.121827,40.733586],[-74.121827,40.733558],[-74.121864,40.733558]]],[[[-74.122188,40.733587],[-74.121253,40.73309],[-74.122553,40.732902],[-74.122223,40.733834],[-74.121535,40.734271],[-74.121138,40.734242],[-74.121068,40.733775],[-74.122188,40.733587]],[[-74.12226,40.733587],[-74.122152,40.733669],[-74.122224,40.733697],[-74.12226,40.733587]],[[-74.122188,40.733696],[-74.122151,40.733751],[-74.122187,40.733751],[-74.122188,40.733696]]],[[[-74.122441,40.733588],[-74.122404,40.733642],[-74.122405,40.733587],[-74.122441,40.733588]]],[[[-74.122512,40.73367],[-74.122476,40.733697],[-74.122476,40.73367],[-74.122512,40.73367]]],[[[-74.122404,40.733642],[-74.122368,40.733725],[-74.122368,40.733642],[-74.122404,40.733642]]],[[[-74.122368,40.733725],[-74.122331,40.733779],[-74.122332,40.733724],[-74.122368,40.733725]]],[[[-74.122295,40.733779],[-74.122331,40.733834],[-74.122295,40.733834],[-74.122295,40.733779]]],[[[-74.124245,40.733593],[-74.124425,40.733704],[-74.124058,40.734773],[-74.123805,40.734827],[-74.124245,40.733593]]],[[[-74.126225,40.734423],[-74.126189,40.734396],[-74.126225,40.734396],[-74.126225,40.734423]]],[[[-74.126045,40.734286],[-74.12543,40.734695],[-74.12496,40.734721],[-74.126045,40.734286]]],[[[-74.126189,40.734423],[-74.125863,40.734697],[-74.125755,40.734669],[-74.126189,40.734423]]],[[[-74.124456,40.734665],[-74.124528,40.734637],[-74.124528,40.734665],[-74.124456,40.734665]]],[[[-74.124308,40.735296],[-74.124344,40.735323],[-74.124307,40.735323],[-74.124308,40.735296]]],[[[-74.12478,40.734721],[-74.125754,40.734751],[-74.124848,40.735544],[-74.124192,40.736558],[-74.124379,40.735351],[-74.124382,40.734939],[-74.12478,40.734721]]],[[[-74.123647,40.737325],[-74.123768,40.734964],[-74.124021,40.734938],[-74.123647,40.737325]]],[[[-74.120483,40.735201],[-74.123407,40.735073],[-74.123245,40.738092],[-74.121024,40.741608],[-74.118693,40.740495],[-74.117753,40.739422],[-74.117243,40.737612],[-74.117393,40.735053],[-74.120483,40.735201]]],[[[-74.1236,40.739191],[-74.123157,40.740892],[-74.123048,40.741028],[-74.123453,40.739657],[-74.123608,40.737709],[-74.123754,40.737545],[-74.1236,40.739191]]],[[[-74.121132,40.741646],[-74.122843,40.739079],[-74.123208,40.738366],[-74.123055,40.739821],[-74.122357,40.741987],[-74.121132,40.741646]]]]}}]}