{"type":"FeatureCollection","features":[{"type":"Feature","properties":{"level_ft":20},"geometry":{"type":"MultiPolygon","coordinates":[[[[-74.191723,40.687264],[-74.191723,40.687265],[-74.191701,40.687265],[-74.191723,40.687264]]],[[[-74.199866,40.688769],[-74.200011,40.688714],[-74.199974,40.688824],[-74.199866,40.688769]]],[[[-74.199829,40.688988],[-74.199865,40.688961],[-74.199865,40.688989],[-74.199829,40.688988]]],[[[-74.199829,40.688988],[-74.199793,40.689071],[-74.199793,40.688988],[-74.199829,40.688988]]],[[[-74.199067,40.690112],[-74.199103,40.690057],[-74.199103,40.690112],[-74.199067,40.690112]]],[[[-74.199031,40.690167],[-74.199067,40.690112],[-74.199067,40.690167],[-74.199031,40.690167]]],[[[-74.197654,40.691453],[-74.197546,40.691535],[-74.197691,40.691344],[-74.197654,40.691453]]],[[[-74.197654,40.691563],[-74.197618,40.691536],[-74.197654,40.691536],[-74.197654,40.691563]]],[[[-74.197108,40.692715],[-74.197144,40.692742],[-74.197108,40.692742],[-74.197108,40.692715]]],[[[-74.197072,40.692742],[-74.197107,40.692797],[-74.197071,40.692797],[-74.197072,40.692742]]],[[[-74.196671,40.693482],[-74.196744,40.693455],[-74.196744,40.693482],[-74.196671,40.693482]]],[[[-74.196599,40.693619],[-74.196635,40.693647],[-74.196599,40.693647],[-74.196599,40.693619]]],[[[-74.196598,40.693729],[-74.196562,40.693701],[-74.196598,40.693701],[-74.196598,40.693729]]],[[[-74.211828,40.699752],[-74.212459,40.699424],[-74.212621,40.699864],[-74.211538,40.699998],[-74.211828,40.699752]],[[-74.211828,40.69978],[-74.2119,40.699807],[-74.2119,40.69978],[-74.211828,40.69978]]],[[[-74.200799,40.706093],[-74.200835,40.706065],[-74.200835,40.706093],[-74.200799,40.706093]]],[[[-74.200075,40.706502],[-74.200039,40.706475],[-74.200075,40.706475],[-74.200075,40.706502]]],[[[-74.199859,40.706584],[-74.199894,40.706639],[-74.199858,40.706639],[-74.199859,40.706584]]],[[[-74.199642,40.706693],[-74.199678,40.706721],[-74.199641,40.706721],[-74.199642,40.706693]]],[[[-74.199496,40.706885],[-74.19946,40.706858],[-74.199497,40.706858],[-74.199496,40.706885]]],[[[-74.199785,40.706913],[-74.199821,40.706886],[-74.199821,40.706913],[-74.199785,40.706913]]],[[[-74.198121,40.707952],[-74.198157,40.707925],[-74.198157,40.707952],[-74.198121,40.707952]]],[[[-74.197145,40.708279],[-74.197182,40.708252],[-74.197182,40.708279],[-74.197145,40.708279]]],[[[-74.19711,40.708251],[-74.197073,40.708279],[-74.197073,40.708251],[-74.19711,40.708251]]],[[[-74.197001,40.708251],[-74.196965,40.708279],[-74.196965,40.708251],[-74.197001,40.708251]]],[[[-74.197362,40.708362],[-74.197326,40.708334],[-74.197362,40.708334],[-74.197362,40.708362]]],[[[-74.197145,40.708471],[-74.197181,40.708444],[-74.197181,40.708471],[-74.197145,40.708471]]],[[[-74.185853,40.708743],[-74.185925,40.708716],[-74.185925,40.708743],[-74.185853,40.708743]]],[[[-74.185672,40.708742],[-74.1856,40.70877],[-74.1856,40.708742],[-74.185672,40.708742]]],[[[-74.196674,40.708882],[-74.196638,40.708854],[-74.196674,40.708854],[-74.196674,40.708882]]],[[[-74.196097,40.70888],[-74.196025,40.708853],[-74.196169,40.708825],[-74.196097,40.70888]]],[[[-74.196457,40.708963],[-74.196421,40.708936],[-74.196457,40.708936],[-74.196457,40.708963]]],[[[-74.196421,40.709046],[-74.196456,40.709073],[-74.19642,40.709073],[-74.196421,40.709046]]],[[[-74.1856,40.70877],[-74.183252,40.709504],[-74.182635,40.710189],[-74.18217,40.709474],[-74.18239,40.708706],[-74.1821,40.708925],[-74.182028,40.70887],[-74.182318,40.708596],[-74.183004,40.708433],[-74.18387,40.708463],[-74.184265,40.708794],[-74.184484,40.708382],[-74.188452,40.708256],[-74.185239,40.708714],[-74.182928,40.709394],[-74.1856,40.70877]],[[-74.183179,40.709559],[-74.183143,40.709532],[-74.183143,40.709559],[-74.183179,40.709559]]],[[[-74.195085,40.709317],[-74.195193,40.709372],[-74.195084,40.709344],[-74.195085,40.709317]]],[[[-74.194687,40.70959],[-74.194651,40.70948],[-74.194795,40.70959],[-74.194687,40.70959]]],[[[-74.195805,40.709538],[-74.195769,40.709566],[-74.195769,40.709538],[-74.195805,40.709538]]],[[[-74.194325,40.709699],[-74.194253,40.709726],[-74.194253,40.709699],[-74.194325,40.709699]]],[[[-74.195407,40.709812],[-74.195047,40.709701],[-74.195407,40.709757],[-74.195407,40.709812]]],[[[-74.194325,40.709754],[-74.194397,40.709727],[-74.194397,40.709754],[-74.194325,40.709754]]],[[[-74.184729,40.709893],[-74.184765,40.709865],[-74.184765,40.709893],[-74.184729,40.709893]]],[[[-74.194937,40.710003],[-74.194901,40.709975],[-74.194937,40.709975],[-74.194937,40.710003]]],[[[-74.194937,40.71003],[-74.194973,40.710003],[-74.194973,40.71003],[-74.194937,40.71003]]],[[[-74.196848,40.710172],[-74.196812,40.710172],[-74.196812,40.710145],[-74.196848,40.710145],[-74.196848,40.710172]]],[[[-74.196884,40.7102],[-74.196848,40.710172],[-74.196884,40.710172],[-74.196884,40.7102]]],[[[-74.196956,40.710227],[-74.19692,40.7102],[-74.196956,40.7102],[-74.196956,40.710227]]],[[[-74.197064,40.710228],[-74.196956,40.710255],[-74.196956,40.710227],[-74.197064,40.710228]]],[[[-74.196415,40.710308],[-74.196811,40.710337],[-74.196883,40.710447],[-74.196415,40.710308]]],[[[-74.196415,40.710363],[-74.196919,40.710557],[-74.196918,40.710639],[-74.196774,40.710666],[-74.196415,40.710363]]],[[[-74.196521,40.710803],[-74.196413,40.710803],[-74.196413,40.710748],[-74.196521,40.710803]]],[[[-74.19616,40.710747],[-74.196304,40.710912],[-74.196016,40.710719],[-74.19616,40.710747]]],[[[-74.190204,40.711555],[-74.184318,40.712911],[-74.183532,40.711317],[-74.184042,40.710111],[-74.184296,40.709919],[-74.185561,40.709401],[-74.187511,40.708967],[-74.190109,40.708837],[-74.191623,40.70906],[-74.19364,40.709752],[-74.193675,40.709972],[-74.194108,40.709945],[-74.190204,40.711555]],[[-74.183568,40.711317],[-74.183604,40.71129],[-74.183568,40.71129],[-74.183568,40.711317]],[[-74.183604,40.71129],[-74.18364,40.711262],[-74.183604,40.711262],[-74.183604,40.71129]],[[-74.18364,40.71129],[-74.183676,40.711317],[-74.183676,40.71129],[-74.18364,40.71129]],[[-74.18444,40.709919],[-74.184548,40.709947],[-74.184548,40.70992],[-74.18444,40.709919]],[[-74.184657,40.709893],[-74.184765,40.70992],[-74.184801,40.709866],[-74.184729,40.709838],[-74.184657,40.709893]],[[-74.184693,40.70992],[-74.184657,40.709947],[-74.184693,40.709948],[-74.184693,40.70992]]],[[[-74.191793,40.711312],[-74.191757,40.711229],[-74.191865,40.71123],[-74.191793,40.711312]]],[[[-74.190348,40.711747],[-74.190312,40.71172],[-74.190348,40.71172],[-74.190348,40.711747]]],[[[-74.186339,40.712615],[-74.186304,40.712587],[-74.18634,40.712587],[-74.186339,40.712615]]],[[[-74.186015,40.712669],[-74.186051,40.712641],[-74.186051,40.712669],[-74.186015,40.712669]]],[[[-74.186916,40.712754],[-74.18688,40.712726],[-74.186916,40.712726],[-74.186916,40.712754]]],[[[-74.184389,40.713131],[-74.184425,40.713076],[-74.184425,40.713131],[-74.184389,40.713131]]],[[[-74.182114,40.706097],[-74.18215,40.706125],[-74.182113,40.706125],[-74.182114,40.706097]]],[[[-74.18124,40.707715],[-74.181204,40.707742],[-74.181204,40.707715],[-74.18124,40.707715]]],[[[-74.179652,40.707985],[-74.179616,40.707957],[-74.179652,40.707957],[-74.179652,40.707985]]],[[[-74.179757,40.708561],[-74.180913,40.708235],[-74.181346,40.708236],[-74.181525,40.708484],[-74.180658,40.708838],[-74.179757,40.708561]]],[[[-74.181735,40.709885],[-74.179935,40.709084],[-74.179577,40.708534],[-74.180332,40.708947],[-74.181524,40.708649],[-74.181957,40.708677],[-74.181667,40.709006],[-74.181234,40.708977],[-74.181341,40.709225],[-74.180873,40.709086],[-74.181628,40.7095],[-74.181915,40.709967],[-74.181879,40.709967],[-74.181807,40.709885],[-74.181735,40.709885]],[[-74.181307,40.708758],[-74.181343,40.708813],[-74.181343,40.708758],[-74.181307,40.708758]],[[-74.181343,40.708813],[-74.181379,40.70884],[-74.181379,40.708813],[-74.181343,40.708813]],[[-74.181415,40.70895],[-74.181379,40.708923],[-74.181379,40.70895],[-74.181415,40.70895]]],[[[-74.181954,40.709419],[-74.182133,40.709639],[-74.182348,40.709969],[-74.181954,40.709419]]],[[[-74.184081,40.709671],[-74.183828,40.709781],[-74.183828,40.709726],[-74.184081,40.709671]]],[[[-74.184296,40.709837],[-74.18426,40.709809],[-74.184296,40.709809],[-74.184296,40.709837]]],[[[-74.181951,40.710022],[-74.181915,40.709967],[-74.181951,40.709968],[-74.181951,40.710022]]],[[[-74.181951,40.71005],[-74.181987,40.710023],[-74.181987,40.71005],[-74.181951,40.71005]]],[[[-74.182671,40.710189],[-74.18426,40.709837],[-74.183608,40.710439],[-74.183387,40.711344],[-74.182671,40.710189]]],[[[-74.184067,40.712636],[-74.182991,40.711178],[-74.182312,40.709996],[-74.184067,40.712636]]],[[[-74.18403,40.712691],[-74.184067,40.712663],[-74.184066,40.712691],[-74.18403,40.712691]]],[[[-74.184066,40.712746],[-74.184102,40.712718],[-74.184102,40.712746],[-74.184066,40.712746]]],[[[-74.183559,40.713101],[-74.183596,40.713074],[-74.183595,40.713101],[-74.183559,40.713101]]],[[[-74.183918,40.713487],[-74.183847,40.713404],[-74.183919,40.713377],[-74.183918,40.713487]]],[[[-74.177854,40.714348],[-74.177962,40.714376],[-74.177853,40.714376],[-74.177854,40.714348]]],[[[-74.184088,40.715656],[-74.184052,40.715628],[-74.184089,40.715628],[-74.184088,40.715656]]],[[[-74.183543,40.716587],[-74.183579,40.71656],[-74.183579,40.716588],[-74.183543,40.716587]]],[[[-74.182747,40.717107],[-74.182783,40.717079],[-74.182783,40.717107],[-74.182747,40.717107]]],[[[-74.180791,40.718639],[-74.180755,40.718611],[-74.180791,40.718611],[-74.180791,40.718639]]],[[[-74.170352,40.728436],[-74.170389,40.728409],[-74.170389,40.728437],[-74.170352,40.728436]]],[[[-74.169881,40.728929],[-74.169917,40.728902],[-74.169917,40.728929],[-74.169881,40.728929]]],[[[-74.169881,40.728957],[-74.169845,40.728984],[-74.169845,40.728957],[-74.169881,40.728957]]],[[[-74.169845,40.728984],[-74.169808,40.729011],[-74.169808,40.728984],[-74.169845,40.728984]]],[[[-74.169265,40.729531],[-74.169229,40.729476],[-74.169265,40.729476],[-74.169265,40.729531]]],[[[-74.169192,40.729531],[-74.169228,40.729559],[-74.169192,40.729559],[-74.169192,40.729531]]],[[[-74.169192,40.729613],[-74.169156,40.729558],[-74.169192,40.729559],[-74.169192,40.729613]]],[[[-74.168249,40.730489],[-74.168214,40.730434],[-74.16825,40.730434],[-74.168249,40.730489]]],[[[-74.173226,40.731025],[-74.171966,40.730582],[-74.172436,40.730282],[-74.172366,40.729979],[-74.173662,40.730505],[-74.173226,40.731025]]],[[[-74.168321,40.730517],[-74.168285,40.730489],[-74.168322,40.730489],[-74.168321,40.730517]]],[[[-74.168213,40.730489],[-74.168177,40.730516],[-74.168177,40.730489],[-74.168213,40.730489]]],[[[-74.168141,40.730516],[-74.168177,40.730544],[-74.168141,40.730544],[-74.168141,40.730516]]],[[[-74.168249,40.730517],[-74.168249,40.730572],[-74.168213,40.730599],[-74.168249,40.730517]]],[[[-74.167523,40.731365],[-74.167487,40.731338],[-74.167523,40.731338],[-74.167523,40.731365]]],[[[-74.167451,40.731365],[-74.167487,40.731393],[-74.167451,40.731393],[-74.167451,40.731365]]],[[[-74.177443,40.732107],[-74.17679,40.732764],[-74.176252,40.732186],[-74.176723,40.731776],[-74.177337,40.731695],[-74.177443,40.732107]],[[-74.177299,40.732052],[-74.177263,40.732079],[-74.177299,40.732079],[-74.177299,40.732052]]],[[[-74.166688,40.732516],[-74.166724,40.732489],[-74.166724,40.732516],[-74.166688,40.732516]]],[[[-74.164261,40.734238],[-74.164297,40.734211],[-74.164297,40.734238],[-74.164261,40.734238]]],[[[-74.164189,40.734293],[-74.164225,40.734266],[-74.164225,40.734293],[-74.164189,40.734293]]],[[[-74.16408,40.734402],[-74.164044,40.734375],[-74.16408,40.734375],[-74.16408,40.734402]]],[[[-74.164077,40.735034],[-74.164113,40.735061],[-74.164077,40.735061],[-74.164077,40.735034]]],[[[-74.164113,40.735089],[-74.164149,40.735061],[-74.164149,40.735089],[-74.164113,40.735089]]],[[[-74.166008,40.738498],[-74.165972,40.738525],[-74.165972,40.738498],[-74.166008,40.738498]]],[[[-74.165972,40.738525],[-74.165936,40.738553],[-74.165936,40.738525],[-74.165972,40.738525]]],[[[-74.170512,40.739911],[-74.171056,40.739364],[-74.171489,40.739365],[-74.171268,40.740297],[-74.170512,40.739911]]],[[[-74.165706,40.741242],[-74.16567,40.74127],[-74.16567,40.741242],[-74.165706,40.741242]]],[[[-74.165975,40.745141],[-74.166011,40.745086],[-74.166011,40.745141],[-74.165975,40.745141]]],[[[-74.166156,40.745114],[-74.166047,40.745169],[-74.166047,40.745114],[-74.166156,40.745114]]],[[[-74.16583,40.745195],[-74.165867,40.745113],[-74.165866,40.745196],[-74.16583,40.745195]]],[[[-74.168201,40.74759],[-74.1682,40.747755],[-74.167369,40.747917],[-74.165838,40.747886],[-74.165863,40.747474],[-74.168201,40.74759]]],[[[-74.167983,40.747837],[-74.168163,40.747892],[-74.167838,40.747891],[-74.167983,40.747837]]],[[[-74.167838,40.747891],[-74.16773,40.747918],[-74.16773,40.747891],[-74.167838,40.747891]]],[[[-74.167585,40.747946],[-74.167657,40.747918],[-74.167657,40.747946],[-74.167585,40.747946]]],[[[-74.166754,40.748245],[-74.166682,40.74819],[-74.166754,40.74819],[-74.166754,40.748245]]],[[[-74.168558,40.748278],[-74.168522,40.74825],[-74.168558,40.74825],[-74.168558,40.748278]]],[[[-74.168558,40.748305],[-74.168594,40.748278],[-74.168594,40.748305],[-74.168558,40.748305]]],[[[-74.162223,40.709198],[-74.162259,40.709225],[-74.162223,40.709225],[-74.162223,40.709198]]],[[[-74.160126,40.709988],[-74.160091,40.70996],[-74.160127,40.70996],[-74.160126,40.709988]]],[[[-74.16009,40.709988],[-74.160054,40.710015],[-74.160054,40.709987],[-74.16009,40.709988]]],[[[-74.160018,40.710015],[-74.160054,40.710042],[-74.160018,40.710042],[-74.160018,40.710015]]],[[[-74.158682,40.71034],[-74.158791,40.710039],[-74.15908,40.710012],[-74.158934,40.710314],[-74.158826,40.710286],[-74.158682,40.71034]]],[[[-74.158862,40.710313],[-74.158826,40.710341],[-74.158826,40.710313],[-74.158862,40.710313]]],[[[-74.207701,40.694828],[-74.208103,40.693759],[-74.209365,40.693762],[-74.209287,40.695024],[-74.209828,40.695163],[-74.209933,40.695877],[-74.209101,40.696369],[-74.208707,40.695846],[-74.208633,40.69623],[-74.207981,40.696778],[-74.207906,40.697519],[-74.209884,40.698896],[-74.209665,40.699472],[-74.211033,40.699915],[-74.202174,40.705135],[-74.200546,40.706119],[-74.200582,40.706229],[-74.200437,40.706201],[-74.200003,40.706447],[-74.199967,40.706557],[-74.199859,40.706557],[-74.199859,40.706584],[-74.199822,40.706584],[-74.199822,40.706612],[-74.19975,40.706584],[-74.199642,40.706693],[-74.199569,40.706693],[-74.199569,40.706803],[-74.19928,40.706857],[-74.197652,40.707978],[-74.198193,40.708007],[-74.200472,40.706586],[-74.199058,40.708092],[-74.199125,40.709245],[-74.198728,40.709354],[-74.198763,40.709628],[-74.198074,40.710368],[-74.197065,40.710145],[-74.195986,40.709511],[-74.195517,40.709483],[-74.196385,40.708963],[-74.196421,40.708963],[-74.196421,40.709046],[-74.196384,40.709073],[-74.196456,40.709101],[-74.197397,40.708417],[-74.197435,40.708033],[-74.197146,40.708252],[-74.19711,40.708142],[-74.197073,40.708251],[-74.196965,40.708224],[-74.196821,40.708333],[-74.196749,40.708278],[-74.195446,40.709263],[-74.195266,40.70918],[-74.195121,40.709262],[-74.195085,40.709317],[-74.195049,40.709317],[-74.195048,40.709344],[-74.194509,40.708986],[-74.19386,40.708984],[-74.193572,40.708736],[-74.192419,40.708486],[-74.188488,40.708283],[-74.19657,40.707976],[-74.198195,40.707486],[-74.197547,40.707292],[-74.196319,40.707673],[-74.188093,40.708008],[-74.186253,40.707921],[-74.184777,40.707285],[-74.184632,40.707395],[-74.185172,40.707725],[-74.185134,40.708082],[-74.18719,40.70817],[-74.184664,40.708273],[-74.183042,40.708186],[-74.183153,40.707528],[-74.182397,40.707141],[-74.181852,40.708018],[-74.180625,40.708042],[-74.180988,40.707741],[-74.18124,40.707797],[-74.181567,40.707359],[-74.181459,40.707221],[-74.179687,40.708067],[-74.179725,40.707765],[-74.180774,40.707082],[-74.180739,40.706972],[-74.17969,40.707628],[-74.179326,40.708203],[-74.179475,40.707161],[-74.180345,40.70623],[-74.181285,40.705958],[-74.182114,40.70607],[-74.182114,40.706097],[-74.182078,40.706097],[-74.182077,40.706125],[-74.181572,40.706178],[-74.181355,40.706288],[-74.180703,40.70689],[-74.181824,40.706234],[-74.182474,40.706263],[-74.183373,40.706732],[-74.183485,40.705882],[-74.183089,40.705771],[-74.182762,40.706237],[-74.18197,40.705905],[-74.181105,40.705875],[-74.179805,40.706201],[-74.179297,40.706639],[-74.179223,40.70705],[-74.179368,40.706941],[-74.179512,40.706996],[-74.178999,40.708614],[-74.179288,40.708588],[-74.179898,40.709248],[-74.181842,40.710132],[-74.182165,40.710517],[-74.18374,40.713047],[-74.183524,40.713019],[-74.180021,40.71375],[-74.177709,40.714458],[-74.179261,40.714187],[-74.179441,40.714325],[-74.179514,40.714078],[-74.1802,40.713943],[-74.183304,40.713759],[-74.183666,40.713541],[-74.183305,40.713457],[-74.183739,40.713212],[-74.183847,40.713212],[-74.183774,40.713459],[-74.184132,40.714064],[-74.183979,40.715902],[-74.183761,40.716313],[-74.182747,40.716997],[-74.18224,40.717462],[-74.181764,40.718861],[-74.181836,40.719026],[-74.182348,40.717463],[-74.183543,40.716587],[-74.182853,40.717436],[-74.183213,40.717602],[-74.184302,40.716178],[-74.18467,40.714696],[-74.184498,40.713049],[-74.187134,40.712507],[-74.186808,40.712698],[-74.186735,40.712808],[-74.186807,40.712863],[-74.189626,40.711828],[-74.1906,40.711775],[-74.191649,40.711257],[-74.191865,40.711367],[-74.191902,40.711175],[-74.194396,40.710083],[-74.195295,40.71058],[-74.195078,40.710799],[-74.194465,40.710605],[-74.194354,40.711374],[-74.193557,40.71203],[-74.192799,40.712193],[-74.193374,40.712661],[-74.193699,40.712442],[-74.193299,40.713347],[-74.192,40.713206],[-74.191783,40.713425],[-74.19196,40.714249],[-74.191271,40.714824],[-74.190514,40.714849],[-74.190656,40.715344],[-74.189607,40.71589],[-74.189242,40.716795],[-74.189127,40.71825],[-74.186661,40.721043],[-74.186155,40.721151],[-74.186084,40.720986],[-74.185038,40.720874],[-74.185072,40.721286],[-74.184495,40.721257],[-74.184277,40.72153],[-74.183952,40.72153],[-74.183738,40.721172],[-74.183916,40.721584],[-74.183121,40.721774],[-74.183048,40.722131],[-74.181927,40.722622],[-74.181962,40.722869],[-74.181673,40.722868],[-74.180838,40.723882],[-74.180442,40.723743],[-74.180081,40.72388],[-74.179861,40.724538],[-74.1795,40.724482],[-74.179136,40.725222],[-74.17935,40.725744],[-74.178445,40.726291],[-74.179563,40.726568],[-74.17938,40.727117],[-74.179741,40.727008],[-74.179523,40.727337],[-74.178584,40.727499],[-74.178762,40.727911],[-74.179016,40.72772],[-74.179554,40.728325],[-74.179264,40.728599],[-74.179406,40.729176],[-74.178823,40.730354],[-74.177773,40.73101],[-74.177377,40.730872],[-74.176869,40.731337],[-74.17698,40.730871],[-74.176547,40.730815],[-74.176045,40.730209],[-74.176046,40.72999],[-74.176262,40.730018],[-74.175974,40.72988],[-74.17612,40.729551],[-74.177022,40.729608],[-74.176916,40.729196],[-74.176448,40.728948],[-74.17699,40.728785],[-74.177462,40.728127],[-74.177679,40.728183],[-74.177607,40.72799],[-74.177896,40.727909],[-74.177718,40.727442],[-74.178043,40.727333],[-74.177321,40.72744],[-74.177611,40.727249],[-74.177467,40.727194],[-74.176708,40.727329],[-74.176746,40.727027],[-74.176026,40.726586],[-74.176641,40.726368],[-74.176788,40.725847],[-74.176321,40.725434],[-74.176104,40.725543],[-74.176141,40.725323],[-74.175167,40.725238],[-74.175018,40.726116],[-74.175413,40.726612],[-74.174979,40.726912],[-74.175158,40.727105],[-74.174184,40.727102],[-74.173966,40.727294],[-74.174145,40.727651],[-74.173531,40.727842],[-74.174034,40.728172],[-74.173205,40.72806],[-74.172733,40.72869],[-74.172876,40.728883],[-74.172479,40.728937],[-74.172261,40.729238],[-74.172402,40.729952],[-74.172077,40.729924],[-74.171786,40.730417],[-74.170631,40.730469],[-74.170666,40.730661],[-74.170125,40.730714],[-74.169581,40.731207],[-74.168968,40.73115],[-74.168496,40.73178],[-74.167917,40.731998],[-74.168022,40.73263],[-74.167229,40.7326],[-74.167154,40.733149],[-74.167763,40.733919],[-74.167543,40.734605],[-74.16711,40.734713],[-74.166606,40.734492],[-74.166459,40.734849],[-74.166099,40.734793],[-74.165591,40.735423],[-74.164761,40.73542],[-74.164651,40.735722],[-74.16382,40.735802],[-74.164357,40.736682],[-74.164682,40.73671],[-74.164927,40.738303],[-74.165395,40.738524],[-74.166226,40.738279],[-74.166225,40.738389],[-74.165972,40.738471],[-74.165718,40.738717],[-74.16597,40.73891],[-74.166067,40.741188],[-74.165778,40.74127],[-74.165598,40.74116],[-74.165381,40.741159],[-74.165343,40.741571],[-74.16588,40.742478],[-74.166097,40.742396],[-74.166491,40.742892],[-74.166526,40.743194],[-74.166201,40.743302],[-74.166453,40.743413],[-74.1667,40.744512],[-74.167347,40.74498],[-74.167377,40.746298],[-74.167879,40.746848],[-74.167696,40.747424],[-74.165867,40.747392],[-74.165742,40.745223],[-74.166155,40.745196],[-74.166192,40.745059],[-74.165714,40.745085],[-74.162778,40.737845],[-74.161707,40.736207],[-74.163969,40.734951],[-74.164077,40.735006],[-74.164077,40.735034],[-74.164041,40.735034],[-74.164041,40.735061],[-74.164113,40.735116],[-74.164582,40.735035],[-74.164475,40.73487],[-74.165018,40.734488],[-74.164838,40.734295],[-74.166506,40.73268],[-74.166831,40.732681],[-74.16676,40.732434],[-74.167631,40.731393],[-74.180465,40.718995],[-74.180719,40.718638],[-74.180755,40.718666],[-74.180827,40.718639],[-74.180792,40.718529],[-74.176334,40.722606],[-74.17543,40.723153],[-74.1755,40.723455],[-74.175212,40.723509],[-74.165604,40.732815],[-74.161438,40.735822],[-74.160184,40.73481],[-74.158448,40.734014],[-74.15732,40.733745],[-74.155351,40.733699],[-74.155354,40.733087],[-74.155137,40.733113],[-74.15517,40.733696],[-74.14854,40.733908],[-74.147363,40.734175],[-74.145864,40.735025],[-74.142001,40.73941],[-74.139754,40.740681],[-74.135339,40.741671],[-74.128166,40.742211],[-74.123114,40.742143],[-74.123886,40.739686],[-74.124154,40.73686],[-74.125717,40.734888],[-74.149244,40.721457],[-74.149605,40.721458],[-74.150003,40.721239],[-74.150474,40.720939],[-74.150474,40.720802],[-74.150908,40.720721],[-74.15109,40.720447],[-74.151632,40.720284],[-74.151777,40.720064],[-74.151849,40.720092],[-74.151994,40.720065],[-74.151886,40.72001],[-74.153297,40.719191],[-74.153513,40.719191],[-74.15431,40.718617],[-74.156479,40.717828],[-74.155106,40.718126],[-74.154961,40.718262],[-74.154853,40.718235],[-74.154563,40.718481],[-74.15413,40.718562],[-74.155436,40.717138],[-74.155398,40.71755],[-74.155974,40.717716],[-74.156299,40.717662],[-74.156626,40.717224],[-74.158501,40.717504],[-74.156809,40.716731],[-74.156596,40.715989],[-74.157145,40.714508],[-74.158443,40.714787],[-74.157182,40.714453],[-74.15802,40.712754],[-74.158529,40.711904],[-74.158927,40.711796],[-74.159761,40.710947],[-74.160988,40.710759],[-74.160953,40.710512],[-74.162504,40.710626],[-74.161531,40.710349],[-74.160773,40.710456],[-74.160234,40.710208],[-74.162295,40.709253],[-74.162368,40.709061],[-74.162043,40.709115],[-74.162188,40.708841],[-74.161322,40.70903],[-74.161468,40.708592],[-74.161217,40.708399],[-74.161069,40.708975],[-74.160599,40.70933],[-74.159586,40.709876],[-74.158467,40.709955],[-74.157996,40.710311],[-74.157815,40.710502],[-74.158067,40.710586],[-74.158066,40.710778],[-74.15524,40.713267],[-74.155169,40.713047],[-74.152756,40.712217],[-74.150523,40.711524],[-74.149946,40.711549],[-74.149839,40.711302],[-74.14847,40.710804],[-74.151223,40.708644],[-74.152777,40.708209],[-74.152778,40.708017],[-74.153573,40.707717],[-74.153828,40.707279],[-74.15365,40.706839],[-74.153218,40.706618],[-74.150156,40.705895],[-74.150842,40.70576],[-74.151386,40.705075],[-74.150626,40.705677],[-74.149436,40.705564],[-74.143929,40.703241],[-74.138997,40.701496],[-74.117574,40.694977],[-74.120322,40.69066],[-74.125251,40.68406],[-74.131955,40.673797],[-74.139139,40.677125],[-74.148986,40.682244],[-74.150435,40.683156],[-74.152657,40.685232],[-74.153849,40.685922],[-74.155324,40.686124],[-74.158342,40.686031],[-74.15938,40.686682],[-74.16063,40.688486],[-74.161788,40.689405],[-74.165051,40.69017],[-74.167635,40.689971],[-74.168531,40.689406],[-74.169005,40.688792],[-74.169888,40.68856],[-74.191687,40.687266],[-74.191723,40.687375],[-74.198829,40.686842],[-74.198972,40.687257],[-74.199296,40.687285],[-74.198752,40.68786],[-74.198969,40.687778],[-74.199111,40.6883],[-74.19958,40.688302],[-74.199831,40.688714],[-74.198165,40.690219],[-74.197017,40.688954],[-74.196184,40.689693],[-74.195964,40.690516],[-74.196359,40.690791],[-74.195309,40.691694],[-74.195885,40.692053],[-74.195666,40.692519],[-74.197438,40.691563],[-74.197581,40.691645],[-74.197798,40.691536],[-74.197797,40.691838],[-74.197216,40.692633],[-74.197108,40.692715],[-74.196999,40.692742],[-74.19678,40.6934],[-74.1966,40.693372],[-74.196599,40.693619],[-74.196454,40.693701],[-74.196489,40.693976],[-74.194597,40.697622],[-74.197869,40.691783],[-74.19932,40.689893],[-74.199575,40.68929],[-74.200263,40.688715],[-74.201062,40.687482],[-74.201312,40.687977],[-74.20171,40.68784],[-74.201675,40.687511],[-74.202506,40.687266],[-74.202001,40.687127],[-74.20175,40.686786],[-74.203261,40.687576],[-74.202719,40.68798],[-74.202862,40.688228],[-74.202429,40.688309],[-74.202391,40.688611],[-74.202786,40.688969],[-74.202492,40.69034],[-74.202744,40.690506],[-74.202522,40.691768],[-74.202772,40.692235],[-74.202483,40.692317],[-74.202697,40.692894],[-74.202042,40.694073],[-74.203122,40.694679],[-74.2024,40.694732],[-74.20247,40.695144],[-74.202146,40.695143],[-74.201599,40.696405],[-74.20113,40.696596],[-74.200948,40.696979],[-74.200442,40.697006],[-74.200332,40.697554],[-74.200116,40.697471],[-74.200222,40.697883],[-74.199646,40.69769],[-74.199176,40.69799],[-74.19957,40.698513],[-74.198777,40.698346],[-74.199062,40.699171],[-74.198413,40.699141],[-74.198447,40.69969],[-74.197943,40.69947],[-74.197038,40.700153],[-74.197181,40.700346],[-74.197651,40.700155],[-74.196709,40.701058],[-74.197103,40.701801],[-74.197899,40.701171],[-74.198548,40.701201],[-74.1997,40.701807],[-74.19995,40.702357],[-74.200204,40.702001],[-74.200061,40.701644],[-74.200457,40.701809],[-74.201396,40.701455],[-74.20129,40.701153],[-74.199525,40.700572],[-74.199203,40.700049],[-74.199241,40.699446],[-74.201412,40.698051],[-74.202456,40.698328],[-74.202923,40.698933],[-74.203789,40.698744],[-74.203498,40.699292],[-74.204149,40.698799],[-74.204943,40.698829],[-74.205161,40.698473],[-74.204763,40.698581],[-74.204692,40.698471],[-74.205597,40.697705],[-74.204839,40.697923],[-74.20502,40.697566],[-74.204769,40.697264],[-74.206463,40.697488],[-74.206787,40.697708],[-74.207258,40.697243],[-74.207296,40.696749],[-74.207768,40.696173],[-74.207194,40.695486],[-74.206797,40.695402],[-74.206944,40.694909],[-74.206728,40.694661],[-74.207701,40.694828]],[[-74.206947,40.70232],[-74.206911,40.702293],[-74.206911,40.70232],[-74.206947,40.70232]],[[-74.19747,40.70828],[-74.197506,40.708307],[-74.197506,40.70828],[-74.19747,40.70828]],[[-74.197507,40.708115],[-74.197543,40.708143],[-74.197615,40.708116],[-74.197507,40.708115]],[[-74.197363,40.708087],[-74.197291,40.708032],[-74.197327,40.708087],[-74.197363,40.708087]],[[-74.197254,40.708142],[-74.197218,40.708115],[-74.197218,40.708142],[-74.197254,40.708142]],[[-74.197001,40.708224],[-74.197038,40.708196],[-74.197002,40.708196],[-74.197001,40.708224]],[[-74.195844,40.708879],[-74.195808,40.708907],[-74.195844,40.708907],[-74.195844,40.708879]],[[-74.197547,40.707292],[-74.197583,40.707265],[-74.197547,40.707264],[-74.197547,40.707292]],[[-74.183167,40.712139],[-74.183131,40.712194],[-74.183167,40.712194],[-74.183167,40.712139]],[[-74.183131,40.712139],[-74.183095,40.712112],[-74.183095,40.712139],[-74.183131,40.712139]],[[-74.181211,40.713918],[-74.181174,40.713946],[-74.18121,40.713946],[-74.181211,40.713918]],[[-74.183725,40.716313],[-74.183689,40.716286],[-74.183688,40.716313],[-74.183725,40.716313]],[[-74.177882,40.730846],[-74.177846,40.730818],[-74.177846,40.730846],[-74.177882,40.730846]],[[-74.174979,40.726912],[-74.174906,40.726885],[-74.174906,40.726912],[-74.174979,40.726912]],[[-74.16525,40.738523],[-74.165214,40.738578],[-74.16525,40.738578],[-74.16525,40.738523]],[[-74.165778,40.741242],[-74.165814,40.741215],[-74.165778,40.741215],[-74.165778,40.741242]],[[-74.180683,40.718721],[-74.180719,40.718748],[-74.180719,40.718721],[-74.180683,40.718721]],[[-74.180792,40.718529],[-74.180828,40.718501],[-74.180792,40.718501],[-74.180792,40.718529]],[[-74.180792,40.718501],[-74.18072,40.718474],[-74.18072,40.718501],[-74.180792,40.718501]],[[-74.180829,40.718337],[-74.181008,40.718474],[-74.181009,40.71842],[-74.180829,40.718337]],[[-74.180901,40.718337],[-74.180937,40.71831],[-74.180901,40.718309],[-74.180901,40.718337]],[[-74.132921,40.730794],[-74.132957,40.730822],[-74.132957,40.730794],[-74.132921,40.730794]],[[-74.151741,40.720119],[-74.151776,40.720174],[-74.151813,40.720119],[-74.151741,40.720119]],[[-74.151994,40.719983],[-74.152066,40.72001],[-74.152066,40.719983],[-74.151994,40.719983]],[[-74.152211,40.719846],[-74.152247,40.719874],[-74.152247,40.719846],[-74.152211,40.719846]],[[-74.154961,40.718235],[-74.154926,40.718207],[-74.154925,40.718235],[-74.154961,40.718235]],[[-74.157923,40.710558],[-74.157887,40.710585],[-74.157923,40.710585],[-74.157923,40.710558]],[[-74.191687,40.687375],[-74.19165,40.687457],[-74.191686,40.687457],[-74.191687,40.687375]],[[-74.196037,40.690241],[-74.196001,40.690214],[-74.196001,40.690241],[-74.196037,40.690241]],[[-74.197108,40.692687],[-74.197072,40.69266],[-74.197072,40.692687],[-74.197108,40.692687]],[[-74.196417,40.69403],[-74.196345,40.693975],[-74.196344,40.69403],[-74.196417,40.69403]],[[-74.196344,40.69403],[-74.196308,40.694058],[-74.196344,40.694058],[-74.196344,40.69403]],[[-74.198486,40.691044],[-74.198594,40.691099],[-74.198594,40.691071],[-74.198486,40.691044]],[[-74.198594,40.691099],[-74.19863,40.691126],[-74.19863,40.691099],[-74.198594,40.691099]],[[-74.199539,40.689399],[-74.199575,40.689427],[-74.199575,40.6894],[-74.199539,40.689399]],[[-74.199684,40.68929],[-74.199719,40.689372],[-74.199828,40.689373],[-74.199684,40.68929]],[[-74.207701,40.694828],[-74.207737,40.694856],[-74.207737,40.694828],[-74.207701,40.694828]]],[[[-74.157113,40.713794],[-74.155492,40.713323],[-74.157883,40.711381],[-74.158241,40.711794],[-74.157113,40.713794]]],[[[-74.156066,40.713983],[-74.155993,40.714038],[-74.155957,40.713983],[-74.156066,40.713983]]],[[[-74.155344,40.714036],[-74.155308,40.714009],[-74.155344,40.714009],[-74.155344,40.714036]]],[[[-74.156066,40.714011],[-74.156137,40.714066],[-74.156029,40.714066],[-74.156066,40.714011]]],[[[-74.155452,40.714064],[-74.155488,40.714037],[-74.155488,40.714064],[-74.155452,40.714064]]],[[[-74.156246,40.714039],[-74.156137,40.714093],[-74.156137,40.714066],[-74.156246,40.714039]]],[[[-74.15574,40.714147],[-74.155776,40.71412],[-74.155776,40.714147],[-74.15574,40.714147]]],[[[-74.155812,40.714175],[-74.155848,40.714147],[-74.155848,40.714175],[-74.155812,40.714175]]],[[[-74.155956,40.714203],[-74.15592,40.714175],[-74.155956,40.714175],[-74.155956,40.714203]]],[[[-74.156858,40.714178],[-74.156353,40.714231],[-74.156209,40.714094],[-74.156858,40.714178]]],[[[-74.156028,40.71423],[-74.156101,40.714203],[-74.1561,40.714231],[-74.156028,40.71423]]],[[[-74.156173,40.714231],[-74.156136,40.714258],[-74.156137,40.714231],[-74.156173,40.714231]]],[[[-74.156425,40.714314],[-74.156317,40.714286],[-74.156425,40.714286],[-74.156425,40.714314]]],[[[-74.156497,40.714342],[-74.15646,40.714396],[-74.156425,40.714314],[-74.156497,40.714342]]],[[[-74.156636,40.715248],[-74.1566,40.715303],[-74.1566,40.715248],[-74.156636,40.715248]]],[[[-74.1566,40.715303],[-74.156449,40.716675],[-74.155979,40.716728],[-74.156301,40.717333],[-74.155976,40.717442],[-74.155616,40.717249],[-74.155654,40.716892],[-74.1566,40.715303]],[[-74.156016,40.716673],[-74.15598,40.716646],[-74.15598,40.716673],[-74.156016,40.716673]]],[[[-74.164044,40.734402],[-74.164008,40.73443],[-74.164008,40.734402],[-74.164044,40.734402]]],[[[-74.163972,40.73443],[-74.164008,40.734457],[-74.163971,40.734457],[-74.163972,40.73443]]],[[[-74.163971,40.734457],[-74.163935,40.734484],[-74.163935,40.734457],[-74.163971,40.734457]]],[[[-74.163935,40.734484],[-74.163899,40.734512],[-74.163899,40.734484],[-74.163935,40.734484]]],[[[-74.163863,40.734512],[-74.163899,40.734539],[-74.163863,40.734539],[-74.163863,40.734512]]],[[[-74.163863,40.734539],[-74.163827,40.734566],[-74.163827,40.734539],[-74.163863,40.734539]]],[[[-74.163827,40.734566],[-74.16379,40.734594],[-74.16379,40.734566],[-74.163827,40.734566]]],[[[-74.163682,40.734648],[-74.163718,40.734621],[-74.163718,40.734648],[-74.163682,40.734648]]],[[[-74.1635,40.73484],[-74.163464,40.734812],[-74.163501,40.734813],[-74.1635,40.73484]]],[[[-74.163464,40.73484],[-74.163428,40.734867],[-74.163428,40.73484],[-74.163464,40.73484]]],[[[-74.163428,40.734867],[-74.163392,40.734895],[-74.163392,40.734867],[-74.163428,40.734867]]],[[[-74.163356,40.734894],[-74.16332,40.734922],[-74.16332,40.734894],[-74.163356,40.734894]]],[[[-74.16332,40.734922],[-74.163283,40.734949],[-74.163283,40.734922],[-74.16332,40.734922]]],[[[-74.163175,40.735031],[-74.163211,40.735004],[-74.163211,40.735031],[-74.163175,40.735031]]],[[[-74.163139,40.735031],[-74.163102,40.735058],[-74.163102,40.735031],[-74.163139,40.735031]]],[[[-74.163102,40.735058],[-74.163066,40.735086],[-74.163066,40.735058],[-74.163102,40.735058]]],[[[-74.162812,40.735305],[-74.162776,40.735277],[-74.162813,40.735277],[-74.162812,40.735305]]],[[[-74.16274,40.735304],[-74.162776,40.735332],[-74.16274,40.735332],[-74.16274,40.735304]]],[[[-74.16274,40.735332],[-74.162704,40.735359],[-74.162704,40.735332],[-74.16274,40.735332]]],[[[-74.16209,40.735467],[-74.162741,40.735167],[-74.161981,40.735577],[-74.16209,40.735467]]],[[[-74.16274,40.735387],[-74.162776,40.735359],[-74.162776,40.735387],[-74.16274,40.735387]]],[[[-74.162668,40.735387],[-74.162632,40.735359],[-74.162668,40.735359],[-74.162668,40.735387]]],[[[-74.162451,40.735496],[-74.162415,40.735468],[-74.162451,40.735468],[-74.162451,40.735496]]],[[[-74.161909,40.735576],[-74.161945,40.735631],[-74.161909,40.735631],[-74.161909,40.735576]]],[[[-74.162632,40.735386],[-74.162016,40.735851],[-74.161871,40.735851],[-74.162632,40.735386]]],[[[-74.1618,40.735686],[-74.161872,40.735659],[-74.161872,40.735686],[-74.1618,40.735686]]],[[[-74.161835,40.735906],[-74.161799,40.735933],[-74.161799,40.735906],[-74.161835,40.735906]]],[[[-74.161799,40.735933],[-74.161546,40.735987],[-74.161582,40.73596],[-74.161799,40.735933]]],[[[-74.16351,40.761576],[-74.163255,40.762125],[-74.162893,40.762233],[-74.16351,40.761576]]],[[[-74.162821,40.762288],[-74.162892,40.762343],[-74.16282,40.762343],[-74.162821,40.762288]]],[[[-74.168414,40.74825],[-74.169454,40.749543],[-74.170285,40.749381],[-74.170316,40.750424],[-74.169341,40.750586],[-74.168724,40.75127],[-74.168074,40.751268],[-74.167854,40.752036],[-74.167276,40.751952],[-74.167233,40.753435],[-74.16658,40.754064],[-74.166796,40.75412],[-74.166647,40.755107],[-74.166936,40.755163],[-74.16675,40.756233],[-74.166676,40.75648],[-74.166171,40.756451],[-74.165876,40.757603],[-74.166164,40.757933],[-74.166016,40.758647],[-74.164961,40.760181],[-74.162931,40.761932],[-74.160347,40.765877],[-74.160236,40.766425],[-74.159984,40.766397],[-74.159143,40.768426],[-74.157618,40.770014],[-74.157762,40.770234],[-74.157943,40.770152],[-74.159177,40.768865],[-74.159064,40.769771],[-74.159461,40.769854],[-74.159421,40.770623],[-74.158984,40.771171],[-74.159346,40.771034],[-74.159562,40.771117],[-74.159344,40.771556],[-74.158801,40.771692],[-74.158871,40.772104],[-74.158183,40.772458],[-74.15731,40.773883],[-74.157236,40.774103],[-74.157812,40.774516],[-74.156726,40.775007],[-74.155961,40.776295],[-74.155995,40.776652],[-74.154107,40.77865],[-74.154106,40.778924],[-74.152052,40.77804],[-74.152339,40.778452],[-74.153851,40.779418],[-74.153559,40.779911],[-74.152511,40.780182],[-74.153411,40.780652],[-74.15341,40.780816],[-74.148329,40.779601],[-74.148635,40.778535],[-74.150145,40.776799],[-74.150613,40.77713],[-74.149778,40.778005],[-74.149229,40.779267],[-74.150721,40.777185],[-74.151836,40.777957],[-74.151873,40.777765],[-74.150793,40.77713],[-74.153511,40.775244],[-74.150721,40.777048],[-74.150205,40.776744],[-74.153904,40.77338],[-74.155822,40.770247],[-74.157171,40.767025],[-74.161643,40.762036],[-74.163014,40.760089],[-74.164054,40.757589],[-74.165214,40.751123],[-74.165548,40.751124],[-74.165235,40.750986],[-74.1658,40.748133],[-74.166609,40.74819],[-74.166607,40.748601],[-74.166931,40.748822],[-74.167328,40.748768],[-74.167403,40.748247],[-74.168414,40.74825]],[[-74.167782,40.751981],[-74.167818,40.751954],[-74.167782,40.751954],[-74.167782,40.751981]],[[-74.16449,40.760536],[-74.164454,40.760509],[-74.164454,40.760536],[-74.16449,40.760536]],[[-74.157726,40.770179],[-74.15769,40.770206],[-74.157726,40.770206],[-74.157726,40.770179]],[[-74.15341,40.780761],[-74.153374,40.780734],[-74.153374,40.780761],[-74.15341,40.780761]],[[-74.153511,40.775244],[-74.153547,40.775217],[-74.153511,40.775217],[-74.153511,40.775244]]],[[[-74.160601,40.765768],[-74.162056,40.763466],[-74.162129,40.763466],[-74.160891,40.765494],[-74.161538,40.766045],[-74.16139,40.766758],[-74.160487,40.766893],[-74.159906,40.76755],[-74.160601,40.765768]]],[[[-74.159981,40.766974],[-74.159908,40.767111],[-74.159835,40.767248],[-74.159908,40.767001],[-74.159981,40.766974]]],[[[-74.153591,40.780707],[-74.158132,40.78256],[-74.158383,40.78278],[-74.15341,40.780836],[-74.153591,40.780707]]],[[[-74.14875,40.705671],[-74.148678,40.705644],[-74.14875,40.705644],[-74.14875,40.705671]]],[[[-74.14875,40.705699],[-74.148822,40.705672],[-74.148822,40.705699],[-74.14875,40.705699]]],[[[-74.148894,40.705727],[-74.148858,40.705699],[-74.148894,40.705699],[-74.148894,40.705727]]],[[[-74.14893,40.705754],[-74.14893,40.705727],[-74.149002,40.705727],[-74.149002,40.705755],[-74.14893,40.705754]]],[[[-74.149074,40.705782],[-74.149002,40.705755],[-74.149074,40.705755],[-74.149074,40.705782]]],[[[-74.149146,40.70581],[-74.149074,40.70581],[-74.149074,40.705782],[-74.149146,40.705782],[-74.149146,40.70581]]],[[[-74.149975,40.70584],[-74.150012,40.705812],[-74.150012,40.70584],[-74.149975,40.70584]]],[[[-74.149218,40.705838],[-74.149146,40.70581],[-74.149218,40.70581],[-74.149218,40.705838]]],[[[-74.150156,40.70584],[-74.150084,40.705868],[-74.150084,40.70584],[-74.150156,40.70584]]],[[[-74.150364,40.707351],[-74.150512,40.706747],[-74.149218,40.705838],[-74.15307,40.707304],[-74.153468,40.707113],[-74.153217,40.706865],[-74.152496,40.706726],[-74.15192,40.706532],[-74.15192,40.706477],[-74.153181,40.7067],[-74.153684,40.707086],[-74.153501,40.70758],[-74.152273,40.708043],[-74.151805,40.707849],[-74.151479,40.70804],[-74.151662,40.707437],[-74.151265,40.707628],[-74.151302,40.707299],[-74.150546,40.707187],[-74.150364,40.707351]],[[-74.150582,40.707187],[-74.150618,40.707132],[-74.150582,40.707132],[-74.150582,40.707187]]],[[[-74.152741,40.708181],[-74.152777,40.708154],[-74.152777,40.708182],[-74.152741,40.708181]]],[[[-74.150176,40.708915],[-74.150139,40.709107],[-74.149994,40.709189],[-74.150176,40.708915]]],[[[-74.149994,40.709189],[-74.149958,40.709216],[-74.149958,40.709189],[-74.149994,40.709189]]],[[[-74.149849,40.709353],[-74.149922,40.709216],[-74.149958,40.709216],[-74.149849,40.709353]]],[[[-74.149777,40.709353],[-74.149813,40.70938],[-74.149777,40.70938],[-74.149777,40.709353]]],[[[-74.149777,40.70938],[-74.149704,40.709462],[-74.14974,40.70938],[-74.149777,40.70938]]],[[[-74.149704,40.709462],[-74.149668,40.70949],[-74.149668,40.709462],[-74.149704,40.709462]]],[[[-74.149632,40.70949],[-74.149668,40.709517],[-74.149632,40.709517],[-74.149632,40.70949]]],[[[-74.149632,40.709517],[-74.149595,40.709544],[-74.149595,40.709517],[-74.149632,40.709517]]],[[[-74.149595,40.709544],[-74.149559,40.709572],[-74.149559,40.709544],[-74.149595,40.709544]]],[[[-74.149523,40.709572],[-74.149559,40.709599],[-74.149523,40.709599],[-74.149523,40.709572]]],[[[-74.149523,40.709654],[-74.149487,40.709626],[-74.149523,40.709627],[-74.149523,40.709654]]],[[[-74.149487,40.709654],[-74.14945,40.709681],[-74.14945,40.709654],[-74.149487,40.709654]]],[[[-74.14945,40.709681],[-74.149414,40.709709],[-74.149414,40.709681],[-74.14945,40.709681]]],[[[-74.149414,40.709709],[-74.149378,40.709736],[-74.149378,40.709708],[-74.149414,40.709709]]],[[[-74.149378,40.709736],[-74.149342,40.709763],[-74.149342,40.709736],[-74.149378,40.709736]]],[[[-74.148871,40.710146],[-74.148907,40.710119],[-74.148907,40.710146],[-74.148871,40.710146]]],[[[-74.148726,40.710228],[-74.14869,40.710255],[-74.14869,40.710228],[-74.148726,40.710228]]],[[[-74.14869,40.710255],[-74.148654,40.710283],[-74.148654,40.710255],[-74.14869,40.710255]]],[[[-74.148545,40.710392],[-74.148581,40.710283],[-74.148654,40.710283],[-74.148545,40.710392]]],[[[-74.148437,40.710392],[-74.148472,40.710419],[-74.148436,40.710419],[-74.148437,40.710392]]],[[[-74.148436,40.710419],[-74.1484,40.710447],[-74.1484,40.710419],[-74.148436,40.710419]]],[[[-74.1484,40.710447],[-74.148364,40.710474],[-74.148364,40.710447],[-74.1484,40.710447]]],[[[-74.148328,40.710474],[-74.148364,40.710501],[-74.148328,40.710501],[-74.148328,40.710474]]],[[[-74.148328,40.710501],[-74.148292,40.710529],[-74.148292,40.710501],[-74.148328,40.710501]]],[[[-74.148292,40.710529],[-74.148255,40.710556],[-74.148255,40.710529],[-74.148292,40.710529]]],[[[-74.148219,40.710556],[-74.148255,40.710583],[-74.148219,40.710583],[-74.148219,40.710556]]],[[[-74.156712,40.714479],[-74.155147,40.71722],[-74.154168,40.71826],[-74.147619,40.721836],[-74.150122,40.719236],[-74.152229,40.716333],[-74.152447,40.716141],[-74.152627,40.716169],[-74.154006,40.714609],[-74.154803,40.71398],[-74.156712,40.714479]],[[-74.152519,40.716196],[-74.152483,40.716224],[-74.152519,40.716224],[-74.152519,40.716196]]],[[[-74.155106,40.718153],[-74.155142,40.718181],[-74.155106,40.71818],[-74.155106,40.718153]]],[[[-74.154853,40.718262],[-74.154889,40.71829],[-74.154853,40.718289],[-74.154853,40.718262]]],[[[-74.154853,40.718289],[-74.154817,40.718317],[-74.154817,40.718289],[-74.154853,40.718289]]],[[[-74.154382,40.71859],[-74.154346,40.718562],[-74.154383,40.718563],[-74.154382,40.71859]]],[[[-74.154022,40.718589],[-74.154057,40.718644],[-74.154021,40.718644],[-74.154022,40.718589]]],[[[-74.153622,40.719054],[-74.153659,40.719027],[-74.153658,40.719054],[-74.153622,40.719054]]],[[[-74.151849,40.720065],[-74.151885,40.720037],[-74.151885,40.720065],[-74.151849,40.720065]]],[[[-74.150908,40.720611],[-74.150872,40.720583],[-74.150908,40.720583],[-74.150908,40.720611]]],[[[-74.150329,40.720939],[-74.150366,40.720884],[-74.150365,40.720939],[-74.150329,40.720939]]],[[[-74.150257,40.720966],[-74.150293,40.720938],[-74.150293,40.720966],[-74.150257,40.720966]]],[[[-74.149569,40.721403],[-74.149533,40.721375],[-74.149569,40.721375],[-74.149569,40.721403]]],[[[-74.149281,40.72132],[-74.149172,40.721457],[-74.149028,40.721456],[-74.149281,40.72132]]],[[[-74.148955,40.721511],[-74.148919,40.721483],[-74.148955,40.721483],[-74.148955,40.721511]]],[[[-74.148847,40.72151],[-74.148919,40.721538],[-74.148847,40.721538],[-74.148847,40.72151]]],[[[-74.148847,40.721538],[-74.148811,40.721565],[-74.148811,40.721538],[-74.148847,40.721538]]],[[[-74.148811,40.721565],[-74.148738,40.721592],[-74.148739,40.721565],[-74.148811,40.721565]]],[[[-74.148702,40.721592],[-74.148738,40.72162],[-74.148702,40.72162],[-74.148702,40.721592]]],[[[-74.148702,40.72162],[-74.148666,40.721647],[-74.148666,40.72162],[-74.148702,40.72162]]],[[[-74.148666,40.721647],[-74.148014,40.722057],[-74.147906,40.722057],[-74.148051,40.72192],[-74.148666,40.721647]]],[[[-74.136558,40.705743],[-74.13627,40.705605],[-74.136666,40.705744],[-74.136558,40.705743]]],[[[-74.136738,40.705689],[-74.136702,40.705716],[-74.136702,40.705689],[-74.136738,40.705689]]],[[[-74.13681,40.705717],[-74.136774,40.705744],[-74.136774,40.705717],[-74.13681,40.705717]]],[[[-74.136882,40.705854],[-74.136774,40.705744],[-74.13699,40.705855],[-74.136882,40.705854]]],[[[-74.136557,40.705826],[-74.136593,40.705798],[-74.136593,40.705826],[-74.136557,40.705826]]],[[[-74.137134,40.705828],[-74.137098,40.705855],[-74.137098,40.705827],[-74.137134,40.705828]]],[[[-74.136665,40.705854],[-74.136629,40.705826],[-74.136665,40.705826],[-74.136665,40.705854]]],[[[-74.13699,40.705882],[-74.13699,40.705855],[-74.137062,40.705855],[-74.137062,40.705882],[-74.13699,40.705882]]],[[[-74.137278,40.705883],[-74.137242,40.70591],[-74.137242,40.705883],[-74.137278,40.705883]]],[[[-74.136917,40.705937],[-74.136881,40.705909],[-74.136917,40.705909],[-74.136917,40.705937]]],[[[-74.13735,40.70602],[-74.13717,40.705883],[-74.137458,40.706021],[-74.13735,40.70602]]],[[[-74.137205,40.70602],[-74.137242,40.705993],[-74.137241,40.70602],[-74.137205,40.70602]]],[[[-74.13753,40.706021],[-74.137458,40.706048],[-74.137458,40.706021],[-74.13753,40.706021]]],[[[-74.137421,40.70613],[-74.137457,40.706103],[-74.137457,40.706131],[-74.137421,40.70613]]],[[[-74.138934,40.706465],[-74.138898,40.706492],[-74.138898,40.706464],[-74.138934,40.706465]]],[[[-74.138826,40.706492],[-74.138898,40.706519],[-74.138826,40.706519],[-74.138826,40.706492]]],[[[-74.136507,40.708488],[-74.136579,40.708516],[-74.136506,40.708516],[-74.136507,40.708488]]],[[[-74.136579,40.708516],[-74.136651,40.708544],[-74.136578,40.708543],[-74.136579,40.708516]]],[[[-74.136651,40.708544],[-74.136686,40.708571],[-74.13665,40.708571],[-74.136651,40.708544]]],[[[-74.14263,40.710127],[-74.142666,40.7101],[-74.142666,40.710127],[-74.14263,40.710127]]],[[[-74.142053,40.710125],[-74.142125,40.710098],[-74.142125,40.710125],[-74.142053,40.710125]]],[[[-74.142558,40.710127],[-74.14263,40.710154],[-74.142558,40.710154],[-74.142558,40.710127]]],[[[-74.13996,40.710174],[-74.140033,40.710146],[-74.140033,40.710174],[-74.13996,40.710174]]],[[[-74.142558,40.710209],[-74.142594,40.710182],[-74.142594,40.710209],[-74.142558,40.710209]]],[[[-74.140068,40.710201],[-74.140105,40.710174],[-74.140105,40.710201],[-74.140068,40.710201]]],[[[-74.142485,40.710291],[-74.142521,40.710264],[-74.142521,40.710291],[-74.142485,40.710291]]],[[[-74.14811,40.710665],[-74.148075,40.710638],[-74.148111,40.710638],[-74.14811,40.710665]]],[[[-74.148074,40.710665],[-74.148038,40.710693],[-74.148038,40.710665],[-74.148074,40.710665]]],[[[-74.148002,40.710693],[-74.148038,40.71072],[-74.148002,40.71072],[-74.148002,40.710693]]],[[[-74.148217,40.710968],[-74.148396,40.711243],[-74.147891,40.711186],[-74.147928,40.711131],[-74.148217,40.710968]]],[[[-74.14771,40.711296],[-74.147566,40.711377],[-74.147566,40.71135],[-74.14771,40.711296]]],[[[-74.147528,40.711597],[-74.147168,40.711568],[-74.147566,40.711377],[-74.147528,40.711597]]],[[[-74.145904,40.711812],[-74.14594,40.711784],[-74.14594,40.711812],[-74.145904,40.711812]]],[[[-74.138022,40.715109],[-74.137986,40.715081],[-74.138022,40.715081],[-74.138022,40.715109]]],[[[-74.13795,40.715108],[-74.137986,40.715136],[-74.13795,40.715136],[-74.13795,40.715108]]],[[[-74.137842,40.715026],[-74.137624,40.715217],[-74.137552,40.715217],[-74.137842,40.715026]]],[[[-74.13795,40.715136],[-74.137913,40.715163],[-74.137913,40.715136],[-74.13795,40.715136]]],[[[-74.137516,40.715217],[-74.137552,40.715244],[-74.137516,40.715244],[-74.137516,40.715217]]],[[[-74.137516,40.715244],[-74.13748,40.715272],[-74.13748,40.715244],[-74.137516,40.715244]]],[[[-74.13748,40.715272],[-74.137444,40.715299],[-74.137444,40.715271],[-74.13748,40.715272]]],[[[-74.137913,40.715163],[-74.137623,40.715437],[-74.137551,40.715437],[-74.137696,40.715272],[-74.137913,40.715163]]],[[[-74.137444,40.715299],[-74.137407,40.715326],[-74.137407,40.715299],[-74.137444,40.715299]]],[[[-74.137407,40.715326],[-74.137371,40.715354],[-74.137371,40.715326],[-74.137407,40.715326]]],[[[-74.137371,40.715354],[-74.137335,40.715381],[-74.137335,40.715353],[-74.137371,40.715354]]],[[[-74.136749,40.716889],[-74.136713,40.716916],[-74.136713,40.716889],[-74.136749,40.716889]]],[[[-74.136713,40.716916],[-74.136677,40.716971],[-74.136677,40.716916],[-74.136713,40.716916]]],[[[-74.136677,40.716971],[-74.136641,40.716998],[-74.136641,40.716971],[-74.136677,40.716971]]],[[[-74.136605,40.716998],[-74.13664,40.717053],[-74.136604,40.717053],[-74.136605,40.716998]]],[[[-74.136604,40.717053],[-74.136568,40.717108],[-74.136568,40.717053],[-74.136604,40.717053]]],[[[-74.136675,40.717245],[-74.136821,40.716999],[-74.136929,40.716972],[-74.136675,40.717245]]],[[[-74.136532,40.717108],[-74.136568,40.717163],[-74.136532,40.717163],[-74.136532,40.717108]]],[[[-74.136239,40.717875],[-74.136275,40.717848],[-74.136275,40.717876],[-74.136239,40.717875]]],[[[-74.147114,40.72178],[-74.14715,40.721752],[-74.14715,40.72178],[-74.147114,40.72178]]],[[[-74.147073,40.722603],[-74.147037,40.72263],[-74.147037,40.722603],[-74.147073,40.722603]]],[[[-74.147037,40.72263],[-74.147001,40.722658],[-74.147001,40.72263],[-74.147037,40.72263]]],[[[-74.147001,40.722658],[-74.146965,40.722685],[-74.146965,40.722658],[-74.147001,40.722658]]],[[[-74.144902,40.723887],[-74.144866,40.723859],[-74.144902,40.723859],[-74.144902,40.723887]]],[[[-74.134002,40.704692],[-74.134038,40.70472],[-74.134002,40.70472],[-74.134002,40.704692]]],[[[-74.133894,40.704774],[-74.133822,40.704747],[-74.133894,40.704747],[-74.133894,40.704774]]],[[[-74.133966,40.704774],[-74.133893,40.704802],[-74.133894,40.704774],[-74.133966,40.704774]]],[[[-74.133966,40.704802],[-74.134218,40.704885],[-74.134109,40.704885],[-74.133966,40.704802]]],[[[-74.13429,40.704913],[-74.134218,40.704885],[-74.13429,40.704885],[-74.13429,40.704913]]],[[[-74.134649,40.705079],[-74.13429,40.704913],[-74.134794,40.705079],[-74.134649,40.705079]]],[[[-74.134829,40.705134],[-74.134938,40.705107],[-74.134938,40.705162],[-74.134829,40.705134]]],[[[-74.135514,40.705301],[-74.13555,40.705274],[-74.13555,40.705301],[-74.135514,40.705301]]],[[[-74.13627,40.705605],[-74.135225,40.705273],[-74.135226,40.705218],[-74.13627,40.705605]]],[[[-74.136054,40.70544],[-74.136018,40.705467],[-74.136018,40.70544],[-74.136054,40.70544]]],[[[-74.136306,40.705578],[-74.136342,40.705551],[-74.136342,40.705578],[-74.136306,40.705578]]],[[[-74.136378,40.705606],[-74.136414,40.705578],[-74.136414,40.705606],[-74.136378,40.705606]]],[[[-74.135945,40.705604],[-74.135909,40.705577],[-74.135945,40.705577],[-74.135945,40.705604]]],[[[-74.136269,40.705715],[-74.136233,40.705688],[-74.136269,40.705688],[-74.136269,40.705715]]],[[[-74.136377,40.70577],[-74.136413,40.705743],[-74.136413,40.70577],[-74.136377,40.70577]]],[[[-74.133814,40.706119],[-74.133742,40.706146],[-74.133742,40.706119],[-74.133814,40.706119]]],[[[-74.133958,40.706202],[-74.133814,40.706174],[-74.133814,40.706147],[-74.133958,40.706202]]],[[[-74.13385,40.706229],[-74.133886,40.706202],[-74.133886,40.706229],[-74.13385,40.706229]]],[[[-74.133886,40.706229],[-74.133958,40.706257],[-74.133885,40.706257],[-74.133886,40.706229]]],[[[-74.134246,40.706313],[-74.133958,40.706229],[-74.133958,40.706202],[-74.13421,40.706258],[-74.134246,40.706313]]],[[[-74.13403,40.706257],[-74.133994,40.706284],[-74.133994,40.706257],[-74.13403,40.706257]]],[[[-74.134066,40.706285],[-74.134102,40.706312],[-74.134066,40.706312],[-74.134066,40.706285]]],[[[-74.134174,40.706312],[-74.134138,40.70634],[-74.134138,40.706312],[-74.134174,40.706312]]],[[[-74.134173,40.706395],[-74.134209,40.706367],[-74.134209,40.706395],[-74.134173,40.706395]]],[[[-74.134242,40.707054],[-74.134278,40.707081],[-74.134242,40.707081],[-74.134242,40.707054]]],[[[-74.134745,40.707357],[-74.134709,40.707385],[-74.134709,40.707357],[-74.134745,40.707357]]],[[[-74.134024,40.707382],[-74.13406,40.70741],[-74.134023,40.70741],[-74.134024,40.707382]]],[[[-74.134059,40.707437],[-74.134096,40.70741],[-74.134095,40.707438],[-74.134059,40.707437]]],[[[-74.134095,40.707438],[-74.134131,40.707465],[-74.134095,40.707465],[-74.134095,40.707438]]],[[[-74.134203,40.70752],[-74.134203,40.707493],[-74.134239,40.707493],[-74.134239,40.70752],[-74.134203,40.70752]]],[[[-74.134275,40.707548],[-74.134239,40.70752],[-74.134275,40.707521],[-74.134275,40.707548]]],[[[-74.134347,40.707576],[-74.134383,40.707603],[-74.134347,40.707603],[-74.134347,40.707576]]],[[[-74.134455,40.707631],[-74.134383,40.707603],[-74.134455,40.707603],[-74.134455,40.707631]]],[[[-74.134491,40.707658],[-74.134455,40.707658],[-74.134455,40.707631],[-74.134491,40.707631],[-74.134491,40.707658]]],[[[-74.134491,40.707686],[-74.134491,40.707658],[-74.134527,40.707659],[-74.134527,40.707686],[-74.134491,40.707686]]],[[[-74.134599,40.707714],[-74.134527,40.707686],[-74.134599,40.707686],[-74.134599,40.707714]]],[[[-74.134707,40.707769],[-74.134635,40.707769],[-74.134599,40.707714],[-74.134671,40.707714],[-74.134707,40.707769]]],[[[-74.134707,40.707796],[-74.134707,40.707769],[-74.134779,40.707769],[-74.134779,40.707797],[-74.134707,40.707796]]],[[[-74.134815,40.707824],[-74.134779,40.707797],[-74.134815,40.707797],[-74.134815,40.707824]]],[[[-74.134887,40.707852],[-74.134815,40.707852],[-74.134815,40.707824],[-74.134887,40.707824],[-74.134887,40.707852]]],[[[-74.134959,40.70788],[-74.134887,40.707852],[-74.134959,40.707852],[-74.134959,40.70788]]],[[[-74.135067,40.707907],[-74.134959,40.707907],[-74.134959,40.70788],[-74.135067,40.707907]]],[[[-74.135355,40.708018],[-74.135282,40.708045],[-74.135283,40.708018],[-74.135355,40.708018]]],[[[-74.136291,40.708405],[-74.136363,40.708433],[-74.13629,40.708433],[-74.136291,40.708405]]],[[[-74.15408,40.714279],[-74.151799,40.715947],[-74.152087,40.716058],[-74.150524,40.718167],[-74.148201,40.720877],[-74.147078,40.721752],[-74.147077,40.721834],[-74.144579,40.723529],[-74.140019,40.726122],[-74.139513,40.726203],[-74.137956,40.727269],[-74.137233,40.727486],[-74.134807,40.729043],[-74.133794,40.729534],[-74.133507,40.729286],[-74.133215,40.729862],[-74.128509,40.732482],[-74.128038,40.732865],[-74.128653,40.732537],[-74.128761,40.732592],[-74.127711,40.733248],[-74.124456,40.734665],[-74.125515,40.73239],[-74.125335,40.732279],[-74.125662,40.731869],[-74.12559,40.731786],[-74.125337,40.73195],[-74.124572,40.733155],[-74.124356,40.733155],[-74.124396,40.732468],[-74.123961,40.732742],[-74.123371,40.734936],[-74.120772,40.735064],[-74.117414,40.734916],[-74.117827,40.732502],[-74.120206,40.733086],[-74.120817,40.73361],[-74.12089,40.733335],[-74.12136,40.733309],[-74.120964,40.733034],[-74.122228,40.732955],[-74.122626,40.732737],[-74.120424,40.732895],[-74.117863,40.73231],[-74.120642,40.722955],[-74.120962,40.720012],[-74.120551,40.717436],[-74.116105,40.709156],[-74.114309,40.704609],[-74.114097,40.702284],[-74.114315,40.700569],[-74.116009,40.69736],[-74.122699,40.700621],[-74.122878,40.700896],[-74.127373,40.703244],[-74.13007,40.704844],[-74.130142,40.704817],[-74.129496,40.704294],[-74.130287,40.704735],[-74.130395,40.704681],[-74.130935,40.704957],[-74.130898,40.705012],[-74.13097,40.705067],[-74.131439,40.705041],[-74.132267,40.705428],[-74.133816,40.70568],[-74.134143,40.705269],[-74.134359,40.705435],[-74.134612,40.705298],[-74.133892,40.705049],[-74.133965,40.704967],[-74.137493,40.706186],[-74.137638,40.706131],[-74.137889,40.706269],[-74.137998,40.706215],[-74.137602,40.705966],[-74.135262,40.705163],[-74.135119,40.704915],[-74.134866,40.705024],[-74.134075,40.70461],[-74.134002,40.704692],[-74.13393,40.704692],[-74.133858,40.704637],[-74.13375,40.704637],[-74.13087,40.703612],[-74.129863,40.703114],[-74.125362,40.701782],[-74.116081,40.697332],[-74.117428,40.695143],[-74.1422,40.702824],[-74.149541,40.706195],[-74.1499,40.706443],[-74.150151,40.706801],[-74.149965,40.707761],[-74.148985,40.709021],[-74.147246,40.710333],[-74.145619,40.711124],[-74.144539,40.710709],[-74.145764,40.710905],[-74.146126,40.710687],[-74.145552,40.710191],[-74.145626,40.709779],[-74.145086,40.709503],[-74.140695,40.707733],[-74.138713,40.707342],[-74.138567,40.707699],[-74.142022,40.709137],[-74.144071,40.710543],[-74.142669,40.709688],[-74.142523,40.709852],[-74.142739,40.710018],[-74.142559,40.710017],[-74.14263,40.7101],[-74.142558,40.710099],[-74.142558,40.710127],[-74.142486,40.710127],[-74.142485,40.710264],[-74.142088,40.710263],[-74.142341,40.710154],[-74.14209,40.710016],[-74.141764,40.710234],[-74.140719,40.709984],[-74.136795,40.708517],[-74.136543,40.708434],[-74.136471,40.708433],[-74.136507,40.708488],[-74.136434,40.708488],[-74.135894,40.708294],[-74.13539,40.7081],[-74.135391,40.707991],[-74.134419,40.707548],[-74.134347,40.707548],[-74.134347,40.707576],[-74.134311,40.707576],[-74.13424,40.707438],[-74.13406,40.707355],[-74.134024,40.707382],[-74.133988,40.707382],[-74.133988,40.707245],[-74.134606,40.706369],[-74.133778,40.706064],[-74.133562,40.706118],[-74.134173,40.706422],[-74.133772,40.707135],[-74.133412,40.707024],[-74.1337,40.707217],[-74.133409,40.707682],[-74.133624,40.707848],[-74.133987,40.70741],[-74.13467,40.707851],[-74.135211,40.707963],[-74.135282,40.708128],[-74.139098,40.709567],[-74.139852,40.710201],[-74.145113,40.71137],[-74.138822,40.713931],[-74.136759,40.715187],[-74.134983,40.716664],[-74.134328,40.717595],[-74.133998,40.718555],[-74.134272,40.721355],[-74.133978,40.72237],[-74.133761,40.722452],[-74.133836,40.721958],[-74.13333,40.721984],[-74.131688,40.725382],[-74.130381,40.726778],[-74.128751,40.727981],[-74.128605,40.7282],[-74.128856,40.728503],[-74.129291,40.72823],[-74.129145,40.728558],[-74.129577,40.728697],[-74.132878,40.725496],[-74.133203,40.725497],[-74.132987,40.725332],[-74.133458,40.724949],[-74.134733,40.722812],[-74.13488,40.722236],[-74.134517,40.722701],[-74.134482,40.722536],[-74.133938,40.723056],[-74.133866,40.723056],[-74.134486,40.721713],[-74.134666,40.721878],[-74.134815,40.720945],[-74.13514,40.720946],[-74.13496,40.720809],[-74.135544,40.719603],[-74.135648,40.720426],[-74.137253,40.71711],[-74.138524,40.715714],[-74.1399,40.714703],[-74.14677,40.711787],[-74.150155,40.712923],[-74.150588,40.712814],[-74.154443,40.713841],[-74.15408,40.714279]],[[-74.147911,40.721068],[-74.147875,40.721041],[-74.147875,40.721068],[-74.147911,40.721068]],[[-74.147911,40.721041],[-74.147948,40.721014],[-74.147912,40.721014],[-74.147911,40.721041]],[[-74.147766,40.721205],[-74.14773,40.721178],[-74.14773,40.721205],[-74.147766,40.721205]],[[-74.147006,40.721779],[-74.147042,40.721752],[-74.147006,40.721752],[-74.147006,40.721779]],[[-74.128002,40.732919],[-74.127966,40.732809],[-74.12793,40.732919],[-74.128002,40.732919]],[[-74.12793,40.732919],[-74.127893,40.732946],[-74.127929,40.732947],[-74.12793,40.732919]],[[-74.127893,40.732946],[-74.127857,40.732974],[-74.127893,40.732974],[-74.127893,40.732946]],[[-74.127857,40.732974],[-74.127821,40.733001],[-74.127857,40.733001],[-74.127857,40.732974]],[[-74.127821,40.733001],[-74.127749,40.733028],[-74.127821,40.733029],[-74.127821,40.733001]],[[-74.125515,40.732362],[-74.125551,40.732335],[-74.125515,40.732335],[-74.125515,40.732362]],[[-74.125407,40.732307],[-74.125443,40.732252],[-74.125407,40.732252],[-74.125407,40.732307]],[[-74.125443,40.732252],[-74.12548,40.732197],[-74.125444,40.732197],[-74.125443,40.732252]],[[-74.129458,40.704513],[-74.129494,40.704541],[-74.129494,40.704513],[-74.129458,40.704513]],[[-74.129494,40.704541],[-74.12953,40.704568],[-74.12953,40.704541],[-74.129494,40.704541]],[[-74.12953,40.704568],[-74.129566,40.704596],[-74.129566,40.704568],[-74.12953,40.704568]],[[-74.130142,40.704845],[-74.130178,40.704872],[-74.130178,40.704845],[-74.130142,40.704845]],[[-74.130178,40.704872],[-74.130214,40.7049],[-74.130214,40.704872],[-74.130178,40.704872]],[[-74.130286,40.7049],[-74.130357,40.705038],[-74.130429,40.705038],[-74.130286,40.7049]],[[-74.130429,40.705038],[-74.130465,40.705065],[-74.130465,40.705038],[-74.130429,40.705038]],[[-74.130537,40.705066],[-74.130645,40.705231],[-74.130717,40.705231],[-74.130537,40.705066]],[[-74.130717,40.705231],[-74.130753,40.705258],[-74.130753,40.705231],[-74.130717,40.705231]],[[-74.130575,40.704819],[-74.130539,40.704846],[-74.130575,40.704846],[-74.130575,40.704819]],[[-74.130863,40.704957],[-74.130826,40.704984],[-74.130862,40.704984],[-74.130863,40.704957]],[[-74.138106,40.706242],[-74.138033,40.706325],[-74.138322,40.706353],[-74.138106,40.706242]],[[-74.137998,40.70627],[-74.137961,40.706297],[-74.137997,40.706297],[-74.137998,40.70627]],[[-74.13843,40.706353],[-74.138466,40.706436],[-74.138574,40.706436],[-74.13843,40.706353]],[[-74.138574,40.706436],[-74.138646,40.706464],[-74.138646,40.706436],[-74.138574,40.706436]],[[-74.138646,40.706491],[-74.138934,40.706602],[-74.139042,40.706602],[-74.138934,40.706437],[-74.138826,40.706492],[-74.138646,40.706491]],[[-74.13915,40.706603],[-74.139185,40.706712],[-74.139366,40.706713],[-74.13915,40.706603]],[[-74.139366,40.70674],[-74.139618,40.706851],[-74.13969,40.706824],[-74.139546,40.706686],[-74.139366,40.70674]],[[-74.13969,40.706824],[-74.139762,40.706852],[-74.139762,40.706824],[-74.13969,40.706824]],[[-74.139762,40.706852],[-74.139834,40.706879],[-74.139834,40.706852],[-74.139762,40.706852]],[[-74.139834,40.706907],[-74.140302,40.707073],[-74.14041,40.707073],[-74.140158,40.706908],[-74.139834,40.706907]],[[-74.14041,40.707073],[-74.140482,40.707101],[-74.140482,40.707073],[-74.14041,40.707073]],[[-74.14059,40.707101],[-74.140626,40.707184],[-74.140734,40.707184],[-74.14059,40.707101]],[[-74.140734,40.707211],[-74.141022,40.707322],[-74.14113,40.707322],[-74.140914,40.707212],[-74.140734,40.707211]],[[-74.141167,40.70724],[-74.141382,40.707378],[-74.141419,40.707323],[-74.141167,40.70724]],[[-74.141419,40.707351],[-74.14149,40.707406],[-74.141491,40.707351],[-74.141419,40.707351]],[[-74.141419,40.707323],[-74.141455,40.707296],[-74.141419,40.707296],[-74.141419,40.707323]],[[-74.13915,40.706603],[-74.139186,40.706575],[-74.13915,40.706575],[-74.13915,40.706603]],[[-74.134866,40.704997],[-74.134903,40.704915],[-74.134867,40.704915],[-74.134866,40.704997]],[[-74.133282,40.704388],[-74.133354,40.704416],[-74.133355,40.704388],[-74.133282,40.704388]],[[-74.14972,40.706333],[-74.149684,40.70647],[-74.14972,40.70647],[-74.14972,40.706333]],[[-74.136291,40.708378],[-74.136255,40.70835],[-74.136255,40.708378],[-74.136291,40.708378]],[[-74.136075,40.708322],[-74.136147,40.708295],[-74.136075,40.708295],[-74.136075,40.708322]],[[-74.136075,40.708295],[-74.136039,40.708267],[-74.136039,40.708295],[-74.136075,40.708295]],[[-74.134242,40.707054],[-74.134206,40.707081],[-74.134565,40.707329],[-74.134961,40.707495],[-74.134386,40.707082],[-74.134278,40.707026],[-74.134242,40.707054]],[[-74.134961,40.707495],[-74.134997,40.707523],[-74.134997,40.707495],[-74.134961,40.707495]],[[-74.134678,40.706396],[-74.134642,40.706451],[-74.13475,40.706451],[-74.134678,40.706396]],[[-74.13475,40.706451],[-74.134822,40.706479],[-74.134822,40.706452],[-74.13475,40.706451]],[[-74.134822,40.706479],[-74.134894,40.706507],[-74.134894,40.706479],[-74.134822,40.706479]],[[-74.134894,40.706507],[-74.134966,40.706534],[-74.134966,40.706507],[-74.134894,40.706507]],[[-74.133562,40.706118],[-74.133526,40.706091],[-74.133526,40.706118],[-74.133562,40.706118]],[[-74.133919,40.706806],[-74.133883,40.706778],[-74.133882,40.706806],[-74.133919,40.706806]],[[-74.133412,40.707024],[-74.133376,40.706996],[-74.133376,40.707024],[-74.133412,40.707024]],[[-74.135174,40.708017],[-74.135102,40.70799],[-74.135102,40.708017],[-74.135174,40.708017]],[[-74.144139,40.711257],[-74.144175,40.711285],[-74.144175,40.711257],[-74.144139,40.711257]],[[-74.144175,40.711285],[-74.144211,40.711312],[-74.144211,40.711285],[-74.144175,40.711285]],[[-74.134011,40.722947],[-74.133975,40.722892],[-74.133974,40.722947],[-74.134011,40.722947]],[[-74.154225,40.714088],[-74.154154,40.714005],[-74.154153,40.71406],[-74.154225,40.714088]],[[-74.154226,40.714033],[-74.154262,40.713978],[-74.154226,40.713978],[-74.154226,40.714033]],[[-74.154189,40.714142],[-74.154153,40.714115],[-74.154153,40.714142],[-74.154189,40.714142]]],[[[-74.135669,40.716611],[-74.135632,40.716638],[-74.135633,40.716611],[-74.135669,40.716611]]],[[[-74.135596,40.716638],[-74.135596,40.716693],[-74.13556,40.71672],[-74.135596,40.716638]]],[[[-74.13556,40.71672],[-74.135523,40.716775],[-74.135524,40.71672],[-74.13556,40.71672]]],[[[-74.135993,40.716639],[-74.136282,40.716695],[-74.135738,40.717105],[-74.135739,40.716913],[-74.135993,40.716639]]],[[[-74.134872,40.717075],[-74.134288,40.718308],[-74.134216,40.718336],[-74.134436,40.717678],[-74.134872,40.717075]]],[[[-74.136239,40.717848],[-74.136203,40.71782],[-74.136239,40.717821],[-74.136239,40.717848]]],[[[-74.13559,40.717873],[-74.135554,40.717846],[-74.13559,40.717846],[-74.13559,40.717873]]],[[[-74.134505,40.718364],[-74.134576,40.718419],[-74.134504,40.718392],[-74.134505,40.718364]]],[[[-74.136129,40.71815],[-74.135911,40.718561],[-74.135839,40.718533],[-74.134671,40.720863],[-74.134646,40.718941],[-74.135303,40.717488],[-74.135409,40.717928],[-74.135589,40.717901],[-74.135843,40.717792],[-74.135916,40.717655],[-74.136168,40.717656],[-74.136129,40.71815]],[[-74.136057,40.718232],[-74.136021,40.718204],[-74.136021,40.718232],[-74.136057,40.718232]],[[-74.135984,40.718369],[-74.135948,40.718341],[-74.135948,40.718369],[-74.135984,40.718369]],[[-74.135911,40.718506],[-74.135875,40.718478],[-74.135875,40.718506],[-74.135911,40.718506]],[[-74.136132,40.71771],[-74.136096,40.717683],[-74.136096,40.71771],[-74.136132,40.71771]]],[[[-74.134644,40.719215],[-74.134608,40.719188],[-74.134644,40.719188],[-74.134644,40.719215]]],[[[-74.134504,40.718392],[-74.134491,40.720889],[-74.134383,40.720889],[-74.134172,40.719845],[-74.134216,40.718363],[-74.134215,40.7185],[-74.134504,40.718392]],[[-74.134467,40.718666],[-74.134431,40.718638],[-74.134431,40.718666],[-74.134467,40.718666]]],[[[-74.134454,40.721109],[-74.134382,40.720917],[-74.134455,40.720917],[-74.134454,40.721109]]],[[[-74.129322,40.70303],[-74.129359,40.703003],[-74.129358,40.70303],[-74.129322,40.70303]]],[[[-74.129934,40.703252],[-74.12997,40.703225],[-74.12997,40.703252],[-74.129934,40.703252]]],[[[-74.130078,40.703307],[-74.130114,40.70328],[-74.130114,40.703307],[-74.130078,40.703307]]],[[[-74.129424,40.704238],[-74.129388,40.704211],[-74.129424,40.704211],[-74.129424,40.704238]]],[[[-74.12946,40.704266],[-74.129424,40.704266],[-74.129424,40.704238],[-74.12946,40.704239],[-74.12946,40.704266]]],[[[-74.129496,40.704294],[-74.12946,40.704266],[-74.129496,40.704266],[-74.129496,40.704294]]],[[[-74.129279,40.704348],[-74.129243,40.70432],[-74.129279,40.70432],[-74.129279,40.704348]]],[[[-74.13,40.704487],[-74.129964,40.70446],[-74.13,40.70446],[-74.13,40.704487]]],[[[-74.130071,40.704542],[-74.130072,40.704515],[-74.130108,40.704515],[-74.130107,40.704543],[-74.130071,40.704542]]],[[[-74.130143,40.70457],[-74.130107,40.704543],[-74.130144,40.704543],[-74.130143,40.70457]]],[[[-74.129747,40.704541],[-74.129783,40.704569],[-74.129747,40.704569],[-74.129747,40.704541]]],[[[-74.130143,40.704598],[-74.130179,40.70457],[-74.130179,40.704598],[-74.130143,40.704598]]],[[[-74.130287,40.704653],[-74.130251,40.704625],[-74.130287,40.704626],[-74.130287,40.704653]]],[[[-74.130323,40.704653],[-74.130287,40.70468],[-74.130287,40.704653],[-74.130323,40.704653]]],[[[-74.130431,40.704736],[-74.130395,40.704708],[-74.130431,40.704708],[-74.130431,40.704736]]],[[[-74.130934,40.705012],[-74.130971,40.704985],[-74.130971,40.705012],[-74.130934,40.705012]]],[[[-74.1337,40.707189],[-74.133664,40.707162],[-74.1337,40.707162],[-74.1337,40.707189]]],[[[-74.132301,40.725357],[-74.132373,40.725385],[-74.132301,40.725412],[-74.132301,40.725357]]],[[[-74.132301,40.725412],[-74.132229,40.725494],[-74.132229,40.725439],[-74.132301,40.725412]]],[[[-74.132192,40.725494],[-74.132228,40.725549],[-74.132192,40.725549],[-74.132192,40.725494]]],[[[-74.13201,40.725795],[-74.131975,40.72574],[-74.132011,40.72574],[-74.13201,40.725795]]],[[[-74.131974,40.725795],[-74.131938,40.725822],[-74.131938,40.725795],[-74.131974,40.725795]]],[[[-74.131902,40.725822],[-74.131938,40.725877],[-74.131902,40.725877],[-74.131902,40.725822]]],[[[-74.131902,40.725877],[-74.131865,40.725904],[-74.131866,40.725877],[-74.131902,40.725877]]],[[[-74.131865,40.725904],[-74.131829,40.725959],[-74.131829,40.725904],[-74.131865,40.725904]]],[[[-74.131829,40.725959],[-74.131793,40.725987],[-74.131793,40.725959],[-74.131829,40.725959]]],[[[-74.131139,40.726698],[-74.131104,40.726671],[-74.13114,40.726671],[-74.131139,40.726698]]],[[[-74.131103,40.726698],[-74.131067,40.726725],[-74.131067,40.726698],[-74.131103,40.726698]]],[[[-74.131067,40.726725],[-74.131031,40.726753],[-74.131031,40.726725],[-74.131067,40.726725]]],[[[-74.130995,40.726753],[-74.131031,40.726808],[-74.130995,40.726808],[-74.130995,40.726753]]],[[[-74.130995,40.726808],[-74.130958,40.726835],[-74.130958,40.726807],[-74.130995,40.726808]]],[[[-74.130958,40.726835],[-74.130922,40.726862],[-74.130922,40.726835],[-74.130958,40.726835]]],[[[-74.130886,40.726862],[-74.130922,40.72689],[-74.130886,40.72689],[-74.130886,40.726862]]],[[[-74.130886,40.72689],[-74.130849,40.726944],[-74.13085,40.726889],[-74.130886,40.72689]]],[[[-74.130849,40.726944],[-74.130813,40.726972],[-74.130813,40.726944],[-74.130849,40.726944]]],[[[-74.130777,40.726972],[-74.130813,40.726999],[-74.130777,40.726999],[-74.130777,40.726972]]],[[[-74.130777,40.726999],[-74.130741,40.727026],[-74.130741,40.726999],[-74.130777,40.726999]]],[[[-74.13256,40.73082],[-74.132632,40.730793],[-74.132632,40.73082],[-74.13256,40.73082]]],[[[-74.125518,40.731868],[-74.125554,40.731841],[-74.125554,40.731868],[-74.125518,40.731868]]],[[[-74.125482,40.731868],[-74.125518,40.731896],[-74.125481,40.731896],[-74.125482,40.731868]]],[[[-74.125445,40.732005],[-74.125481,40.73195],[-74.125481,40.732005],[-74.125445,40.732005]]],[[[-74.125298,40.732362],[-74.125334,40.732389],[-74.125298,40.732389],[-74.125298,40.732362]]],[[[-74.12537,40.732417],[-74.125407,40.732389],[-74.125406,40.732417],[-74.12537,40.732417]]],[[[-74.125262,40.732444],[-74.125298,40.732416],[-74.125298,40.732444],[-74.125262,40.732444]]],[[[-74.125297,40.732636],[-74.125333,40.732664],[-74.125297,40.732664],[-74.125297,40.732636]]],[[[-74.126516,40.734067],[-74.126407,40.734122],[-74.126407,40.734095],[-74.126516,40.734067]]],[[[-74.124209,40.733538],[-74.124461,40.733622],[-74.124058,40.734773],[-74.123805,40.734827],[-74.124209,40.733538]]],[[[-74.125719,40.734669],[-74.126225,40.734451],[-74.125863,40.734697],[-74.125719,40.734669]]],[[[-74.124563,40.73483],[-74.126335,40.734149],[-74.125358,40.734695],[-74.125754,40.734779],[-74.124956,40.735435],[-74.124192,40.736558],[-74.124563,40.73483]]],[[[-74.123682,40.737407],[-74.123651,40.736474],[-74.123731,40.735156],[-74.124021,40.734938],[-74.123682,40.737407]]],[[[-74.120483,40.735201],[-74.123407,40.735073],[-74.123245,40.738119],[-74.121024,40.741608],[-74.118693,40.740495],[-74.117753,40.739422],[-74.117243,40.737612],[-74.117393,40.735053],[-74.120483,40.735201]]],[[[-74.123415,40.740041],[-74.123048,40.741028],[-74.123453,40.739657],[-74.123609,40.737681],[-74.123754,40.737517],[-74.123415,40.740041]]],[[[-74.121096,40.741634],[-74.121679,40.740667],[-74.123208,40.738366],[-74.123055,40.739821],[-74.122357,40.741987],[-74.121096,40.741634]]],[[[-74.122828,40.741769],[-74.122864,40.741742],[-74.122864,40.741769],[-74.122828,40.741769]]]]}}]}