{"type":"FeatureCollection","features":[{"type":"Feature","properties":{"level_ft":14},"geometry":{"type":"MultiPolygon","coordinates":[[[[-74.191723,40.687264],[-74.191723,40.687265],[-74.191701,40.687265],[-74.191723,40.687264]]],[[[-74.193702,40.688286],[-74.19363,40.688258],[-74.193702,40.688259],[-74.193702,40.688286]]],[[[-74.200011,40.688714],[-74.199902,40.688796],[-74.199866,40.688741],[-74.200011,40.688714]]],[[[-74.198492,40.689616],[-74.199001,40.688684],[-74.198461,40.688436],[-74.198535,40.688216],[-74.199831,40.688604],[-74.198889,40.689535],[-74.198492,40.689616]]],[[[-74.198086,40.691619],[-74.198123,40.691592],[-74.198122,40.691619],[-74.198086,40.691619]]],[[[-74.197147,40.692111],[-74.197219,40.692001],[-74.197183,40.692111],[-74.197147,40.692111]]],[[[-74.196781,40.69329],[-74.196744,40.693318],[-74.196744,40.69329],[-74.196781,40.69329]]],[[[-74.196708,40.693317],[-74.196744,40.693345],[-74.196708,40.693345],[-74.196708,40.693317]]],[[[-74.207947,40.696366],[-74.207485,40.694855],[-74.20853,40.694913],[-74.209431,40.695272],[-74.209572,40.695903],[-74.20903,40.696149],[-74.209285,40.695463],[-74.208528,40.695379],[-74.20838,40.696257],[-74.207947,40.696366]]],[[[-74.201944,40.699892],[-74.20148,40.698985],[-74.201732,40.698985],[-74.201879,40.698464],[-74.202203,40.698465],[-74.202525,40.699152],[-74.201944,40.699892]]],[[[-74.2018,40.699891],[-74.200823,40.700685],[-74.20003,40.700436],[-74.200141,40.699832],[-74.20061,40.699778],[-74.200756,40.699532],[-74.201044,40.699587],[-74.200935,40.699862],[-74.201078,40.700054],[-74.201043,40.699862],[-74.2018,40.699891]]],[[[-74.205465,40.702975],[-74.205501,40.703003],[-74.205465,40.703003],[-74.205465,40.702975]]],[[[-74.204633,40.703659],[-74.204597,40.703632],[-74.204633,40.703632],[-74.204633,40.703659]]],[[[-74.204525,40.703686],[-74.204597,40.703659],[-74.204597,40.703687],[-74.204525,40.703686]]],[[[-74.204488,40.703714],[-74.204525,40.703686],[-74.204524,40.703714],[-74.204488,40.703714]]],[[[-74.204488,40.703741],[-74.204452,40.703714],[-74.204488,40.703714],[-74.204488,40.703741]]],[[[-74.204452,40.703741],[-74.20438,40.703796],[-74.20438,40.703741],[-74.204452,40.703741]]],[[[-74.204127,40.70385],[-74.204091,40.703823],[-74.204127,40.703823],[-74.204127,40.70385]]],[[[-74.204307,40.703906],[-74.204271,40.703878],[-74.204307,40.703878],[-74.204307,40.703906]]],[[[-74.203801,40.704151],[-74.203765,40.704179],[-74.203765,40.704151],[-74.203801,40.704151]]],[[[-74.203765,40.704179],[-74.203729,40.704206],[-74.203729,40.704179],[-74.203765,40.704179]]],[[[-74.203693,40.704206],[-74.203729,40.704233],[-74.203693,40.704233],[-74.203693,40.704206]]],[[[-74.20362,40.704261],[-74.203656,40.704233],[-74.203656,40.704261],[-74.20362,40.704261]]],[[[-74.181427,40.706343],[-74.18269,40.706346],[-74.184992,40.707643],[-74.185098,40.708137],[-74.185676,40.708001],[-74.187154,40.70817],[-74.184484,40.708245],[-74.184449,40.707971],[-74.183186,40.708077],[-74.183189,40.707473],[-74.182469,40.707114],[-74.181853,40.707881],[-74.181311,40.707989],[-74.181929,40.70692],[-74.18175,40.706728],[-74.179652,40.70793],[-74.1811,40.706918],[-74.180956,40.706726],[-74.181427,40.706343]],[[-74.181605,40.70681],[-74.181569,40.706782],[-74.181569,40.70681],[-74.181605,40.70681]]],[[[-74.198412,40.707404],[-74.198158,40.707623],[-74.198014,40.707622],[-74.198412,40.707404]]],[[[-74.198014,40.707622],[-74.197942,40.70765],[-74.197942,40.707622],[-74.198014,40.707622]]],[[[-74.198014,40.707705],[-74.197978,40.707677],[-74.198014,40.707677],[-74.198014,40.707705]]],[[[-74.191338,40.708154],[-74.191375,40.708126],[-74.191374,40.708154],[-74.191338,40.708154]]],[[[-74.188488,40.708283],[-74.188524,40.708256],[-74.188524,40.708284],[-74.188488,40.708283]]],[[[-74.188416,40.708283],[-74.188452,40.708256],[-74.188452,40.708283],[-74.188416,40.708283]]],[[[-74.188344,40.708283],[-74.18838,40.708256],[-74.18838,40.708283],[-74.188344,40.708283]]],[[[-74.197976,40.708116],[-74.199965,40.706859],[-74.200291,40.706723],[-74.198624,40.708338],[-74.198478,40.708804],[-74.198692,40.709271],[-74.198293,40.709764],[-74.197858,40.710202],[-74.197137,40.710173],[-74.196094,40.709374],[-74.197615,40.708116],[-74.197976,40.708116]],[[-74.197506,40.708307],[-74.197542,40.708335],[-74.197542,40.708308],[-74.197506,40.708307]]],[[[-74.197942,40.70765],[-74.197543,40.708115],[-74.197219,40.708005],[-74.196423,40.708497],[-74.195232,40.708686],[-74.195374,40.709043],[-74.195157,40.709262],[-74.192347,40.708431],[-74.18856,40.708256],[-74.19657,40.707976],[-74.197942,40.70765]]],[[[-74.185889,40.708743],[-74.185853,40.708715],[-74.185889,40.708716],[-74.185889,40.708743]]],[[[-74.185672,40.70877],[-74.1856,40.708742],[-74.185672,40.708742],[-74.185672,40.70877]]],[[[-74.1856,40.70877],[-74.185492,40.708797],[-74.185492,40.708769],[-74.1856,40.70877]]],[[[-74.184157,40.708848],[-74.184484,40.708382],[-74.188308,40.708255],[-74.183506,40.709093],[-74.182531,40.709393],[-74.182891,40.709503],[-74.182565,40.709832],[-74.182277,40.709721],[-74.182208,40.709035],[-74.182606,40.708679],[-74.183545,40.708435],[-74.183906,40.708518],[-74.184157,40.708848]],[[-74.18253,40.70953],[-74.182494,40.709557],[-74.18253,40.709557],[-74.18253,40.70953]],[[-74.183545,40.708462],[-74.183509,40.708489],[-74.183545,40.70849],[-74.183545,40.708462]],[[-74.183653,40.70849],[-74.183617,40.708517],[-74.183653,40.708517],[-74.183653,40.70849]]],[[[-74.185492,40.708797],[-74.183396,40.709477],[-74.183035,40.709476],[-74.185492,40.708797]]],[[[-74.183936,40.709753],[-74.183972,40.709671],[-74.184081,40.709671],[-74.183936,40.709753]]],[[[-74.184296,40.709809],[-74.18426,40.709837],[-74.18426,40.709809],[-74.184296,40.709809]]],[[[-74.196631,40.710309],[-74.196523,40.710254],[-74.196631,40.710254],[-74.196631,40.710309]]],[[[-74.193925,40.710384],[-74.193962,40.710357],[-74.193961,40.710384],[-74.193925,40.710384]]],[[[-74.18426,40.709837],[-74.183608,40.710439],[-74.183351,40.711344],[-74.182707,40.710326],[-74.18426,40.709837]]],[[[-74.184296,40.709919],[-74.18715,40.709021],[-74.190073,40.708837],[-74.191623,40.70906],[-74.193604,40.709752],[-74.193639,40.709999],[-74.193928,40.70989],[-74.194072,40.709973],[-74.189988,40.711609],[-74.18652,40.712533],[-74.184282,40.712884],[-74.183638,40.711729],[-74.183532,40.711317],[-74.183533,40.710988],[-74.183934,40.71022],[-74.184296,40.709919]],[[-74.183568,40.711317],[-74.18364,40.711262],[-74.183568,40.71129],[-74.183568,40.711317]],[[-74.184548,40.70992],[-74.184512,40.710002],[-74.184548,40.710002],[-74.184548,40.70992]],[[-74.184729,40.709838],[-74.184801,40.70992],[-74.184801,40.709866],[-74.184729,40.709838]],[[-74.184693,40.70992],[-74.184657,40.709947],[-74.184693,40.709948],[-74.184693,40.70992]]],[[[-74.192624,40.710957],[-74.192588,40.71093],[-74.192624,40.71093],[-74.192624,40.710957]]],[[[-74.192552,40.710984],[-74.192588,40.710957],[-74.192588,40.710985],[-74.192552,40.710984]]],[[[-74.19219,40.711148],[-74.192154,40.711121],[-74.19219,40.711121],[-74.19219,40.711148]]],[[[-74.191793,40.711284],[-74.191757,40.711257],[-74.191793,40.711257],[-74.191793,40.711284]]],[[[-74.19237,40.711396],[-74.192406,40.711368],[-74.192406,40.711396],[-74.19237,40.711396]]],[[[-74.191468,40.711393],[-74.191432,40.711366],[-74.191468,40.711366],[-74.191468,40.711393]]],[[[-74.192189,40.711423],[-74.192225,40.71145],[-74.192189,40.71145],[-74.192189,40.711423]]],[[[-74.184031,40.712636],[-74.182991,40.711178],[-74.182526,40.710381],[-74.182634,40.710381],[-74.184031,40.712636]]],[[[-74.184066,40.712691],[-74.18403,40.712663],[-74.184067,40.712663],[-74.184066,40.712691]]],[[[-74.184066,40.712746],[-74.184102,40.712718],[-74.184102,40.712746],[-74.184066,40.712746]]],[[[-74.183401,40.716148],[-74.183437,40.716175],[-74.183401,40.716175],[-74.183401,40.716148]]],[[[-74.183401,40.716175],[-74.183364,40.716203],[-74.183364,40.716175],[-74.183401,40.716175]]],[[[-74.183543,40.716587],[-74.183579,40.71656],[-74.183579,40.716588],[-74.183543,40.716587]]],[[[-74.181644,40.706261],[-74.181608,40.706288],[-74.181608,40.706261],[-74.181644,40.706261]]],[[[-74.180341,40.707081],[-74.179291,40.708066],[-74.179475,40.707161],[-74.180345,40.70623],[-74.181285,40.705958],[-74.182078,40.70607],[-74.181391,40.70626],[-74.180341,40.707081]]],[[[-74.180631,40.706944],[-74.180413,40.707191],[-74.180341,40.707191],[-74.180631,40.706944]]],[[[-74.210961,40.699942],[-74.205935,40.702894],[-74.205646,40.703003],[-74.205646,40.702893],[-74.205213,40.703057],[-74.204345,40.703604],[-74.204235,40.70396],[-74.203693,40.704151],[-74.203584,40.704233],[-74.20362,40.704316],[-74.203222,40.704589],[-74.19852,40.707404],[-74.198701,40.707213],[-74.198125,40.707101],[-74.198306,40.706937],[-74.198198,40.706909],[-74.197475,40.707127],[-74.197257,40.707483],[-74.196319,40.707673],[-74.18683,40.708004],[-74.185929,40.707837],[-74.184381,40.707092],[-74.183734,40.706596],[-74.183522,40.705799],[-74.183089,40.705716],[-74.182762,40.706209],[-74.18197,40.705905],[-74.181105,40.705875],[-74.179624,40.706255],[-74.179044,40.706885],[-74.179042,40.707297],[-74.179476,40.706996],[-74.179182,40.708148],[-74.178567,40.708421],[-74.178134,40.708475],[-74.178495,40.708476],[-74.178132,40.708859],[-74.177991,40.708255],[-74.178393,40.707268],[-74.17836,40.706471],[-74.179337,40.705843],[-74.181433,40.705052],[-74.180892,40.705051],[-74.178941,40.705704],[-74.17782,40.706388],[-74.17717,40.706386],[-74.17753,40.706606],[-74.177199,40.707868],[-74.177339,40.708829],[-74.176329,40.708854],[-74.176831,40.709377],[-74.176471,40.709376],[-74.175963,40.709896],[-74.176792,40.709981],[-74.176971,40.71042],[-74.174985,40.710662],[-74.174949,40.710826],[-74.176464,40.710831],[-74.177548,40.710312],[-74.177471,40.711383],[-74.177757,40.711905],[-74.178585,40.712291],[-74.179415,40.712184],[-74.179632,40.71202],[-74.17891,40.712155],[-74.179019,40.712046],[-74.17855,40.711989],[-74.178226,40.711851],[-74.177832,40.711274],[-74.177837,40.710286],[-74.178343,40.709985],[-74.179101,40.710069],[-74.178277,40.708804],[-74.178926,40.708861],[-74.179324,40.70867],[-74.179898,40.709248],[-74.181806,40.710104],[-74.182165,40.710517],[-74.183526,40.712635],[-74.183704,40.713019],[-74.17641,40.714536],[-74.175544,40.714589],[-74.174857,40.714779],[-74.170381,40.71526],[-74.170092,40.715342],[-74.173774,40.714941],[-74.174135,40.714997],[-74.173196,40.715214],[-74.175216,40.715109],[-74.179007,40.714598],[-74.183304,40.713759],[-74.183703,40.713349],[-74.18399,40.713542],[-74.184167,40.714311],[-74.184016,40.715793],[-74.183761,40.716286],[-74.182421,40.717243],[-74.182131,40.717627],[-74.181653,40.719492],[-74.182348,40.717463],[-74.182602,40.717189],[-74.182783,40.717134],[-74.183181,40.716779],[-74.183579,40.716615],[-74.182527,40.71771],[-74.182887,40.717903],[-74.183902,40.71689],[-74.184375,40.716013],[-74.184706,40.714697],[-74.184461,40.713131],[-74.186772,40.712616],[-74.185759,40.713382],[-74.18565,40.713491],[-74.185721,40.713656],[-74.187133,40.712727],[-74.189843,40.711773],[-74.190636,40.711775],[-74.191503,40.711476],[-74.191649,40.711284],[-74.191792,40.711394],[-74.193817,40.710384],[-74.194141,40.710467],[-74.193526,40.71085],[-74.193057,40.710958],[-74.192189,40.711395],[-74.192189,40.711423],[-74.192153,40.711423],[-74.192189,40.711478],[-74.191864,40.711559],[-74.192439,40.712027],[-74.192471,40.712769],[-74.19106,40.713753],[-74.191095,40.713973],[-74.190734,40.713944],[-74.190227,40.714464],[-74.189831,40.714381],[-74.189611,40.715012],[-74.188674,40.714927],[-74.188744,40.715311],[-74.189068,40.71545],[-74.188454,40.715585],[-74.188812,40.716217],[-74.188017,40.716407],[-74.188701,40.716876],[-74.18866,40.717809],[-74.188297,40.718247],[-74.188368,40.718577],[-74.187862,40.718795],[-74.187787,40.719454],[-74.187135,40.719974],[-74.186342,40.719862],[-74.186376,40.720164],[-74.185583,40.719997],[-74.184571,40.720351],[-74.183345,40.720183],[-74.183128,40.720402],[-74.183416,40.720622],[-74.182947,40.720593],[-74.182692,40.72095],[-74.182476,40.720894],[-74.182586,40.720483],[-74.181937,40.720508],[-74.181865,40.720343],[-74.181648,40.72048],[-74.181577,40.720288],[-74.181395,40.720644],[-74.181755,40.720837],[-74.181105,40.720918],[-74.18114,40.721247],[-74.181608,40.721331],[-74.181643,40.721688],[-74.180885,40.721768],[-74.181135,40.722208],[-74.180593,40.722426],[-74.180518,40.722865],[-74.18023,40.722864],[-74.179866,40.723495],[-74.179396,40.723631],[-74.178887,40.724425],[-74.17849,40.724507],[-74.178673,40.723958],[-74.178026,40.72349],[-74.178028,40.722968],[-74.177343,40.722884],[-74.177234,40.723076],[-74.17763,40.723379],[-74.176872,40.723267],[-74.176256,40.723814],[-74.175787,40.723895],[-74.175785,40.724252],[-74.175424,40.724333],[-74.175567,40.724526],[-74.175168,40.725019],[-74.174626,40.725264],[-74.174153,40.725949],[-74.173576,40.72603],[-74.173465,40.726551],[-74.172995,40.72666],[-74.173102,40.726962],[-74.172488,40.727125],[-74.172234,40.727454],[-74.172377,40.727701],[-74.171799,40.727699],[-74.171689,40.728083],[-74.171292,40.728192],[-74.170711,40.728959],[-74.17107,40.729262],[-74.17096,40.729536],[-74.170347,40.729562],[-74.170453,40.729892],[-74.169912,40.72989],[-74.169007,40.730519],[-74.167046,40.732984],[-74.166611,40.733422],[-74.166142,40.733475],[-74.166248,40.733805],[-74.16585,40.733968],[-74.166065,40.734298],[-74.165632,40.734297],[-74.165414,40.734653],[-74.164655,40.734788],[-74.165018,40.734515],[-74.164838,40.734295],[-74.166867,40.732654],[-74.167631,40.731393],[-74.170605,40.72841],[-74.183146,40.716531],[-74.183763,40.715847],[-74.183945,40.715463],[-74.183439,40.715681],[-74.183293,40.71601],[-74.183004,40.716064],[-74.177675,40.721375],[-74.17746,40.721072],[-74.176883,40.721016],[-74.177169,40.721566],[-74.176153,40.722716],[-74.175467,40.723016],[-74.175573,40.723373],[-74.175212,40.723482],[-74.174993,40.72392],[-74.165386,40.733006],[-74.161438,40.735822],[-74.160184,40.73481],[-74.158448,40.734014],[-74.15732,40.733745],[-74.155351,40.733699],[-74.155354,40.733087],[-74.155101,40.733113],[-74.15517,40.733696],[-74.14854,40.733908],[-74.147363,40.734175],[-74.145864,40.735025],[-74.142001,40.73941],[-74.139754,40.740681],[-74.135339,40.741671],[-74.128166,40.742211],[-74.123114,40.742143],[-74.123886,40.739686],[-74.124154,40.73686],[-74.125028,40.7356],[-74.125243,40.73582],[-74.124914,40.736505],[-74.126213,40.736537],[-74.126254,40.735714],[-74.125064,40.735545],[-74.126261,40.734478],[-74.132921,40.730849],[-74.135347,40.729347],[-74.13625,40.729103],[-74.13683,40.728665],[-74.137226,40.728776],[-74.137188,40.729133],[-74.137513,40.729052],[-74.138238,40.72845],[-74.138097,40.727955],[-74.138749,40.727409],[-74.140376,40.726727],[-74.142622,40.725225],[-74.147145,40.722658],[-74.14823,40.72225],[-74.148448,40.721921],[-74.149714,40.721403],[-74.154418,40.71859],[-74.1559,40.718046],[-74.157815,40.717585],[-74.158754,40.71745],[-74.158933,40.717588],[-74.159187,40.717396],[-74.163952,40.716752],[-74.16092,40.717017],[-74.160379,40.717153],[-74.160162,40.717097],[-74.159332,40.717205],[-74.159043,40.717369],[-74.158177,40.717393],[-74.156917,40.716786],[-74.156633,40.715961],[-74.157109,40.71459],[-74.157505,40.714701],[-74.157577,40.714647],[-74.15765,40.714647],[-74.157685,40.714757],[-74.157901,40.714812],[-74.158082,40.714731],[-74.161002,40.715261],[-74.162876,40.715486],[-74.157254,40.714344],[-74.15842,40.712096],[-74.159034,40.712071],[-74.158529,40.711932],[-74.158854,40.711905],[-74.159796,40.711057],[-74.160555,40.710812],[-74.161529,40.710843],[-74.161026,40.710512],[-74.163008,40.710902],[-74.163226,40.710601],[-74.161604,40.710321],[-74.160809,40.710456],[-74.16027,40.71018],[-74.161174,40.709634],[-74.163016,40.709173],[-74.163198,40.709008],[-74.162837,40.708925],[-74.162875,40.708678],[-74.161358,40.708976],[-74.161577,40.70851],[-74.161073,40.708206],[-74.160892,40.708453],[-74.161069,40.708975],[-74.159622,40.709849],[-74.159154,40.70971],[-74.159044,40.709957],[-74.158395,40.709928],[-74.157381,40.710748],[-74.157669,40.710776],[-74.157486,40.711325],[-74.155204,40.71324],[-74.155061,40.712965],[-74.150631,40.711524],[-74.150018,40.71155],[-74.149839,40.711275],[-74.148507,40.710804],[-74.151223,40.708644],[-74.154004,40.707966],[-74.153428,40.707909],[-74.154116,40.70728],[-74.153792,40.707141],[-74.153434,40.706729],[-74.153542,40.706619],[-74.153507,40.706482],[-74.152467,40.705408],[-74.151565,40.705351],[-74.150912,40.706117],[-74.150156,40.705895],[-74.150842,40.70576],[-74.151531,40.704911],[-74.153008,40.70541],[-74.153189,40.705218],[-74.151173,40.704389],[-74.150959,40.704059],[-74.150595,40.704579],[-74.151423,40.704856],[-74.151133,40.705294],[-74.150517,40.705704],[-74.149724,40.705647],[-74.147312,40.704816],[-74.143929,40.703241],[-74.138997,40.701496],[-74.117574,40.694977],[-74.120322,40.69066],[-74.125251,40.68406],[-74.131955,40.673797],[-74.139139,40.677125],[-74.148986,40.682244],[-74.150435,40.683156],[-74.152657,40.685232],[-74.153849,40.685922],[-74.155324,40.686124],[-74.158342,40.686031],[-74.15938,40.686682],[-74.16063,40.688486],[-74.161494,40.689267],[-74.165051,40.69017],[-74.167635,40.689971],[-74.169273,40.688625],[-74.180794,40.687913],[-74.179819,40.688166],[-74.179457,40.688467],[-74.17996,40.68877],[-74.181298,40.688033],[-74.182236,40.687953],[-74.183136,40.68823],[-74.184035,40.688891],[-74.183533,40.688176],[-74.182705,40.6878],[-74.191687,40.687266],[-74.191104,40.688609],[-74.191464,40.688747],[-74.191863,40.688254],[-74.193521,40.688395],[-74.19381,40.688231],[-74.193811,40.688067],[-74.192909,40.688229],[-74.191647,40.688116],[-74.191831,40.687257],[-74.197711,40.686908],[-74.19742,40.687472],[-74.197673,40.687363],[-74.197563,40.687802],[-74.19803,40.688078],[-74.197057,40.688048],[-74.196733,40.687827],[-74.196047,40.68799],[-74.195861,40.68928],[-74.196077,40.689445],[-74.195245,40.69002],[-74.19546,40.690185],[-74.195349,40.690981],[-74.195636,40.691146],[-74.194876,40.69183],[-74.195161,40.692572],[-74.195845,40.692821],[-74.19606,40.693178],[-74.197002,40.692165],[-74.197362,40.692221],[-74.197219,40.692056],[-74.197327,40.691974],[-74.197399,40.692002],[-74.197508,40.69192],[-74.197689,40.691865],[-74.197761,40.691893],[-74.196963,40.692824],[-74.196675,40.692741],[-74.196962,40.692989],[-74.196527,40.693482],[-74.193506,40.69954],[-74.197904,40.692113],[-74.197797,40.69192],[-74.198086,40.691619],[-74.197941,40.691921],[-74.197975,40.692333],[-74.199681,40.689949],[-74.200191,40.68877],[-74.200806,40.688415],[-74.201994,40.688774],[-74.201846,40.68957],[-74.201413,40.689679],[-74.201808,40.689982],[-74.201123,40.689898],[-74.202059,40.690257],[-74.202128,40.690971],[-74.201693,40.691574],[-74.202052,40.692041],[-74.201762,40.69226],[-74.201759,40.692891],[-74.201398,40.692973],[-74.20165,40.693193],[-74.201432,40.693412],[-74.201719,40.693797],[-74.201427,40.694647],[-74.201678,40.694895],[-74.200915,40.696183],[-74.199865,40.697086],[-74.199791,40.69758],[-74.199034,40.697469],[-74.198995,40.698072],[-74.198454,40.698098],[-74.198488,40.69862],[-74.198055,40.698646],[-74.19809,40.698921],[-74.197837,40.698893],[-74.197872,40.699113],[-74.197438,40.699358],[-74.19715,40.699275],[-74.197044,40.698836],[-74.197551,40.698453],[-74.197807,40.697657],[-74.19727,40.696805],[-74.196441,40.696583],[-74.196584,40.696776],[-74.196296,40.696775],[-74.196331,40.697077],[-74.195718,40.696966],[-74.195824,40.697542],[-74.195248,40.697294],[-74.194738,40.698363],[-74.195564,40.699079],[-74.196177,40.699026],[-74.196175,40.699575],[-74.19538,40.699902],[-74.19495,40.69927],[-74.194661,40.699379],[-74.194301,40.699185],[-74.194298,40.699954],[-74.193975,40.699514],[-74.192956,40.701515],[-74.194904,40.70152],[-74.195518,40.701357],[-74.195664,40.701001],[-74.196493,40.701003],[-74.196165,40.701771],[-74.196382,40.701661],[-74.197498,40.702021],[-74.197784,40.702598],[-74.196341,40.702677],[-74.195906,40.703143],[-74.19641,40.703528],[-74.197024,40.703173],[-74.197529,40.703312],[-74.198108,40.702709],[-74.198974,40.702849],[-74.199335,40.702603],[-74.199696,40.702658],[-74.200347,40.702221],[-74.20042,40.701919],[-74.201432,40.701537],[-74.201254,40.700988],[-74.200858,40.700905],[-74.202338,40.700552],[-74.202885,40.699345],[-74.20375,40.699292],[-74.204366,40.698772],[-74.204979,40.698884],[-74.205307,40.698116],[-74.205813,40.697733],[-74.206895,40.697846],[-74.207402,40.697408],[-74.207616,40.697902],[-74.208589,40.69796],[-74.209273,40.698401],[-74.209811,40.698951],[-74.209738,40.69928],[-74.209413,40.699334],[-74.209557,40.699472],[-74.210961,40.699942]],[[-74.20843,40.701418],[-74.208394,40.701391],[-74.208394,40.701418],[-74.20843,40.701418]],[[-74.205718,40.702921],[-74.205754,40.702894],[-74.205718,40.702893],[-74.205718,40.702921]],[[-74.205754,40.702894],[-74.205827,40.702839],[-74.205755,40.702839],[-74.205754,40.702894]],[[-74.204163,40.703823],[-74.204127,40.703768],[-74.204019,40.703795],[-74.204091,40.703878],[-74.204163,40.703823]],[[-74.204091,40.703878],[-74.204055,40.703905],[-74.204091,40.703905],[-74.204091,40.703878]],[[-74.203584,40.704261],[-74.203548,40.704288],[-74.203584,40.704288],[-74.203584,40.704261]],[[-74.203476,40.704343],[-74.20344,40.704315],[-74.20344,40.704343],[-74.203476,40.704343]],[[-74.203476,40.704315],[-74.203512,40.704288],[-74.203476,40.704288],[-74.203476,40.704315]],[[-74.203439,40.70437],[-74.203259,40.704424],[-74.203259,40.704452],[-74.203439,40.70437]],[[-74.198991,40.707076],[-74.198955,40.707048],[-74.198954,40.707076],[-74.198991,40.707076]],[[-74.198701,40.707213],[-74.198738,40.707185],[-74.198702,40.707185],[-74.198701,40.707213]],[[-74.198197,40.707101],[-74.198233,40.707074],[-74.198197,40.707074],[-74.198197,40.707101]],[[-74.198306,40.70691],[-74.198378,40.706882],[-74.198306,40.706882],[-74.198306,40.70691]],[[-74.198378,40.706882],[-74.19845,40.706855],[-74.198378,40.706855],[-74.198378,40.706882]],[[-74.19845,40.706855],[-74.198523,40.706828],[-74.198451,40.706828],[-74.19845,40.706855]],[[-74.179042,40.707297],[-74.179006,40.707324],[-74.179042,40.707324],[-74.179042,40.707297]],[[-74.178785,40.708284],[-74.178749,40.708257],[-74.178748,40.708284],[-74.178785,40.708284]],[[-74.178134,40.708502],[-74.178098,40.708529],[-74.178134,40.70853],[-74.178134,40.708502]],[[-74.176329,40.708854],[-74.176293,40.708826],[-74.176293,40.708854],[-74.176329,40.708854]],[[-74.175963,40.709923],[-74.175927,40.709951],[-74.175963,40.709951],[-74.175963,40.709923]],[[-74.174913,40.710717],[-74.174877,40.710689],[-74.174877,40.710716],[-74.174913,40.710717]],[[-74.178839,40.712018],[-74.178875,40.71199],[-74.178839,40.71199],[-74.178839,40.712018]],[[-74.179359,40.70878],[-74.179179,40.708834],[-74.179178,40.708889],[-74.179359,40.70878]],[[-74.179178,40.708889],[-74.179142,40.708944],[-74.179178,40.708944],[-74.179178,40.708889]],[[-74.179142,40.708944],[-74.179106,40.708971],[-74.179142,40.708972],[-74.179142,40.708944]],[[-74.181877,40.710269],[-74.181841,40.710297],[-74.181877,40.710297],[-74.181877,40.710269]],[[-74.183167,40.712139],[-74.183095,40.712112],[-74.183167,40.712194],[-74.183167,40.712139]],[[-74.183304,40.713759],[-74.18334,40.713787],[-74.18334,40.713759],[-74.183304,40.713759]],[[-74.18381,40.713486],[-74.183774,40.713514],[-74.18381,40.713514],[-74.18381,40.713486]],[[-74.184706,40.714697],[-74.184778,40.714724],[-74.184778,40.714697],[-74.184706,40.714697]],[[-74.185685,40.713656],[-74.185649,40.713683],[-74.185685,40.713684],[-74.185685,40.713656]],[[-74.192117,40.711477],[-74.192081,40.71145],[-74.192081,40.711477],[-74.192117,40.711477]],[[-74.192044,40.711505],[-74.192008,40.711477],[-74.192008,40.711505],[-74.192044,40.711505]],[[-74.191864,40.711559],[-74.191828,40.711532],[-74.191828,40.711559],[-74.191864,40.711559]],[[-74.167047,40.732819],[-74.167011,40.732791],[-74.167011,40.732819],[-74.167047,40.732819]],[[-74.167011,40.732791],[-74.166975,40.732764],[-74.166975,40.732791],[-74.167011,40.732791]],[[-74.166975,40.732791],[-74.166939,40.732846],[-74.166975,40.732846],[-74.166975,40.732791]],[[-74.16701,40.732929],[-74.166974,40.732956],[-74.16701,40.732956],[-74.16701,40.732929]],[[-74.166757,40.73312],[-74.166721,40.733065],[-74.166721,40.73312],[-74.166757,40.73312]],[[-74.183763,40.715847],[-74.183799,40.715874],[-74.183799,40.715847],[-74.183763,40.715847]],[[-74.183945,40.715463],[-74.184017,40.715436],[-74.183945,40.715436],[-74.183945,40.715463]],[[-74.183185,40.71601],[-74.183149,40.715982],[-74.183149,40.71601],[-74.183185,40.71601]],[[-74.163576,40.734209],[-74.16354,40.734181],[-74.16354,40.734209],[-74.163576,40.734209]],[[-74.153875,40.718945],[-74.153911,40.718973],[-74.153912,40.718945],[-74.153875,40.718945]],[[-74.155214,40.718318],[-74.155286,40.718346],[-74.155286,40.718318],[-74.155214,40.718318]],[[-74.155213,40.718345],[-74.155177,40.718373],[-74.155213,40.718373],[-74.155213,40.718345]],[[-74.155575,40.718209],[-74.155611,40.718237],[-74.155611,40.718209],[-74.155575,40.718209]],[[-74.160307,40.717125],[-74.160343,40.717098],[-74.160307,40.717098],[-74.160307,40.717125]],[[-74.158826,40.717341],[-74.158863,40.717313],[-74.158826,40.717313],[-74.158826,40.717341]],[[-74.157577,40.714674],[-74.157613,40.714729],[-74.157613,40.714674],[-74.157577,40.714674]],[[-74.158226,40.714786],[-74.158118,40.714813],[-74.158226,40.714813],[-74.158226,40.714786]],[[-74.158226,40.714813],[-74.158334,40.714841],[-74.158334,40.714814],[-74.158226,40.714813]],[[-74.159307,40.714981],[-74.158334,40.714896],[-74.159415,40.715064],[-74.159307,40.714981]],[[-74.159415,40.715036],[-74.159452,40.715009],[-74.159415,40.715009],[-74.159415,40.715036]],[[-74.158264,40.714511],[-74.158228,40.714484],[-74.158227,40.714511],[-74.158264,40.714511]],[[-74.159034,40.712043],[-74.15907,40.712016],[-74.159034,40.712016],[-74.159034,40.712043]],[[-74.16002,40.709548],[-74.159948,40.709521],[-74.159948,40.709548],[-74.16002,40.709548]],[[-74.159948,40.709521],[-74.159876,40.709493],[-74.159876,40.70952],[-74.159948,40.709521]],[[-74.157381,40.710776],[-74.157345,40.710803],[-74.157381,40.710803],[-74.157381,40.710776]],[[-74.157525,40.710803],[-74.157489,40.710831],[-74.157525,40.710831],[-74.157525,40.710803]],[[-74.151295,40.708644],[-74.151331,40.708671],[-74.151332,40.708644],[-74.151295,40.708644]],[[-74.154116,40.70739],[-74.154152,40.707417],[-74.154152,40.70739],[-74.154116,40.70739]],[[-74.153506,40.706674],[-74.153542,40.706702],[-74.153542,40.706674],[-74.153506,40.706674]],[[-74.153542,40.706619],[-74.153614,40.706647],[-74.153615,40.706619],[-74.153542,40.706619]],[[-74.15308,40.70541],[-74.153116,40.705465],[-74.153116,40.70541],[-74.15308,40.70541]],[[-74.193811,40.688067],[-74.193847,40.688039],[-74.193811,40.688039],[-74.193811,40.688067]],[[-74.19711,40.692193],[-74.197074,40.69222],[-74.19711,40.69222],[-74.19711,40.692193]],[[-74.196711,40.692741],[-74.196747,40.692714],[-74.196711,40.692714],[-74.196711,40.692741]],[[-74.210745,40.699942],[-74.210781,40.699969],[-74.210781,40.699942],[-74.210745,40.699942]]],[[[-74.178495,40.708476],[-74.178567,40.708448],[-74.178567,40.708476],[-74.178495,40.708476]]],[[[-74.179613,40.708589],[-74.179577,40.708561],[-74.179613,40.708561],[-74.179613,40.708589]]],[[[-74.180045,40.708782],[-74.179685,40.708479],[-74.180948,40.708455],[-74.180515,40.708591],[-74.18073,40.708811],[-74.180045,40.708782]],[[-74.180515,40.708591],[-74.180479,40.708563],[-74.180478,40.708591],[-74.180515,40.708591]]],[[[-74.179613,40.708589],[-74.181628,40.709527],[-74.181915,40.70994],[-74.179935,40.709084],[-74.179613,40.708589]]],[[[-74.182096,40.709776],[-74.182098,40.709474],[-74.182276,40.709859],[-74.182096,40.709776]]],[[[-74.182276,40.709968],[-74.182312,40.709886],[-74.182312,40.709969],[-74.182276,40.709968]]],[[[-74.181915,40.709995],[-74.181951,40.709968],[-74.181951,40.709995],[-74.181915,40.709995]]],[[[-74.182347,40.710024],[-74.182312,40.709996],[-74.182348,40.709996],[-74.182347,40.710024]]],[[[-74.179152,40.714462],[-74.179188,40.714434],[-74.179188,40.714462],[-74.179152,40.714462]]],[[[-74.182783,40.717107],[-74.182747,40.717079],[-74.182783,40.717079],[-74.182783,40.717107]]],[[[-74.169265,40.729531],[-74.169229,40.729504],[-74.169265,40.729504],[-74.169265,40.729531]]],[[[-74.169228,40.729531],[-74.169192,40.729559],[-74.169192,40.729531],[-74.169228,40.729531]]],[[[-74.169156,40.729558],[-74.169192,40.729586],[-74.169156,40.729586],[-74.169156,40.729558]]],[[[-74.168322,40.730489],[-74.168285,40.730517],[-74.168285,40.730489],[-74.168322,40.730489]]],[[[-74.168213,40.730517],[-74.168177,40.730489],[-74.168213,40.730489],[-74.168213,40.730517]]],[[[-74.168285,40.730517],[-74.168249,40.730544],[-74.168249,40.730517],[-74.168285,40.730517]]],[[[-74.167487,40.731365],[-74.167523,40.731338],[-74.167523,40.731365],[-74.167487,40.731365]]],[[[-74.167451,40.731365],[-74.167487,40.731393],[-74.167451,40.731393],[-74.167451,40.731365]]],[[[-74.164261,40.734238],[-74.164297,40.734211],[-74.164297,40.734238],[-74.164261,40.734238]]],[[[-74.164189,40.734266],[-74.164225,40.734293],[-74.164189,40.734293],[-74.164189,40.734266]]],[[[-74.16408,40.734402],[-74.164044,40.734375],[-74.16408,40.734375],[-74.16408,40.734402]]],[[[-74.164044,40.734402],[-74.164008,40.73443],[-74.164008,40.734402],[-74.164044,40.734402]]],[[[-74.164008,40.73443],[-74.163971,40.734457],[-74.163972,40.73443],[-74.164008,40.73443]]],[[[-74.163935,40.734457],[-74.163971,40.734485],[-74.163935,40.734484],[-74.163935,40.734457]]],[[[-74.163899,40.734484],[-74.163935,40.734512],[-74.163899,40.734512],[-74.163899,40.734484]]],[[[-74.163863,40.734512],[-74.163899,40.734539],[-74.163863,40.734539],[-74.163863,40.734512]]],[[[-74.163863,40.734539],[-74.163827,40.734566],[-74.163827,40.734539],[-74.163863,40.734539]]],[[[-74.163827,40.734566],[-74.16379,40.734594],[-74.16379,40.734566],[-74.163827,40.734566]]],[[[-74.163718,40.734648],[-74.163682,40.734621],[-74.163718,40.734621],[-74.163718,40.734648]]],[[[-74.163501,40.734813],[-74.163464,40.73484],[-74.163464,40.734812],[-74.163501,40.734813]]],[[[-74.164619,40.734816],[-74.164655,40.734871],[-74.164583,40.734871],[-74.164619,40.734816]]],[[[-74.163464,40.73484],[-74.163428,40.734867],[-74.163428,40.73484],[-74.163464,40.73484]]],[[[-74.163428,40.734867],[-74.163392,40.734895],[-74.163392,40.734867],[-74.163428,40.734867]]],[[[-74.163356,40.734894],[-74.16332,40.734922],[-74.16332,40.734894],[-74.163356,40.734894]]],[[[-74.163283,40.734922],[-74.163319,40.734949],[-74.163283,40.734949],[-74.163283,40.734922]]],[[[-74.164438,40.735007],[-74.164402,40.73498],[-74.164438,40.73498],[-74.164438,40.735007]]],[[[-74.163175,40.735004],[-74.163211,40.735031],[-74.163175,40.735031],[-74.163175,40.735004]]],[[[-74.163102,40.735058],[-74.163139,40.735031],[-74.163138,40.735059],[-74.163102,40.735058]]],[[[-74.163066,40.735058],[-74.163102,40.735086],[-74.163066,40.735086],[-74.163066,40.735058]]],[[[-74.164112,40.735171],[-74.164148,40.735144],[-74.164148,40.735171],[-74.164112,40.735171]]],[[[-74.162812,40.735305],[-74.162776,40.735277],[-74.162813,40.735277],[-74.162812,40.735305]]],[[[-74.165279,40.739951],[-74.165243,40.739923],[-74.165279,40.739923],[-74.165279,40.739951]]],[[[-74.167236,40.745556],[-74.167624,40.747397],[-74.165867,40.747392],[-74.165748,40.74525],[-74.166227,40.745197],[-74.166337,40.745005],[-74.165714,40.745085],[-74.162778,40.737845],[-74.161707,40.736207],[-74.163969,40.734951],[-74.164075,40.735336],[-74.163605,40.735636],[-74.16461,40.736737],[-74.164748,40.737891],[-74.164494,40.738192],[-74.165032,40.738852],[-74.165028,40.739566],[-74.165386,40.740308],[-74.165058,40.740938],[-74.16638,40.743468],[-74.166735,40.744622],[-74.166551,40.745527],[-74.166875,40.74561],[-74.166984,40.745363],[-74.167127,40.745693],[-74.167236,40.745556]],[[-74.16404,40.735253],[-74.163968,40.735198],[-74.163967,40.735281],[-74.16404,40.735253]],[[-74.165278,40.740116],[-74.165242,40.740088],[-74.165242,40.740115],[-74.165278,40.740116]],[[-74.16535,40.740308],[-74.165313,40.740335],[-74.165349,40.740335],[-74.16535,40.740308]],[[-74.167341,40.74627],[-74.167305,40.746298],[-74.167341,40.746298],[-74.167341,40.74627]]],[[[-74.166047,40.745114],[-74.166083,40.745141],[-74.166047,40.745141],[-74.166047,40.745114]]],[[[-74.16583,40.745168],[-74.165867,40.745141],[-74.165867,40.745168],[-74.16583,40.745168]]],[[[-74.167803,40.747644],[-74.167513,40.74789],[-74.167009,40.747724],[-74.166683,40.74797],[-74.165838,40.747886],[-74.165863,40.747474],[-74.167803,40.747644]],[[-74.166756,40.747778],[-74.166792,40.747751],[-74.166756,40.747751],[-74.166756,40.747778]]],[[[-74.167657,40.747946],[-74.167585,40.747918],[-74.167657,40.747918],[-74.167657,40.747946]]],[[[-74.16544,40.751041],[-74.165476,40.751014],[-74.165476,40.751041],[-74.16544,40.751041]]],[[[-74.165548,40.751069],[-74.165585,40.751014],[-74.165584,40.751069],[-74.165548,40.751069]]],[[[-74.165404,40.751096],[-74.165368,40.751041],[-74.165404,40.751041],[-74.165404,40.751096]]],[[[-74.165332,40.751096],[-74.165296,40.751041],[-74.165332,40.751041],[-74.165332,40.751096]]],[[[-74.165476,40.751096],[-74.16544,40.751069],[-74.165476,40.751069],[-74.165476,40.751096]]],[[[-74.163002,40.762042],[-74.16322,40.761768],[-74.163474,40.761604],[-74.163182,40.762097],[-74.163002,40.762042]]],[[[-74.150993,40.704361],[-74.151137,40.704526],[-74.150885,40.704388],[-74.150993,40.704361]]],[[[-74.150156,40.70584],[-74.150084,40.705868],[-74.150084,40.70584],[-74.150156,40.70584]]],[[[-74.153362,40.706564],[-74.151452,40.706283],[-74.151129,40.706008],[-74.1516,40.705515],[-74.152106,40.705434],[-74.153362,40.706564]]],[[[-74.150872,40.706776],[-74.150837,40.706611],[-74.150404,40.706747],[-74.15001,40.706197],[-74.149218,40.705838],[-74.151162,40.706502],[-74.151089,40.706667],[-74.150872,40.706776]],[[-74.15109,40.706612],[-74.151054,40.706584],[-74.151054,40.706612],[-74.15109,40.706612]]],[[[-74.15347,40.706619],[-74.153507,40.706592],[-74.153506,40.706619],[-74.15347,40.706619]]],[[[-74.153325,40.706811],[-74.15192,40.706532],[-74.15192,40.706477],[-74.153325,40.706811]]],[[[-74.153326,40.706673],[-74.153362,40.706646],[-74.153362,40.706674],[-74.153326,40.706673]]],[[[-74.153252,40.706948],[-74.153577,40.706921],[-74.153648,40.707059],[-74.153252,40.706948]]],[[[-74.152096,40.707383],[-74.151843,40.707383],[-74.151917,40.707053],[-74.15152,40.707135],[-74.151558,40.706723],[-74.151125,40.706804],[-74.151198,40.70653],[-74.152279,40.706862],[-74.152888,40.707578],[-74.152382,40.707741],[-74.152096,40.707383]],[[-74.15163,40.706778],[-74.151666,40.706751],[-74.15163,40.706751],[-74.15163,40.706778]]],[[[-74.153574,40.707525],[-74.153286,40.707387],[-74.153647,40.707361],[-74.153574,40.707525]]],[[[-74.152167,40.707576],[-74.152131,40.707603],[-74.152131,40.707576],[-74.152167,40.707576]]],[[[-74.162765,40.708952],[-74.162801,40.708925],[-74.162801,40.708952],[-74.162765,40.708952]]],[[[-74.163053,40.709008],[-74.163089,40.709036],[-74.163053,40.709036],[-74.163053,40.709008]]],[[[-74.150139,40.709079],[-74.150212,40.708888],[-74.150284,40.708888],[-74.150139,40.709079]]],[[[-74.150067,40.709079],[-74.150103,40.709107],[-74.150067,40.709107],[-74.150067,40.709079]]],[[[-74.150067,40.709107],[-74.15003,40.709161],[-74.150031,40.709107],[-74.150067,40.709107]]],[[[-74.15003,40.709161],[-74.149994,40.709189],[-74.149994,40.709161],[-74.15003,40.709161]]],[[[-74.158828,40.710039],[-74.158899,40.710094],[-74.158827,40.710094],[-74.158828,40.710039]]],[[[-74.158205,40.711766],[-74.157113,40.713794],[-74.155817,40.713241],[-74.155528,40.713323],[-74.157774,40.711436],[-74.158205,40.711766]],[[-74.158133,40.711821],[-74.158097,40.711793],[-74.158097,40.711821],[-74.158133,40.711821]]],[[[-74.153,40.713919],[-74.152891,40.713946],[-74.152891,40.713919],[-74.153,40.713919]]],[[[-74.154585,40.714199],[-74.154622,40.714171],[-74.154622,40.714199],[-74.154585,40.714199]]],[[[-74.157397,40.714619],[-74.157361,40.714591],[-74.157397,40.714591],[-74.157397,40.714619]]],[[[-74.157397,40.714646],[-74.157433,40.714619],[-74.157433,40.714646],[-74.157397,40.714646]]],[[[-74.15783,40.714675],[-74.157721,40.714702],[-74.157722,40.714675],[-74.15783,40.714675]]],[[[-74.157974,40.714703],[-74.15783,40.71473],[-74.15783,40.714702],[-74.157974,40.714703]]],[[[-74.159524,40.714899],[-74.159597,40.714872],[-74.159596,40.7149],[-74.159524,40.714899]]],[[[-74.159271,40.715009],[-74.159307,40.715036],[-74.159271,40.715036],[-74.159271,40.715009]]],[[[-74.156676,40.714507],[-74.155584,40.716452],[-74.154395,40.716092],[-74.153132,40.716226],[-74.153024,40.716088],[-74.153026,40.715731],[-74.153388,40.715567],[-74.154006,40.714609],[-74.154657,40.714309],[-74.15473,40.714062],[-74.156676,40.714507]],[[-74.156276,40.715137],[-74.156168,40.715082],[-74.156168,40.715137],[-74.156276,40.715137]]],[[[-74.156636,40.715303],[-74.1566,40.715248],[-74.156636,40.715248],[-74.156636,40.715303]]],[[[-74.1566,40.715303],[-74.156377,40.716592],[-74.155908,40.716618],[-74.1566,40.715303]]],[[[-74.160776,40.717099],[-74.160812,40.717072],[-74.160812,40.717099],[-74.160776,40.717099]]],[[[-74.15569,40.716837],[-74.156194,40.717086],[-74.15612,40.71736],[-74.155616,40.717221],[-74.15569,40.716837]]],[[[-74.160198,40.717152],[-74.160162,40.71718],[-74.160162,40.717152],[-74.160198,40.717152]]],[[[-74.160054,40.717179],[-74.16009,40.717152],[-74.16009,40.71718],[-74.160054,40.717179]]],[[[-74.155436,40.717138],[-74.155508,40.717248],[-74.155399,40.717248],[-74.155436,40.717138]]],[[[-74.15926,40.717287],[-74.159296,40.71726],[-74.159296,40.717287],[-74.15926,40.717287]]],[[[-74.154238,40.718535],[-74.155254,40.71744],[-74.155938,40.717716],[-74.156589,40.717499],[-74.156662,40.717279],[-74.157888,40.717475],[-74.15619,40.717799],[-74.154238,40.718535]]],[[[-74.147691,40.721836],[-74.150049,40.7194],[-74.151685,40.716962],[-74.152627,40.716142],[-74.153312,40.716363],[-74.154358,40.716312],[-74.155438,40.716699],[-74.154603,40.717877],[-74.153806,40.718506],[-74.147691,40.721836]]],[[[-74.162633,40.735139],[-74.162705,40.735222],[-74.162596,40.735194],[-74.162633,40.735139]]],[[[-74.16274,40.735304],[-74.162776,40.735332],[-74.16274,40.735332],[-74.16274,40.735304]]],[[[-74.16209,40.735495],[-74.162596,40.735222],[-74.162126,40.73555],[-74.16209,40.735495]]],[[[-74.162017,40.735522],[-74.162053,40.735577],[-74.161981,40.735577],[-74.162017,40.735522]]],[[[-74.161981,40.735577],[-74.161945,40.735604],[-74.161945,40.735577],[-74.161981,40.735577]]],[[[-74.161909,40.735604],[-74.161945,40.735631],[-74.161909,40.735631],[-74.161909,40.735604]]],[[[-74.162523,40.735414],[-74.16198,40.735851],[-74.161871,40.735851],[-74.162523,40.735414]]],[[[-74.161799,40.735933],[-74.161546,40.735987],[-74.161582,40.73596],[-74.161799,40.735933]]],[[[-74.163801,40.761111],[-74.163076,40.761712],[-74.160347,40.765932],[-74.160275,40.765931],[-74.159106,40.768481],[-74.159035,40.768343],[-74.157219,40.770342],[-74.157397,40.770919],[-74.155542,40.773603],[-74.156046,40.773879],[-74.156008,40.774264],[-74.155827,40.774291],[-74.155865,40.774016],[-74.155432,40.77396],[-74.155069,40.774316],[-74.155538,40.774345],[-74.155028,40.775276],[-74.15535,40.775771],[-74.15506,40.776045],[-74.154266,40.775878],[-74.153722,40.776288],[-74.154074,40.778183],[-74.153423,40.778318],[-74.153207,40.778098],[-74.152845,40.778289],[-74.15281,40.778097],[-74.152016,40.778067],[-74.152625,40.778975],[-74.152189,40.779577],[-74.152476,40.77988],[-74.152042,40.780016],[-74.15341,40.780816],[-74.152329,40.78042],[-74.150584,40.780232],[-74.148329,40.779601],[-74.148635,40.778535],[-74.150145,40.776799],[-74.150613,40.77713],[-74.149778,40.778005],[-74.149046,40.779788],[-74.150612,40.777267],[-74.151763,40.778039],[-74.151623,40.777325],[-74.151405,40.777434],[-74.15083,40.777075],[-74.153946,40.774971],[-74.153077,40.775353],[-74.152896,40.775517],[-74.15286,40.775517],[-74.152896,40.775599],[-74.152787,40.775681],[-74.150685,40.777048],[-74.150217,40.776744],[-74.153904,40.77338],[-74.155822,40.770247],[-74.157171,40.767025],[-74.161643,40.762036],[-74.163014,40.760089],[-74.163961,40.75797],[-74.165214,40.751123],[-74.165692,40.751124],[-74.165657,40.750959],[-74.165235,40.750986],[-74.1658,40.748133],[-74.166609,40.74819],[-74.166572,40.748546],[-74.166931,40.748822],[-74.167328,40.748768],[-74.167403,40.748247],[-74.168305,40.748277],[-74.168051,40.748688],[-74.168336,40.749348],[-74.168914,40.749267],[-74.16884,40.749733],[-74.169201,40.749734],[-74.169379,40.750037],[-74.169054,40.750118],[-74.169125,40.750503],[-74.168618,40.750721],[-74.168294,40.7505],[-74.16793,40.751213],[-74.167353,40.751102],[-74.167496,40.751377],[-74.16699,40.75154],[-74.16695,40.752363],[-74.166294,40.753542],[-74.166541,40.754695],[-74.166282,40.756012],[-74.166496,40.756342],[-74.166134,40.756561],[-74.165871,40.758646],[-74.163801,40.761111]],[[-74.163729,40.761165],[-74.163693,40.761138],[-74.163693,40.761165],[-74.163729,40.761165]],[[-74.161839,40.763575],[-74.161768,40.763465],[-74.161695,40.763602],[-74.161839,40.763575]],[[-74.157252,40.771001],[-74.15718,40.770973],[-74.15718,40.771028],[-74.157252,40.771001]],[[-74.15718,40.771028],[-74.157144,40.771055],[-74.15718,40.771055],[-74.15718,40.771028]],[[-74.149778,40.778005],[-74.149742,40.777978],[-74.149741,40.778005],[-74.149778,40.778005]],[[-74.14934,40.778855],[-74.149304,40.778828],[-74.149304,40.778855],[-74.14934,40.778855]],[[-74.149267,40.778992],[-74.149231,40.778965],[-74.149231,40.778992],[-74.149267,40.778992]],[[-74.14923,40.779074],[-74.149194,40.779047],[-74.149194,40.779074],[-74.14923,40.779074]],[[-74.149194,40.779157],[-74.149158,40.779129],[-74.149158,40.779157],[-74.149194,40.779157]],[[-74.153946,40.774944],[-74.153982,40.774916],[-74.153946,40.774916],[-74.153946,40.774944]],[[-74.153982,40.774916],[-74.154019,40.774889],[-74.153982,40.774889],[-74.153982,40.774916]],[[-74.15286,40.775544],[-74.152823,40.775572],[-74.15286,40.775572],[-74.15286,40.775544]],[[-74.163838,40.761028],[-74.163766,40.761001],[-74.163765,40.761028],[-74.163838,40.761028]]],[[[-74.159981,40.767001],[-74.159835,40.76722],[-74.159908,40.767001],[-74.159981,40.767001]]],[[[-74.157347,40.773609],[-74.158588,40.771032],[-74.158556,40.770263],[-74.158233,40.769768],[-74.158849,40.769413],[-74.159177,40.768865],[-74.158657,40.771581],[-74.157347,40.773609]]],[[[-74.153077,40.77538],[-74.153113,40.775408],[-74.153077,40.775408],[-74.153077,40.77538]]],[[[-74.153041,40.775408],[-74.153077,40.775435],[-74.153041,40.775435],[-74.153041,40.775408]]],[[[-74.153005,40.775462],[-74.153041,40.775435],[-74.153041,40.775463],[-74.153005,40.775462]]],[[[-74.152968,40.775462],[-74.153004,40.77549],[-74.152968,40.77549],[-74.152968,40.775462]]],[[[-74.152932,40.77549],[-74.152968,40.775517],[-74.152932,40.775517],[-74.152932,40.77549]]],[[[-74.152932,40.775545],[-74.152896,40.775517],[-74.152932,40.775517],[-74.152932,40.775545]]],[[[-74.15341,40.780836],[-74.154348,40.781039],[-74.154455,40.781176],[-74.15341,40.780836]]],[[[-74.154564,40.781204],[-74.157194,40.782228],[-74.157194,40.78231],[-74.154564,40.781204]]],[[[-74.148714,40.705671],[-74.14875,40.705644],[-74.14875,40.705671],[-74.148714,40.705671]]],[[[-74.148786,40.705699],[-74.148822,40.705672],[-74.148822,40.705699],[-74.148786,40.705699]]],[[[-74.148858,40.705727],[-74.148894,40.705699],[-74.148894,40.705727],[-74.148858,40.705727]]],[[[-74.149002,40.705727],[-74.14893,40.705754],[-74.14893,40.705727],[-74.149002,40.705727]]],[[[-74.149074,40.705782],[-74.149002,40.705782],[-74.149002,40.705755],[-74.149074,40.705755],[-74.149074,40.705782]]],[[[-74.149074,40.70581],[-74.149074,40.705782],[-74.149146,40.705782],[-74.149146,40.70581],[-74.149074,40.70581]]],[[[-74.149218,40.705838],[-74.149146,40.70581],[-74.149218,40.70581],[-74.149218,40.705838]]],[[[-74.149612,40.706443],[-74.149648,40.70636],[-74.149684,40.70636],[-74.149684,40.706443],[-74.149612,40.706443]]],[[[-74.141743,40.707462],[-74.141815,40.707434],[-74.141815,40.707462],[-74.141743,40.707462]]],[[[-74.141634,40.707461],[-74.141671,40.707434],[-74.14167,40.707461],[-74.141634,40.707461]]],[[[-74.141742,40.707516],[-74.141778,40.707544],[-74.141742,40.707544],[-74.141742,40.707516]]],[[[-74.14203,40.707627],[-74.141994,40.7076],[-74.14203,40.7076],[-74.14203,40.707627]]],[[[-74.14203,40.707627],[-74.142102,40.707655],[-74.14203,40.707655],[-74.14203,40.707627]]],[[[-74.142174,40.707655],[-74.142138,40.707682],[-74.142138,40.707655],[-74.142174,40.707655]]],[[[-74.142246,40.707683],[-74.14221,40.70771],[-74.14221,40.707683],[-74.142246,40.707683]]],[[[-74.142246,40.707765],[-74.14221,40.707738],[-74.142246,40.707738],[-74.142246,40.707765]]],[[[-74.142318,40.707765],[-74.142282,40.707793],[-74.142282,40.707765],[-74.142318,40.707765]]],[[[-74.14239,40.707793],[-74.142354,40.70782],[-74.142354,40.707793],[-74.14239,40.707793]]],[[[-74.142714,40.707959],[-74.14275,40.707931],[-74.14275,40.707959],[-74.142714,40.707959]]],[[[-74.142786,40.707959],[-74.142822,40.707986],[-74.142786,40.707986],[-74.142786,40.707959]]],[[[-74.149958,40.709189],[-74.149994,40.709216],[-74.149958,40.709216],[-74.149958,40.709189]]],[[[-74.149958,40.709216],[-74.149922,40.709243],[-74.149922,40.709216],[-74.149958,40.709216]]],[[[-74.149922,40.709243],[-74.149849,40.709326],[-74.149849,40.709271],[-74.149922,40.709243]]],[[[-74.149813,40.709325],[-74.149849,40.709353],[-74.149813,40.709353],[-74.149813,40.709325]]],[[[-74.149777,40.709353],[-74.149813,40.70938],[-74.149777,40.70938],[-74.149777,40.709353]]],[[[-74.14974,40.70938],[-74.149776,40.709408],[-74.14974,40.709408],[-74.14974,40.70938]]],[[[-74.14974,40.709463],[-74.149704,40.709435],[-74.14974,40.709435],[-74.14974,40.709463]]],[[[-74.149704,40.709462],[-74.149668,40.70949],[-74.149668,40.709462],[-74.149704,40.709462]]],[[[-74.149632,40.70949],[-74.149668,40.709517],[-74.149632,40.709517],[-74.149632,40.70949]]],[[[-74.149595,40.709517],[-74.149631,40.709545],[-74.149595,40.709544],[-74.149595,40.709517]]],[[[-74.149559,40.709544],[-74.149595,40.709572],[-74.149559,40.709572],[-74.149559,40.709544]]],[[[-74.149378,40.709708],[-74.149414,40.709736],[-74.149378,40.709736],[-74.149378,40.709708]]],[[[-74.148726,40.710256],[-74.14869,40.710228],[-74.148726,40.710228],[-74.148726,40.710256]]],[[[-74.148654,40.710255],[-74.14869,40.710283],[-74.148654,40.710283],[-74.148654,40.710255]]],[[[-74.148581,40.710283],[-74.148617,40.710338],[-74.148545,40.710337],[-74.148581,40.710283]]],[[[-74.148545,40.710392],[-74.148509,40.710337],[-74.148545,40.710337],[-74.148545,40.710392]]],[[[-74.148437,40.710392],[-74.148472,40.710419],[-74.148436,40.710419],[-74.148437,40.710392]]],[[[-74.148436,40.710419],[-74.1484,40.710447],[-74.1484,40.710419],[-74.148436,40.710419]]],[[[-74.1484,40.710447],[-74.148364,40.710474],[-74.148364,40.710447],[-74.1484,40.710447]]],[[[-74.148328,40.710474],[-74.148364,40.710501],[-74.148328,40.710501],[-74.148328,40.710474]]],[[[-74.148292,40.710501],[-74.148328,40.710529],[-74.148292,40.710529],[-74.148292,40.710501]]],[[[-74.148255,40.710529],[-74.148291,40.710556],[-74.148255,40.710556],[-74.148255,40.710529]]],[[[-74.147875,40.721096],[-74.147911,40.721068],[-74.147911,40.721096],[-74.147875,40.721096]]],[[[-74.149245,40.721347],[-74.149136,40.721429],[-74.149136,40.721374],[-74.149245,40.721347]]],[[[-74.149028,40.721429],[-74.149136,40.721456],[-74.149028,40.721456],[-74.149028,40.721429]]],[[[-74.150333,40.713307],[-74.15408,40.714252],[-74.151545,40.716056],[-74.151327,40.71644],[-74.151724,40.716331],[-74.151578,40.71677],[-74.150524,40.718167],[-74.148201,40.720877],[-74.147983,40.721069],[-74.147875,40.721041],[-74.147839,40.721068],[-74.147875,40.721151],[-74.147621,40.721397],[-74.145846,40.722709],[-74.141322,40.725358],[-74.140855,40.724945],[-74.140458,40.725026],[-74.140568,40.724697],[-74.140101,40.724283],[-74.139883,40.724475],[-74.140208,40.724558],[-74.140277,40.725025],[-74.139879,40.725298],[-74.140636,40.725465],[-74.140273,40.725904],[-74.139734,40.72549],[-74.139696,40.725792],[-74.138901,40.726064],[-74.13897,40.726503],[-74.13868,40.726859],[-74.13727,40.727404],[-74.134807,40.729043],[-74.133722,40.729451],[-74.133472,40.728984],[-74.133433,40.729643],[-74.132382,40.730408],[-74.130682,40.731061],[-74.130431,40.730786],[-74.129998,40.730757],[-74.129607,40.72974],[-74.129033,40.729162],[-74.129718,40.729301],[-74.130083,40.728507],[-74.129793,40.728698],[-74.129613,40.728615],[-74.132624,40.725825],[-74.137344,40.726965],[-74.132876,40.725853],[-74.132769,40.725633],[-74.133348,40.725388],[-74.133313,40.725168],[-74.134623,40.723086],[-74.135136,40.721578],[-74.13495,40.722703],[-74.133566,40.725031],[-74.133638,40.725142],[-74.135591,40.724297],[-74.138639,40.721095],[-74.138642,40.720436],[-74.137961,40.719638],[-74.137784,40.718978],[-74.138185,40.718211],[-74.137897,40.718183],[-74.13772,40.717606],[-74.137215,40.717439],[-74.136194,40.719522],[-74.136086,40.719412],[-74.137253,40.71711],[-74.139176,40.715195],[-74.142395,40.71353],[-74.143981,40.713947],[-74.144889,40.712714],[-74.146734,40.711814],[-74.148426,40.712341],[-74.150333,40.713307]],[[-74.151327,40.71644],[-74.151291,40.716467],[-74.151327,40.716467],[-74.151327,40.71644]],[[-74.15129,40.716549],[-74.151219,40.716439],[-74.151218,40.716549],[-74.15129,40.716549]],[[-74.151218,40.716549],[-74.151182,40.716577],[-74.151218,40.716577],[-74.151218,40.716549]],[[-74.151218,40.716577],[-74.151254,40.716604],[-74.151254,40.716577],[-74.151218,40.716577]],[[-74.147911,40.721041],[-74.147948,40.721014],[-74.147912,40.721014],[-74.147911,40.721041]],[[-74.147766,40.721205],[-74.14773,40.721178],[-74.14773,40.721205],[-74.147766,40.721205]],[[-74.137525,40.726965],[-74.137488,40.726993],[-74.13756,40.727021],[-74.137525,40.726965]],[[-74.133528,40.725388],[-74.13342,40.725415],[-74.133528,40.725443],[-74.133528,40.725388]],[[-74.13342,40.725415],[-74.133383,40.72547],[-74.133455,40.72547],[-74.13342,40.725415]]],[[[-74.148847,40.721538],[-74.148811,40.721565],[-74.148811,40.721538],[-74.148847,40.721538]]],[[[-74.148811,40.721565],[-74.148774,40.721593],[-74.148775,40.721565],[-74.148811,40.721565]]],[[[-74.148738,40.72162],[-74.148702,40.721592],[-74.148738,40.721592],[-74.148738,40.72162]]],[[[-74.148666,40.72162],[-74.148702,40.721647],[-74.148666,40.721647],[-74.148666,40.72162]]],[[[-74.148594,40.721647],[-74.14863,40.721702],[-74.148557,40.721702],[-74.148594,40.721647]]],[[[-74.148485,40.721702],[-74.148557,40.721729],[-74.148485,40.721729],[-74.148485,40.721702]]],[[[-74.148485,40.721729],[-74.148449,40.721756],[-74.148449,40.721729],[-74.148485,40.721729]]],[[[-74.148449,40.721756],[-74.148413,40.721784],[-74.148413,40.721756],[-74.148449,40.721756]]],[[[-74.148341,40.721783],[-74.148376,40.721838],[-74.148304,40.721838],[-74.148341,40.721783]]],[[[-74.148304,40.721838],[-74.148268,40.721866],[-74.148268,40.721838],[-74.148304,40.721838]]],[[[-74.147001,40.722658],[-74.147037,40.72263],[-74.147037,40.722658],[-74.147001,40.722658]]],[[[-74.149864,40.706443],[-74.150149,40.707185],[-74.149311,40.708693],[-74.147246,40.710333],[-74.145547,40.711069],[-74.145332,40.710876],[-74.145764,40.710933],[-74.146597,40.710414],[-74.146346,40.710029],[-74.139975,40.707538],[-74.139868,40.707318],[-74.138893,40.70737],[-74.136876,40.706788],[-74.135005,40.706068],[-74.13497,40.705848],[-74.135152,40.705519],[-74.135621,40.705548],[-74.14257,40.707931],[-74.142678,40.707904],[-74.141815,40.707407],[-74.141599,40.707406],[-74.140446,40.706991],[-74.141131,40.707185],[-74.140303,40.706826],[-74.139978,40.706825],[-74.139871,40.706632],[-74.137171,40.70569],[-74.137208,40.705553],[-74.135874,40.70533],[-74.135119,40.704915],[-74.131014,40.703612],[-74.130403,40.703308],[-74.131015,40.70353],[-74.131123,40.703503],[-74.129071,40.702755],[-74.129863,40.703114],[-74.126802,40.702254],[-74.126767,40.702061],[-74.127487,40.702283],[-74.127559,40.702229],[-74.126947,40.702007],[-74.126408,40.701703],[-74.125976,40.701592],[-74.126119,40.701812],[-74.125722,40.701811],[-74.125146,40.701644],[-74.116046,40.697297],[-74.117536,40.695169],[-74.140364,40.702187],[-74.143496,40.703349],[-74.146877,40.705117],[-74.149541,40.706195],[-74.149864,40.706443]],[[-74.149567,40.708117],[-74.149603,40.708145],[-74.149603,40.708117],[-74.149567,40.708117]],[[-74.142642,40.707958],[-74.142822,40.708041],[-74.142894,40.708042],[-74.142858,40.707959],[-74.14275,40.707904],[-74.142642,40.707958]],[[-74.142966,40.708042],[-74.143074,40.708152],[-74.143146,40.708152],[-74.142966,40.708042]],[[-74.143146,40.708152],[-74.143218,40.70818],[-74.143218,40.708152],[-74.143146,40.708152]],[[-74.142894,40.708014],[-74.14293,40.707987],[-74.142894,40.707987],[-74.142894,40.708014]],[[-74.141527,40.707351],[-74.141563,40.707324],[-74.141527,40.707324],[-74.141527,40.707351]],[[-74.137208,40.705553],[-74.13728,40.705526],[-74.137208,40.705526],[-74.137208,40.705553]],[[-74.131123,40.70353],[-74.131195,40.703558],[-74.131195,40.70353],[-74.131123,40.70353]],[[-74.131303,40.703558],[-74.131627,40.703751],[-74.131735,40.703752],[-74.131303,40.703558]],[[-74.131843,40.703752],[-74.132383,40.704028],[-74.132743,40.704112],[-74.131843,40.703752]],[[-74.132743,40.704112],[-74.132815,40.704139],[-74.132815,40.704112],[-74.132743,40.704112]],[[-74.132815,40.704139],[-74.132887,40.704167],[-74.132887,40.70414],[-74.132815,40.704139]],[[-74.128855,40.702754],[-74.128891,40.702727],[-74.128783,40.702672],[-74.128855,40.702754]],[[-74.127164,40.702063],[-74.1272,40.702008],[-74.127128,40.702008],[-74.127164,40.702063]],[[-74.126984,40.701952],[-74.12702,40.701925],[-74.126984,40.701925],[-74.126984,40.701952]],[[-74.125976,40.701592],[-74.12594,40.701565],[-74.12594,40.701592],[-74.125976,40.701592]],[[-74.149648,40.706333],[-74.149539,40.706442],[-74.14972,40.70647],[-74.14972,40.706333],[-74.149648,40.706333]]],[[[-74.137171,40.705663],[-74.136991,40.705608],[-74.137171,40.705636],[-74.137171,40.705663]]],[[[-74.139294,40.706576],[-74.139331,40.706548],[-74.139331,40.706576],[-74.139294,40.706576]]],[[[-74.139186,40.70663],[-74.13915,40.706603],[-74.139186,40.706603],[-74.139186,40.70663]]],[[[-74.139258,40.706658],[-74.139222,40.70663],[-74.139258,40.70663],[-74.139258,40.706658]]],[[[-74.139402,40.706713],[-74.139438,40.706686],[-74.139438,40.706713],[-74.139402,40.706713]]],[[[-74.139727,40.706714],[-74.139762,40.706742],[-74.139726,40.706742],[-74.139727,40.706714]]],[[[-74.139474,40.706741],[-74.13951,40.706713],[-74.13951,40.706741],[-74.139474,40.706741]]],[[[-74.139943,40.706797],[-74.139907,40.70677],[-74.139943,40.70677],[-74.139943,40.706797]]],[[[-74.139906,40.706879],[-74.13987,40.706852],[-74.139906,40.706852],[-74.139906,40.706879]]],[[[-74.140231,40.706908],[-74.140303,40.706881],[-74.140303,40.706908],[-74.140231,40.706908]]],[[[-74.139942,40.706907],[-74.139978,40.70688],[-74.139978,40.706907],[-74.139942,40.706907]]],[[[-74.140375,40.706936],[-74.140303,40.706908],[-74.140375,40.706908],[-74.140375,40.706936]]],[[[-74.133122,40.707297],[-74.133086,40.70727],[-74.133122,40.70727],[-74.133122,40.707297]]],[[[-74.141526,40.707461],[-74.141562,40.707434],[-74.141562,40.707461],[-74.141526,40.707461]]],[[[-74.137986,40.715108],[-74.13795,40.715136],[-74.13795,40.715108],[-74.137986,40.715108]]],[[[-74.137697,40.715162],[-74.137552,40.715217],[-74.137806,40.715053],[-74.137697,40.715162]]],[[[-74.13795,40.715136],[-74.137913,40.715163],[-74.137913,40.715136],[-74.13795,40.715136]]],[[[-74.137516,40.715217],[-74.137552,40.715244],[-74.137516,40.715244],[-74.137516,40.715217]]],[[[-74.137516,40.715244],[-74.13748,40.715272],[-74.13748,40.715244],[-74.137516,40.715244]]],[[[-74.137913,40.715163],[-74.137659,40.715409],[-74.137551,40.715409],[-74.137913,40.715163]]],[[[-74.137444,40.715271],[-74.13748,40.715299],[-74.137444,40.715299],[-74.137444,40.715271]]],[[[-74.137444,40.715299],[-74.137407,40.715326],[-74.137407,40.715299],[-74.137444,40.715299]]],[[[-74.137407,40.715326],[-74.137371,40.715354],[-74.137371,40.715326],[-74.137407,40.715326]]],[[[-74.135669,40.716611],[-74.135632,40.716638],[-74.135633,40.716611],[-74.135669,40.716611]]],[[[-74.13556,40.716665],[-74.135632,40.716693],[-74.13556,40.71672],[-74.13556,40.716665]]],[[[-74.135524,40.71672],[-74.13556,40.716775],[-74.135523,40.716775],[-74.135524,40.71672]]],[[[-74.136101,40.71664],[-74.136245,40.71675],[-74.135847,40.716968],[-74.135776,40.716858],[-74.136101,40.71664]]],[[[-74.136713,40.716971],[-74.136677,40.716916],[-74.136713,40.716916],[-74.136713,40.716971]]],[[[-74.136641,40.716971],[-74.136677,40.716998],[-74.136641,40.716998],[-74.136641,40.716971]]],[[[-74.136605,40.716998],[-74.13664,40.717053],[-74.136604,40.717053],[-74.136605,40.716998]]],[[[-74.136568,40.717053],[-74.136604,40.717108],[-74.136568,40.717108],[-74.136568,40.717053]]],[[[-74.136784,40.717109],[-74.136893,40.716972],[-74.136675,40.717245],[-74.136784,40.717109]]],[[[-74.136568,40.717108],[-74.136532,40.717163],[-74.136532,40.717108],[-74.136568,40.717108]]],[[[-74.134872,40.717075],[-74.134362,40.718089],[-74.13429,40.718089],[-74.134509,40.717541],[-74.134872,40.717075]]],[[[-74.135044,40.718723],[-74.135008,40.71875],[-74.135008,40.718723],[-74.135044,40.718723]]],[[[-74.134644,40.719215],[-74.134608,40.719188],[-74.134644,40.719188],[-74.134644,40.719215]]],[[[-74.135655,40.719027],[-74.13522,40.719547],[-74.134671,40.720835],[-74.134683,40.718804],[-74.135043,40.718805],[-74.135551,40.71834],[-74.135476,40.718779],[-74.135622,40.718587],[-74.135874,40.718588],[-74.135655,40.719027]],[[-74.135583,40.719109],[-74.135547,40.719081],[-74.135547,40.719109],[-74.135583,40.719109]],[[-74.135729,40.71878],[-74.135693,40.718752],[-74.135693,40.71878],[-74.135729,40.71878]]],[[[-74.135182,40.719849],[-74.135218,40.719821],[-74.135218,40.719849],[-74.135182,40.719849]]],[[[-74.134455,40.720862],[-74.134176,40.719022],[-74.134502,40.718803],[-74.134428,40.719105],[-74.134455,40.720862]],[[-74.134285,40.718995],[-74.13432,40.719105],[-74.134321,40.718995],[-74.134285,40.718995]]],[[[-74.13201,40.725795],[-74.131974,40.725768],[-74.132011,40.725768],[-74.13201,40.725795]]],[[[-74.131974,40.725795],[-74.131938,40.725822],[-74.131938,40.725795],[-74.131974,40.725795]]],[[[-74.131902,40.725822],[-74.131938,40.725877],[-74.131902,40.725877],[-74.131902,40.725822]]],[[[-74.131902,40.725877],[-74.131865,40.725904],[-74.131866,40.725877],[-74.131902,40.725877]]],[[[-74.131865,40.725904],[-74.131829,40.725959],[-74.131829,40.725904],[-74.131865,40.725904]]],[[[-74.131793,40.725959],[-74.131829,40.725987],[-74.131793,40.725987],[-74.131793,40.725959]]],[[[-74.131103,40.726698],[-74.131067,40.726725],[-74.131067,40.726698],[-74.131103,40.726698]]],[[[-74.131031,40.726725],[-74.131067,40.726753],[-74.131031,40.726753],[-74.131031,40.726725]]],[[[-74.131031,40.726753],[-74.130995,40.726808],[-74.130995,40.726753],[-74.131031,40.726753]]],[[[-74.130995,40.726808],[-74.130958,40.726835],[-74.130958,40.726807],[-74.130995,40.726808]]],[[[-74.130922,40.726835],[-74.130958,40.726862],[-74.130922,40.726862],[-74.130922,40.726835]]],[[[-74.130886,40.726862],[-74.130922,40.72689],[-74.130886,40.72689],[-74.130886,40.726862]]],[[[-74.13085,40.726889],[-74.130886,40.726944],[-74.130849,40.726944],[-74.13085,40.726889]]],[[[-74.130849,40.726944],[-74.130813,40.726972],[-74.130813,40.726944],[-74.130849,40.726944]]],[[[-74.130813,40.726972],[-74.130777,40.726999],[-74.130777,40.726972],[-74.130813,40.726972]]],[[[-74.13665,40.72861],[-74.136794,40.72861],[-74.13665,40.728637],[-74.13665,40.72861]]],[[[-74.132632,40.730875],[-74.132668,40.73093],[-74.132596,40.73093],[-74.132632,40.730875]]],[[[-74.129863,40.703142],[-74.129935,40.703115],[-74.129935,40.703142],[-74.129863,40.703142]]],[[[-74.129935,40.70317],[-74.129935,40.703142],[-74.130007,40.703142],[-74.130007,40.70317],[-74.129935,40.70317]]],[[[-74.130079,40.703197],[-74.130007,40.70317],[-74.130079,40.70317],[-74.130079,40.703197]]],[[[-74.130151,40.703198],[-74.130079,40.703225],[-74.130079,40.703197],[-74.130151,40.703198]]],[[[-74.130151,40.703225],[-74.130295,40.703308],[-74.130151,40.70328],[-74.130151,40.703225]]],[[[-74.128666,40.704209],[-74.128703,40.704181],[-74.128703,40.704209],[-74.128666,40.704209]]],[[[-74.138664,40.70984],[-74.145076,40.711397],[-74.143993,40.711668],[-74.139292,40.713658],[-74.136831,40.715132],[-74.134983,40.716664],[-74.134292,40.71765],[-74.133998,40.718555],[-74.133919,40.719927],[-74.134272,40.721301],[-74.133586,40.721326],[-74.132453,40.723985],[-74.131471,40.725382],[-74.126211,40.723992],[-74.128552,40.724851],[-74.131506,40.725601],[-74.130273,40.72686],[-74.128498,40.728117],[-74.127919,40.72828],[-74.128208,40.728336],[-74.128135,40.7285],[-74.127162,40.728168],[-74.126296,40.728275],[-74.126369,40.728138],[-74.126513,40.728138],[-74.126477,40.728056],[-74.125789,40.728465],[-74.125752,40.728685],[-74.125824,40.72874],[-74.126583,40.728413],[-74.127196,40.728525],[-74.127808,40.728884],[-74.127878,40.729296],[-74.126499,40.730664],[-74.126103,40.730415],[-74.126358,40.730032],[-74.12596,40.730195],[-74.126361,40.7294],[-74.126073,40.72929],[-74.125602,40.729645],[-74.12531,40.73033],[-74.125488,40.730688],[-74.124508,40.731728],[-74.123669,40.73329],[-74.123408,40.734908],[-74.122035,40.735069],[-74.117414,40.734916],[-74.117827,40.732502],[-74.119954,40.733003],[-74.120061,40.733223],[-74.120242,40.733114],[-74.120636,40.733582],[-74.120598,40.733993],[-74.120272,40.734212],[-74.120741,40.734158],[-74.121028,40.734544],[-74.120234,40.734623],[-74.119982,40.734403],[-74.119838,40.734402],[-74.120305,40.734788],[-74.120845,40.734927],[-74.12045,40.734652],[-74.121496,40.734682],[-74.122184,40.7343],[-74.123241,40.732437],[-74.12317,40.732327],[-74.122953,40.732409],[-74.123098,40.732217],[-74.123026,40.732162],[-74.122446,40.732737],[-74.12147,40.732926],[-74.121254,40.732842],[-74.121328,40.732458],[-74.120424,40.732895],[-74.117863,40.73231],[-74.120642,40.722955],[-74.120962,40.720012],[-74.120551,40.717436],[-74.116105,40.709156],[-74.114309,40.704609],[-74.114097,40.702284],[-74.114315,40.700569],[-74.116009,40.69736],[-74.122591,40.700565],[-74.122878,40.700896],[-74.127337,40.703244],[-74.128344,40.703851],[-74.12863,40.704208],[-74.12996,40.705091],[-74.129923,40.705228],[-74.129996,40.705146],[-74.13014,40.705229],[-74.130642,40.70578],[-74.130966,40.705863],[-74.132978,40.707214],[-74.133624,40.707848],[-74.134129,40.707904],[-74.135064,40.708429],[-74.136972,40.709094],[-74.138664,40.70984]],[[-74.127162,40.728168],[-74.127198,40.72814],[-74.127162,40.72814],[-74.127162,40.728168]],[[-74.126476,40.728193],[-74.126441,40.728165],[-74.12644,40.728193],[-74.126476,40.728193]],[[-74.126368,40.728248],[-74.126332,40.72822],[-74.126332,40.728247],[-74.126368,40.728248]],[[-74.127807,40.728993],[-74.127771,40.729021],[-74.127807,40.729021],[-74.127807,40.728993]],[[-74.126139,40.730415],[-74.126176,40.730388],[-74.126139,40.730388],[-74.126139,40.730415]],[[-74.126176,40.730388],[-74.126212,40.730361],[-74.126176,40.730361],[-74.126176,40.730388]],[[-74.126212,40.730361],[-74.126248,40.730333],[-74.126212,40.730333],[-74.126212,40.730361]],[[-74.126248,40.730333],[-74.126284,40.730306],[-74.126248,40.730306],[-74.126248,40.730333]],[[-74.120845,40.734927],[-74.120917,40.734955],[-74.120918,40.734928],[-74.120845,40.734927]],[[-74.122845,40.732299],[-74.122809,40.732271],[-74.122809,40.732299],[-74.122845,40.732299]],[[-74.124712,40.70189],[-74.124639,40.701945],[-74.124711,40.701945],[-74.124712,40.70189]],[[-74.124784,40.701945],[-74.124747,40.702],[-74.124783,40.702],[-74.124784,40.701945]],[[-74.129493,40.704843],[-74.129456,40.70487],[-74.129492,40.70487],[-74.129493,40.704843]],[[-74.129457,40.704842],[-74.129421,40.704815],[-74.12942,40.704842],[-74.129457,40.704842]],[[-74.129492,40.70487],[-74.129528,40.704898],[-74.129529,40.70487],[-74.129492,40.70487]],[[-74.129744,40.705008],[-74.129708,40.705035],[-74.129744,40.705036],[-74.129744,40.705008]],[[-74.129852,40.705118],[-74.129816,40.705146],[-74.129852,40.705146],[-74.129852,40.705118]],[[-74.130068,40.705201],[-74.130032,40.705229],[-74.130068,40.705229],[-74.130068,40.705201]],[[-74.130103,40.705284],[-74.130031,40.705256],[-74.130031,40.705284],[-74.130103,40.705284]],[[-74.130893,40.705918],[-74.130821,40.70589],[-74.130821,40.705917],[-74.130893,40.705918]],[[-74.138412,40.70973],[-74.138375,40.709757],[-74.138412,40.709757],[-74.138412,40.70973]]],[[[-74.126296,40.728275],[-74.126259,40.728302],[-74.12626,40.728275],[-74.126296,40.728275]]],[[[-74.126151,40.728274],[-74.12626,40.728247],[-74.126223,40.728302],[-74.126259,40.72833],[-74.126151,40.728274]]],[[[-74.126115,40.728302],[-74.126151,40.728329],[-74.126115,40.728329],[-74.126115,40.728302]]],[[[-74.126151,40.728329],[-74.126187,40.728357],[-74.126151,40.728357],[-74.126151,40.728329]]],[[[-74.126079,40.728356],[-74.126042,40.728384],[-74.126043,40.728356],[-74.126079,40.728356]]],[[[-74.126078,40.728384],[-74.126114,40.728411],[-74.126078,40.728411],[-74.126078,40.728384]]],[[[-74.125788,40.728685],[-74.125824,40.728658],[-74.125824,40.728685],[-74.125788,40.728685]]],[[[-74.128997,40.729162],[-74.128961,40.729189],[-74.128961,40.729162],[-74.128997,40.729162]]],[[[-74.128997,40.729189],[-74.129033,40.729217],[-74.128997,40.729217],[-74.128997,40.729189]]],[[[-74.128851,40.729408],[-74.128815,40.729381],[-74.128851,40.729381],[-74.128851,40.729408]]],[[[-74.128958,40.729711],[-74.128918,40.730397],[-74.128485,40.730341],[-74.128416,40.729819],[-74.128304,40.730395],[-74.127114,40.730254],[-74.128385,40.728885],[-74.128958,40.729711]],[[-74.128527,40.729298],[-74.128491,40.72927],[-74.128491,40.729297],[-74.128527,40.729298]],[[-74.128491,40.72927],[-74.128455,40.729242],[-74.128455,40.72927],[-74.128491,40.72927]]],[[[-74.126103,40.730415],[-74.126067,40.730443],[-74.126067,40.730415],[-74.126103,40.730415]]],[[[-74.127113,40.730446],[-74.127077,40.730501],[-74.127077,40.730446],[-74.127113,40.730446]]],[[[-74.126933,40.73039],[-74.126824,40.730555],[-74.126716,40.7305],[-74.126933,40.73039]]],[[[-74.127149,40.730474],[-74.127185,40.730501],[-74.127149,40.730501],[-74.127149,40.730474]]],[[[-74.127149,40.730501],[-74.127113,40.730528],[-74.127113,40.730501],[-74.127149,40.730501]]],[[[-74.127077,40.730501],[-74.127041,40.730528],[-74.127041,40.730501],[-74.127077,40.730501]]],[[[-74.126067,40.730497],[-74.125956,40.730854],[-74.125848,40.730826],[-74.126067,40.730497]]],[[[-74.125811,40.731018],[-74.125812,40.730826],[-74.12592,40.730854],[-74.125811,40.731018]]],[[[-74.12563,40.731073],[-74.125666,40.731182],[-74.125521,40.731237],[-74.12563,40.731073]]],[[[-74.125521,40.731292],[-74.125485,40.731264],[-74.125521,40.731264],[-74.125521,40.731292]]],[[[-74.125485,40.731347],[-74.125449,40.731319],[-74.125485,40.731319],[-74.125485,40.731347]]],[[[-74.125448,40.731346],[-74.125412,40.731374],[-74.125412,40.731346],[-74.125448,40.731346]]],[[[-74.125085,40.731757],[-74.125919,40.731128],[-74.124501,40.732963],[-74.125085,40.731757]]],[[[-74.123133,40.732409],[-74.123169,40.732355],[-74.123169,40.73241],[-74.123133,40.732409]]],[[[-74.123097,40.732409],[-74.123133,40.732437],[-74.123097,40.732437],[-74.123097,40.732409]]],[[[-74.127459,40.733192],[-74.128617,40.732647],[-74.126227,40.734039],[-74.124528,40.73461],[-74.125296,40.732828],[-74.127184,40.730638],[-74.127221,40.730474],[-74.127077,40.730418],[-74.12715,40.730364],[-74.12787,40.730586],[-74.1274,40.730749],[-74.128952,40.730809],[-74.129599,40.731223],[-74.129525,40.731524],[-74.129165,40.731413],[-74.1292,40.731633],[-74.128838,40.731824],[-74.129054,40.731907],[-74.128944,40.732209],[-74.127459,40.733192]],[[-74.127186,40.730446],[-74.127222,40.730419],[-74.127186,40.730419],[-74.127186,40.730446]],[[-74.127459,40.733192],[-74.127423,40.733219],[-74.127459,40.73322],[-74.127459,40.733192]],[[-74.127423,40.733219],[-74.12735,40.733247],[-74.127423,40.733247],[-74.127423,40.733219]],[[-74.12735,40.733247],[-74.127314,40.733274],[-74.12735,40.733274],[-74.12735,40.733247]],[[-74.127314,40.733274],[-74.127278,40.733301],[-74.127314,40.733301],[-74.127314,40.733274]]],[[[-74.122441,40.733588],[-74.122477,40.733533],[-74.122477,40.733588],[-74.122441,40.733588]]],[[[-74.121105,40.733748],[-74.122044,40.733476],[-74.121217,40.733062],[-74.122589,40.732902],[-74.122223,40.733834],[-74.121715,40.734217],[-74.121066,40.734187],[-74.121105,40.733748]]],[[[-74.122441,40.733588],[-74.122404,40.733642],[-74.122405,40.733587],[-74.122441,40.733588]]],[[[-74.122512,40.733698],[-74.122476,40.73367],[-74.122512,40.73367],[-74.122512,40.733698]]],[[[-74.122368,40.733642],[-74.122404,40.733725],[-74.122368,40.733725],[-74.122368,40.733642]]],[[[-74.122368,40.733725],[-74.122331,40.733779],[-74.122332,40.733724],[-74.122368,40.733725]]],[[[-74.122331,40.733779],[-74.122295,40.733834],[-74.122295,40.733779],[-74.122331,40.733779]]],[[[-74.124281,40.733566],[-74.124058,40.734773],[-74.123805,40.734827],[-74.124063,40.733812],[-74.124281,40.733566]]],[[[-74.126225,40.734396],[-74.126189,40.734423],[-74.126189,40.734396],[-74.126225,40.734396]]],[[[-74.126045,40.734286],[-74.12543,40.734695],[-74.12496,40.734721],[-74.126045,40.734286]]],[[[-74.126189,40.734423],[-74.125863,40.734697],[-74.125755,40.734669],[-74.126189,40.734423]]],[[[-74.124456,40.734665],[-74.124528,40.73461],[-74.124528,40.734665],[-74.124456,40.734665]]],[[[-74.124308,40.735296],[-74.124344,40.735323],[-74.124307,40.735323],[-74.124308,40.735296]]],[[[-74.124382,40.734939],[-74.125754,40.734779],[-74.124848,40.735544],[-74.124192,40.736558],[-74.124379,40.735351],[-74.124382,40.734939]]],[[[-74.123719,40.737325],[-74.123768,40.734964],[-74.124021,40.734938],[-74.123719,40.737325]]],[[[-74.117393,40.735053],[-74.123407,40.735073],[-74.123245,40.738092],[-74.121024,40.741608],[-74.118693,40.740495],[-74.117753,40.739422],[-74.117243,40.737612],[-74.117393,40.735053]]],[[[-74.1236,40.739191],[-74.123157,40.740892],[-74.123048,40.741028],[-74.123453,40.739657],[-74.123608,40.737709],[-74.123754,40.737545],[-74.1236,40.739191]]],[[[-74.121132,40.741646],[-74.122879,40.738997],[-74.123208,40.738366],[-74.123055,40.739821],[-74.122357,40.741987],[-74.121132,40.741646]]]]}}]}