{"type":"FeatureCollection","features":[{"type":"Feature","properties":{"level_ft":12},"geometry":{"type":"MultiPolygon","coordinates":[[[[-74.200011,40.688714],[-74.199902,40.688796],[-74.199866,40.688741],[-74.200011,40.688714]]],[[[-74.198929,40.688767],[-74.198715,40.688272],[-74.199831,40.688604],[-74.198998,40.689398],[-74.198638,40.689287],[-74.198929,40.688767]]],[[[-74.199644,40.690168],[-74.200227,40.688742],[-74.200876,40.688881],[-74.201093,40.688717],[-74.201055,40.688964],[-74.201379,40.689102],[-74.201417,40.6888],[-74.201669,40.688911],[-74.201051,40.689925],[-74.200799,40.689924],[-74.200872,40.689568],[-74.200692,40.689704],[-74.200296,40.689539],[-74.199644,40.690168]]],[[[-74.197435,40.692194],[-74.197471,40.692167],[-74.197471,40.692194],[-74.197435,40.692194]]],[[[-74.19729,40.692331],[-74.197326,40.692303],[-74.197326,40.692331],[-74.19729,40.692331]]],[[[-74.197722,40.692497],[-74.197649,40.692551],[-74.19765,40.692496],[-74.197722,40.692497]]],[[[-74.197649,40.692634],[-74.197613,40.692551],[-74.197649,40.692551],[-74.197649,40.692634]]],[[[-74.197577,40.692688],[-74.197613,40.692661],[-74.197613,40.692688],[-74.197577,40.692688]]],[[[-74.197504,40.692716],[-74.197576,40.692771],[-74.197504,40.692771],[-74.197504,40.692716]]],[[[-74.196708,40.693317],[-74.196744,40.693345],[-74.196708,40.693345],[-74.196708,40.693317]]],[[[-74.208683,40.701227],[-74.208719,40.701254],[-74.208683,40.701254],[-74.208683,40.701227]]],[[[-74.208647,40.701254],[-74.208683,40.701281],[-74.208647,40.701281],[-74.208647,40.701254]]],[[[-74.195588,40.701687],[-74.195624,40.701714],[-74.195588,40.701714],[-74.195588,40.701687]]],[[[-74.192306,40.701733],[-74.19227,40.701706],[-74.192306,40.701706],[-74.192306,40.701733]]],[[[-74.206659,40.702237],[-74.206695,40.70232],[-74.206659,40.702319],[-74.206659,40.702237]]],[[[-74.206587,40.702264],[-74.206478,40.702319],[-74.206479,40.702264],[-74.206587,40.702264]]],[[[-74.206839,40.702347],[-74.206767,40.70232],[-74.206839,40.70232],[-74.206839,40.702347]]],[[[-74.206767,40.702347],[-74.206731,40.702375],[-74.206731,40.702347],[-74.206767,40.702347]]],[[[-74.206406,40.702401],[-74.206334,40.702346],[-74.206442,40.702346],[-74.206406,40.702401]]],[[[-74.190059,40.703978],[-74.190095,40.704006],[-74.190059,40.704005],[-74.190059,40.703978]]],[[[-74.203476,40.704315],[-74.20344,40.704288],[-74.203476,40.704288],[-74.203476,40.704315]]],[[[-74.203368,40.704315],[-74.203403,40.704342],[-74.203367,40.704342],[-74.203368,40.704315]]],[[[-74.203331,40.70437],[-74.203367,40.704342],[-74.203367,40.70437],[-74.203331,40.70437]]],[[[-74.198882,40.707103],[-74.198918,40.707131],[-74.198882,40.707131],[-74.198882,40.707103]]],[[[-74.198882,40.707131],[-74.198846,40.707158],[-74.198846,40.707131],[-74.198882,40.707131]]],[[[-74.198846,40.707158],[-74.19881,40.707185],[-74.19881,40.707158],[-74.198846,40.707158]]],[[[-74.198629,40.707322],[-74.198593,40.707295],[-74.198629,40.707295],[-74.198629,40.707322]]],[[[-74.198557,40.707322],[-74.198593,40.707349],[-74.198556,40.707349],[-74.198557,40.707322]]],[[[-74.182039,40.706646],[-74.18128,40.706864],[-74.181353,40.706699],[-74.180993,40.706671],[-74.181536,40.706288],[-74.182329,40.706318],[-74.182474,40.706263],[-74.18492,40.707615],[-74.185062,40.708137],[-74.185676,40.708001],[-74.187082,40.70817],[-74.184484,40.708245],[-74.18445,40.707943],[-74.183223,40.708049],[-74.183189,40.707446],[-74.18247,40.707087],[-74.181925,40.707771],[-74.181456,40.707907],[-74.182039,40.706646]],[[-74.181751,40.706591],[-74.181715,40.706563],[-74.181714,40.70659],[-74.181751,40.706591]]],[[[-74.198556,40.707349],[-74.19852,40.707377],[-74.19852,40.707349],[-74.198556,40.707349]]],[[[-74.198484,40.707377],[-74.19852,40.707404],[-74.198484,40.707404],[-74.198484,40.707377]]],[[[-74.198376,40.707431],[-74.198412,40.707459],[-74.198376,40.707459],[-74.198376,40.707431]]],[[[-74.198339,40.707486],[-74.198303,40.707459],[-74.19834,40.707459],[-74.198339,40.707486]]],[[[-74.198267,40.707486],[-74.198303,40.707513],[-74.198267,40.707513],[-74.198267,40.707486]]],[[[-74.198267,40.707513],[-74.198195,40.707541],[-74.198195,40.707513],[-74.198267,40.707513]]],[[[-74.198195,40.707541],[-74.198159,40.707568],[-74.198159,40.707541],[-74.198195,40.707541]]],[[[-74.19805,40.707595],[-74.198159,40.707595],[-74.19805,40.70765],[-74.19805,40.707595]]],[[[-74.191447,40.708154],[-74.191411,40.708127],[-74.191447,40.708127],[-74.191447,40.708154]]],[[[-74.188416,40.708283],[-74.188452,40.708256],[-74.188452,40.708283],[-74.188416,40.708283]]],[[[-74.188344,40.708256],[-74.18838,40.708283],[-74.188344,40.708283],[-74.188344,40.708256]]],[[[-74.197435,40.708115],[-74.197111,40.708032],[-74.196459,40.708469],[-74.1961,40.708166],[-74.195233,40.708439],[-74.195304,40.708604],[-74.194836,40.70852],[-74.194619,40.708629],[-74.194833,40.709014],[-74.194005,40.70882],[-74.193752,40.708956],[-74.193464,40.708654],[-74.192383,40.708431],[-74.188596,40.708256],[-74.19657,40.707976],[-74.197942,40.70765],[-74.197435,40.708115]],[[-74.197652,40.707896],[-74.197616,40.707868],[-74.197616,40.707896],[-74.197652,40.707896]]],[[[-74.197137,40.710173],[-74.196094,40.709374],[-74.196782,40.708772],[-74.197579,40.708143],[-74.198012,40.708117],[-74.200182,40.70686],[-74.198552,40.70831],[-74.198334,40.708749],[-74.198548,40.709298],[-74.197823,40.71012],[-74.197137,40.710173]]],[[[-74.185672,40.70877],[-74.1856,40.708742],[-74.185672,40.708742],[-74.185672,40.70877]]],[[[-74.1856,40.70877],[-74.185492,40.708797],[-74.185492,40.708769],[-74.1856,40.70877]]],[[[-74.184301,40.708821],[-74.184484,40.708382],[-74.188272,40.708255],[-74.183542,40.709066],[-74.182422,40.70942],[-74.18253,40.709667],[-74.182277,40.709721],[-74.182244,40.70898],[-74.182606,40.708679],[-74.183653,40.708462],[-74.184301,40.708821]],[[-74.183653,40.70849],[-74.183617,40.708517],[-74.183653,40.708517],[-74.183653,40.70849]],[[-74.183725,40.708518],[-74.183689,40.708545],[-74.183725,40.708545],[-74.183725,40.708518]]],[[[-74.185492,40.708797],[-74.183613,40.709396],[-74.18336,40.709395],[-74.183975,40.709122],[-74.185492,40.708797]]],[[[-74.183864,40.709753],[-74.183972,40.709671],[-74.184081,40.709671],[-74.183864,40.709753]]],[[[-74.184296,40.709837],[-74.18426,40.709809],[-74.184296,40.709809],[-74.184296,40.709837]]],[[[-74.193166,40.710766],[-74.193202,40.710739],[-74.193202,40.710767],[-74.193166,40.710766]]],[[[-74.19313,40.710794],[-74.193166,40.710766],[-74.193166,40.710794],[-74.19313,40.710794]]],[[[-74.193166,40.710876],[-74.19331,40.710904],[-74.193165,40.710904],[-74.193166,40.710876]]],[[[-74.193129,40.710904],[-74.193093,40.710876],[-74.193129,40.710876],[-74.193129,40.710904]]],[[[-74.185148,40.712776],[-74.184282,40.712884],[-74.183638,40.711729],[-74.183532,40.711317],[-74.183533,40.710988],[-74.184042,40.710111],[-74.185236,40.70951],[-74.187511,40.708967],[-74.190037,40.708837],[-74.191407,40.709005],[-74.193604,40.709752],[-74.193132,40.710355],[-74.192083,40.710901],[-74.191253,40.710954],[-74.19118,40.7112],[-74.189988,40.711609],[-74.185148,40.712776]],[[-74.183568,40.71129],[-74.183676,40.711345],[-74.183712,40.71129],[-74.183568,40.71129]],[[-74.183712,40.711317],[-74.183748,40.711345],[-74.183748,40.711318],[-74.183712,40.711317]],[[-74.184548,40.70992],[-74.184512,40.710002],[-74.184548,40.710002],[-74.184548,40.70992]],[[-74.184729,40.709838],[-74.184801,40.70992],[-74.184801,40.709866],[-74.184729,40.709838]],[[-74.184693,40.70992],[-74.184657,40.709947],[-74.184693,40.709948],[-74.184693,40.70992]],[[-74.185582,40.71264],[-74.185618,40.712613],[-74.185582,40.712613],[-74.185582,40.71264]],[[-74.185582,40.712613],[-74.185546,40.712585],[-74.185546,40.712613],[-74.185582,40.712613]]],[[[-74.193165,40.710904],[-74.193129,40.710931],[-74.193129,40.710904],[-74.193165,40.710904]]],[[[-74.192044,40.711505],[-74.192081,40.711477],[-74.19208,40.711505],[-74.192044,40.711505]]],[[[-74.18403,40.712663],[-74.184066,40.712691],[-74.18403,40.712691],[-74.18403,40.712663]]],[[[-74.184066,40.712718],[-74.184102,40.712746],[-74.184066,40.712746],[-74.184066,40.712718]]],[[[-74.184053,40.715436],[-74.18409,40.715409],[-74.184089,40.715436],[-74.184053,40.715436]]],[[[-74.183693,40.715435],[-74.183728,40.71549],[-74.183692,40.71549],[-74.183693,40.715435]]],[[[-74.183692,40.71549],[-74.183656,40.715545],[-74.183656,40.71549],[-74.183692,40.71549]]],[[[-74.184053,40.715573],[-74.183944,40.7156],[-74.184053,40.715463],[-74.184053,40.715573]]],[[[-74.18362,40.715545],[-74.183656,40.7156],[-74.18362,40.715599],[-74.18362,40.715545]]],[[[-74.183836,40.715737],[-74.183799,40.715765],[-74.183799,40.715737],[-74.183836,40.715737]]],[[[-74.180721,40.687922],[-74.180654,40.687921],[-74.180721,40.687917],[-74.180721,40.687922]]],[[[-74.181644,40.706288],[-74.181608,40.706261],[-74.181644,40.706261],[-74.181644,40.706288]]],[[[-74.177098,40.706358],[-74.177135,40.706331],[-74.177135,40.706358],[-74.177098,40.706358]]],[[[-74.180632,40.70667],[-74.180704,40.706697],[-74.180632,40.706697],[-74.180632,40.70667]]],[[[-74.180595,40.706862],[-74.180631,40.706835],[-74.180631,40.706862],[-74.180595,40.706862]]],[[[-74.180559,40.706862],[-74.180595,40.706889],[-74.180559,40.706889],[-74.180559,40.706862]]],[[[-74.180523,40.706917],[-74.180559,40.706889],[-74.180559,40.706917],[-74.180523,40.706917]]],[[[-74.18103,40.706479],[-74.180632,40.706642],[-74.180632,40.70667],[-74.180596,40.70667],[-74.180596,40.706697],[-74.180488,40.706642],[-74.180379,40.706779],[-74.180595,40.706752],[-74.180595,40.706834],[-74.180559,40.706834],[-74.180559,40.706862],[-74.180487,40.706889],[-74.180522,40.706971],[-74.179291,40.708039],[-74.179475,40.707161],[-74.180236,40.706586],[-74.180345,40.70623],[-74.181285,40.705958],[-74.182078,40.70607],[-74.1815,40.706206],[-74.180921,40.706643],[-74.18103,40.706479]],[[-74.180524,40.706587],[-74.180596,40.706615],[-74.180597,40.706532],[-74.180524,40.706587]],[[-74.180597,40.706532],[-74.180633,40.70645],[-74.180597,40.70645],[-74.180597,40.706532]],[[-74.180994,40.706424],[-74.181138,40.706397],[-74.181139,40.706342],[-74.180994,40.706424]]],[[[-74.180594,40.707081],[-74.180558,40.706999],[-74.180703,40.706972],[-74.180594,40.707081]]],[[[-74.180196,40.707273],[-74.180232,40.7073],[-74.180196,40.7073],[-74.180196,40.707273]]],[[[-74.180773,40.707302],[-74.179941,40.707821],[-74.179688,40.707875],[-74.180883,40.707],[-74.180773,40.707302]]],[[[-74.210925,40.699887],[-74.208792,40.701227],[-74.208683,40.701199],[-74.208683,40.701227],[-74.208647,40.701226],[-74.208647,40.701254],[-74.208575,40.701254],[-74.208502,40.701391],[-74.208394,40.701363],[-74.208394,40.701445],[-74.207888,40.701746],[-74.207779,40.701718],[-74.206947,40.702293],[-74.206804,40.702155],[-74.206659,40.70221],[-74.206659,40.702237],[-74.206623,40.702237],[-74.206623,40.702264],[-74.206587,40.702182],[-74.208215,40.70117],[-74.207206,40.700921],[-74.206991,40.700618],[-74.206558,40.700645],[-74.206339,40.701248],[-74.206553,40.701825],[-74.206225,40.702456],[-74.204598,40.703467],[-74.204345,40.703494],[-74.20424,40.70278],[-74.203376,40.702503],[-74.202618,40.702584],[-74.202396,40.703818],[-74.20402,40.703685],[-74.203332,40.704205],[-74.203368,40.704315],[-74.203295,40.704342],[-74.203331,40.704397],[-74.203223,40.704452],[-74.203222,40.704562],[-74.198954,40.707103],[-74.198918,40.707076],[-74.198882,40.707103],[-74.198485,40.707102],[-74.198377,40.707074],[-74.198342,40.706937],[-74.198631,40.706828],[-74.198631,40.706746],[-74.197403,40.707127],[-74.197257,40.707483],[-74.196319,40.707673],[-74.186578,40.707976],[-74.185569,40.707699],[-74.183914,40.706789],[-74.183809,40.70602],[-74.183665,40.706074],[-74.183486,40.705744],[-74.183089,40.705716],[-74.18269,40.706209],[-74.181826,40.705877],[-74.180671,40.705984],[-74.181069,40.705793],[-74.180745,40.705572],[-74.180167,40.705845],[-74.180454,40.706065],[-74.179696,40.706201],[-74.179044,40.70683],[-74.179005,40.707379],[-74.179187,40.707132],[-74.179476,40.707023],[-74.179182,40.708121],[-74.178026,40.708502],[-74.178465,40.707158],[-74.178433,40.706389],[-74.18165,40.704971],[-74.178905,40.705704],[-74.178217,40.706251],[-74.177604,40.706332],[-74.177677,40.706058],[-74.177099,40.706221],[-74.17699,40.70633],[-74.177494,40.706689],[-74.1772,40.707731],[-74.177339,40.708802],[-74.176149,40.708826],[-74.17676,40.709294],[-74.175101,40.709043],[-74.175352,40.709537],[-74.174593,40.709782],[-74.1747,40.710085],[-74.175855,40.709951],[-74.175962,40.71017],[-74.176972,40.710201],[-74.176971,40.710365],[-74.176284,40.710638],[-74.174769,40.710661],[-74.17466,40.710853],[-74.176464,40.710831],[-74.177548,40.71034],[-74.177435,40.711328],[-74.177721,40.711877],[-74.178549,40.712291],[-74.179415,40.712184],[-74.18014,40.71139],[-74.179344,40.712047],[-74.178514,40.711962],[-74.177832,40.711246],[-74.177837,40.710368],[-74.178416,40.710013],[-74.179281,40.710097],[-74.178885,40.709849],[-74.17878,40.709218],[-74.178457,40.708942],[-74.178817,40.708971],[-74.179032,40.709273],[-74.179431,40.70878],[-74.17979,40.709138],[-74.179464,40.709439],[-74.180329,40.709634],[-74.180583,40.70947],[-74.18177,40.710077],[-74.182523,40.711095],[-74.182269,40.711396],[-74.182411,40.711863],[-74.182809,40.711535],[-74.183704,40.713019],[-74.17836,40.71413],[-74.176483,40.714317],[-74.176771,40.714455],[-74.174569,40.714696],[-74.175327,40.714671],[-74.174749,40.714779],[-74.170129,40.715287],[-74.170092,40.715342],[-74.171536,40.715181],[-74.172691,40.715185],[-74.172401,40.715294],[-74.172654,40.715349],[-74.17352,40.715297],[-74.179007,40.714598],[-74.18269,40.713922],[-74.183773,40.713596],[-74.183666,40.713376],[-74.184097,40.713899],[-74.184127,40.715107],[-74.183765,40.715435],[-74.183693,40.715407],[-74.183693,40.715435],[-74.183656,40.715462],[-74.183584,40.71549],[-74.18362,40.715545],[-74.183439,40.715709],[-74.183331,40.715626],[-74.182133,40.717133],[-74.17782,40.721238],[-74.176811,40.720988],[-74.177026,40.721455],[-74.176556,40.721509],[-74.177024,40.721757],[-74.176081,40.722688],[-74.175504,40.722714],[-74.175142,40.723042],[-74.175107,40.722685],[-74.174601,40.722986],[-74.17478,40.723288],[-74.174022,40.723286],[-74.174706,40.723672],[-74.175033,40.723179],[-74.175573,40.723373],[-74.175212,40.723482],[-74.174993,40.72392],[-74.165386,40.733006],[-74.161438,40.735822],[-74.160184,40.73481],[-74.158448,40.734014],[-74.15732,40.733745],[-74.155351,40.733699],[-74.155354,40.733087],[-74.155101,40.733113],[-74.15517,40.733696],[-74.14854,40.733908],[-74.147363,40.734175],[-74.145864,40.735025],[-74.142001,40.73941],[-74.139754,40.740681],[-74.135339,40.741671],[-74.128166,40.742211],[-74.123114,40.742143],[-74.123886,40.739686],[-74.124154,40.73686],[-74.124919,40.735737],[-74.125134,40.735902],[-74.124878,40.736505],[-74.12625,40.736455],[-74.126434,40.735714],[-74.125642,40.735382],[-74.125209,40.735491],[-74.125246,40.735353],[-74.12684,40.734123],[-74.132993,40.730822],[-74.135347,40.729347],[-74.136104,40.729377],[-74.136322,40.729103],[-74.136682,40.729324],[-74.137043,40.729187],[-74.137366,40.729655],[-74.137873,40.729245],[-74.138306,40.729246],[-74.138554,40.730153],[-74.138263,40.730536],[-74.13905,40.731719],[-74.140025,40.73175],[-74.140275,40.732107],[-74.140602,40.731751],[-74.140961,40.732137],[-74.141683,40.732029],[-74.141898,40.732387],[-74.142367,40.732333],[-74.142148,40.732772],[-74.142509,40.732746],[-74.14276,40.733021],[-74.142835,40.732472],[-74.143663,40.732969],[-74.143913,40.733464],[-74.144024,40.73297],[-74.144742,40.733549],[-74.145175,40.733522],[-74.145177,40.733166],[-74.14615,40.73347],[-74.145752,40.733689],[-74.145895,40.733827],[-74.149221,40.732849],[-74.153225,40.733025],[-74.152974,40.732778],[-74.153841,40.732561],[-74.154061,40.73182],[-74.152584,40.731404],[-74.152623,40.7308],[-74.152299,40.730772],[-74.152264,40.73047],[-74.151903,40.730606],[-74.151728,40.72948],[-74.15133,40.729643],[-74.15126,40.729314],[-74.151007,40.729285],[-74.15028,40.730271],[-74.150139,40.729667],[-74.149779,40.729529],[-74.147397,40.729631],[-74.147326,40.729466],[-74.147615,40.729412],[-74.147401,40.728808],[-74.147908,40.728535],[-74.147694,40.728095],[-74.148343,40.728234],[-74.148453,40.727905],[-74.147592,40.726914],[-74.14723,40.727023],[-74.14698,40.72661],[-74.146583,40.726692],[-74.14712,40.72738],[-74.146221,40.726773],[-74.145752,40.726881],[-74.146252,40.727844],[-74.145677,40.727375],[-74.145244,40.727319],[-74.145818,40.728007],[-74.145852,40.728419],[-74.146104,40.728474],[-74.146066,40.728886],[-74.145491,40.72839],[-74.14423,40.728112],[-74.144121,40.728276],[-74.144552,40.728525],[-74.144263,40.728579],[-74.139363,40.727356],[-74.139219,40.727163],[-74.140448,40.726755],[-74.140703,40.726372],[-74.142622,40.725225],[-74.144502,40.724379],[-74.144901,40.723941],[-74.145552,40.723751],[-74.147109,40.722686],[-74.147506,40.722714],[-74.148302,40.722305],[-74.148448,40.721921],[-74.149244,40.721457],[-74.149714,40.721403],[-74.154491,40.718563],[-74.155213,40.718373],[-74.15543,40.718291],[-74.155394,40.718236],[-74.155937,40.718046],[-74.157165,40.717747],[-74.157381,40.717775],[-74.157815,40.717585],[-74.158898,40.717451],[-74.158969,40.717615],[-74.159187,40.717396],[-74.165541,40.716564],[-74.160199,40.71707],[-74.159007,40.717368],[-74.158177,40.717393],[-74.15742,40.717144],[-74.156738,40.716483],[-74.156708,40.715358],[-74.157144,40.714673],[-74.15736,40.714811],[-74.158118,40.714786],[-74.158406,40.714924],[-74.161866,40.71551],[-74.162227,40.715484],[-74.162083,40.715429],[-74.163021,40.715514],[-74.162371,40.715539],[-74.162984,40.715651],[-74.163886,40.715571],[-74.161326,40.715234],[-74.160318,40.714847],[-74.161003,40.714931],[-74.161004,40.714822],[-74.158877,40.714568],[-74.158589,40.714458],[-74.158047,40.714511],[-74.157291,40.714289],[-74.15842,40.712096],[-74.158961,40.712208],[-74.159432,40.711825],[-74.159396,40.711742],[-74.15907,40.711934],[-74.159796,40.711085],[-74.160591,40.71084],[-74.161637,40.710925],[-74.161026,40.710512],[-74.163224,40.710958],[-74.163117,40.710738],[-74.163478,40.710629],[-74.161568,40.710294],[-74.160846,40.710456],[-74.16027,40.710153],[-74.161174,40.709634],[-74.16345,40.709009],[-74.163523,40.708817],[-74.163162,40.708871],[-74.163272,40.708652],[-74.162623,40.70854],[-74.162226,40.708621],[-74.162369,40.708732],[-74.161358,40.708976],[-74.161577,40.708427],[-74.160821,40.708178],[-74.161069,40.708975],[-74.159622,40.709849],[-74.159118,40.709683],[-74.1589,40.709957],[-74.158359,40.7099],[-74.157236,40.710858],[-74.157525,40.710886],[-74.157486,40.711325],[-74.15524,40.71324],[-74.155097,40.712965],[-74.150559,40.711496],[-74.150054,40.71155],[-74.149839,40.711275],[-74.148507,40.710804],[-74.151223,40.708644],[-74.153245,40.708403],[-74.153571,40.708102],[-74.15404,40.708076],[-74.153752,40.70791],[-74.153755,40.707443],[-74.154656,40.707501],[-74.154368,40.707363],[-74.154333,40.707171],[-74.153794,40.70684],[-74.152467,40.705408],[-74.151529,40.70535],[-74.150912,40.706117],[-74.150156,40.705895],[-74.150842,40.70576],[-74.151567,40.704911],[-74.153116,40.705383],[-74.153153,40.705163],[-74.151821,40.70472],[-74.150995,40.704059],[-74.150595,40.704579],[-74.151423,40.704856],[-74.151024,40.705431],[-74.150517,40.705704],[-74.149724,40.705647],[-74.147312,40.704816],[-74.143929,40.703241],[-74.138997,40.701496],[-74.117574,40.694977],[-74.120322,40.69066],[-74.125251,40.68406],[-74.131955,40.673797],[-74.139139,40.677125],[-74.148986,40.682244],[-74.150435,40.683156],[-74.152657,40.685232],[-74.153849,40.685922],[-74.155324,40.686124],[-74.158342,40.686031],[-74.15967,40.686981],[-74.16063,40.688486],[-74.161494,40.689294],[-74.165051,40.69017],[-74.167635,40.689971],[-74.169273,40.688625],[-74.180649,40.687922],[-74.180143,40.688167],[-74.179783,40.688001],[-74.179312,40.688549],[-74.179996,40.688798],[-74.181298,40.688033],[-74.182236,40.687953],[-74.183172,40.688258],[-74.184107,40.688919],[-74.183677,40.688149],[-74.182994,40.687782],[-74.191687,40.687266],[-74.191067,40.688718],[-74.191427,40.688857],[-74.191935,40.688254],[-74.193304,40.688477],[-74.194027,40.688232],[-74.193741,40.687627],[-74.193307,40.687901],[-74.193594,40.688176],[-74.191683,40.688089],[-74.191904,40.687253],[-74.197386,40.686927],[-74.197167,40.687636],[-74.196987,40.687471],[-74.19605,40.687441],[-74.196806,40.687635],[-74.19547,40.687961],[-74.195431,40.688675],[-74.19586,40.689472],[-74.195137,40.689937],[-74.195347,40.691283],[-74.194877,40.691611],[-74.194983,40.692023],[-74.194658,40.692214],[-74.194979,40.692956],[-74.195557,40.692765],[-74.196096,40.693206],[-74.195698,40.693479],[-74.19566,40.693891],[-74.196929,40.692275],[-74.19729,40.692358],[-74.196927,40.692824],[-74.196675,40.692741],[-74.196963,40.692879],[-74.196926,40.693016],[-74.196527,40.693482],[-74.193179,40.700088],[-74.192962,40.700115],[-74.193106,40.70028],[-74.197468,40.69277],[-74.197212,40.693648],[-74.198193,40.692059],[-74.198806,40.69195],[-74.198556,40.691538],[-74.199099,40.69099],[-74.199496,40.690909],[-74.199281,40.690524],[-74.199678,40.690635],[-74.200039,40.690499],[-74.199895,40.690306],[-74.200364,40.690417],[-74.200906,40.690034],[-74.201518,40.690338],[-74.201879,40.690202],[-74.20133,40.692067],[-74.201654,40.69226],[-74.201216,40.693412],[-74.201648,40.693605],[-74.20139,40.694867],[-74.20052,40.695908],[-74.200553,40.696484],[-74.199649,40.697003],[-74.199683,40.69747],[-74.198854,40.697413],[-74.198852,40.697907],[-74.198455,40.697906],[-74.198272,40.698455],[-74.197801,40.69881],[-74.197441,40.698727],[-74.197988,40.697493],[-74.197269,40.696942],[-74.197342,40.696668],[-74.19619,40.696336],[-74.195971,40.696747],[-74.195719,40.696746],[-74.19572,40.696499],[-74.194666,40.698363],[-74.194772,40.69883],[-74.195239,40.699133],[-74.19423,40.699075],[-74.193067,40.700966],[-74.192992,40.701543],[-74.194182,40.701628],[-74.192234,40.701678],[-74.191729,40.701759],[-74.191874,40.70143],[-74.191802,40.701375],[-74.191584,40.701759],[-74.191007,40.701784],[-74.191553,40.70077],[-74.191373,40.70066],[-74.190358,40.701838],[-74.187688,40.701968],[-74.187723,40.70216],[-74.190104,40.702029],[-74.190029,40.702605],[-74.19039,40.702551],[-74.191006,40.701977],[-74.191403,40.701978],[-74.190023,40.70395],[-74.18973,40.704883],[-74.19013,40.704308],[-74.190526,40.704418],[-74.190307,40.704912],[-74.190598,40.704474],[-74.190778,40.704556],[-74.190523,40.704995],[-74.190813,40.704721],[-74.191213,40.703954],[-74.190887,40.704392],[-74.190707,40.704309],[-74.190925,40.703843],[-74.190635,40.704281],[-74.190239,40.704116],[-74.191112,40.702498],[-74.191547,40.701978],[-74.194109,40.70182],[-74.194468,40.702068],[-74.19465,40.701767],[-74.195443,40.701934],[-74.195841,40.701605],[-74.196057,40.701633],[-74.195948,40.70199],[-74.196741,40.701992],[-74.195763,40.703032],[-74.195725,40.703307],[-74.196157,40.703445],[-74.196336,40.70383],[-74.195794,40.704048],[-74.195578,40.703855],[-74.19507,40.70465],[-74.195608,40.705255],[-74.196185,40.705284],[-74.196508,40.705642],[-74.196437,40.705313],[-74.197268,40.70504],[-74.196765,40.7046],[-74.197127,40.704491],[-74.197521,40.704959],[-74.198285,40.703615],[-74.198718,40.703479],[-74.199046,40.702849],[-74.199587,40.70285],[-74.200493,40.701919],[-74.201468,40.701538],[-74.201255,40.700796],[-74.202338,40.700552],[-74.202848,40.6994],[-74.203787,40.699293],[-74.204294,40.6988],[-74.204727,40.698746],[-74.204906,40.698939],[-74.205451,40.698062],[-74.205957,40.697761],[-74.20693,40.697928],[-74.207473,40.6976],[-74.207399,40.697929],[-74.208913,40.698125],[-74.209775,40.698978],[-74.209738,40.699253],[-74.209341,40.699362],[-74.210528,40.699941],[-74.210925,40.699887]],[[-74.208792,40.701199],[-74.208756,40.701172],[-74.208756,40.701199],[-74.208792,40.701199]],[[-74.20843,40.701363],[-74.208466,40.701336],[-74.20843,40.701336],[-74.20843,40.701363]],[[-74.208249,40.7015],[-74.208213,40.701472],[-74.208213,40.7015],[-74.208249,40.7015]],[[-74.206912,40.70221],[-74.20702,40.702128],[-74.206948,40.702073],[-74.206912,40.70221]],[[-74.198702,40.707075],[-74.198738,40.707048],[-74.198702,40.707048],[-74.198702,40.707075]],[[-74.198703,40.706746],[-74.198776,40.706719],[-74.198704,40.706718],[-74.198703,40.706746]],[[-74.198776,40.706719],[-74.198812,40.706691],[-74.198776,40.706691],[-74.198776,40.706719]],[[-74.198812,40.706691],[-74.198848,40.706664],[-74.198812,40.706664],[-74.198812,40.706691]],[[-74.183773,40.70602],[-74.183737,40.705992],[-74.183737,40.70602],[-74.183773,40.70602]],[[-74.17699,40.70633],[-74.176954,40.706358],[-74.17699,40.706358],[-74.17699,40.70633]],[[-74.176149,40.708826],[-74.176113,40.708798],[-74.176113,40.708826],[-74.176149,40.708826]],[[-74.18177,40.710132],[-74.181734,40.710159],[-74.18177,40.710159],[-74.18177,40.710132]],[[-74.183167,40.712139],[-74.183095,40.712112],[-74.183167,40.712194],[-74.183167,40.712139]],[[-74.183095,40.712112],[-74.183023,40.712084],[-74.183023,40.712112],[-74.183095,40.712112]],[[-74.174569,40.714723],[-74.17446,40.71475],[-74.174569,40.714751],[-74.174569,40.714723]],[[-74.183304,40.713759],[-74.18334,40.713787],[-74.18334,40.713759],[-74.183304,40.713759]],[[-74.183439,40.715599],[-74.183476,40.715572],[-74.183439,40.715571],[-74.183439,40.715599]],[[-74.164083,40.733853],[-74.164047,40.733826],[-74.164047,40.733853],[-74.164083,40.733853]],[[-74.163829,40.734072],[-74.163793,40.734045],[-74.163793,40.734072],[-74.163829,40.734072]],[[-74.16296,40.734701],[-74.162924,40.734674],[-74.162924,40.734701],[-74.16296,40.734701]],[[-74.126434,40.735714],[-74.126471,40.735687],[-74.126435,40.735687],[-74.126434,40.735714]],[[-74.125427,40.735244],[-74.125463,40.735272],[-74.125463,40.735244],[-74.125427,40.735244]],[[-74.141466,40.732138],[-74.141502,40.732193],[-74.141502,40.732139],[-74.141466,40.732138]],[[-74.149424,40.721512],[-74.149388,40.72154],[-74.149424,40.72154],[-74.149424,40.721512]],[[-74.155575,40.718209],[-74.155611,40.718237],[-74.155611,40.718209],[-74.155575,40.718209]],[[-74.155647,40.718182],[-74.155683,40.71821],[-74.155683,40.718182],[-74.155647,40.718182]],[[-74.157165,40.717775],[-74.1572,40.717802],[-74.157201,40.717775],[-74.157165,40.717775]],[[-74.159115,40.717286],[-74.159079,40.717259],[-74.159079,40.717286],[-74.159115,40.717286]],[[-74.162119,40.715511],[-74.162299,40.715539],[-74.162371,40.715484],[-74.162119,40.715511]],[[-74.160823,40.714931],[-74.160714,40.714958],[-74.160823,40.714958],[-74.160823,40.714931]],[[-74.159418,40.714597],[-74.15949,40.71457],[-74.159418,40.71457],[-74.159418,40.714597]],[[-74.15848,40.714457],[-74.158408,40.71443],[-74.158408,40.714457],[-74.15848,40.714457]],[[-74.159469,40.71166],[-74.159505,40.711688],[-74.159541,40.711633],[-74.159469,40.71166]],[[-74.159541,40.711633],[-74.159577,40.711606],[-74.159541,40.711606],[-74.159541,40.711633]],[[-74.162153,40.708758],[-74.162117,40.708731],[-74.162117,40.708758],[-74.162153,40.708758]],[[-74.162008,40.708785],[-74.161972,40.708758],[-74.161972,40.708785],[-74.162008,40.708785]],[[-74.160821,40.708178],[-74.160713,40.70815],[-74.160713,40.708178],[-74.160821,40.708178]],[[-74.16002,40.709548],[-74.159948,40.709521],[-74.159948,40.709548],[-74.16002,40.709548]],[[-74.159948,40.709521],[-74.159876,40.709493],[-74.159876,40.70952],[-74.159948,40.709521]],[[-74.159658,40.709794],[-74.159623,40.709767],[-74.159622,40.709794],[-74.159658,40.709794]],[[-74.157236,40.71094],[-74.157164,40.710912],[-74.157164,40.71094],[-74.157236,40.71094]],[[-74.157164,40.71094],[-74.157127,40.710967],[-74.157163,40.710967],[-74.157164,40.71094]],[[-74.157127,40.710967],[-74.157091,40.710994],[-74.157127,40.710994],[-74.157127,40.710967]],[[-74.150317,40.709464],[-74.150497,40.709492],[-74.150498,40.709465],[-74.150317,40.709464]],[[-74.150498,40.709437],[-74.151183,40.709385],[-74.151292,40.709303],[-74.150498,40.709437]],[[-74.151295,40.708644],[-74.151331,40.708671],[-74.151332,40.708644],[-74.151295,40.708644]],[[-74.154584,40.707583],[-74.154944,40.707694],[-74.154836,40.707611],[-74.15491,40.70731],[-74.154584,40.707583]],[[-74.155016,40.707694],[-74.154979,40.707749],[-74.155052,40.707749],[-74.155016,40.707694]],[[-74.155052,40.707749],[-74.155124,40.707777],[-74.155124,40.707749],[-74.155052,40.707749]],[[-74.155196,40.707777],[-74.155159,40.707832],[-74.155232,40.707832],[-74.155196,40.707777]],[[-74.155232,40.707832],[-74.155304,40.70786],[-74.155304,40.707832],[-74.155232,40.707832]],[[-74.155304,40.70786],[-74.15534,40.707887],[-74.15534,40.70786],[-74.155304,40.70786]],[[-74.15534,40.707887],[-74.155412,40.707915],[-74.155412,40.707887],[-74.15534,40.707887]],[[-74.155412,40.707915],[-74.155447,40.707942],[-74.155448,40.707915],[-74.155412,40.707915]],[[-74.154909,40.707419],[-74.154981,40.707447],[-74.154981,40.70742],[-74.154909,40.707419]],[[-74.154981,40.707447],[-74.155053,40.707475],[-74.155053,40.707447],[-74.154981,40.707447]],[[-74.154369,40.70728],[-74.154405,40.707253],[-74.154369,40.707253],[-74.154369,40.70728]],[[-74.154405,40.707281],[-74.154441,40.707308],[-74.154441,40.707281],[-74.154405,40.707281]],[[-74.15308,40.705465],[-74.153836,40.705714],[-74.154196,40.705715],[-74.153261,40.705246],[-74.15308,40.705465]],[[-74.161529,40.689377],[-74.161421,40.689349],[-74.161421,40.689404],[-74.161529,40.689377]],[[-74.161421,40.689404],[-74.161385,40.689459],[-74.161421,40.689459],[-74.161421,40.689404]],[[-74.161493,40.689404],[-74.161529,40.689459],[-74.161529,40.689404],[-74.161493,40.689404]],[[-74.161493,40.689459],[-74.161457,40.689486],[-74.161493,40.689486],[-74.161493,40.689459]],[[-74.179349,40.688302],[-74.179313,40.688274],[-74.179313,40.688302],[-74.179349,40.688302]],[[-74.19689,40.693016],[-74.196854,40.692961],[-74.196854,40.693016],[-74.19689,40.693016]],[[-74.196745,40.693208],[-74.196709,40.69318],[-74.196709,40.693208],[-74.196745,40.693208]],[[-74.193251,40.700226],[-74.193323,40.700253],[-74.193323,40.700226],[-74.193251,40.700226]],[[-74.193323,40.700253],[-74.193358,40.700281],[-74.193359,40.700254],[-74.193323,40.700253]],[[-74.193578,40.69965],[-74.193686,40.699678],[-74.193686,40.69965],[-74.193578,40.69965]],[[-74.193686,40.699678],[-74.193722,40.699705],[-74.193722,40.699678],[-74.193686,40.699678]],[[-74.19514,40.697074],[-74.195212,40.697102],[-74.195213,40.697074],[-74.19514,40.697074]],[[-74.195468,40.696389],[-74.195468,40.696471],[-74.195576,40.696471],[-74.195468,40.696389]],[[-74.195576,40.696471],[-74.195612,40.696499],[-74.195612,40.696471],[-74.195576,40.696471]],[[-74.197212,40.693648],[-74.197139,40.693675],[-74.197212,40.693676],[-74.197212,40.693648]],[[-74.198265,40.692114],[-74.198228,40.692169],[-74.198264,40.692169],[-74.198265,40.692114]],[[-74.199649,40.697003],[-74.199613,40.696976],[-74.199613,40.697003],[-74.199649,40.697003]],[[-74.191839,40.70132],[-74.191983,40.701238],[-74.191948,40.701183],[-74.191839,40.70132]],[[-74.191948,40.701128],[-74.19202,40.701101],[-74.192093,40.700991],[-74.191948,40.701128]],[[-74.19115,40.702004],[-74.191114,40.702059],[-74.19115,40.702059],[-74.19115,40.702004]],[[-74.191114,40.702059],[-74.191078,40.702114],[-74.191114,40.702114],[-74.191114,40.702059]],[[-74.189731,40.704828],[-74.189695,40.7048],[-74.189694,40.704828],[-74.189731,40.704828]],[[-74.189586,40.704828],[-74.189804,40.704609],[-74.189804,40.704499],[-74.189586,40.704828]],[[-74.189804,40.704499],[-74.189841,40.704444],[-74.189804,40.704444],[-74.189804,40.704499]],[[-74.190307,40.704912],[-74.190271,40.704939],[-74.190307,40.704939],[-74.190307,40.704912]],[[-74.190925,40.703843],[-74.190962,40.703816],[-74.190926,40.703816],[-74.190925,40.703843]],[[-74.190966,40.702855],[-74.191073,40.703047],[-74.191146,40.702855],[-74.190966,40.702855]],[[-74.210057,40.700406],[-74.210022,40.700379],[-74.210021,40.700406],[-74.210057,40.700406]]],[[[-74.180299,40.708426],[-74.180803,40.708537],[-74.179974,40.708507],[-74.180299,40.708426]]],[[[-74.17817,40.70853],[-74.178025,40.708666],[-74.178026,40.708529],[-74.17817,40.70853]]],[[[-74.180154,40.708535],[-74.180009,40.708617],[-74.180586,40.708811],[-74.179793,40.708644],[-74.180154,40.708535]]],[[[-74.179612,40.708643],[-74.180116,40.708892],[-74.180044,40.709029],[-74.179612,40.708643]]],[[[-74.181915,40.70994],[-74.180655,40.70936],[-74.180692,40.709223],[-74.181628,40.709527],[-74.181915,40.70994]]],[[[-74.181953,40.709446],[-74.18224,40.709776],[-74.18224,40.709859],[-74.181953,40.709446]]],[[[-74.182276,40.709914],[-74.18224,40.709886],[-74.182276,40.709886],[-74.182276,40.709914]]],[[[-74.18426,40.709837],[-74.183608,40.710439],[-74.183351,40.711344],[-74.182707,40.710326],[-74.18426,40.709837]]],[[[-74.182848,40.710931],[-74.182634,40.710381],[-74.182956,40.710958],[-74.182848,40.710931]]],[[[-74.184031,40.712636],[-74.183135,40.711398],[-74.183099,40.711261],[-74.183243,40.711316],[-74.184031,40.712636]]],[[[-74.175435,40.714671],[-74.175471,40.714643],[-74.175471,40.714671],[-74.175435,40.714671]]],[[[-74.171789,40.715155],[-74.171933,40.715182],[-74.171789,40.715182],[-74.171789,40.715155]]],[[[-74.17269,40.715322],[-74.172726,40.715295],[-74.172726,40.715322],[-74.17269,40.715322]]],[[[-74.183584,40.715599],[-74.18362,40.715627],[-74.183584,40.715627],[-74.183584,40.715599]]],[[[-74.183403,40.715709],[-74.183367,40.715736],[-74.183367,40.715709],[-74.183403,40.715709]]],[[[-74.18333,40.715763],[-74.183366,40.715791],[-74.18333,40.715791],[-74.18333,40.715763]]],[[[-74.183543,40.716587],[-74.183579,40.71656],[-74.183579,40.716588],[-74.183543,40.716587]]],[[[-74.182747,40.717107],[-74.182783,40.717079],[-74.182783,40.717107],[-74.182747,40.717107]]],[[[-74.19313,40.710794],[-74.191828,40.711504],[-74.191864,40.711614],[-74.191611,40.711586],[-74.192042,40.711971],[-74.192148,40.712548],[-74.191714,40.712766],[-74.191711,40.71337],[-74.1907,40.713532],[-74.190737,40.713395],[-74.190161,40.713229],[-74.190304,40.713449],[-74.190629,40.713422],[-74.190591,40.713779],[-74.190014,40.71375],[-74.189939,40.714354],[-74.189542,40.714353],[-74.189287,40.714901],[-74.188638,40.714872],[-74.188743,40.715421],[-74.188238,40.71553],[-74.188488,40.716107],[-74.18791,40.716297],[-74.188304,40.716847],[-74.187438,40.716927],[-74.188049,40.717231],[-74.188372,40.717781],[-74.187426,40.719508],[-74.186162,40.719642],[-74.186091,40.719504],[-74.186017,40.719833],[-74.185439,40.719887],[-74.183746,40.71947],[-74.183492,40.719771],[-74.183635,40.720019],[-74.183274,40.719963],[-74.183201,40.720128],[-74.182949,40.720099],[-74.18295,40.719797],[-74.18205,40.719548],[-74.181723,40.719849],[-74.181831,40.720096],[-74.181071,40.720396],[-74.181073,40.720067],[-74.180569,40.719928],[-74.180495,40.720257],[-74.180855,40.72045],[-74.180601,40.720724],[-74.180853,40.720725],[-74.180994,40.721467],[-74.180706,40.721438],[-74.180559,40.72185],[-74.180811,40.722125],[-74.180377,40.722288],[-74.17994,40.723028],[-74.179072,40.723575],[-74.178822,40.723108],[-74.178029,40.722858],[-74.176477,40.722991],[-74.176367,40.723265],[-74.176656,40.723321],[-74.175245,40.724113],[-74.174481,40.725264],[-74.172851,40.726632],[-74.172886,40.726879],[-74.17122,40.728137],[-74.170202,40.729671],[-74.169154,40.730053],[-74.171584,40.727452],[-74.183255,40.716449],[-74.183871,40.715792],[-74.183944,40.7156],[-74.183761,40.716286],[-74.182421,40.717243],[-74.182131,40.717627],[-74.181473,40.719519],[-74.181508,40.719739],[-74.181616,40.719684],[-74.182348,40.717463],[-74.182602,40.717189],[-74.182783,40.717134],[-74.183181,40.716779],[-74.183579,40.716615],[-74.182455,40.717765],[-74.182814,40.71804],[-74.183866,40.716945],[-74.184375,40.716013],[-74.184778,40.714724],[-74.184425,40.713159],[-74.1867,40.712643],[-74.185324,40.71371],[-74.185107,40.713956],[-74.185177,40.714231],[-74.185939,40.713465],[-74.187169,40.712727],[-74.190132,40.711692],[-74.190636,40.711775],[-74.19313,40.710794]],[[-74.191792,40.711559],[-74.191719,40.711586],[-74.191791,40.711586],[-74.191792,40.711559]],[[-74.180636,40.720834],[-74.1806,40.720916],[-74.180636,40.720917],[-74.180636,40.720834]],[[-74.182491,40.71771],[-74.182455,40.717682],[-74.182455,40.71771],[-74.182491,40.71771]],[[-74.182455,40.717765],[-74.182419,40.717737],[-74.182419,40.717765],[-74.182455,40.717765]],[[-74.185107,40.713956],[-74.185035,40.713929],[-74.185034,40.713956],[-74.185107,40.713956]],[[-74.185141,40.714231],[-74.185105,40.714258],[-74.185141,40.714259],[-74.185141,40.714231]],[[-74.189553,40.711965],[-74.189589,40.711992],[-74.189589,40.711965],[-74.189553,40.711965]]],[[[-74.169192,40.729531],[-74.169228,40.729559],[-74.169192,40.729559],[-74.169192,40.729531]]],[[[-74.168322,40.730489],[-74.168285,40.730517],[-74.168285,40.730489],[-74.168322,40.730489]]],[[[-74.168285,40.730517],[-74.168249,40.730544],[-74.168249,40.730517],[-74.168285,40.730517]]],[[[-74.167487,40.731338],[-74.167523,40.731365],[-74.167487,40.731365],[-74.167487,40.731338]]],[[[-74.167086,40.732298],[-74.168646,40.730463],[-74.168826,40.730546],[-74.167701,40.731997],[-74.167086,40.732298]]],[[[-74.165599,40.733748],[-74.16618,40.733064],[-74.16636,40.733091],[-74.165961,40.733475],[-74.166212,40.733832],[-74.165599,40.733748]]],[[[-74.164874,40.734322],[-74.165491,40.73372],[-74.165635,40.733803],[-74.165415,40.734351],[-74.164874,40.734322]]],[[[-74.164261,40.734238],[-74.164297,40.734211],[-74.164297,40.734238],[-74.164261,40.734238]]],[[[-74.164189,40.734293],[-74.164225,40.734266],[-74.164225,40.734293],[-74.164189,40.734293]]],[[[-74.164044,40.734402],[-74.16408,40.734375],[-74.16408,40.734402],[-74.164044,40.734402]]],[[[-74.164044,40.734402],[-74.164008,40.73443],[-74.164008,40.734402],[-74.164044,40.734402]]],[[[-74.164008,40.73443],[-74.163971,40.734457],[-74.163972,40.73443],[-74.164008,40.73443]]],[[[-74.163971,40.734457],[-74.163935,40.734484],[-74.163935,40.734457],[-74.163971,40.734457]]],[[[-74.163935,40.734484],[-74.163899,40.734512],[-74.163899,40.734484],[-74.163935,40.734484]]],[[[-74.163899,40.734512],[-74.163863,40.734539],[-74.163863,40.734512],[-74.163899,40.734512]]],[[[-74.163827,40.734539],[-74.163863,40.734567],[-74.163827,40.734566],[-74.163827,40.734539]]],[[[-74.163827,40.734566],[-74.16379,40.734594],[-74.16379,40.734566],[-74.163827,40.734566]]],[[[-74.163682,40.734621],[-74.163718,40.734648],[-74.163682,40.734648],[-74.163682,40.734621]]],[[[-74.1635,40.73484],[-74.163464,40.734812],[-74.163501,40.734813],[-74.1635,40.73484]]],[[[-74.163464,40.73484],[-74.163428,40.734867],[-74.163428,40.73484],[-74.163464,40.73484]]],[[[-74.163428,40.734867],[-74.163392,40.734895],[-74.163392,40.734867],[-74.163428,40.734867]]],[[[-74.163356,40.734922],[-74.16332,40.734894],[-74.163356,40.734894],[-74.163356,40.734922]]],[[[-74.16332,40.734922],[-74.163283,40.734949],[-74.163283,40.734922],[-74.16332,40.734922]]],[[[-74.163933,40.735006],[-74.163969,40.734979],[-74.163969,40.735006],[-74.163933,40.735006]]],[[[-74.163752,40.735115],[-74.163932,40.735061],[-74.163751,40.735143],[-74.163752,40.735115]]],[[[-74.163715,40.73517],[-74.163751,40.735143],[-74.163751,40.73517],[-74.163715,40.73517]]],[[[-74.167552,40.747396],[-74.165867,40.747392],[-74.165748,40.74525],[-74.166408,40.74517],[-74.166373,40.745005],[-74.165714,40.745085],[-74.162778,40.737845],[-74.161707,40.736207],[-74.163643,40.73517],[-74.163352,40.735636],[-74.164035,40.736077],[-74.164679,40.737204],[-74.164386,40.738219],[-74.164958,40.739236],[-74.165097,40.740362],[-74.164806,40.740663],[-74.165309,40.741214],[-74.166487,40.743852],[-74.166735,40.744677],[-74.166514,40.745527],[-74.167017,40.74605],[-74.167233,40.746133],[-74.167306,40.745941],[-74.167552,40.747396]],[[-74.167376,40.746435],[-74.16734,40.746463],[-74.167376,40.746463],[-74.167376,40.746435]],[[-74.167516,40.747259],[-74.16748,40.747286],[-74.167516,40.747287],[-74.167516,40.747259]]],[[[-74.167442,40.747671],[-74.167478,40.747643],[-74.167478,40.747671],[-74.167442,40.747671]]],[[[-74.167441,40.747863],[-74.16672,40.747723],[-74.166683,40.74797],[-74.165838,40.747886],[-74.165863,40.747474],[-74.166938,40.747504],[-74.167189,40.747697],[-74.167226,40.747505],[-74.167551,40.747534],[-74.167406,40.747643],[-74.167441,40.747863]],[[-74.166901,40.747696],[-74.166937,40.747669],[-74.166901,40.747669],[-74.166901,40.747696]]],[[[-74.167944,40.748331],[-74.167944,40.748303],[-74.16798,40.748304],[-74.16798,40.748331],[-74.167944,40.748331]]],[[[-74.168016,40.748359],[-74.16798,40.748331],[-74.168016,40.748331],[-74.168016,40.748359]]],[[[-74.163403,40.761302],[-74.163439,40.761329],[-74.163403,40.761329],[-74.163403,40.761302]]],[[[-74.160857,40.70826],[-74.160893,40.708288],[-74.160857,40.708288],[-74.160857,40.70826]]],[[[-74.159324,40.711797],[-74.15936,40.711825],[-74.159323,40.711824],[-74.159324,40.711797]]],[[[-74.155673,40.713214],[-74.157738,40.711463],[-74.158062,40.711656],[-74.15788,40.711875],[-74.158059,40.71215],[-74.157113,40.713767],[-74.155673,40.713214]]],[[[-74.155528,40.713296],[-74.155673,40.713214],[-74.155528,40.713323],[-74.155528,40.713296]]],[[[-74.15866,40.71454],[-74.158696,40.714568],[-74.15866,40.714568],[-74.15866,40.71454]]],[[[-74.156604,40.714616],[-74.15664,40.714589],[-74.15664,40.714616],[-74.156604,40.714616]]],[[[-74.157144,40.714673],[-74.157108,40.714645],[-74.157145,40.714645],[-74.157144,40.714673]]],[[[-74.156495,40.714698],[-74.156459,40.714671],[-74.156495,40.714671],[-74.156495,40.714698]]],[[[-74.157397,40.714729],[-74.157433,40.714701],[-74.157433,40.714729],[-74.157397,40.714729]]],[[[-74.15736,40.714756],[-74.157397,40.714729],[-74.157396,40.714756],[-74.15736,40.714756]]],[[[-74.15855,40.714869],[-74.158442,40.714841],[-74.15855,40.714842],[-74.15855,40.714869]]],[[[-74.158695,40.71487],[-74.158731,40.714897],[-74.158695,40.714897],[-74.158695,40.71487]]],[[[-74.158911,40.714898],[-74.158839,40.714952],[-74.158767,40.714897],[-74.158911,40.714898]]],[[[-74.16039,40.714929],[-74.160354,40.714957],[-74.160354,40.714929],[-74.16039,40.714929]]],[[[-74.158983,40.714953],[-74.159091,40.714926],[-74.159091,40.714953],[-74.158983,40.714953]]],[[[-74.159271,40.714981],[-74.159163,40.714953],[-74.159271,40.714954],[-74.159271,40.714981]]],[[[-74.159343,40.715009],[-74.159452,40.714982],[-74.159452,40.715009],[-74.159343,40.715009]]],[[[-74.159523,40.715064],[-74.159488,40.715009],[-74.159596,40.71501],[-74.159523,40.715064]]],[[[-74.15974,40.715065],[-74.159632,40.715037],[-74.15974,40.715037],[-74.15974,40.715065]]],[[[-74.15974,40.715092],[-74.159884,40.715065],[-74.159884,40.715093],[-74.15974,40.715092]]],[[[-74.160064,40.715148],[-74.159956,40.715093],[-74.160064,40.715093],[-74.160064,40.715148]]],[[[-74.160244,40.715149],[-74.160136,40.715121],[-74.160245,40.715121],[-74.160244,40.715149]]],[[[-74.160064,40.715176],[-74.1601,40.715148],[-74.1601,40.715176],[-74.160064,40.715176]]],[[[-74.160605,40.715205],[-74.160497,40.715177],[-74.160605,40.715177],[-74.160605,40.715205]]],[[[-74.160461,40.715232],[-74.160244,40.715176],[-74.160244,40.715149],[-74.160425,40.715149],[-74.160461,40.715232]]],[[[-74.161073,40.715316],[-74.160641,40.715205],[-74.161074,40.715261],[-74.161073,40.715316]]],[[[-74.156636,40.715303],[-74.1566,40.715248],[-74.156636,40.715248],[-74.156636,40.715303]]],[[[-74.16111,40.715288],[-74.161218,40.715344],[-74.161073,40.715343],[-74.16111,40.715288]]],[[[-74.161254,40.715316],[-74.161326,40.715344],[-74.161253,40.715371],[-74.161254,40.715316]]],[[[-74.161506,40.715345],[-74.161614,40.715372],[-74.161506,40.715372],[-74.161506,40.715345]]],[[[-74.16165,40.7154],[-74.161831,40.715373],[-74.162047,40.715456],[-74.161938,40.715483],[-74.16165,40.7154]]],[[[-74.156421,40.714945],[-74.156132,40.715109],[-74.156312,40.715192],[-74.155584,40.716425],[-74.154431,40.716092],[-74.153385,40.716062],[-74.153964,40.715679],[-74.153606,40.715184],[-74.154296,40.714417],[-74.155449,40.714668],[-74.156387,40.714588],[-74.156421,40.714945]]],[[[-74.1566,40.715303],[-74.156341,40.716592],[-74.155908,40.716591],[-74.1566,40.715303]]],[[[-74.15569,40.716837],[-74.156158,40.717086],[-74.156121,40.717332],[-74.155616,40.717194],[-74.15569,40.716837]]],[[[-74.160054,40.717152],[-74.16009,40.71718],[-74.160054,40.717179],[-74.160054,40.717152]]],[[[-74.155436,40.717138],[-74.155508,40.717193],[-74.155436,40.717193],[-74.155436,40.717138]]],[[[-74.157309,40.717748],[-74.157345,40.71772],[-74.157345,40.717748],[-74.157309,40.717748]]],[[[-74.154238,40.718507],[-74.155254,40.71744],[-74.155541,40.717715],[-74.156227,40.71769],[-74.156698,40.717279],[-74.157888,40.717475],[-74.15619,40.717799],[-74.154238,40.718507]]],[[[-74.155358,40.718291],[-74.155322,40.718263],[-74.155358,40.718264],[-74.155358,40.718291]]],[[[-74.155286,40.718318],[-74.15525,40.718291],[-74.155286,40.718291],[-74.155286,40.718318]]],[[[-74.163175,40.735031],[-74.163211,40.735004],[-74.163211,40.735031],[-74.163175,40.735031]]],[[[-74.163138,40.735059],[-74.163102,40.735031],[-74.163139,40.735031],[-74.163138,40.735059]]],[[[-74.163102,40.735058],[-74.163066,40.735086],[-74.163066,40.735058],[-74.163102,40.735058]]],[[[-74.162669,40.73514],[-74.162633,40.735167],[-74.162633,40.735139],[-74.162669,40.73514]]],[[[-74.162633,40.735194],[-74.162596,40.735194],[-74.162597,40.735167],[-74.162633,40.735167],[-74.162633,40.735194]]],[[[-74.162705,40.735222],[-74.162669,40.735167],[-74.162705,40.735167],[-74.162705,40.735222]]],[[[-74.16274,40.735304],[-74.162776,40.735332],[-74.16274,40.735332],[-74.16274,40.735304]]],[[[-74.162307,40.735331],[-74.162596,40.735222],[-74.16209,40.735522],[-74.162307,40.735331]]],[[[-74.162486,40.735578],[-74.162523,40.735414],[-74.162631,40.735414],[-74.162486,40.735578]]],[[[-74.162017,40.735522],[-74.162053,40.735577],[-74.161981,40.735577],[-74.162017,40.735522]]],[[[-74.161945,40.735577],[-74.161981,40.735604],[-74.161945,40.735604],[-74.161945,40.735577]]],[[[-74.161945,40.735604],[-74.161909,40.735631],[-74.161909,40.735604],[-74.161945,40.735604]]],[[[-74.16245,40.735578],[-74.16198,40.735851],[-74.161871,40.735851],[-74.16227,40.73555],[-74.16245,40.735578]]],[[[-74.161618,40.736042],[-74.161691,40.735905],[-74.161799,40.735933],[-74.161618,40.736042]]],[[[-74.168233,40.748277],[-74.167978,40.748688],[-74.168047,40.749484],[-74.168264,40.74943],[-74.168298,40.749704],[-74.168911,40.749871],[-74.168982,40.750091],[-74.168692,40.750419],[-74.16844,40.750336],[-74.167931,40.750993],[-74.167787,40.750828],[-74.167064,40.751101],[-74.16677,40.752225],[-74.166518,40.75195],[-74.166265,40.752196],[-74.166442,40.752719],[-74.166038,40.754255],[-74.165676,40.754446],[-74.165892,40.754556],[-74.165459,40.754527],[-74.166425,40.756232],[-74.166171,40.756424],[-74.16558,40.759139],[-74.164928,40.759494],[-74.164636,40.760125],[-74.16304,40.76174],[-74.160092,40.766343],[-74.159984,40.76637],[-74.159035,40.768343],[-74.159034,40.768563],[-74.158421,40.768287],[-74.158672,40.768782],[-74.15722,40.770314],[-74.157,40.770835],[-74.157251,40.771138],[-74.156051,40.772864],[-74.155978,40.772946],[-74.15569,40.772918],[-74.155906,40.773001],[-74.155906,40.773055],[-74.15587,40.773028],[-74.155797,40.773055],[-74.155761,40.773192],[-74.155508,40.773164],[-74.15489,40.773986],[-74.155106,40.774151],[-74.154597,40.774699],[-74.154922,40.774782],[-74.154595,40.77511],[-74.154846,40.77555],[-74.153871,40.775438],[-74.153869,40.775849],[-74.153471,40.77604],[-74.15372,40.776727],[-74.153429,40.777248],[-74.153677,40.778127],[-74.15292,40.777905],[-74.152016,40.778067],[-74.152263,40.779193],[-74.152044,40.779632],[-74.15226,40.779825],[-74.151789,40.780015],[-74.15341,40.780816],[-74.152329,40.78042],[-74.14919,40.779866],[-74.150394,40.777486],[-74.150757,40.777185],[-74.151763,40.778066],[-74.15191,40.77771],[-74.151623,40.777242],[-74.151262,40.777324],[-74.15083,40.777075],[-74.154236,40.774752],[-74.153404,40.775107],[-74.153331,40.775161],[-74.153367,40.775244],[-74.153186,40.775381],[-74.153077,40.775353],[-74.152932,40.775462],[-74.15286,40.775517],[-74.152896,40.775599],[-74.152787,40.775681],[-74.150685,40.777048],[-74.150217,40.776744],[-74.153904,40.77338],[-74.155822,40.770247],[-74.157171,40.767025],[-74.161643,40.762036],[-74.163014,40.760089],[-74.163961,40.75797],[-74.165214,40.751123],[-74.165837,40.75107],[-74.165235,40.750986],[-74.1658,40.748133],[-74.166501,40.748189],[-74.166931,40.748822],[-74.167328,40.748768],[-74.167439,40.748247],[-74.167547,40.748412],[-74.167728,40.748275],[-74.167799,40.748413],[-74.168016,40.748386],[-74.168233,40.748277]],[[-74.167824,40.750801],[-74.167896,40.750774],[-74.167824,40.750746],[-74.167824,40.750801]],[[-74.16786,40.750746],[-74.167896,40.750691],[-74.16786,40.750691],[-74.16786,40.750746]],[[-74.167824,40.750746],[-74.167788,40.750719],[-74.167788,40.750746],[-74.167824,40.750746]],[[-74.161839,40.763575],[-74.161768,40.763465],[-74.161695,40.763602],[-74.161839,40.763575]],[[-74.160202,40.766068],[-74.16013,40.765986],[-74.160021,40.766123],[-74.160202,40.766068]],[[-74.156088,40.772727],[-74.156052,40.772699],[-74.156052,40.772727],[-74.156088,40.772727]],[[-74.155979,40.772891],[-74.155943,40.772863],[-74.155943,40.772891],[-74.155979,40.772891]],[[-74.154853,40.774123],[-74.154817,40.774178],[-74.154853,40.774178],[-74.154853,40.774123]],[[-74.154817,40.774178],[-74.15478,40.774205],[-74.154816,40.774205],[-74.154817,40.774178]],[[-74.15478,40.774205],[-74.154744,40.774232],[-74.15478,40.774232],[-74.15478,40.774205]],[[-74.154744,40.774205],[-74.154708,40.774177],[-74.154708,40.774205],[-74.154744,40.774205]],[[-74.154744,40.774232],[-74.154708,40.774287],[-74.154744,40.774287],[-74.154744,40.774232]],[[-74.154708,40.774287],[-74.154671,40.774315],[-74.154708,40.774315],[-74.154708,40.774287]],[[-74.154236,40.774698],[-74.154272,40.77467],[-74.154236,40.77467],[-74.154236,40.774698]],[[-74.154272,40.77467],[-74.154309,40.774643],[-74.154273,40.774643],[-74.154272,40.77467]],[[-74.154309,40.774643],[-74.154345,40.774615],[-74.154309,40.774615],[-74.154309,40.774643]],[[-74.15286,40.775544],[-74.152823,40.775572],[-74.15286,40.775572],[-74.15286,40.775544]]],[[[-74.159907,40.767193],[-74.159908,40.767001],[-74.159981,40.767001],[-74.159907,40.767193]]],[[[-74.159071,40.768453],[-74.159107,40.768399],[-74.159107,40.768453],[-74.159071,40.768453]]],[[[-74.158222,40.771909],[-74.159177,40.768865],[-74.158879,40.770649],[-74.158222,40.771909]]],[[[-74.155906,40.772946],[-74.155942,40.772973],[-74.155906,40.772973],[-74.155906,40.772946]]],[[[-74.155833,40.773055],[-74.155869,40.773083],[-74.155833,40.773083],[-74.155833,40.773055]]],[[[-74.153403,40.775134],[-74.153439,40.775162],[-74.153403,40.775162],[-74.153403,40.775134]]],[[[-74.15341,40.780836],[-74.154456,40.781094],[-74.154455,40.781176],[-74.15341,40.780836]]],[[[-74.154856,40.781425],[-74.154564,40.781204],[-74.154924,40.781425],[-74.154856,40.781425]]],[[[-74.151173,40.704526],[-74.150885,40.704443],[-74.150921,40.70436],[-74.151173,40.704471],[-74.151173,40.704526]]],[[[-74.148822,40.705699],[-74.148786,40.705671],[-74.148822,40.705672],[-74.148822,40.705699]]],[[[-74.148858,40.705699],[-74.148894,40.705727],[-74.148858,40.705727],[-74.148858,40.705699]]],[[[-74.14893,40.705754],[-74.14893,40.705727],[-74.149002,40.705727],[-74.149002,40.705755],[-74.14893,40.705754]]],[[[-74.149002,40.705782],[-74.149002,40.705755],[-74.149074,40.705755],[-74.149074,40.705782],[-74.149002,40.705782]]],[[[-74.149074,40.70581],[-74.149074,40.705782],[-74.149146,40.705782],[-74.149146,40.70581],[-74.149074,40.70581]]],[[[-74.149218,40.705838],[-74.149146,40.70581],[-74.149218,40.70581],[-74.149218,40.705838]]],[[[-74.150156,40.705868],[-74.150084,40.70584],[-74.150156,40.70584],[-74.150156,40.705868]]],[[[-74.151092,40.70609],[-74.1516,40.705515],[-74.152106,40.705434],[-74.152753,40.705821],[-74.153326,40.706646],[-74.151092,40.70609]],[[-74.151417,40.706146],[-74.151453,40.706119],[-74.151417,40.706119],[-74.151417,40.706146]],[[-74.151417,40.706119],[-74.151381,40.706091],[-74.151381,40.706119],[-74.151417,40.706119]]],[[[-74.149218,40.705838],[-74.150766,40.706336],[-74.150657,40.706665],[-74.150404,40.70672],[-74.15001,40.706197],[-74.149218,40.705838]]],[[[-74.149684,40.706443],[-74.149648,40.70636],[-74.149684,40.70636],[-74.149684,40.706443]]],[[[-74.15091,40.706474],[-74.15109,40.706529],[-74.150873,40.706639],[-74.15091,40.706474]]],[[[-74.151234,40.706667],[-74.151378,40.706558],[-74.151342,40.706667],[-74.151234,40.706667]]],[[[-74.153325,40.706811],[-74.15192,40.706532],[-74.15192,40.706477],[-74.153325,40.706811]]],[[[-74.154189,40.70717],[-74.154153,40.707197],[-74.154153,40.70717],[-74.154189,40.70717]]],[[[-74.151988,40.707218],[-74.152062,40.706889],[-74.151665,40.706998],[-74.151774,40.706724],[-74.152386,40.706945],[-74.152744,40.707632],[-74.152275,40.707604],[-74.152205,40.707082],[-74.151988,40.707218]]],[[[-74.154297,40.707225],[-74.154261,40.707253],[-74.154261,40.707225],[-74.154297,40.707225]]],[[[-74.153647,40.707388],[-74.153393,40.707525],[-74.153358,40.707415],[-74.153647,40.707388]]],[[[-74.150139,40.709079],[-74.150212,40.708888],[-74.150284,40.708915],[-74.150139,40.709079]]],[[[-74.150103,40.709079],[-74.150067,40.709107],[-74.150067,40.709079],[-74.150103,40.709079]]],[[[-74.150067,40.709107],[-74.15003,40.709161],[-74.150031,40.709107],[-74.150067,40.709107]]],[[[-74.149958,40.709189],[-74.149994,40.709216],[-74.149958,40.709216],[-74.149958,40.709189]]],[[[-74.149921,40.709271],[-74.149885,40.709298],[-74.149885,40.709271],[-74.149921,40.709271]]],[[[-74.149885,40.709298],[-74.149849,40.709326],[-74.149849,40.709298],[-74.149885,40.709298]]],[[[-74.149849,40.709326],[-74.149813,40.709353],[-74.149813,40.709325],[-74.149849,40.709326]]],[[[-74.149813,40.709353],[-74.149777,40.70938],[-74.149777,40.709353],[-74.149813,40.709353]]],[[[-74.149777,40.70938],[-74.14974,40.709408],[-74.14974,40.70938],[-74.149777,40.70938]]],[[[-74.149704,40.709462],[-74.14974,40.709435],[-74.14974,40.709463],[-74.149704,40.709462]]],[[[-74.149704,40.709462],[-74.149668,40.70949],[-74.149668,40.709462],[-74.149704,40.709462]]],[[[-74.149632,40.70949],[-74.149668,40.709517],[-74.149632,40.709517],[-74.149632,40.70949]]],[[[-74.149632,40.709517],[-74.149595,40.709544],[-74.149595,40.709517],[-74.149632,40.709517]]],[[[-74.149595,40.709544],[-74.149559,40.709572],[-74.149559,40.709544],[-74.149595,40.709544]]],[[[-74.148726,40.710256],[-74.14869,40.710228],[-74.148726,40.710228],[-74.148726,40.710256]]],[[[-74.152134,40.713944],[-74.152206,40.713972],[-74.152133,40.713972],[-74.152134,40.713944]]],[[[-74.152206,40.713972],[-74.152314,40.714],[-74.152205,40.713999],[-74.152206,40.713972]]],[[[-74.152458,40.714027],[-74.152422,40.714055],[-74.152422,40.714027],[-74.152458,40.714027]]],[[[-74.152638,40.71411],[-74.152674,40.714083],[-74.152674,40.71411],[-74.152638,40.71411]]],[[[-74.152782,40.714138],[-74.152746,40.714111],[-74.152782,40.714111],[-74.152782,40.714138]]],[[[-74.153106,40.714222],[-74.15307,40.714194],[-74.153106,40.714194],[-74.153106,40.714222]]],[[[-74.153106,40.714222],[-74.153142,40.714249],[-74.153106,40.714249],[-74.153106,40.714222]]],[[[-74.15343,40.714305],[-74.153358,40.714332],[-74.153322,40.714277],[-74.153431,40.714277],[-74.15343,40.714305]]],[[[-74.153575,40.714333],[-74.153611,40.714305],[-74.15361,40.714388],[-74.153575,40.714333]]],[[[-74.15259,40.716389],[-74.15443,40.716339],[-74.155402,40.716781],[-74.153806,40.718506],[-74.147727,40.721782],[-74.147692,40.721589],[-74.150085,40.719401],[-74.151866,40.716771],[-74.152156,40.716525],[-74.15259,40.716389]],[[-74.152228,40.71658],[-74.152192,40.716607],[-74.152228,40.716607],[-74.152228,40.71658]]],[[[-74.149208,40.721429],[-74.149209,40.721347],[-74.149245,40.721347],[-74.149208,40.721429]]],[[[-74.149136,40.721429],[-74.149028,40.721456],[-74.149028,40.721429],[-74.149136,40.721429]]],[[[-74.148847,40.721565],[-74.148811,40.721538],[-74.148847,40.721538],[-74.148847,40.721565]]],[[[-74.148811,40.721565],[-74.148774,40.721593],[-74.148775,40.721565],[-74.148811,40.721565]]],[[[-74.148702,40.72162],[-74.148738,40.721592],[-74.148738,40.72162],[-74.148702,40.72162]]],[[[-74.148702,40.72162],[-74.148666,40.721647],[-74.148666,40.72162],[-74.148702,40.72162]]],[[[-74.148594,40.721647],[-74.148666,40.721675],[-74.148594,40.721674],[-74.148594,40.721647]]],[[[-74.148594,40.721674],[-74.148557,40.721702],[-74.148558,40.721674],[-74.148594,40.721674]]],[[[-74.153367,40.775189],[-74.153403,40.775162],[-74.153403,40.775189],[-74.153367,40.775189]]],[[[-74.153077,40.77538],[-74.153113,40.775408],[-74.153077,40.775408],[-74.153077,40.77538]]],[[[-74.153041,40.775408],[-74.153077,40.775435],[-74.153041,40.775435],[-74.153041,40.775408]]],[[[-74.153005,40.775435],[-74.153041,40.775463],[-74.153005,40.775462],[-74.153005,40.775435]]],[[[-74.152968,40.775462],[-74.153004,40.77549],[-74.152968,40.77549],[-74.152968,40.775462]]],[[[-74.152932,40.775517],[-74.152968,40.77549],[-74.152968,40.775517],[-74.152932,40.775517]]],[[[-74.152896,40.775544],[-74.152932,40.775517],[-74.152932,40.775545],[-74.152896,40.775544]]],[[[-74.150145,40.776799],[-74.150613,40.77713],[-74.149887,40.777841],[-74.149303,40.778992],[-74.149159,40.778827],[-74.148829,40.779752],[-74.148329,40.779601],[-74.148503,40.77874],[-74.149041,40.777987],[-74.150145,40.776799]],[[-74.149778,40.778005],[-74.149742,40.777978],[-74.149741,40.778005],[-74.149778,40.778005]],[[-74.14934,40.778855],[-74.149304,40.778828],[-74.149304,40.778855],[-74.14934,40.778855]],[[-74.149303,40.77891],[-74.149267,40.778882],[-74.149267,40.77891],[-74.149303,40.77891]],[[-74.149195,40.778827],[-74.149232,40.778745],[-74.149196,40.778745],[-74.149195,40.778827]],[[-74.149232,40.778745],[-74.149341,40.77869],[-74.149232,40.77869],[-74.149232,40.778745]]],[[[-74.149157,40.779239],[-74.149085,40.779156],[-74.149231,40.778965],[-74.149266,40.779074],[-74.149157,40.779239]],[[-74.14923,40.779074],[-74.149194,40.779047],[-74.149194,40.779074],[-74.14923,40.779074]],[[-74.149194,40.779157],[-74.149158,40.779129],[-74.149158,40.779157],[-74.149194,40.779157]]],[[[-74.149121,40.779266],[-74.149085,40.779239],[-74.149121,40.779239],[-74.149121,40.779266]]],[[[-74.149121,40.779266],[-74.149157,40.779294],[-74.149121,40.779294],[-74.149121,40.779266]]],[[[-74.149083,40.779595],[-74.149028,40.779815],[-74.149011,40.779623],[-74.149083,40.779595]]],[[[-74.148714,40.705644],[-74.14875,40.705671],[-74.148714,40.705671],[-74.148714,40.705644]]],[[[-74.137279,40.705718],[-74.137279,40.705691],[-74.137351,40.705691],[-74.137351,40.705718],[-74.137279,40.705718]]],[[[-74.137423,40.705746],[-74.137351,40.705718],[-74.137423,40.705719],[-74.137423,40.705746]]],[[[-74.140738,40.706443],[-74.140702,40.70647],[-74.140702,40.706443],[-74.140738,40.706443]]],[[[-74.13998,40.706468],[-74.140016,40.706495],[-74.13998,40.706495],[-74.13998,40.706468]]],[[[-74.140159,40.706715],[-74.140231,40.706743],[-74.140159,40.706743],[-74.140159,40.706715]]],[[[-74.141421,40.706966],[-74.141457,40.706939],[-74.141457,40.706967],[-74.141421,40.706966]]],[[[-74.142753,40.707437],[-74.141457,40.706884],[-74.141133,40.706856],[-74.141097,40.706718],[-74.141314,40.706692],[-74.14297,40.707301],[-74.142753,40.707437]],[[-74.141458,40.706774],[-74.141421,40.706802],[-74.141458,40.706802],[-74.141458,40.706774]],[[-74.142501,40.707299],[-74.142825,40.707383],[-74.142501,40.707244],[-74.142501,40.707299]],[[-74.142609,40.707245],[-74.142646,40.707217],[-74.14261,40.707217],[-74.142609,40.707245]]],[[[-74.140699,40.707074],[-74.140735,40.707047],[-74.140735,40.707074],[-74.140699,40.707074]]],[[[-74.140879,40.707102],[-74.140915,40.70713],[-74.140879,40.707129],[-74.140879,40.707102]]],[[[-74.140951,40.707157],[-74.140951,40.70713],[-74.141023,40.70713],[-74.141023,40.707157],[-74.140951,40.707157]]],[[[-74.141095,40.707185],[-74.141023,40.707157],[-74.141095,40.707158],[-74.141095,40.707185]]],[[[-74.141815,40.707434],[-74.141779,40.707462],[-74.141779,40.707434],[-74.141815,40.707434]]],[[[-74.141994,40.707627],[-74.14203,40.7076],[-74.14203,40.707627],[-74.141994,40.707627]]],[[[-74.142138,40.707655],[-74.142174,40.707683],[-74.142138,40.707682],[-74.142138,40.707655]]],[[[-74.14239,40.707793],[-74.142354,40.70782],[-74.142354,40.707793],[-74.14239,40.707793]]],[[[-74.14293,40.708014],[-74.142894,40.708042],[-74.142894,40.708014],[-74.14293,40.708014]]],[[[-74.14869,40.710255],[-74.148654,40.710283],[-74.148654,40.710255],[-74.14869,40.710255]]],[[[-74.148654,40.710283],[-74.148617,40.71031],[-74.148617,40.710283],[-74.148654,40.710283]]],[[[-74.148545,40.710337],[-74.148581,40.71031],[-74.148581,40.710337],[-74.148545,40.710337]]],[[[-74.148545,40.710392],[-74.148509,40.710337],[-74.148545,40.710337],[-74.148545,40.710392]]],[[[-74.148436,40.710447],[-74.1484,40.710419],[-74.148436,40.710419],[-74.148436,40.710447]]],[[[-74.1484,40.710447],[-74.148364,40.710474],[-74.148364,40.710447],[-74.1484,40.710447]]],[[[-74.148328,40.710474],[-74.148364,40.710501],[-74.148328,40.710501],[-74.148328,40.710474]]],[[[-74.148328,40.710501],[-74.148292,40.710529],[-74.148292,40.710501],[-74.148328,40.710501]]],[[[-74.139706,40.710612],[-74.13967,40.710584],[-74.139706,40.710585],[-74.139706,40.710612]]],[[[-74.137986,40.715136],[-74.13795,40.715108],[-74.137986,40.715108],[-74.137986,40.715136]]],[[[-74.137697,40.715162],[-74.137552,40.715217],[-74.137806,40.715053],[-74.137697,40.715162]]],[[[-74.13795,40.715136],[-74.137913,40.715163],[-74.137913,40.715136],[-74.13795,40.715136]]],[[[-74.137552,40.715217],[-74.137516,40.715244],[-74.137516,40.715217],[-74.137552,40.715217]]],[[[-74.137516,40.715244],[-74.13748,40.715272],[-74.13748,40.715244],[-74.137516,40.715244]]],[[[-74.137913,40.715163],[-74.137659,40.715409],[-74.137551,40.715409],[-74.137913,40.715163]]],[[[-74.13748,40.715272],[-74.137444,40.715299],[-74.137444,40.715271],[-74.13748,40.715272]]],[[[-74.137407,40.715299],[-74.137443,40.715326],[-74.137407,40.715326],[-74.137407,40.715299]]],[[[-74.137407,40.715326],[-74.137371,40.715354],[-74.137371,40.715326],[-74.137407,40.715326]]],[[[-74.135632,40.716638],[-74.135669,40.716611],[-74.135669,40.716638],[-74.135632,40.716638]]],[[[-74.135596,40.716638],[-74.135596,40.716693],[-74.13556,40.71672],[-74.135596,40.716638]]],[[[-74.136209,40.716777],[-74.136064,40.716942],[-74.135811,40.716913],[-74.135993,40.716639],[-74.136209,40.716777]]],[[[-74.136677,40.716971],[-74.136713,40.716944],[-74.136713,40.716971],[-74.136677,40.716971]]],[[[-74.136677,40.716971],[-74.136641,40.716998],[-74.136641,40.716971],[-74.136677,40.716971]]],[[[-74.136605,40.716998],[-74.13664,40.717053],[-74.136604,40.717053],[-74.136605,40.716998]]],[[[-74.136604,40.717053],[-74.136568,40.717108],[-74.136568,40.717053],[-74.136604,40.717053]]],[[[-74.136712,40.717136],[-74.136893,40.716972],[-74.136675,40.717245],[-74.136712,40.717136]]],[[[-74.136568,40.717108],[-74.136532,40.717163],[-74.136532,40.717108],[-74.136568,40.717108]]],[[[-74.147911,40.721068],[-74.147875,40.721096],[-74.147875,40.721068],[-74.147911,40.721068]]],[[[-74.147875,40.721096],[-74.147839,40.721123],[-74.147839,40.721096],[-74.147875,40.721096]]],[[[-74.138457,40.721396],[-74.138421,40.721368],[-74.138457,40.721369],[-74.138457,40.721396]]],[[[-74.153754,40.714471],[-74.153647,40.714306],[-74.153935,40.714389],[-74.151473,40.716111],[-74.151146,40.716549],[-74.151616,40.716413],[-74.151578,40.71677],[-74.150524,40.718167],[-74.148201,40.720877],[-74.147983,40.721069],[-74.147875,40.721041],[-74.147803,40.721096],[-74.147839,40.721178],[-74.147621,40.721397],[-74.147477,40.721396],[-74.147332,40.721478],[-74.145846,40.722709],[-74.141394,40.725331],[-74.140602,40.724944],[-74.140821,40.724478],[-74.139993,40.724283],[-74.14017,40.72486],[-74.139879,40.725326],[-74.140382,40.725629],[-74.140309,40.725876],[-74.13977,40.725463],[-74.138866,40.725762],[-74.138971,40.726339],[-74.13868,40.726859],[-74.13774,40.727076],[-74.135857,40.728443],[-74.133975,40.72937],[-74.133687,40.729369],[-74.133473,40.728902],[-74.133433,40.729643],[-74.132382,40.730408],[-74.130755,40.730979],[-74.130612,40.730732],[-74.130143,40.730648],[-74.129934,40.729275],[-74.130151,40.729248],[-74.130154,40.728809],[-74.130551,40.728755],[-74.130622,40.728947],[-74.130875,40.728811],[-74.130553,40.728288],[-74.130699,40.728014],[-74.130374,40.728123],[-74.130266,40.72804],[-74.130845,40.727713],[-74.132479,40.725906],[-74.133271,40.726266],[-74.1332,40.726046],[-74.133993,40.726158],[-74.13756,40.727021],[-74.134209,40.726159],[-74.134643,40.726051],[-74.134787,40.726161],[-74.137021,40.726635],[-74.135076,40.726079],[-74.135618,40.725889],[-74.13504,40.725997],[-74.134535,40.725995],[-74.135185,40.725942],[-74.135366,40.725861],[-74.134283,40.725912],[-74.133707,40.725663],[-74.132986,40.725606],[-74.133455,40.725498],[-74.133783,40.725005],[-74.134903,40.724734],[-74.135881,40.724023],[-74.136061,40.724024],[-74.136026,40.723859],[-74.137804,40.721943],[-74.138095,40.721669],[-74.138275,40.721725],[-74.139111,40.720492],[-74.138643,40.720299],[-74.138717,40.720024],[-74.138429,40.719886],[-74.138576,40.719338],[-74.139338,40.718599],[-74.139052,40.718159],[-74.138331,40.717992],[-74.138624,40.717114],[-74.138012,40.716948],[-74.138045,40.717524],[-74.137215,40.717439],[-74.136413,40.718974],[-74.136306,40.718809],[-74.137544,40.716727],[-74.139176,40.715195],[-74.142395,40.71353],[-74.143944,40.714002],[-74.144889,40.712769],[-74.146734,40.711814],[-74.14839,40.712341],[-74.150189,40.713279],[-74.15181,40.713778],[-74.152134,40.713917],[-74.152134,40.713944],[-74.152061,40.713944],[-74.152097,40.713999],[-74.153754,40.714471]],[[-74.151146,40.716549],[-74.15111,40.716576],[-74.151146,40.716576],[-74.151146,40.716549]],[[-74.147911,40.721041],[-74.147948,40.721014],[-74.147912,40.721014],[-74.147911,40.721041]],[[-74.147766,40.721205],[-74.14773,40.721178],[-74.14773,40.721205],[-74.147766,40.721205]],[[-74.133307,40.726266],[-74.133343,40.726293],[-74.133343,40.726266],[-74.133307,40.726266]],[[-74.137166,40.726635],[-74.137093,40.72669],[-74.137237,40.72669],[-74.137166,40.726635]],[[-74.137237,40.726718],[-74.137886,40.726884],[-74.138103,40.72683],[-74.137887,40.72661],[-74.137237,40.726718]],[[-74.137022,40.726552],[-74.137094,40.726525],[-74.137022,40.726525],[-74.137022,40.726552]],[[-74.135618,40.725889],[-74.13569,40.725862],[-74.135618,40.725861],[-74.135618,40.725889]],[[-74.13569,40.725862],[-74.135799,40.725835],[-74.135691,40.725834],[-74.13569,40.725862]],[[-74.135799,40.725835],[-74.135835,40.725807],[-74.135799,40.725807],[-74.135799,40.725835]],[[-74.133746,40.725142],[-74.133782,40.725169],[-74.133782,40.725142],[-74.133746,40.725142]],[[-74.135989,40.724051],[-74.135953,40.724078],[-74.135989,40.724078],[-74.135989,40.724051]],[[-74.135953,40.724078],[-74.135916,40.724106],[-74.135953,40.724106],[-74.135953,40.724078]],[[-74.135916,40.724106],[-74.13588,40.724133],[-74.135916,40.724133],[-74.135916,40.724106]],[[-74.13588,40.724133],[-74.135844,40.724188],[-74.13588,40.724188],[-74.13588,40.724133]],[[-74.135844,40.724188],[-74.135808,40.724215],[-74.135844,40.724215],[-74.135844,40.724188]],[[-74.135808,40.724215],[-74.135771,40.724242],[-74.135807,40.724243],[-74.135808,40.724215]],[[-74.135771,40.724242],[-74.135735,40.72427],[-74.135771,40.72427],[-74.135771,40.724242]],[[-74.136062,40.723969],[-74.136098,40.723941],[-74.136062,40.723941],[-74.136062,40.723969]],[[-74.13813,40.721724],[-74.138057,40.721944],[-74.137948,40.722053],[-74.13784,40.722053],[-74.13784,40.72208],[-74.137804,40.72208],[-74.137839,40.72219],[-74.137658,40.722244],[-74.137549,40.722381],[-74.137549,40.722491],[-74.136751,40.723257],[-74.136787,40.72334],[-74.136207,40.723777],[-74.136134,40.723997],[-74.136495,40.723805],[-74.137475,40.722793],[-74.137694,40.722272],[-74.138055,40.722218],[-74.13813,40.721724]],[[-74.137985,40.721971],[-74.137949,40.721943],[-74.137949,40.721971],[-74.137985,40.721971]],[[-74.137513,40.722491],[-74.137477,40.722464],[-74.137477,40.722491],[-74.137513,40.722491]],[[-74.136606,40.723449],[-74.13657,40.723421],[-74.136569,40.723449],[-74.136606,40.723449]]],[[[-74.147368,40.721533],[-74.147477,40.721424],[-74.147513,40.721424],[-74.147368,40.721533]]],[[[-74.138421,40.721423],[-74.138239,40.721588],[-74.138312,40.721423],[-74.138421,40.721423]]],[[[-74.138239,40.721588],[-74.138167,40.72167],[-74.138167,40.721587],[-74.138239,40.721588]]],[[[-74.148557,40.721702],[-74.148521,40.721729],[-74.148521,40.721702],[-74.148557,40.721702]]],[[[-74.148449,40.721756],[-74.148485,40.721729],[-74.148485,40.721756],[-74.148449,40.721756]]],[[[-74.148449,40.721756],[-74.148413,40.721784],[-74.148413,40.721756],[-74.148449,40.721756]]],[[[-74.137876,40.722135],[-74.13784,40.72208],[-74.137876,40.72208],[-74.137876,40.722135]]],[[[-74.137585,40.722409],[-74.137622,40.722382],[-74.137621,40.722409],[-74.137585,40.722409]]],[[[-74.147001,40.722658],[-74.147037,40.72263],[-74.147037,40.722658],[-74.147001,40.722658]]],[[[-74.136896,40.723148],[-74.136932,40.723176],[-74.136896,40.723175],[-74.136896,40.723148]]],[[[-74.136787,40.723312],[-74.136787,40.723285],[-74.136823,40.723285],[-74.136823,40.723312],[-74.136787,40.723312]]],[[[-74.136859,40.72334],[-74.136823,40.723312],[-74.136859,40.723313],[-74.136859,40.72334]]],[[[-74.136749,40.723532],[-74.136714,40.723504],[-74.13675,40.723504],[-74.136749,40.723532]]],[[[-74.136315,40.723723],[-74.136351,40.723778],[-74.136315,40.723777],[-74.136315,40.723723]]],[[[-74.140255,40.729088],[-74.139574,40.728235],[-74.13907,40.728096],[-74.138888,40.72848],[-74.138348,40.728203],[-74.138894,40.727327],[-74.13936,40.727877],[-74.140766,40.727991],[-74.141485,40.728543],[-74.141627,40.72901],[-74.140906,40.728952],[-74.140764,40.72854],[-74.140403,40.728457],[-74.140472,40.729006],[-74.140255,40.729088]]],[[[-74.130081,40.702731],[-74.130045,40.702703],[-74.130082,40.702703],[-74.130081,40.702731]]],[[[-74.130045,40.702731],[-74.130009,40.702785],[-74.130009,40.702731],[-74.130045,40.702731]]],[[[-74.130153,40.702813],[-74.130117,40.702786],[-74.130153,40.702786],[-74.130153,40.702813]]],[[[-74.130045,40.702786],[-74.130081,40.702813],[-74.130045,40.702813],[-74.130045,40.702786]]],[[[-74.130802,40.702925],[-74.130838,40.702953],[-74.130802,40.702953],[-74.130802,40.702925]]],[[[-74.130874,40.70298],[-74.13091,40.702953],[-74.13091,40.702981],[-74.130874,40.70298]]],[[[-74.1299,40.703005],[-74.129972,40.702977],[-74.129972,40.703005],[-74.1299,40.703005]]],[[[-74.131126,40.703036],[-74.131162,40.703064],[-74.131126,40.703064],[-74.131126,40.703036]]],[[[-74.131198,40.703091],[-74.131234,40.703064],[-74.131234,40.703091],[-74.131198,40.703091]]],[[[-74.129935,40.703087],[-74.129971,40.70306],[-74.129971,40.703087],[-74.129935,40.703087]]],[[[-74.130007,40.703115],[-74.130151,40.703143],[-74.130079,40.703143],[-74.130007,40.703115]]],[[[-74.131306,40.703119],[-74.13127,40.703091],[-74.131306,40.703092],[-74.131306,40.703119]]],[[[-74.130296,40.703088],[-74.13026,40.703116],[-74.13026,40.703088],[-74.130296,40.703088]]],[[[-74.129791,40.703114],[-74.129863,40.703087],[-74.129863,40.703114],[-74.129791,40.703114]]],[[[-74.1499,40.706443],[-74.150149,40.707185],[-74.149386,40.708226],[-74.149565,40.708419],[-74.147789,40.709978],[-74.145691,40.711097],[-74.145548,40.710932],[-74.146633,40.710414],[-74.146562,40.710112],[-74.142458,40.708507],[-74.140911,40.707816],[-74.140624,40.707486],[-74.137419,40.70646],[-74.137493,40.70624],[-74.137889,40.706324],[-74.143146,40.708152],[-74.142894,40.707959],[-74.142282,40.707738],[-74.141887,40.707435],[-74.141095,40.707213],[-74.141167,40.70713],[-74.140627,40.706964],[-74.140231,40.706771],[-74.140232,40.706688],[-74.14016,40.706688],[-74.140159,40.706715],[-74.140123,40.706715],[-74.139367,40.706466],[-74.137423,40.705746],[-74.138828,40.706107],[-74.138613,40.705942],[-74.138866,40.705833],[-74.140342,40.706359],[-74.140413,40.706497],[-74.139836,40.70644],[-74.139116,40.706218],[-74.139404,40.706384],[-74.143077,40.707576],[-74.14297,40.707191],[-74.137498,40.705225],[-74.136307,40.705441],[-74.134723,40.704722],[-74.134435,40.704776],[-74.131807,40.703862],[-74.132887,40.704167],[-74.130835,40.703419],[-74.130871,40.703365],[-74.130728,40.703254],[-74.1335,40.704224],[-74.132889,40.703838],[-74.130441,40.703006],[-74.130153,40.702841],[-74.130225,40.702786],[-74.130118,40.702649],[-74.12972,40.702785],[-74.128208,40.702258],[-74.129219,40.702152],[-74.129077,40.701767],[-74.128429,40.701573],[-74.128107,40.701105],[-74.12612,40.701538],[-74.1254,40.701343],[-74.12576,40.701509],[-74.125687,40.701646],[-74.124643,40.701368],[-74.116046,40.697297],[-74.117536,40.695169],[-74.140364,40.702187],[-74.143244,40.703239],[-74.146877,40.705117],[-74.149541,40.706195],[-74.1499,40.706443]],[[-74.149384,40.708556],[-74.149312,40.708528],[-74.149312,40.708555],[-74.149384,40.708556]],[[-74.143146,40.708152],[-74.143218,40.708207],[-74.143218,40.708152],[-74.143146,40.708152]],[[-74.140303,40.706771],[-74.140376,40.706744],[-74.140304,40.706743],[-74.140303,40.706771]],[[-74.138864,40.706053],[-74.138901,40.706025],[-74.138865,40.706025],[-74.138864,40.706053]],[[-74.139873,40.70622],[-74.139837,40.706248],[-74.139873,40.706248],[-74.139873,40.70622]],[[-74.140198,40.706331],[-74.140125,40.706359],[-74.140197,40.706359],[-74.140198,40.706331]],[[-74.139981,40.706413],[-74.139945,40.706385],[-74.139945,40.706413],[-74.139981,40.706413]],[[-74.1398,40.706385],[-74.139765,40.706357],[-74.139764,40.706385],[-74.1398,40.706385]],[[-74.140628,40.706827],[-74.140592,40.706854],[-74.140628,40.706854],[-74.140628,40.706827]],[[-74.140628,40.706854],[-74.1407,40.706882],[-74.1407,40.706854],[-74.140628,40.706854]],[[-74.140952,40.706938],[-74.140879,40.706965],[-74.140952,40.706965],[-74.140952,40.706938]],[[-74.140952,40.706965],[-74.140988,40.706993],[-74.140988,40.706965],[-74.140952,40.706965]],[[-74.142824,40.707547],[-74.142752,40.707574],[-74.142824,40.707575],[-74.142824,40.707547]],[[-74.142824,40.707575],[-74.142896,40.707602],[-74.142896,40.707575],[-74.142824,40.707575]],[[-74.14304,40.707603],[-74.143004,40.707658],[-74.143112,40.707658],[-74.14304,40.707603]],[[-74.143112,40.707658],[-74.143184,40.707686],[-74.143184,40.707658],[-74.143112,40.707658]],[[-74.143006,40.707218],[-74.143043,40.707191],[-74.143007,40.707191],[-74.143006,40.707218]],[[-74.130943,40.70342],[-74.130979,40.703392],[-74.130943,40.703392],[-74.130943,40.70342]],[[-74.130943,40.703392],[-74.130908,40.703365],[-74.130907,40.703392],[-74.130943,40.703392]],[[-74.133428,40.704224],[-74.133391,40.704251],[-74.133428,40.704251],[-74.133428,40.704224]],[[-74.130514,40.70276],[-74.130657,40.703007],[-74.131557,40.703285],[-74.131305,40.703174],[-74.131414,40.703064],[-74.131018,40.702926],[-74.130514,40.70276]],[[-74.131522,40.70312],[-74.131558,40.703202],[-74.13163,40.703202],[-74.131522,40.70312]],[[-74.129757,40.70273],[-74.129721,40.702702],[-74.129721,40.70273],[-74.129757,40.70273]],[[-74.125651,40.701564],[-74.125579,40.701536],[-74.125579,40.701563],[-74.125651,40.701564]],[[-74.125579,40.701536],[-74.125544,40.701508],[-74.125543,40.701536],[-74.125579,40.701536]],[[-74.149648,40.706333],[-74.149539,40.706442],[-74.14972,40.706498],[-74.14972,40.706333],[-74.149648,40.706333]]],[[[-74.130331,40.703198],[-74.130223,40.703198],[-74.130223,40.70317],[-74.130368,40.703116],[-74.130331,40.703198]]],[[[-74.130223,40.70317],[-74.130151,40.703143],[-74.130223,40.703143],[-74.130223,40.70317]]],[[[-74.129935,40.70317],[-74.129971,40.703142],[-74.129971,40.70317],[-74.129935,40.70317]]],[[[-74.130403,40.703198],[-74.13044,40.703171],[-74.130476,40.703199],[-74.130403,40.703198]]],[[[-74.130043,40.703197],[-74.130079,40.70317],[-74.130079,40.703197],[-74.130043,40.703197]]],[[[-74.130403,40.703226],[-74.130331,40.703198],[-74.130403,40.703198],[-74.130403,40.703226]]],[[[-74.130151,40.703225],[-74.130115,40.703198],[-74.130151,40.703198],[-74.130151,40.703225]]],[[[-74.130151,40.703253],[-74.130223,40.703225],[-74.130223,40.703253],[-74.130151,40.703253]]],[[[-74.130475,40.703254],[-74.130548,40.703171],[-74.130763,40.703364],[-74.130547,40.703309],[-74.130475,40.703254]],[[-74.130547,40.703281],[-74.130583,40.703254],[-74.130547,40.703254],[-74.130547,40.703281]]],[[[-74.130259,40.70328],[-74.130259,40.703253],[-74.130295,40.703253],[-74.130295,40.70328],[-74.130259,40.70328]]],[[[-74.130367,40.703308],[-74.130295,40.70328],[-74.130367,40.703281],[-74.130367,40.703308]]],[[[-74.131016,40.703338],[-74.131052,40.70331],[-74.131052,40.703338],[-74.131016,40.703338]]],[[[-74.130547,40.703364],[-74.130403,40.703336],[-74.130547,40.703336],[-74.130547,40.703364]]],[[[-74.130835,40.703365],[-74.130763,40.703392],[-74.130763,40.703364],[-74.130835,40.703365]]],[[[-74.130547,40.703364],[-74.130619,40.703391],[-74.130547,40.703391],[-74.130547,40.703364]]],[[[-74.130655,40.703419],[-74.130655,40.703391],[-74.130691,40.703392],[-74.130691,40.703419],[-74.130655,40.703419]]],[[[-74.130763,40.703447],[-74.130691,40.703419],[-74.130763,40.703419],[-74.130763,40.703447]]],[[[-74.131771,40.703807],[-74.130906,40.703557],[-74.130763,40.703447],[-74.131771,40.703807]]],[[[-74.132565,40.703754],[-74.132528,40.703782],[-74.132529,40.703754],[-74.132565,40.703754]]],[[[-74.132276,40.703781],[-74.132312,40.703754],[-74.132312,40.703781],[-74.132276,40.703781]]],[[[-74.132492,40.703864],[-74.132528,40.703837],[-74.132528,40.703864],[-74.132492,40.703864]]],[[[-74.134759,40.704804],[-74.134795,40.704832],[-74.134759,40.704832],[-74.134759,40.704804]]],[[[-74.134651,40.704777],[-74.134794,40.704942],[-74.134543,40.704776],[-74.134651,40.704777]]],[[[-74.13556,40.71672],[-74.135523,40.716775],[-74.135524,40.71672],[-74.13556,40.71672]]],[[[-74.134399,40.717815],[-74.134509,40.717541],[-74.134727,40.717294],[-74.134472,40.717815],[-74.134399,40.717815]]],[[[-74.134608,40.719215],[-74.134644,40.719188],[-74.134644,40.719215],[-74.134608,40.719215]]],[[[-74.134789,40.719079],[-74.135296,40.718723],[-74.135108,40.720095],[-74.134671,40.720835],[-74.134682,40.718914],[-74.134789,40.719079]]],[[[-74.134173,40.719681],[-74.134466,40.718858],[-74.134491,40.720835],[-74.134347,40.720779],[-74.134173,40.719681]]],[[[-74.133877,40.721052],[-74.133912,40.72108],[-74.133876,40.72108],[-74.133877,40.721052]]],[[[-74.13342,40.725415],[-74.133384,40.725388],[-74.13342,40.725388],[-74.13342,40.725415]]],[[[-74.133418,40.725772],[-74.133454,40.725745],[-74.133526,40.725773],[-74.133418,40.725772]]],[[[-74.133237,40.725744],[-74.133202,40.725717],[-74.133238,40.725717],[-74.133237,40.725744]]],[[[-74.13201,40.725795],[-74.131974,40.725768],[-74.132011,40.725768],[-74.13201,40.725795]]],[[[-74.131974,40.725795],[-74.131938,40.725822],[-74.131938,40.725795],[-74.131974,40.725795]]],[[[-74.131938,40.725822],[-74.131902,40.725877],[-74.131902,40.725822],[-74.131938,40.725822]]],[[[-74.131902,40.725877],[-74.131865,40.725904],[-74.131866,40.725877],[-74.131902,40.725877]]],[[[-74.131865,40.725904],[-74.131829,40.725959],[-74.131829,40.725904],[-74.131865,40.725904]]],[[[-74.133705,40.726048],[-74.133885,40.726048],[-74.134137,40.726131],[-74.133705,40.726048]]],[[[-74.134137,40.726159],[-74.134173,40.726131],[-74.134173,40.726159],[-74.134137,40.726159]]],[[[-74.131031,40.726753],[-74.131067,40.726725],[-74.131067,40.726753],[-74.131031,40.726753]]],[[[-74.131031,40.726753],[-74.130995,40.726808],[-74.130995,40.726753],[-74.131031,40.726753]]],[[[-74.130995,40.726808],[-74.130958,40.726835],[-74.130958,40.726807],[-74.130995,40.726808]]],[[[-74.130958,40.726835],[-74.130922,40.726862],[-74.130922,40.726835],[-74.130958,40.726835]]],[[[-74.130922,40.726862],[-74.130886,40.72689],[-74.130886,40.726862],[-74.130922,40.726862]]],[[[-74.130886,40.72689],[-74.130849,40.726944],[-74.13085,40.726889],[-74.130886,40.72689]]],[[[-74.130813,40.726944],[-74.130849,40.726972],[-74.130813,40.726972],[-74.130813,40.726944]]],[[[-74.130813,40.726972],[-74.130777,40.726999],[-74.130777,40.726972],[-74.130813,40.726972]]],[[[-74.132668,40.73093],[-74.132632,40.730875],[-74.132668,40.730876],[-74.132668,40.73093]]],[[[-74.123345,40.701172],[-74.123309,40.701144],[-74.123345,40.701144],[-74.123345,40.701172]]],[[[-74.12576,40.701564],[-74.125868,40.701592],[-74.125759,40.701591],[-74.12576,40.701564]]],[[[-74.12774,40.702257],[-74.127775,40.702284],[-74.127739,40.702284],[-74.12774,40.702257]]],[[[-74.127847,40.702312],[-74.127812,40.702284],[-74.127848,40.702284],[-74.127847,40.702312]]],[[[-74.128963,40.702782],[-74.12871,40.702809],[-74.127882,40.702586],[-74.127703,40.702366],[-74.128963,40.702782]]],[[[-74.129935,40.70306],[-74.128711,40.702671],[-74.127847,40.702312],[-74.129108,40.702618],[-74.129935,40.70306]],[[-74.128639,40.702616],[-74.128784,40.702562],[-74.128639,40.702589],[-74.128639,40.702616]]],[[[-74.128963,40.70281],[-74.128999,40.702837],[-74.128963,40.702837],[-74.128963,40.70281]]],[[[-74.129035,40.702865],[-74.129071,40.702837],[-74.129071,40.702865],[-74.129035,40.702865]]],[[[-74.129107,40.702837],[-74.129143,40.702892],[-74.129107,40.702892],[-74.129107,40.702837]]],[[[-74.129287,40.70292],[-74.129251,40.702893],[-74.129287,40.702893],[-74.129287,40.70292]]],[[[-74.129359,40.702921],[-74.129323,40.702975],[-74.129287,40.70292],[-74.129359,40.702921]]],[[[-74.129431,40.702976],[-74.129755,40.703087],[-74.129539,40.703058],[-74.129431,40.702976]]],[[[-74.129528,40.704898],[-74.129565,40.704843],[-74.129564,40.704898],[-74.129528,40.704898]]],[[[-74.139633,40.710612],[-74.141291,40.710864],[-74.1405,40.710532],[-74.140717,40.710396],[-74.144211,40.71134],[-74.14468,40.711231],[-74.145076,40.711397],[-74.144029,40.711641],[-74.139292,40.713658],[-74.136867,40.715105],[-74.134983,40.716664],[-74.134329,40.717567],[-74.133998,40.718555],[-74.133883,40.719954],[-74.134063,40.719927],[-74.134273,40.721218],[-74.133913,40.721025],[-74.133877,40.721025],[-74.133877,40.721052],[-74.13384,40.721052],[-74.13384,40.72108],[-74.133804,40.721079],[-74.133804,40.721107],[-74.133768,40.721107],[-74.133768,40.721162],[-74.133587,40.721189],[-74.132818,40.723245],[-74.131544,40.725245],[-74.131147,40.725326],[-74.129201,40.724908],[-74.127725,40.724354],[-74.125923,40.723964],[-74.13147,40.725629],[-74.130309,40.726833],[-74.128389,40.728144],[-74.12673,40.728002],[-74.125681,40.728465],[-74.125424,40.72926],[-74.126511,40.72844],[-74.12716,40.728525],[-74.127627,40.728965],[-74.12741,40.729102],[-74.127409,40.729239],[-74.127155,40.729403],[-74.127118,40.72954],[-74.126648,40.729703],[-74.12694,40.729265],[-74.126797,40.728963],[-74.125895,40.728932],[-74.126472,40.729044],[-74.126579,40.729154],[-74.126543,40.729236],[-74.12665,40.729374],[-74.12665,40.729511],[-74.126395,40.729785],[-74.126433,40.729456],[-74.126074,40.729262],[-74.125566,40.729672],[-74.12538,40.730742],[-74.124508,40.731728],[-74.123633,40.733317],[-74.123408,40.734908],[-74.122035,40.735069],[-74.117414,40.734916],[-74.117827,40.732502],[-74.119954,40.733003],[-74.120061,40.733223],[-74.120206,40.733086],[-74.120599,40.733911],[-74.120092,40.734184],[-74.120741,40.734186],[-74.120992,40.734544],[-74.119839,40.73421],[-74.119224,40.7344],[-74.119477,40.734401],[-74.119547,40.734703],[-74.119945,40.73454],[-74.120593,40.734899],[-74.121386,40.734957],[-74.120594,40.734707],[-74.121424,40.73471],[-74.122075,40.73441],[-74.123605,40.731944],[-74.12317,40.73219],[-74.123244,40.731998],[-74.123027,40.732025],[-74.122373,40.732736],[-74.121542,40.732926],[-74.121254,40.732842],[-74.121257,40.732348],[-74.121147,40.732623],[-74.12028,40.732867],[-74.117863,40.73231],[-74.120642,40.722955],[-74.120962,40.720012],[-74.120551,40.717436],[-74.116105,40.709156],[-74.114309,40.704609],[-74.114097,40.702284],[-74.114315,40.700569],[-74.116009,40.69736],[-74.122735,40.700648],[-74.123273,40.701254],[-74.12482,40.70189],[-74.12838,40.703878],[-74.128558,40.704181],[-74.128811,40.704236],[-74.128846,40.704374],[-74.129062,40.704429],[-74.12942,40.704842],[-74.129528,40.704925],[-74.129636,40.704925],[-74.131109,40.706056],[-74.131073,40.70611],[-74.133445,40.70771],[-74.133119,40.707901],[-74.132353,40.709408],[-74.132606,40.709409],[-74.133224,40.708505],[-74.133513,40.708479],[-74.137365,40.709781],[-74.134667,40.708483],[-74.133441,40.708314],[-74.133553,40.707765],[-74.139168,40.710006],[-74.139633,40.710612]],[[-74.134129,40.72108],[-74.134165,40.721053],[-74.134129,40.721053],[-74.134129,40.72108]],[[-74.125424,40.72926],[-74.125388,40.729287],[-74.125424,40.729288],[-74.125424,40.72926]],[[-74.125895,40.728987],[-74.125858,40.729014],[-74.125895,40.729015],[-74.125895,40.728987]],[[-74.126578,40.729319],[-74.126542,40.729346],[-74.126578,40.729346],[-74.126578,40.729319]],[[-74.123244,40.731998],[-74.12328,40.731943],[-74.123244,40.731943],[-74.123244,40.731998]],[[-74.12328,40.731943],[-74.123316,40.731888],[-74.12328,40.731888],[-74.12328,40.731943]],[[-74.121221,40.732348],[-74.121185,40.732321],[-74.121185,40.732348],[-74.121221,40.732348]],[[-74.121185,40.732321],[-74.121149,40.732293],[-74.121149,40.732321],[-74.121185,40.732321]],[[-74.124712,40.70189],[-74.124639,40.701945],[-74.124711,40.701945],[-74.124712,40.70189]],[[-74.124784,40.701945],[-74.124747,40.702],[-74.124783,40.702],[-74.124784,40.701945]],[[-74.129852,40.705118],[-74.129816,40.705146],[-74.129852,40.705146],[-74.129852,40.705118]],[[-74.130247,40.705421],[-74.130211,40.705449],[-74.130247,40.705449],[-74.130247,40.705421]],[[-74.137365,40.709781],[-74.137401,40.709809],[-74.137401,40.709781],[-74.137365,40.709781]]],[[[-74.127018,40.728112],[-74.12709,40.728168],[-74.126982,40.728167],[-74.127018,40.728112]]],[[[-74.126579,40.729236],[-74.126615,40.729209],[-74.126615,40.729237],[-74.126579,40.729236]]],[[[-74.127155,40.729458],[-74.127191,40.729485],[-74.127155,40.729485],[-74.127155,40.729458]]],[[[-74.127227,40.729513],[-74.127263,40.729486],[-74.127263,40.729513],[-74.127227,40.729513]]],[[[-74.128203,40.729159],[-74.127875,40.729735],[-74.127586,40.729871],[-74.128203,40.729159]]],[[[-74.127154,40.729568],[-74.127191,40.72954],[-74.12719,40.729568],[-74.127154,40.729568]]],[[[-74.128093,40.729543],[-74.128165,40.729571],[-74.128092,40.729598],[-74.128093,40.729543]]],[[[-74.127154,40.729568],[-74.127118,40.729595],[-74.127118,40.729568],[-74.127154,40.729568]]],[[[-74.127118,40.729595],[-74.127082,40.729622],[-74.127082,40.729595],[-74.127118,40.729595]]],[[[-74.128092,40.729598],[-74.12802,40.729653],[-74.12802,40.729598],[-74.128092,40.729598]]],[[[-74.127046,40.729622],[-74.127082,40.72965],[-74.127046,40.72965],[-74.127046,40.729622]]],[[[-74.127875,40.729762],[-74.127911,40.72979],[-74.127875,40.72979],[-74.127875,40.729762]]],[[[-74.127875,40.72979],[-74.127839,40.729817],[-74.127839,40.729789],[-74.127875,40.72979]]],[[[-74.127875,40.729817],[-74.127911,40.729845],[-74.127875,40.729845],[-74.127875,40.729817]]],[[[-74.127802,40.729817],[-74.127838,40.729844],[-74.127802,40.729844],[-74.127802,40.729817]]],[[[-74.127586,40.729871],[-74.127549,40.729898],[-74.12755,40.729871],[-74.127586,40.729871]]],[[[-74.127802,40.729899],[-74.127694,40.729871],[-74.127766,40.729844],[-74.127802,40.729899]]],[[[-74.127513,40.729898],[-74.127549,40.729926],[-74.127513,40.729926],[-74.127513,40.729898]]],[[[-74.127513,40.729926],[-74.127477,40.729953],[-74.127477,40.729926],[-74.127513,40.729926]]],[[[-74.127693,40.729954],[-74.127657,40.729981],[-74.127657,40.729954],[-74.127693,40.729954]]],[[[-74.127477,40.729953],[-74.127441,40.72998],[-74.127441,40.729953],[-74.127477,40.729953]]],[[[-74.126391,40.730636],[-74.12719,40.729732],[-74.127841,40.729323],[-74.126391,40.730636]]],[[[-74.127441,40.72998],[-74.127405,40.730008],[-74.127405,40.72998],[-74.127441,40.72998]]],[[[-74.123351,40.732136],[-74.123315,40.732163],[-74.123315,40.732136],[-74.123351,40.732136]]],[[[-74.124528,40.73461],[-74.125805,40.732089],[-74.126966,40.730967],[-74.127581,40.730777],[-74.128771,40.730836],[-74.128515,40.731411],[-74.129238,40.731167],[-74.128983,40.731687],[-74.12855,40.731686],[-74.128835,40.732263],[-74.127315,40.733137],[-74.127097,40.733411],[-74.127893,40.733029],[-74.128001,40.733084],[-74.125865,40.734203],[-74.124528,40.73461]]],[[[-74.122081,40.733422],[-74.121288,40.733172],[-74.121289,40.73309],[-74.122517,40.732929],[-74.12219,40.733285],[-74.122296,40.733724],[-74.122081,40.733422]]],[[[-74.122441,40.733588],[-74.122477,40.733533],[-74.122477,40.733588],[-74.122441,40.733588]]],[[[-74.122441,40.733588],[-74.122404,40.733642],[-74.122405,40.733587],[-74.122441,40.733588]]],[[[-74.122512,40.733698],[-74.122476,40.73367],[-74.122512,40.73367],[-74.122512,40.733698]]],[[[-74.122404,40.733642],[-74.122368,40.733725],[-74.122368,40.733642],[-74.122404,40.733642]]],[[[-74.122368,40.733725],[-74.122331,40.733779],[-74.122332,40.733724],[-74.122368,40.733725]]],[[[-74.122295,40.733779],[-74.122331,40.733834],[-74.122295,40.733834],[-74.122295,40.733779]]],[[[-74.122223,40.733834],[-74.121246,40.73427],[-74.121032,40.73383],[-74.121358,40.733611],[-74.122044,40.733614],[-74.122223,40.733834]]],[[[-74.124245,40.733566],[-74.124425,40.733704],[-74.124058,40.734773],[-74.123805,40.734827],[-74.124245,40.733566]]],[[[-74.126225,40.734423],[-74.126189,40.734396],[-74.126225,40.734396],[-74.126225,40.734423]]],[[[-74.126189,40.734423],[-74.126153,40.734451],[-74.126153,40.734423],[-74.126189,40.734423]]],[[[-74.126045,40.734286],[-74.12543,40.734695],[-74.12496,40.734721],[-74.126045,40.734286]]],[[[-74.126153,40.734451],[-74.125863,40.734697],[-74.125755,40.734669],[-74.126153,40.734451]]],[[[-74.124456,40.734665],[-74.124528,40.734637],[-74.124528,40.734665],[-74.124456,40.734665]]],[[[-74.124344,40.735296],[-74.124307,40.735323],[-74.124308,40.735296],[-74.124344,40.735296]]],[[[-74.124382,40.734939],[-74.125754,40.734779],[-74.124848,40.735544],[-74.124192,40.736558],[-74.124379,40.735351],[-74.124382,40.734939]]],[[[-74.123719,40.737297],[-74.123768,40.734964],[-74.124021,40.734938],[-74.123719,40.737297]]],[[[-74.123335,40.735073],[-74.123245,40.738092],[-74.121024,40.741608],[-74.118693,40.740495],[-74.117753,40.739422],[-74.117243,40.737612],[-74.117393,40.735053],[-74.120483,40.735201],[-74.123335,40.735073]]],[[[-74.123415,40.740041],[-74.123048,40.741028],[-74.123453,40.739657],[-74.123608,40.737709],[-74.123754,40.737545],[-74.123415,40.740041]]],[[[-74.121132,40.741646],[-74.122879,40.739024],[-74.123208,40.738394],[-74.123055,40.739821],[-74.122357,40.741987],[-74.121132,40.741646]]]]}}]}