{"type":"FeatureCollection","features":[{"type":"Feature","properties":{"level_ft":16},"geometry":{"type":"MultiPolygon","coordinates":[[[[-74.191723,40.687264],[-74.191723,40.687265],[-74.191701,40.687265],[-74.191723,40.687264]]],[[[-74.199903,40.688687],[-74.199974,40.688797],[-74.199866,40.688769],[-74.199903,40.688687]]],[[[-74.198812,40.69066],[-74.198848,40.690633],[-74.198848,40.69066],[-74.198812,40.69066]]],[[[-74.198776,40.690743],[-74.198739,40.690797],[-74.19874,40.690742],[-74.198776,40.690743]]],[[[-74.198739,40.690797],[-74.198703,40.690825],[-74.198703,40.690797],[-74.198739,40.690797]]],[[[-74.198594,40.691071],[-74.198558,40.691044],[-74.198703,40.690825],[-74.198594,40.691071]]],[[[-74.198557,40.691126],[-74.198522,40.691099],[-74.198558,40.691099],[-74.198557,40.691126]]],[[[-74.198485,40.691154],[-74.198521,40.691126],[-74.198521,40.691154],[-74.198485,40.691154]]],[[[-74.197364,40.691864],[-74.197328,40.691837],[-74.197364,40.691837],[-74.197364,40.691864]]],[[[-74.197292,40.691864],[-74.197328,40.691892],[-74.197292,40.691892],[-74.197292,40.691864]]],[[[-74.196744,40.693372],[-74.196672,40.693317],[-74.196781,40.69329],[-74.196744,40.693372]]],[[[-74.196671,40.693482],[-74.196708,40.693455],[-74.196708,40.693482],[-74.196671,40.693482]]],[[[-74.207481,40.695651],[-74.207341,40.6948],[-74.208242,40.694994],[-74.208171,40.69461],[-74.20864,40.694583],[-74.208856,40.694611],[-74.208782,40.69505],[-74.209431,40.695107],[-74.20925,40.695216],[-74.209539,40.695272],[-74.209789,40.695877],[-74.209318,40.69626],[-74.208958,40.696204],[-74.20896,40.695627],[-74.209249,40.695573],[-74.208564,40.695407],[-74.208452,40.696257],[-74.207802,40.696503],[-74.207805,40.695926],[-74.207481,40.695651]]],[[[-74.193906,40.698882],[-74.19387,40.698855],[-74.193906,40.698855],[-74.193906,40.698882]]],[[[-74.181608,40.706288],[-74.181644,40.706261],[-74.181644,40.706288],[-74.181608,40.706288]]],[[[-74.199533,40.706775],[-74.199569,40.706748],[-74.199569,40.706776],[-74.199533,40.706775]]],[[[-74.182689,40.706374],[-74.185028,40.707643],[-74.185098,40.70811],[-74.187154,40.70817],[-74.18315,40.708104],[-74.183189,40.7075],[-74.182361,40.707114],[-74.181889,40.707881],[-74.181238,40.708154],[-74.181785,40.706893],[-74.179652,40.70793],[-74.181028,40.706918],[-74.180956,40.706698],[-74.181427,40.706343],[-74.182689,40.706374]]],[[[-74.188488,40.708283],[-74.188524,40.708256],[-74.188524,40.708284],[-74.188488,40.708283]]],[[[-74.188452,40.708283],[-74.188416,40.708256],[-74.188452,40.708256],[-74.188452,40.708283]]],[[[-74.198303,40.707568],[-74.195953,40.708825],[-74.195665,40.708659],[-74.195085,40.709317],[-74.194581,40.708986],[-74.19386,40.708984],[-74.193464,40.708681],[-74.192419,40.708459],[-74.18856,40.708256],[-74.19657,40.707976],[-74.198484,40.707432],[-74.198303,40.707568]],[[-74.197941,40.70776],[-74.197905,40.707732],[-74.197905,40.707759],[-74.197941,40.70776]],[[-74.197834,40.707677],[-74.19787,40.707704],[-74.19787,40.707677],[-74.197834,40.707677]]],[[[-74.197065,40.710145],[-74.196058,40.709374],[-74.197651,40.708088],[-74.198193,40.708007],[-74.200363,40.706668],[-74.19866,40.70842],[-74.198873,40.709244],[-74.198655,40.709546],[-74.198004,40.709956],[-74.19793,40.710257],[-74.197065,40.710145]]],[[[-74.181453,40.708484],[-74.181237,40.708483],[-74.181274,40.708236],[-74.181453,40.708484]]],[[[-74.18286,40.708515],[-74.182896,40.708488],[-74.182896,40.708543],[-74.18286,40.708515]]],[[[-74.182968,40.708543],[-74.182932,40.708515],[-74.182968,40.708515],[-74.182968,40.708543]]],[[[-74.185853,40.708743],[-74.185889,40.708716],[-74.185889,40.708743],[-74.185853,40.708743]]],[[[-74.185672,40.708742],[-74.1856,40.70877],[-74.1856,40.708742],[-74.185672,40.708742]]],[[[-74.1856,40.70877],[-74.185492,40.708797],[-74.185492,40.708769],[-74.1856,40.70877]]],[[[-74.180982,40.708867],[-74.181017,40.709059],[-74.180729,40.708921],[-74.180982,40.708867]]],[[[-74.185492,40.708797],[-74.18271,40.709668],[-74.182782,40.70975],[-74.182601,40.709805],[-74.182528,40.709914],[-74.182564,40.709969],[-74.182241,40.709666],[-74.182208,40.709035],[-74.18304,40.708543],[-74.182932,40.70846],[-74.18387,40.70849],[-74.184265,40.708821],[-74.184484,40.708382],[-74.18838,40.708256],[-74.185239,40.708714],[-74.183434,40.709121],[-74.182675,40.709503],[-74.185492,40.708797]]],[[[-74.181915,40.709967],[-74.179935,40.709084],[-74.179613,40.708589],[-74.181628,40.709527],[-74.181915,40.709967]]],[[[-74.194615,40.709508],[-74.194723,40.709563],[-74.194615,40.709563],[-74.194615,40.709508]]],[[[-74.194325,40.709699],[-74.194289,40.709726],[-74.194289,40.709699],[-74.194325,40.709699]]],[[[-74.194325,40.709754],[-74.194397,40.709727],[-74.194397,40.709754],[-74.194325,40.709754]]],[[[-74.181953,40.709501],[-74.182169,40.709721],[-74.182348,40.709969],[-74.181953,40.709501]]],[[[-74.184081,40.709671],[-74.183828,40.709781],[-74.183828,40.709726],[-74.184081,40.709671]]],[[[-74.184296,40.709837],[-74.18426,40.709809],[-74.184296,40.709809],[-74.184296,40.709837]]],[[[-74.194937,40.710003],[-74.194901,40.709975],[-74.194937,40.709975],[-74.194937,40.710003]]],[[[-74.182564,40.709942],[-74.1826,40.709914],[-74.1826,40.709942],[-74.182564,40.709942]]],[[[-74.194937,40.71003],[-74.194973,40.710003],[-74.194973,40.71003],[-74.194937,40.71003]]],[[[-74.181915,40.709967],[-74.181951,40.709995],[-74.181915,40.709995],[-74.181915,40.709967]]],[[[-74.182384,40.709996],[-74.182311,40.710023],[-74.182312,40.709996],[-74.182384,40.709996]]],[[[-74.196812,40.710172],[-74.196848,40.710145],[-74.196848,40.710172],[-74.196812,40.710172]]],[[[-74.182383,40.710216],[-74.182455,40.710134],[-74.182491,40.710189],[-74.182383,40.710216]]],[[[-74.196451,40.710336],[-74.196775,40.710337],[-74.196847,40.710447],[-74.196451,40.710336]]],[[[-74.196378,40.710363],[-74.196702,40.710584],[-74.196378,40.710446],[-74.196378,40.710363]]],[[[-74.18426,40.709837],[-74.183608,40.710439],[-74.183351,40.711344],[-74.182707,40.710326],[-74.18426,40.709837]]],[[[-74.18473,40.709728],[-74.18715,40.709021],[-74.190109,40.708837],[-74.191623,40.70906],[-74.193676,40.70978],[-74.193603,40.709972],[-74.193892,40.70989],[-74.194072,40.709973],[-74.190096,40.711582],[-74.184318,40.712911],[-74.183638,40.711729],[-74.183532,40.711317],[-74.183533,40.710988],[-74.183934,40.71022],[-74.18473,40.709728]],[[-74.183568,40.711317],[-74.183604,40.71129],[-74.183568,40.71129],[-74.183568,40.711317]],[[-74.183604,40.71129],[-74.18364,40.711262],[-74.183604,40.711262],[-74.183604,40.71129]],[[-74.18364,40.71129],[-74.183676,40.711317],[-74.183676,40.71129],[-74.18364,40.71129]],[[-74.18444,40.709919],[-74.184548,40.709975],[-74.184548,40.70992],[-74.18444,40.709919]],[[-74.184729,40.709838],[-74.184801,40.70992],[-74.184801,40.709866],[-74.184729,40.709838]],[[-74.184693,40.70992],[-74.184657,40.709947],[-74.184693,40.709948],[-74.184693,40.70992]]],[[[-74.191937,40.71123],[-74.191865,40.711202],[-74.191938,40.711202],[-74.191937,40.71123]]],[[[-74.191829,40.711284],[-74.191757,40.711257],[-74.191829,40.71123],[-74.191829,40.711284]]],[[[-74.184031,40.712636],[-74.183314,40.711673],[-74.182526,40.710381],[-74.182778,40.710574],[-74.184031,40.712636]]],[[[-74.186917,40.712616],[-74.186845,40.712589],[-74.186917,40.712589],[-74.186917,40.712616]]],[[[-74.18403,40.712663],[-74.184066,40.712691],[-74.18403,40.712691],[-74.18403,40.712663]]],[[[-74.184066,40.712718],[-74.184102,40.712746],[-74.184066,40.712746],[-74.184066,40.712718]]],[[[-74.184425,40.713131],[-74.184389,40.713104],[-74.184425,40.713104],[-74.184425,40.713131]]],[[[-74.183882,40.713459],[-74.183919,40.713377],[-74.183918,40.713459],[-74.183882,40.713459]]],[[[-74.184052,40.715655],[-74.184089,40.715628],[-74.184088,40.715656],[-74.184052,40.715655]]],[[[-74.183579,40.716588],[-74.183543,40.71656],[-74.183579,40.71656],[-74.183579,40.716588]]],[[[-74.182783,40.717107],[-74.182747,40.717079],[-74.182783,40.717079],[-74.182783,40.717107]]],[[[-74.179548,40.707106],[-74.180562,40.706121],[-74.181285,40.705958],[-74.182078,40.70607],[-74.181391,40.70626],[-74.17929,40.708094],[-74.179548,40.707106]]],[[[-74.179613,40.708561],[-74.179577,40.708588],[-74.179577,40.708561],[-74.179613,40.708561]]],[[[-74.179757,40.708561],[-74.181057,40.708345],[-74.181127,40.708703],[-74.180261,40.708837],[-74.179757,40.708561]]],[[[-74.199606,40.706693],[-74.19852,40.707432],[-74.197872,40.707183],[-74.198089,40.707019],[-74.197981,40.706991],[-74.197257,40.707483],[-74.196319,40.707673],[-74.18683,40.708004],[-74.185497,40.707671],[-74.183482,40.70654],[-74.183557,40.705909],[-74.183306,40.705716],[-74.182762,40.706209],[-74.181826,40.705877],[-74.179877,40.706146],[-74.179153,40.706776],[-74.179114,40.707187],[-74.179512,40.706969],[-74.179182,40.708176],[-74.178494,40.708668],[-74.179324,40.708615],[-74.179898,40.709248],[-74.181806,40.710104],[-74.182165,40.710517],[-74.18374,40.713047],[-74.175471,40.714726],[-74.170129,40.715315],[-74.17464,40.714833],[-74.174893,40.714861],[-74.174026,40.715079],[-74.175145,40.715027],[-74.179766,40.714326],[-74.179478,40.714133],[-74.179984,40.713997],[-74.180488,40.714081],[-74.180307,40.7143],[-74.180776,40.714301],[-74.18103,40.714028],[-74.183304,40.713759],[-74.183739,40.713321],[-74.184167,40.714283],[-74.184018,40.715271],[-74.184052,40.715738],[-74.183761,40.716286],[-74.182458,40.717216],[-74.182131,40.717627],[-74.181655,40.719163],[-74.181762,40.719328],[-74.182348,40.717463],[-74.183543,40.716587],[-74.182636,40.717601],[-74.18296,40.717821],[-74.184375,40.716013],[-74.18467,40.714696],[-74.184461,40.713131],[-74.186844,40.712616],[-74.186012,40.71319],[-74.186083,40.713355],[-74.187386,40.712618],[-74.189734,40.7118],[-74.1906,40.711775],[-74.191613,40.711284],[-74.191792,40.711394],[-74.194396,40.710083],[-74.194684,40.710194],[-74.194285,40.710522],[-74.194392,40.71088],[-74.193886,40.71107],[-74.193631,40.711619],[-74.193018,40.711562],[-74.192473,40.712467],[-74.192868,40.712907],[-74.19182,40.713206],[-74.191347,40.714056],[-74.19066,40.714383],[-74.190044,40.71504],[-74.188889,40.715092],[-74.18932,40.715533],[-74.18921,40.715971],[-74.188921,40.716026],[-74.189064,40.716383],[-74.188487,40.716326],[-74.188269,40.71649],[-74.188701,40.716711],[-74.189027,40.71641],[-74.188913,40.717837],[-74.188587,40.717919],[-74.188694,40.718276],[-74.188042,40.718905],[-74.188076,40.71918],[-74.187424,40.719837],[-74.187531,40.72003],[-74.186736,40.720439],[-74.18652,40.720274],[-74.185474,40.720298],[-74.185724,40.720738],[-74.185148,40.720572],[-74.184425,40.720707],[-74.184427,40.72046],[-74.183922,40.720294],[-74.183847,40.720898],[-74.183271,40.720732],[-74.183089,40.721006],[-74.182764,40.721005],[-74.183088,40.721308],[-74.182547,40.721279],[-74.182039,40.721881],[-74.18175,40.721798],[-74.181388,40.722044],[-74.181459,40.722374],[-74.180701,40.722481],[-74.180843,40.722948],[-74.180157,40.723056],[-74.180335,40.723496],[-74.179974,40.723522],[-74.179285,40.724344],[-74.179141,40.724261],[-74.179212,40.724509],[-74.177978,40.725878],[-74.177871,40.725713],[-74.177581,40.725904],[-74.177874,40.725109],[-74.177585,40.725163],[-74.177478,40.724888],[-74.177875,40.724889],[-74.178021,40.724588],[-74.177446,40.724064],[-74.177951,40.724148],[-74.178205,40.723819],[-74.177593,40.723516],[-74.177051,40.723624],[-74.177052,40.723405],[-74.176547,40.723431],[-74.176725,40.723953],[-74.175895,40.72395],[-74.176181,40.72439],[-74.175856,40.724472],[-74.175601,40.725075],[-74.174915,40.725155],[-74.174335,40.725785],[-74.174513,40.726197],[-74.174152,40.726169],[-74.173933,40.726717],[-74.173536,40.726716],[-74.173209,40.727209],[-74.172523,40.727317],[-74.172665,40.727784],[-74.171907,40.727864],[-74.171977,40.728194],[-74.171545,40.728138],[-74.171254,40.728439],[-74.171433,40.728741],[-74.170999,40.728932],[-74.171357,40.729565],[-74.170707,40.729673],[-74.170813,40.730085],[-74.170091,40.730247],[-74.170128,40.73],[-74.17002,40.729973],[-74.169983,40.730247],[-74.169369,40.730355],[-74.169728,40.730713],[-74.169223,40.730602],[-74.168317,40.73134],[-74.167662,40.732519],[-74.167229,40.7326],[-74.16708,40.733533],[-74.166827,40.733559],[-74.166682,40.733724],[-74.166574,40.733696],[-74.166571,40.734135],[-74.166499,40.734135],[-74.166499,40.734217],[-74.166427,40.734217],[-74.16639,40.734272],[-74.166282,40.734272],[-74.16639,40.734354],[-74.165776,40.73449],[-74.165302,40.735312],[-74.164473,40.735255],[-74.163785,40.735747],[-74.164142,40.736434],[-74.16461,40.736737],[-74.16471,40.738385],[-74.165787,40.739513],[-74.165888,40.740831],[-74.165347,40.740747],[-74.165094,40.740966],[-74.166416,40.743468],[-74.166985,40.745226],[-74.16731,40.745282],[-74.167624,40.747397],[-74.165867,40.747392],[-74.165748,40.74525],[-74.166191,40.745196],[-74.166192,40.745059],[-74.165714,40.745085],[-74.162778,40.737845],[-74.161707,40.736207],[-74.163969,40.734951],[-74.164076,40.735116],[-74.164582,40.735035],[-74.164475,40.73487],[-74.165018,40.734488],[-74.164838,40.734295],[-74.166615,40.732626],[-74.166831,40.732681],[-74.167631,40.731393],[-74.175681,40.723456],[-74.183001,40.716668],[-74.183038,40.716504],[-74.183328,40.71623],[-74.183184,40.71612],[-74.17753,40.721484],[-74.177604,40.721183],[-74.177064,40.720989],[-74.177206,40.721538],[-74.176769,40.722168],[-74.17543,40.723125],[-74.175464,40.723482],[-74.165604,40.732815],[-74.161438,40.735822],[-74.160184,40.73481],[-74.158448,40.734014],[-74.15732,40.733745],[-74.155351,40.733699],[-74.155354,40.733087],[-74.155101,40.733113],[-74.15517,40.733696],[-74.14854,40.733908],[-74.147363,40.734175],[-74.145864,40.735025],[-74.142001,40.73941],[-74.139754,40.740681],[-74.135339,40.741671],[-74.128166,40.742211],[-74.123114,40.742143],[-74.123886,40.739686],[-74.124154,40.73686],[-74.125137,40.735463],[-74.126261,40.734478],[-74.136323,40.728966],[-74.136722,40.728555],[-74.137335,40.728639],[-74.137841,40.728421],[-74.13759,40.728256],[-74.138749,40.727409],[-74.140268,40.726727],[-74.154346,40.718617],[-74.155864,40.718045],[-74.157815,40.717585],[-74.162436,40.716967],[-74.16027,40.71718],[-74.160162,40.717097],[-74.158285,40.717421],[-74.156845,40.716731],[-74.156597,40.715906],[-74.157109,40.71459],[-74.157253,40.714618],[-74.157361,40.714564],[-74.160641,40.71515],[-74.158191,40.714676],[-74.157255,40.714289],[-74.158529,40.711932],[-74.15889,40.711878],[-74.15976,40.71103],[-74.161385,40.710787],[-74.16099,40.710512],[-74.162828,40.710819],[-74.163009,40.710573],[-74.161568,40.710321],[-74.160809,40.710456],[-74.16027,40.710208],[-74.162837,40.70898],[-74.163016,40.709173],[-74.162946,40.708925],[-74.162512,40.709006],[-74.162622,40.708732],[-74.161322,40.709003],[-74.161541,40.708537],[-74.161181,40.708289],[-74.161106,40.70892],[-74.160635,40.709303],[-74.159586,40.709876],[-74.159154,40.709738],[-74.159044,40.709957],[-74.158395,40.709955],[-74.157526,40.710666],[-74.15785,40.710804],[-74.157486,40.711325],[-74.155204,40.71324],[-74.155025,40.712965],[-74.150595,40.711524],[-74.149982,40.711549],[-74.149875,40.711302],[-74.148507,40.710804],[-74.151223,40.708644],[-74.15321,40.708155],[-74.153936,40.707334],[-74.15365,40.706839],[-74.153326,40.706646],[-74.150156,40.705895],[-74.150842,40.70576],[-74.151531,40.704911],[-74.153008,40.70541],[-74.153189,40.705218],[-74.151173,40.704389],[-74.151066,40.704306],[-74.150959,40.704059],[-74.150595,40.704579],[-74.151423,40.704856],[-74.151133,40.705294],[-74.150517,40.705704],[-74.149724,40.705647],[-74.147312,40.704816],[-74.143929,40.703241],[-74.138997,40.701496],[-74.117554,40.694949],[-74.120322,40.69066],[-74.125251,40.68406],[-74.131955,40.673797],[-74.139139,40.677125],[-74.148986,40.682244],[-74.150435,40.683156],[-74.152657,40.685232],[-74.153849,40.685922],[-74.155324,40.686124],[-74.158342,40.686031],[-74.15938,40.686682],[-74.16063,40.688486],[-74.161788,40.689405],[-74.165051,40.69017],[-74.167635,40.689971],[-74.168531,40.689406],[-74.169005,40.688792],[-74.169888,40.68856],[-74.191687,40.687266],[-74.191651,40.687347],[-74.191686,40.687457],[-74.191759,40.687262],[-74.198144,40.686898],[-74.197962,40.687227],[-74.198141,40.687529],[-74.197815,40.687803],[-74.199687,40.688467],[-74.199831,40.688714],[-74.199542,40.688768],[-74.198816,40.689672],[-74.198347,40.689808],[-74.198349,40.689341],[-74.19788,40.689313],[-74.197773,40.689065],[-74.198603,40.688958],[-74.198929,40.688657],[-74.197309,40.688049],[-74.197092,40.688295],[-74.196877,40.687993],[-74.196189,40.688567],[-74.196005,40.689308],[-74.196257,40.689391],[-74.195534,40.689911],[-74.195494,40.690734],[-74.195889,40.691037],[-74.194912,40.691803],[-74.19563,40.692546],[-74.196495,40.69274],[-74.19722,40.691891],[-74.197328,40.691947],[-74.197545,40.691782],[-74.197797,40.691838],[-74.1966,40.693345],[-74.196489,40.693921],[-74.194308,40.697813],[-74.193871,40.698718],[-74.193798,40.69891],[-74.193869,40.698965],[-74.197868,40.69214],[-74.197869,40.691783],[-74.198449,40.691153],[-74.198412,40.691428],[-74.198774,40.691154],[-74.200227,40.688715],[-74.200698,40.688167],[-74.202283,40.688638],[-74.20246,40.689325],[-74.201882,40.68968],[-74.201808,40.690009],[-74.202274,40.690614],[-74.202089,40.691767],[-74.202521,40.691823],[-74.202557,40.692015],[-74.201938,40.693166],[-74.201468,40.69344],[-74.201756,40.693578],[-74.201536,40.694455],[-74.201823,40.694786],[-74.201097,40.695909],[-74.201311,40.696376],[-74.200443,40.696868],[-74.199898,40.697718],[-74.199286,40.697497],[-74.198925,40.697633],[-74.199175,40.69821],[-74.198562,40.698208],[-74.198703,40.698785],[-74.198199,40.698702],[-74.198052,40.699333],[-74.1978,40.69925],[-74.197184,40.699824],[-74.196859,40.699769],[-74.196971,40.69911],[-74.196428,40.699383],[-74.19628,40.700261],[-74.196783,40.700784],[-74.19642,40.701222],[-74.196491,40.701525],[-74.197246,40.701966],[-74.197934,40.701309],[-74.198763,40.701448],[-74.199051,40.701751],[-74.198544,40.702106],[-74.198974,40.702739],[-74.199444,40.702438],[-74.199841,40.702521],[-74.200385,40.701892],[-74.201505,40.7014],[-74.201218,40.701015],[-74.200821,40.701014],[-74.201003,40.70074],[-74.200389,40.700821],[-74.199741,40.700572],[-74.199419,40.699995],[-74.199566,40.699474],[-74.201338,40.698325],[-74.202132,40.6983],[-74.20267,40.698878],[-74.202632,40.699399],[-74.201582,40.700385],[-74.201869,40.700633],[-74.202266,40.700579],[-74.202631,40.699537],[-74.20303,40.699181],[-74.203534,40.699347],[-74.204149,40.698827],[-74.204763,40.698719],[-74.204943,40.698884],[-74.205269,40.698445],[-74.20509,40.698253],[-74.205742,40.697596],[-74.207039,40.697736],[-74.207694,40.69653],[-74.207874,40.69653],[-74.20776,40.69782],[-74.208517,40.697932],[-74.209201,40.698318],[-74.209883,40.699006],[-74.209593,40.699472],[-74.211033,40.699915],[-74.210238,40.700297],[-74.209804,40.700653],[-74.205646,40.703031],[-74.204343,40.703933],[-74.20409,40.704015],[-74.202028,40.705327],[-74.201523,40.705518],[-74.200546,40.706202],[-74.199606,40.706693]],[[-74.198377,40.707239],[-74.198413,40.707212],[-74.198377,40.707212],[-74.198377,40.707239]],[[-74.198089,40.706991],[-74.198161,40.706964],[-74.198089,40.706964],[-74.198089,40.706991]],[[-74.198161,40.706964],[-74.198234,40.706937],[-74.198162,40.706937],[-74.198161,40.706964]],[[-74.198234,40.706937],[-74.19827,40.706909],[-74.198234,40.706909],[-74.198234,40.706937]],[[-74.183627,40.706486],[-74.183591,40.706431],[-74.183591,40.706486],[-74.183627,40.706486]],[[-74.183167,40.712139],[-74.183095,40.712112],[-74.183167,40.712194],[-74.183167,40.712139]],[[-74.183304,40.713759],[-74.18334,40.713787],[-74.18334,40.713759],[-74.183304,40.713759]],[[-74.184018,40.715271],[-74.183946,40.715243],[-74.183946,40.715271],[-74.184018,40.715271]],[[-74.191576,40.711421],[-74.191432,40.711393],[-74.191431,40.711476],[-74.191576,40.711421]],[[-74.188042,40.718905],[-74.188006,40.718878],[-74.188006,40.718905],[-74.188042,40.718905]],[[-74.188006,40.718878],[-74.187898,40.718823],[-74.187897,40.718878],[-74.188006,40.718878]],[[-74.166573,40.733806],[-74.166537,40.733833],[-74.166573,40.733833],[-74.166573,40.733806]],[[-74.166536,40.733943],[-74.166464,40.73397],[-74.166536,40.73397],[-74.166536,40.733943]],[[-74.166427,40.734217],[-74.166391,40.734162],[-74.16639,40.734217],[-74.166427,40.734217]],[[-74.165347,40.740747],[-74.165311,40.74072],[-74.165311,40.740747],[-74.165347,40.740747]],[[-74.183183,40.716394],[-74.183219,40.716422],[-74.183219,40.716394],[-74.183183,40.716394]],[[-74.183328,40.71623],[-74.183364,40.716258],[-74.183364,40.71623],[-74.183328,40.71623]],[[-74.183112,40.71612],[-74.183076,40.716092],[-74.183076,40.716119],[-74.183112,40.71612]],[[-74.183076,40.716092],[-74.18304,40.716064],[-74.18304,40.716092],[-74.183076,40.716092]],[[-74.182714,40.716503],[-74.182678,40.716475],[-74.182677,40.716503],[-74.182714,40.716503]],[[-74.164119,40.733881],[-74.164083,40.733853],[-74.164083,40.733881],[-74.164119,40.733881]],[[-74.163612,40.734236],[-74.163576,40.734209],[-74.163576,40.734236],[-74.163612,40.734236]],[[-74.151379,40.720338],[-74.151415,40.720365],[-74.151415,40.720338],[-74.151379,40.720338]],[[-74.155214,40.718318],[-74.155249,40.718346],[-74.15525,40.718318],[-74.155214,40.718318]],[[-74.155213,40.718345],[-74.155177,40.718373],[-74.155213,40.718373],[-74.155213,40.718345]],[[-74.162436,40.716939],[-74.162472,40.716912],[-74.162436,40.716912],[-74.162436,40.716939]],[[-74.162472,40.716939],[-74.162508,40.716967],[-74.162508,40.71694],[-74.162472,40.716939]],[[-74.162508,40.71694],[-74.162544,40.716912],[-74.162508,40.716912],[-74.162508,40.71694]],[[-74.160307,40.717125],[-74.160343,40.717098],[-74.160307,40.717098],[-74.160307,40.717125]],[[-74.160641,40.71515],[-74.160785,40.715178],[-74.160786,40.71515],[-74.160641,40.71515]],[[-74.160785,40.715178],[-74.160894,40.715205],[-74.160894,40.715178],[-74.160785,40.715178]],[[-74.161181,40.708289],[-74.161145,40.708261],[-74.161145,40.708289],[-74.161181,40.708289]],[[-74.15103,40.704169],[-74.151066,40.704141],[-74.15103,40.704141],[-74.15103,40.704169]],[[-74.19165,40.687457],[-74.191614,40.687567],[-74.19165,40.687567],[-74.19165,40.687457]],[[-74.191614,40.687567],[-74.191577,40.687649],[-74.191613,40.687649],[-74.191614,40.687567]],[[-74.191577,40.687786],[-74.191505,40.687704],[-74.191504,40.687786],[-74.191577,40.687786]],[[-74.191468,40.687786],[-74.19114,40.688581],[-74.1915,40.688665],[-74.191863,40.688254],[-74.19363,40.688258],[-74.191647,40.688143],[-74.191468,40.687786]],[[-74.197201,40.688048],[-74.197165,40.688021],[-74.197165,40.688048],[-74.197201,40.688048]],[[-74.197292,40.691946],[-74.197255,40.692001],[-74.197291,40.692001],[-74.197292,40.691946]],[[-74.197255,40.692001],[-74.197219,40.692029],[-74.197255,40.692029],[-74.197255,40.692001]],[[-74.196963,40.692851],[-74.196855,40.692824],[-74.196855,40.692851],[-74.196963,40.692851]],[[-74.196855,40.692824],[-74.196783,40.692796],[-74.196783,40.692824],[-74.196855,40.692824]],[[-74.196675,40.692796],[-74.196711,40.692768],[-74.196675,40.692741],[-74.196675,40.692796]],[[-74.196344,40.69403],[-74.196308,40.694058],[-74.196344,40.694058],[-74.196344,40.69403]],[[-74.199859,40.706557],[-74.199823,40.706529],[-74.199823,40.706557],[-74.199859,40.706557]]],[[[-74.179514,40.714243],[-74.179549,40.714271],[-74.179513,40.71427],[-74.179514,40.714243]]],[[[-74.176192,40.71481],[-74.176228,40.714783],[-74.176228,40.71481],[-74.176192,40.71481]]],[[[-74.175254,40.714808],[-74.17529,40.714835],[-74.175254,40.714835],[-74.175254,40.714808]]],[[[-74.175218,40.714835],[-74.175182,40.714807],[-74.175218,40.714807],[-74.175218,40.714835]]],[[[-74.174893,40.714834],[-74.174965,40.714807],[-74.174965,40.714834],[-74.174893,40.714834]]],[[[-74.175073,40.714862],[-74.175109,40.714835],[-74.175109,40.714862],[-74.175073,40.714862]]],[[[-74.177561,40.730049],[-74.177169,40.729142],[-74.178074,40.728486],[-74.178357,40.729639],[-74.177561,40.730049]]],[[[-74.169228,40.729531],[-74.169265,40.729504],[-74.169265,40.729531],[-74.169228,40.729531]]],[[[-74.169228,40.729531],[-74.169192,40.729559],[-74.169192,40.729531],[-74.169228,40.729531]]],[[[-74.169192,40.729559],[-74.169156,40.729586],[-74.169156,40.729558],[-74.169192,40.729559]]],[[[-74.168321,40.730517],[-74.168285,40.730489],[-74.168322,40.730489],[-74.168321,40.730517]]],[[[-74.168213,40.730517],[-74.168177,40.730489],[-74.168213,40.730489],[-74.168213,40.730517]]],[[[-74.168285,40.730517],[-74.168249,40.730544],[-74.168249,40.730517],[-74.168285,40.730517]]],[[[-74.168141,40.730516],[-74.168177,40.730544],[-74.168141,40.730544],[-74.168141,40.730516]]],[[[-74.172542,40.730721],[-74.172002,40.73061],[-74.17229,40.730638],[-74.172834,40.730173],[-74.173554,40.730422],[-74.173299,40.73097],[-74.17265,40.730913],[-74.172723,40.730584],[-74.172542,40.730721]],[[-74.172723,40.730584],[-74.17276,40.730557],[-74.172724,40.730557],[-74.172723,40.730584]]],[[[-74.168249,40.730544],[-74.168213,40.730571],[-74.168213,40.730544],[-74.168249,40.730544]]],[[[-74.167523,40.731338],[-74.167487,40.731365],[-74.167487,40.731338],[-74.167523,40.731338]]],[[[-74.167487,40.731365],[-74.167451,40.731393],[-74.167451,40.731365],[-74.167487,40.731365]]],[[[-74.166827,40.733614],[-74.166862,40.733642],[-74.166826,40.733642],[-74.166827,40.733614]]],[[[-74.166607,40.7343],[-74.166715,40.734218],[-74.166715,40.7343],[-74.166607,40.7343]]],[[[-74.164261,40.734238],[-74.164297,40.734211],[-74.164297,40.734238],[-74.164261,40.734238]]],[[[-74.166426,40.734245],[-74.166462,40.734272],[-74.166426,40.734272],[-74.166426,40.734245]]],[[[-74.164189,40.734293],[-74.164225,40.734266],[-74.164225,40.734293],[-74.164189,40.734293]]],[[[-74.16408,40.734402],[-74.164044,40.734375],[-74.16408,40.734375],[-74.16408,40.734402]]],[[[-74.164044,40.734402],[-74.164008,40.73443],[-74.164008,40.734402],[-74.164044,40.734402]]],[[[-74.164008,40.73443],[-74.163971,40.734457],[-74.163972,40.73443],[-74.164008,40.73443]]],[[[-74.163935,40.734457],[-74.163971,40.734485],[-74.163935,40.734484],[-74.163935,40.734457]]],[[[-74.163935,40.734484],[-74.163899,40.734512],[-74.163899,40.734484],[-74.163935,40.734484]]],[[[-74.163899,40.734512],[-74.163863,40.734539],[-74.163863,40.734512],[-74.163899,40.734512]]],[[[-74.163827,40.734539],[-74.163863,40.734567],[-74.163827,40.734566],[-74.163827,40.734539]]],[[[-74.163827,40.734566],[-74.16379,40.734594],[-74.16379,40.734566],[-74.163827,40.734566]]],[[[-74.163682,40.734621],[-74.163718,40.734648],[-74.163682,40.734648],[-74.163682,40.734621]]],[[[-74.163501,40.734813],[-74.163464,40.73484],[-74.163464,40.734812],[-74.163501,40.734813]]],[[[-74.163464,40.73484],[-74.163428,40.734867],[-74.163428,40.73484],[-74.163464,40.73484]]],[[[-74.163428,40.734867],[-74.163392,40.734895],[-74.163392,40.734867],[-74.163428,40.734867]]],[[[-74.163356,40.734922],[-74.16332,40.734894],[-74.163356,40.734894],[-74.163356,40.734922]]],[[[-74.16332,40.734922],[-74.163283,40.734949],[-74.163283,40.734922],[-74.16332,40.734922]]],[[[-74.163175,40.735004],[-74.163211,40.735031],[-74.163175,40.735031],[-74.163175,40.735004]]],[[[-74.163138,40.735059],[-74.163102,40.735031],[-74.163139,40.735031],[-74.163138,40.735059]]],[[[-74.165671,40.740913],[-74.165708,40.740885],[-74.165707,40.740913],[-74.165671,40.740913]]],[[[-74.166119,40.745141],[-74.166156,40.745114],[-74.166155,40.745141],[-74.166119,40.745141]]],[[[-74.166047,40.745114],[-74.166083,40.745141],[-74.166047,40.745141],[-74.166047,40.745114]]],[[[-74.165975,40.745141],[-74.166011,40.745114],[-74.166011,40.745141],[-74.165975,40.745141]]],[[[-74.165903,40.745168],[-74.165939,40.745113],[-74.165939,40.745168],[-74.165903,40.745168]]],[[[-74.16583,40.745168],[-74.165867,40.745141],[-74.165867,40.745168],[-74.16583,40.745168]]],[[[-74.165863,40.747474],[-74.167839,40.747754],[-74.167947,40.747809],[-74.167369,40.747917],[-74.167117,40.747725],[-74.166683,40.74797],[-74.165838,40.747886],[-74.165863,40.747474]]],[[[-74.167946,40.747892],[-74.167838,40.747864],[-74.168091,40.747837],[-74.167946,40.747892]]],[[[-74.167838,40.747891],[-74.16773,40.747918],[-74.16773,40.747891],[-74.167838,40.747891]]],[[[-74.167657,40.747946],[-74.167585,40.747918],[-74.167657,40.747918],[-74.167657,40.747946]]],[[[-74.16544,40.751014],[-74.165584,40.751096],[-74.16544,40.751096],[-74.16544,40.751014]]],[[[-74.165368,40.751014],[-74.165404,40.751096],[-74.165368,40.751096],[-74.165368,40.751014]]],[[[-74.165332,40.751096],[-74.165296,40.751013],[-74.165332,40.751013],[-74.165332,40.751096]]],[[[-74.16562,40.751097],[-74.165657,40.751042],[-74.165656,40.751097],[-74.16562,40.751097]]],[[[-74.16351,40.761576],[-74.163219,40.762097],[-74.162929,40.762206],[-74.16351,40.761576]]],[[[-74.150993,40.704361],[-74.151173,40.704526],[-74.150885,40.704388],[-74.150993,40.704361]]],[[[-74.150156,40.705868],[-74.150084,40.70584],[-74.150156,40.70584],[-74.150156,40.705868]]],[[[-74.149648,40.706415],[-74.149684,40.706443],[-74.149612,40.706443],[-74.149648,40.706415]]],[[[-74.153325,40.706811],[-74.15192,40.706532],[-74.15192,40.706477],[-74.153325,40.706811]]],[[[-74.151949,40.707795],[-74.152023,40.70752],[-74.151624,40.707876],[-74.151844,40.707163],[-74.151447,40.707327],[-74.151521,40.70697],[-74.151088,40.706996],[-74.151016,40.706804],[-74.150511,40.706967],[-74.150548,40.706693],[-74.15001,40.706197],[-74.149218,40.705838],[-74.152423,40.706918],[-74.152962,40.707304],[-74.152887,40.707743],[-74.152237,40.707878],[-74.151949,40.707795]],[[-74.151844,40.707163],[-74.151881,40.707108],[-74.151845,40.707108],[-74.151844,40.707163]],[[-74.151521,40.70697],[-74.151557,40.706943],[-74.151521,40.706942],[-74.151521,40.70697]],[[-74.151413,40.706942],[-74.151449,40.706915],[-74.151413,40.706915],[-74.151413,40.706942]],[[-74.151016,40.706804],[-74.151053,40.706776],[-74.151017,40.706776],[-74.151016,40.706804]],[[-74.151017,40.706776],[-74.150981,40.706749],[-74.150981,40.706776],[-74.151017,40.706776]],[[-74.151162,40.706585],[-74.151126,40.706639],[-74.151162,40.706639],[-74.151162,40.706585]],[[-74.152418,40.707824],[-74.152454,40.707796],[-74.152418,40.707796],[-74.152418,40.707824]]],[[[-74.153216,40.706948],[-74.153577,40.706921],[-74.153648,40.707086],[-74.153216,40.706948]]],[[[-74.153864,40.707306],[-74.153827,40.707334],[-74.153827,40.707306],[-74.153864,40.707306]]],[[[-74.153286,40.707332],[-74.153611,40.707333],[-74.153574,40.707525],[-74.153249,40.707579],[-74.153286,40.707332]]],[[[-74.150103,40.709079],[-74.150176,40.708915],[-74.15032,40.708888],[-74.150284,40.70897],[-74.150103,40.709079]]],[[[-74.149994,40.709134],[-74.150103,40.709079],[-74.149994,40.709189],[-74.149994,40.709134]]],[[[-74.149958,40.709189],[-74.149994,40.709216],[-74.149958,40.709216],[-74.149958,40.709189]]],[[[-74.149958,40.709216],[-74.149922,40.709243],[-74.149922,40.709216],[-74.149958,40.709216]]],[[[-74.149922,40.709243],[-74.149849,40.709326],[-74.149849,40.709271],[-74.149922,40.709243]]],[[[-74.149813,40.709325],[-74.149849,40.709353],[-74.149813,40.709353],[-74.149813,40.709325]]],[[[-74.149813,40.709353],[-74.149777,40.70938],[-74.149777,40.709353],[-74.149813,40.709353]]],[[[-74.149777,40.70938],[-74.14974,40.709408],[-74.14974,40.70938],[-74.149777,40.70938]]],[[[-74.14974,40.709435],[-74.149704,40.709462],[-74.149704,40.709435],[-74.14974,40.709435]]],[[[-74.149704,40.709462],[-74.149668,40.70949],[-74.149668,40.709462],[-74.149704,40.709462]]],[[[-74.149668,40.70949],[-74.149632,40.709517],[-74.149632,40.70949],[-74.149668,40.70949]]],[[[-74.149632,40.709517],[-74.149595,40.709544],[-74.149595,40.709517],[-74.149632,40.709517]]],[[[-74.149595,40.709544],[-74.149559,40.709572],[-74.149559,40.709544],[-74.149595,40.709544]]],[[[-74.160054,40.710015],[-74.16009,40.709988],[-74.16009,40.710015],[-74.160054,40.710015]]],[[[-74.159044,40.710012],[-74.158971,40.710122],[-74.159008,40.710012],[-74.159044,40.710012]]],[[[-74.158936,40.710039],[-74.158827,40.710203],[-74.158828,40.710039],[-74.158936,40.710039]]],[[[-74.158935,40.710149],[-74.158971,40.710176],[-74.158935,40.710176],[-74.158935,40.710149]]],[[[-74.157041,40.713794],[-74.155528,40.713296],[-74.157847,40.711408],[-74.158241,40.711794],[-74.157186,40.713685],[-74.157041,40.713794]]],[[[-74.154225,40.71406],[-74.154261,40.714088],[-74.154225,40.714088],[-74.154225,40.71406]]],[[[-74.154153,40.71406],[-74.154189,40.714088],[-74.154153,40.714087],[-74.154153,40.71406]]],[[[-74.154189,40.714088],[-74.154225,40.714115],[-74.154189,40.714115],[-74.154189,40.714088]]],[[[-74.15675,40.714178],[-74.156822,40.71426],[-74.15675,40.71426],[-74.15675,40.714178]]],[[[-74.154622,40.714171],[-74.154549,40.714253],[-74.154549,40.714198],[-74.154622,40.714171]]],[[[-74.157217,40.714591],[-74.157181,40.714536],[-74.157253,40.714536],[-74.157217,40.714591]]],[[[-74.157577,40.714647],[-74.157505,40.714619],[-74.157578,40.714619],[-74.157577,40.714647]]],[[[-74.156636,40.715303],[-74.1566,40.715248],[-74.156636,40.715248],[-74.156636,40.715303]]],[[[-74.1566,40.715303],[-74.156377,40.71662],[-74.155872,40.716618],[-74.1566,40.715303]]],[[[-74.155871,40.71681],[-74.15623,40.717086],[-74.15612,40.717387],[-74.155616,40.717221],[-74.155871,40.71681]]],[[[-74.160054,40.717179],[-74.16009,40.717152],[-74.16009,40.71718],[-74.160054,40.717179]]],[[[-74.155436,40.717138],[-74.155508,40.717276],[-74.155399,40.717275],[-74.155436,40.717138]]],[[[-74.157851,40.717557],[-74.157887,40.71753],[-74.157887,40.717557],[-74.157851,40.717557]]],[[[-74.154202,40.718535],[-74.155291,40.717385],[-74.155398,40.717605],[-74.155938,40.717716],[-74.156444,40.71758],[-74.156662,40.717252],[-74.157924,40.717475],[-74.155106,40.718126],[-74.154419,40.718535],[-74.154202,40.718535]],[[-74.154311,40.718507],[-74.154347,40.71848],[-74.154311,40.71848],[-74.154311,40.718507]]],[[[-74.154803,40.71398],[-74.156712,40.714479],[-74.155584,40.71648],[-74.154287,40.716092],[-74.153385,40.716199],[-74.155439,40.716672],[-74.154784,40.717685],[-74.153444,40.718724],[-74.147655,40.721836],[-74.150158,40.719236],[-74.152157,40.716442],[-74.152518,40.716333],[-74.154006,40.714609],[-74.154693,40.714281],[-74.154803,40.71398]],[[-74.152373,40.716388],[-74.152337,40.716415],[-74.152373,40.716415],[-74.152373,40.716388]]],[[[-74.163102,40.735058],[-74.163066,40.735086],[-74.163066,40.735058],[-74.163102,40.735058]]],[[[-74.162705,40.73514],[-74.162596,40.735222],[-74.162597,40.735167],[-74.162705,40.73514]]],[[[-74.162776,40.735305],[-74.162813,40.735277],[-74.162812,40.735305],[-74.162776,40.735305]]],[[[-74.162776,40.735305],[-74.16274,40.735332],[-74.16274,40.735304],[-74.162776,40.735305]]],[[[-74.162704,40.735332],[-74.16274,40.735359],[-74.162704,40.735359],[-74.162704,40.735332]]],[[[-74.16274,40.735359],[-74.162776,40.735387],[-74.16274,40.735387],[-74.16274,40.735359]]],[[[-74.16256,40.735194],[-74.162162,40.73555],[-74.161981,40.735577],[-74.16256,40.735194]]],[[[-74.161945,40.735577],[-74.161981,40.735604],[-74.161945,40.735604],[-74.161945,40.735577]]],[[[-74.162559,40.735386],[-74.162197,40.735742],[-74.161871,40.735851],[-74.162559,40.735386]]],[[[-74.161945,40.735604],[-74.161909,40.735631],[-74.161909,40.735604],[-74.161945,40.735604]]],[[[-74.161799,40.735933],[-74.161546,40.735987],[-74.161582,40.73596],[-74.161799,40.735933]]],[[[-74.15907,40.768536],[-74.157837,40.769548],[-74.157327,40.770507],[-74.157614,40.770782],[-74.158482,40.770565],[-74.158015,40.770015],[-74.159177,40.768865],[-74.158732,40.771115],[-74.159092,40.771391],[-74.158549,40.771636],[-74.157128,40.774157],[-74.157235,40.77435],[-74.156872,40.77465],[-74.156802,40.774348],[-74.155971,40.774401],[-74.156258,40.774676],[-74.155717,40.774702],[-74.155352,40.775442],[-74.155638,40.775909],[-74.155313,40.775909],[-74.15578,40.776349],[-74.15527,40.777363],[-74.154584,40.777279],[-74.154111,40.777936],[-74.154365,40.777745],[-74.154508,40.77791],[-74.153892,40.77843],[-74.153097,40.77851],[-74.152377,40.778041],[-74.152016,40.778067],[-74.153238,40.779224],[-74.152909,40.779882],[-74.152223,40.780017],[-74.152185,40.780236],[-74.15341,40.780816],[-74.148329,40.779601],[-74.148635,40.778535],[-74.150145,40.776799],[-74.150613,40.77713],[-74.149778,40.778005],[-74.149119,40.779596],[-74.150721,40.777185],[-74.1518,40.778012],[-74.151766,40.777627],[-74.15083,40.777075],[-74.153801,40.775053],[-74.153621,40.775053],[-74.153004,40.775517],[-74.152896,40.77549],[-74.15286,40.775544],[-74.152896,40.775599],[-74.152787,40.775681],[-74.150685,40.777048],[-74.150205,40.776744],[-74.153904,40.77338],[-74.155822,40.770247],[-74.157171,40.767025],[-74.161643,40.762036],[-74.163014,40.760089],[-74.163961,40.75797],[-74.165214,40.751123],[-74.165692,40.751124],[-74.165693,40.750987],[-74.165235,40.750986],[-74.1658,40.748133],[-74.166609,40.74819],[-74.166572,40.748546],[-74.166931,40.748822],[-74.167328,40.748768],[-74.167403,40.748247],[-74.168414,40.748277],[-74.168196,40.748551],[-74.168336,40.749348],[-74.168914,40.749239],[-74.168949,40.749569],[-74.169598,40.749708],[-74.169848,40.750121],[-74.169307,40.750092],[-74.168726,40.750859],[-74.168257,40.750665],[-74.167928,40.751488],[-74.167025,40.751759],[-74.166544,40.754091],[-74.166569,40.75637],[-74.166134,40.756561],[-74.16584,40.757685],[-74.166055,40.757905],[-74.165943,40.758674],[-74.164236,40.760782],[-74.163076,40.761712],[-74.160457,40.765685],[-74.160309,40.766234],[-74.160202,40.766123],[-74.159984,40.766397],[-74.15907,40.768536]],[[-74.149778,40.778005],[-74.149742,40.777978],[-74.149741,40.778005],[-74.149778,40.778005]],[[-74.14934,40.778855],[-74.149304,40.778828],[-74.149304,40.778855],[-74.14934,40.778855]],[[-74.14923,40.779074],[-74.149194,40.779047],[-74.149194,40.779074],[-74.14923,40.779074]],[[-74.149119,40.779596],[-74.149083,40.779623],[-74.149119,40.779623],[-74.149119,40.779596]],[[-74.153005,40.775462],[-74.152969,40.775435],[-74.152968,40.775462],[-74.153005,40.775462]],[[-74.15286,40.775544],[-74.152823,40.775572],[-74.15286,40.775572],[-74.15286,40.775544]],[[-74.159143,40.768344],[-74.159107,40.768316],[-74.159107,40.768344],[-74.159143,40.768344]]],[[[-74.160637,40.765658],[-74.161032,40.766126],[-74.160957,40.766675],[-74.160415,40.76681],[-74.160015,40.767303],[-74.160637,40.765658]]],[[[-74.159981,40.767001],[-74.159907,40.767193],[-74.159835,40.76722],[-74.159908,40.767001],[-74.159981,40.767001]]],[[[-74.152896,40.775544],[-74.152932,40.775517],[-74.152932,40.775545],[-74.152896,40.775544]]],[[[-74.15341,40.780836],[-74.154384,40.781039],[-74.154455,40.781176],[-74.15341,40.780836]]],[[[-74.154564,40.781204],[-74.157951,40.782504],[-74.157951,40.782587],[-74.154564,40.781204]]],[[[-74.148714,40.705671],[-74.14875,40.705644],[-74.14875,40.705671],[-74.148714,40.705671]]],[[[-74.148786,40.705699],[-74.148822,40.705672],[-74.148822,40.705699],[-74.148786,40.705699]]],[[[-74.148858,40.705727],[-74.148894,40.705699],[-74.148894,40.705727],[-74.148858,40.705727]]],[[[-74.149002,40.705755],[-74.14893,40.705754],[-74.14893,40.705727],[-74.149002,40.705727],[-74.149002,40.705755]]],[[[-74.149002,40.705782],[-74.149002,40.705755],[-74.149074,40.705755],[-74.149074,40.705782],[-74.149002,40.705782]]],[[[-74.149146,40.70581],[-74.149074,40.705782],[-74.149146,40.705782],[-74.149146,40.70581]]],[[[-74.149218,40.70581],[-74.149146,40.705837],[-74.149146,40.70581],[-74.149218,40.70581]]],[[[-74.140014,40.706907],[-74.14005,40.706935],[-74.140014,40.706935],[-74.140014,40.706907]]],[[[-74.140122,40.706962],[-74.140158,40.706935],[-74.140158,40.706963],[-74.140122,40.706962]]],[[[-74.140302,40.707018],[-74.140266,40.70699],[-74.140302,40.70699],[-74.140302,40.707018]]],[[[-74.140338,40.707045],[-74.140374,40.707018],[-74.140374,40.707046],[-74.140338,40.707045]]],[[[-74.140482,40.707101],[-74.140554,40.707074],[-74.140554,40.707101],[-74.140482,40.707101]]],[[[-74.14059,40.707129],[-74.140626,40.707101],[-74.140626,40.707129],[-74.14059,40.707129]]],[[[-74.140842,40.707212],[-74.140878,40.707184],[-74.140878,40.707212],[-74.140842,40.707212]]],[[[-74.140986,40.70724],[-74.140914,40.707212],[-74.140986,40.707212],[-74.140986,40.70724]]],[[[-74.140986,40.70724],[-74.141022,40.707267],[-74.140986,40.707267],[-74.140986,40.70724]]],[[[-74.141094,40.70724],[-74.14113,40.707295],[-74.141094,40.707295],[-74.141094,40.70724]]],[[[-74.141274,40.707378],[-74.14131,40.70735],[-74.14131,40.707378],[-74.141274,40.707378]]],[[[-74.141382,40.707406],[-74.141418,40.707378],[-74.141418,40.707406],[-74.141382,40.707406]]],[[[-74.141634,40.707434],[-74.14167,40.707461],[-74.141634,40.707461],[-74.141634,40.707434]]],[[[-74.141526,40.707461],[-74.141562,40.707434],[-74.141562,40.707461],[-74.141526,40.707461]]],[[[-74.141418,40.707461],[-74.141454,40.707433],[-74.141454,40.707461],[-74.141418,40.707461]]],[[[-74.141526,40.707488],[-74.14149,40.707461],[-74.141526,40.707461],[-74.141526,40.707488]]],[[[-74.141923,40.707517],[-74.141886,40.707544],[-74.141887,40.707517],[-74.141923,40.707517]]],[[[-74.141742,40.707516],[-74.141778,40.707544],[-74.141742,40.707544],[-74.141742,40.707516]]],[[[-74.141634,40.707544],[-74.14167,40.707516],[-74.14167,40.707544],[-74.141634,40.707544]]],[[[-74.141995,40.707545],[-74.141958,40.707572],[-74.141959,40.707545],[-74.141995,40.707545]]],[[[-74.141886,40.707572],[-74.14185,40.707544],[-74.141886,40.707544],[-74.141886,40.707572]]],[[[-74.141778,40.707599],[-74.141814,40.707572],[-74.141814,40.707599],[-74.141778,40.707599]]],[[[-74.141886,40.707627],[-74.141958,40.707572],[-74.141922,40.707627],[-74.141886,40.707627]]],[[[-74.142462,40.707821],[-74.142426,40.707848],[-74.142426,40.707821],[-74.142462,40.707821]]],[[[-74.149378,40.709736],[-74.149414,40.709709],[-74.149414,40.709736],[-74.149378,40.709736]]],[[[-74.148726,40.710228],[-74.14869,40.710255],[-74.14869,40.710228],[-74.148726,40.710228]]],[[[-74.14869,40.710255],[-74.148654,40.710283],[-74.148654,40.710255],[-74.14869,40.710255]]],[[[-74.148581,40.710283],[-74.148617,40.710338],[-74.148545,40.710337],[-74.148581,40.710283]]],[[[-74.148545,40.710392],[-74.148509,40.710337],[-74.148545,40.710337],[-74.148545,40.710392]]],[[[-74.148473,40.710392],[-74.148436,40.710419],[-74.148437,40.710392],[-74.148473,40.710392]]],[[[-74.148436,40.710419],[-74.1484,40.710447],[-74.1484,40.710419],[-74.148436,40.710419]]],[[[-74.148364,40.710447],[-74.1484,40.710474],[-74.148364,40.710474],[-74.148364,40.710447]]],[[[-74.148364,40.710474],[-74.148328,40.710501],[-74.148328,40.710474],[-74.148364,40.710474]]],[[[-74.148328,40.710501],[-74.148292,40.710529],[-74.148292,40.710501],[-74.148328,40.710501]]],[[[-74.148255,40.710529],[-74.148291,40.710556],[-74.148255,40.710556],[-74.148255,40.710529]]],[[[-74.14811,40.710665],[-74.148075,40.710638],[-74.148111,40.710638],[-74.14811,40.710665]]],[[[-74.148074,40.710665],[-74.148038,40.710693],[-74.148038,40.710665],[-74.148074,40.710665]]],[[[-74.148216,40.711132],[-74.148181,40.710995],[-74.148253,40.711023],[-74.148216,40.711132]]],[[[-74.147457,40.711432],[-74.147348,40.711569],[-74.147204,40.711568],[-74.147457,40.711432]]],[[[-74.149281,40.721347],[-74.149136,40.721456],[-74.149028,40.721456],[-74.149281,40.721347]]],[[[-74.148955,40.721511],[-74.148919,40.721483],[-74.148955,40.721483],[-74.148955,40.721511]]],[[[-74.148847,40.721565],[-74.148811,40.721538],[-74.148847,40.721538],[-74.148847,40.721565]]],[[[-74.154189,40.71417],[-74.151581,40.716056],[-74.151436,40.71633],[-74.151833,40.716222],[-74.151578,40.71677],[-74.148201,40.720877],[-74.145846,40.722709],[-74.140779,40.725686],[-74.139658,40.726039],[-74.13868,40.726859],[-74.137161,40.727486],[-74.134807,40.729043],[-74.13383,40.729479],[-74.133472,40.729094],[-74.133432,40.72967],[-74.132382,40.730408],[-74.130573,40.731171],[-74.129889,40.730922],[-74.129607,40.729768],[-74.128817,40.729106],[-74.12925,40.728998],[-74.131208,40.727302],[-74.132914,40.725469],[-74.133203,40.725497],[-74.133096,40.725304],[-74.134623,40.723086],[-74.135247,40.721194],[-74.13495,40.72273],[-74.133711,40.725004],[-74.134758,40.724761],[-74.135591,40.724269],[-74.13853,40.721259],[-74.138534,40.720463],[-74.138173,40.720462],[-74.138177,40.71983],[-74.137494,40.719252],[-74.137789,40.718127],[-74.137393,40.717934],[-74.13754,40.71755],[-74.137252,40.717439],[-74.135827,40.720592],[-74.135355,40.721139],[-74.135284,40.721057],[-74.136817,40.717767],[-74.137726,40.716508],[-74.139176,40.715195],[-74.142395,40.71353],[-74.142865,40.713477],[-74.14308,40.713724],[-74.143909,40.713919],[-74.144707,40.712961],[-74.1446,40.712768],[-74.146734,40.711814],[-74.149759,40.712784],[-74.150442,40.71317],[-74.151163,40.713337],[-74.151019,40.713145],[-74.151381,40.713063],[-74.152101,40.713258],[-74.152281,40.713368],[-74.151884,40.713339],[-74.151847,40.713641],[-74.152675,40.713946],[-74.153037,40.713645],[-74.152569,40.713534],[-74.152533,40.713396],[-74.154407,40.713869],[-74.154298,40.71406],[-74.154154,40.713978],[-74.154153,40.71406],[-74.154081,40.71406],[-74.154189,40.71417]],[[-74.151435,40.716385],[-74.151327,40.716385],[-74.151327,40.716412],[-74.151435,40.716385]],[[-74.147911,40.721068],[-74.147875,40.721041],[-74.147875,40.721068],[-74.147911,40.721068]],[[-74.147911,40.721041],[-74.147948,40.721014],[-74.147912,40.721014],[-74.147911,40.721041]],[[-74.147766,40.721205],[-74.14773,40.721178],[-74.14773,40.721205],[-74.147766,40.721205]],[[-74.147187,40.721615],[-74.147223,40.721588],[-74.147187,40.721588],[-74.147187,40.721615]],[[-74.133746,40.72506],[-74.133602,40.725032],[-74.133602,40.725059],[-74.133746,40.72506]],[[-74.149686,40.712811],[-74.149722,40.712839],[-74.149723,40.712811],[-74.149686,40.712811]]],[[[-74.148811,40.721565],[-74.148774,40.721593],[-74.148775,40.721565],[-74.148811,40.721565]]],[[[-74.148702,40.72162],[-74.148738,40.721592],[-74.148738,40.72162],[-74.148702,40.72162]]],[[[-74.148702,40.72162],[-74.148666,40.721647],[-74.148666,40.72162],[-74.148702,40.72162]]],[[[-74.148594,40.721647],[-74.14863,40.721702],[-74.148557,40.721702],[-74.148594,40.721647]]],[[[-74.148485,40.721702],[-74.148557,40.721729],[-74.148485,40.721729],[-74.148485,40.721702]]],[[[-74.148485,40.721729],[-74.148449,40.721756],[-74.148449,40.721729],[-74.148485,40.721729]]],[[[-74.148268,40.721866],[-74.148159,40.72192],[-74.148449,40.721756],[-74.148268,40.721866]]],[[[-74.147037,40.722658],[-74.147001,40.72263],[-74.147037,40.72263],[-74.147037,40.722658]]],[[[-74.137242,40.705965],[-74.137278,40.705938],[-74.137278,40.705965],[-74.137242,40.705965]]],[[[-74.137566,40.706076],[-74.137602,40.706049],[-74.137602,40.706076],[-74.137566,40.706076]]],[[[-74.137674,40.706104],[-74.137638,40.706076],[-74.137674,40.706076],[-74.137674,40.706104]]],[[[-74.13771,40.706131],[-74.137782,40.706104],[-74.137782,40.706132],[-74.13771,40.706131]]],[[[-74.137818,40.706159],[-74.137854,40.706132],[-74.137854,40.706159],[-74.137818,40.706159]]],[[[-74.13789,40.706187],[-74.137926,40.706159],[-74.137926,40.706187],[-74.13789,40.706187]]],[[[-74.137962,40.706215],[-74.137998,40.706187],[-74.137998,40.706215],[-74.137962,40.706215]]],[[[-74.138034,40.706242],[-74.138034,40.706215],[-74.138106,40.706215],[-74.138106,40.706242],[-74.138034,40.706242]]],[[[-74.138178,40.70627],[-74.138106,40.706242],[-74.138178,40.706243],[-74.138178,40.70627]]],[[[-74.138214,40.706298],[-74.13825,40.70627],[-74.13825,40.706298],[-74.138214,40.706298]]],[[[-74.138286,40.706325],[-74.138322,40.706298],[-74.138322,40.706325],[-74.138286,40.706325]]],[[[-74.138358,40.706353],[-74.138394,40.706326],[-74.138394,40.706353],[-74.138358,40.706353]]],[[[-74.138502,40.706381],[-74.13843,40.706353],[-74.138502,40.706353],[-74.138502,40.706381]]],[[[-74.138502,40.706408],[-74.138574,40.706381],[-74.138574,40.706409],[-74.138502,40.706408]]],[[[-74.138646,40.706436],[-74.13861,40.706409],[-74.138646,40.706409],[-74.138646,40.706436]]],[[[-74.138682,40.706464],[-74.138718,40.706436],[-74.138718,40.706464],[-74.138682,40.706464]]],[[[-74.138754,40.706491],[-74.13879,40.706464],[-74.13879,40.706492],[-74.138754,40.706491]]],[[[-74.139006,40.70652],[-74.13897,40.706492],[-74.139006,40.706492],[-74.139006,40.70652]]],[[[-74.138826,40.706492],[-74.138898,40.706519],[-74.138826,40.706519],[-74.138826,40.706492]]],[[[-74.13897,40.70652],[-74.138934,40.706547],[-74.138934,40.70652],[-74.13897,40.70652]]],[[[-74.139006,40.706575],[-74.139042,40.706547],[-74.139042,40.706575],[-74.139006,40.706575]]],[[[-74.139114,40.706602],[-74.139078,40.706575],[-74.139114,40.706575],[-74.139114,40.706602]]],[[[-74.13915,40.70663],[-74.139186,40.706603],[-74.139186,40.70663],[-74.13915,40.70663]]],[[[-74.139222,40.706658],[-74.139222,40.70663],[-74.139294,40.70663],[-74.139294,40.706658],[-74.139222,40.706658]]],[[[-74.139366,40.706686],[-74.139294,40.706658],[-74.139366,40.706658],[-74.139366,40.706686]]],[[[-74.139402,40.706686],[-74.139438,40.706713],[-74.139402,40.706713],[-74.139402,40.706686]]],[[[-74.139474,40.706713],[-74.13951,40.706741],[-74.139474,40.706741],[-74.139474,40.706713]]],[[[-74.139618,40.706741],[-74.139546,40.706768],[-74.139546,40.706741],[-74.139618,40.706741]]],[[[-74.139618,40.706796],[-74.13969,40.706769],[-74.13969,40.706796],[-74.139618,40.706796]]],[[[-74.139726,40.706824],[-74.139762,40.706797],[-74.139762,40.706824],[-74.139726,40.706824]]],[[[-74.139834,40.706852],[-74.139798,40.706824],[-74.139834,40.706824],[-74.139834,40.706852]]],[[[-74.13987,40.706879],[-74.139906,40.706852],[-74.139906,40.706879],[-74.13987,40.706879]]],[[[-74.139942,40.70688],[-74.139978,40.706907],[-74.139942,40.706907],[-74.139942,40.70688]]],[[[-74.136651,40.708461],[-74.136687,40.708434],[-74.136687,40.708461],[-74.136651,40.708461]]],[[[-74.136723,40.708462],[-74.136759,40.708489],[-74.136723,40.708489],[-74.136723,40.708462]]],[[[-74.136829,40.708846],[-74.136865,40.708874],[-74.136829,40.708874],[-74.136829,40.708846]]],[[[-74.136577,40.708873],[-74.136649,40.708846],[-74.136649,40.708873],[-74.136577,40.708873]]],[[[-74.136973,40.708874],[-74.136937,40.708901],[-74.136937,40.708874],[-74.136973,40.708874]]],[[[-74.136649,40.708873],[-74.136721,40.708901],[-74.136649,40.708901],[-74.136649,40.708873]]],[[[-74.137009,40.708902],[-74.137045,40.708929],[-74.137009,40.708929],[-74.137009,40.708902]]],[[[-74.136721,40.708901],[-74.136793,40.708928],[-74.136721,40.708928],[-74.136721,40.708901]]],[[[-74.136829,40.708929],[-74.136865,40.708956],[-74.136829,40.708956],[-74.136829,40.708929]]],[[[-74.137986,40.715136],[-74.13795,40.715108],[-74.137986,40.715108],[-74.137986,40.715136]]],[[[-74.137806,40.715026],[-74.137624,40.715217],[-74.137552,40.715217],[-74.137806,40.715026]]],[[[-74.13795,40.715136],[-74.137913,40.715163],[-74.137913,40.715136],[-74.13795,40.715136]]],[[[-74.137552,40.715217],[-74.137516,40.715244],[-74.137516,40.715217],[-74.137552,40.715217]]],[[[-74.13748,40.715244],[-74.137516,40.715272],[-74.13748,40.715272],[-74.13748,40.715244]]],[[[-74.137913,40.715163],[-74.137659,40.715409],[-74.137551,40.715409],[-74.137913,40.715163]]],[[[-74.13748,40.715272],[-74.137444,40.715299],[-74.137444,40.715271],[-74.13748,40.715272]]],[[[-74.137407,40.715299],[-74.137443,40.715326],[-74.137407,40.715326],[-74.137407,40.715299]]],[[[-74.137407,40.715326],[-74.137371,40.715354],[-74.137371,40.715326],[-74.137407,40.715326]]],[[[-74.136749,40.716916],[-74.136713,40.716889],[-74.136749,40.716889],[-74.136749,40.716916]]],[[[-74.136677,40.716916],[-74.136713,40.716971],[-74.136677,40.716971],[-74.136677,40.716916]]],[[[-74.136677,40.716971],[-74.136641,40.716998],[-74.136641,40.716971],[-74.136677,40.716971]]],[[[-74.136641,40.716998],[-74.136604,40.717053],[-74.136605,40.716998],[-74.136641,40.716998]]],[[[-74.136604,40.717053],[-74.136568,40.717108],[-74.136568,40.717053],[-74.136604,40.717053]]],[[[-74.136784,40.717109],[-74.136893,40.716972],[-74.136675,40.717245],[-74.136784,40.717109]]],[[[-74.136568,40.717108],[-74.136532,40.717163],[-74.136532,40.717108],[-74.136568,40.717108]]],[[[-74.134138,40.706285],[-74.134174,40.706257],[-74.134174,40.706285],[-74.134138,40.706285]]],[[[-74.134246,40.706313],[-74.13421,40.706285],[-74.134246,40.706285],[-74.134246,40.706313]]],[[[-74.133811,40.706723],[-74.133272,40.706392],[-74.132804,40.706061],[-74.133704,40.706503],[-74.133811,40.706723]]],[[[-74.134498,40.706423],[-74.134534,40.706396],[-74.134534,40.706423],[-74.134498,40.706423]]],[[[-74.133452,40.706283],[-74.133705,40.706338],[-74.13392,40.706531],[-74.13374,40.706503],[-74.133452,40.706283]]],[[[-74.13457,40.706451],[-74.13457,40.706423],[-74.134642,40.706424],[-74.134642,40.706451],[-74.13457,40.706451]]],[[[-74.134714,40.706479],[-74.134642,40.706451],[-74.134714,40.706451],[-74.134714,40.706479]]],[[[-74.134786,40.706506],[-74.134714,40.706506],[-74.134714,40.706479],[-74.134786,40.706479],[-74.134786,40.706506]]],[[[-74.134786,40.706534],[-74.134786,40.706506],[-74.134858,40.706507],[-74.134858,40.706534],[-74.134786,40.706534]]],[[[-74.13493,40.706562],[-74.134858,40.706534],[-74.13493,40.706534],[-74.13493,40.706562]]],[[[-74.133956,40.706531],[-74.133992,40.706559],[-74.133956,40.706559],[-74.133956,40.706531]]],[[[-74.135218,40.706673],[-74.135002,40.706617],[-74.13493,40.706562],[-74.135218,40.706673]]],[[[-74.133559,40.706667],[-74.133595,40.70664],[-74.133595,40.706667],[-74.133559,40.706667]]],[[[-74.133342,40.706667],[-74.133342,40.706639],[-74.133378,40.706639],[-74.133378,40.706667],[-74.133342,40.706667]]],[[[-74.13529,40.7067],[-74.135254,40.706673],[-74.13529,40.706673],[-74.13529,40.7067]]],[[[-74.133414,40.706694],[-74.13345,40.706667],[-74.13345,40.706722],[-74.133414,40.706694]]],[[[-74.135434,40.706728],[-74.135326,40.706728],[-74.135326,40.7067],[-74.135434,40.706728]]],[[[-74.133703,40.706695],[-74.133666,40.70675],[-74.133631,40.706695],[-74.133703,40.706695]]],[[[-74.133955,40.706723],[-74.133847,40.706751],[-74.133847,40.706696],[-74.133955,40.706723]]],[[[-74.133738,40.706778],[-74.133775,40.70675],[-74.133774,40.706778],[-74.133738,40.706778]]],[[[-74.135542,40.706756],[-74.135434,40.706783],[-74.135434,40.706756],[-74.135542,40.706756]]],[[[-74.13381,40.706833],[-74.13381,40.706805],[-74.133846,40.706805],[-74.133846,40.706833],[-74.13381,40.706833]]],[[[-74.135686,40.706811],[-74.13565,40.706866],[-74.135578,40.706811],[-74.135686,40.706811]]],[[[-74.133918,40.706861],[-74.133846,40.706833],[-74.133918,40.706833],[-74.133918,40.706861]]],[[[-74.133845,40.706998],[-74.13381,40.706915],[-74.13345,40.706722],[-74.133882,40.706888],[-74.133845,40.706998]]],[[[-74.134206,40.706999],[-74.134242,40.706971],[-74.134242,40.706999],[-74.134206,40.706999]]],[[[-74.13496,40.70766],[-74.134061,40.70719],[-74.134097,40.707081],[-74.135032,40.70766],[-74.13496,40.70766]]],[[[-74.134673,40.707412],[-74.134709,40.707385],[-74.134709,40.707412],[-74.134673,40.707412]]],[[[-74.135032,40.707688],[-74.135032,40.70766],[-74.135104,40.70766],[-74.135104,40.707688],[-74.135032,40.707688]]],[[[-74.135859,40.708129],[-74.134419,40.707548],[-74.134024,40.707218],[-74.135859,40.708129]]],[[[-74.13514,40.707715],[-74.135104,40.707688],[-74.13514,40.707688],[-74.13514,40.707715]]],[[[-74.13514,40.707715],[-74.135176,40.707743],[-74.13514,40.707743],[-74.13514,40.707715]]],[[[-74.135931,40.708157],[-74.135859,40.708157],[-74.135859,40.708129],[-74.135931,40.70813],[-74.135931,40.708157]]],[[[-74.135931,40.708185],[-74.135931,40.708157],[-74.135967,40.708157],[-74.135967,40.708185],[-74.135931,40.708185]]],[[[-74.135967,40.708212],[-74.135967,40.708185],[-74.136039,40.708185],[-74.136039,40.708212],[-74.135967,40.708212]]],[[[-74.136039,40.70824],[-74.136039,40.708212],[-74.136111,40.708213],[-74.136111,40.70824],[-74.136039,40.70824]]],[[[-74.136111,40.708267],[-74.136111,40.70824],[-74.136183,40.70824],[-74.136183,40.708268],[-74.136111,40.708267]]],[[[-74.136183,40.708295],[-74.136183,40.708268],[-74.136255,40.708268],[-74.136255,40.708295],[-74.136183,40.708295]]],[[[-74.136327,40.708323],[-74.136255,40.708295],[-74.136327,40.708296],[-74.136327,40.708323]]],[[[-74.136399,40.708351],[-74.136327,40.70835],[-74.136327,40.708323],[-74.136399,40.708323],[-74.136399,40.708351]]],[[[-74.136399,40.708378],[-74.136399,40.708351],[-74.136507,40.708351],[-74.136507,40.708379],[-74.136399,40.708378]]],[[[-74.136507,40.708406],[-74.136507,40.708379],[-74.136543,40.708379],[-74.136543,40.708406],[-74.136507,40.708406]]],[[[-74.136615,40.708434],[-74.136543,40.708406],[-74.136615,40.708406],[-74.136615,40.708434]]],[[[-74.135669,40.716638],[-74.135633,40.716611],[-74.135669,40.716611],[-74.135669,40.716638]]],[[[-74.135596,40.716638],[-74.135596,40.716693],[-74.13556,40.71672],[-74.135596,40.716638]]],[[[-74.135524,40.71672],[-74.13556,40.716775],[-74.135523,40.716775],[-74.135524,40.71672]]],[[[-74.13621,40.716668],[-74.135955,40.717024],[-74.135775,40.716996],[-74.136029,40.716612],[-74.13621,40.716668]]],[[[-74.134872,40.717075],[-74.134325,40.718199],[-74.134253,40.718199],[-74.134509,40.717541],[-74.134872,40.717075]]],[[[-74.135841,40.718121],[-74.135913,40.718094],[-74.135913,40.718149],[-74.135841,40.718121]]],[[[-74.136021,40.718232],[-74.135985,40.718204],[-74.136021,40.718204],[-74.136021,40.718232]]],[[[-74.13602,40.718259],[-74.136057,40.718232],[-74.136057,40.718259],[-74.13602,40.718259]]],[[[-74.134289,40.718226],[-74.134216,40.718308],[-74.134253,40.718226],[-74.134289,40.718226]]],[[[-74.134644,40.719215],[-74.134608,40.719188],[-74.134644,40.719188],[-74.134644,40.719215]]],[[[-74.135947,40.718506],[-74.135437,40.719465],[-74.13522,40.719547],[-74.134671,40.720863],[-74.134719,40.718722],[-74.134901,40.71842],[-74.135226,40.718476],[-74.135805,40.718121],[-74.13602,40.718287],[-74.135947,40.718506]],[[-74.135656,40.718972],[-74.13562,40.718944],[-74.13562,40.718971],[-74.135656,40.718972]],[[-74.13566,40.718258],[-74.135623,40.718285],[-74.13566,40.718285],[-74.13566,40.718258]],[[-74.135984,40.718369],[-74.135948,40.718341],[-74.135948,40.718369],[-74.135984,40.718369]],[[-74.135947,40.718424],[-74.135911,40.718396],[-74.135911,40.718423],[-74.135947,40.718424]],[[-74.135911,40.718506],[-74.135875,40.718478],[-74.135875,40.718506],[-74.135911,40.718506]]],[[[-74.134491,40.720862],[-74.134177,40.718857],[-74.134502,40.718776],[-74.134491,40.720862]]],[[[-74.135177,40.720837],[-74.135398,40.719877],[-74.135471,40.719849],[-74.135177,40.720837]]],[[[-74.134888,40.720836],[-74.134887,40.721028],[-74.134815,40.721028],[-74.134815,40.720973],[-74.134888,40.720836]]],[[[-74.133585,40.721518],[-74.133621,40.721545],[-74.133585,40.721545],[-74.133585,40.721518]]],[[[-74.149864,40.706443],[-74.150149,40.707213],[-74.149604,40.707925],[-74.149565,40.708419],[-74.147789,40.709978],[-74.145583,40.711097],[-74.145008,40.710766],[-74.1458,40.710905],[-74.146489,40.710386],[-74.146346,40.710056],[-74.145122,40.709503],[-74.140587,40.707678],[-74.137488,40.707064],[-74.136947,40.707062],[-74.137307,40.707228],[-74.136982,40.707282],[-74.133454,40.705926],[-74.13486,40.706232],[-74.134863,40.705573],[-74.135621,40.705548],[-74.142066,40.70771],[-74.141994,40.707627],[-74.141995,40.707517],[-74.135334,40.705163],[-74.135119,40.704915],[-74.134722,40.704942],[-74.134111,40.70461],[-74.130798,40.703557],[-74.129863,40.703114],[-74.129178,40.702975],[-74.128927,40.702809],[-74.127414,40.702475],[-74.12529,40.701727],[-74.116046,40.697297],[-74.117536,40.695169],[-74.1422,40.702824],[-74.149541,40.706195],[-74.149864,40.706443]],[[-74.134932,40.706232],[-74.134967,40.706315],[-74.135039,40.706315],[-74.134932,40.706232]],[[-74.135039,40.706315],[-74.135111,40.706343],[-74.135112,40.706315],[-74.135039,40.706315]],[[-74.135111,40.706343],[-74.135183,40.70637],[-74.135184,40.706343],[-74.135111,40.706343]],[[-74.142066,40.707655],[-74.142138,40.707765],[-74.142246,40.707738],[-74.142066,40.707655]],[[-74.142246,40.707738],[-74.142282,40.707793],[-74.142318,40.707738],[-74.142246,40.707738]],[[-74.142318,40.707765],[-74.14239,40.707793],[-74.14239,40.707766],[-74.142318,40.707765]],[[-74.142462,40.707793],[-74.142354,40.707848],[-74.142498,40.707903],[-74.142606,40.707876],[-74.142462,40.707793]],[[-74.142138,40.707655],[-74.142175,40.707628],[-74.142138,40.707627],[-74.142138,40.707655]],[[-74.14203,40.707627],[-74.142103,40.7076],[-74.14203,40.7076],[-74.14203,40.707627]],[[-74.135515,40.705164],[-74.135479,40.705136],[-74.135479,40.705164],[-74.135515,40.705164]],[[-74.129395,40.702948],[-74.130511,40.703309],[-74.129359,40.702893],[-74.129395,40.702948]],[[-74.130619,40.703309],[-74.130871,40.703474],[-74.130979,40.703475],[-74.130619,40.703309]],[[-74.130979,40.703475],[-74.131051,40.703503],[-74.131051,40.703475],[-74.130979,40.703475]],[[-74.131051,40.703503],[-74.131123,40.70353],[-74.131123,40.703503],[-74.131051,40.703503]],[[-74.131123,40.70353],[-74.131195,40.703558],[-74.131195,40.70353],[-74.131123,40.70353]],[[-74.131195,40.703558],[-74.131267,40.703586],[-74.131267,40.703558],[-74.131195,40.703558]],[[-74.131375,40.703586],[-74.131411,40.703668],[-74.131519,40.703669],[-74.131375,40.703586]],[[-74.131519,40.703669],[-74.131591,40.703696],[-74.131591,40.703669],[-74.131519,40.703669]],[[-74.131591,40.703696],[-74.131663,40.703724],[-74.131663,40.703697],[-74.131591,40.703696]],[[-74.131663,40.703724],[-74.131735,40.703752],[-74.131735,40.703724],[-74.131663,40.703724]],[[-74.131843,40.703752],[-74.131807,40.703807],[-74.131879,40.703807],[-74.131843,40.703752]],[[-74.131987,40.703807],[-74.132167,40.703945],[-74.132275,40.703946],[-74.131987,40.703807]],[[-74.132275,40.703946],[-74.132347,40.703973],[-74.132347,40.703946],[-74.132275,40.703946]],[[-74.132347,40.703973],[-74.132419,40.704001],[-74.132419,40.703974],[-74.132347,40.703973]],[[-74.132527,40.704001],[-74.132491,40.704056],[-74.132563,40.704056],[-74.132527,40.704001]],[[-74.129251,40.702893],[-74.129071,40.702755],[-74.128963,40.702755],[-74.129251,40.702893]],[[-74.128963,40.702755],[-74.128891,40.702727],[-74.128891,40.702754],[-74.128963,40.702755]],[[-74.128891,40.702727],[-74.128783,40.702672],[-74.128783,40.702727],[-74.128891,40.702727]],[[-74.129178,40.702948],[-74.129251,40.70292],[-74.129179,40.70292],[-74.129178,40.702948]],[[-74.149648,40.706333],[-74.149539,40.706442],[-74.14972,40.70647],[-74.14972,40.706333],[-74.149648,40.706333]]],[[[-74.129422,40.70465],[-74.129457,40.704678],[-74.129421,40.704678],[-74.129422,40.70465]]],[[[-74.129601,40.704815],[-74.129565,40.704788],[-74.129601,40.704788],[-74.129601,40.704815]]],[[[-74.13086,40.705396],[-74.130932,40.705451],[-74.13086,40.705451],[-74.13086,40.705396]]],[[[-74.130968,40.705479],[-74.130932,40.705451],[-74.130968,40.705451],[-74.130968,40.705479]]],[[[-74.133055,40.706474],[-74.133055,40.706446],[-74.133091,40.706446],[-74.133091,40.706474],[-74.133055,40.706474]]],[[[-74.133127,40.706501],[-74.133091,40.706474],[-74.133127,40.706474],[-74.133127,40.706501]]],[[[-74.133163,40.706529],[-74.133126,40.706529],[-74.133127,40.706501],[-74.133163,40.706501],[-74.133163,40.706529]]],[[[-74.133162,40.706556],[-74.133163,40.706529],[-74.133199,40.706529],[-74.133198,40.706556],[-74.133162,40.706556]]],[[[-74.133234,40.706584],[-74.133198,40.706556],[-74.133235,40.706556],[-74.133234,40.706584]]],[[[-74.133307,40.706584],[-74.13327,40.706639],[-74.133234,40.706584],[-74.133307,40.706584]]],[[[-74.139096,40.709869],[-74.144175,40.711312],[-74.144428,40.711176],[-74.145113,40.71137],[-74.139292,40.713658],[-74.136831,40.715132],[-74.13462,40.717102],[-74.133961,40.718802],[-74.134161,40.721739],[-74.133586,40.721408],[-74.133585,40.721518],[-74.132562,40.72382],[-74.131653,40.725135],[-74.131688,40.725382],[-74.130381,40.726778],[-74.128172,40.728281],[-74.12817,40.728638],[-74.128026,40.728637],[-74.12799,40.72861],[-74.128098,40.7285],[-74.12745,40.728251],[-74.126657,40.728166],[-74.125897,40.72863],[-74.126872,40.728414],[-74.127772,40.728829],[-74.127804,40.72946],[-74.126753,40.730445],[-74.127547,40.730392],[-74.127943,40.730586],[-74.127797,40.730778],[-74.129132,40.730754],[-74.129635,40.73125],[-74.129523,40.731826],[-74.127568,40.733055],[-74.128653,40.732619],[-74.127711,40.733248],[-74.124456,40.734665],[-74.125296,40.732828],[-74.126604,40.731268],[-74.126569,40.730993],[-74.12639,40.730746],[-74.124609,40.733046],[-74.124429,40.732963],[-74.124832,40.731893],[-74.12512,40.731922],[-74.124869,40.731756],[-74.124942,40.731509],[-74.124362,40.732002],[-74.123706,40.733262],[-74.123371,40.734936],[-74.120772,40.735064],[-74.117414,40.734916],[-74.117827,40.732502],[-74.120206,40.733086],[-74.120672,40.733609],[-74.120452,40.734212],[-74.120742,40.734131],[-74.121029,40.734434],[-74.120486,40.734652],[-74.120883,40.734735],[-74.122075,40.734382],[-74.123132,40.732519],[-74.122808,40.732463],[-74.122337,40.732791],[-74.121434,40.732925],[-74.121218,40.73287],[-74.121327,40.732678],[-74.121292,40.732458],[-74.121219,40.732678],[-74.120424,40.732895],[-74.117863,40.73231],[-74.120642,40.722955],[-74.120962,40.720012],[-74.120551,40.717436],[-74.116105,40.709156],[-74.114309,40.704609],[-74.114097,40.702284],[-74.114315,40.700569],[-74.116009,40.69736],[-74.122591,40.700565],[-74.128416,40.703878],[-74.129422,40.704623],[-74.129422,40.70465],[-74.129313,40.70465],[-74.129277,40.704622],[-74.129349,40.70476],[-74.130177,40.705009],[-74.131615,40.705975],[-74.130968,40.705506],[-74.13104,40.705479],[-74.133448,40.707106],[-74.133663,40.707299],[-74.133409,40.70771],[-74.133624,40.707848],[-74.133951,40.707437],[-74.137298,40.708957],[-74.136865,40.708819],[-74.136829,40.708846],[-74.136757,40.708846],[-74.136577,40.708763],[-74.136505,40.708845],[-74.134921,40.708209],[-74.134884,40.708264],[-74.139096,40.709869]],[[-74.133549,40.721518],[-74.133514,40.721463],[-74.133513,40.721518],[-74.133549,40.721518]],[[-74.131507,40.725519],[-74.131471,40.725464],[-74.131471,40.725519],[-74.131507,40.725519]],[[-74.128098,40.72861],[-74.128134,40.728583],[-74.128098,40.728583],[-74.128098,40.72861]],[[-74.126753,40.730445],[-74.126716,40.730472],[-74.126752,40.730472],[-74.126753,40.730445]],[[-74.12764,40.733083],[-74.127676,40.73311],[-74.127676,40.733083],[-74.12764,40.733083]],[[-74.126569,40.730993],[-74.126605,40.730966],[-74.126569,40.730966],[-74.126569,40.730993]],[[-74.124941,40.731729],[-74.124978,40.731674],[-74.124941,40.731674],[-74.124941,40.731729]],[[-74.124978,40.731674],[-74.125014,40.731647],[-74.124978,40.731647],[-74.124978,40.731674]],[[-74.120487,40.734569],[-74.120451,40.734542],[-74.12045,40.734569],[-74.120487,40.734569]],[[-74.12288,40.732464],[-74.122917,40.732409],[-74.12288,40.732409],[-74.12288,40.732464]],[[-74.122917,40.732409],[-74.122953,40.732354],[-74.122917,40.732354],[-74.122917,40.732409]],[[-74.122953,40.732354],[-74.122989,40.732299],[-74.122953,40.732299],[-74.122953,40.732354]],[[-74.129493,40.704843],[-74.129456,40.70487],[-74.129492,40.70487],[-74.129493,40.704843]],[[-74.129925,40.705009],[-74.12996,40.705036],[-74.129961,40.705009],[-74.129925,40.705009]],[[-74.12996,40.705036],[-74.129996,40.705064],[-74.129997,40.705036],[-74.12996,40.705036]],[[-74.129996,40.705064],[-74.130068,40.705146],[-74.130032,40.705064],[-74.129996,40.705064]],[[-74.130068,40.705146],[-74.130104,40.705174],[-74.130104,40.705146],[-74.130068,40.705146]],[[-74.130104,40.705174],[-74.13014,40.705202],[-74.13014,40.705174],[-74.130104,40.705174]],[[-74.13014,40.705202],[-74.130176,40.705229],[-74.130176,40.705202],[-74.13014,40.705202]],[[-74.130176,40.705229],[-74.130212,40.705257],[-74.130212,40.705229],[-74.130176,40.705229]],[[-74.130212,40.705257],[-74.130248,40.705284],[-74.130248,40.705257],[-74.130212,40.705257]],[[-74.130284,40.705284],[-74.130283,40.705367],[-74.130355,40.705367],[-74.130284,40.705284]],[[-74.130355,40.705367],[-74.130427,40.705449],[-74.130391,40.705367],[-74.130355,40.705367]],[[-74.133519,40.707244],[-74.133483,40.707271],[-74.133519,40.707271],[-74.133519,40.707244]],[[-74.133877,40.707739],[-74.133841,40.707794],[-74.133913,40.707794],[-74.133877,40.707739]],[[-74.133913,40.707794],[-74.133985,40.707849],[-74.133985,40.707794],[-74.133913,40.707794]],[[-74.138988,40.709896],[-74.138952,40.709868],[-74.138952,40.709896],[-74.138988,40.709896]],[[-74.138988,40.709924],[-74.138952,40.709951],[-74.138988,40.709951],[-74.138988,40.709924]]],[[[-74.132301,40.725357],[-74.132337,40.725384],[-74.132301,40.725412],[-74.132301,40.725357]]],[[[-74.132229,40.725439],[-74.132301,40.725467],[-74.132229,40.725494],[-74.132229,40.725439]]],[[[-74.132229,40.725494],[-74.132192,40.725549],[-74.132192,40.725494],[-74.132229,40.725494]]],[[[-74.13201,40.725795],[-74.131975,40.72574],[-74.132011,40.72574],[-74.13201,40.725795]]],[[[-74.131938,40.725795],[-74.131974,40.725822],[-74.131938,40.725822],[-74.131938,40.725795]]],[[[-74.131938,40.725822],[-74.131902,40.725877],[-74.131902,40.725822],[-74.131938,40.725822]]],[[[-74.131902,40.725877],[-74.131865,40.725904],[-74.131866,40.725877],[-74.131902,40.725877]]],[[[-74.131829,40.725904],[-74.131865,40.725959],[-74.131829,40.725959],[-74.131829,40.725904]]],[[[-74.131829,40.725959],[-74.131793,40.725987],[-74.131793,40.725959],[-74.131829,40.725959]]],[[[-74.131067,40.726725],[-74.131103,40.726698],[-74.131103,40.726726],[-74.131067,40.726725]]],[[[-74.131031,40.726725],[-74.131067,40.726753],[-74.131031,40.726753],[-74.131031,40.726725]]],[[[-74.131031,40.726753],[-74.130995,40.726808],[-74.130995,40.726753],[-74.131031,40.726753]]],[[[-74.130995,40.726808],[-74.130958,40.726835],[-74.130958,40.726807],[-74.130995,40.726808]]],[[[-74.130922,40.726835],[-74.130958,40.726862],[-74.130922,40.726862],[-74.130922,40.726835]]],[[[-74.130922,40.726862],[-74.130886,40.72689],[-74.130886,40.726862],[-74.130922,40.726862]]],[[[-74.130886,40.72689],[-74.130849,40.726944],[-74.13085,40.726889],[-74.130886,40.72689]]],[[[-74.130849,40.726944],[-74.130813,40.726972],[-74.130813,40.726944],[-74.130849,40.726944]]],[[[-74.130813,40.726972],[-74.130777,40.726999],[-74.130777,40.726972],[-74.130813,40.726972]]],[[[-74.128278,40.728748],[-74.12817,40.728638],[-74.128206,40.728638],[-74.128278,40.728748]]],[[[-74.127844,40.728774],[-74.127881,40.728719],[-74.12788,40.728774],[-74.127844,40.728774]]],[[[-74.127917,40.728774],[-74.12788,40.728801],[-74.12788,40.728774],[-74.127917,40.728774]]],[[[-74.127916,40.728802],[-74.12806,40.728912],[-74.127952,40.728939],[-74.127916,40.728802]]],[[[-74.128889,40.729052],[-74.12842,40.729105],[-74.129101,40.729821],[-74.129135,40.730343],[-74.128593,40.730451],[-74.128379,40.730038],[-74.128376,40.730477],[-74.127114,40.730254],[-74.127876,40.729543],[-74.127988,40.728966],[-74.129001,40.728448],[-74.12871,40.728859],[-74.128889,40.729052]],[[-74.128817,40.728997],[-74.128781,40.729024],[-74.128817,40.729024],[-74.128817,40.728997]]],[[[-74.127042,40.730254],[-74.127079,40.730226],[-74.127078,40.730254],[-74.127042,40.730254]]],[[[-74.132632,40.730875],[-74.132704,40.730931],[-74.132595,40.730958],[-74.132632,40.730875]]],[[[-74.126497,40.730993],[-74.126533,40.731021],[-74.126497,40.73102],[-74.126497,40.730993]]],[[[-74.126461,40.731048],[-74.126424,40.731075],[-74.126424,40.731048],[-74.126461,40.731048]]],[[[-74.126533,40.731075],[-74.12646,40.73113],[-74.12646,40.731075],[-74.126533,40.731075]]],[[[-74.126459,40.731295],[-74.126423,40.731322],[-74.126423,40.731295],[-74.126459,40.731295]]],[[[-74.124869,40.731756],[-74.124833,40.731784],[-74.124833,40.731756],[-74.124869,40.731756]]],[[[-74.12306,40.732519],[-74.123024,40.732546],[-74.123024,40.732519],[-74.12306,40.732519]]],[[[-74.121066,40.734187],[-74.121358,40.733529],[-74.120997,40.73361],[-74.121034,40.733473],[-74.121792,40.733448],[-74.121145,40.733062],[-74.122662,40.732792],[-74.122223,40.733861],[-74.121752,40.734217],[-74.121066,40.734187]]],[[[-74.122477,40.733588],[-74.122441,40.733533],[-74.122477,40.733533],[-74.122477,40.733588]]],[[[-74.122405,40.733587],[-74.12244,40.733642],[-74.122404,40.733642],[-74.122405,40.733587]]],[[[-74.122404,40.733642],[-74.122368,40.733725],[-74.122368,40.733642],[-74.122404,40.733642]]],[[[-74.122368,40.733725],[-74.122331,40.733779],[-74.122332,40.733724],[-74.122368,40.733725]]],[[[-74.122295,40.733779],[-74.122331,40.733834],[-74.122295,40.733834],[-74.122295,40.733779]]],[[[-74.124245,40.733539],[-74.124461,40.733622],[-74.124058,40.734773],[-74.123805,40.734827],[-74.124245,40.733539]]],[[[-74.126225,40.734423],[-74.126189,40.734396],[-74.126225,40.734396],[-74.126225,40.734423]]],[[[-74.126189,40.734423],[-74.125863,40.734697],[-74.125755,40.734669],[-74.126189,40.734423]]],[[[-74.124344,40.735323],[-74.124308,40.735296],[-74.124344,40.735296],[-74.124344,40.735323]]],[[[-74.124382,40.734939],[-74.126082,40.734286],[-74.125032,40.734749],[-74.125754,40.734779],[-74.124848,40.735544],[-74.124192,40.736558],[-74.12438,40.735323],[-74.124382,40.734939]]],[[[-74.123719,40.737352],[-74.123768,40.734964],[-74.124021,40.734938],[-74.123719,40.737352]]],[[[-74.120483,40.735201],[-74.123407,40.735073],[-74.123245,40.738092],[-74.121024,40.741608],[-74.118693,40.740495],[-74.117753,40.739422],[-74.117243,40.737612],[-74.117393,40.735053],[-74.120483,40.735201]]],[[[-74.1236,40.739191],[-74.123157,40.740892],[-74.123048,40.741028],[-74.123453,40.739657],[-74.123609,40.737681],[-74.123754,40.737517],[-74.1236,40.739191]]],[[[-74.121132,40.741646],[-74.121969,40.740366],[-74.123208,40.738366],[-74.123055,40.739821],[-74.122357,40.741987],[-74.121132,40.741646]]]]}}]}