{"type":"FeatureCollection","features":[{"type":"Feature","properties":{"level_ft":17},"geometry":{"type":"MultiPolygon","coordinates":[[[[-74.096344,40.680959],[-74.09638,40.680987],[-74.096343,40.680987],[-74.096344,40.680959]]],[[[-74.097208,40.681155],[-74.097244,40.681182],[-74.097208,40.681182],[-74.097208,40.681155]]],[[[-74.098277,40.683245],[-74.098313,40.683217],[-74.098313,40.683245],[-74.098277,40.683245]]],[[[-74.096865,40.684228],[-74.096901,40.684201],[-74.096901,40.684228],[-74.096865,40.684228]]],[[[-74.096356,40.684857],[-74.09632,40.68483],[-74.096356,40.68483],[-74.096356,40.684857]]],[[[-74.098379,40.684233],[-74.097697,40.683737],[-74.096788,40.685024],[-74.096572,40.684886],[-74.096027,40.68568],[-74.095738,40.685706],[-74.098714,40.682258],[-74.098837,40.682588],[-74.098495,40.683053],[-74.09835,40.68308],[-74.098205,40.683299],[-74.098457,40.683273],[-74.098878,40.682698],[-74.100026,40.686284],[-74.099592,40.686488],[-74.099806,40.686791],[-74.100095,40.686737],[-74.099877,40.686956],[-74.10009,40.687533],[-74.098797,40.686705],[-74.098835,40.686431],[-74.097938,40.685659],[-74.097978,40.685],[-74.09769,40.684972],[-74.098379,40.684233]],[[-74.098057,40.683903],[-74.098093,40.683875],[-74.098057,40.683875],[-74.098057,40.683903]],[[-74.097985,40.683765],[-74.098057,40.683793],[-74.098058,40.683738],[-74.097985,40.683765]],[[-74.098058,40.683738],[-74.098094,40.683711],[-74.098058,40.68371],[-74.098058,40.683738]],[[-74.098379,40.684206],[-74.098416,40.684178],[-74.09838,40.684178],[-74.098379,40.684206]]],[[[-74.096098,40.685872],[-74.095774,40.685789],[-74.096098,40.68579],[-74.096098,40.685872]]],[[[-74.095375,40.686089],[-74.095266,40.686171],[-74.095267,40.686116],[-74.095375,40.686089]]],[[[-74.095915,40.686201],[-74.09552,40.686062],[-74.095988,40.686119],[-74.095915,40.686201]]],[[[-74.095339,40.686172],[-74.095302,40.686199],[-74.095302,40.686171],[-74.095339,40.686172]]],[[[-74.095194,40.686226],[-74.095266,40.686171],[-74.095302,40.686254],[-74.095194,40.686226]]],[[[-74.094833,40.686225],[-74.094544,40.686443],[-74.0944,40.686388],[-74.09469,40.686087],[-74.095123,40.686061],[-74.094868,40.686389],[-74.094833,40.686225]],[[-74.094472,40.686388],[-74.094508,40.686361],[-74.094472,40.686361],[-74.094472,40.686388]],[[-74.094508,40.686361],[-74.09458,40.686306],[-74.094544,40.686306],[-74.094508,40.686361]],[[-74.094798,40.686115],[-74.094762,40.686142],[-74.094798,40.686142],[-74.094798,40.686115]],[[-74.094762,40.686142],[-74.094726,40.686169],[-74.094762,40.686169],[-74.094762,40.686142]],[[-74.094726,40.686169],[-74.094689,40.686197],[-74.094725,40.686197],[-74.094726,40.686169]],[[-74.094689,40.686197],[-74.094653,40.686224],[-74.094689,40.686224],[-74.094689,40.686197]],[[-74.094653,40.686224],[-74.094617,40.686251],[-74.094653,40.686251],[-74.094653,40.686224]],[[-74.094798,40.686142],[-74.094834,40.68617],[-74.094834,40.686142],[-74.094798,40.686142]],[[-74.094833,40.686225],[-74.09487,40.686197],[-74.094834,40.686197],[-74.094833,40.686225]]],[[[-74.09523,40.686308],[-74.095085,40.68628],[-74.095194,40.686226],[-74.09523,40.686308]]],[[[-74.095049,40.686335],[-74.095085,40.686363],[-74.095049,40.686363],[-74.095049,40.686335]]],[[[-74.095085,40.686363],[-74.095121,40.68639],[-74.095085,40.68639],[-74.095085,40.686363]]],[[[-74.095013,40.686363],[-74.095049,40.68639],[-74.095013,40.68639],[-74.095013,40.686363]]],[[[-74.095085,40.68639],[-74.095049,40.686418],[-74.095049,40.68639],[-74.095085,40.68639]]],[[[-74.09476,40.686417],[-74.094796,40.686389],[-74.094796,40.686417],[-74.09476,40.686417]]],[[[-74.094868,40.686527],[-74.094795,40.686581],[-74.094977,40.68639],[-74.095049,40.686418],[-74.094976,40.686555],[-74.094868,40.686527]],[[-74.094976,40.6865],[-74.09494,40.686472],[-74.09494,40.6865],[-74.094976,40.6865]]],[[[-74.094688,40.686444],[-74.094723,40.686526],[-74.094651,40.686526],[-74.094688,40.686444]]],[[[-74.094867,40.686554],[-74.094903,40.686582],[-74.094867,40.686582],[-74.094867,40.686554]]],[[[-74.094831,40.686581],[-74.094867,40.686609],[-74.094831,40.686609],[-74.094831,40.686581]]],[[[-74.094218,40.686579],[-74.094182,40.686607],[-74.094182,40.686579],[-74.094218,40.686579]]],[[[-74.094795,40.686609],[-74.094795,40.686664],[-74.094759,40.686581],[-74.094795,40.686609]]],[[[-74.094218,40.686607],[-74.09429,40.686689],[-74.094218,40.686689],[-74.094218,40.686607]]],[[[-74.098725,40.68676],[-74.098976,40.686953],[-74.098724,40.686815],[-74.098725,40.68676]]],[[[-74.094001,40.686798],[-74.094072,40.686881],[-74.093964,40.686853],[-74.094001,40.686798]]],[[[-74.094216,40.686936],[-74.09418,40.686909],[-74.094216,40.686909],[-74.094216,40.686936]]],[[[-74.094396,40.686992],[-74.094288,40.686964],[-74.094396,40.686964],[-74.094396,40.686992]]],[[[-74.094071,40.687018],[-74.094035,40.687045],[-74.094035,40.687018],[-74.094071,40.687018]]],[[[-74.094035,40.687045],[-74.093999,40.687073],[-74.093999,40.687045],[-74.094035,40.687045]]],[[[-74.093999,40.687073],[-74.093963,40.6871],[-74.093963,40.687073],[-74.093999,40.687073]]],[[[-74.094107,40.687101],[-74.094215,40.687073],[-74.094107,40.687155],[-74.094107,40.687101]]],[[[-74.09407,40.687155],[-74.094106,40.687183],[-74.09407,40.687183],[-74.09407,40.687155]]],[[[-74.094034,40.687183],[-74.09407,40.68721],[-74.094034,40.68721],[-74.094034,40.687183]]],[[[-74.094034,40.68721],[-74.093998,40.687237],[-74.093998,40.68721],[-74.094034,40.68721]]],[[[-74.098579,40.687006],[-74.098758,40.687227],[-74.098323,40.687527],[-74.098289,40.687252],[-74.098579,40.687006]]],[[[-74.093998,40.687292],[-74.093926,40.687265],[-74.093998,40.687237],[-74.093998,40.687292]]],[[[-74.093889,40.687292],[-74.093925,40.687319],[-74.093889,40.687319],[-74.093889,40.687292]]],[[[-74.093853,40.687319],[-74.093889,40.687347],[-74.093853,40.687347],[-74.093853,40.687319]]],[[[-74.093708,40.687456],[-74.093781,40.687374],[-74.093853,40.687347],[-74.093708,40.687456]]],[[[-74.093708,40.687511],[-74.093636,40.687483],[-74.093708,40.687456],[-74.093708,40.687511]]],[[[-74.093599,40.687593],[-74.093418,40.687647],[-74.093599,40.687538],[-74.093599,40.687593]]],[[[-74.093382,40.687702],[-74.093418,40.687729],[-74.093382,40.687729],[-74.093382,40.687702]]],[[[-74.093382,40.687729],[-74.093346,40.687757],[-74.093346,40.687729],[-74.093382,40.687729]]],[[[-74.093346,40.687757],[-74.093309,40.687784],[-74.09331,40.687757],[-74.093346,40.687757]]],[[[-74.093273,40.687784],[-74.093309,40.687811],[-74.093273,40.687811],[-74.093273,40.687784]]],[[[-74.093273,40.687811],[-74.093201,40.687866],[-74.093201,40.687811],[-74.093273,40.687811]]],[[[-74.093165,40.687866],[-74.093201,40.687893],[-74.093164,40.687893],[-74.093165,40.687866]]],[[[-74.09499,40.725918],[-74.096104,40.726553],[-74.098962,40.727552],[-74.097897,40.73072],[-74.095303,40.735005],[-74.090421,40.735455],[-74.089413,40.735094],[-74.088507,40.73575],[-74.086628,40.73599],[-74.085909,40.735576],[-74.085332,40.735629],[-74.083604,40.734881],[-74.084611,40.735516],[-74.085403,40.735711],[-74.085941,40.736207],[-74.075789,40.738119],[-74.072762,40.73734],[-74.073232,40.737177],[-74.07291,40.736846],[-74.073817,40.736108],[-74.074574,40.736166],[-74.074684,40.735947],[-74.07519,40.735811],[-74.075333,40.735977],[-74.075877,40.735622],[-74.076426,40.734389],[-74.075598,40.734029],[-74.075961,40.733701],[-74.075421,40.733506],[-74.075494,40.733315],[-74.075133,40.733396],[-74.075064,40.732929],[-74.075715,40.732712],[-74.075826,40.732328],[-74.076583,40.73233],[-74.077013,40.732854],[-74.077519,40.732718],[-74.078021,40.733159],[-74.078924,40.733108],[-74.078781,40.732915],[-74.07958,40.732012],[-74.080159,40.731822],[-74.08067,40.73089],[-74.080708,40.730506],[-74.079989,40.730174],[-74.080679,40.729381],[-74.080428,40.729133],[-74.080433,40.728337],[-74.081048,40.728174],[-74.082452,40.728619],[-74.083249,40.72821],[-74.082675,40.727631],[-74.081772,40.72771],[-74.081957,40.726997],[-74.081242,40.726034],[-74.081209,40.725485],[-74.082005,40.725103],[-74.082229,40.723979],[-74.082702,40.723349],[-74.083968,40.722805],[-74.083826,40.722392],[-74.084043,40.722366],[-74.083792,40.72209],[-74.083431,40.722171],[-74.083506,40.721705],[-74.084012,40.721597],[-74.083544,40.721321],[-74.083799,40.72091],[-74.084593,40.720885],[-74.084848,40.720584],[-74.085353,40.720531],[-74.084888,40.719898],[-74.085827,40.719792],[-74.085611,40.719599],[-74.085974,40.719353],[-74.086226,40.719436],[-74.086698,40.718944],[-74.086738,40.71834],[-74.087278,40.718479],[-74.087423,40.718288],[-74.087891,40.718536],[-74.088434,40.718154],[-74.088794,40.71832],[-74.088977,40.717991],[-74.088762,40.717689],[-74.089122,40.717772],[-74.089377,40.717499],[-74.08891,40.71703],[-74.089271,40.717059],[-74.089525,40.716758],[-74.088987,40.716317],[-74.089494,40.716044],[-74.089097,40.715988],[-74.088956,40.715493],[-74.088415,40.715409],[-74.088597,40.715218],[-74.087841,40.714858],[-74.087986,40.714749],[-74.087879,40.714611],[-74.088529,40.714449],[-74.08831,40.714887],[-74.08896,40.714862],[-74.089786,40.715441],[-74.09076,40.715417],[-74.0899,40.714563],[-74.089682,40.714782],[-74.089285,40.714753],[-74.089756,40.714453],[-74.089794,40.714206],[-74.089468,40.714287],[-74.089615,40.713876],[-74.090192,40.71396],[-74.090124,40.713247],[-74.090702,40.713111],[-74.090489,40.712507],[-74.091034,40.712015],[-74.090819,40.711739],[-74.091107,40.711795],[-74.091398,40.711467],[-74.091327,40.711302],[-74.090385,40.71182],[-74.090749,40.7113],[-74.090534,40.711052],[-74.09104,40.710999],[-74.090574,40.710558],[-74.090542,40.709872],[-74.091512,40.710397],[-74.091443,40.709985],[-74.092345,40.709988],[-74.09307,40.709277],[-74.092604,40.708836],[-74.092642,40.708479],[-74.092967,40.708453],[-74.092864,40.707711],[-74.093261,40.707575],[-74.093336,40.707136],[-74.094206,40.706426],[-74.094893,40.706209],[-74.094499,40.705741],[-74.095004,40.70566],[-74.094934,40.705276],[-74.095369,40.704948],[-74.095482,40.704262],[-74.095987,40.704126],[-74.095811,40.703549],[-74.096351,40.703579],[-74.096609,40.702701],[-74.097006,40.702702],[-74.097082,40.701989],[-74.097516,40.701881],[-74.097735,40.701442],[-74.098132,40.701389],[-74.097917,40.701168],[-74.098749,40.700732],[-74.098969,40.700156],[-74.098683,40.699689],[-74.099408,40.69917],[-74.099954,40.698321],[-74.100351,40.698267],[-74.100099,40.698102],[-74.100174,40.697608],[-74.100825,40.697363],[-74.101009,40.696787],[-74.101441,40.696843],[-74.1013,40.696349],[-74.101807,40.695939],[-74.101454,40.694647],[-74.101818,40.69421],[-74.102456,40.694596],[-74.102852,40.695432],[-74.114232,40.700952],[-74.114309,40.704609],[-74.116408,40.709735],[-74.113869,40.712314],[-74.110167,40.715375],[-74.10747,40.717075],[-74.102976,40.71933],[-74.10177,40.720231],[-74.100089,40.722867],[-74.099011,40.727277],[-74.097078,40.726667],[-74.095135,40.725727],[-74.09499,40.725918]],[[-74.085353,40.720531],[-74.085389,40.720559],[-74.085389,40.720531],[-74.085353,40.720531]],[[-74.088491,40.714915],[-74.088526,40.714943],[-74.088527,40.714915],[-74.088491,40.714915]],[[-74.08965,40.714096],[-74.089686,40.714123],[-74.089686,40.714096],[-74.08965,40.714096]],[[-74.091399,40.711302],[-74.091435,40.711275],[-74.091399,40.711275],[-74.091399,40.711302]],[[-74.090684,40.710174],[-74.09072,40.710147],[-74.090684,40.710147],[-74.090684,40.710174]],[[-74.094955,40.725753],[-74.094991,40.725726],[-74.094955,40.725699],[-74.094955,40.725753]]],[[[-74.088099,40.684801],[-74.088063,40.684773],[-74.088099,40.684773],[-74.088099,40.684801]]],[[[-74.088099,40.684828],[-74.088135,40.684801],[-74.088135,40.684828],[-74.088099,40.684828]]],[[[-74.088207,40.684856],[-74.088171,40.684829],[-74.088207,40.684829],[-74.088207,40.684856]]],[[[-74.088278,40.684911],[-74.088315,40.684884],[-74.088315,40.684911],[-74.088278,40.684911]]],[[[-74.088386,40.684967],[-74.088423,40.684939],[-74.088422,40.684967],[-74.088386,40.684967]]],[[[-74.088962,40.685243],[-74.088926,40.685216],[-74.088962,40.685216],[-74.088962,40.685243]]],[[[-74.089645,40.685493],[-74.089681,40.685465],[-74.089681,40.685493],[-74.089645,40.685493]]],[[[-74.089284,40.685629],[-74.08932,40.685656],[-74.089284,40.685656],[-74.089284,40.685629]]],[[[-74.08903,40.685792],[-74.089067,40.685765],[-74.089066,40.685793],[-74.08903,40.685792]]],[[[-74.088994,40.685847],[-74.08903,40.68582],[-74.08903,40.685847],[-74.088994,40.685847]]],[[[-74.089779,40.687113],[-74.089708,40.686975],[-74.090286,40.686867],[-74.090141,40.686977],[-74.089779,40.687113]]],[[[-74.093855,40.686935],[-74.093709,40.687319],[-74.09197,40.68863],[-74.093094,40.687646],[-74.092914,40.687563],[-74.093204,40.687289],[-74.093855,40.686935]],[[-74.093566,40.687154],[-74.093529,40.687181],[-74.093565,40.687181],[-74.093566,40.687154]],[[-74.093529,40.687236],[-74.093457,40.687208],[-74.093457,40.687235],[-74.093529,40.687236]],[[-74.093456,40.687318],[-74.093385,40.687263],[-74.093384,40.687318],[-74.093456,40.687318]]],[[[-74.093164,40.687893],[-74.093128,40.687921],[-74.093128,40.687893],[-74.093164,40.687893]]],[[[-74.093128,40.687921],[-74.093092,40.687948],[-74.093092,40.68792],[-74.093128,40.687921]]],[[[-74.093056,40.687948],[-74.093092,40.687975],[-74.093056,40.687975],[-74.093056,40.687948]]],[[[-74.09302,40.687975],[-74.093056,40.688003],[-74.09302,40.688003],[-74.09302,40.687975]]],[[[-74.092334,40.688055],[-74.09237,40.688137],[-74.092334,40.688137],[-74.092334,40.688055]]],[[[-74.093019,40.688057],[-74.092693,40.688276],[-74.09302,40.688003],[-74.093019,40.688057]]],[[[-74.092548,40.688385],[-74.092476,40.688385],[-74.092693,40.688276],[-74.092548,40.688385]]],[[[-74.09244,40.68844],[-74.092476,40.688467],[-74.09244,40.688467],[-74.09244,40.68844]]],[[[-74.092404,40.688467],[-74.09244,40.688495],[-74.092403,40.688494],[-74.092404,40.688467]]],[[[-74.092367,40.688494],[-74.092403,40.688522],[-74.092367,40.688522],[-74.092367,40.688494]]],[[[-74.092367,40.688522],[-74.092331,40.688549],[-74.092331,40.688522],[-74.092367,40.688522]]],[[[-74.092331,40.688549],[-74.092295,40.688576],[-74.092295,40.688549],[-74.092331,40.688549]]],[[[-74.092259,40.688576],[-74.092295,40.688604],[-74.092259,40.688604],[-74.092259,40.688576]]],[[[-74.092223,40.688604],[-74.092258,40.688631],[-74.092222,40.688631],[-74.092223,40.688604]]],[[[-74.092186,40.688631],[-74.092222,40.688659],[-74.092186,40.688658],[-74.092186,40.688631]]],[[[-74.091862,40.688657],[-74.09197,40.68863],[-74.091861,40.688712],[-74.091862,40.688657]]],[[[-74.092186,40.688713],[-74.091933,40.68885],[-74.092186,40.688658],[-74.092186,40.688713]]],[[[-74.091861,40.688712],[-74.091571,40.688958],[-74.091535,40.688958],[-74.091608,40.688849],[-74.091861,40.688712]]],[[[-74.091499,40.688958],[-74.091535,40.688986],[-74.091499,40.688985],[-74.091499,40.688958]]],[[[-74.091499,40.688985],[-74.091463,40.689013],[-74.091463,40.688985],[-74.091499,40.688985]]],[[[-74.091463,40.689013],[-74.090774,40.689587],[-74.090702,40.689586],[-74.091463,40.689013]]],[[[-74.09063,40.689614],[-74.090702,40.689641],[-74.090629,40.689669],[-74.09063,40.689614]]],[[[-74.090593,40.689668],[-74.090629,40.689696],[-74.090593,40.689696],[-74.090593,40.689668]]],[[[-74.09052,40.689778],[-74.090485,40.68975],[-74.090521,40.689751],[-74.09052,40.689778]]],[[[-74.090412,40.689805],[-74.090448,40.689833],[-74.090412,40.689832],[-74.090412,40.689805]]],[[[-74.090376,40.689832],[-74.090412,40.68986],[-74.090376,40.68986],[-74.090376,40.689832]]],[[[-74.090339,40.689915],[-74.090303,40.689887],[-74.090339,40.689887],[-74.090339,40.689915]]],[[[-74.088926,40.69098],[-74.08889,40.690953],[-74.088926,40.690953],[-74.088926,40.69098]]],[[[-74.088601,40.691034],[-74.088855,40.690925],[-74.088601,40.691116],[-74.088601,40.691034]]],[[[-74.088781,40.691089],[-74.088818,40.691062],[-74.088817,40.69109],[-74.088781,40.691089]]],[[[-74.088709,40.691144],[-74.088673,40.691116],[-74.088709,40.691117],[-74.088709,40.691144]]],[[[-74.088021,40.691636],[-74.088057,40.691663],[-74.088021,40.691663],[-74.088021,40.691636]]],[[[-74.087984,40.691663],[-74.08802,40.691691],[-74.087984,40.69169],[-74.087984,40.691663]]],[[[-74.087585,40.692101],[-74.087549,40.692073],[-74.087585,40.692073],[-74.087585,40.692101]]],[[[-74.087549,40.692128],[-74.087513,40.692101],[-74.087549,40.692101],[-74.087549,40.692128]]],[[[-74.087914,40.714748],[-74.087878,40.714776],[-74.087878,40.714748],[-74.087914,40.714748]]],[[[-74.088794,40.735998],[-74.088469,40.735997],[-74.088433,40.735887],[-74.088795,40.735833],[-74.088794,40.735998]]],[[[-74.087673,40.736241],[-74.087277,40.736102],[-74.087639,40.736049],[-74.087673,40.736241]]],[[[-74.083423,40.682945],[-74.083459,40.682918],[-74.083459,40.682945],[-74.083423,40.682945]]],[[[-74.084106,40.683194],[-74.084142,40.683167],[-74.084142,40.683195],[-74.084106,40.683194]]],[[[-74.084286,40.68325],[-74.08425,40.683222],[-74.084286,40.683223],[-74.084286,40.68325]]],[[[-74.08425,40.683277],[-74.084214,40.68325],[-74.08425,40.68325],[-74.08425,40.683277]]],[[[-74.084754,40.683416],[-74.08479,40.683389],[-74.08479,40.683416],[-74.084754,40.683416]]],[[[-74.084826,40.683444],[-74.084862,40.683417],[-74.084862,40.683444],[-74.084826,40.683444]]],[[[-74.085006,40.6835],[-74.08497,40.683472],[-74.085006,40.683472],[-74.085006,40.6835]]],[[[-74.085078,40.683527],[-74.085042,40.6835],[-74.085078,40.6835],[-74.085078,40.683527]]],[[[-74.08515,40.683555],[-74.085114,40.683527],[-74.08515,40.683528],[-74.08515,40.683555]]],[[[-74.085186,40.683583],[-74.085222,40.683555],[-74.085222,40.683583],[-74.085186,40.683583]]],[[[-74.085257,40.68361],[-74.085294,40.683583],[-74.085294,40.68361],[-74.085257,40.68361]]],[[[-74.085473,40.683693],[-74.08551,40.683666],[-74.085509,40.683694],[-74.085473,40.683693]]],[[[-74.085581,40.683721],[-74.085545,40.683694],[-74.085582,40.683694],[-74.085581,40.683721]]],[[[-74.086984,40.684303],[-74.08702,40.684275],[-74.08702,40.684303],[-74.086984,40.684303]]],[[[-74.087164,40.684386],[-74.0872,40.684358],[-74.0872,40.684386],[-74.087164,40.684386]]],[[[-74.086023,40.688033],[-74.085951,40.688005],[-74.086024,40.688005],[-74.086023,40.688033]]],[[[-74.086951,40.68971],[-74.086915,40.689683],[-74.086951,40.689683],[-74.086951,40.68971]]],[[[-74.086152,40.690613],[-74.08695,40.689738],[-74.087457,40.689547],[-74.087346,40.689904],[-74.087743,40.689905],[-74.087596,40.690399],[-74.086331,40.690779],[-74.086152,40.690613]]],[[[-74.085389,40.691407],[-74.085281,40.691379],[-74.08539,40.691324],[-74.085389,40.691407]]],[[[-74.085281,40.691516],[-74.085173,40.691488],[-74.085281,40.691434],[-74.085281,40.691516]]],[[[-74.084955,40.691707],[-74.085172,40.691543],[-74.084955,40.691762],[-74.084955,40.691707]]],[[[-74.087513,40.692155],[-74.087477,40.692128],[-74.087513,40.692128],[-74.087513,40.692155]]],[[[-74.087476,40.692183],[-74.08744,40.692155],[-74.087477,40.692155],[-74.087476,40.692183]]],[[[-74.087404,40.69221],[-74.08744,40.692183],[-74.08744,40.69221],[-74.087404,40.69221]]],[[[-74.087439,40.692402],[-74.087475,40.692375],[-74.087475,40.692402],[-74.087439,40.692402]]],[[[-74.087403,40.69243],[-74.087366,40.692457],[-74.087367,40.692429],[-74.087403,40.69243]]],[[[-74.08733,40.692457],[-74.087366,40.692484],[-74.08733,40.692484],[-74.08733,40.692457]]],[[[-74.087294,40.692484],[-74.08733,40.692512],[-74.087294,40.692512],[-74.087294,40.692484]]],[[[-74.087294,40.692512],[-74.087258,40.692539],[-74.087258,40.692511],[-74.087294,40.692512]]],[[[-74.087258,40.692539],[-74.087222,40.692566],[-74.087222,40.692539],[-74.087258,40.692539]]],[[[-74.087185,40.692566],[-74.087221,40.692594],[-74.087185,40.692593],[-74.087185,40.692566]]],[[[-74.087149,40.692593],[-74.087185,40.692621],[-74.087149,40.692621],[-74.087149,40.692593]]],[[[-74.087113,40.692621],[-74.087149,40.692648],[-74.087113,40.692648],[-74.087113,40.692621]]],[[[-74.087077,40.692648],[-74.087113,40.692676],[-74.087077,40.692675],[-74.087077,40.692648]]],[[[-74.087041,40.692675],[-74.087076,40.692703],[-74.08704,40.692703],[-74.087041,40.692675]]],[[[-74.086896,40.692702],[-74.086932,40.69273],[-74.086896,40.69273],[-74.086896,40.692702]]],[[[-74.086932,40.692757],[-74.087004,40.692785],[-74.086932,40.692785],[-74.086932,40.692757]]],[[[-74.086896,40.69273],[-74.086823,40.692784],[-74.086824,40.692729],[-74.086896,40.69273]]],[[[-74.086823,40.692784],[-74.086787,40.692812],[-74.086787,40.692784],[-74.086823,40.692784]]],[[[-74.086751,40.692812],[-74.086787,40.692839],[-74.086751,40.692839],[-74.086751,40.692812]]],[[[-74.086859,40.692894],[-74.086823,40.692867],[-74.086859,40.692867],[-74.086859,40.692894]]],[[[-74.086715,40.692894],[-74.086679,40.692866],[-74.086715,40.692866],[-74.086715,40.692894]]],[[[-74.086787,40.692921],[-74.086823,40.692894],[-74.086823,40.692922],[-74.086787,40.692921]]],[[[-74.086642,40.692921],[-74.086679,40.692894],[-74.086678,40.692921],[-74.086642,40.692921]]],[[[-74.086786,40.692949],[-74.086751,40.692921],[-74.086787,40.692921],[-74.086786,40.692949]]],[[[-74.086642,40.692948],[-74.086606,40.692921],[-74.086642,40.692921],[-74.086642,40.692948]]],[[[-74.08675,40.692976],[-74.086714,40.692949],[-74.08675,40.692949],[-74.08675,40.692976]]],[[[-74.083851,40.695299],[-74.083886,40.695327],[-74.08385,40.695327],[-74.083851,40.695299]]],[[[-74.08385,40.695327],[-74.083814,40.695354],[-74.083814,40.695326],[-74.08385,40.695327]]],[[[-74.083571,40.740234],[-74.076113,40.738203],[-74.086121,40.736318],[-74.087561,40.736982],[-74.088968,40.736959],[-74.090671,40.735922],[-74.090492,40.735565],[-74.095174,40.73517],[-74.093398,40.737015],[-74.090175,40.738579],[-74.08703,40.739535],[-74.083571,40.740234]]],[[[-74.083387,40.682917],[-74.083351,40.68289],[-74.083387,40.68289],[-74.083387,40.682917]]],[[[-74.069573,40.700215],[-74.06925,40.699912],[-74.072215,40.69877],[-74.072214,40.699045],[-74.070406,40.699642],[-74.069573,40.700215]]],[[[-74.068117,40.702296],[-74.068845,40.701283],[-74.069348,40.701642],[-74.069309,40.701999],[-74.068549,40.702435],[-74.068117,40.702296]]],[[[-74.071818,40.73267],[-74.072179,40.732616],[-74.072579,40.732124],[-74.072472,40.731904],[-74.072978,40.73185],[-74.072903,40.732344],[-74.073262,40.732593],[-74.072576,40.732645],[-74.072138,40.73333],[-74.072105,40.732863],[-74.071818,40.73267]]],[[[-74.074202,40.737894],[-74.07413,40.737894],[-74.07413,40.737866],[-74.074202,40.737867],[-74.074202,40.737894]]],[[[-74.074274,40.737922],[-74.074202,40.737894],[-74.074274,40.737894],[-74.074274,40.737922]]],[[[-74.072361,40.73797],[-74.072256,40.73753],[-74.074814,40.738253],[-74.073115,40.738549],[-74.072974,40.738109],[-74.072361,40.73797]]],[[[-74.07485,40.738253],[-74.074886,40.738226],[-74.074886,40.738253],[-74.07485,40.738253]]],[[[-74.073906,40.739073],[-74.073003,40.739207],[-74.072823,40.739069],[-74.073906,40.739073]]],[[[-74.079354,40.739285],[-74.079535,40.739204],[-74.079678,40.739369],[-74.07957,40.739369],[-74.079354,40.739285]]],[[[-74.079678,40.739396],[-74.079715,40.739369],[-74.079714,40.739397],[-74.079678,40.739396]]],[[[-74.079281,40.739395],[-74.079353,40.739423],[-74.079281,40.73945],[-74.079281,40.739395]]],[[[-74.079425,40.739423],[-74.079389,40.73945],[-74.079389,40.739423],[-74.079425,40.739423]]],[[[-74.079533,40.739478],[-74.079461,40.739451],[-74.079534,40.739451],[-74.079533,40.739478]]],[[[-74.079678,40.739506],[-74.079569,40.739506],[-74.079569,40.739478],[-74.079678,40.739479],[-74.079678,40.739506]]],[[[-74.079677,40.739534],[-74.079678,40.739506],[-74.07975,40.739506],[-74.07975,40.739534],[-74.079677,40.739534]]],[[[-74.079749,40.739561],[-74.07975,40.739534],[-74.079858,40.739534],[-74.079858,40.739562],[-74.079749,40.739561]]],[[[-74.07993,40.739589],[-74.079858,40.739562],[-74.07993,40.739562],[-74.07993,40.739589]]],[[[-74.080182,40.739673],[-74.080146,40.739645],[-74.080182,40.739645],[-74.080182,40.739673]]],[[[-74.080362,40.739728],[-74.080326,40.739701],[-74.080362,40.739701],[-74.080362,40.739728]]],[[[-74.080722,40.739894],[-74.080686,40.739867],[-74.080722,40.739867],[-74.080722,40.739894]]],[[[-74.080794,40.739895],[-74.080758,40.739922],[-74.080758,40.739894],[-74.080794,40.739895]]],[[[-74.080866,40.739922],[-74.080794,40.739949],[-74.080794,40.739922],[-74.080866,40.739922]]],[[[-74.079643,40.739259],[-74.080328,40.739399],[-74.083641,40.740344],[-74.082233,40.740668],[-74.080471,40.739591],[-74.079786,40.739452],[-74.079643,40.739259]]],[[[-74.080866,40.739977],[-74.080902,40.73995],[-74.080902,40.739977],[-74.080866,40.739977]]],[[[-74.080973,40.740032],[-74.08101,40.740005],[-74.08101,40.740033],[-74.080973,40.740032]]],[[[-74.081082,40.740033],[-74.081045,40.740088],[-74.081046,40.740033],[-74.081082,40.740033]]],[[[-74.075629,40.740562],[-74.074508,40.740887],[-74.073608,40.740527],[-74.074327,40.740969],[-74.075519,40.740781],[-74.076174,40.740042],[-74.07607,40.739356],[-74.075888,40.739547],[-74.074917,40.73905],[-74.072752,40.739014],[-74.072717,40.738794],[-74.07539,40.738338],[-74.076543,40.738699],[-74.076793,40.739029],[-74.080073,40.73981],[-74.081865,40.740777],[-74.07943,40.741797],[-74.077094,40.743148],[-74.070893,40.741807],[-74.070424,40.74186],[-74.071481,40.740135],[-74.071485,40.739558],[-74.073688,40.739347],[-74.075203,40.739435],[-74.075706,40.739849],[-74.075629,40.740562]],[[-74.075594,40.740425],[-74.075558,40.740397],[-74.075558,40.740424],[-74.075594,40.740425]]],[[[-74.068552,40.741002],[-74.068517,40.740975],[-74.068553,40.740975],[-74.068552,40.741002]]],[[[-74.068369,40.741386],[-74.068046,40.741248],[-74.068301,40.740864],[-74.068445,40.740837],[-74.068369,40.741386]]],[[[-74.068515,40.741194],[-74.068515,40.741167],[-74.068551,40.741167],[-74.068551,40.741194],[-74.068515,40.741194]]],[[[-74.068587,40.741222],[-74.068551,40.741194],[-74.068587,40.741195],[-74.068587,40.741222]]],[[[-74.068478,40.741331],[-74.068514,40.741304],[-74.068514,40.741332],[-74.068478,40.741331]]],[[[-74.068116,40.74155],[-74.067968,40.742071],[-74.067423,40.742618],[-74.067534,40.742206],[-74.06739,40.742123],[-74.067755,40.741603],[-74.068116,40.74155]],[[-74.067899,40.741604],[-74.067862,40.741659],[-74.067899,40.741659],[-74.067899,40.741604]],[[-74.067862,40.741659],[-74.067826,40.741686],[-74.067862,40.741686],[-74.067862,40.741659]],[[-74.067935,40.741604],[-74.068007,40.741632],[-74.068007,40.741604],[-74.067935,40.741604]]],[[[-74.067498,40.742206],[-74.067462,40.742261],[-74.067462,40.742206],[-74.067498,40.742206]]],[[[-74.067206,40.742699],[-74.067098,40.742671],[-74.06717,40.742644],[-74.067206,40.742699]]],[[[-74.067168,40.743083],[-74.067204,40.743056],[-74.067204,40.743084],[-74.067168,40.743083]]],[[[-74.066482,40.743081],[-74.066554,40.743136],[-74.066481,40.743163],[-74.066482,40.743081]]],[[[-74.066699,40.743027],[-74.067206,40.742727],[-74.067276,40.743001],[-74.067059,40.743083],[-74.066477,40.743767],[-74.066369,40.743739],[-74.066405,40.743849],[-74.066152,40.743821],[-74.066043,40.743903],[-74.066661,40.743329],[-74.066625,40.743246],[-74.066879,40.743055],[-74.066699,40.743027]],[[-74.066659,40.743521],[-74.066624,40.743466],[-74.066623,40.743521],[-74.066659,40.743521]],[[-74.06666,40.743466],[-74.066696,40.743438],[-74.06666,40.743438],[-74.06666,40.743466]],[[-74.066624,40.743411],[-74.066732,40.743384],[-74.066624,40.743383],[-74.066624,40.743411]],[[-74.066661,40.743301],[-74.066697,40.743274],[-74.066661,40.743274],[-74.066661,40.743301]]],[[[-74.066553,40.743301],[-74.066625,40.743328],[-74.066552,40.743328],[-74.066553,40.743301]]],[[[-74.06648,40.74341],[-74.066444,40.743383],[-74.06648,40.743383],[-74.06648,40.74341]]],[[[-74.066332,40.743849],[-74.066368,40.743876],[-74.066332,40.743876],[-74.066332,40.743849]]],[[[-74.066043,40.743958],[-74.065898,40.743984],[-74.066043,40.743903],[-74.066043,40.743958]]],[[[-74.065861,40.744122],[-74.065826,40.744094],[-74.065862,40.744094],[-74.065861,40.744122]]],[[[-74.065825,40.744121],[-74.065753,40.744204],[-74.065753,40.744149],[-74.065825,40.744121]]],[[[-74.065717,40.744203],[-74.065752,40.744258],[-74.065716,40.744258],[-74.065717,40.744203]]],[[[-74.068212,40.749016],[-74.068248,40.749044],[-74.068212,40.749044],[-74.068212,40.749016]]],[[[-74.071418,40.755616],[-74.071382,40.755589],[-74.071418,40.755589],[-74.071418,40.755616]]],[[[-74.071309,40.755671],[-74.071346,40.755616],[-74.071345,40.755671],[-74.071309,40.755671]]],[[[-74.071345,40.755726],[-74.071381,40.755699],[-74.071381,40.755726],[-74.071345,40.755726]]],[[[-74.0971,40.681017],[-74.096668,40.680933],[-74.096344,40.680932],[-74.096344,40.680959],[-74.096199,40.680959],[-74.095876,40.680821],[-74.095803,40.680903],[-74.095623,40.680902],[-74.09598,40.681507],[-74.094526,40.683396],[-74.093518,40.683063],[-74.093049,40.683144],[-74.091144,40.682149],[-74.090493,40.682421],[-74.090311,40.68275],[-74.091749,40.683414],[-74.091673,40.684072],[-74.090809,40.683905],[-74.089695,40.683242],[-74.08919,40.683213],[-74.087501,40.682411],[-74.087068,40.682409],[-74.086854,40.682079],[-74.083942,40.680559],[-74.083112,40.680748],[-74.081768,40.68228],[-74.082955,40.682724],[-74.082918,40.682861],[-74.083099,40.682779],[-74.083315,40.682862],[-74.083279,40.682917],[-74.083422,40.682972],[-74.083567,40.682945],[-74.084107,40.68314],[-74.08407,40.683194],[-74.084142,40.683304],[-74.084718,40.683361],[-74.084825,40.683554],[-74.085365,40.683721],[-74.085402,40.683638],[-74.085474,40.683639],[-74.085437,40.683693],[-74.085545,40.683749],[-74.08569,40.683722],[-74.086697,40.684082],[-74.086984,40.68433],[-74.08702,40.684303],[-74.087164,40.684331],[-74.087128,40.684386],[-74.087343,40.684524],[-74.087415,40.684524],[-74.087559,40.684634],[-74.088063,40.684801],[-74.088098,40.684856],[-74.088206,40.684911],[-74.088278,40.684911],[-74.088314,40.684966],[-74.088386,40.684967],[-74.088458,40.685104],[-74.089645,40.685465],[-74.089068,40.6856],[-74.088704,40.686011],[-74.088884,40.686121],[-74.087364,40.686939],[-74.086572,40.686717],[-74.086319,40.686963],[-74.086786,40.687239],[-74.084871,40.687754],[-74.085122,40.687947],[-74.088267,40.686696],[-74.085844,40.68784],[-74.085952,40.687923],[-74.085952,40.687977],[-74.085807,40.688059],[-74.085987,40.688087],[-74.087107,40.687789],[-74.087682,40.688148],[-74.081659,40.693974],[-74.079412,40.69575],[-74.078794,40.696461],[-74.078937,40.696681],[-74.081511,40.694632],[-74.086664,40.689407],[-74.089597,40.687469],[-74.090429,40.687088],[-74.090717,40.687171],[-74.087496,40.688999],[-74.085609,40.690858],[-74.085572,40.691023],[-74.084302,40.692336],[-74.084955,40.691762],[-74.084627,40.692227],[-74.082885,40.693951],[-74.083171,40.694363],[-74.082954,40.694472],[-74.083528,40.694914],[-74.085812,40.693138],[-74.085452,40.692917],[-74.084798,40.693765],[-74.083748,40.694393],[-74.083352,40.694309],[-74.083571,40.693816],[-74.086328,40.69119],[-74.086871,40.691],[-74.086757,40.691878],[-74.086251,40.691986],[-74.086754,40.6924],[-74.088384,40.691225],[-74.088528,40.691253],[-74.088201,40.691609],[-74.086608,40.692674],[-74.087404,40.69221],[-74.086534,40.692893],[-74.086534,40.692975],[-74.086714,40.693031],[-74.084938,40.694397],[-74.084032,40.69508],[-74.0836,40.694969],[-74.083851,40.695299],[-74.0828,40.696009],[-74.082687,40.69675],[-74.082435,40.696694],[-74.082402,40.69631],[-74.081894,40.696802],[-74.082146,40.696748],[-74.081929,40.696994],[-74.082322,40.697517],[-74.079677,40.699374],[-74.078776,40.699261],[-74.075734,40.701336],[-74.075369,40.701966],[-74.075618,40.702543],[-74.074857,40.70309],[-74.074524,40.704406],[-74.074016,40.704871],[-74.073764,40.704788],[-74.073326,40.705664],[-74.073647,40.706132],[-74.073317,40.706927],[-74.073532,40.707257],[-74.072401,40.709175],[-74.072362,40.709751],[-74.071965,40.709667],[-74.071347,40.710406],[-74.070626,40.710431],[-74.068897,40.709958],[-74.068971,40.709766],[-74.06724,40.709594],[-74.070697,40.710513],[-74.07102,40.710871],[-74.070116,40.71117],[-74.069969,40.711609],[-74.069609,40.711525],[-74.069244,40.712045],[-74.069059,40.712758],[-74.067712,40.714647],[-74.067746,40.714977],[-74.067384,40.715195],[-74.067454,40.715552],[-74.066912,40.715632],[-74.066983,40.715935],[-74.066548,40.716152],[-74.066546,40.716564],[-74.066002,40.716974],[-74.066035,40.717441],[-74.065601,40.717631],[-74.065851,40.717962],[-74.065777,40.718291],[-74.06556,40.71829],[-74.065813,40.718318],[-74.065666,40.718675],[-74.064831,40.71944],[-74.064646,40.720235],[-74.063956,40.720809],[-74.063664,40.721467],[-74.063339,40.721411],[-74.063048,40.721739],[-74.0633,40.72196],[-74.062789,40.722754],[-74.062065,40.723218],[-74.061444,40.724341],[-74.060939,40.724257],[-74.060756,40.72464],[-74.060141,40.724995],[-74.057298,40.723831],[-74.056289,40.723553],[-74.056,40.723689],[-74.056001,40.723496],[-74.054525,40.723079],[-74.056254,40.718007],[-74.056085,40.716332],[-74.054376,40.712949],[-74.054419,40.711906],[-74.054859,40.710755],[-74.055078,40.710482],[-74.054997,40.711744],[-74.057903,40.719633],[-74.057826,40.720402],[-74.056694,40.722456],[-74.056584,40.722675],[-74.056619,40.722758],[-74.057314,40.721443],[-74.057422,40.721416],[-74.057387,40.721306],[-74.05746,40.721169],[-74.057568,40.721142],[-74.057533,40.721032],[-74.057898,40.720347],[-74.05797,40.720347],[-74.057975,40.719661],[-74.055143,40.71147],[-74.05544,40.710236],[-74.056781,40.70928],[-74.058952,40.708355],[-74.058882,40.708026],[-74.059785,40.707837],[-74.063803,40.705656],[-74.066269,40.703607],[-74.067677,40.703365],[-74.069883,40.70244],[-74.07032,40.701838],[-74.069026,40.701092],[-74.0691,40.700817],[-74.071561,40.699591],[-74.073874,40.698886],[-74.073695,40.698611],[-74.072792,40.698882],[-74.072287,40.698798],[-74.075579,40.697218],[-74.076741,40.696042],[-74.076383,40.695629],[-74.076131,40.695573],[-74.076017,40.696506],[-74.075726,40.696834],[-74.074643,40.69705],[-74.075551,40.696092],[-74.075045,40.696173],[-74.075007,40.69653],[-74.074321,40.696609],[-74.073927,40.696251],[-74.074433,40.696006],[-74.073749,40.695784],[-74.073531,40.696057],[-74.073137,40.695644],[-74.072666,40.695917],[-74.072524,40.695669],[-74.072812,40.695671],[-74.072886,40.695424],[-74.072562,40.695258],[-74.072236,40.695559],[-74.071516,40.695336],[-74.071446,40.695062],[-74.071842,40.695173],[-74.071878,40.695063],[-74.071197,40.694402],[-74.070796,40.695141],[-74.069746,40.695741],[-74.068476,40.697027],[-74.066854,40.696884],[-74.066886,40.697405],[-74.067753,40.697271],[-74.068322,40.698399],[-74.069221,40.698924],[-74.068533,40.699278],[-74.067741,40.699083],[-74.068747,40.699663],[-74.068456,40.700129],[-74.069501,40.700242],[-74.068632,40.700761],[-74.067986,40.700237],[-74.068054,40.700951],[-74.065886,40.701492],[-74.065485,40.702121],[-74.065949,40.702837],[-74.065586,40.703302],[-74.065692,40.703522],[-74.065003,40.704206],[-74.060768,40.706468],[-74.060336,40.706302],[-74.059393,40.707039],[-74.058418,40.7072],[-74.058668,40.707531],[-74.05903,40.70745],[-74.058992,40.707642],[-74.056205,40.709058],[-74.055118,40.709878],[-74.054352,40.711028],[-74.054018,40.712564],[-74.054475,40.71424],[-74.055579,40.71644],[-74.055745,40.718582],[-74.05556,40.71935],[-74.054273,40.722996],[-74.05132,40.722188],[-74.052544,40.722577],[-74.054089,40.723462],[-74.051592,40.730013],[-74.050975,40.730532],[-74.049927,40.730802],[-74.045958,40.730704],[-74.050213,40.731188],[-74.045842,40.731884],[-74.045696,40.732131],[-74.049521,40.732118],[-74.050823,40.731684],[-74.049006,40.733516],[-74.048342,40.735627],[-74.047763,40.735927],[-74.047725,40.736201],[-74.047328,40.736255],[-74.047288,40.736721],[-74.04217,40.735768],[-74.044553,40.735667],[-74.042099,40.735657],[-74.040441,40.735376],[-74.039469,40.735016],[-74.038321,40.734078],[-74.036916,40.733743],[-74.036929,40.731821],[-74.035606,40.730114],[-74.035871,40.728249],[-74.035498,40.730086],[-74.036855,40.732041],[-74.036701,40.733467],[-74.036447,40.733713],[-74.034896,40.733597],[-74.034607,40.733651],[-74.037708,40.733938],[-74.039038,40.734712],[-74.039396,40.73507],[-74.039286,40.735427],[-74.039504,40.735208],[-74.04026,40.735458],[-74.040222,40.735677],[-74.040368,40.735486],[-74.040656,40.735542],[-74.040583,40.735679],[-74.041087,40.735873],[-74.041556,40.735902],[-74.041983,40.736069],[-74.039624,40.73643],[-74.038781,40.736295],[-74.036434,40.735584],[-74.036832,40.735362],[-74.035389,40.735273],[-74.033373,40.734673],[-74.033374,40.734497],[-74.033337,40.734662],[-74.032436,40.734394],[-74.032439,40.734082],[-74.0324,40.734383],[-74.031747,40.734189],[-74.031934,40.734052],[-74.030091,40.733695],[-74.030566,40.733735],[-74.030967,40.731276],[-74.027997,40.731011],[-74.028094,40.730228],[-74.026851,40.72951],[-74.027419,40.729492],[-74.029127,40.730468],[-74.031254,40.730755],[-74.029758,40.729759],[-74.030478,40.729769],[-74.031141,40.730229],[-74.031232,40.729473],[-74.027341,40.729073],[-74.030966,40.729341],[-74.031006,40.728998],[-74.026548,40.728601],[-74.026604,40.72819],[-74.031034,40.728575],[-74.031086,40.728036],[-74.027374,40.727716],[-74.027376,40.727515],[-74.030342,40.727781],[-74.030405,40.727036],[-74.030021,40.726476],[-74.030287,40.726135],[-74.034452,40.726238],[-74.034525,40.725771],[-74.032072,40.725567],[-74.03211,40.725235],[-74.034559,40.725585],[-74.034614,40.725286],[-74.033817,40.725209],[-74.03384,40.725007],[-74.029447,40.724567],[-74.029605,40.723812],[-74.033812,40.724127],[-74.03423,40.722149],[-74.031422,40.721896],[-74.031476,40.720258],[-74.032552,40.720129],[-74.032062,40.719669],[-74.029269,40.719356],[-74.029375,40.718921],[-74.032487,40.719279],[-74.03275,40.717386],[-74.02993,40.717066],[-74.029999,40.716713],[-74.032075,40.716919],[-74.032169,40.71639],[-74.031289,40.716292],[-74.0315,40.715724],[-74.031699,40.716164],[-74.032624,40.716228],[-74.03315,40.714155],[-74.032997,40.713831],[-74.031663,40.713565],[-74.03302,40.713729],[-74.033733,40.711677],[-74.034832,40.711793],[-74.035525,40.711406],[-74.037113,40.711659],[-74.038075,40.711106],[-74.0395,40.711082],[-74.039514,40.71038],[-74.038623,40.710148],[-74.038499,40.709581],[-74.035384,40.70908],[-74.034716,40.709167],[-74.034344,40.70887],[-74.034501,40.707679],[-74.034081,40.707627],[-74.034058,40.707141],[-74.034162,40.706652],[-74.034692,40.706696],[-74.034873,40.705751],[-74.038658,40.70608],[-74.041336,40.704785],[-74.045227,40.702193],[-74.048464,40.699254],[-74.051378,40.696016],[-74.054851,40.69064],[-74.057814,40.691965],[-74.057479,40.69281],[-74.058322,40.693287],[-74.058756,40.692501],[-74.058952,40.692563],[-74.058686,40.693452],[-74.059387,40.693881],[-74.059784,40.693079],[-74.059994,40.693121],[-74.0597,40.694059],[-74.060237,40.694409],[-74.060745,40.693614],[-74.06137,40.693886],[-74.06103,40.695033],[-74.064731,40.697091],[-74.06515,40.697088],[-74.06524,40.697678],[-74.065774,40.698034],[-74.066106,40.698135],[-74.066563,40.696832],[-74.067029,40.696369],[-74.068257,40.696866],[-74.069577,40.695732],[-74.070581,40.694436],[-74.070378,40.693824],[-74.069619,40.694049],[-74.069813,40.694365],[-74.069068,40.695173],[-74.0678,40.695391],[-74.067688,40.695217],[-74.067452,40.695555],[-74.065882,40.694626],[-74.06693,40.694008],[-74.068929,40.691697],[-74.069459,40.690723],[-74.069929,40.688696],[-74.069624,40.685822],[-74.07021,40.684684],[-74.069889,40.68445],[-74.070546,40.683946],[-74.073359,40.686049],[-74.073182,40.686206],[-74.07347,40.686778],[-74.074685,40.687589],[-74.07484,40.687935],[-74.075758,40.68829],[-74.075897,40.688661],[-74.078013,40.688601],[-74.078733,40.688949],[-74.079993,40.688906],[-74.079582,40.688726],[-74.080285,40.687995],[-74.07463,40.683866],[-74.074457,40.683971],[-74.071101,40.681665],[-74.070662,40.680639],[-74.071797,40.679744],[-74.070641,40.679209],[-74.071889,40.679629],[-74.07372,40.679817],[-74.074828,40.678352],[-74.072516,40.677158],[-74.072814,40.676909],[-74.075007,40.678078],[-74.075638,40.677405],[-74.072611,40.675807],[-74.073022,40.675347],[-74.07579,40.676812],[-74.076735,40.676002],[-74.075979,40.67691],[-74.077223,40.675599],[-74.080985,40.677371],[-74.081291,40.677066],[-74.0813,40.676473],[-74.080935,40.676073],[-74.077279,40.674274],[-74.069296,40.670879],[-74.068149,40.670712],[-74.064988,40.669224],[-74.06492,40.66853],[-74.065716,40.66704],[-74.09813,40.680694],[-74.098242,40.680994],[-74.097895,40.680828],[-74.097678,40.680882],[-74.098283,40.681103],[-74.098644,40.682175],[-74.096248,40.684802],[-74.095703,40.685596],[-74.095378,40.685678],[-74.095959,40.685021],[-74.095161,40.685704],[-74.098141,40.681927],[-74.098215,40.681515],[-74.096953,40.681511],[-74.097316,40.68121],[-74.0971,40.681017]],[[-74.095803,40.680875],[-74.095767,40.680848],[-74.095767,40.680875],[-74.095803,40.680875]],[[-74.081804,40.682335],[-74.081768,40.682362],[-74.081804,40.682363],[-74.081804,40.682335]],[[-74.081876,40.682363],[-74.08184,40.68239],[-74.081876,40.68239],[-74.081876,40.682363]],[[-74.082703,40.682668],[-74.082667,40.682695],[-74.082703,40.682695],[-74.082703,40.682668]],[[-74.082775,40.682696],[-74.082739,40.682723],[-74.082775,40.682723],[-74.082775,40.682696]],[[-74.083099,40.682806],[-74.083063,40.682834],[-74.083099,40.682834],[-74.083099,40.682806]],[[-74.083171,40.682834],[-74.083135,40.682862],[-74.083171,40.682862],[-74.083171,40.682834]],[[-74.083243,40.682862],[-74.083207,40.682889],[-74.083243,40.682889],[-74.083243,40.682862]],[[-74.083567,40.682973],[-74.08353,40.683],[-74.083567,40.683],[-74.083567,40.682973]],[[-74.083639,40.683001],[-74.083602,40.683028],[-74.083638,40.683028],[-74.083639,40.683001]],[[-74.083711,40.683028],[-74.083674,40.683056],[-74.08371,40.683056],[-74.083711,40.683028]],[[-74.083783,40.683056],[-74.083746,40.683083],[-74.083782,40.683083],[-74.083783,40.683056]],[[-74.083962,40.683112],[-74.083926,40.683139],[-74.083962,40.683139],[-74.083962,40.683112]],[[-74.084034,40.683139],[-74.083998,40.683167],[-74.084034,40.683167],[-74.084034,40.683139]],[[-74.084646,40.683361],[-74.08461,40.683388],[-74.084646,40.683389],[-74.084646,40.683361]],[[-74.084754,40.683444],[-74.084717,40.683471],[-74.084754,40.683471],[-74.084754,40.683444]],[[-74.085689,40.683749],[-74.085653,40.683776],[-74.085689,40.683777],[-74.085689,40.683749]],[[-74.085761,40.683777],[-74.085725,40.683804],[-74.085761,40.683804],[-74.085761,40.683777]],[[-74.085833,40.683805],[-74.085797,40.683832],[-74.085833,40.683832],[-74.085833,40.683805]],[[-74.087092,40.684331],[-74.087056,40.684358],[-74.087092,40.684358],[-74.087092,40.684331]],[[-74.088233,40.686448],[-74.088269,40.686421],[-74.088233,40.686421],[-74.088233,40.686448]],[[-74.088124,40.686503],[-74.088161,40.686476],[-74.088125,40.686475],[-74.088124,40.686503]],[[-74.087871,40.686667],[-74.087799,40.686639],[-74.087799,40.686666],[-74.087871,40.686667]],[[-74.085916,40.687922],[-74.085844,40.68795],[-74.085916,40.68795],[-74.085916,40.687922]],[[-74.085844,40.68795],[-74.085807,40.687977],[-74.085843,40.687977],[-74.085844,40.68795]],[[-74.08521,40.691296],[-74.085246,40.691241],[-74.08521,40.691241],[-74.08521,40.691296]],[[-74.084301,40.692391],[-74.08423,40.692363],[-74.084229,40.692418],[-74.084301,40.692391]],[[-74.084229,40.692418],[-74.084193,40.692445],[-74.084229,40.692446],[-74.084229,40.692418]],[[-74.084193,40.6925],[-74.084084,40.6925],[-74.084084,40.692555],[-74.084193,40.6925]],[[-74.084084,40.69261],[-74.083976,40.692609],[-74.083975,40.692664],[-74.084084,40.69261]],[[-74.083975,40.692719],[-74.083867,40.692719],[-74.083866,40.692774],[-74.083975,40.692719]],[[-74.083866,40.692829],[-74.083758,40.692828],[-74.083757,40.692883],[-74.083866,40.692829]],[[-74.083757,40.692883],[-74.083721,40.69291],[-74.083757,40.692911],[-74.083757,40.692883]],[[-74.083721,40.692965],[-74.083613,40.692965],[-74.083612,40.69302],[-74.083721,40.692965]],[[-74.083612,40.693075],[-74.083504,40.693074],[-74.083503,40.693129],[-74.083612,40.693075]],[[-74.083503,40.693184],[-74.083395,40.693184],[-74.083395,40.693239],[-74.083503,40.693184]],[[-74.083394,40.693294],[-74.083322,40.693266],[-74.083322,40.693321],[-74.083394,40.693294]],[[-74.083322,40.693321],[-74.083286,40.693348],[-74.083322,40.693348],[-74.083322,40.693321]],[[-74.083285,40.693403],[-74.083177,40.693403],[-74.083177,40.693457],[-74.083285,40.693403]],[[-74.083177,40.693457],[-74.083141,40.693485],[-74.083177,40.693485],[-74.083177,40.693457]],[[-74.08314,40.69354],[-74.083068,40.693512],[-74.083068,40.693567],[-74.08314,40.69354]],[[-74.083068,40.693567],[-74.083032,40.693594],[-74.083068,40.693594],[-74.083068,40.693567]],[[-74.083031,40.693649],[-74.082959,40.693621],[-74.082959,40.693676],[-74.083031,40.693649]],[[-74.082959,40.693676],[-74.082923,40.693704],[-74.082959,40.693704],[-74.082959,40.693676]],[[-74.082923,40.693704],[-74.082887,40.693731],[-74.082923,40.693731],[-74.082923,40.693704]],[[-74.082887,40.693731],[-74.08285,40.693786],[-74.082886,40.693786],[-74.082887,40.693731]],[[-74.088492,40.691253],[-74.088456,40.69128],[-74.088492,40.691281],[-74.088492,40.691253]],[[-74.088238,40.691444],[-74.088202,40.691472],[-74.088238,40.691472],[-74.088238,40.691444]],[[-74.088202,40.691472],[-74.088166,40.691499],[-74.088202,40.691499],[-74.088202,40.691472]],[[-74.082763,40.696174],[-74.082727,40.696201],[-74.082763,40.696201],[-74.082763,40.696174]],[[-74.082727,40.696201],[-74.082691,40.696228],[-74.082727,40.696228],[-74.082727,40.696201]],[[-74.081893,40.696857],[-74.081821,40.696911],[-74.081857,40.696911],[-74.081893,40.696857]],[[-74.070661,40.710595],[-74.070589,40.710568],[-74.070589,40.710595],[-74.070661,40.710595]],[[-74.056583,40.722758],[-74.056547,40.722812],[-74.056583,40.722812],[-74.056583,40.722758]],[[-74.057131,40.721854],[-74.057166,40.721881],[-74.057167,40.721854],[-74.057131,40.721854]],[[-74.057422,40.721361],[-74.057459,40.721334],[-74.057423,40.721333],[-74.057422,40.721361]],[[-74.057569,40.721087],[-74.057605,40.72106],[-74.057569,40.721059],[-74.057569,40.721087]],[[-74.076131,40.695573],[-74.076095,40.695545],[-74.076095,40.695573],[-74.076131,40.695573]],[[-74.035907,40.728276],[-74.035943,40.728249],[-74.035907,40.728249],[-74.035907,40.728276]],[[-74.039141,40.735536],[-74.039143,40.735207],[-74.038924,40.735535],[-74.039141,40.735536]],[[-74.041592,40.735957],[-74.041628,40.735985],[-74.041628,40.735958],[-74.041592,40.735957]],[[-74.095923,40.684993],[-74.095995,40.684966],[-74.095923,40.684966],[-74.095923,40.684993]],[[-74.095995,40.684966],[-74.096031,40.684939],[-74.095995,40.684939],[-74.095995,40.684966]],[[-74.095995,40.684939],[-74.095959,40.684911],[-74.095959,40.684938],[-74.095995,40.684939]]],[[[-74.056891,40.709061],[-74.056854,40.709088],[-74.056855,40.709061],[-74.056891,40.709061]]],[[[-74.056818,40.709088],[-74.056854,40.709116],[-74.056818,40.709116],[-74.056818,40.709088]]],[[[-74.056818,40.709198],[-74.056564,40.709362],[-74.056348,40.709361],[-74.056818,40.709116],[-74.056818,40.709198]],[[-74.056745,40.709225],[-74.056709,40.709198],[-74.056709,40.709225],[-74.056745,40.709225]]],[[[-74.056348,40.709361],[-74.056311,40.709388],[-74.056312,40.709361],[-74.056348,40.709361]]],[[[-74.056275,40.709388],[-74.056311,40.709416],[-74.056275,40.709416],[-74.056275,40.709388]]],[[[-74.056203,40.709415],[-74.056275,40.709443],[-74.056203,40.709443],[-74.056203,40.709415]]],[[[-74.056167,40.709443],[-74.056203,40.70947],[-74.056167,40.70947],[-74.056167,40.709443]]],[[[-74.05613,40.70947],[-74.056166,40.709498],[-74.05613,40.709497],[-74.05613,40.70947]]],[[[-74.056094,40.709497],[-74.05613,40.709525],[-74.056094,40.709525],[-74.056094,40.709497]]],[[[-74.055114,40.710482],[-74.055078,40.710427],[-74.055114,40.710427],[-74.055114,40.710482]]],[[[-74.057386,40.721361],[-74.05735,40.721415],[-74.05735,40.721361],[-74.057386,40.721361]]],[[[-74.053955,40.727304],[-74.053991,40.727332],[-74.053955,40.727332],[-74.053955,40.727304]]],[[[-74.054576,40.726181],[-74.054315,40.727443],[-74.054098,40.727497],[-74.054027,40.727442],[-74.054027,40.727304],[-74.053956,40.727249],[-74.053955,40.727304],[-74.053919,40.727304],[-74.053919,40.727386],[-74.053883,40.727386],[-74.053882,40.727469],[-74.053846,40.727468],[-74.053808,40.727743],[-74.054238,40.728156],[-74.053623,40.728456],[-74.053113,40.729222],[-74.052824,40.729276],[-74.05279,40.728919],[-74.052532,40.729742],[-74.051877,40.730563],[-74.052129,40.730646],[-74.052199,40.730866],[-74.052199,40.730948],[-74.052163,40.730976],[-74.052234,40.731031],[-74.052379,40.731031],[-74.052378,40.731086],[-74.052342,40.731113],[-74.052485,40.731279],[-74.052413,40.731306],[-74.05227,40.731168],[-74.051657,40.730974],[-74.051404,40.731055],[-74.052648,40.728589],[-74.054267,40.723819],[-74.054659,40.724562],[-74.055377,40.725169],[-74.055264,40.725799],[-74.054396,40.726208],[-74.054576,40.726181]],[[-74.052163,40.730948],[-74.052127,40.730921],[-74.052127,40.730948],[-74.052163,40.730948]],[[-74.052127,40.730921],[-74.052091,40.730893],[-74.052091,40.73092],[-74.052127,40.730921]],[[-74.052091,40.730893],[-74.052055,40.730865],[-74.052055,40.730893],[-74.052091,40.730893]],[[-74.05454,40.726263],[-74.054504,40.726236],[-74.054503,40.726263],[-74.05454,40.726263]]],[[[-74.052485,40.731306],[-74.052521,40.731279],[-74.052521,40.731306],[-74.052485,40.731306]]],[[[-74.06246,40.739909],[-74.062714,40.739827],[-74.062784,40.740102],[-74.063072,40.740241],[-74.062675,40.740157],[-74.06246,40.739909]]],[[[-74.062964,40.740103],[-74.062928,40.740075],[-74.062965,40.740075],[-74.062964,40.740103]]],[[[-74.06318,40.740241],[-74.063144,40.740213],[-74.06318,40.740214],[-74.06318,40.740241]]],[[[-74.063144,40.740241],[-74.063108,40.740268],[-74.063108,40.740241],[-74.063144,40.740241]]],[[[-74.062927,40.740322],[-74.062891,40.74035],[-74.062891,40.740322],[-74.062927,40.740322]]],[[[-74.063354,40.741175],[-74.062962,40.74046],[-74.063358,40.740544],[-74.063354,40.741175]]],[[[-74.063352,40.741559],[-74.063499,40.741148],[-74.063644,40.741066],[-74.063643,40.741176],[-74.063352,40.741559]]],[[[-74.065251,40.743708],[-74.065179,40.74368],[-74.065251,40.743653],[-74.065251,40.743708]]],[[[-74.065716,40.744258],[-74.06568,40.744313],[-74.06568,40.744258],[-74.065716,40.744258]]],[[[-74.065644,40.744313],[-74.06568,40.74434],[-74.065644,40.74434],[-74.065644,40.744313]]],[[[-74.065643,40.744395],[-74.065607,40.744368],[-74.065643,40.744368],[-74.065643,40.744395]]],[[[-74.065607,40.74445],[-74.065571,40.744422],[-74.065607,40.744423],[-74.065607,40.74445]]],[[[-74.065318,40.744476],[-74.065282,40.744449],[-74.065318,40.744449],[-74.065318,40.744476]]],[[[-74.06557,40.744532],[-74.065534,40.744505],[-74.06557,40.744505],[-74.06557,40.744532]]],[[[-74.065534,40.744587],[-74.065498,40.744532],[-74.065534,40.744532],[-74.065534,40.744587]]],[[[-74.065497,40.744669],[-74.065461,40.744587],[-74.065498,40.744587],[-74.065497,40.744669]]],[[[-74.065424,40.744751],[-74.065461,40.744669],[-74.06546,40.744751],[-74.065424,40.744751]]],[[[-74.065388,40.744806],[-74.065424,40.744751],[-74.065424,40.744806],[-74.065388,40.744806]]],[[[-74.065387,40.744888],[-74.065352,40.744806],[-74.065388,40.744806],[-74.065387,40.744888]]],[[[-74.065351,40.744971],[-74.065315,40.744888],[-74.065351,40.744888],[-74.065351,40.744971]]],[[[-74.065314,40.745053],[-74.065278,40.74497],[-74.065315,40.74497],[-74.065314,40.745053]]],[[[-74.065277,40.745162],[-74.065205,40.745135],[-74.065278,40.745053],[-74.065277,40.745162]]],[[[-74.065204,40.745299],[-74.065169,40.745217],[-74.065205,40.745217],[-74.065204,40.745299]]],[[[-74.065167,40.745409],[-74.065132,40.745299],[-74.065168,40.745299],[-74.065167,40.745409]]],[[[-74.06334,40.748943],[-74.063376,40.748971],[-74.063339,40.748971],[-74.06334,40.748943]]],[[[-74.063303,40.748971],[-74.063339,40.748998],[-74.063303,40.748998],[-74.063303,40.748971]]],[[[-74.063339,40.748998],[-74.063375,40.749026],[-74.063339,40.749026],[-74.063339,40.748998]]],[[[-74.061488,40.750638],[-74.061524,40.750611],[-74.061524,40.750638],[-74.061488,40.750638]]],[[[-74.061378,40.750802],[-74.061342,40.750775],[-74.061378,40.750775],[-74.061378,40.750802]]],[[[-74.061342,40.75083],[-74.061306,40.750802],[-74.061342,40.750802],[-74.061342,40.75083]]],[[[-74.060978,40.75124],[-74.060943,40.751158],[-74.060979,40.751158],[-74.060978,40.75124]]],[[[-74.060942,40.751267],[-74.060906,40.75124],[-74.060942,40.75124],[-74.060942,40.751267]]],[[[-74.061013,40.751405],[-74.060977,40.751432],[-74.060977,40.751405],[-74.061013,40.751405]]],[[[-74.060833,40.751432],[-74.060796,40.751459],[-74.060797,40.751432],[-74.060833,40.751432]]],[[[-74.071633,40.755919],[-74.070814,40.754104],[-74.069825,40.750724],[-74.070614,40.751551],[-74.072255,40.754549],[-74.072509,40.754413],[-74.070724,40.751194],[-74.069683,40.75034],[-74.06926,40.748746],[-74.070085,40.7496],[-74.07084,40.750042],[-74.070876,40.750124],[-74.070984,40.750097],[-74.069871,40.749215],[-74.069191,40.748279],[-74.067813,40.743772],[-74.067745,40.743086],[-74.068068,40.743389],[-74.068326,40.742511],[-74.068976,40.742541],[-74.069413,40.741884],[-74.073089,40.742694],[-74.074459,40.742891],[-74.074243,40.742808],[-74.074352,40.742726],[-74.076947,40.743257],[-74.075151,40.745534],[-74.074869,40.746946],[-74.075017,40.747986],[-74.075707,40.748974],[-74.076586,40.749638],[-74.077145,40.749931],[-74.078852,40.750223],[-74.077279,40.752171],[-74.075578,40.75246],[-74.075231,40.752756],[-74.075238,40.753133],[-74.076523,40.754816],[-74.0763,40.755143],[-74.075215,40.755339],[-74.074867,40.755671],[-74.075146,40.757157],[-74.074732,40.75823],[-74.072666,40.758911],[-74.072224,40.760123],[-74.068594,40.761976],[-74.06629,40.762818],[-74.064931,40.763763],[-74.063801,40.763669],[-74.062501,40.762673],[-74.061794,40.76242],[-74.060022,40.76255],[-74.060002,40.76341],[-74.05963,40.764001],[-74.059993,40.765701],[-74.058474,40.766757],[-74.056954,40.769011],[-74.052044,40.760841],[-74.05225,40.760951],[-74.052396,40.760705],[-74.051856,40.760526],[-74.05306,40.758594],[-74.052844,40.758483],[-74.052445,40.758811],[-74.052157,40.758645],[-74.053612,40.757114],[-74.054337,40.756567],[-74.054842,40.756597],[-74.055171,40.756049],[-74.054847,40.755856],[-74.055289,40.754567],[-74.057724,40.752079],[-74.057727,40.751722],[-74.059432,40.750438],[-74.060708,40.748439],[-74.061105,40.748468],[-74.061725,40.74751],[-74.06241,40.74754],[-74.062922,40.746581],[-74.06339,40.746775],[-74.063752,40.746584],[-74.063901,40.745898],[-74.063685,40.745843],[-74.063548,40.744717],[-74.063766,40.744471],[-74.063591,40.743619],[-74.063845,40.743428],[-74.063638,40.742],[-74.063785,40.741506],[-74.064717,40.742553],[-74.065902,40.743381],[-74.066082,40.743436],[-74.066373,40.743163],[-74.066481,40.743163],[-74.066553,40.743218],[-74.066626,40.743081],[-74.066734,40.743137],[-74.066263,40.743492],[-74.06619,40.743491],[-74.066045,40.743628],[-74.065973,40.743628],[-74.065354,40.744394],[-74.065321,40.743927],[-74.065793,40.743627],[-74.065361,40.743433],[-74.065143,40.743652],[-74.064713,40.743156],[-74.065211,40.744201],[-74.064987,40.745354],[-74.064767,40.745847],[-74.064803,40.745957],[-74.064913,40.745628],[-74.065131,40.745409],[-74.064724,40.747054],[-74.063484,40.748889],[-74.06334,40.748861],[-74.063303,40.748971],[-74.062504,40.749709],[-74.061997,40.750064],[-74.06185,40.75042],[-74.061379,40.750665],[-74.061451,40.75072],[-74.06127,40.750775],[-74.060943,40.751103],[-74.060651,40.751568],[-74.061049,40.751433],[-74.061341,40.750994],[-74.061594,40.750995],[-74.061813,40.75053],[-74.062066,40.750531],[-74.063919,40.748726],[-74.064723,40.747164],[-74.065851,40.745741],[-74.066001,40.744918],[-74.066618,40.744262],[-74.06644,40.743959],[-74.067059,40.743165],[-74.069289,40.749954],[-74.069287,40.750173],[-74.068927,40.75009],[-74.068463,40.74921],[-74.068356,40.749072],[-74.068212,40.748989],[-74.068212,40.749016],[-74.068176,40.749016],[-74.068175,40.749071],[-74.068639,40.749951],[-74.068854,40.750117],[-74.068023,40.750388],[-74.067801,40.751101],[-74.069847,40.75292],[-74.068127,40.751047],[-74.068455,40.750445],[-74.06943,40.750476],[-74.06957,40.751135],[-74.069209,40.751052],[-74.069315,40.751519],[-74.069605,40.751273],[-74.070881,40.754983],[-74.071237,40.755643],[-74.071417,40.755809],[-74.071454,40.755671],[-74.071633,40.755919]],[[-74.07085,40.754105],[-74.070886,40.754077],[-74.07085,40.754077],[-74.07085,40.754105]],[[-74.070516,40.749876],[-74.07048,40.749903],[-74.070516,40.749903],[-74.070516,40.749876]],[[-74.069684,40.761402],[-74.069649,40.761319],[-74.069648,40.761402],[-74.069684,40.761402]],[[-74.063747,40.741863],[-74.063711,40.74189],[-74.063747,40.74189],[-74.063747,40.741863]],[[-74.066481,40.743191],[-74.066445,40.743218],[-74.066481,40.743218],[-74.066481,40.743191]],[[-74.066445,40.743218],[-74.066409,40.743245],[-74.066445,40.743245],[-74.066445,40.743218]],[[-74.066409,40.743245],[-74.066372,40.743273],[-74.066408,40.743273],[-74.066409,40.743245]],[[-74.066372,40.743273],[-74.066336,40.7433],[-74.066372,40.7433],[-74.066372,40.743273]],[[-74.066045,40.743601],[-74.066009,40.743573],[-74.066009,40.743601],[-74.066045,40.743601]],[[-74.064677,40.743156],[-74.064641,40.743074],[-74.064534,40.742964],[-74.064677,40.743156]],[[-74.064534,40.742964],[-74.064498,40.742936],[-74.064498,40.742964],[-74.064534,40.742964]],[[-74.064462,40.742936],[-74.064462,40.742854],[-74.064426,40.742853],[-74.064462,40.742936]],[[-74.064426,40.742853],[-74.06439,40.742826],[-74.06439,40.742853],[-74.064426,40.742853]],[[-74.06439,40.742826],[-74.064354,40.742798],[-74.064354,40.742826],[-74.06439,40.742826]],[[-74.065025,40.745052],[-74.064989,40.745024],[-74.064989,40.745052],[-74.065025,40.745052]],[[-74.064986,40.745573],[-74.065022,40.745628],[-74.065022,40.745573],[-74.064986,40.745573]],[[-74.063413,40.748779],[-74.063521,40.748752],[-74.063522,40.748669],[-74.063413,40.748779]],[[-74.063522,40.748615],[-74.063594,40.748642],[-74.063595,40.748587],[-74.063522,40.748615]],[[-74.063595,40.748587],[-74.063631,40.748533],[-74.063595,40.748532],[-74.063595,40.748587]],[[-74.060651,40.751623],[-74.060543,40.751623],[-74.060542,40.751678],[-74.060651,40.751623]],[[-74.060542,40.751678],[-74.060506,40.751705],[-74.060542,40.751705],[-74.060542,40.751678]],[[-74.071453,40.755809],[-74.071489,40.755864],[-74.071489,40.755809],[-74.071453,40.755809]],[[-74.071633,40.755919],[-74.071668,40.755974],[-74.071669,40.755919],[-74.071633,40.755919]]],[[[-74.052358,40.72878],[-74.052394,40.728753],[-74.052394,40.72878],[-74.052358,40.72878]]],[[[-74.052358,40.728808],[-74.052321,40.728917],[-74.052321,40.728808],[-74.052358,40.728808]]],[[[-74.052321,40.728917],[-74.051917,40.729986],[-74.051552,40.730561],[-74.051445,40.730341],[-74.052321,40.728917]]],[[[-74.051552,40.730561],[-74.05126,40.731027],[-74.049276,40.730937],[-74.050576,40.730805],[-74.051337,40.730396],[-74.051552,40.730561]]],[[[-74.04906,40.730909],[-74.049168,40.730882],[-74.049168,40.730909],[-74.04906,40.730909]]],[[[-74.052235,40.730976],[-74.052199,40.730948],[-74.052235,40.730948],[-74.052235,40.730976]]],[[[-74.052271,40.730976],[-74.052235,40.731003],[-74.052235,40.730976],[-74.052271,40.730976]]],[[[-74.052414,40.731114],[-74.052378,40.731086],[-74.052414,40.731086],[-74.052414,40.731114]]],[[[-74.05245,40.731169],[-74.052414,40.731169],[-74.052414,40.731141],[-74.05245,40.731141],[-74.05245,40.731169]]],[[[-74.052486,40.731196],[-74.05245,40.731169],[-74.052486,40.731169],[-74.052486,40.731196]]],[[[-74.052486,40.731224],[-74.052522,40.731197],[-74.052522,40.731224],[-74.052486,40.731224]]],[[[-74.052233,40.731223],[-74.052269,40.731196],[-74.052269,40.731223],[-74.052233,40.731223]]],[[[-74.052269,40.731223],[-74.052305,40.731251],[-74.052269,40.73125],[-74.052269,40.731223]]],[[[-74.051223,40.731246],[-74.051042,40.731273],[-74.051042,40.731246],[-74.051223,40.731246]]],[[[-74.052341,40.731278],[-74.052377,40.731306],[-74.052341,40.731306],[-74.052341,40.731278]]],[[[-74.051331,40.731274],[-74.051258,40.731301],[-74.051258,40.731274],[-74.051331,40.731274]]],[[[-74.052449,40.731334],[-74.052485,40.731306],[-74.052485,40.731334],[-74.052449,40.731334]]],[[[-74.052377,40.731306],[-74.052413,40.731333],[-74.052377,40.731333],[-74.052377,40.731306]]],[[[-74.050823,40.731684],[-74.051113,40.731411],[-74.051221,40.731411],[-74.050823,40.731684]]],[[[-74.047321,40.731917],[-74.050139,40.731379],[-74.050969,40.731383],[-74.049738,40.731982],[-74.047321,40.731917]]],[[[-74.039396,40.735153],[-74.039432,40.735125],[-74.039432,40.735153],[-74.039396,40.735153]]],[[[-74.036002,40.735359],[-74.035606,40.735338],[-74.035606,40.735302],[-74.036002,40.735359]]],[[[-74.040908,40.735625],[-74.040872,40.735598],[-74.040909,40.735598],[-74.040908,40.735625]]],[[[-74.040728,40.735652],[-74.0408,40.735597],[-74.040764,40.735652],[-74.040728,40.735652]]],[[[-74.043359,40.736129],[-74.043431,40.736102],[-74.043431,40.736129],[-74.043359,40.736129]]],[[[-74.043142,40.736156],[-74.043106,40.736156],[-74.043106,40.736128],[-74.043142,40.736128],[-74.043142,40.736156]]],[[[-74.043683,40.736185],[-74.043647,40.736158],[-74.043683,40.736158],[-74.043683,40.736185]]],[[[-74.043178,40.736183],[-74.043142,40.736156],[-74.043178,40.736156],[-74.043178,40.736183]]],[[[-74.04307,40.736183],[-74.043034,40.736155],[-74.04307,40.736155],[-74.04307,40.736183]]],[[[-74.043466,40.736294],[-74.043538,40.736267],[-74.043538,40.736295],[-74.043466,40.736294]]],[[[-74.043862,40.736406],[-74.043826,40.736433],[-74.043826,40.736405],[-74.043862,40.736406]]],[[[-74.045089,40.736493],[-74.045305,40.736466],[-74.045305,40.736521],[-74.045089,40.736493]]],[[[-74.043682,40.736432],[-74.046024,40.736936],[-74.045584,40.737867],[-74.045798,40.73828],[-74.04529,40.73869],[-74.045176,40.739513],[-74.044779,40.739593],[-74.044196,40.74036],[-74.044264,40.740909],[-74.043325,40.741015],[-74.042441,40.743619],[-74.042004,40.744304],[-74.041859,40.744331],[-74.041858,40.74455],[-74.041567,40.744769],[-74.041566,40.744933],[-74.041494,40.744906],[-74.041386,40.74496],[-74.041237,40.745509],[-74.040185,40.746355],[-74.040184,40.746438],[-74.040148,40.746438],[-74.040184,40.74652],[-74.039198,40.748191],[-74.038944,40.748354],[-74.039015,40.748519],[-74.038725,40.748683],[-74.038688,40.748847],[-74.038723,40.749012],[-74.038651,40.748984],[-74.038615,40.749012],[-74.038577,40.749149],[-74.038613,40.749231],[-74.038505,40.749258],[-74.038358,40.749505],[-74.038429,40.749725],[-74.037981,40.750437],[-74.037992,40.750272],[-74.037729,40.75029],[-74.03858,40.748847],[-74.039603,40.746747],[-74.041619,40.744285],[-74.041521,40.743999],[-74.042208,40.742804],[-74.042169,40.741354],[-74.043516,40.740349],[-74.043782,40.739857],[-74.043922,40.739012],[-74.04352,40.738505],[-74.043911,40.73754],[-74.042837,40.736505],[-74.042817,40.736182],[-74.043682,40.736432]],[[-74.042004,40.744249],[-74.041968,40.744221],[-74.041968,40.744249],[-74.042004,40.744249]],[[-74.041858,40.744468],[-74.041822,40.74444],[-74.041822,40.744468],[-74.041858,40.744468]],[[-74.041785,40.744577],[-74.041749,40.74455],[-74.041749,40.744577],[-74.041785,40.744577]],[[-74.041749,40.744632],[-74.041713,40.744605],[-74.041713,40.744632],[-74.041749,40.744632]],[[-74.041567,40.744879],[-74.041531,40.744851],[-74.04153,40.744878],[-74.041567,40.744879]],[[-74.040148,40.74652],[-74.040112,40.746492],[-74.040112,40.74652],[-74.040148,40.74652]],[[-74.038943,40.748437],[-74.038907,40.748464],[-74.038943,40.748464],[-74.038943,40.748437]],[[-74.038577,40.749231],[-74.038541,40.749204],[-74.038541,40.749231],[-74.038577,40.749231]]],[[[-74.041676,40.744714],[-74.041712,40.744687],[-74.041712,40.744714],[-74.041676,40.744714]]],[[[-74.041639,40.744769],[-74.041676,40.744742],[-74.041676,40.744769],[-74.041639,40.744769]]],[[[-74.041494,40.744961],[-74.04153,40.744933],[-74.04153,40.744961],[-74.041494,40.744961]]],[[[-74.040511,40.746137],[-74.040547,40.74611],[-74.040547,40.746137],[-74.040511,40.746137]]],[[[-74.040402,40.746219],[-74.040438,40.746247],[-74.040402,40.746246],[-74.040402,40.746219]]],[[[-74.040366,40.746246],[-74.040402,40.746274],[-74.040366,40.746274],[-74.040366,40.746246]]],[[[-74.040257,40.746383],[-74.040293,40.746356],[-74.040293,40.746383],[-74.040257,40.746383]]],[[[-74.04022,40.746465],[-74.040184,40.746438],[-74.04022,40.746438],[-74.04022,40.746465]]],[[[-74.038724,40.748793],[-74.038761,40.748765],[-74.03876,40.748793],[-74.038724,40.748793]]],[[[-74.038544,40.748819],[-74.038514,40.748819],[-74.038544,40.748765],[-74.038544,40.748819]]],[[[-74.03876,40.748793],[-74.038796,40.74882],[-74.03876,40.74882],[-74.03876,40.748793]]],[[[-74.03865,40.749039],[-74.038687,40.749012],[-74.038687,40.74904],[-74.03865,40.749039]]],[[[-74.038614,40.749122],[-74.03865,40.749094],[-74.03865,40.749122],[-74.038614,40.749122]]],[[[-74.038504,40.749341],[-74.03854,40.749313],[-74.03854,40.749341],[-74.038504,40.749341]]],[[[-74.037884,40.750326],[-74.037919,40.750354],[-74.037883,40.750354],[-74.037884,40.750326]]],[[[-74.052035,40.760824],[-74.052028,40.760813],[-74.052035,40.760813],[-74.052035,40.760824]]]]}}]}