{"type":"FeatureCollection","features":[{"type":"Feature","properties":{"level_ft":18},"geometry":{"type":"MultiPolygon","coordinates":[[[[-74.09638,40.680987],[-74.096344,40.680959],[-74.09638,40.68096],[-74.09638,40.680987]]],[[[-74.097063,40.681209],[-74.097099,40.681237],[-74.097063,40.681236],[-74.097063,40.681209]]],[[[-74.098386,40.683135],[-74.09835,40.683162],[-74.09835,40.683135],[-74.098386,40.683135]]],[[[-74.097874,40.684286],[-74.097838,40.684314],[-74.097838,40.684286],[-74.097874,40.684286]]],[[[-74.097802,40.684286],[-74.097766,40.684313],[-74.097766,40.684286],[-74.097802,40.684286]]],[[[-74.097982,40.684342],[-74.097946,40.684314],[-74.097982,40.684314],[-74.097982,40.684342]]],[[[-74.09809,40.684369],[-74.098054,40.684397],[-74.098054,40.684369],[-74.09809,40.684369]]],[[[-74.096356,40.684857],[-74.09632,40.68483],[-74.096356,40.68483],[-74.096356,40.684857]]],[[[-74.095737,40.685844],[-74.096098,40.68579],[-74.096098,40.685872],[-74.095737,40.685844]]],[[[-74.095446,40.686254],[-74.09552,40.686062],[-74.096096,40.686147],[-74.096058,40.686394],[-74.095446,40.686254]]],[[[-74.094724,40.686416],[-74.0944,40.686333],[-74.09469,40.686059],[-74.095123,40.686061],[-74.095086,40.686226],[-74.095375,40.686089],[-74.094831,40.686664],[-74.094724,40.686416]],[[-74.094724,40.686416],[-74.094833,40.686362],[-74.094725,40.686334],[-74.094724,40.686416]]],[[[-74.09458,40.686443],[-74.094616,40.686416],[-74.094616,40.686443],[-74.09458,40.686443]]],[[[-74.094182,40.686579],[-74.094218,40.686607],[-74.094182,40.686607],[-74.094182,40.686579]]],[[[-74.094218,40.686689],[-74.094254,40.686607],[-74.09429,40.686689],[-74.094218,40.686689]]],[[[-74.094433,40.686772],[-74.094398,40.686745],[-74.094434,40.686745],[-74.094433,40.686772]]],[[[-74.098725,40.68676],[-74.098976,40.686953],[-74.098724,40.686815],[-74.098725,40.68676]]],[[[-74.094001,40.686798],[-74.094108,40.686881],[-74.093964,40.686853],[-74.094001,40.686798]]],[[[-74.094396,40.687019],[-74.09418,40.686909],[-74.094288,40.686909],[-74.094396,40.687019]]],[[[-74.093639,40.687017],[-74.093674,40.687044],[-74.093638,40.687044],[-74.093639,40.687017]]],[[[-74.097925,40.6878],[-74.098579,40.687006],[-74.099152,40.687722],[-74.098685,40.687446],[-74.098213,40.687829],[-74.097925,40.6878]]],[[[-74.092841,40.687755],[-74.092805,40.687727],[-74.092841,40.687727],[-74.092841,40.687755]]],[[[-74.092805,40.687755],[-74.092768,40.687782],[-74.092769,40.687755],[-74.092805,40.687755]]],[[[-74.092768,40.68781],[-74.092732,40.687782],[-74.092768,40.687782],[-74.092768,40.68781]]],[[[-74.092624,40.687809],[-74.09266,40.687864],[-74.092551,40.687946],[-74.092624,40.687809]]],[[[-74.098032,40.687938],[-74.097924,40.687992],[-74.097924,40.687937],[-74.098032,40.687938]]],[[[-74.092189,40.688247],[-74.092152,40.688274],[-74.092153,40.688247],[-74.092189,40.688247]]],[[[-74.091935,40.688493],[-74.091899,40.688465],[-74.091935,40.688465],[-74.091935,40.688493]]],[[[-74.091863,40.688493],[-74.091898,40.68852],[-74.091862,40.68852],[-74.091863,40.688493]]],[[[-74.091826,40.688547],[-74.09179,40.688575],[-74.09179,40.688547],[-74.091826,40.688547]]],[[[-74.092476,40.68844],[-74.092113,40.688795],[-74.091933,40.68885],[-74.092259,40.688549],[-74.092476,40.68844]]],[[[-74.089397,40.690625],[-74.090412,40.689805],[-74.090236,40.689091],[-74.091898,40.688657],[-74.091826,40.688575],[-74.091971,40.688493],[-74.091935,40.68841],[-74.092188,40.688329],[-74.092189,40.688164],[-74.092334,40.688055],[-74.092587,40.688028],[-74.093094,40.687646],[-74.092878,40.68759],[-74.093349,40.68718],[-74.093458,40.687126],[-74.093638,40.687154],[-74.093855,40.686935],[-74.094215,40.687073],[-74.089397,40.690625]],[[-74.090412,40.689778],[-74.090485,40.689723],[-74.090413,40.689723],[-74.090412,40.689778]],[[-74.090486,40.689558],[-74.090522,40.689531],[-74.090486,40.689531],[-74.090486,40.689558]],[[-74.090522,40.689531],[-74.090558,40.689504],[-74.090522,40.689503],[-74.090522,40.689531]],[[-74.090558,40.689504],[-74.090594,40.689476],[-74.090558,40.689476],[-74.090558,40.689504]],[[-74.090594,40.689476],[-74.090631,40.689449],[-74.090595,40.689449],[-74.090594,40.689476]],[[-74.090631,40.689449],[-74.090667,40.689422],[-74.090631,40.689422],[-74.090631,40.689449]],[[-74.090667,40.689422],[-74.090703,40.689394],[-74.090667,40.689394],[-74.090667,40.689422]],[[-74.090703,40.689394],[-74.090739,40.689367],[-74.090703,40.689367],[-74.090703,40.689394]],[[-74.090739,40.689367],[-74.090776,40.68934],[-74.090739,40.68934],[-74.090739,40.689367]],[[-74.090776,40.68934],[-74.090812,40.689312],[-74.090776,40.689312],[-74.090776,40.68934]],[[-74.092225,40.688247],[-74.092261,40.688219],[-74.092225,40.688219],[-74.092225,40.688247]],[[-74.092261,40.688219],[-74.092297,40.688192],[-74.092261,40.688192],[-74.092261,40.688219]],[[-74.092297,40.688192],[-74.092333,40.688165],[-74.092297,40.688165],[-74.092297,40.688192]],[[-74.092333,40.688165],[-74.09237,40.688137],[-74.092334,40.688137],[-74.092333,40.688165]],[[-74.093566,40.687154],[-74.093529,40.687181],[-74.093565,40.687181],[-74.093566,40.687154]],[[-74.093238,40.687701],[-74.093382,40.687674],[-74.093382,40.687647],[-74.093238,40.687701]]],[[[-74.099359,40.68915],[-74.099395,40.689178],[-74.099359,40.689178],[-74.099359,40.68915]]],[[[-74.099431,40.689178],[-74.099467,40.689205],[-74.099431,40.689205],[-74.099431,40.689178]]],[[[-74.100582,40.689786],[-74.099646,40.689535],[-74.099683,40.689371],[-74.099503,40.689288],[-74.09954,40.689178],[-74.099396,40.689123],[-74.100009,40.689125],[-74.100582,40.689786]]],[[[-74.100582,40.689676],[-74.100546,40.689676],[-74.100547,40.689648],[-74.100583,40.689649],[-74.100582,40.689676]]],[[[-74.100618,40.689704],[-74.100582,40.689676],[-74.100619,40.689676],[-74.100618,40.689704]]],[[[-74.090269,40.689695],[-74.090304,40.689722],[-74.090268,40.689722],[-74.090269,40.689695]]],[[[-74.099498,40.690057],[-74.099537,40.689617],[-74.099897,40.689756],[-74.099967,40.690086],[-74.099498,40.690057]]],[[[-74.090304,40.689832],[-74.090268,40.689805],[-74.090304,40.689805],[-74.090304,40.689832]]],[[[-74.095169,40.726056],[-74.098962,40.727552],[-74.097897,40.73072],[-74.095303,40.735005],[-74.090421,40.735455],[-74.089413,40.735122],[-74.089121,40.735532],[-74.08717,40.735992],[-74.086592,40.73599],[-74.08562,40.735602],[-74.085582,40.735959],[-74.085978,40.736208],[-74.075789,40.738119],[-74.072654,40.737312],[-74.073089,40.737094],[-74.072837,40.736873],[-74.073311,40.736134],[-74.074251,40.73589],[-74.074538,40.736166],[-74.074974,40.735701],[-74.07555,40.735868],[-74.075552,40.735621],[-74.075877,40.735622],[-74.076389,40.734443],[-74.075418,40.734001],[-74.07578,40.733782],[-74.075637,40.73359],[-74.074879,40.733587],[-74.074994,40.732572],[-74.076583,40.73233],[-74.076977,40.732826],[-74.077519,40.732718],[-74.077951,40.732884],[-74.078021,40.733159],[-74.078744,40.733107],[-74.078673,40.732887],[-74.079034,40.732751],[-74.079581,40.731985],[-74.080051,40.731849],[-74.080634,40.730863],[-74.080672,40.730506],[-74.079953,40.730174],[-74.080536,40.729298],[-74.080212,40.729187],[-74.080395,40.728666],[-74.080145,40.728336],[-74.080722,40.728393],[-74.081157,40.72801],[-74.081264,40.728257],[-74.08238,40.728618],[-74.083213,40.72821],[-74.082675,40.727686],[-74.081663,40.727847],[-74.081524,40.727051],[-74.081813,40.727024],[-74.081098,40.725978],[-74.081101,40.725512],[-74.082042,40.724994],[-74.08212,40.724033],[-74.08263,40.723321],[-74.083824,40.722804],[-74.083719,40.722282],[-74.083321,40.722336],[-74.083325,40.721759],[-74.083976,40.721514],[-74.083401,40.721101],[-74.084089,40.720719],[-74.084558,40.720803],[-74.084668,40.720529],[-74.085136,40.72064],[-74.08478,40.71987],[-74.085502,40.719791],[-74.085504,40.719434],[-74.086335,40.719217],[-74.086087,40.71853],[-74.086593,40.718422],[-74.086522,40.718202],[-74.087424,40.71826],[-74.087855,40.718509],[-74.087858,40.718042],[-74.088831,40.718265],[-74.088618,40.717661],[-74.089232,40.717608],[-74.089269,40.717306],[-74.088767,40.71692],[-74.089199,40.717004],[-74.089489,40.71673],[-74.088843,40.716261],[-74.08906,40.716098],[-74.088919,40.715576],[-74.088415,40.715436],[-74.088309,40.715107],[-74.087734,40.714775],[-74.087986,40.714749],[-74.087989,40.714337],[-74.08853,40.714284],[-74.0886,40.714669],[-74.089105,40.714698],[-74.088998,40.71445],[-74.089287,40.714479],[-74.089471,40.713821],[-74.090013,40.71374],[-74.089838,40.712779],[-74.090163,40.712862],[-74.090707,40.712288],[-74.090529,40.711958],[-74.08948,40.712448],[-74.089265,40.712118],[-74.089049,40.712172],[-74.089123,40.711843],[-74.089413,40.71157],[-74.090097,40.711846],[-74.09035,40.711655],[-74.090027,40.711489],[-74.090534,40.711052],[-74.090066,40.710995],[-74.089888,40.710583],[-74.090356,40.710777],[-74.090216,40.71009],[-74.090542,40.709817],[-74.091154,40.709956],[-74.092384,40.709521],[-74.092238,40.70974],[-74.09231,40.709823],[-74.09289,40.709358],[-74.092927,40.709084],[-74.092388,40.708725],[-74.092499,40.708369],[-74.092824,40.708315],[-74.092792,40.707684],[-74.094134,40.706371],[-74.094821,40.706181],[-74.094499,40.705658],[-74.094896,40.705605],[-74.09541,40.704179],[-74.095915,40.704099],[-74.095811,40.703494],[-74.096317,40.703276],[-74.096429,40.702591],[-74.096754,40.702647],[-74.097155,40.701825],[-74.09748,40.701853],[-74.0977,40.701277],[-74.098713,40.700677],[-74.098896,40.700266],[-74.098721,40.699469],[-74.099299,40.699224],[-74.10032,40.697306],[-74.100717,40.697308],[-74.100937,40.696732],[-74.101298,40.696733],[-74.101083,40.696485],[-74.101737,40.695719],[-74.101275,40.694482],[-74.101746,40.694072],[-74.102456,40.694596],[-74.102852,40.695432],[-74.114232,40.700952],[-74.114309,40.704609],[-74.116408,40.709735],[-74.113869,40.712314],[-74.110167,40.715375],[-74.10747,40.717075],[-74.102976,40.71933],[-74.10177,40.720231],[-74.100089,40.722867],[-74.099011,40.727277],[-74.097078,40.726667],[-74.095315,40.72581],[-74.095099,40.725809],[-74.095169,40.726056]],[[-74.08562,40.735602],[-74.085585,40.735575],[-74.085584,40.735602],[-74.08562,40.735602]],[[-74.080536,40.72927],[-74.080572,40.729243],[-74.080536,40.729243],[-74.080536,40.72927]],[[-74.090163,40.712862],[-74.090198,40.71289],[-74.090199,40.712862],[-74.090163,40.712862]],[[-74.090198,40.71289],[-74.090234,40.712918],[-74.090235,40.71289],[-74.090198,40.71289]],[[-74.092058,40.709712],[-74.091985,40.70974],[-74.092058,40.70974],[-74.092058,40.709712]],[[-74.091985,40.70974],[-74.091949,40.709794],[-74.091985,40.709794],[-74.091985,40.70974]],[[-74.092599,40.709632],[-74.092635,40.709659],[-74.092635,40.709632],[-74.092599,40.709632]],[[-74.095062,40.725946],[-74.095026,40.725918],[-74.095026,40.725946],[-74.095062,40.725946]]],[[[-74.08479,40.683416],[-74.084754,40.683389],[-74.08479,40.683389],[-74.08479,40.683416]]],[[[-74.084862,40.683444],[-74.084826,40.683417],[-74.084862,40.683417],[-74.084862,40.683444]]],[[[-74.085006,40.683472],[-74.08497,40.683499],[-74.08497,40.683472],[-74.085006,40.683472]]],[[[-74.085078,40.683527],[-74.085042,40.6835],[-74.085078,40.6835],[-74.085078,40.683527]]],[[[-74.08515,40.683555],[-74.085114,40.683527],[-74.08515,40.683528],[-74.08515,40.683555]]],[[[-74.085402,40.683611],[-74.085329,40.683665],[-74.08533,40.683611],[-74.085402,40.683611]]],[[[-74.0872,40.684386],[-74.087164,40.684358],[-74.0872,40.684358],[-74.0872,40.684386]]],[[[-74.087272,40.684414],[-74.087236,40.684386],[-74.087272,40.684386],[-74.087272,40.684414]]],[[[-74.087919,40.684718],[-74.087883,40.68469],[-74.087919,40.68469],[-74.087919,40.684718]]],[[[-74.088027,40.684746],[-74.087991,40.684773],[-74.087991,40.684746],[-74.088027,40.684746]]],[[[-74.088099,40.684773],[-74.088063,40.684801],[-74.088063,40.684773],[-74.088099,40.684773]]],[[[-74.088207,40.684856],[-74.088171,40.684829],[-74.088207,40.684829],[-74.088207,40.684856]]],[[[-74.088243,40.684856],[-74.088279,40.684884],[-74.088243,40.684884],[-74.088243,40.684856]]],[[[-74.088315,40.684911],[-74.088279,40.684884],[-74.088315,40.684884],[-74.088315,40.684911]]],[[[-74.088422,40.684967],[-74.088386,40.684939],[-74.088423,40.684939],[-74.088422,40.684967]]],[[[-74.08943,40.685355],[-74.089393,40.685382],[-74.089394,40.685354],[-74.08943,40.685355]]],[[[-74.090114,40.685549],[-74.090077,40.685577],[-74.090078,40.685549],[-74.090114,40.685549]]],[[[-74.088992,40.686094],[-74.089029,40.686067],[-74.089028,40.686094],[-74.088992,40.686094]]],[[[-74.088703,40.686258],[-74.088739,40.686231],[-74.088739,40.686258],[-74.088703,40.686258]]],[[[-74.088631,40.686285],[-74.088667,40.686258],[-74.088667,40.686285],[-74.088631,40.686285]]],[[[-74.090249,40.686922],[-74.089779,40.68714],[-74.089635,40.687112],[-74.089744,40.686948],[-74.090249,40.686922]]],[[[-74.085412,40.687783],[-74.08534,40.687811],[-74.08534,40.687783],[-74.085412,40.687783]]],[[[-74.086951,40.68971],[-74.086915,40.689683],[-74.086951,40.689683],[-74.086951,40.68971]]],[[[-74.090268,40.689832],[-74.090231,40.689887],[-74.090232,40.689832],[-74.090268,40.689832]]],[[[-74.089652,40.690269],[-74.089108,40.690706],[-74.089145,40.690569],[-74.089652,40.690269]]],[[[-74.089325,40.690652],[-74.089289,40.690625],[-74.089325,40.690625],[-74.089325,40.690652]]],[[[-74.089289,40.690652],[-74.089253,40.690679],[-74.089253,40.690652],[-74.089289,40.690652]]],[[[-74.089216,40.690734],[-74.089397,40.690625],[-74.089216,40.690789],[-74.089216,40.690734]]],[[[-74.089144,40.690789],[-74.089216,40.690816],[-74.089144,40.690844],[-74.089144,40.690789]]],[[[-74.088891,40.690925],[-74.089143,40.690871],[-74.08889,40.691035],[-74.088891,40.690925]]],[[[-74.085753,40.690969],[-74.085825,40.690887],[-74.085825,40.690969],[-74.085753,40.690969]]],[[[-74.085752,40.691051],[-74.085644,40.691078],[-74.085753,40.690969],[-74.085752,40.691051]]],[[[-74.08889,40.691035],[-74.088636,40.691226],[-74.088673,40.691116],[-74.08889,40.691035]]],[[[-74.085427,40.691242],[-74.085644,40.691078],[-74.085426,40.691297],[-74.085427,40.691242]]],[[[-74.087548,40.69232],[-74.087512,40.692293],[-74.087548,40.692293],[-74.087548,40.69232]]],[[[-74.087511,40.692348],[-74.087476,40.69232],[-74.087512,40.69232],[-74.087511,40.692348]]],[[[-74.087475,40.692402],[-74.087439,40.692347],[-74.087475,40.692347],[-74.087475,40.692402]]],[[[-74.088903,40.735834],[-74.088792,40.736218],[-74.088215,40.736188],[-74.088433,40.735887],[-74.088903,40.735834]]],[[[-74.087711,40.736049],[-74.087565,40.736323],[-74.087277,40.736185],[-74.087277,40.736102],[-74.087711,40.736049]]],[[[-74.083643,40.740262],[-74.076113,40.738203],[-74.08623,40.736291],[-74.086627,40.736292],[-74.087237,40.736816],[-74.088896,40.736959],[-74.090671,40.735895],[-74.090492,40.735565],[-74.095174,40.73517],[-74.093398,40.737015],[-74.090175,40.738579],[-74.08703,40.739535],[-74.083643,40.740262]]],[[[-74.084286,40.68325],[-74.08425,40.683222],[-74.084286,40.683223],[-74.084286,40.68325]]],[[[-74.084466,40.683306],[-74.08443,40.683278],[-74.084466,40.683278],[-74.084466,40.683306]]],[[[-74.08443,40.683305],[-74.084394,40.683333],[-74.084394,40.683305],[-74.08443,40.683305]]],[[[-74.08385,40.695327],[-74.083887,40.695299],[-74.083886,40.695327],[-74.08385,40.695327]]],[[[-74.083814,40.695354],[-74.08385,40.695327],[-74.08385,40.695354],[-74.083814,40.695354]]],[[[-74.08298,40.696037],[-74.082945,40.69601],[-74.082981,40.69601],[-74.08298,40.696037]]],[[[-74.082401,40.696419],[-74.082365,40.696392],[-74.082401,40.696392],[-74.082401,40.696419]]],[[[-74.068045,40.702268],[-74.068809,40.701255],[-74.069419,40.701752],[-74.068513,40.702462],[-74.068045,40.702268]]],[[[-74.071997,40.732945],[-74.071854,40.732587],[-74.072979,40.731631],[-74.073585,40.732786],[-74.072503,40.732782],[-74.072716,40.733304],[-74.072175,40.733302],[-74.07192,40.733686],[-74.071667,40.733657],[-74.071997,40.732945]]],[[[-74.072112,40.737447],[-74.072293,40.737393],[-74.072292,40.737448],[-74.072112,40.737447]]],[[[-74.074202,40.737867],[-74.07413,40.737894],[-74.07413,40.737866],[-74.074202,40.737867]]],[[[-74.074202,40.737894],[-74.07431,40.737922],[-74.074202,40.737921],[-74.074202,40.737894]]],[[[-74.072937,40.738164],[-74.072181,40.737941],[-74.07222,40.73753],[-74.074886,40.738253],[-74.073043,40.738603],[-74.072937,40.738164]]],[[[-74.078706,40.739118],[-74.07867,40.739091],[-74.078706,40.739091],[-74.078706,40.739118]]],[[[-74.078814,40.739119],[-74.078742,40.739146],[-74.078742,40.739118],[-74.078814,40.739119]]],[[[-74.078381,40.739117],[-74.078308,40.739144],[-74.078309,40.739117],[-74.078381,40.739117]]],[[[-74.07885,40.739146],[-74.07903,40.739174],[-74.079102,40.73923],[-74.07885,40.739146]]],[[[-74.078344,40.739172],[-74.07838,40.7392],[-74.078344,40.739199],[-74.078344,40.739172]]],[[[-74.073942,40.739073],[-74.072895,40.739234],[-74.072715,40.739069],[-74.073942,40.739073]]],[[[-74.078596,40.739255],[-74.078525,40.739145],[-74.078813,40.739256],[-74.078596,40.739255]]],[[[-74.079174,40.73923],[-74.079102,40.739257],[-74.079102,40.73923],[-74.079174,40.73923]]],[[[-74.079174,40.739257],[-74.079246,40.739285],[-74.079174,40.739285],[-74.079174,40.739257]]],[[[-74.078921,40.739256],[-74.078993,40.739312],[-74.078813,40.739256],[-74.078921,40.739256]]],[[[-74.080578,40.739811],[-74.080542,40.739784],[-74.080578,40.739784],[-74.080578,40.739811]]],[[[-74.080686,40.739867],[-74.080758,40.739894],[-74.080686,40.739894],[-74.080686,40.739867]]],[[[-74.08083,40.739895],[-74.080794,40.739949],[-74.080758,40.739894],[-74.08083,40.739895]]],[[[-74.080866,40.73984],[-74.079065,40.739394],[-74.078993,40.739312],[-74.079606,40.739424],[-74.079282,40.739258],[-74.079679,40.739232],[-74.083641,40.740344],[-74.082233,40.740668],[-74.080866,40.73984]]],[[[-74.080902,40.73995],[-74.080866,40.739977],[-74.080866,40.73995],[-74.080902,40.73995]]],[[[-74.08101,40.740005],[-74.080973,40.740032],[-74.080974,40.740005],[-74.08101,40.740005]]],[[[-74.081081,40.740088],[-74.081046,40.740033],[-74.081082,40.740033],[-74.081081,40.740088]]],[[[-74.077094,40.743148],[-74.070857,40.741807],[-74.07046,40.741888],[-74.070646,40.740955],[-74.071008,40.740847],[-74.071592,40.739806],[-74.071304,40.739585],[-74.073688,40.739347],[-74.075311,40.739463],[-74.075706,40.739849],[-74.075702,40.74048],[-74.075448,40.740699],[-74.074508,40.740887],[-74.073608,40.740554],[-74.074327,40.740969],[-74.075266,40.74089],[-74.076137,40.740097],[-74.076105,40.739438],[-74.075888,40.739547],[-74.074773,40.739022],[-74.072752,40.739014],[-74.072717,40.738794],[-74.07539,40.738338],[-74.076579,40.738699],[-74.076793,40.739029],[-74.080073,40.73981],[-74.081865,40.740777],[-74.07943,40.741797],[-74.077094,40.743148]]],[[[-74.068589,40.740893],[-74.068553,40.74092],[-74.068553,40.740893],[-74.068589,40.740893]]],[[[-74.068406,40.741386],[-74.068046,40.741248],[-74.068337,40.740809],[-74.068482,40.740782],[-74.068406,40.741386]]],[[[-74.068587,40.741195],[-74.068551,40.741222],[-74.068551,40.741194],[-74.068587,40.741195]]],[[[-74.068478,40.741331],[-74.068514,40.741304],[-74.068514,40.741332],[-74.068478,40.741331]]],[[[-74.068116,40.74155],[-74.068077,40.741989],[-74.067423,40.742618],[-74.067534,40.742206],[-74.06739,40.742123],[-74.067755,40.741603],[-74.068116,40.74155]],[[-74.067899,40.741604],[-74.067862,40.741659],[-74.067899,40.741659],[-74.067899,40.741604]],[[-74.067862,40.741659],[-74.067826,40.741686],[-74.067862,40.741686],[-74.067862,40.741659]],[[-74.067935,40.741604],[-74.067971,40.741632],[-74.067971,40.741604],[-74.067935,40.741604]]],[[[-74.067462,40.742206],[-74.067498,40.742261],[-74.067462,40.742261],[-74.067462,40.742206]]],[[[-74.068212,40.749016],[-74.068248,40.749044],[-74.068212,40.749044],[-74.068212,40.749016]]],[[[-74.070804,40.750014],[-74.070841,40.749987],[-74.07084,40.750014],[-74.070804,40.750014]]],[[[-74.071168,40.755149],[-74.071132,40.755176],[-74.071132,40.755149],[-74.071168,40.755149]]],[[[-74.098494,40.68319],[-74.098878,40.682698],[-74.100382,40.687013],[-74.100234,40.687671],[-74.098797,40.686705],[-74.097902,40.685604],[-74.097653,40.684999],[-74.09798,40.684671],[-74.097514,40.68423],[-74.098053,40.684589],[-74.098307,40.684288],[-74.097911,40.684149],[-74.097912,40.68393],[-74.097515,40.683983],[-74.096135,40.68568],[-74.095738,40.685706],[-74.098535,40.682367],[-74.096248,40.684802],[-74.095594,40.685706],[-74.095161,40.685704],[-74.096904,40.683679],[-74.097707,40.682117],[-74.098251,40.681625],[-74.096845,40.681538],[-74.097207,40.681237],[-74.097208,40.681072],[-74.096668,40.680933],[-74.095731,40.680902],[-74.095906,40.681699],[-74.094562,40.683396],[-74.093698,40.683146],[-74.093265,40.683227],[-74.09118,40.682204],[-74.090817,40.68256],[-74.091033,40.682643],[-74.090959,40.682944],[-74.091752,40.683002],[-74.092144,40.683745],[-74.091853,40.684155],[-74.091241,40.683961],[-74.090735,40.684206],[-74.088795,40.682992],[-74.087608,40.682466],[-74.087031,40.682464],[-74.086746,40.682051],[-74.084086,40.680669],[-74.083546,40.680557],[-74.083075,40.680803],[-74.081912,40.682363],[-74.084143,40.68314],[-74.084142,40.683304],[-74.08443,40.683388],[-74.08461,40.683306],[-74.084861,40.683554],[-74.084934,40.683499],[-74.085113,40.683582],[-74.085258,40.683555],[-74.085257,40.683693],[-74.085474,40.683639],[-74.086589,40.684027],[-74.087164,40.684331],[-74.087128,40.684386],[-74.087164,40.684413],[-74.087523,40.684607],[-74.088063,40.684828],[-74.088171,40.684801],[-74.088135,40.684856],[-74.088422,40.685077],[-74.089825,40.685521],[-74.089031,40.68571],[-74.089066,40.68582],[-74.088885,40.685957],[-74.088993,40.686067],[-74.088559,40.686257],[-74.088449,40.686422],[-74.085304,40.687755],[-74.085339,40.687838],[-74.085448,40.687838],[-74.085881,40.687703],[-74.08834,40.686668],[-74.085953,40.687785],[-74.086096,40.688005],[-74.085951,40.688032],[-74.085951,40.688087],[-74.087107,40.687734],[-74.087863,40.687984],[-74.081659,40.693974],[-74.079484,40.695695],[-74.078939,40.696352],[-74.079009,40.696627],[-74.081619,40.694522],[-74.086664,40.689407],[-74.08927,40.687852],[-74.089488,40.687523],[-74.090789,40.687061],[-74.089811,40.687826],[-74.087677,40.688862],[-74.086081,40.690366],[-74.085826,40.690777],[-74.084556,40.69209],[-74.08539,40.691297],[-74.085426,40.691379],[-74.082849,40.694033],[-74.083243,40.694418],[-74.08299,40.694472],[-74.083241,40.694803],[-74.083492,40.694913],[-74.084507,40.694121],[-74.084038,40.694174],[-74.083783,40.694503],[-74.083316,40.694336],[-74.083535,40.693843],[-74.086474,40.691054],[-74.086043,40.690668],[-74.087168,40.689574],[-74.087745,40.689576],[-74.087814,40.689988],[-74.087631,40.690426],[-74.087016,40.690809],[-74.086828,40.692126],[-74.087224,40.692127],[-74.088674,40.690924],[-74.088783,40.690897],[-74.088891,40.690925],[-74.088492,40.691226],[-74.088636,40.691281],[-74.087005,40.692648],[-74.087367,40.692402],[-74.087403,40.692457],[-74.086098,40.693523],[-74.084032,40.69508],[-74.0836,40.694969],[-74.083851,40.695299],[-74.0828,40.696009],[-74.082687,40.696777],[-74.082435,40.696694],[-74.082438,40.69631],[-74.082003,40.696692],[-74.082291,40.696776],[-74.082036,40.697104],[-74.082322,40.697544],[-74.079605,40.699429],[-74.078776,40.699261],[-74.07577,40.701309],[-74.075369,40.701966],[-74.075654,40.702544],[-74.074857,40.70309],[-74.074524,40.704433],[-74.073362,40.705664],[-74.073684,40.70605],[-74.073317,40.706954],[-74.073568,40.70723],[-74.072547,40.708873],[-74.072361,40.709778],[-74.071965,40.709694],[-74.071347,40.710433],[-74.070626,40.710431],[-74.068933,40.709985],[-74.06897,40.709793],[-74.067925,40.709679],[-74.06814,40.7099],[-74.070697,40.710513],[-74.071127,40.710927],[-74.070333,40.711061],[-74.069969,40.711609],[-74.069572,40.71158],[-74.069132,40.712676],[-74.067456,40.715223],[-74.067563,40.715497],[-74.067056,40.715715],[-74.067054,40.716072],[-74.066584,40.716153],[-74.066106,40.717578],[-74.065636,40.717741],[-74.065997,40.717688],[-74.066103,40.718045],[-74.065411,40.719113],[-74.06494,40.719413],[-74.064682,40.720208],[-74.064393,40.720262],[-74.0645,40.720482],[-74.063956,40.720809],[-74.063664,40.721467],[-74.063339,40.721411],[-74.063121,40.721657],[-74.0633,40.721877],[-74.063117,40.722343],[-74.062101,40.723218],[-74.061444,40.724341],[-74.060975,40.724284],[-74.060141,40.724995],[-74.057298,40.723831],[-74.056253,40.723552],[-74.056,40.723689],[-74.055965,40.723496],[-74.054525,40.723079],[-74.056254,40.718007],[-74.056085,40.716332],[-74.054376,40.712949],[-74.054786,40.710892],[-74.055078,40.710482],[-74.054997,40.711717],[-74.057585,40.718616],[-74.055143,40.71147],[-74.055549,40.710099],[-74.058084,40.708572],[-74.058879,40.708382],[-74.058988,40.708246],[-74.05888,40.708245],[-74.05888,40.708273],[-74.058808,40.708272],[-74.058808,40.7083],[-74.058735,40.7083],[-74.058771,40.708355],[-74.058699,40.708354],[-74.058664,40.708162],[-74.058882,40.708026],[-74.059785,40.707837],[-74.063839,40.705629],[-74.066269,40.703607],[-74.06775,40.703338],[-74.069883,40.70244],[-74.07032,40.701838],[-74.068955,40.700927],[-74.071091,40.699782],[-74.073549,40.698967],[-74.073514,40.698665],[-74.070732,40.699506],[-74.068668,40.700761],[-74.068022,40.700264],[-74.068198,40.700841],[-74.068017,40.700978],[-74.066031,40.70141],[-74.065486,40.701957],[-74.065949,40.702837],[-74.065586,40.703302],[-74.065692,40.703522],[-74.065003,40.704206],[-74.060659,40.706523],[-74.060191,40.706439],[-74.059465,40.707012],[-74.058707,40.707147],[-74.05885,40.707312],[-74.058633,40.707421],[-74.059102,40.707395],[-74.059065,40.707587],[-74.056205,40.709058],[-74.055118,40.709878],[-74.054352,40.711028],[-74.054018,40.712564],[-74.054227,40.713608],[-74.055579,40.71644],[-74.055783,40.718253],[-74.055597,40.71924],[-74.054273,40.722996],[-74.051536,40.722134],[-74.051319,40.722216],[-74.052544,40.722577],[-74.054089,40.723462],[-74.051592,40.730013],[-74.050975,40.730532],[-74.050143,40.730776],[-74.046066,40.730705],[-74.050213,40.731188],[-74.045878,40.731884],[-74.045768,40.732103],[-74.049737,40.732092],[-74.05046,40.731902],[-74.051221,40.731411],[-74.049006,40.733516],[-74.048342,40.735627],[-74.047799,40.7359],[-74.047616,40.736311],[-74.047327,40.736282],[-74.047288,40.736721],[-74.04217,40.735768],[-74.044481,40.735667],[-74.042063,40.735657],[-74.040081,40.735238],[-74.039756,40.735264],[-74.040296,40.735458],[-74.040259,40.73565],[-74.040332,40.735486],[-74.041197,40.735626],[-74.041268,40.735764],[-74.0408,40.735652],[-74.040691,40.735679],[-74.041983,40.736069],[-74.039624,40.73643],[-74.038781,40.736295],[-74.036434,40.735584],[-74.036832,40.735362],[-74.035389,40.735273],[-74.033373,40.734673],[-74.033374,40.734497],[-74.033337,40.734662],[-74.032436,40.734394],[-74.032439,40.734082],[-74.0324,40.734383],[-74.031747,40.734189],[-74.031934,40.734052],[-74.030091,40.733695],[-74.030566,40.733735],[-74.030967,40.731276],[-74.027997,40.731011],[-74.028094,40.730228],[-74.026851,40.72951],[-74.027419,40.729492],[-74.029127,40.730468],[-74.031254,40.730755],[-74.029758,40.729759],[-74.030478,40.729769],[-74.031141,40.730229],[-74.031232,40.729473],[-74.027341,40.729073],[-74.030966,40.729341],[-74.031006,40.728998],[-74.026548,40.728601],[-74.026604,40.72819],[-74.031034,40.728575],[-74.031086,40.728036],[-74.027374,40.727716],[-74.027376,40.727515],[-74.030342,40.727781],[-74.030405,40.727036],[-74.030021,40.726476],[-74.030287,40.726135],[-74.034452,40.726238],[-74.034525,40.725771],[-74.032072,40.725567],[-74.03211,40.725235],[-74.034559,40.725585],[-74.034614,40.725286],[-74.033817,40.725209],[-74.03384,40.725007],[-74.029447,40.724567],[-74.029605,40.723812],[-74.033812,40.724127],[-74.03423,40.722149],[-74.031422,40.721896],[-74.031476,40.720258],[-74.032552,40.720129],[-74.032062,40.719669],[-74.029269,40.719356],[-74.029375,40.718921],[-74.032487,40.719279],[-74.03275,40.717386],[-74.02993,40.717066],[-74.029999,40.716713],[-74.032075,40.716919],[-74.032169,40.71639],[-74.031289,40.716292],[-74.0315,40.715724],[-74.031699,40.716164],[-74.032624,40.716228],[-74.03315,40.714155],[-74.032997,40.713831],[-74.031663,40.713565],[-74.03302,40.713729],[-74.033733,40.711677],[-74.034832,40.711793],[-74.035525,40.711406],[-74.037113,40.711659],[-74.038075,40.711106],[-74.0395,40.711082],[-74.039514,40.71038],[-74.038623,40.710148],[-74.038499,40.709581],[-74.035384,40.70908],[-74.034716,40.709167],[-74.034344,40.70887],[-74.034501,40.707679],[-74.034081,40.707627],[-74.034058,40.707141],[-74.034162,40.706652],[-74.034692,40.706696],[-74.034873,40.705751],[-74.038567,40.70609],[-74.041336,40.704785],[-74.045227,40.702193],[-74.048464,40.699254],[-74.051378,40.696016],[-74.054851,40.69064],[-74.057814,40.691965],[-74.057479,40.69281],[-74.058322,40.693287],[-74.058756,40.692501],[-74.058952,40.692563],[-74.058686,40.693452],[-74.059387,40.693881],[-74.059784,40.693079],[-74.059994,40.693121],[-74.0597,40.694059],[-74.060237,40.694409],[-74.060745,40.693614],[-74.06137,40.693886],[-74.06103,40.695033],[-74.064731,40.697091],[-74.06515,40.697088],[-74.06524,40.697678],[-74.065774,40.698034],[-74.066106,40.698135],[-74.066563,40.696832],[-74.067029,40.696369],[-74.068257,40.696866],[-74.069577,40.695732],[-74.070581,40.694436],[-74.070378,40.693824],[-74.069619,40.694049],[-74.069813,40.694365],[-74.069068,40.695173],[-74.0678,40.695391],[-74.067688,40.695217],[-74.067452,40.695555],[-74.065882,40.694626],[-74.06693,40.694008],[-74.068929,40.691697],[-74.069459,40.690723],[-74.069929,40.688696],[-74.069624,40.685822],[-74.07021,40.684684],[-74.069889,40.68445],[-74.070546,40.683946],[-74.073359,40.686049],[-74.073182,40.686206],[-74.07347,40.686778],[-74.074685,40.687589],[-74.07484,40.687935],[-74.075758,40.68829],[-74.075897,40.688661],[-74.078013,40.688601],[-74.078733,40.688949],[-74.079993,40.688906],[-74.079582,40.688726],[-74.080285,40.687995],[-74.07463,40.683866],[-74.074457,40.683971],[-74.071101,40.681665],[-74.070662,40.680639],[-74.071797,40.679744],[-74.070641,40.679209],[-74.071889,40.679629],[-74.07372,40.679817],[-74.074828,40.678352],[-74.072516,40.677158],[-74.072814,40.676909],[-74.075007,40.678078],[-74.075638,40.677405],[-74.072611,40.675807],[-74.073022,40.675347],[-74.07579,40.676812],[-74.076735,40.676002],[-74.075979,40.67691],[-74.077223,40.675599],[-74.080985,40.677371],[-74.081291,40.677066],[-74.0813,40.676473],[-74.080935,40.676073],[-74.077279,40.674274],[-74.069296,40.670879],[-74.068149,40.670712],[-74.064988,40.669224],[-74.06492,40.66853],[-74.065716,40.66704],[-74.09813,40.680694],[-74.098242,40.680994],[-74.097895,40.680828],[-74.097678,40.680882],[-74.098283,40.681103],[-74.098837,40.682588],[-74.098314,40.683162],[-74.098494,40.68319]],[[-74.098307,40.684288],[-74.098343,40.684233],[-74.098307,40.684233],[-74.098307,40.684288]],[[-74.098307,40.684233],[-74.098271,40.684205],[-74.098271,40.684233],[-74.098307,40.684233]],[[-74.090916,40.68407],[-74.09088,40.684042],[-74.09088,40.68407],[-74.090916,40.68407]],[[-74.09088,40.684042],[-74.090808,40.683987],[-74.090808,40.684014],[-74.09088,40.684042]],[[-74.090808,40.683987],[-74.090773,40.683932],[-74.090772,40.683987],[-74.090808,40.683987]],[[-74.090737,40.683932],[-74.090701,40.683822],[-74.090485,40.683711],[-74.090737,40.683932]],[[-74.090485,40.683711],[-74.090413,40.683684],[-74.090413,40.683711],[-74.090485,40.683711]],[[-74.082883,40.682723],[-74.082847,40.682751],[-74.082883,40.682751],[-74.082883,40.682723]],[[-74.083099,40.682806],[-74.083063,40.682834],[-74.083099,40.682834],[-74.083099,40.682806]],[[-74.083171,40.682834],[-74.083135,40.682862],[-74.083171,40.682862],[-74.083171,40.682834]],[[-74.083243,40.682862],[-74.083207,40.682889],[-74.083243,40.682889],[-74.083243,40.682862]],[[-74.083423,40.682917],[-74.083387,40.682945],[-74.083423,40.682945],[-74.083423,40.682917]],[[-74.083495,40.682945],[-74.083459,40.682972],[-74.083495,40.682973],[-74.083495,40.682945]],[[-74.083567,40.682973],[-74.08353,40.683],[-74.083567,40.683],[-74.083567,40.682973]],[[-74.083639,40.683001],[-74.083602,40.683028],[-74.083638,40.683028],[-74.083639,40.683001]],[[-74.083711,40.683028],[-74.083674,40.683056],[-74.08371,40.683056],[-74.083711,40.683028]],[[-74.083783,40.683056],[-74.083746,40.683083],[-74.083782,40.683083],[-74.083783,40.683056]],[[-74.083891,40.683084],[-74.083854,40.683111],[-74.08389,40.683111],[-74.083891,40.683084]],[[-74.083962,40.683112],[-74.083926,40.683139],[-74.083962,40.683139],[-74.083962,40.683112]],[[-74.084034,40.683139],[-74.083998,40.683167],[-74.084034,40.683167],[-74.084034,40.683139]],[[-74.085258,40.683583],[-74.085221,40.68361],[-74.085257,40.68361],[-74.085258,40.683583]],[[-74.085474,40.683666],[-74.085437,40.683693],[-74.085473,40.683693],[-74.085474,40.683666]],[[-74.085545,40.683694],[-74.085509,40.683721],[-74.085545,40.683721],[-74.085545,40.683694]],[[-74.085617,40.683721],[-74.085581,40.683749],[-74.085617,40.683749],[-74.085617,40.683721]],[[-74.085689,40.683749],[-74.085653,40.683776],[-74.085689,40.683777],[-74.085689,40.683749]],[[-74.086984,40.684275],[-74.086948,40.684303],[-74.086984,40.684303],[-74.086984,40.684275]],[[-74.087092,40.684331],[-74.087056,40.684358],[-74.087092,40.684358],[-74.087092,40.684331]],[[-74.08903,40.68582],[-74.088994,40.685792],[-74.088994,40.68582],[-74.08903,40.68582]],[[-74.088233,40.686448],[-74.088269,40.686421],[-74.088233,40.686421],[-74.088233,40.686448]],[[-74.088124,40.686503],[-74.088161,40.686476],[-74.088125,40.686475],[-74.088124,40.686503]],[[-74.087871,40.686667],[-74.087799,40.686639],[-74.087799,40.686666],[-74.087871,40.686667]],[[-74.085988,40.687895],[-74.085952,40.687923],[-74.085988,40.687923],[-74.085988,40.687895]],[[-74.085754,40.690804],[-74.085718,40.690777],[-74.085718,40.690804],[-74.085754,40.690804]],[[-74.084555,40.692145],[-74.084338,40.692254],[-74.084338,40.692309],[-74.084555,40.692145]],[[-74.084338,40.692309],[-74.084302,40.692336],[-74.084338,40.692336],[-74.084338,40.692309]],[[-74.084301,40.692391],[-74.08423,40.692363],[-74.084229,40.692418],[-74.084301,40.692391]],[[-74.084229,40.692418],[-74.084193,40.692445],[-74.084229,40.692446],[-74.084229,40.692418]],[[-74.084193,40.6925],[-74.084084,40.6925],[-74.084084,40.692555],[-74.084193,40.6925]],[[-74.084084,40.69261],[-74.083976,40.692609],[-74.083975,40.692664],[-74.084084,40.69261]],[[-74.083975,40.692719],[-74.083867,40.692719],[-74.083866,40.692774],[-74.083975,40.692719]],[[-74.083866,40.692829],[-74.083758,40.692828],[-74.083757,40.692883],[-74.083866,40.692829]],[[-74.083757,40.692883],[-74.083721,40.69291],[-74.083757,40.692911],[-74.083757,40.692883]],[[-74.083721,40.692965],[-74.083649,40.692938],[-74.083649,40.692993],[-74.083721,40.692965]],[[-74.083649,40.692993],[-74.083612,40.69302],[-74.083648,40.69302],[-74.083649,40.692993]],[[-74.083612,40.693075],[-74.083504,40.693074],[-74.083503,40.693129],[-74.083612,40.693075]],[[-74.083503,40.693184],[-74.083395,40.693184],[-74.083395,40.693239],[-74.083503,40.693184]],[[-74.083395,40.693239],[-74.083358,40.693266],[-74.083394,40.693266],[-74.083395,40.693239]],[[-74.083358,40.693266],[-74.083322,40.693321],[-74.083358,40.693321],[-74.083358,40.693266]],[[-74.083322,40.693321],[-74.083286,40.693348],[-74.083322,40.693348],[-74.083322,40.693321]],[[-74.083285,40.693403],[-74.083177,40.693403],[-74.083177,40.693457],[-74.083285,40.693403]],[[-74.083177,40.693457],[-74.083141,40.693485],[-74.083177,40.693485],[-74.083177,40.693457]],[[-74.083141,40.693485],[-74.083104,40.693512],[-74.08314,40.693512],[-74.083141,40.693485]],[[-74.083104,40.693512],[-74.083068,40.693567],[-74.083104,40.693567],[-74.083104,40.693512]],[[-74.083068,40.693567],[-74.083032,40.693594],[-74.083068,40.693594],[-74.083068,40.693567]],[[-74.083031,40.693649],[-74.082959,40.693621],[-74.082959,40.693649],[-74.083031,40.693649]],[[-74.084507,40.694094],[-74.084543,40.694066],[-74.084507,40.694066],[-74.084507,40.694094]],[[-74.084543,40.694066],[-74.08458,40.694039],[-74.084544,40.694039],[-74.084543,40.694066]],[[-74.088492,40.691253],[-74.088456,40.69128],[-74.088492,40.691281],[-74.088492,40.691253]],[[-74.088238,40.691444],[-74.088202,40.691472],[-74.088238,40.691472],[-74.088238,40.691444]],[[-74.070661,40.710595],[-74.070589,40.710568],[-74.070589,40.710595],[-74.070661,40.710595]],[[-74.057585,40.718644],[-74.057863,40.720265],[-74.056656,40.722621],[-74.057422,40.721416],[-74.057387,40.721306],[-74.057423,40.721224],[-74.057898,40.720347],[-74.05797,40.720347],[-74.057585,40.718644]],[[-74.056656,40.722621],[-74.05662,40.722675],[-74.056656,40.722676],[-74.056656,40.722621]],[[-74.057422,40.721361],[-74.057459,40.721334],[-74.057423,40.721333],[-74.057422,40.721361]],[[-74.057569,40.721087],[-74.057605,40.72106],[-74.057569,40.721059],[-74.057569,40.721087]],[[-74.058736,40.708245],[-74.058808,40.708218],[-74.058736,40.708217],[-74.058736,40.708245]],[[-74.058808,40.708218],[-74.058844,40.70819],[-74.058808,40.70819],[-74.058808,40.708218]],[[-74.059423,40.707945],[-74.059387,40.707973],[-74.059423,40.707973],[-74.059423,40.707945]],[[-74.046066,40.730732],[-74.04603,40.730759],[-74.046066,40.73076],[-74.046066,40.730732]],[[-74.040259,40.73565],[-74.040222,40.735677],[-74.040258,40.735678],[-74.040259,40.73565]]],[[[-74.05888,40.7083],[-74.058916,40.708273],[-74.058916,40.7083],[-74.05888,40.7083]]],[[[-74.058843,40.708327],[-74.058808,40.7083],[-74.058844,40.7083],[-74.058843,40.708327]]],[[[-74.056963,40.709034],[-74.056927,40.709061],[-74.056927,40.709034],[-74.056963,40.709034]]],[[[-74.056782,40.709198],[-74.056564,40.709362],[-74.056311,40.709388],[-74.056927,40.709061],[-74.056782,40.709198]],[[-74.056745,40.709225],[-74.056709,40.709198],[-74.056709,40.709225],[-74.056745,40.709225]]],[[[-74.056275,40.709416],[-74.056311,40.709388],[-74.056311,40.709416],[-74.056275,40.709416]]],[[[-74.056203,40.709415],[-74.056239,40.70947],[-74.056167,40.70947],[-74.056203,40.709415]]],[[[-74.05613,40.70947],[-74.056166,40.709498],[-74.05613,40.709497],[-74.05613,40.70947]]],[[[-74.056094,40.709525],[-74.05613,40.709497],[-74.05613,40.709525],[-74.056094,40.709525]]],[[[-74.055114,40.710482],[-74.055078,40.710427],[-74.055114,40.710427],[-74.055114,40.710482]]],[[[-74.05735,40.721361],[-74.057386,40.721416],[-74.05735,40.721415],[-74.05735,40.721361]]],[[[-74.053991,40.727332],[-74.053955,40.727304],[-74.053991,40.727304],[-74.053991,40.727332]]],[[[-74.055264,40.725827],[-74.054395,40.726235],[-74.054576,40.726181],[-74.054679,40.726923],[-74.054207,40.727497],[-74.053956,40.727249],[-74.053808,40.727688],[-74.05431,40.728156],[-74.053623,40.728456],[-74.052966,40.729524],[-74.052826,40.728892],[-74.052568,40.729687],[-74.051877,40.730563],[-74.052129,40.730646],[-74.052199,40.730866],[-74.052163,40.730976],[-74.052234,40.731031],[-74.052379,40.731031],[-74.052378,40.731086],[-74.052342,40.731113],[-74.052485,40.731279],[-74.052413,40.731306],[-74.05227,40.731168],[-74.052233,40.731195],[-74.052125,40.731195],[-74.051729,40.731001],[-74.051404,40.731055],[-74.052648,40.728589],[-74.054267,40.723819],[-74.055377,40.725141],[-74.055264,40.725827]],[[-74.05454,40.726263],[-74.054504,40.726236],[-74.054503,40.726263],[-74.05454,40.726263]],[[-74.052163,40.730948],[-74.052127,40.730921],[-74.052127,40.730948],[-74.052163,40.730948]],[[-74.052127,40.730921],[-74.052091,40.730893],[-74.052091,40.73092],[-74.052127,40.730921]],[[-74.052091,40.730893],[-74.052055,40.730865],[-74.052055,40.730893],[-74.052091,40.730893]],[[-74.05465,40.725989],[-74.054686,40.725962],[-74.05465,40.725962],[-74.05465,40.725989]]],[[[-74.052394,40.72878],[-74.052358,40.728753],[-74.052394,40.728753],[-74.052394,40.72878]]],[[[-74.052321,40.728917],[-74.052358,40.728808],[-74.052357,40.728918],[-74.052321,40.728917]]],[[[-74.052271,40.730976],[-74.052235,40.731003],[-74.052235,40.730976],[-74.052271,40.730976]]],[[[-74.052414,40.731114],[-74.052378,40.731086],[-74.052414,40.731086],[-74.052414,40.731114]]],[[[-74.052414,40.731141],[-74.05245,40.731169],[-74.052414,40.731169],[-74.052414,40.731141]]],[[[-74.052486,40.731196],[-74.05245,40.731196],[-74.05245,40.731169],[-74.052486,40.731169],[-74.052486,40.731196]]],[[[-74.052522,40.731224],[-74.052486,40.731196],[-74.052522,40.731197],[-74.052522,40.731224]]],[[[-74.052269,40.731223],[-74.052233,40.731195],[-74.052269,40.731196],[-74.052269,40.731223]]],[[[-74.052269,40.731223],[-74.052305,40.731251],[-74.052269,40.73125],[-74.052269,40.731223]]],[[[-74.052485,40.731306],[-74.052521,40.731279],[-74.052521,40.731306],[-74.052485,40.731306]]],[[[-74.052341,40.731278],[-74.052377,40.731306],[-74.052341,40.731306],[-74.052341,40.731278]]],[[[-74.052449,40.731334],[-74.052485,40.731306],[-74.052485,40.731334],[-74.052449,40.731334]]],[[[-74.052377,40.731306],[-74.052413,40.731333],[-74.052377,40.731333],[-74.052377,40.731306]]],[[[-74.062643,40.739635],[-74.062607,40.739635],[-74.062607,40.739607],[-74.062643,40.739608],[-74.062643,40.739635]]],[[[-74.062535,40.739607],[-74.06257,40.739635],[-74.062534,40.739635],[-74.062535,40.739607]]],[[[-74.062679,40.739663],[-74.062643,40.739635],[-74.062679,40.739635],[-74.062679,40.739663]]],[[[-74.063072,40.740241],[-74.062424,40.739909],[-74.06257,40.739635],[-74.063072,40.740241]],[[-74.062533,40.739799],[-74.062569,40.739854],[-74.062569,40.739799],[-74.062533,40.739799]]],[[[-74.062929,40.739938],[-74.062893,40.739965],[-74.062893,40.739938],[-74.062929,40.739938]]],[[[-74.063001,40.740048],[-74.062965,40.740021],[-74.063001,40.740021],[-74.063001,40.740048]]],[[[-74.063144,40.740213],[-74.06318,40.740241],[-74.063144,40.740241],[-74.063144,40.740213]]],[[[-74.063072,40.740268],[-74.063144,40.740241],[-74.063144,40.740268],[-74.063072,40.740268]]],[[[-74.062927,40.74035],[-74.062891,40.740322],[-74.062927,40.740322],[-74.062927,40.74035]]],[[[-74.063354,40.741175],[-74.062962,40.74046],[-74.063465,40.740736],[-74.063354,40.741175]]],[[[-74.063461,40.741477],[-74.063535,40.741093],[-74.063644,40.741066],[-74.063461,40.741477]]],[[[-74.067168,40.743056],[-74.067204,40.743084],[-74.067168,40.743083],[-74.067168,40.743056]]],[[[-74.071311,40.755342],[-74.070672,40.753692],[-74.069825,40.750724],[-74.070614,40.751551],[-74.072255,40.754549],[-74.072473,40.754358],[-74.070724,40.751194],[-74.069683,40.75034],[-74.069225,40.748691],[-74.070157,40.749655],[-74.070696,40.749987],[-74.070769,40.749959],[-74.070445,40.749739],[-74.069871,40.749215],[-74.069049,40.748004],[-74.067813,40.743772],[-74.067746,40.742921],[-74.068032,40.743334],[-74.068254,40.742456],[-74.068867,40.742541],[-74.068834,40.742129],[-74.069197,40.741828],[-74.073125,40.742694],[-74.074243,40.74289],[-74.074495,40.742864],[-74.074243,40.742835],[-74.074171,40.74278],[-74.074208,40.742698],[-74.076947,40.743257],[-74.075151,40.745534],[-74.074869,40.746946],[-74.075017,40.747986],[-74.075707,40.748974],[-74.076586,40.749638],[-74.077145,40.749931],[-74.078852,40.750223],[-74.077279,40.752171],[-74.075578,40.75246],[-74.075231,40.752756],[-74.075238,40.753133],[-74.076523,40.754816],[-74.0763,40.755143],[-74.075215,40.755339],[-74.074867,40.755671],[-74.075146,40.757157],[-74.074732,40.75823],[-74.072666,40.758911],[-74.072224,40.760123],[-74.068594,40.761976],[-74.06629,40.762818],[-74.064931,40.763763],[-74.063801,40.763669],[-74.062501,40.762673],[-74.061794,40.76242],[-74.060022,40.76255],[-74.060002,40.76341],[-74.05963,40.764001],[-74.059993,40.765701],[-74.058474,40.766757],[-74.056954,40.769011],[-74.052044,40.760841],[-74.05225,40.760951],[-74.052396,40.760705],[-74.051856,40.760526],[-74.052658,40.759388],[-74.052408,40.758948],[-74.051976,40.758809],[-74.053031,40.757578],[-74.054519,40.756376],[-74.054698,40.756541],[-74.054989,40.756268],[-74.054701,40.756102],[-74.055144,40.754759],[-74.057724,40.752051],[-74.057763,40.75164],[-74.059395,40.750438],[-74.059944,40.74937],[-74.060415,40.749042],[-74.060491,40.748466],[-74.060818,40.748193],[-74.060852,40.74844],[-74.060962,40.748221],[-74.061251,40.748277],[-74.061725,40.747455],[-74.062448,40.747348],[-74.062886,40.746581],[-74.063644,40.746611],[-74.063865,40.745898],[-74.063476,40.744689],[-74.06381,40.74329],[-74.063636,40.742329],[-74.063675,40.74178],[-74.063819,40.741918],[-74.063785,40.741506],[-74.064789,40.742608],[-74.065974,40.743408],[-74.066482,40.743081],[-74.066734,40.743082],[-74.06688,40.742835],[-74.067134,40.742644],[-74.067206,40.742672],[-74.067276,40.743001],[-74.06724,40.743056],[-74.067168,40.743028],[-74.067168,40.743056],[-74.067059,40.743083],[-74.067127,40.743715],[-74.067664,40.744513],[-74.069324,40.750119],[-74.068927,40.75009],[-74.068463,40.74921],[-74.068356,40.749072],[-74.068212,40.748989],[-74.068212,40.749016],[-74.068176,40.749016],[-74.068176,40.749044],[-74.068639,40.749924],[-74.068854,40.750117],[-74.068023,40.750388],[-74.067801,40.751101],[-74.06902,40.752368],[-74.06974,40.752783],[-74.068127,40.751047],[-74.068455,40.750445],[-74.06943,40.750476],[-74.070667,40.754488],[-74.071023,40.755231],[-74.071204,40.755204],[-74.071311,40.755342]],[[-74.070532,40.75306],[-74.070604,40.753033],[-74.070532,40.753033],[-74.070532,40.75306]],[[-74.070516,40.749876],[-74.07048,40.749903],[-74.070516,40.749903],[-74.070516,40.749876]],[[-74.070768,40.750014],[-74.070876,40.750042],[-74.070877,40.749987],[-74.070805,40.749959],[-74.070768,40.750014]],[[-74.070661,40.749877],[-74.070697,40.749849],[-74.070661,40.749849],[-74.070661,40.749877]],[[-74.069684,40.761402],[-74.069649,40.761319],[-74.069648,40.761402],[-74.069684,40.761402]],[[-74.063747,40.741863],[-74.063711,40.74189],[-74.063747,40.74189],[-74.063747,40.741863]],[[-74.066554,40.743136],[-74.066481,40.743191],[-74.066553,40.743218],[-74.066554,40.743136]],[[-74.066734,40.743082],[-74.066843,40.743082],[-74.066843,40.743027],[-74.066734,40.743082]],[[-74.066734,40.743137],[-74.066698,40.743164],[-74.066734,40.743164],[-74.066734,40.743137]],[[-74.067098,40.742726],[-74.06717,40.742754],[-74.06717,40.742699],[-74.067098,40.742726]],[[-74.067097,40.742781],[-74.067061,40.742836],[-74.067097,40.742836],[-74.067097,40.742781]],[[-74.06974,40.752783],[-74.069776,40.75281],[-74.069776,40.752783],[-74.06974,40.752783]],[[-74.071167,40.755286],[-74.071203,40.755341],[-74.071204,40.755286],[-74.071167,40.755286]],[[-74.071311,40.755342],[-74.071347,40.755424],[-74.071348,40.755342],[-74.071311,40.755342]],[[-74.071347,40.755424],[-74.071383,40.755452],[-74.071383,40.755424],[-74.071347,40.755424]]],[[[-74.052028,40.760813],[-74.052035,40.760813],[-74.052035,40.760824],[-74.052028,40.760813]]],[[[-74.052321,40.728917],[-74.051917,40.729986],[-74.051552,40.730561],[-74.051445,40.730341],[-74.052321,40.728917]]],[[[-74.051552,40.730561],[-74.05126,40.731027],[-74.049276,40.730937],[-74.050576,40.730805],[-74.051337,40.730396],[-74.051552,40.730561]]],[[[-74.049168,40.730882],[-74.04906,40.730909],[-74.04906,40.730881],[-74.049168,40.730882]]],[[[-74.052235,40.730948],[-74.052199,40.730976],[-74.052199,40.730948],[-74.052235,40.730948]]],[[[-74.051223,40.731246],[-74.051042,40.731273],[-74.051042,40.731246],[-74.051223,40.731246]]],[[[-74.051331,40.731274],[-74.051258,40.731301],[-74.051258,40.731274],[-74.051331,40.731274]]],[[[-74.047321,40.731917],[-74.050139,40.731379],[-74.050969,40.731383],[-74.050425,40.731792],[-74.049558,40.732009],[-74.047321,40.731917]]],[[[-74.0399,40.735292],[-74.039936,40.735265],[-74.039936,40.735292],[-74.0399,40.735292]]],[[[-74.040008,40.73532],[-74.039972,40.735292],[-74.040008,40.735292],[-74.040008,40.73532]]],[[[-74.035714,40.735303],[-74.036038,40.735466],[-74.035606,40.735302],[-74.035714,40.735303]]],[[[-74.042098,40.73574],[-74.042062,40.735767],[-74.042062,40.73574],[-74.042098,40.73574]]],[[[-74.04199,40.735767],[-74.041918,40.735739],[-74.04199,40.735739],[-74.04199,40.735767]]],[[[-74.041738,40.735738],[-74.041665,40.735766],[-74.041665,40.735738],[-74.041738,40.735738]]],[[[-74.041629,40.735738],[-74.041593,40.735765],[-74.041593,40.735738],[-74.041629,40.735738]]],[[[-74.041665,40.73582],[-74.04134,40.735764],[-74.041341,40.735682],[-74.041665,40.73582]]],[[[-74.043467,40.736102],[-74.043359,40.736129],[-74.043359,40.736102],[-74.043467,40.736102]]],[[[-74.043142,40.736128],[-74.043106,40.736156],[-74.043106,40.736128],[-74.043142,40.736128]]],[[[-74.043719,40.736158],[-74.043647,40.736185],[-74.043647,40.736158],[-74.043719,40.736158]]],[[[-74.043178,40.736156],[-74.043142,40.736183],[-74.043142,40.736156],[-74.043178,40.736156]]],[[[-74.04307,40.736183],[-74.043034,40.736155],[-74.04307,40.736155],[-74.04307,40.736183]]],[[[-74.043936,40.736214],[-74.043899,40.736241],[-74.0439,40.736214],[-74.043936,40.736214]]],[[[-74.043538,40.736267],[-74.043466,40.736294],[-74.043466,40.736267],[-74.043538,40.736267]]],[[[-74.04379,40.736378],[-74.043754,40.736405],[-74.043754,40.736378],[-74.04379,40.736378]]],[[[-74.045089,40.736493],[-74.045305,40.736466],[-74.045305,40.736521],[-74.045089,40.736493]]],[[[-74.045196,40.736576],[-74.04516,40.736603],[-74.04516,40.736575],[-74.045196,40.736576]]],[[[-74.043898,40.736406],[-74.04606,40.736936],[-74.045584,40.737895],[-74.045798,40.738307],[-74.04529,40.738744],[-74.045176,40.739513],[-74.044778,40.739648],[-74.044232,40.740332],[-74.044264,40.740909],[-74.043759,40.740989],[-74.043793,40.741237],[-74.043325,40.741015],[-74.042405,40.743702],[-74.041566,40.744933],[-74.041494,40.744906],[-74.041386,40.74496],[-74.041019,40.745782],[-74.040583,40.746165],[-74.040439,40.746109],[-74.040402,40.746219],[-74.04033,40.746246],[-74.04033,40.746301],[-74.040257,40.746356],[-74.040185,40.746355],[-74.04022,40.746493],[-74.039234,40.748136],[-74.038944,40.748382],[-74.039015,40.748519],[-74.038869,40.748683],[-74.038725,40.748683],[-74.038688,40.74882],[-74.038723,40.749012],[-74.038651,40.748984],[-74.038615,40.749012],[-74.038613,40.749231],[-74.038505,40.749258],[-74.038358,40.749505],[-74.038429,40.749725],[-74.037981,40.750437],[-74.037992,40.750272],[-74.037729,40.75029],[-74.03858,40.748819],[-74.039603,40.746747],[-74.041619,40.744285],[-74.041521,40.743999],[-74.042208,40.742804],[-74.042169,40.741354],[-74.043516,40.740349],[-74.043782,40.739857],[-74.043922,40.739012],[-74.04352,40.738505],[-74.043911,40.73754],[-74.042837,40.736505],[-74.042817,40.736182],[-74.043574,40.736322],[-74.043682,40.736432],[-74.043898,40.736406]],[[-74.041858,40.744468],[-74.041822,40.74444],[-74.041822,40.744468],[-74.041858,40.744468]],[[-74.041785,40.744577],[-74.041749,40.74455],[-74.041749,40.744577],[-74.041785,40.744577]],[[-74.041712,40.744687],[-74.041676,40.744659],[-74.041676,40.744687],[-74.041712,40.744687]],[[-74.041676,40.744742],[-74.04164,40.744714],[-74.04164,40.744742],[-74.041676,40.744742]],[[-74.041567,40.744879],[-74.041531,40.744851],[-74.04153,40.744878],[-74.041567,40.744879]],[[-74.040511,40.74611],[-74.040548,40.746082],[-74.040512,40.746082],[-74.040511,40.74611]],[[-74.040148,40.74652],[-74.040112,40.746492],[-74.040112,40.74652],[-74.040148,40.74652]],[[-74.038943,40.748437],[-74.038907,40.748464],[-74.038943,40.748464],[-74.038943,40.748437]],[[-74.03887,40.748628],[-74.038834,40.748601],[-74.038834,40.748628],[-74.03887,40.748628]],[[-74.038614,40.749149],[-74.038578,40.749121],[-74.038577,40.749149],[-74.038614,40.749149]],[[-74.038577,40.749231],[-74.038541,40.749204],[-74.038541,40.749231],[-74.038577,40.749231]],[[-74.043826,40.736433],[-74.043862,40.736461],[-74.043862,40.736433],[-74.043826,40.736433]]],[[[-74.041494,40.744933],[-74.04153,40.744961],[-74.041494,40.744961],[-74.041494,40.744933]]],[[[-74.040438,40.746247],[-74.040402,40.746219],[-74.040438,40.746219],[-74.040438,40.746247]]],[[[-74.040366,40.746246],[-74.040402,40.746274],[-74.040366,40.746274],[-74.040366,40.746246]]],[[[-74.040329,40.746329],[-74.040366,40.746301],[-74.040366,40.746329],[-74.040329,40.746329]]],[[[-74.040293,40.746383],[-74.040257,40.746356],[-74.040293,40.746356],[-74.040293,40.746383]]],[[[-74.038724,40.748793],[-74.038761,40.748765],[-74.03876,40.748793],[-74.038724,40.748793]]],[[[-74.038544,40.748765],[-74.038544,40.748819],[-74.038514,40.748819],[-74.038544,40.748765]]],[[[-74.03876,40.74882],[-74.038797,40.748793],[-74.038796,40.74882],[-74.03876,40.74882]]],[[[-74.038651,40.749012],[-74.038687,40.74904],[-74.03865,40.749039],[-74.038651,40.749012]]],[[[-74.038504,40.749341],[-74.03854,40.749313],[-74.03854,40.749341],[-74.038504,40.749341]]],[[[-74.037883,40.750354],[-74.03792,40.750327],[-74.037919,40.750354],[-74.037883,40.750354]]]]}}]}