{"type":"FeatureCollection","features":[{"type":"Feature","properties":{"level_ft":12},"geometry":{"type":"MultiPolygon","coordinates":[[[[-74.095733,40.680518],[-74.09577,40.680491],[-74.095769,40.680518],[-74.095733,40.680518]]],[[[-74.095589,40.680573],[-74.095553,40.680545],[-74.095589,40.680545],[-74.095589,40.680573]]],[[[-74.095985,40.680684],[-74.095949,40.680629],[-74.095985,40.680629],[-74.095985,40.680684]]],[[[-74.097314,40.681457],[-74.098283,40.681103],[-74.098538,40.681786],[-74.09832,40.682147],[-74.098215,40.681515],[-74.097314,40.681457]],[[-74.098251,40.681543],[-74.098287,40.681515],[-74.098251,40.681515],[-74.098251,40.681543]]],[[[-74.098822,40.682615],[-74.098134,40.683107],[-74.098745,40.68234],[-74.098822,40.682615]]],[[[-74.098999,40.683082],[-74.098639,40.682999],[-74.098889,40.682725],[-74.098999,40.683082]]],[[[-74.098891,40.683164],[-74.098927,40.683137],[-74.098927,40.683165],[-74.098891,40.683164]]],[[[-74.099278,40.68377],[-74.098853,40.683329],[-74.098999,40.683082],[-74.099278,40.68377]]],[[[-74.085449,40.687646],[-74.083366,40.686184],[-74.083404,40.685992],[-74.084879,40.686519],[-74.085345,40.686905],[-74.085527,40.686741],[-74.086605,40.687211],[-74.085449,40.687646]]],[[[-74.085481,40.688278],[-74.085445,40.68825],[-74.085481,40.68825],[-74.085481,40.688278]]],[[[-74.083822,40.688244],[-74.083786,40.688272],[-74.083786,40.688244],[-74.083822,40.688244]]],[[[-74.083642,40.688244],[-74.08357,40.688271],[-74.08357,40.688243],[-74.083642,40.688244]]],[[[-74.085409,40.688277],[-74.085373,40.688305],[-74.085373,40.688277],[-74.085409,40.688277]]],[[[-74.086555,40.689544],[-74.086916,40.689436],[-74.086951,40.689655],[-74.086555,40.689544]]],[[[-74.087023,40.689683],[-74.087346,40.689904],[-74.087417,40.690179],[-74.086768,40.690149],[-74.087023,40.689683]]],[[[-74.085339,40.693795],[-74.085302,40.693822],[-74.085303,40.693795],[-74.085339,40.693795]]],[[[-74.085266,40.693877],[-74.08523,40.693849],[-74.085266,40.693849],[-74.085266,40.693877]]],[[[-74.08523,40.693904],[-74.085194,40.693877],[-74.08523,40.693877],[-74.08523,40.693904]]],[[[-74.085194,40.693904],[-74.085157,40.693931],[-74.085158,40.693904],[-74.085194,40.693904]]],[[[-74.085157,40.693959],[-74.085121,40.693931],[-74.085157,40.693931],[-74.085157,40.693959]]],[[[-74.085121,40.693986],[-74.085085,40.693958],[-74.085121,40.693959],[-74.085121,40.693986]]],[[[-74.085085,40.694013],[-74.085049,40.693986],[-74.085085,40.693986],[-74.085085,40.694013]]],[[[-74.085049,40.694041],[-74.085013,40.694013],[-74.085049,40.694013],[-74.085049,40.694041]]],[[[-74.085012,40.694068],[-74.084976,40.69404],[-74.085012,40.694041],[-74.085012,40.694068]]],[[[-74.084976,40.694095],[-74.08494,40.694068],[-74.084976,40.694068],[-74.084976,40.694095]]],[[[-74.08494,40.694095],[-74.084904,40.694123],[-74.084904,40.694095],[-74.08494,40.694095]]],[[[-74.084904,40.69415],[-74.084868,40.694122],[-74.084904,40.694123],[-74.084904,40.69415]]],[[[-74.084867,40.694177],[-74.084831,40.69415],[-74.084868,40.69415],[-74.084867,40.694177]]],[[[-74.084831,40.694177],[-74.084795,40.694204],[-74.084795,40.694177],[-74.084831,40.694177]]],[[[-74.084795,40.694259],[-74.084759,40.694204],[-74.084795,40.694204],[-74.084795,40.694259]]],[[[-74.083779,40.695244],[-74.083743,40.695216],[-74.083779,40.695216],[-74.083779,40.695244]]],[[[-74.08367,40.695271],[-74.083706,40.695299],[-74.08367,40.695298],[-74.08367,40.695271]]],[[[-74.083634,40.695298],[-74.08367,40.695326],[-74.083634,40.695326],[-74.083634,40.695298]]],[[[-74.083598,40.695326],[-74.083634,40.695353],[-74.083598,40.695353],[-74.083598,40.695326]]],[[[-74.083453,40.695462],[-74.083526,40.69538],[-74.083598,40.695353],[-74.083453,40.695462]]],[[[-74.083127,40.695681],[-74.083417,40.69549],[-74.083127,40.695736],[-74.083127,40.695681]]],[[[-74.083055,40.695626],[-74.083019,40.695598],[-74.083055,40.695598],[-74.083055,40.695626]]],[[[-74.092769,40.711417],[-74.092737,40.710675],[-74.093169,40.710869],[-74.093604,40.710431],[-74.094146,40.710378],[-74.093999,40.710762],[-74.093021,40.711445],[-74.092769,40.711417]]],[[[-74.094777,40.713318],[-74.094889,40.712714],[-74.095359,40.712661],[-74.094787,40.711726],[-74.096371,40.712335],[-74.095971,40.712883],[-74.095321,40.712881],[-74.095209,40.713484],[-74.094777,40.713318]]],[[[-74.107349,40.697989],[-74.107675,40.697772],[-74.114232,40.700952],[-74.114309,40.704609],[-74.116408,40.709735],[-74.113869,40.712314],[-74.110167,40.715375],[-74.10747,40.717075],[-74.102976,40.71933],[-74.10177,40.720231],[-74.100089,40.722867],[-74.099011,40.727277],[-74.094451,40.725532],[-74.094485,40.725779],[-74.096104,40.726581],[-74.098962,40.727552],[-74.097897,40.73072],[-74.095303,40.735005],[-74.090457,40.735427],[-74.089162,40.734819],[-74.08931,40.734243],[-74.088553,40.734131],[-74.087139,40.735169],[-74.086993,40.735415],[-74.08728,40.735746],[-74.087026,40.735827],[-74.083536,40.734222],[-74.083391,40.734386],[-74.084686,40.73494],[-74.085153,40.735381],[-74.082885,40.734467],[-74.082811,40.734714],[-74.085078,40.73571],[-74.085725,40.736261],[-74.085038,40.736341],[-74.083348,40.735375],[-74.082088,40.735013],[-74.081182,40.735586],[-74.082335,40.735838],[-74.082873,40.736443],[-74.08363,40.736583],[-74.075969,40.738093],[-74.073879,40.737646],[-74.073773,40.737343],[-74.074206,40.737372],[-74.074317,40.736851],[-74.074895,40.736771],[-74.075947,40.735869],[-74.075987,40.735238],[-74.076312,40.735212],[-74.076241,40.735019],[-74.077005,40.734199],[-74.076394,40.733702],[-74.076507,40.732961],[-74.077626,40.732993],[-74.077587,40.73335],[-74.078814,40.733299],[-74.079354,40.733576],[-74.079467,40.73289],[-74.080192,40.732289],[-74.080086,40.731959],[-74.080844,40.731852],[-74.080521,40.731686],[-74.080741,40.731138],[-74.081356,40.730866],[-74.081433,40.730097],[-74.081686,40.729933],[-74.081544,40.729658],[-74.081834,40.72944],[-74.081691,40.729165],[-74.081402,40.729301],[-74.08144,40.728917],[-74.083357,40.728265],[-74.083074,40.727331],[-74.081603,40.725953],[-74.081497,40.725568],[-74.082077,40.725131],[-74.082227,40.724253],[-74.082552,40.724145],[-74.082954,40.723432],[-74.083533,40.72316],[-74.084541,40.723548],[-74.085119,40.723358],[-74.085524,40.722097],[-74.085236,40.722041],[-74.085058,40.721546],[-74.085347,40.721492],[-74.08524,40.721272],[-74.085567,40.720944],[-74.086073,40.720808],[-74.085608,40.720175],[-74.086618,40.720206],[-74.086692,40.719905],[-74.087342,40.719742],[-74.087382,40.719166],[-74.088103,40.719306],[-74.088032,40.719086],[-74.088429,40.719087],[-74.088319,40.719279],[-74.088825,40.719116],[-74.088788,40.719336],[-74.089471,40.719695],[-74.090229,40.719615],[-74.089692,40.719037],[-74.090881,40.719233],[-74.090524,40.718711],[-74.091065,40.71874],[-74.091138,40.718466],[-74.090421,40.717749],[-74.091069,40.717944],[-74.091071,40.717614],[-74.090353,40.71709],[-74.09068,40.716762],[-74.090968,40.716846],[-74.091076,40.716818],[-74.090608,40.71668],[-74.090431,40.71613],[-74.091046,40.71583],[-74.091411,40.715228],[-74.09055,40.714374],[-74.091415,40.714596],[-74.091596,40.714487],[-74.090879,40.713634],[-74.092608,40.714134],[-74.09243,40.713721],[-74.093331,40.713944],[-74.093658,40.713424],[-74.093909,40.713809],[-74.094881,40.714032],[-74.095137,40.713539],[-74.095714,40.713541],[-74.095607,40.713376],[-74.096223,40.712911],[-74.096906,40.713243],[-74.097198,40.71275],[-74.096803,40.712364],[-74.097525,40.712422],[-74.097925,40.711847],[-74.098508,40.710833],[-74.098439,40.710393],[-74.097398,40.709457],[-74.096093,40.710468],[-74.094899,40.71104],[-74.095553,40.710411],[-74.095592,40.709862],[-74.095306,40.709504],[-74.094728,40.709557],[-74.094946,40.709338],[-74.094011,40.708896],[-74.094408,40.70887],[-74.094049,40.708457],[-74.094445,40.708623],[-74.094519,40.708376],[-74.093944,40.708017],[-74.093732,40.707303],[-74.094344,40.707415],[-74.09442,40.706866],[-74.094962,40.706648],[-74.095717,40.707117],[-74.096006,40.706981],[-74.095037,40.706237],[-74.095038,40.706044],[-74.09529,40.706073],[-74.095113,40.705578],[-74.095331,40.705249],[-74.096087,40.705527],[-74.0958,40.705279],[-74.095803,40.704757],[-74.096309,40.704649],[-74.096631,40.705062],[-74.096884,40.704925],[-74.096598,40.704485],[-74.096925,40.704239],[-74.096673,40.704129],[-74.097107,40.703883],[-74.097218,40.703417],[-74.097506,40.703528],[-74.097759,40.703364],[-74.097256,40.70317],[-74.097334,40.702182],[-74.097658,40.702238],[-74.098058,40.701773],[-74.09831,40.701829],[-74.098637,40.70139],[-74.098998,40.701337],[-74.099073,40.700925],[-74.099578,40.70079],[-74.09908,40.69969],[-74.099405,40.699636],[-74.099871,40.700105],[-74.099767,40.699363],[-74.1002,40.69942],[-74.100167,40.69887],[-74.100709,40.698625],[-74.101296,40.69698],[-74.10213,40.696214],[-74.101773,40.695609],[-74.102603,40.695557],[-74.101887,40.694649],[-74.102392,40.694596],[-74.102852,40.695432],[-74.107502,40.697688],[-74.107349,40.697989]],[[-74.09445,40.725614],[-74.094414,40.725587],[-74.094414,40.725614],[-74.09445,40.725614]],[[-74.090645,40.716515],[-74.090682,40.716488],[-74.090645,40.716488],[-74.090645,40.716515]],[[-74.090684,40.716131],[-74.09072,40.716158],[-74.09072,40.716131],[-74.090684,40.716131]],[[-74.09072,40.716158],[-74.090756,40.716186],[-74.090756,40.716158],[-74.09072,40.716158]],[[-74.091595,40.714597],[-74.091667,40.714625],[-74.091667,40.714597],[-74.091595,40.714597]],[[-74.091667,40.714625],[-74.091703,40.714652],[-74.091703,40.714625],[-74.091667,40.714625]],[[-74.096149,40.713131],[-74.096185,40.713158],[-74.096185,40.713131],[-74.096149,40.713131]],[[-74.096185,40.713158],[-74.096221,40.713186],[-74.096221,40.713158],[-74.096185,40.713158]],[[-74.096221,40.713186],[-74.096293,40.713213],[-74.096293,40.713186],[-74.096221,40.713186]],[[-74.09448,40.70887],[-74.094514,40.70909],[-74.094731,40.70909],[-74.09448,40.70887]],[[-74.096006,40.706981],[-74.096042,40.707009],[-74.096042,40.706981],[-74.096006,40.706981]],[[-74.107349,40.697989],[-74.107313,40.698017],[-74.107349,40.698017],[-74.107349,40.697989]]],[[[-74.083571,40.740234],[-74.076617,40.738342],[-74.076511,40.738122],[-74.085977,40.736345],[-74.088496,40.737397],[-74.091031,40.735951],[-74.090709,40.735538],[-74.095174,40.73517],[-74.093398,40.737015],[-74.090175,40.738579],[-74.08703,40.739535],[-74.083571,40.740234]]],[[[-74.07875,40.680567],[-74.078535,40.680374],[-74.078822,40.680567],[-74.07875,40.680567]]],[[[-74.078858,40.680595],[-74.078822,40.680567],[-74.078858,40.680568],[-74.078858,40.680595]]],[[[-74.082632,40.688295],[-74.082596,40.688322],[-74.082596,40.688295],[-74.082632,40.688295]]],[[[-74.083019,40.695625],[-74.082983,40.695653],[-74.082983,40.695625],[-74.083019,40.695625]]],[[[-74.082729,40.695817],[-74.082765,40.695844],[-74.082729,40.695844],[-74.082729,40.695817]]],[[[-74.082764,40.696009],[-74.083018,40.69579],[-74.083127,40.695736],[-74.082764,40.696009]]],[[[-74.082475,40.696063],[-74.082439,40.696035],[-74.082476,40.696035],[-74.082475,40.696063]]],[[[-74.082619,40.696091],[-74.082691,40.696173],[-74.082583,40.696145],[-74.082619,40.696091]]],[[[-74.082511,40.6962],[-74.082583,40.696145],[-74.082583,40.6962],[-74.082511,40.6962]]],[[[-74.079102,40.699043],[-74.079139,40.699015],[-74.079139,40.699043],[-74.079102,40.699043]]],[[[-74.078379,40.699424],[-74.07816,40.699725],[-74.078052,40.699725],[-74.078379,40.699424]]],[[[-74.078052,40.699725],[-74.077472,40.700244],[-74.077364,40.700244],[-74.078052,40.699725]]],[[[-74.07711,40.700408],[-74.077037,40.700545],[-74.076929,40.700544],[-74.07711,40.700408]]],[[[-74.076893,40.700572],[-74.07682,40.700681],[-74.076712,40.700681],[-74.076893,40.700572]]],[[[-74.076603,40.700708],[-74.076675,40.700763],[-74.076567,40.700763],[-74.076603,40.700708]]],[[[-74.076422,40.700899],[-74.07635,40.700844],[-74.076422,40.700844],[-74.076422,40.700899]]],[[[-74.074166,40.737866],[-74.07413,40.737894],[-74.07413,40.737866],[-74.074166,40.737866]]],[[[-74.074274,40.737894],[-74.074238,40.737922],[-74.074238,40.737894],[-74.074274,40.737894]]],[[[-74.073442,40.738276],[-74.072869,40.737642],[-74.074777,40.73828],[-74.073368,40.73855],[-74.073442,40.738276]]],[[[-74.074993,40.738391],[-74.07629,40.738808],[-74.075961,40.739355],[-74.074773,40.739022],[-74.073077,40.738988],[-74.072969,40.738823],[-74.073042,40.738713],[-74.074993,40.738391]],[[-74.073692,40.738633],[-74.073656,40.738661],[-74.073692,40.738661],[-74.073692,40.738633]]],[[[-74.073869,40.739155],[-74.073834,40.739128],[-74.07387,40.739128],[-74.073869,40.739155]]],[[[-74.07322,40.739208],[-74.073509,40.739072],[-74.073834,40.739128],[-74.07322,40.739208]]],[[[-74.079607,40.739231],[-74.079535,40.739259],[-74.079535,40.739231],[-74.079607,40.739231]]],[[[-74.079859,40.739287],[-74.079679,40.739314],[-74.079679,40.739259],[-74.079859,40.739287]]],[[[-74.080075,40.73937],[-74.080003,40.73937],[-74.080003,40.739343],[-74.080076,40.739343],[-74.080075,40.73937]]],[[[-74.080184,40.739371],[-74.080147,40.739398],[-74.080148,40.739371],[-74.080184,40.739371]]],[[[-74.080111,40.739398],[-74.080075,40.73937],[-74.080112,40.739371],[-74.080111,40.739398]]],[[[-74.080291,40.739454],[-74.080219,40.739481],[-74.080292,40.739399],[-74.080291,40.739454]]],[[[-74.080758,40.739894],[-74.080794,40.739922],[-74.080758,40.739922],[-74.080758,40.739894]]],[[[-74.08083,40.73995],[-74.080794,40.739922],[-74.08083,40.739922],[-74.08083,40.73995]]],[[[-74.080902,40.739977],[-74.080866,40.73995],[-74.080902,40.73995],[-74.080902,40.739977]]],[[[-74.082305,40.74067],[-74.080578,40.739729],[-74.080328,40.739426],[-74.083641,40.740344],[-74.082305,40.74067]]],[[[-74.081081,40.740088],[-74.081045,40.74006],[-74.081082,40.74006],[-74.081081,40.740088]]],[[[-74.074221,40.740667],[-74.074257,40.740694],[-74.074221,40.740694],[-74.074221,40.740667]]],[[[-74.081865,40.740777],[-74.077094,40.743148],[-74.072515,40.742197],[-74.070967,40.741478],[-74.071511,40.741123],[-74.071731,40.740575],[-74.072201,40.740439],[-74.072205,40.739836],[-74.072532,40.739453],[-74.073904,40.739348],[-74.075347,40.739518],[-74.075631,40.740233],[-74.074798,40.740641],[-74.075303,40.74078],[-74.074364,40.740859],[-74.074293,40.740667],[-74.074149,40.740556],[-74.073465,40.740252],[-74.073429,40.740362],[-74.074327,40.740969],[-74.075519,40.740781],[-74.076174,40.740042],[-74.076143,40.739109],[-74.076433,40.738945],[-74.080433,40.739948],[-74.081865,40.740777]],[[-74.081256,40.740967],[-74.081293,40.740939],[-74.081257,40.740939],[-74.081256,40.740967]],[[-74.081437,40.740913],[-74.081473,40.740885],[-74.081437,40.740885],[-74.081437,40.740913]],[[-74.081437,40.740885],[-74.081401,40.740858],[-74.081401,40.740885],[-74.081437,40.740885]],[[-74.081401,40.740858],[-74.081365,40.74083],[-74.081365,40.740857],[-74.081401,40.740858]],[[-74.081365,40.740857],[-74.081329,40.740885],[-74.081365,40.740885],[-74.081365,40.740857]]],[[[-74.070822,40.741615],[-74.070748,40.741916],[-74.070424,40.74186],[-74.070606,40.741614],[-74.070822,40.741615]]],[[[-74.072171,40.750788],[-74.070625,40.749822],[-74.069513,40.748747],[-74.068907,40.747537],[-74.068096,40.744651],[-74.068064,40.744047],[-74.068283,40.743609],[-74.068572,40.743583],[-74.06889,40.744627],[-74.069499,40.745316],[-74.070437,40.745429],[-74.071341,40.745158],[-74.070588,40.744331],[-74.068609,40.743446],[-74.06919,40.742844],[-74.069338,40.742268],[-74.069917,40.742078],[-74.076947,40.743257],[-74.075151,40.745534],[-74.074869,40.746946],[-74.075017,40.747986],[-74.075707,40.748974],[-74.076586,40.749638],[-74.077145,40.749931],[-74.078852,40.750223],[-74.077279,40.752171],[-74.075578,40.75246],[-74.075231,40.752756],[-74.075238,40.753133],[-74.076388,40.754383],[-74.076519,40.754856],[-74.0763,40.755143],[-74.075215,40.755339],[-74.074894,40.75562],[-74.075146,40.757157],[-74.07465,40.758294],[-74.074044,40.756999],[-74.074263,40.756725],[-74.073977,40.75623],[-74.073616,40.756256],[-74.073186,40.755705],[-74.070724,40.751194],[-74.069683,40.75034],[-74.069296,40.748801],[-74.07048,40.749903],[-74.072171,40.750788]],[[-74.072171,40.750733],[-74.072244,40.750679],[-74.072172,40.750651],[-74.072171,40.750733]]],[[[-74.072849,40.757708],[-74.072813,40.75768],[-74.072849,40.75768],[-74.072849,40.757708]]],[[[-74.072848,40.757735],[-74.072884,40.757763],[-74.072848,40.757763],[-74.072848,40.757735]]],[[[-74.07292,40.757763],[-74.072884,40.757818],[-74.072884,40.757763],[-74.07292,40.757763]]],[[[-74.072956,40.757818],[-74.07292,40.757845],[-74.07292,40.757818],[-74.072956,40.757818]]],[[[-74.069286,40.700022],[-74.071059,40.699178],[-74.072179,40.69888],[-74.070045,40.699778],[-74.069609,40.700188],[-74.069286,40.700022]]],[[[-74.09577,40.680408],[-74.095553,40.680463],[-74.09548,40.680654],[-74.095156,40.680544],[-74.095586,40.680957],[-74.095259,40.681422],[-74.095506,40.682302],[-74.095002,40.682272],[-74.094674,40.682793],[-74.094097,40.682818],[-74.093882,40.682598],[-74.093412,40.682843],[-74.092618,40.682868],[-74.088771,40.681015],[-74.087865,40.681835],[-74.088194,40.68104],[-74.087616,40.681231],[-74.08725,40.682053],[-74.085739,40.681553],[-74.084086,40.680614],[-74.083766,40.679954],[-74.083439,40.68031],[-74.082646,40.680197],[-74.082938,40.679731],[-74.083261,40.679925],[-74.08337,40.679843],[-74.082474,40.678906],[-74.082112,40.679207],[-74.081643,40.679233],[-74.080493,40.678679],[-74.079948,40.679254],[-74.080452,40.679393],[-74.080414,40.67964],[-74.080197,40.679804],[-74.079549,40.679719],[-74.079944,40.67994],[-74.079906,40.68016],[-74.079653,40.680323],[-74.079257,40.680157],[-74.079507,40.68057],[-74.079254,40.680761],[-74.078679,40.680375],[-74.078103,40.680208],[-74.078029,40.68051],[-74.079754,40.681394],[-74.079465,40.681503],[-74.079607,40.681861],[-74.07921,40.681887],[-74.079208,40.682243],[-74.079929,40.682301],[-74.07982,40.682493],[-74.080683,40.682743],[-74.080788,40.68332],[-74.081296,40.682827],[-74.081944,40.683022],[-74.082446,40.683435],[-74.082371,40.683902],[-74.083054,40.684234],[-74.083196,40.684564],[-74.082546,40.684808],[-74.082543,40.685165],[-74.083083,40.685414],[-74.082973,40.685716],[-74.081857,40.685327],[-74.082391,40.686427],[-74.081847,40.686947],[-74.081522,40.686973],[-74.080411,40.685954],[-74.080192,40.686337],[-74.079725,40.686116],[-74.079472,40.686225],[-74.081842,40.687825],[-74.083534,40.688243],[-74.082561,40.688185],[-74.08256,40.688349],[-74.083894,40.688327],[-74.085917,40.687675],[-74.085194,40.68803],[-74.085445,40.688223],[-74.085337,40.688277],[-74.085372,40.688332],[-74.0853,40.688332],[-74.085263,40.688496],[-74.085624,40.688415],[-74.085874,40.688883],[-74.086345,40.688555],[-74.08656,40.688776],[-74.086994,40.68853],[-74.086521,40.68927],[-74.082495,40.692851],[-74.081623,40.694001],[-74.078688,40.696159],[-74.078141,40.697118],[-74.080531,40.695589],[-74.086445,40.689846],[-74.086081,40.690421],[-74.084339,40.692117],[-74.084084,40.6925],[-74.083831,40.692636],[-74.083903,40.692691],[-74.083685,40.692938],[-74.082923,40.693649],[-74.084011,40.692692],[-74.082666,40.694416],[-74.082341,40.69447],[-74.080563,40.696248],[-74.080596,40.69666],[-74.082664,40.694746],[-74.083492,40.694968],[-74.085522,40.693356],[-74.085629,40.693439],[-74.084288,40.694505],[-74.08465,40.694259],[-74.084759,40.694287],[-74.083564,40.694996],[-74.083671,40.695134],[-74.082693,40.695789],[-74.082403,40.696035],[-74.082439,40.696117],[-74.081606,40.696718],[-74.082511,40.6962],[-74.081785,40.696829],[-74.082,40.697104],[-74.08178,40.697707],[-74.081019,40.698253],[-74.080334,40.698251],[-74.080405,40.698416],[-74.079501,40.69877],[-74.079535,40.699099],[-74.079067,40.69896],[-74.079029,40.69918],[-74.078451,40.699424],[-74.078922,40.699042],[-74.078742,40.699014],[-74.07541,40.701225],[-74.076314,40.700899],[-74.075333,40.701938],[-74.075223,40.70224],[-74.075546,40.702488],[-74.074675,40.703363],[-74.074488,40.704378],[-74.074126,40.704569],[-74.073948,40.704267],[-74.073514,40.704347],[-74.072895,40.705224],[-74.073036,40.705746],[-74.072349,40.706045],[-74.072094,40.706511],[-74.071554,40.706344],[-74.0713,40.706508],[-74.071799,40.707388],[-74.072051,40.707471],[-74.072161,40.70728],[-74.072446,40.707747],[-74.072739,40.707199],[-74.07299,40.70742],[-74.07251,40.709038],[-74.072221,40.709119],[-74.07142,40.710269],[-74.070662,40.710431],[-74.06951,40.710097],[-74.069078,40.709848],[-74.069152,40.709602],[-74.067708,40.709706],[-74.067024,40.709539],[-74.067496,40.709129],[-74.068,40.709186],[-74.067497,40.708937],[-74.067463,40.708552],[-74.067968,40.708554],[-74.068331,40.708254],[-74.068224,40.708088],[-74.067284,40.708414],[-74.066925,40.708166],[-74.066094,40.708355],[-74.06559,40.708161],[-74.065552,40.708435],[-74.064432,40.708733],[-74.064827,40.708982],[-74.06443,40.70898],[-74.065007,40.709119],[-74.065041,40.709367],[-74.064032,40.709198],[-74.064029,40.709692],[-74.06439,40.709639],[-74.064461,40.709804],[-74.063194,40.710485],[-74.061827,40.709986],[-74.061867,40.709355],[-74.061291,40.70916],[-74.061296,40.708419],[-74.060069,40.708414],[-74.059491,40.708632],[-74.058407,40.708902],[-74.058769,40.708739],[-74.058697,40.708684],[-74.058299,40.708847],[-74.058262,40.708929],[-74.058082,40.708983],[-74.058117,40.709038],[-74.057465,40.70942],[-74.05815,40.709478],[-74.05786,40.709751],[-74.057853,40.710822],[-74.058105,40.710905],[-74.058359,40.710631],[-74.058792,40.710606],[-74.058971,40.710853],[-74.059369,40.710745],[-74.059474,40.711157],[-74.059655,40.711103],[-74.059476,40.7108],[-74.060053,40.71083],[-74.060088,40.711077],[-74.06045,40.710941],[-74.060555,40.711408],[-74.061346,40.711686],[-74.061164,40.71196],[-74.061705,40.711989],[-74.06181,40.712484],[-74.062747,40.712707],[-74.06418,40.714222],[-74.06483,40.71417],[-74.064939,40.71395],[-74.065479,40.714117],[-74.065626,40.713733],[-74.066418,40.713929],[-74.066242,40.713351],[-74.066928,40.713162],[-74.066679,40.712722],[-74.067724,40.712808],[-74.06827,40.712041],[-74.068091,40.711849],[-74.066864,40.711954],[-74.066433,40.71165],[-74.066436,40.711266],[-74.065823,40.711209],[-74.065935,40.710633],[-74.066187,40.710689],[-74.066807,40.709648],[-74.068968,40.71015],[-74.069579,40.710482],[-74.070661,40.710541],[-74.0691,40.71199],[-74.068335,40.713222],[-74.068478,40.71347],[-74.06768,40.714153],[-74.067967,40.714401],[-74.06757,40.7144],[-74.066443,40.715631],[-74.066258,40.716481],[-74.065102,40.716641],[-74.065425,40.716972],[-74.064882,40.717189],[-74.065171,40.71719],[-74.065241,40.717438],[-74.064838,40.71837],[-74.065122,40.719112],[-74.064976,40.719303],[-74.064472,40.719274],[-74.064253,40.719657],[-74.064286,40.720014],[-74.064647,40.720098],[-74.064357,40.720207],[-74.064464,40.720509],[-74.063048,40.721739],[-74.0633,40.72196],[-74.062681,40.722808],[-74.061813,40.723134],[-74.061048,40.724229],[-74.060651,40.724228],[-74.060721,40.724585],[-74.060467,40.724776],[-74.059781,40.724774],[-74.056218,40.72347],[-74.056109,40.723579],[-74.056108,40.723689],[-74.056,40.723689],[-74.056001,40.723496],[-74.054525,40.723052],[-74.056254,40.718007],[-74.056085,40.716332],[-74.054376,40.712949],[-74.05475,40.710974],[-74.055005,40.710591],[-74.054961,40.711744],[-74.057903,40.719661],[-74.057789,40.720456],[-74.056474,40.722922],[-74.056257,40.722976],[-74.056364,40.723196],[-74.05702,40.722155],[-74.056985,40.722073],[-74.057314,40.721443],[-74.057386,40.721498],[-74.057862,40.720429],[-74.05797,40.720375],[-74.057975,40.719661],[-74.055992,40.714026],[-74.056104,40.713395],[-74.055816,40.713312],[-74.055676,40.712762],[-74.056255,40.712463],[-74.055896,40.712214],[-74.055972,40.711665],[-74.056404,40.711694],[-74.056441,40.711557],[-74.055687,40.711088],[-74.055505,40.711279],[-74.055181,40.711168],[-74.055257,40.710565],[-74.056781,40.70928],[-74.059819,40.708029],[-74.059096,40.708383],[-74.059058,40.708548],[-74.059239,40.708576],[-74.059636,40.70844],[-74.059348,40.708412],[-74.05971,40.708248],[-74.059782,40.708276],[-74.059926,40.708249],[-74.059855,40.708029],[-74.060615,40.707648],[-74.060726,40.707319],[-74.063693,40.705903],[-74.065542,40.70451],[-74.065363,40.70429],[-74.066088,40.703716],[-74.067677,40.703392],[-74.069956,40.70244],[-74.07032,40.701838],[-74.069242,40.70123],[-74.069136,40.700845],[-74.069607,40.70049],[-74.075175,40.698452],[-74.074599,40.698312],[-74.073262,40.698609],[-74.075432,40.697657],[-74.075362,40.697382],[-74.076849,40.696015],[-74.07624,40.695436],[-74.076501,40.694147],[-74.077004,40.694368],[-74.07751,40.694178],[-74.077549,40.693684],[-74.077226,40.693546],[-74.07734,40.69264],[-74.078574,40.6913],[-74.077821,40.690611],[-74.077246,40.690334],[-74.076846,40.690882],[-74.077097,40.691075],[-74.076913,40.691678],[-74.076332,40.692225],[-74.07601,40.691867],[-74.07561,40.692387],[-74.075503,40.692222],[-74.074709,40.692356],[-74.075496,40.693292],[-74.075279,40.693374],[-74.074704,40.693042],[-74.074668,40.693124],[-74.075853,40.69387],[-74.076282,40.694558],[-74.076171,40.694997],[-74.075738,40.695023],[-74.075595,40.694775],[-74.075519,40.695379],[-74.07613,40.695738],[-74.075877,40.695847],[-74.076019,40.696122],[-74.075547,40.696669],[-74.075654,40.696834],[-74.074933,40.696804],[-74.075622,40.696257],[-74.075551,40.696037],[-74.075047,40.695843],[-74.074793,40.69609],[-74.073282,40.69548],[-74.073501,40.695097],[-74.072925,40.695012],[-74.07271,40.694764],[-74.072205,40.694817],[-74.071093,40.693852],[-74.070399,40.695113],[-74.068476,40.696999],[-74.066818,40.696829],[-74.067033,40.696994],[-74.066886,40.697405],[-74.067789,40.697299],[-74.06861,40.698565],[-74.068282,40.699085],[-74.06785,40.699001],[-74.067668,40.699192],[-74.068675,40.69969],[-74.068455,40.700156],[-74.069465,40.70027],[-74.068705,40.700679],[-74.067771,40.700071],[-74.067516,40.700455],[-74.067913,40.700401],[-74.068055,40.700649],[-74.067694,40.700757],[-74.067765,40.701005],[-74.066139,40.701328],[-74.065523,40.701792],[-74.065484,40.702231],[-74.065877,40.702864],[-74.065514,40.703274],[-74.065692,40.703522],[-74.065003,40.704206],[-74.063229,40.705187],[-74.063086,40.704995],[-74.063629,40.704612],[-74.062075,40.705156],[-74.061856,40.705484],[-74.061387,40.705482],[-74.059902,40.706437],[-74.059393,40.706984],[-74.058129,40.707282],[-74.058196,40.708078],[-74.056205,40.709058],[-74.055118,40.709878],[-74.054352,40.711028],[-74.054018,40.712564],[-74.054475,40.71424],[-74.055544,40.716303],[-74.055708,40.718719],[-74.054273,40.722968],[-74.051428,40.722106],[-74.051283,40.722243],[-74.052508,40.722577],[-74.054089,40.723489],[-74.052066,40.729191],[-74.051337,40.730286],[-74.050432,40.730722],[-74.045453,40.730647],[-74.050213,40.731188],[-74.045336,40.731937],[-74.04519,40.732156],[-74.049521,40.732118],[-74.050605,40.73182],[-74.048244,40.734144],[-74.048532,40.73431],[-74.048241,40.734529],[-74.048455,40.734996],[-74.047292,40.7362],[-74.047289,40.736666],[-74.042351,40.735796],[-74.044985,40.735861],[-74.044878,40.735668],[-74.042099,40.735657],[-74.040441,40.735376],[-74.039361,40.734933],[-74.038321,40.734078],[-74.03688,40.733715],[-74.036929,40.731821],[-74.035606,40.730114],[-74.036018,40.727865],[-74.035497,40.730141],[-74.03682,40.731958],[-74.036664,40.733577],[-74.034318,40.73365],[-74.03814,40.734104],[-74.038427,40.734408],[-74.038354,40.734545],[-74.038894,40.734684],[-74.03918,40.735124],[-74.037378,40.734678],[-74.036331,40.734811],[-74.036333,40.734536],[-74.036259,40.734811],[-74.035573,40.734808],[-74.037844,40.735119],[-74.038022,40.735559],[-74.038599,40.735534],[-74.037659,40.735804],[-74.039934,40.735621],[-74.041916,40.736079],[-74.039624,40.73643],[-74.038781,40.736295],[-74.036434,40.735584],[-74.037228,40.735583],[-74.037192,40.735501],[-74.036832,40.735362],[-74.035353,40.735263],[-74.034345,40.734962],[-74.034422,40.734227],[-74.034309,40.734952],[-74.033373,40.734673],[-74.033554,40.734553],[-74.033375,40.734305],[-74.033338,40.734524],[-74.032941,40.734544],[-74.032436,40.734394],[-74.032439,40.734082],[-74.0324,40.734383],[-74.031747,40.734189],[-74.03197,40.734052],[-74.03128,40.734049],[-74.030091,40.733695],[-74.030566,40.733735],[-74.030967,40.731276],[-74.027997,40.731011],[-74.028094,40.730228],[-74.026851,40.72951],[-74.027419,40.729492],[-74.029127,40.730468],[-74.031254,40.730755],[-74.029758,40.729759],[-74.030478,40.729769],[-74.031141,40.730229],[-74.031232,40.729473],[-74.027341,40.729073],[-74.030966,40.729341],[-74.031006,40.728998],[-74.026548,40.728601],[-74.026604,40.72819],[-74.031034,40.728575],[-74.031086,40.728036],[-74.027374,40.727716],[-74.027376,40.727515],[-74.030342,40.727781],[-74.030405,40.727036],[-74.030021,40.726476],[-74.030287,40.726135],[-74.034452,40.726238],[-74.034525,40.725771],[-74.032072,40.725567],[-74.03211,40.725235],[-74.034559,40.725585],[-74.034614,40.725286],[-74.033817,40.725209],[-74.03384,40.725007],[-74.029447,40.724567],[-74.029605,40.723812],[-74.033812,40.724127],[-74.03423,40.722149],[-74.031422,40.721896],[-74.031476,40.720258],[-74.032552,40.720129],[-74.032062,40.719669],[-74.029269,40.719356],[-74.029375,40.718921],[-74.032487,40.719279],[-74.03275,40.717386],[-74.02993,40.717066],[-74.029999,40.716713],[-74.032075,40.716919],[-74.032169,40.71639],[-74.031289,40.716292],[-74.0315,40.715724],[-74.031699,40.716164],[-74.032624,40.716228],[-74.03315,40.714155],[-74.032997,40.713831],[-74.031663,40.713565],[-74.03302,40.713729],[-74.033733,40.711677],[-74.034832,40.711793],[-74.035525,40.711406],[-74.037113,40.711659],[-74.038075,40.711106],[-74.0395,40.711082],[-74.039514,40.71038],[-74.038623,40.710148],[-74.038499,40.709581],[-74.035384,40.70908],[-74.034716,40.709167],[-74.034344,40.70887],[-74.034501,40.707679],[-74.034081,40.707627],[-74.034058,40.707141],[-74.034162,40.706652],[-74.034692,40.706696],[-74.034873,40.705751],[-74.038658,40.70608],[-74.041336,40.704785],[-74.045227,40.702193],[-74.048464,40.699254],[-74.051378,40.696016],[-74.054851,40.69064],[-74.057814,40.691965],[-74.057479,40.69281],[-74.058322,40.693287],[-74.058756,40.692501],[-74.058952,40.692563],[-74.058686,40.693452],[-74.059387,40.693881],[-74.059784,40.693079],[-74.059994,40.693121],[-74.0597,40.694059],[-74.060237,40.694409],[-74.060745,40.693614],[-74.06137,40.693886],[-74.06103,40.695033],[-74.064731,40.697091],[-74.06515,40.697088],[-74.06524,40.697678],[-74.065774,40.698034],[-74.066106,40.698135],[-74.066563,40.696832],[-74.067029,40.696369],[-74.068257,40.696866],[-74.069577,40.695732],[-74.070581,40.694436],[-74.070378,40.693824],[-74.069619,40.694049],[-74.069813,40.694365],[-74.069068,40.695173],[-74.0678,40.695391],[-74.067688,40.695217],[-74.067452,40.695555],[-74.065882,40.694626],[-74.06693,40.694008],[-74.068929,40.691697],[-74.069459,40.690723],[-74.069929,40.688696],[-74.069624,40.685822],[-74.07021,40.684684],[-74.069889,40.68445],[-74.070546,40.683946],[-74.073359,40.686049],[-74.073182,40.686206],[-74.07347,40.686778],[-74.074685,40.687589],[-74.07484,40.687935],[-74.075758,40.68829],[-74.075897,40.688661],[-74.078013,40.688601],[-74.078733,40.688949],[-74.079993,40.688906],[-74.079582,40.688726],[-74.080285,40.687995],[-74.07463,40.683866],[-74.074457,40.683971],[-74.071101,40.681665],[-74.070662,40.680639],[-74.071797,40.679744],[-74.070641,40.679209],[-74.071889,40.679629],[-74.07372,40.679817],[-74.074828,40.678352],[-74.072516,40.677158],[-74.072814,40.676909],[-74.075007,40.678078],[-74.075638,40.677405],[-74.072611,40.675807],[-74.073022,40.675347],[-74.07579,40.676812],[-74.076735,40.676002],[-74.075979,40.67691],[-74.077223,40.675599],[-74.080985,40.677371],[-74.081291,40.677066],[-74.0813,40.676473],[-74.080935,40.676073],[-74.077279,40.674274],[-74.069296,40.670879],[-74.068149,40.670712],[-74.064988,40.669224],[-74.06492,40.66853],[-74.065716,40.66704],[-74.09816,40.680774],[-74.096416,40.680932],[-74.09577,40.680408]],[[-74.095192,40.680516],[-74.095157,40.680489],[-74.095156,40.680516],[-74.095192,40.680516]],[[-74.088194,40.68104],[-74.08823,40.680986],[-74.088194,40.680986],[-74.088194,40.68104]],[[-74.078247,40.680209],[-74.07832,40.680181],[-74.078248,40.680181],[-74.078247,40.680209]],[[-74.079431,40.681283],[-74.079394,40.681311],[-74.07943,40.681311],[-74.079431,40.681283]],[[-74.079394,40.681283],[-74.079323,40.681256],[-74.079322,40.681283],[-74.079394,40.681283]],[[-74.079464,40.681668],[-74.079428,40.68164],[-74.079428,40.681668],[-74.079464,40.681668]],[[-74.082813,40.688131],[-74.082777,40.688158],[-74.082813,40.688158],[-74.082813,40.688131]],[[-74.085193,40.688167],[-74.085157,40.688194],[-74.085193,40.688194],[-74.085193,40.688167]],[[-74.0853,40.688332],[-74.085264,40.688304],[-74.085264,40.688332],[-74.0853,40.688332]],[[-74.085874,40.688883],[-74.085838,40.68891],[-74.085874,40.68891],[-74.085874,40.688883]],[[-74.086488,40.688775],[-74.086451,40.688803],[-74.086487,40.688803],[-74.086488,40.688775]],[[-74.078105,40.697035],[-74.078069,40.697062],[-74.078105,40.697062],[-74.078105,40.697035]],[[-74.078141,40.697118],[-74.078105,40.697145],[-74.078141,40.697145],[-74.078141,40.697118]],[[-74.078105,40.697145],[-74.078068,40.697172],[-74.078104,40.697172],[-74.078105,40.697145]],[[-74.078068,40.697172],[-74.078032,40.697199],[-74.078068,40.6972],[-74.078068,40.697172]],[[-74.084012,40.692527],[-74.083976,40.6925],[-74.083976,40.692527],[-74.084012,40.692527]],[[-74.083831,40.692664],[-74.083795,40.692691],[-74.083831,40.692691],[-74.083831,40.692664]],[[-74.083468,40.693102],[-74.083432,40.693019],[-74.083395,40.693101],[-74.083468,40.693102]],[[-74.083468,40.693019],[-74.083504,40.692992],[-74.083468,40.692992],[-74.083468,40.693019]],[[-74.083504,40.692992],[-74.083541,40.692965],[-74.083504,40.692965],[-74.083504,40.692992]],[[-74.083395,40.693101],[-74.083359,40.693129],[-74.083395,40.693129],[-74.083395,40.693101]],[[-74.082923,40.693759],[-74.082814,40.693758],[-74.082814,40.693813],[-74.082923,40.693759]],[[-74.082814,40.693813],[-74.082778,40.69384],[-74.082814,40.69384],[-74.082814,40.693813]],[[-74.082777,40.693895],[-74.082669,40.693895],[-74.082669,40.69395],[-74.082777,40.693895]],[[-74.084288,40.694505],[-74.084252,40.694532],[-74.084288,40.694532],[-74.084288,40.694505]],[[-74.081968,40.696445],[-74.081932,40.696418],[-74.081932,40.696445],[-74.081968,40.696445]],[[-74.079175,40.69896],[-74.079211,40.698933],[-74.079175,40.698933],[-74.079175,40.69896]],[[-74.079211,40.698961],[-74.079247,40.698988],[-74.079247,40.698961],[-74.079211,40.698961]],[[-74.079211,40.698933],[-74.079284,40.698879],[-74.079212,40.698878],[-74.079211,40.698933]],[[-74.079175,40.698933],[-74.079139,40.698905],[-74.079139,40.698933],[-74.079175,40.698933]],[[-74.074092,40.704322],[-74.074128,40.704295],[-74.074092,40.704295],[-74.074092,40.704322]],[[-74.074128,40.704295],[-74.074164,40.704267],[-74.074128,40.704267],[-74.074128,40.704295]],[[-74.070014,40.710154],[-74.070087,40.710044],[-74.070015,40.710044],[-74.070014,40.710154]],[[-74.059346,40.708631],[-74.059311,40.708604],[-74.05931,40.708631],[-74.059346,40.708631]],[[-74.059474,40.711157],[-74.059402,40.711212],[-74.059438,40.711212],[-74.059474,40.711157]],[[-74.054966,40.710975],[-74.05493,40.710948],[-74.05493,40.710975],[-74.054966,40.710975]],[[-74.056914,40.721826],[-74.057023,40.721716],[-74.056951,40.721688],[-74.056914,40.721826]],[[-74.056914,40.721826],[-74.056878,40.72188],[-74.056914,40.72188],[-74.056914,40.721826]],[[-74.057094,40.721936],[-74.05713,40.721964],[-74.05713,40.721936],[-74.057094,40.721936]],[[-74.057131,40.721854],[-74.057166,40.721881],[-74.057167,40.721854],[-74.057131,40.721854]],[[-74.057313,40.721525],[-74.057349,40.721553],[-74.057349,40.721525],[-74.057313,40.721525]],[[-74.057715,40.720786],[-74.057751,40.720813],[-74.057751,40.720786],[-74.057715,40.720786]],[[-74.057861,40.720512],[-74.057897,40.720567],[-74.057897,40.720512],[-74.057861,40.720512]],[[-74.057898,40.720429],[-74.057933,40.720484],[-74.057934,40.720429],[-74.057898,40.720429]],[[-74.056188,40.711721],[-74.056224,40.711749],[-74.056224,40.711721],[-74.056188,40.711721]],[[-74.056441,40.711612],[-74.056477,40.71164],[-74.056477,40.711612],[-74.056441,40.711612]],[[-74.059058,40.708548],[-74.059022,40.708575],[-74.059058,40.708575],[-74.059058,40.708548]],[[-74.059166,40.708576],[-74.05913,40.708603],[-74.059166,40.708603],[-74.059166,40.708576]],[[-74.059782,40.708276],[-74.059745,40.708303],[-74.059782,40.708304],[-74.059782,40.708276]],[[-74.059927,40.708139],[-74.059999,40.708112],[-74.059927,40.708112],[-74.059927,40.708139]],[[-74.059999,40.708112],[-74.060035,40.708085],[-74.059999,40.708085],[-74.059999,40.708112]],[[-74.06,40.708002],[-74.06018,40.708003],[-74.060253,40.707921],[-74.06,40.708002]],[[-74.060761,40.707484],[-74.060833,40.707457],[-74.060761,40.707456],[-74.060761,40.707484]],[[-74.060689,40.707456],[-74.060725,40.707429],[-74.060689,40.707429],[-74.060689,40.707456]],[[-74.065579,40.704263],[-74.065722,40.704456],[-74.065795,40.704428],[-74.065579,40.704263]],[[-74.065544,40.704153],[-74.06558,40.704181],[-74.06558,40.704153],[-74.065544,40.704153]],[[-74.075031,40.698369],[-74.075103,40.698342],[-74.075031,40.698341],[-74.075031,40.698369]],[[-74.074959,40.698341],[-74.074995,40.698314],[-74.074959,40.698314],[-74.074959,40.698341]],[[-74.074995,40.698314],[-74.075068,40.698287],[-74.074996,40.698286],[-74.074995,40.698314]],[[-74.07685,40.69596],[-74.076886,40.695933],[-74.07685,40.695932],[-74.07685,40.69596]],[[-74.076886,40.695933],[-74.076922,40.695905],[-74.076886,40.695905],[-74.076886,40.695933]],[[-74.076922,40.695905],[-74.076958,40.695878],[-74.076922,40.695878],[-74.076922,40.695905]],[[-74.075595,40.69472],[-74.075128,40.694416],[-74.074951,40.693949],[-74.074627,40.693866],[-74.074806,40.694141],[-74.074552,40.694387],[-74.073796,40.694027],[-74.074155,40.69433],[-74.073866,40.694384],[-74.073937,40.694659],[-74.073613,40.694575],[-74.073792,40.694796],[-74.074838,40.694745],[-74.074732,40.69436],[-74.075595,40.69472]],[[-74.075805,40.695846],[-74.075841,40.695819],[-74.075769,40.695764],[-74.075805,40.695846]],[[-74.067683,40.696859],[-74.067647,40.696832],[-74.067647,40.696859],[-74.067683,40.696859]],[[-74.038212,40.734215],[-74.038175,40.734242],[-74.038211,40.734242],[-74.038212,40.734215]],[[-74.03096,40.733938],[-74.031141,40.733912],[-74.03096,40.733911],[-74.03096,40.733938]],[[-74.031141,40.733912],[-74.031285,40.733885],[-74.031141,40.733884],[-74.031141,40.733912]]],[[[-74.05989,40.708249],[-74.059818,40.708194],[-74.05989,40.708194],[-74.05989,40.708249]]],[[[-74.059275,40.708494],[-74.059239,40.708466],[-74.059275,40.708466],[-74.059275,40.708494]]],[[[-74.059167,40.708493],[-74.059095,40.708493],[-74.059095,40.708466],[-74.059167,40.708466],[-74.059167,40.708493]]],[[[-74.059239,40.708521],[-74.059167,40.708493],[-74.059239,40.708494],[-74.059239,40.708521]]],[[[-74.058371,40.708902],[-74.058407,40.70893],[-74.058371,40.70893],[-74.058371,40.708902]]],[[[-74.058226,40.708984],[-74.058262,40.708929],[-74.058371,40.70893],[-74.058226,40.708984]]],[[[-74.058226,40.709011],[-74.058154,40.708984],[-74.058226,40.708984],[-74.058226,40.709011]]],[[[-74.056782,40.709116],[-74.0566,40.709335],[-74.056456,40.709307],[-74.056782,40.709116]]],[[[-74.057387,40.721333],[-74.057422,40.721361],[-74.057386,40.721361],[-74.057387,40.721333]]],[[[-74.056839,40.722319],[-74.056875,40.722347],[-74.056839,40.722347],[-74.056839,40.722319]]],[[[-74.056181,40.723552],[-74.056217,40.723525],[-74.056217,40.723552],[-74.056181,40.723552]]],[[[-74.055162,40.724893],[-74.055198,40.724921],[-74.055162,40.724921],[-74.055162,40.724893]]],[[[-74.055305,40.725058],[-74.055269,40.725086],[-74.055269,40.725058],[-74.055305,40.725058]]],[[[-74.055233,40.725141],[-74.055269,40.725113],[-74.055269,40.725141],[-74.055233,40.725141]]],[[[-74.067127,40.743824],[-74.067054,40.743852],[-74.067127,40.743769],[-74.067127,40.743824]]],[[[-74.067162,40.743934],[-74.06709,40.743961],[-74.067162,40.743879],[-74.067162,40.743934]]],[[[-74.067662,40.744815],[-74.067626,40.744787],[-74.067662,40.744787],[-74.067662,40.744815]]],[[[-74.064688,40.74689],[-74.064724,40.746917],[-74.064688,40.746917],[-74.064688,40.74689]]],[[[-74.064724,40.747054],[-74.064615,40.747054],[-74.064688,40.746917],[-74.064724,40.747054]]],[[[-74.06418,40.747382],[-74.064144,40.747354],[-74.06418,40.747354],[-74.06418,40.747382]]],[[[-74.064035,40.747436],[-74.064108,40.747354],[-74.064144,40.747437],[-74.064035,40.747436]]],[[[-74.064251,40.747492],[-74.064215,40.747519],[-74.064215,40.747492],[-74.064251,40.747492]]],[[[-74.064143,40.747519],[-74.063998,40.747546],[-74.063999,40.747463],[-74.064143,40.747519]]],[[[-74.064215,40.747602],[-74.064179,40.747574],[-74.064215,40.747574],[-74.064215,40.747602]]],[[[-74.06407,40.747601],[-74.063962,40.747655],[-74.063962,40.747573],[-74.06407,40.747601]]],[[[-74.064178,40.747739],[-74.064142,40.747684],[-74.064178,40.747684],[-74.064178,40.747739]]],[[[-74.063998,40.747683],[-74.063997,40.74782],[-74.063925,40.747683],[-74.063998,40.747683]]],[[[-74.064433,40.747355],[-74.06403,40.748205],[-74.063922,40.748232],[-74.064433,40.747355]]],[[[-74.063996,40.747875],[-74.06396,40.747848],[-74.063996,40.747848],[-74.063996,40.747875]]],[[[-74.063961,40.747793],[-74.063304,40.748861],[-74.063232,40.74886],[-74.063961,40.747793]]],[[[-74.068212,40.749044],[-74.068248,40.749017],[-74.068248,40.749044],[-74.068212,40.749044]]],[[[-74.06203,40.750503],[-74.061994,40.750475],[-74.06203,40.750475],[-74.06203,40.750503]]],[[[-74.060689,40.751404],[-74.060725,40.751376],[-74.060725,40.751404],[-74.060689,40.751404]]],[[[-74.060977,40.751405],[-74.061013,40.751432],[-74.060977,40.751432],[-74.060977,40.751405]]],[[[-74.069066,40.750859],[-74.069955,40.752948],[-74.068198,40.751212],[-74.068165,40.750691],[-74.0686,40.75039],[-74.069394,40.750476],[-74.069066,40.750859]],[[-74.069067,40.750776],[-74.069031,40.750721],[-74.069031,40.750776],[-74.069067,40.750776]],[[-74.069031,40.750721],[-74.068995,40.750666],[-74.068995,40.750721],[-74.069031,40.750721]],[[-74.068995,40.750666],[-74.06896,40.750584],[-74.068959,40.750666],[-74.068995,40.750666]],[[-74.06896,40.750584],[-74.068924,40.750501],[-74.068924,40.750584],[-74.06896,40.750584]]],[[[-74.060179,40.752061],[-74.060143,40.752088],[-74.060143,40.75206],[-74.060179,40.752061]]],[[[-74.072992,40.757846],[-74.073171,40.758011],[-74.071205,40.754984],[-74.069861,40.750752],[-74.070614,40.751551],[-74.073394,40.757024],[-74.074396,40.758427],[-74.072666,40.758911],[-74.072224,40.760123],[-74.068594,40.761976],[-74.06629,40.762818],[-74.064931,40.763763],[-74.063801,40.763669],[-74.062501,40.762673],[-74.061794,40.76242],[-74.060022,40.76255],[-74.060002,40.76341],[-74.05963,40.764001],[-74.059993,40.765701],[-74.058474,40.766757],[-74.056954,40.769011],[-74.052044,40.760841],[-74.05225,40.760951],[-74.052396,40.760705],[-74.052073,40.760484],[-74.051896,40.760593],[-74.051894,40.760291],[-74.053168,40.758649],[-74.05353,40.758458],[-74.053895,40.757966],[-74.053896,40.757719],[-74.054187,40.757445],[-74.054188,40.757281],[-74.054441,40.757309],[-74.054732,40.756981],[-74.054696,40.756843],[-74.054878,40.756624],[-74.055096,40.756433],[-74.055168,40.756488],[-74.055313,40.756434],[-74.055531,40.756188],[-74.055569,40.755913],[-74.055749,40.755941],[-74.055644,40.755557],[-74.055968,40.755585],[-74.056006,40.755339],[-74.055645,40.755365],[-74.055864,40.755036],[-74.05561,40.755145],[-74.055539,40.754952],[-74.057216,40.752461],[-74.059139,40.751041],[-74.059643,40.751235],[-74.060185,40.751127],[-74.060152,40.750606],[-74.060767,40.750416],[-74.060919,40.749236],[-74.061354,40.748991],[-74.061212,40.748633],[-74.061541,40.747976],[-74.061939,40.747812],[-74.062481,40.747842],[-74.062551,40.748117],[-74.062805,40.74798],[-74.062656,40.748666],[-74.062293,40.748939],[-74.061788,40.748937],[-74.062146,40.749296],[-74.062398,40.749379],[-74.062726,40.748968],[-74.063195,40.748998],[-74.062542,40.749462],[-74.061814,40.750447],[-74.061488,40.750528],[-74.060653,40.751376],[-74.059997,40.752197],[-74.060215,40.752088],[-74.060905,40.751459],[-74.061013,40.75146],[-74.061086,40.751405],[-74.061377,40.751022],[-74.061594,40.750995],[-74.06185,40.750502],[-74.062066,40.750531],[-74.063955,40.748726],[-74.06465,40.747301],[-74.064759,40.747137],[-74.065047,40.74722],[-74.065961,40.745522],[-74.066104,40.745632],[-74.066865,40.745141],[-74.067086,40.744538],[-74.066476,40.743959],[-74.066622,40.743768],[-74.066909,40.743933],[-74.06684,40.743494],[-74.066948,40.743522],[-74.067017,40.743961],[-74.067198,40.743962],[-74.067556,40.744348],[-74.067553,40.744897],[-74.067733,40.744897],[-74.069253,40.749899],[-74.069251,40.750146],[-74.068963,40.750117],[-74.068535,40.749292],[-74.068248,40.748989],[-74.06814,40.749016],[-74.06871,40.750116],[-74.067877,40.750552],[-74.067837,40.751211],[-74.069523,40.752809],[-74.070271,40.754322],[-74.070062,40.753168],[-74.070242,40.753224],[-74.071665,40.756468],[-74.072775,40.7579],[-74.072992,40.757846]],[[-74.070119,40.761129],[-74.07012,40.761047],[-74.070048,40.760909],[-74.070119,40.761129]],[[-74.070048,40.760909],[-74.069977,40.760744],[-74.070012,40.760909],[-74.070048,40.760909]],[[-74.069977,40.760744],[-74.069942,40.760662],[-74.069941,40.760744],[-74.069977,40.760744]],[[-74.069942,40.760662],[-74.069906,40.760579],[-74.069905,40.760662],[-74.069942,40.760662]],[[-74.06987,40.760579],[-74.06987,40.760497],[-74.069799,40.760359],[-74.06987,40.760579]],[[-74.069799,40.760359],[-74.069764,40.760277],[-74.069763,40.760359],[-74.069799,40.760359]],[[-74.069764,40.760277],[-74.069728,40.760194],[-74.069727,40.760277],[-74.069764,40.760277]],[[-74.069728,40.760194],[-74.069692,40.760112],[-74.069692,40.760194],[-74.069728,40.760194]],[[-74.069692,40.760112],[-74.069657,40.760057],[-74.069656,40.760112],[-74.069692,40.760112]],[[-74.070083,40.761074],[-74.070047,40.761101],[-74.070083,40.761101],[-74.070083,40.761074]],[[-74.070047,40.761101],[-74.069975,40.761129],[-74.070047,40.761129],[-74.070047,40.761101]],[[-74.069684,40.761402],[-74.069612,40.761319],[-74.069648,40.761402],[-74.069684,40.761402]],[[-74.069612,40.761347],[-74.069576,40.761374],[-74.069612,40.761374],[-74.069612,40.761347]],[[-74.053276,40.758677],[-74.05324,40.758704],[-74.053276,40.758704],[-74.053276,40.758677]],[[-74.053932,40.757856],[-74.053968,40.757801],[-74.053932,40.757801],[-74.053932,40.757856]],[[-74.053968,40.757801],[-74.054004,40.757774],[-74.053968,40.757774],[-74.053968,40.757801]],[[-74.054004,40.757774],[-74.054041,40.757747],[-74.054005,40.757746],[-74.054004,40.757774]],[[-74.054732,40.756953],[-74.054768,40.756898],[-74.054732,40.756898],[-74.054732,40.756953]],[[-74.054768,40.756898],[-74.054805,40.756871],[-74.054768,40.756871],[-74.054768,40.756898]],[[-74.054805,40.756871],[-74.054877,40.756789],[-74.054841,40.756789],[-74.054805,40.756871]],[[-74.055168,40.756488],[-74.055132,40.756516],[-74.055168,40.756516],[-74.055168,40.756488]],[[-74.055132,40.756516],[-74.055096,40.756543],[-74.055132,40.756543],[-74.055132,40.756516]],[[-74.055713,40.755941],[-74.055677,40.755969],[-74.055713,40.755969],[-74.055713,40.755941]],[[-74.05575,40.755859],[-74.055822,40.755859],[-74.055931,40.755777],[-74.05575,40.755859]],[[-74.056006,40.755339],[-74.056042,40.755311],[-74.056006,40.755311],[-74.056006,40.755339]],[[-74.059997,40.752252],[-74.059853,40.752279],[-74.059852,40.752334],[-74.059997,40.752252]],[[-74.059852,40.752389],[-74.059707,40.752416],[-74.059707,40.752443],[-74.059852,40.752389]],[[-74.061013,40.75146],[-74.061049,40.751515],[-74.061085,40.75146],[-74.061013,40.75146]],[[-74.064028,40.748616],[-74.064063,40.748644],[-74.064064,40.748617],[-74.064028,40.748616]],[[-74.066982,40.743851],[-74.066946,40.743879],[-74.066982,40.743879],[-74.066982,40.743851]],[[-74.067197,40.744044],[-74.067161,40.744072],[-74.067197,40.744072],[-74.067197,40.744044]],[[-74.067518,40.744649],[-74.067519,40.744594],[-74.067483,40.744539],[-74.067518,40.744649]],[[-74.067483,40.744539],[-74.067447,40.744512],[-74.067447,40.744539],[-74.067483,40.744539]],[[-74.067447,40.744512],[-74.067411,40.744457],[-74.067411,40.744512],[-74.067447,40.744512]],[[-74.067661,40.744979],[-74.067696,40.745007],[-74.067697,40.744979],[-74.067661,40.744979]],[[-74.070057,40.753964],[-74.070021,40.753992],[-74.070057,40.753992],[-74.070057,40.753964]],[[-74.072956,40.7579],[-74.072992,40.757928],[-74.072992,40.757901],[-74.072956,40.7579]]],[[[-74.05535,40.756242],[-74.055423,40.75616],[-74.055386,40.756242],[-74.05535,40.756242]]],[[[-74.05535,40.756269],[-74.055277,40.756379],[-74.055168,40.756433],[-74.055242,40.756269],[-74.05535,40.756269]]],[[[-74.055041,40.710564],[-74.055005,40.710536],[-74.055041,40.710536],[-74.055041,40.710564]]],[[[-74.054576,40.726263],[-74.054504,40.726208],[-74.054576,40.726181],[-74.054576,40.726263]]],[[[-74.054467,40.726373],[-74.054503,40.726346],[-74.054503,40.726373],[-74.054467,40.726373]]],[[[-74.054283,40.726811],[-74.05432,40.726784],[-74.054319,40.726811],[-74.054283,40.726811]]],[[[-74.054283,40.726894],[-74.054247,40.726866],[-74.054283,40.726866],[-74.054283,40.726894]]],[[[-74.05421,40.726976],[-74.054246,40.726948],[-74.054246,40.726976],[-74.05421,40.726976]]],[[[-74.055197,40.725113],[-74.055228,40.725799],[-74.054396,40.726208],[-74.054539,40.726318],[-74.054467,40.72629],[-74.054358,40.726455],[-74.054392,40.726702],[-74.054247,40.726784],[-74.054174,40.726948],[-74.054243,40.727415],[-74.053956,40.727249],[-74.053846,40.727468],[-74.05413,40.728101],[-74.053223,40.728839],[-74.05279,40.728864],[-74.052605,40.72955],[-74.051841,40.730563],[-74.052092,40.730728],[-74.052091,40.73092],[-74.052234,40.731031],[-74.052379,40.731031],[-74.052378,40.731086],[-74.052342,40.731113],[-74.052485,40.731279],[-74.052377,40.731278],[-74.05227,40.731168],[-74.052233,40.731195],[-74.052161,40.731195],[-74.052089,40.731167],[-74.051802,40.731002],[-74.051441,40.731],[-74.052648,40.728589],[-74.054267,40.723847],[-74.054694,40.724699],[-74.054981,40.724947],[-74.055306,40.724921],[-74.055197,40.725113]],[[-74.054468,40.726153],[-74.054432,40.726126],[-74.054432,40.726153],[-74.054468,40.726153]],[[-74.054356,40.726702],[-74.05432,40.726674],[-74.05432,40.726702],[-74.054356,40.726702]],[[-74.054174,40.727031],[-74.054137,40.727085],[-74.054173,40.727085],[-74.054174,40.727031]],[[-74.052091,40.730893],[-74.052055,40.730865],[-74.052055,40.730893],[-74.052091,40.730893]]],[[[-74.052394,40.728753],[-74.052358,40.72878],[-74.052358,40.728753],[-74.052394,40.728753]]],[[[-74.052358,40.728808],[-74.052321,40.728917],[-74.052321,40.728808],[-74.052358,40.728808]]],[[[-74.052321,40.728917],[-74.051844,40.730123],[-74.051552,40.730561],[-74.051445,40.730341],[-74.052321,40.728917]]],[[[-74.051337,40.730396],[-74.05126,40.731027],[-74.049276,40.730937],[-74.050576,40.730805],[-74.051337,40.730396]]],[[[-74.052163,40.730893],[-74.052127,40.730921],[-74.052127,40.730893],[-74.052163,40.730893]]],[[[-74.049168,40.730909],[-74.04906,40.730881],[-74.049168,40.730882],[-74.049168,40.730909]]],[[[-74.052199,40.730921],[-74.052163,40.730948],[-74.052163,40.730921],[-74.052199,40.730921]]],[[[-74.052235,40.730948],[-74.052199,40.730976],[-74.052199,40.730948],[-74.052235,40.730948]]],[[[-74.052271,40.730976],[-74.052235,40.731003],[-74.052235,40.730976],[-74.052271,40.730976]]],[[[-74.052414,40.731114],[-74.052378,40.731086],[-74.052414,40.731086],[-74.052414,40.731114]]],[[[-74.052414,40.731141],[-74.05245,40.731169],[-74.052414,40.731169],[-74.052414,40.731141]]],[[[-74.052486,40.731196],[-74.05245,40.731196],[-74.05245,40.731169],[-74.052486,40.731169],[-74.052486,40.731196]]],[[[-74.052522,40.731224],[-74.052486,40.731196],[-74.052522,40.731197],[-74.052522,40.731224]]],[[[-74.052269,40.731223],[-74.052233,40.731195],[-74.052269,40.731196],[-74.052269,40.731223]]],[[[-74.052269,40.731223],[-74.052305,40.731251],[-74.052269,40.73125],[-74.052269,40.731223]]],[[[-74.051186,40.731274],[-74.051042,40.731246],[-74.051187,40.731246],[-74.051186,40.731274]]],[[[-74.052521,40.731306],[-74.052485,40.731279],[-74.052521,40.731279],[-74.052521,40.731306]]],[[[-74.052341,40.731278],[-74.052377,40.731306],[-74.052341,40.731306],[-74.052341,40.731278]]],[[[-74.051149,40.731493],[-74.051077,40.731438],[-74.051149,40.731411],[-74.051149,40.731493]]],[[[-74.047321,40.731917],[-74.050139,40.731379],[-74.050933,40.731383],[-74.050425,40.731792],[-74.049521,40.732008],[-74.047321,40.731917]]],[[[-74.044733,40.735695],[-74.044697,40.735723],[-74.044697,40.735695],[-74.044733,40.735695]]],[[[-74.045269,40.736466],[-74.045125,40.736493],[-74.045125,40.736465],[-74.045269,40.736466]]],[[[-74.045305,40.736494],[-74.045269,40.736521],[-74.045269,40.736494],[-74.045305,40.736494]]],[[[-74.042261,40.743674],[-74.042296,40.743701],[-74.04226,40.743701],[-74.042261,40.743674]]],[[[-74.042151,40.743893],[-74.042187,40.74392],[-74.042151,40.74392],[-74.042151,40.743893]]],[[[-74.054696,40.756953],[-74.054659,40.75698],[-74.05466,40.756953],[-74.054696,40.756953]]],[[[-74.054659,40.757008],[-74.054623,40.757035],[-74.054623,40.757008],[-74.054659,40.757008]]],[[[-74.054623,40.757063],[-74.054587,40.757035],[-74.054623,40.757035],[-74.054623,40.757063]]],[[[-74.054587,40.75709],[-74.054551,40.757062],[-74.054587,40.757062],[-74.054587,40.75709]]],[[[-74.05455,40.757145],[-74.054478,40.757089],[-74.05455,40.75709],[-74.05455,40.757145]]],[[[-74.054477,40.757227],[-74.054441,40.757199],[-74.054477,40.757199],[-74.054477,40.757227]]],[[[-74.054441,40.757227],[-74.054405,40.757254],[-74.054405,40.757226],[-74.054441,40.757227]]],[[[-74.053859,40.757856],[-74.053895,40.757883],[-74.053859,40.757883],[-74.053859,40.757856]]],[[[-74.052035,40.760813],[-74.052035,40.760824],[-74.052028,40.760813],[-74.052035,40.760813]]],[[[-74.038462,40.734518],[-74.038426,40.734462],[-74.038462,40.734463],[-74.038462,40.734518]]],[[[-74.033337,40.734662],[-74.032962,40.73455],[-74.033338,40.734552],[-74.033337,40.734662]]],[[[-74.036764,40.734868],[-74.036728,40.73484],[-74.036764,40.73484],[-74.036764,40.734868]]],[[[-74.038817,40.735342],[-74.038745,40.735315],[-74.038817,40.735315],[-74.038817,40.735342]]],[[[-74.035642,40.735302],[-74.035606,40.73533],[-74.035606,40.735302],[-74.035642,40.735302]]],[[[-74.038961,40.73537],[-74.038853,40.735343],[-74.038962,40.735343],[-74.038961,40.73537]]],[[[-74.036002,40.735386],[-74.035966,40.735358],[-74.036002,40.735359],[-74.036002,40.735386]]],[[[-74.036002,40.735441],[-74.035678,40.73533],[-74.03593,40.735358],[-74.036002,40.735441]]],[[[-74.038852,40.73548],[-74.038816,40.73548],[-74.038816,40.735452],[-74.038853,40.735452],[-74.038852,40.73548]]],[[[-74.036868,40.735444],[-74.036904,40.735472],[-74.036868,40.735472],[-74.036868,40.735444]]],[[[-74.036038,40.735441],[-74.036002,40.735456],[-74.036002,40.735441],[-74.036038,40.735441]]],[[[-74.038888,40.735507],[-74.038852,40.73548],[-74.038888,40.73548],[-74.038888,40.735507]]],[[[-74.038708,40.735507],[-74.038636,40.735479],[-74.038708,40.735479],[-74.038708,40.735507]]],[[[-74.037084,40.7355],[-74.037011,40.735555],[-74.037012,40.7355],[-74.037084,40.7355]]],[[[-74.038888,40.73559],[-74.038707,40.735562],[-74.038888,40.735562],[-74.038888,40.73559]]],[[[-74.042405,40.743619],[-74.042223,40.743893],[-74.042151,40.743865],[-74.042151,40.743893],[-74.042115,40.743893],[-74.042041,40.744112],[-74.041968,40.744166],[-74.041968,40.744249],[-74.041859,40.744331],[-74.041858,40.744413],[-74.041749,40.744522],[-74.041713,40.744632],[-74.04124,40.745152],[-74.041203,40.745289],[-74.041238,40.745399],[-74.040983,40.745727],[-74.040656,40.746028],[-74.040548,40.746],[-74.040548,40.746055],[-74.040476,40.746055],[-74.04033,40.746274],[-74.040185,40.746355],[-74.040148,40.746465],[-74.040112,40.746465],[-74.040112,40.74652],[-74.040039,40.746547],[-74.040075,40.746629],[-74.039162,40.74819],[-74.038907,40.748409],[-74.038942,40.748574],[-74.038652,40.748792],[-74.038103,40.749943],[-74.038138,40.750026],[-74.038029,40.750162],[-74.038064,40.750272],[-74.03792,40.750272],[-74.037847,40.750359],[-74.039603,40.746747],[-74.041067,40.745107],[-74.041619,40.744285],[-74.041521,40.743999],[-74.042208,40.742804],[-74.042169,40.741354],[-74.043516,40.740349],[-74.043782,40.739857],[-74.043922,40.739012],[-74.04352,40.738505],[-74.043911,40.73754],[-74.042837,40.736505],[-74.042925,40.736182],[-74.04516,40.736658],[-74.045736,40.736852],[-74.045914,40.737182],[-74.045218,40.738634],[-74.04514,40.739513],[-74.044707,40.739566],[-74.044559,40.740087],[-74.043508,40.740659],[-74.043033,40.741563],[-74.042405,40.743619]],[[-74.041203,40.745289],[-74.041167,40.745316],[-74.041203,40.745316],[-74.041203,40.745289]],[[-74.041167,40.745316],[-74.04113,40.745371],[-74.041166,40.745371],[-74.041167,40.745316]],[[-74.04113,40.745371],[-74.041094,40.745398],[-74.04113,40.745398],[-74.04113,40.745371]],[[-74.040657,40.745973],[-74.040621,40.74589],[-74.040621,40.745973],[-74.040657,40.745973]],[[-74.040039,40.746629],[-74.040003,40.746602],[-74.040003,40.746629],[-74.040039,40.746629]],[[-74.038102,40.750025],[-74.038066,40.749998],[-74.038066,40.750025],[-74.038102,40.750025]],[[-74.042224,40.743756],[-74.042187,40.74381],[-74.042224,40.743811],[-74.042224,40.743756]]],[[[-74.042077,40.744057],[-74.042114,40.74403],[-74.042114,40.744057],[-74.042077,40.744057]]],[[[-74.042077,40.744139],[-74.042041,40.744112],[-74.042077,40.744112],[-74.042077,40.744139]]],[[[-74.042004,40.744194],[-74.042041,40.744167],[-74.04204,40.744194],[-74.042004,40.744194]]],[[[-74.041968,40.744276],[-74.042004,40.744249],[-74.042004,40.744276],[-74.041968,40.744276]]],[[[-74.041894,40.744441],[-74.041858,40.744413],[-74.041895,40.744413],[-74.041894,40.744441]]],[[[-74.041822,40.744495],[-74.041858,40.744468],[-74.041858,40.744495],[-74.041822,40.744495]]],[[[-74.041785,40.74455],[-74.041822,40.744523],[-74.041821,40.74455],[-74.041785,40.74455]]],[[[-74.041749,40.744605],[-74.041785,40.744577],[-74.041785,40.744605],[-74.041749,40.744605]]],[[[-74.041712,40.74466],[-74.041749,40.744632],[-74.041749,40.74466],[-74.041712,40.74466]]],[[[-74.041385,40.745097],[-74.041421,40.74507],[-74.041421,40.745098],[-74.041385,40.745097]]],[[[-74.041312,40.745207],[-74.041239,40.745289],[-74.041276,40.745207],[-74.041312,40.745207]]],[[[-74.040584,40.746082],[-74.040548,40.746055],[-74.040584,40.746055],[-74.040584,40.746082]]],[[[-74.039969,40.746266],[-74.039969,40.7463],[-74.039943,40.7463],[-74.039969,40.746266]]],[[[-74.039933,40.746314],[-74.039932,40.746354],[-74.039902,40.746354],[-74.039933,40.746314]]],[[[-74.040184,40.746493],[-74.040148,40.746465],[-74.040184,40.746465],[-74.040184,40.746493]]],[[[-74.040111,40.746547],[-74.040148,40.74652],[-74.040147,40.746547],[-74.040111,40.746547]]],[[[-74.040075,40.746547],[-74.040111,40.746575],[-74.040075,40.746575],[-74.040075,40.746547]]],[[[-74.038514,40.748819],[-74.038544,40.748765],[-74.038544,40.748819],[-74.038514,40.748819]]],[[[-74.038687,40.748957],[-74.038723,40.74893],[-74.038723,40.748957],[-74.038687,40.748957]]],[[[-74.038541,40.749259],[-74.038577,40.749231],[-74.038577,40.749259],[-74.038541,40.749259]]],[[[-74.038211,40.749943],[-74.038247,40.749916],[-74.038247,40.749944],[-74.038211,40.749943]]],[[[-74.038065,40.75019],[-74.038101,40.750163],[-74.038101,40.75019],[-74.038065,40.75019]]],[[[-74.037992,40.750272],[-74.038028,40.7503],[-74.037992,40.750299],[-74.037992,40.750272]]],[[[-74.037883,40.750354],[-74.03792,40.750327],[-74.037919,40.750354],[-74.037883,40.750354]]]]}}]}