{"type":"FeatureCollection","features":[{"type":"Feature","properties":{"level_ft":1},"geometry":{"type":"MultiPolygon","coordinates":[[[[-74.07358,40.672697],[-74.075478,40.673473],[-74.076017,40.673773],[-74.07358,40.672697]]],[[[-74.076089,40.673777],[-74.076089,40.673802],[-74.076027,40.673777],[-74.076089,40.673777]]],[[[-74.076161,40.673805],[-74.07616,40.673831],[-74.076095,40.673805],[-74.076161,40.673805]]],[[[-74.076163,40.673832],[-74.07652,40.673944],[-74.076556,40.673993],[-74.076163,40.673832]]],[[[-74.076628,40.674023],[-74.076569,40.673999],[-74.076628,40.673999],[-74.076628,40.674023]]],[[[-74.0767,40.674053],[-74.076635,40.674026],[-74.0767,40.674027],[-74.0767,40.674053]]],[[[-74.076736,40.674054],[-74.076736,40.674068],[-74.076702,40.674054],[-74.076736,40.674054]]],[[[-74.076779,40.674086],[-74.076808,40.674082],[-74.076808,40.674097],[-74.076779,40.674086]]],[[[-74.07688,40.67411],[-74.07688,40.674126],[-74.076838,40.674109],[-74.07688,40.67411]]],[[[-74.076952,40.674154],[-74.076908,40.674137],[-74.076952,40.674137],[-74.076952,40.674154]]],[[[-74.077024,40.67418],[-74.07698,40.674165],[-74.077024,40.674165],[-74.077024,40.67418]]],[[[-74.077059,40.674193],[-74.077059,40.674193],[-74.077058,40.674193],[-74.077059,40.674193]]],[[[-74.077347,40.674303],[-74.077347,40.674307],[-74.077339,40.674303],[-74.077347,40.674303]]],[[[-74.077419,40.674331],[-74.077419,40.674342],[-74.077397,40.674331],[-74.077419,40.674331]]],[[[-74.077455,40.674359],[-74.077454,40.674359],[-74.077455,40.674359],[-74.077455,40.674359]]],[[[-74.077527,40.674394],[-74.077511,40.674386],[-74.077527,40.674386],[-74.077527,40.674394]]],[[[-74.077671,40.674442],[-74.077671,40.674464],[-74.077625,40.674442],[-74.077671,40.674442]]],[[[-74.077707,40.674481],[-74.077682,40.674469],[-74.077707,40.674469],[-74.077707,40.674481]]],[[[-74.077739,40.674497],[-74.080978,40.676019],[-74.081767,40.676653],[-74.081512,40.677119],[-74.080969,40.677446],[-74.077231,40.675648],[-74.076177,40.676852],[-74.075924,40.676961],[-74.072977,40.67544],[-74.072758,40.675851],[-74.075669,40.677372],[-74.074615,40.678768],[-74.074321,40.678904],[-74.074828,40.678352],[-74.072516,40.677158],[-74.072659,40.676993],[-74.075007,40.678078],[-74.075638,40.677398],[-74.072611,40.675807],[-74.073022,40.675347],[-74.07579,40.676812],[-74.076735,40.676002],[-74.075979,40.67691],[-74.077223,40.675599],[-74.080985,40.677371],[-74.081247,40.67713],[-74.081321,40.676523],[-74.080935,40.676073],[-74.077739,40.674497]]],[[[-74.074253,40.678982],[-74.074216,40.679068],[-74.074177,40.679068],[-74.074253,40.678982]]],[[[-74.073987,40.679287],[-74.073999,40.679273],[-74.073999,40.679287],[-74.073987,40.679287]]],[[[-74.073926,40.679369],[-74.07392,40.679369],[-74.073926,40.679362],[-74.073926,40.679369]]],[[[-74.073882,40.679416],[-74.073889,40.679424],[-74.073875,40.679424],[-74.073882,40.679416]]],[[[-74.07383,40.679479],[-74.073853,40.67945],[-74.073853,40.679479],[-74.07383,40.679479]]],[[[-74.073744,40.679616],[-74.076615,40.681712],[-74.078918,40.682489],[-74.078053,40.682431],[-74.076902,40.681988],[-74.07367,40.679862],[-74.071833,40.679691],[-74.071831,40.679856],[-74.070817,40.680648],[-74.071975,40.679911],[-74.073524,40.680191],[-74.077295,40.682593],[-74.077039,40.683086],[-74.073556,40.68085],[-74.073805,40.6814],[-74.073229,40.681288],[-74.072216,40.681696],[-74.071534,40.681227],[-74.071207,40.681692],[-74.072357,40.682328],[-74.07433,40.683845],[-74.074727,40.683847],[-74.07566,40.684481],[-74.07645,40.685061],[-74.077095,40.685749],[-74.077563,40.685778],[-74.077633,40.686108],[-74.080326,40.687957],[-74.080216,40.688204],[-74.079745,40.688614],[-74.079888,40.688887],[-74.079582,40.688726],[-74.080285,40.687995],[-74.076469,40.68537],[-74.07463,40.683866],[-74.074457,40.683971],[-74.071101,40.681665],[-74.070662,40.680639],[-74.071797,40.679744],[-74.070641,40.679209],[-74.072032,40.679656],[-74.073664,40.67982],[-74.073744,40.679616]]],[[[-74.074702,40.687799],[-74.074702,40.687789],[-74.074704,40.687799],[-74.074702,40.687799]]],[[[-74.074809,40.687911],[-74.075758,40.68829],[-74.075906,40.688665],[-74.078013,40.688601],[-74.078129,40.68869],[-74.07603,40.688737],[-74.075814,40.688682],[-74.075708,40.688352],[-74.075239,40.688295],[-74.074809,40.687911]]],[[[-74.078193,40.68891],[-74.080068,40.688917],[-74.079922,40.689081],[-74.078624,40.689159],[-74.078193,40.68891]]],[[[-74.078616,40.690449],[-74.079195,40.690122],[-74.079052,40.689929],[-74.078042,40.689843],[-74.07754,40.689484],[-74.078767,40.689351],[-74.078873,40.689626],[-74.080027,40.689658],[-74.079408,40.690616],[-74.078758,40.690751],[-74.078616,40.690449]]],[[[-74.101313,40.712325],[-74.099767,40.711386],[-74.099732,40.711249],[-74.100562,40.711279],[-74.101676,40.711887],[-74.101313,40.712325]]],[[[-74.096998,40.72189],[-74.096749,40.72145],[-74.097079,40.72049],[-74.098717,40.718135],[-74.10153,40.718228],[-74.101137,40.717595],[-74.101606,40.717679],[-74.102076,40.717433],[-74.106352,40.714291],[-74.103405,40.712415],[-74.103948,40.712005],[-74.106363,40.712342],[-74.107376,40.711907],[-74.107235,40.711275],[-74.107713,40.709794],[-74.106452,40.70946],[-74.106382,40.70924],[-74.106305,40.703915],[-74.102004,40.705245],[-74.104355,40.704293],[-74.103999,40.703523],[-74.10346,40.703109],[-74.102668,40.702832],[-74.101946,40.702912],[-74.101767,40.702691],[-74.105073,40.698777],[-74.105869,40.698286],[-74.107492,40.698209],[-74.107855,40.697859],[-74.114232,40.700952],[-74.114309,40.704609],[-74.116408,40.709735],[-74.113869,40.712314],[-74.110167,40.715375],[-74.10747,40.717075],[-74.102976,40.71933],[-74.10177,40.720231],[-74.100089,40.722867],[-74.099011,40.727277],[-74.096826,40.726556],[-74.096792,40.726254],[-74.096108,40.72595],[-74.096363,40.725594],[-74.09575,40.725564],[-74.092622,40.723686],[-74.093234,40.723826],[-74.095931,40.725455],[-74.096472,40.725374],[-74.096301,40.723837],[-74.096664,40.723426],[-74.096704,40.722822],[-74.097141,40.722193],[-74.097288,40.721754],[-74.096998,40.72189]],[[-74.097288,40.721754],[-74.097324,40.721699],[-74.097288,40.721699],[-74.097288,40.721754]]],[[[-74.085211,40.725966],[-74.084962,40.725361],[-74.084386,40.725194],[-74.08421,40.724535],[-74.083489,40.724477],[-74.083491,40.724093],[-74.085042,40.724181],[-74.085611,40.725446],[-74.086477,40.725559],[-74.085895,40.726188],[-74.085211,40.725966]]],[[[-74.088271,40.727185],[-74.08911,40.725568],[-74.089543,40.725597],[-74.089649,40.725982],[-74.089107,40.72609],[-74.089034,40.726309],[-74.089713,40.727272],[-74.088628,40.72768],[-74.088271,40.727185]]],[[[-74.095303,40.735005],[-74.091757,40.735295],[-74.093676,40.734231],[-74.094228,40.732504],[-74.094735,40.732176],[-74.094522,40.731599],[-74.094993,40.731244],[-74.09424,40.73061],[-74.093626,40.73058],[-74.093523,40.729701],[-74.092875,40.729452],[-74.09241,40.728901],[-74.091075,40.728759],[-74.092088,40.728379],[-74.092417,40.727639],[-74.092201,40.72761],[-74.09198,40.728378],[-74.090824,40.728566],[-74.090353,40.728949],[-74.090633,40.730322],[-74.088686,40.730013],[-74.088653,40.729492],[-74.089771,40.729715],[-74.089557,40.729248],[-74.088763,40.7293],[-74.088912,40.72845],[-74.089675,40.727684],[-74.090326,40.727412],[-74.092744,40.727255],[-74.093356,40.727505],[-74.094727,40.727537],[-74.095524,40.727128],[-74.096498,40.727104],[-74.096645,40.726693],[-74.098949,40.727524],[-74.098495,40.729323],[-74.09737,40.731748],[-74.095303,40.735005]]],[[[-74.091649,40.735322],[-74.091578,40.735157],[-74.091686,40.735157],[-74.091649,40.735322]]],[[[-74.085508,40.736288],[-74.081333,40.734571],[-74.081333,40.734461],[-74.083531,40.735101],[-74.085042,40.73582],[-74.085508,40.736288]]],[[[-74.083751,40.740262],[-74.081446,40.739568],[-74.081809,40.739157],[-74.082385,40.739406],[-74.084011,40.73911],[-74.087916,40.737834],[-74.085866,40.736811],[-74.085579,40.736426],[-74.088531,40.737562],[-74.091465,40.73587],[-74.091646,40.735734],[-74.091467,40.735458],[-74.095174,40.73517],[-74.093398,40.737015],[-74.090175,40.738579],[-74.083751,40.740262]]],[[[-74.082305,40.74067],[-74.08083,40.73984],[-74.080832,40.739565],[-74.083641,40.740344],[-74.082305,40.74067]]],[[[-74.081865,40.740777],[-74.077094,40.743148],[-74.075831,40.742841],[-74.075797,40.742566],[-74.07634,40.742239],[-74.076737,40.742268],[-74.076811,40.741911],[-74.077861,40.741366],[-74.07779,40.741174],[-74.078766,40.740958],[-74.0796,40.740384],[-74.078844,40.740025],[-74.079565,40.740165],[-74.080433,40.739948],[-74.081865,40.740777]]],[[[-74.077145,40.749931],[-74.078852,40.750223],[-74.07768,40.751787],[-74.076995,40.752271],[-74.075698,40.752338],[-74.075917,40.75201],[-74.076242,40.752066],[-74.076639,40.751957],[-74.075268,40.75187],[-74.073433,40.75093],[-74.073368,40.749914],[-74.073657,40.74986],[-74.073868,40.750767],[-74.075486,40.751624],[-74.076749,40.751683],[-74.074416,40.749589],[-74.074383,40.749177],[-74.07381,40.748543],[-74.073679,40.746402],[-74.074004,40.74632],[-74.074045,40.745607],[-74.074409,40.745059],[-74.07423,40.744839],[-74.074778,40.743798],[-74.075176,40.743635],[-74.075252,40.743141],[-74.075758,40.743005],[-74.076947,40.743257],[-74.075151,40.745534],[-74.074869,40.746946],[-74.075017,40.747986],[-74.075707,40.748974],[-74.077145,40.749931]]],[[[-74.075379,40.751431],[-74.074588,40.750962],[-74.074772,40.750441],[-74.075097,40.750415],[-74.075131,40.750689],[-74.075457,40.750635],[-74.076497,40.7516],[-74.075379,40.751431]]],[[[-74.075114,40.753489],[-74.074975,40.75261],[-74.075589,40.752448],[-74.075228,40.752584],[-74.075218,40.753084],[-74.076523,40.754816],[-74.0763,40.755143],[-74.075215,40.755339],[-74.074894,40.75562],[-74.075146,40.757157],[-74.07465,40.758294],[-74.074762,40.757605],[-74.074472,40.757934],[-74.074045,40.756971],[-74.074334,40.756862],[-74.074263,40.756615],[-74.073978,40.756147],[-74.07358,40.756228],[-74.073293,40.75587],[-74.072652,40.75455],[-74.073519,40.754416],[-74.073522,40.754005],[-74.074281,40.75387],[-74.073992,40.753842],[-74.073958,40.753595],[-74.074357,40.753267],[-74.074395,40.752882],[-74.074793,40.752802],[-74.075114,40.753489]],[[-74.074762,40.757605],[-74.074835,40.757496],[-74.074763,40.757495],[-74.074762,40.757605]],[[-74.074139,40.753485],[-74.074175,40.753458],[-74.074139,40.753458],[-74.074139,40.753485]],[[-74.075114,40.753489],[-74.075149,40.753517],[-74.07515,40.753489],[-74.075114,40.753489]]],[[[-74.074144,40.758317],[-74.074108,40.758289],[-74.074144,40.758289],[-74.074144,40.758317]]],[[[-74.073964,40.758343],[-74.073999,40.758371],[-74.073963,40.758371],[-74.073964,40.758343]]],[[[-74.074035,40.758426],[-74.074396,40.7584],[-74.073962,40.758508],[-74.074035,40.758426]]],[[[-74.069653,40.671036],[-74.069653,40.671042],[-74.06964,40.671036],[-74.069653,40.671036]]],[[[-74.069724,40.671077],[-74.069696,40.671063],[-74.069725,40.671064],[-74.069724,40.671077]]],[[[-74.069796,40.671112],[-74.069753,40.671091],[-74.069797,40.671091],[-74.069796,40.671112]]],[[[-74.069832,40.67113],[-74.06981,40.671119],[-74.069832,40.671119],[-74.069832,40.67113]]],[[[-74.069867,40.671146],[-74.069904,40.671147],[-74.069904,40.671165],[-74.069867,40.671146]]],[[[-74.069976,40.671199],[-74.069924,40.671174],[-74.069976,40.671174],[-74.069976,40.671199]]],[[[-74.070012,40.671202],[-74.070012,40.671217],[-74.069981,40.671202],[-74.070012,40.671202]]],[[[-74.070041,40.671231],[-74.070084,40.67123],[-74.070084,40.671251],[-74.070041,40.671231]]],[[[-74.070097,40.671257],[-74.072421,40.672172],[-74.072996,40.672474],[-74.071237,40.671833],[-74.070097,40.671257]]],[[[-74.07332,40.672584],[-74.073003,40.672476],[-74.073104,40.672476],[-74.07332,40.672584]]],[[[-74.073392,40.672587],[-74.073392,40.672612],[-74.073329,40.672587],[-74.073392,40.672587]]],[[[-74.073428,40.672615],[-74.073428,40.672629],[-74.073397,40.672614],[-74.073428,40.672615]]],[[[-74.0735,40.672661],[-74.073458,40.672642],[-74.0735,40.672642],[-74.0735,40.672661]]],[[[-74.073572,40.672694],[-74.073519,40.67267],[-74.073572,40.67267],[-74.073572,40.672694]]],[[[-74.07381,40.679503],[-74.073817,40.679494],[-74.073817,40.679506],[-74.07381,40.679503]]],[[[-74.074698,40.687772],[-74.074233,40.687715],[-74.074377,40.68788],[-74.073362,40.6887],[-74.072099,40.688833],[-74.069841,40.686573],[-74.070177,40.690473],[-74.069593,40.691568],[-74.0675,40.693263],[-74.068929,40.691697],[-74.069664,40.690114],[-74.069948,40.687888],[-74.069624,40.685822],[-74.07021,40.684684],[-74.069889,40.68445],[-74.070537,40.68395],[-74.073359,40.686049],[-74.073182,40.686206],[-74.07343,40.686729],[-74.074685,40.687589],[-74.074698,40.687772]]],[[[-74.070559,40.694454],[-74.070581,40.694436],[-74.070584,40.694431],[-74.070559,40.694454]]],[[[-74.070548,40.694461],[-74.07022,40.69503],[-74.070147,40.695057],[-74.070147,40.695112],[-74.070078,40.695139],[-74.070359,40.694629],[-74.070548,40.694461]]],[[[-74.070075,40.695141],[-74.069718,40.695522],[-74.069891,40.695278],[-74.069941,40.695235],[-74.070042,40.695161],[-74.070075,40.695141]]],[[[-74.069681,40.695577],[-74.069711,40.695532],[-74.069711,40.695577],[-74.069681,40.695577]]],[[[-74.069644,40.695631],[-74.069675,40.695586],[-74.069675,40.695631],[-74.069644,40.695631]]],[[[-74.06961,40.695686],[-74.069639,40.695639],[-74.069638,40.695686],[-74.06961,40.695686]]],[[[-74.069602,40.695713],[-74.069599,40.695703],[-74.069602,40.695698],[-74.069602,40.695713]]],[[[-74.069566,40.695768],[-74.069532,40.695768],[-74.069566,40.695741],[-74.069566,40.695768]]],[[[-74.0695,40.695795],[-74.06953,40.69577],[-74.069529,40.695796],[-74.0695,40.695795]]],[[[-74.069493,40.695801],[-74.069493,40.695823],[-74.069472,40.695823],[-74.069493,40.695801]]],[[[-74.069457,40.695838],[-74.069457,40.695878],[-74.069391,40.695905],[-74.069457,40.695838]]],[[[-74.069384,40.695932],[-74.069364,40.695932],[-74.069384,40.695912],[-74.069384,40.695932]]],[[[-74.069337,40.69596],[-74.069348,40.695948],[-74.069348,40.69596],[-74.069337,40.69596]]],[[[-74.069312,40.696014],[-74.069283,40.696014],[-74.069312,40.695985],[-74.069312,40.696014]]],[[[-74.069275,40.696042],[-74.069256,40.696042],[-74.069276,40.696022],[-74.069275,40.696042]]],[[[-74.069229,40.696069],[-74.069239,40.696059],[-74.069239,40.696069],[-74.069229,40.696069]]],[[[-74.069202,40.696096],[-74.069203,40.696095],[-74.069203,40.696096],[-74.069202,40.696096]]],[[[-74.06913,40.696178],[-74.069104,40.696178],[-74.06913,40.696159],[-74.06913,40.696178]]],[[[-74.069094,40.696206],[-74.069068,40.696206],[-74.069094,40.696186],[-74.069094,40.696206]]],[[[-74.069058,40.696213],[-74.069058,40.696233],[-74.069031,40.696233],[-74.069058,40.696213]]],[[[-74.068831,40.709106],[-74.069304,40.708367],[-74.069629,40.708423],[-74.069847,40.708149],[-74.070026,40.708342],[-74.070424,40.708124],[-74.070928,40.708263],[-74.070564,40.708756],[-74.070133,40.708535],[-74.069878,40.708836],[-74.069229,40.708861],[-74.069046,40.709327],[-74.068648,40.709408],[-74.068505,40.709187],[-74.068831,40.709106]]],[[[-74.073603,40.758232],[-74.071708,40.755453],[-74.071353,40.754436],[-74.071858,40.754548],[-74.072148,40.754356],[-74.072327,40.754604],[-74.073394,40.757024],[-74.074218,40.758097],[-74.074072,40.758261],[-74.074108,40.758344],[-74.073603,40.758232]]],[[[-74.072527,40.759049],[-74.072183,40.760144],[-74.070982,40.756081],[-74.07145,40.756193],[-74.071484,40.756523],[-74.073456,40.758726],[-74.072527,40.759049]]],[[[-74.070372,40.761102],[-74.07146,40.760365],[-74.07193,40.760202],[-74.070372,40.761102]]],[[[-74.0681,40.760682],[-74.068137,40.760655],[-74.068136,40.760682],[-74.0681,40.760682]]],[[[-74.068171,40.760847],[-74.068208,40.760793],[-74.068208,40.760847],[-74.068171,40.760847]]],[[[-74.068207,40.76093],[-74.068243,40.760875],[-74.068243,40.76093],[-74.068207,40.76093]]],[[[-74.068165,40.761918],[-74.068201,40.76189],[-74.068201,40.761918],[-74.068165,40.761918]]],[[[-74.068345,40.761918],[-74.068273,40.761946],[-74.068273,40.761918],[-74.068345,40.761918]]],[[[-74.065716,40.66704],[-74.065018,40.668603],[-74.065122,40.669152],[-74.067817,40.670507],[-74.069077,40.670864],[-74.068149,40.670712],[-74.064865,40.669133],[-74.065154,40.667885],[-74.065716,40.66704]]],[[[-74.067475,40.69329],[-74.06749,40.693273],[-74.06749,40.69329],[-74.067475,40.69329]]],[[[-74.067454,40.693317],[-74.067449,40.693317],[-74.067454,40.693313],[-74.067454,40.693317]]],[[[-74.067422,40.695554],[-74.067252,40.695502],[-74.066721,40.695209],[-74.067188,40.695403],[-74.066254,40.694768],[-74.066256,40.694493],[-74.066725,40.694467],[-74.066799,40.694166],[-74.067197,40.69403],[-74.067911,40.695103],[-74.068488,40.695051],[-74.069177,40.694586],[-74.069073,40.693872],[-74.069616,40.6936],[-74.07012,40.693712],[-74.069868,40.693601],[-74.069979,40.693162],[-74.070629,40.693082],[-74.070879,40.693467],[-74.070516,40.693878],[-74.070695,40.693988],[-74.07062,40.6944],[-74.070378,40.693824],[-74.06982,40.693912],[-74.069593,40.694095],[-74.069813,40.694365],[-74.069268,40.695048],[-74.0678,40.695391],[-74.067688,40.695217],[-74.067422,40.695554]],[[-74.06726,40.695403],[-74.067223,40.695458],[-74.067296,40.695458],[-74.06726,40.695403]],[[-74.067296,40.695458],[-74.067404,40.695486],[-74.067404,40.695458],[-74.067296,40.695458]],[[-74.067476,40.695431],[-74.06744,40.695458],[-74.067476,40.695459],[-74.067476,40.695431]]],[[[-74.05851,40.693311],[-74.058149,40.69331],[-74.057431,40.692868],[-74.057653,40.691935],[-74.054957,40.690689],[-74.054191,40.691949],[-74.054818,40.690657],[-74.05494,40.69064],[-74.055911,40.691059],[-74.057814,40.691965],[-74.057479,40.69281],[-74.058322,40.693287],[-74.058756,40.692501],[-74.058952,40.692563],[-74.058686,40.693452],[-74.059387,40.693881],[-74.059784,40.693079],[-74.059994,40.693121],[-74.0597,40.694059],[-74.060237,40.694409],[-74.060745,40.693614],[-74.06137,40.693886],[-74.06103,40.695033],[-74.064731,40.697091],[-74.06515,40.697088],[-74.06524,40.697678],[-74.066002,40.698116],[-74.065153,40.697701],[-74.065049,40.697124],[-74.06476,40.697178],[-74.063753,40.696735],[-74.060914,40.695104],[-74.061173,40.694227],[-74.060995,40.693787],[-74.060743,40.693786],[-74.06045,40.694416],[-74.060197,40.69447],[-74.059587,40.694084],[-74.059771,40.693508],[-74.059516,40.693919],[-74.059299,40.693918],[-74.058581,40.693503],[-74.058655,40.693202],[-74.05851,40.693311]],[[-74.058655,40.693202],[-74.058691,40.693174],[-74.058655,40.693174],[-74.058655,40.693202]]],[[[-74.06593,40.694712],[-74.06593,40.694726],[-74.065911,40.694711],[-74.06593,40.694712]]],[[[-74.06611,40.694795],[-74.066684,40.695187],[-74.065992,40.694767],[-74.06611,40.694795]]],[[[-74.067548,40.695416],[-74.067548,40.695404],[-74.06756,40.695404],[-74.067548,40.695416]]],[[[-74.068995,40.69626],[-74.069022,40.69624],[-74.069022,40.69626],[-74.068995,40.69626]]],[[[-74.068959,40.696288],[-74.068985,40.696267],[-74.068985,40.696288],[-74.068959,40.696288]]],[[[-74.068949,40.696295],[-74.068949,40.696315],[-74.068922,40.696315],[-74.068949,40.696295]]],[[[-74.068913,40.696322],[-74.068913,40.696342],[-74.068886,40.696342],[-74.068913,40.696322]]],[[[-74.068877,40.69637],[-74.068849,40.696369],[-74.068877,40.696349],[-74.068877,40.69637]]],[[[-74.06884,40.696424],[-74.068442,40.696725],[-74.06884,40.696376],[-74.06884,40.696424]]],[[[-74.068441,40.696752],[-74.068409,40.696752],[-74.068441,40.696725],[-74.068441,40.696752]]],[[[-74.068405,40.696755],[-74.068405,40.69678],[-74.068376,40.696779],[-74.068405,40.696755]]],[[[-74.068369,40.696807],[-74.068343,40.696807],[-74.068369,40.696785],[-74.068369,40.696807]]],[[[-74.068323,40.696823],[-74.068333,40.696834],[-74.068306,40.696834],[-74.068323,40.696823]]],[[[-74.067972,40.69686],[-74.067791,40.69686],[-74.067037,40.696418],[-74.066601,40.696855],[-74.06616,40.698089],[-74.066124,40.698144],[-74.066016,40.698143],[-74.066563,40.696832],[-74.067029,40.696369],[-74.067972,40.69686]]],[[[-74.058209,40.706156],[-74.059331,40.705557],[-74.059726,40.705833],[-74.059579,40.706162],[-74.058638,40.706625],[-74.058209,40.706156]]],[[[-74.05767,40.754769],[-74.060032,40.752444],[-74.060249,40.752418],[-74.059447,40.753513],[-74.058796,40.753757],[-74.05767,40.754769]]],[[[-74.05767,40.754769],[-74.057234,40.755288],[-74.057016,40.755397],[-74.05767,40.754769]]],[[[-74.064948,40.756882],[-74.064017,40.755753],[-74.063451,40.754022],[-74.064273,40.755178],[-74.064948,40.756882]]],[[[-74.056979,40.755534],[-74.056762,40.755643],[-74.057016,40.755397],[-74.056979,40.755534]]],[[[-74.056762,40.755726],[-74.056544,40.755807],[-74.056762,40.755643],[-74.056762,40.755726]]],[[[-74.056471,40.756027],[-74.056435,40.755917],[-74.056544,40.755862],[-74.056471,40.756027]]],[[[-74.056254,40.756108],[-74.056325,40.756191],[-74.056217,40.75619],[-74.056254,40.756108]]],[[[-74.056144,40.756272],[-74.056071,40.756354],[-74.056108,40.756272],[-74.056144,40.756272]]],[[[-74.056071,40.756354],[-74.055271,40.757312],[-74.055126,40.757366],[-74.056071,40.756354]]],[[[-74.055382,40.756928],[-74.055418,40.756956],[-74.055382,40.756956],[-74.055382,40.756928]]],[[[-74.054981,40.757531],[-74.055017,40.757421],[-74.055126,40.757366],[-74.054981,40.757531]]],[[[-74.05498,40.757613],[-74.0548,40.757585],[-74.054981,40.757531],[-74.05498,40.757613]]],[[[-74.054763,40.757694],[-74.054799,40.757722],[-74.054763,40.757722],[-74.054763,40.757694]]],[[[-74.054799,40.757722],[-74.054835,40.75775],[-74.054799,40.75775],[-74.054799,40.757722]]],[[[-74.054727,40.757722],[-74.054798,40.757804],[-74.054762,40.757804],[-74.054727,40.757722]]],[[[-74.054581,40.757913],[-74.054618,40.757831],[-74.054726,40.757777],[-74.054689,40.757941],[-74.054581,40.757913]],[[-74.054689,40.757886],[-74.054654,40.757859],[-74.054653,40.757886],[-74.054689,40.757886]]],[[[-74.067458,40.759582],[-74.067421,40.759609],[-74.067422,40.759582],[-74.067458,40.759582]]],[[[-74.067601,40.759775],[-74.067637,40.759692],[-74.067637,40.759775],[-74.067601,40.759775]]],[[[-74.067673,40.759802],[-74.067637,40.75983],[-74.067637,40.759802],[-74.067673,40.759802]]],[[[-74.067673,40.75983],[-74.067709,40.759857],[-74.067672,40.759857],[-74.067673,40.75983]]],[[[-74.067744,40.759912],[-74.067708,40.759967],[-74.067708,40.759912],[-74.067744,40.759912]]],[[[-74.067744,40.759967],[-74.06778,40.760022],[-74.067744,40.760022],[-74.067744,40.759967]]],[[[-74.068345,40.761973],[-74.06867,40.76194],[-74.068055,40.762164],[-74.066201,40.758534],[-74.067419,40.759939],[-74.067494,40.759609],[-74.067707,40.760049],[-74.067887,40.76016],[-74.067958,40.760297],[-74.067922,40.760407],[-74.06803,40.760435],[-74.067993,40.760545],[-74.068171,40.760957],[-74.068279,40.760957],[-74.068351,40.761068],[-74.068528,40.76159],[-74.06849,40.761864],[-74.068201,40.761836],[-74.068129,40.76189],[-74.068128,40.761973],[-74.068345,40.761973]],[[-74.068057,40.761862],[-74.068093,40.761835],[-74.068057,40.761835],[-74.068057,40.761862]],[[-74.067949,40.76178],[-74.068057,40.761725],[-74.067985,40.761698],[-74.067949,40.76178]],[[-74.067807,40.761422],[-74.067843,40.761395],[-74.067807,40.761395],[-74.067807,40.761422]],[[-74.067455,40.759939],[-74.067491,40.759994],[-74.067491,40.759939],[-74.067455,40.759939]],[[-74.067922,40.760297],[-74.067886,40.760325],[-74.067922,40.760325],[-74.067922,40.760297]],[[-74.068279,40.761012],[-74.068242,40.76104],[-74.068278,40.76104],[-74.068279,40.761012]],[[-74.0682,40.762],[-74.068236,40.762028],[-74.068236,40.762],[-74.0682,40.762]]],[[[-74.067958,40.760352],[-74.067994,40.76038],[-74.067958,40.76038],[-74.067958,40.760352]]],[[[-74.06515,40.763657],[-74.064545,40.763828],[-74.063897,40.763709],[-74.062501,40.762673],[-74.061626,40.762382],[-74.060022,40.76255],[-74.060002,40.76341],[-74.05963,40.764001],[-74.059993,40.765701],[-74.058474,40.766757],[-74.056963,40.76893],[-74.054608,40.764694],[-74.054825,40.764694],[-74.056466,40.767528],[-74.056646,40.767666],[-74.057261,40.767476],[-74.059185,40.765919],[-74.058293,40.764378],[-74.058841,40.763337],[-74.057725,40.762784],[-74.057979,40.762675],[-74.059131,40.763091],[-74.06255,40.759289],[-74.060102,40.758209],[-74.059517,40.759387],[-74.058756,40.759878],[-74.057045,40.762013],[-74.056828,40.762067],[-74.056901,40.761848],[-74.056542,40.761627],[-74.056215,40.761927],[-74.056431,40.762065],[-74.056249,40.762284],[-74.055998,40.761981],[-74.057016,40.760887],[-74.057559,40.760697],[-74.058578,40.759384],[-74.058948,40.758095],[-74.059275,40.757794],[-74.059673,40.757576],[-74.064982,40.757184],[-74.064947,40.756992],[-74.065272,40.757103],[-74.065841,40.758313],[-74.065447,40.757955],[-74.062701,40.758219],[-74.06252,40.75841],[-74.063161,40.759648],[-74.06218,40.760605],[-74.063261,40.760911],[-74.063584,40.761297],[-74.065707,40.762293],[-74.067296,40.762189],[-74.067622,40.762053],[-74.06748,40.761723],[-74.067696,40.761724],[-74.067946,40.762207],[-74.06629,40.762818],[-74.06515,40.763657]]],[[[-74.054155,40.692004],[-74.05413,40.692004],[-74.054155,40.691963],[-74.054155,40.692004]]],[[[-74.054118,40.692024],[-74.054118,40.692086],[-74.054049,40.692141],[-74.054118,40.692024]]],[[[-74.054045,40.692196],[-74.054016,40.692196],[-74.054046,40.692146],[-74.054045,40.692196]]],[[[-74.053984,40.69225],[-74.054009,40.692207],[-74.054009,40.69225],[-74.053984,40.69225]]],[[[-74.053973,40.692269],[-74.053936,40.692333],[-74.053902,40.692387],[-74.053973,40.692269]]],[[[-74.053899,40.692442],[-74.053869,40.692442],[-74.0539,40.692391],[-74.053899,40.692442]]],[[[-74.053863,40.692452],[-74.053863,40.692497],[-74.053835,40.692497],[-74.053863,40.692452]]],[[[-74.053826,40.692552],[-74.0538,40.692552],[-74.053827,40.69251],[-74.053826,40.692552]]],[[[-74.05379,40.692606],[-74.053766,40.692606],[-74.05379,40.692568],[-74.05379,40.692606]]],[[[-74.053754,40.692625],[-74.053754,40.692661],[-74.053731,40.692661],[-74.053754,40.692625]]],[[[-74.053717,40.692716],[-74.053697,40.692716],[-74.053717,40.692683],[-74.053717,40.692716]]],[[[-74.053681,40.692798],[-74.053645,40.692798],[-74.053681,40.692741],[-74.053681,40.692798]]],[[[-74.05361,40.692853],[-74.053644,40.692799],[-74.053644,40.692853],[-74.05361,40.692853]]],[[[-74.053576,40.692908],[-74.053608,40.692856],[-74.053608,40.692908],[-74.053576,40.692908]]],[[[-74.053572,40.692914],[-74.053571,40.692962],[-74.053541,40.692962],[-74.053572,40.692914]]],[[[-74.053535,40.693017],[-74.053506,40.693017],[-74.053535,40.692972],[-74.053535,40.693017]]],[[[-74.053483,40.693055],[-74.053499,40.693029],[-74.053498,40.693072],[-74.053483,40.693055]]],[[[-74.053462,40.693087],[-74.053462,40.693127],[-74.053437,40.693127],[-74.053462,40.693087]]],[[[-74.053401,40.693181],[-74.053426,40.693143],[-74.053426,40.693182],[-74.053401,40.693181]]],[[[-74.053366,40.693236],[-74.053389,40.6932],[-74.053389,40.693236],[-74.053366,40.693236]]],[[[-74.053353,40.693291],[-74.053331,40.693291],[-74.053353,40.693257],[-74.053353,40.693291]]],[[[-74.053316,40.693346],[-74.053296,40.693346],[-74.053316,40.693314],[-74.053316,40.693346]]],[[[-74.05328,40.693371],[-74.05328,40.693428],[-74.053226,40.693455],[-74.05328,40.693371]]],[[[-74.053207,40.693538],[-74.053173,40.693537],[-74.053207,40.693484],[-74.053207,40.693538]]],[[[-74.05317,40.693592],[-74.053138,40.693592],[-74.053171,40.693541],[-74.05317,40.693592]]],[[[-74.053132,40.693602],[-74.053134,40.69362],[-74.053119,40.69362],[-74.053132,40.693602]]],[[[-74.053098,40.693674],[-74.053082,40.693674],[-74.053098,40.693651],[-74.053098,40.693674]]],[[[-74.053061,40.693757],[-74.053026,40.693756],[-74.053061,40.693704],[-74.053061,40.693757]]],[[[-74.053025,40.693811],[-74.052969,40.693839],[-74.053025,40.693757],[-74.053025,40.693811]]],[[[-74.052952,40.693864],[-74.052916,40.693921],[-74.052857,40.694003],[-74.052952,40.693864]]],[[[-74.052843,40.694023],[-74.052843,40.694058],[-74.052819,40.694058],[-74.052843,40.694023]]],[[[-74.052806,40.694077],[-74.052806,40.694112],[-74.052782,40.694112],[-74.052806,40.694077]]],[[[-74.05277,40.694167],[-74.052744,40.694167],[-74.05277,40.69413],[-74.05277,40.694167]]],[[[-74.052707,40.694222],[-74.052734,40.694183],[-74.052733,40.694222],[-74.052707,40.694222]]],[[[-74.052683,40.694257],[-74.052697,40.694236],[-74.052697,40.694277],[-74.052683,40.694257]]],[[[-74.052661,40.694288],[-74.052661,40.694331],[-74.05263,40.694331],[-74.052661,40.694288]]],[[[-74.052624,40.694339],[-74.052624,40.694386],[-74.052591,40.694386],[-74.052624,40.694339]]],[[[-74.052588,40.69439],[-74.052588,40.694441],[-74.052552,40.694441],[-74.052588,40.69439]]],[[[-74.052551,40.694496],[-74.052493,40.694523],[-74.052552,40.694441],[-74.052551,40.694496]]],[[[-74.052059,40.698035],[-74.052061,40.697651],[-74.052387,40.697487],[-74.051992,40.697266],[-74.052137,40.697157],[-74.053755,40.697849],[-74.053897,40.698179],[-74.053644,40.698288],[-74.053602,40.699139],[-74.053133,40.699137],[-74.052059,40.698035]],[[-74.052418,40.698201],[-74.052454,40.698174],[-74.052418,40.698174],[-74.052418,40.698201]]],[[[-74.05469,40.757749],[-74.054654,40.757776],[-74.054654,40.757749],[-74.05469,40.757749]]],[[[-74.054399,40.758077],[-74.054617,40.757968],[-74.05458,40.758078],[-74.054435,40.758187],[-74.054399,40.758077]],[[-74.054508,40.758105],[-74.054472,40.758078],[-74.054471,40.758105],[-74.054508,40.758105]]],[[[-74.053926,40.758734],[-74.05429,40.758187],[-74.054399,40.75816],[-74.054434,40.758242],[-74.05407,40.758707],[-74.053962,40.758707],[-74.053962,40.758734],[-74.053926,40.758734]],[[-74.054253,40.758406],[-74.054217,40.758379],[-74.054217,40.758406],[-74.054253,40.758406]],[[-74.05418,40.758488],[-74.054144,40.758461],[-74.054144,40.758488],[-74.05418,40.758488]],[[-74.054144,40.758543],[-74.054108,40.758515],[-74.054108,40.758543],[-74.054144,40.758543]],[[-74.054107,40.758598],[-74.054071,40.75857],[-74.054071,40.758598],[-74.054107,40.758598]]],[[[-74.053998,40.758762],[-74.053962,40.758734],[-74.053998,40.758735],[-74.053998,40.758762]]],[[[-74.054814,40.760824],[-74.054812,40.761208],[-74.05528,40.761347],[-74.055817,40.762008],[-74.05398,40.761397],[-74.053148,40.761641],[-74.05315,40.761312],[-74.053764,40.761314],[-74.053153,40.7609],[-74.053917,40.75997],[-74.052973,40.760789],[-74.052614,40.760568],[-74.053853,40.758816],[-74.053377,40.759803],[-74.053847,40.759722],[-74.054026,40.759888],[-74.056533,40.757591],[-74.053989,40.760107],[-74.054096,40.760327],[-74.053698,40.76038],[-74.054237,40.760822],[-74.054814,40.760824]],[[-74.053377,40.759803],[-74.053341,40.75983],[-74.053377,40.75983],[-74.053377,40.759803]],[[-74.05399,40.759887],[-74.053918,40.759942],[-74.053954,40.759942],[-74.05399,40.759887]],[[-74.054561,40.760878],[-74.054597,40.760905],[-74.054597,40.760878],[-74.054561,40.760878]]],[[[-74.052454,40.694578],[-74.052479,40.694544],[-74.052479,40.694578],[-74.052454,40.694578]]],[[[-74.052442,40.694633],[-74.052415,40.694632],[-74.052442,40.694595],[-74.052442,40.694633]]],[[[-74.052406,40.694646],[-74.052406,40.694687],[-74.052376,40.694687],[-74.052406,40.694646]]],[[[-74.052337,40.694742],[-74.05237,40.694697],[-74.052369,40.694742],[-74.052337,40.694742]]],[[[-74.052333,40.694748],[-74.052333,40.694797],[-74.052298,40.694797],[-74.052333,40.694748]]],[[[-74.052297,40.694799],[-74.05226,40.694906],[-74.052201,40.694934],[-74.052297,40.694799]]],[[[-74.052162,40.694988],[-74.052188,40.694953],[-74.052187,40.694988],[-74.052162,40.694988]]],[[[-74.052151,40.695043],[-74.052123,40.695043],[-74.052151,40.695004],[-74.052151,40.695043]]],[[[-74.0521,40.695075],[-74.052114,40.695098],[-74.052083,40.695098],[-74.0521,40.695075]]],[[[-74.052078,40.695104],[-74.052042,40.695153],[-74.05198,40.695235],[-74.052078,40.695104]]],[[[-74.051969,40.69529],[-74.051939,40.695289],[-74.051969,40.695249],[-74.051969,40.69529]]],[[[-74.051932,40.695344],[-74.051897,40.695344],[-74.051933,40.695297],[-74.051932,40.695344]]],[[[-74.051896,40.695399],[-74.051835,40.695426],[-74.051896,40.695345],[-74.051896,40.695399]]],[[[-74.051794,40.695481],[-74.051824,40.695442],[-74.051823,40.695481],[-74.051794,40.695481]]],[[[-74.051753,40.695536],[-74.051787,40.69549],[-74.051787,40.695536],[-74.051753,40.695536]]],[[[-74.051751,40.695539],[-74.051714,40.695591],[-74.05165,40.695673],[-74.051751,40.695539]]],[[[-74.051621,40.695711],[-74.051642,40.695683],[-74.051641,40.695727],[-74.051621,40.695711]]],[[[-74.051605,40.69573],[-74.051569,40.695782],[-74.051542,40.695809],[-74.051605,40.69573]]],[[[-74.051532,40.695864],[-74.051499,40.695864],[-74.051533,40.695822],[-74.051532,40.695864]]],[[[-74.05146,40.695919],[-74.05139,40.696001],[-74.051496,40.695867],[-74.05146,40.695919]]],[[[-74.056416,40.693577],[-74.05649,40.693331],[-74.057998,40.694297],[-74.05803,40.694901],[-74.057411,40.695914],[-74.056362,40.696295],[-74.054992,40.696317],[-74.05481,40.696563],[-74.054305,40.696506],[-74.053581,40.696915],[-74.053331,40.696612],[-74.054018,40.696286],[-74.054057,40.695819],[-74.052824,40.696775],[-74.051242,40.696055],[-74.050805,40.696712],[-74.048988,40.698819],[-74.045103,40.70251],[-74.044815,40.702536],[-74.04293,40.703846],[-74.042858,40.703846],[-74.042314,40.704228],[-74.041518,40.704637],[-74.041518,40.704664],[-74.041482,40.704664],[-74.041482,40.704691],[-74.041445,40.704691],[-74.041445,40.704719],[-74.041409,40.704718],[-74.041409,40.704746],[-74.041306,40.7048],[-74.041351,40.70469],[-74.044887,40.702454],[-74.04756,40.700159],[-74.05124,40.69601],[-74.051495,40.696056],[-74.051604,40.695947],[-74.054263,40.691977],[-74.055915,40.692999],[-74.055947,40.693685],[-74.056416,40.693577]],[[-74.055947,40.693685],[-74.05591,40.69374],[-74.055946,40.69374],[-74.055947,40.693685]]],[[[-74.041256,40.704828],[-74.0413,40.704804],[-74.0413,40.704828],[-74.041256,40.704828]]],[[[-74.041206,40.704855],[-74.041228,40.704843],[-74.041228,40.704855],[-74.041206,40.704855]]],[[[-74.041192,40.704882],[-74.041156,40.704882],[-74.041192,40.704863],[-74.041192,40.704882]]],[[[-74.041119,40.704909],[-74.041105,40.704909],[-74.041119,40.704902],[-74.041119,40.704909]]],[[[-74.041062,40.704933],[-74.041083,40.704937],[-74.041055,40.704937],[-74.041062,40.704933]]],[[[-74.041,40.704964],[-74.041011,40.704959],[-74.041011,40.704964],[-74.041,40.704964]]],[[[-74.040946,40.704991],[-74.040975,40.704977],[-74.040974,40.704991],[-74.040946,40.704991]]],[[[-74.040902,40.705018],[-74.040892,40.705018],[-74.040902,40.705013],[-74.040902,40.705018]]],[[[-74.040866,40.705032],[-74.040866,40.705046],[-74.040838,40.705046],[-74.040866,40.705032]]],[[[-74.040794,40.705068],[-74.040794,40.705073],[-74.040784,40.705073],[-74.040794,40.705068]]],[[[-74.040757,40.7051],[-74.04073,40.7051],[-74.040757,40.705086],[-74.040757,40.7051]]],[[[-74.040721,40.705127],[-74.040676,40.705127],[-74.040721,40.705104],[-74.040721,40.705127]]],[[[-74.040649,40.705141],[-74.040649,40.705155],[-74.040622,40.705155],[-74.040649,40.705141]]],[[[-74.040595,40.705168],[-74.040612,40.705182],[-74.040567,40.705182],[-74.040595,40.705168]]],[[[-74.04054,40.705209],[-74.04051,40.705209],[-74.04054,40.705195],[-74.04054,40.705209]]],[[[-74.040468,40.705236],[-74.040454,40.705236],[-74.040468,40.70523],[-74.040468,40.705236]]],[[[-74.040432,40.705247],[-74.040432,40.705264],[-74.040398,40.705263],[-74.040432,40.705247]]],[[[-74.040341,40.705291],[-74.040359,40.705282],[-74.040359,40.705291],[-74.040341,40.705291]]],[[[-74.040323,40.705318],[-74.040285,40.705318],[-74.040323,40.7053],[-74.040323,40.705318]]],[[[-74.040251,40.705345],[-74.040229,40.705345],[-74.040251,40.705335],[-74.040251,40.705345]]],[[[-74.040214,40.705372],[-74.040173,40.705372],[-74.040215,40.705352],[-74.040214,40.705372]]],[[[-74.040115,40.7054],[-74.040142,40.705387],[-74.040142,40.7054],[-74.040115,40.7054]]],[[[-74.040057,40.705427],[-74.040106,40.705404],[-74.040106,40.705427],[-74.040057,40.705427]]],[[[-74.039514,40.71038],[-74.038623,40.710148],[-74.03854,40.709625],[-74.038164,40.709567],[-74.037985,40.709385],[-74.034716,40.709167],[-74.034344,40.70887],[-74.034282,40.708769],[-74.034288,40.708557],[-74.034501,40.707679],[-74.034081,40.707627],[-74.034058,40.707141],[-74.034162,40.706652],[-74.034692,40.706696],[-74.034873,40.705751],[-74.035315,40.705738],[-74.038839,40.706108],[-74.041408,40.704828],[-74.041985,40.704913],[-74.043243,40.705632],[-74.043093,40.706345],[-74.041145,40.706474],[-74.034945,40.705791],[-74.034759,40.706668],[-74.034428,40.70749],[-74.034535,40.707738],[-74.034347,40.708835],[-74.034778,40.709139],[-74.035392,40.709031],[-74.037915,40.709316],[-74.038598,40.709593],[-74.038667,40.710115],[-74.039351,40.71031],[-74.039753,40.709571],[-74.05125,40.710988],[-74.051355,40.71151],[-74.050994,40.711619],[-74.051498,40.711785],[-74.051496,40.711977],[-74.051607,40.711648],[-74.051822,40.711869],[-74.052615,40.711982],[-74.053619,40.712754],[-74.053294,40.712863],[-74.052466,40.71264],[-74.052504,40.712393],[-74.051277,40.712333],[-74.050882,40.712112],[-74.042302,40.711337],[-74.042585,40.712052],[-74.043343,40.712083],[-74.043044,40.713564],[-74.042682,40.7137],[-74.041926,40.713532],[-74.041929,40.71312],[-74.041676,40.713092],[-74.041863,40.712187],[-74.041536,40.71246],[-74.04096,40.71232],[-74.041075,40.711305],[-74.041364,40.711334],[-74.041365,40.711169],[-74.039563,40.71097],[-74.039526,40.711107],[-74.03801,40.711128],[-74.037721,40.711319],[-74.038007,40.711122],[-74.038437,40.711035],[-74.0395,40.711082],[-74.039514,40.71038]]],[[[-74.040033,40.705454],[-74.039999,40.705454],[-74.040034,40.705438],[-74.040033,40.705454]]],[[[-74.039961,40.705472],[-74.039961,40.705481],[-74.039941,40.705481],[-74.039961,40.705472]]],[[[-74.039925,40.705509],[-74.039883,40.705508],[-74.039925,40.705489],[-74.039925,40.705509]]],[[[-74.039853,40.705522],[-74.039853,40.705536],[-74.039824,40.705536],[-74.039853,40.705522]]],[[[-74.039816,40.705539],[-74.039816,40.705563],[-74.039766,40.705563],[-74.039816,40.705539]]],[[[-74.039744,40.705573],[-74.039744,40.70559],[-74.039708,40.70559],[-74.039744,40.705573]]],[[[-74.039672,40.705617],[-74.039649,40.705617],[-74.039672,40.705607],[-74.039672,40.705617]]],[[[-74.039635,40.705645],[-74.039589,40.705644],[-74.039636,40.705623],[-74.039635,40.705645]]],[[[-74.039563,40.705672],[-74.03953,40.705672],[-74.039563,40.705656],[-74.039563,40.705672]]],[[[-74.03947,40.705699],[-74.039491,40.705689],[-74.039491,40.705699],[-74.03947,40.705699]]],[[[-74.03941,40.705726],[-74.039455,40.705706],[-74.039454,40.705726],[-74.03941,40.705726]]],[[[-74.039382,40.705753],[-74.03935,40.705753],[-74.039382,40.705739],[-74.039382,40.705753]]],[[[-74.039289,40.705781],[-74.03931,40.705771],[-74.03931,40.705781],[-74.039289,40.705781]]],[[[-74.039227,40.705808],[-74.039274,40.705787],[-74.039274,40.705808],[-74.039227,40.705808]]],[[[-74.039201,40.705835],[-74.039165,40.705835],[-74.039201,40.705819],[-74.039201,40.705835]]],[[[-74.039129,40.705862],[-74.039103,40.705862],[-74.039129,40.705851],[-74.039129,40.705862]]],[[[-74.039057,40.705889],[-74.039041,40.705889],[-74.039057,40.705882],[-74.039057,40.705889]]],[[[-74.038979,40.705917],[-74.03902,40.705898],[-74.03902,40.705917],[-74.038979,40.705917]]],[[[-74.038948,40.705944],[-74.038913,40.705944],[-74.038948,40.705929],[-74.038948,40.705944]]],[[[-74.038876,40.705959],[-74.038876,40.705971],[-74.038846,40.705971],[-74.038876,40.705959]]],[[[-74.038803,40.705988],[-74.038803,40.705998],[-74.038779,40.705998],[-74.038803,40.705988]]],[[[-74.038767,40.706003],[-74.038767,40.706026],[-74.038712,40.706025],[-74.038767,40.706003]]],[[[-74.038695,40.706053],[-74.038651,40.706052],[-74.038695,40.706032],[-74.038695,40.706053]]],[[[-74.038622,40.70608],[-74.038591,40.70608],[-74.038622,40.706065],[-74.038622,40.70608]]],[[[-74.03772,40.711374],[-74.037652,40.711401],[-74.03772,40.711321],[-74.03772,40.711374]]],[[[-74.037648,40.711429],[-74.037621,40.711429],[-74.037648,40.711405],[-74.037648,40.711429]]],[[[-74.037611,40.711456],[-74.037589,40.711456],[-74.037611,40.711437],[-74.037611,40.711456]]],[[[-74.037575,40.711483],[-74.037558,40.711483],[-74.037575,40.711469],[-74.037575,40.711483]]],[[[-74.037539,40.711511],[-74.037527,40.711511],[-74.037539,40.7115],[-74.037539,40.711511]]],[[[-74.037502,40.711538],[-74.037502,40.711532],[-74.037503,40.711532],[-74.037502,40.711538]]],[[[-74.037446,40.711565],[-74.037466,40.711553],[-74.037466,40.711565],[-74.037446,40.711565]]],[[[-74.03743,40.711593],[-74.0374,40.711592],[-74.03743,40.711574],[-74.03743,40.711593]]],[[[-74.037358,40.71162],[-74.037334,40.71162],[-74.037358,40.711612],[-74.037358,40.71162]]],[[[-74.035339,40.711443],[-74.035633,40.711421],[-74.036541,40.71162],[-74.037322,40.711624],[-74.036672,40.711672],[-74.035411,40.711447],[-74.035337,40.711694],[-74.038184,40.712035],[-74.038145,40.712501],[-74.035803,40.712162],[-74.034936,40.712241],[-74.034759,40.711801],[-74.034254,40.711744],[-74.034832,40.711793],[-74.035339,40.711443]]],[[[-74.033305,40.71336],[-74.034065,40.712979],[-74.034495,40.713475],[-74.034419,40.714024],[-74.034094,40.714105],[-74.034023,40.71383],[-74.033985,40.714104],[-74.033192,40.714019],[-74.033305,40.71336]]],[[[-74.031155,40.730102],[-74.031232,40.729473],[-74.027341,40.729073],[-74.030966,40.729341],[-74.031006,40.728998],[-74.026548,40.728601],[-74.026604,40.72819],[-74.031034,40.728575],[-74.031086,40.728036],[-74.027374,40.727716],[-74.027376,40.727515],[-74.030342,40.727781],[-74.030405,40.727036],[-74.030021,40.726476],[-74.03016,40.726236],[-74.030287,40.726135],[-74.032455,40.726062],[-74.034452,40.726238],[-74.034525,40.725771],[-74.032064,40.725559],[-74.03211,40.725235],[-74.033782,40.725386],[-74.033765,40.725532],[-74.034559,40.725585],[-74.034614,40.725286],[-74.033817,40.725209],[-74.03384,40.725007],[-74.02978,40.724657],[-74.029447,40.724567],[-74.029536,40.723854],[-74.029605,40.723812],[-74.033812,40.724127],[-74.033883,40.724023],[-74.033838,40.723809],[-74.033893,40.723483],[-74.033968,40.723486],[-74.034032,40.723033],[-74.03398,40.722865],[-74.03423,40.722142],[-74.031422,40.721896],[-74.031522,40.721173],[-74.031354,40.721164],[-74.031327,40.720875],[-74.03133,40.720629],[-74.031398,40.720412],[-74.031476,40.720258],[-74.031741,40.720177],[-74.032375,40.720226],[-74.032552,40.720129],[-74.032062,40.719669],[-74.029283,40.719364],[-74.029258,40.719333],[-74.029349,40.718935],[-74.029375,40.718921],[-74.032487,40.719279],[-74.032469,40.718886],[-74.032825,40.717531],[-74.03275,40.717386],[-74.02993,40.717066],[-74.029999,40.716713],[-74.032075,40.716919],[-74.032169,40.71639],[-74.031289,40.716292],[-74.0315,40.715724],[-74.031699,40.716164],[-74.032624,40.716228],[-74.03315,40.714155],[-74.032975,40.714108],[-74.032997,40.713831],[-74.031663,40.713565],[-74.03302,40.713729],[-74.033104,40.713206],[-74.033197,40.71299],[-74.03325,40.712592],[-74.033428,40.712527],[-74.033439,40.71215],[-74.033733,40.711677],[-74.033954,40.711677],[-74.034201,40.711717],[-74.033858,40.711715],[-74.033491,40.712647],[-74.033274,40.712646],[-74.033013,40.713826],[-74.033192,40.714128],[-74.033189,40.714485],[-74.032635,40.716295],[-74.032202,40.716403],[-74.03209,40.716951],[-74.029998,40.716751],[-74.029961,40.716943],[-74.031583,40.717224],[-74.032449,40.717117],[-74.032808,40.717366],[-74.032879,40.717586],[-74.032542,40.719286],[-74.02955,40.718972],[-74.029295,40.719246],[-74.031386,40.719584],[-74.031639,40.71942],[-74.032143,40.719642],[-74.032573,40.720083],[-74.032572,40.720192],[-74.032391,40.720274],[-74.031706,40.720216],[-74.031416,40.720407],[-74.031375,40.721148],[-74.031555,40.721149],[-74.031442,40.721862],[-74.034254,40.722093],[-74.033915,40.724178],[-74.029587,40.723886],[-74.029582,40.7246],[-74.033838,40.724946],[-74.033944,40.725194],[-74.034629,40.725251],[-74.034591,40.725636],[-74.032103,40.725351],[-74.032282,40.725516],[-74.034554,40.72569],[-74.034552,40.72602],[-74.034478,40.726294],[-74.034405,40.726321],[-74.031989,40.726119],[-74.030111,40.726359],[-74.030467,40.727156],[-74.03039,40.727815],[-74.029415,40.727838],[-74.031146,40.72801],[-74.030992,40.729409],[-74.031244,40.729465],[-74.031166,40.730261],[-74.030376,40.729791],[-74.029907,40.729762],[-74.029907,40.729789],[-74.030986,40.730315],[-74.03138,40.730619],[-74.031343,40.730756],[-74.029758,40.729759],[-74.030478,40.729769],[-74.031155,40.730102]]],[[[-74.030875,40.730644],[-74.030875,40.730631],[-74.030924,40.730644],[-74.030875,40.730644]]],[[[-74.028928,40.730444],[-74.027526,40.729615],[-74.027346,40.729641],[-74.028208,40.730166],[-74.028058,40.730962],[-74.031015,40.731248],[-74.030676,40.733251],[-74.030967,40.731276],[-74.027997,40.731011],[-74.028094,40.730228],[-74.026853,40.729505],[-74.027419,40.729492],[-74.029127,40.730468],[-74.030823,40.730616],[-74.029432,40.730556],[-74.028928,40.730444]]],[[[-74.030638,40.733498],[-74.030621,40.733358],[-74.03064,40.73331],[-74.030638,40.733498]]],[[[-74.030586,40.733635],[-74.030602,40.733557],[-74.030601,40.733635],[-74.030586,40.733635]]],[[[-74.030817,40.733718],[-74.030711,40.733498],[-74.03154,40.733556],[-74.031468,40.733611],[-74.030817,40.733718]]],[[[-74.030168,40.733715],[-74.030204,40.733705],[-74.030204,40.733716],[-74.030168,40.733715]]],[[[-74.037164,40.73432],[-74.031718,40.733859],[-74.031142,40.733774],[-74.032117,40.733586],[-74.03695,40.734017],[-74.037164,40.73432]]],[[[-74.037309,40.734293],[-74.0372,40.73432],[-74.037201,40.734293],[-74.037309,40.734293]]]]}}]}