{"type":"FeatureCollection","features":[{"type":"Feature","properties":{"level_ft":13},"geometry":{"type":"MultiPolygon","coordinates":[[[[-74.095949,40.680629],[-74.095985,40.680684],[-74.095949,40.680684],[-74.095949,40.680629]]],[[[-74.095985,40.680684],[-74.096056,40.680739],[-74.095984,40.680739],[-74.095985,40.680684]]],[[[-74.098146,40.680966],[-74.098222,40.680939],[-74.098232,40.680966],[-74.098146,40.680966]]],[[[-74.098608,40.682148],[-74.098173,40.682585],[-74.098632,40.682038],[-74.098608,40.682148]]],[[[-74.098465,40.681928],[-74.097847,40.682804],[-74.096904,40.683734],[-74.098066,40.68242],[-74.098287,40.681625],[-74.097242,40.681402],[-74.097857,40.681075],[-74.098283,40.681103],[-74.098465,40.681928]],[[-74.097857,40.681102],[-74.097929,40.68113],[-74.097929,40.681102],[-74.097857,40.681102]]],[[[-74.098822,40.682615],[-74.098061,40.683189],[-74.098724,40.682285],[-74.098822,40.682615]]],[[[-74.098173,40.682585],[-74.098027,40.682832],[-74.097737,40.683133],[-74.098173,40.682585]]],[[[-74.099012,40.683055],[-74.098566,40.683136],[-74.098889,40.682725],[-74.099012,40.683055]],[[-74.098747,40.683082],[-74.098711,40.683054],[-74.098711,40.683081],[-74.098747,40.683082]]],[[[-74.097628,40.683187],[-74.0977,40.683215],[-74.097628,40.683242],[-74.097628,40.683187]]],[[[-74.097556,40.68327],[-74.097628,40.683297],[-74.097555,40.683324],[-74.097556,40.68327]]],[[[-74.097519,40.683324],[-74.097555,40.683379],[-74.097519,40.683379],[-74.097519,40.683324]]],[[[-74.099308,40.683852],[-74.098853,40.683329],[-74.098999,40.683082],[-74.099308,40.683852]]],[[[-74.09741,40.683516],[-74.097483,40.683407],[-74.097482,40.683489],[-74.09741,40.683516]]],[[[-74.097374,40.683516],[-74.09741,40.683571],[-74.097374,40.683571],[-74.097374,40.683516]]],[[[-74.097337,40.683598],[-74.097374,40.683571],[-74.097373,40.683598],[-74.097337,40.683598]]],[[[-74.086555,40.689544],[-74.086953,40.689408],[-74.086951,40.689655],[-74.086555,40.689544]]],[[[-74.086659,40.690203],[-74.087203,40.689711],[-74.087452,40.690206],[-74.086659,40.690203]]],[[[-74.086426,40.692975],[-74.08639,40.692947],[-74.086426,40.692948],[-74.086426,40.692975]]],[[[-74.086353,40.69303],[-74.086317,40.693002],[-74.086353,40.693002],[-74.086353,40.69303]]],[[[-74.086281,40.693057],[-74.086245,40.693084],[-74.086245,40.693057],[-74.086281,40.693057]]],[[[-74.086209,40.693084],[-74.086244,40.693112],[-74.086208,40.693112],[-74.086209,40.693084]]],[[[-74.086136,40.693139],[-74.086172,40.693166],[-74.086136,40.693166],[-74.086136,40.693139]]],[[[-74.0861,40.693166],[-74.086136,40.693194],[-74.0861,40.693193],[-74.0861,40.693166]]],[[[-74.085774,40.693439],[-74.085737,40.693467],[-74.085738,40.693439],[-74.085774,40.693439]]],[[[-74.085701,40.693467],[-74.085737,40.693494],[-74.085701,40.693494],[-74.085701,40.693467]]],[[[-74.08599,40.693495],[-74.086026,40.693523],[-74.085989,40.693523],[-74.08599,40.693495]]],[[[-74.085665,40.693494],[-74.085701,40.693521],[-74.085665,40.693521],[-74.085665,40.693494]]],[[[-74.085953,40.693522],[-74.085989,40.69355],[-74.085953,40.69355],[-74.085953,40.693522]]],[[[-74.085629,40.693549],[-74.085665,40.693521],[-74.085665,40.693549],[-74.085629,40.693549]]],[[[-74.085917,40.69355],[-74.085953,40.693577],[-74.085917,40.693577],[-74.085917,40.69355]]],[[[-74.085593,40.693549],[-74.085628,40.693576],[-74.085592,40.693576],[-74.085593,40.693549]]],[[[-74.085881,40.693577],[-74.085917,40.693605],[-74.085881,40.693604],[-74.085881,40.693577]]],[[[-74.085845,40.693604],[-74.085881,40.693632],[-74.085845,40.693632],[-74.085845,40.693604]]],[[[-74.08552,40.693603],[-74.085592,40.693631],[-74.08552,40.693658],[-74.08552,40.693603]]],[[[-74.085808,40.693632],[-74.085844,40.693659],[-74.085808,40.693659],[-74.085808,40.693632]]],[[[-74.085772,40.693686],[-74.085808,40.693659],[-74.085808,40.693687],[-74.085772,40.693686]]],[[[-74.085448,40.693658],[-74.08552,40.693686],[-74.085447,40.693685],[-74.085448,40.693658]]],[[[-74.085736,40.693686],[-74.085772,40.693714],[-74.085736,40.693714],[-74.085736,40.693686]]],[[[-74.0857,40.693714],[-74.085736,40.693741],[-74.0857,40.693741],[-74.0857,40.693714]]],[[[-74.085664,40.693741],[-74.085699,40.693769],[-74.085663,40.693768],[-74.085664,40.693741]]],[[[-74.085627,40.693768],[-74.085663,40.693796],[-74.085627,40.693796],[-74.085627,40.693768]]],[[[-74.085591,40.693796],[-74.085627,40.693823],[-74.085591,40.693823],[-74.085591,40.693796]]],[[[-74.085555,40.69385],[-74.085591,40.693823],[-74.085591,40.69385],[-74.085555,40.69385]]],[[[-74.085519,40.69385],[-74.085554,40.693878],[-74.085518,40.693878],[-74.085519,40.69385]]],[[[-74.085482,40.693878],[-74.085518,40.693905],[-74.085482,40.693905],[-74.085482,40.693878]]],[[[-74.107639,40.697825],[-74.114232,40.700952],[-74.114309,40.704609],[-74.116408,40.709735],[-74.113869,40.712314],[-74.110167,40.715375],[-74.10747,40.717075],[-74.102976,40.71933],[-74.10177,40.720231],[-74.100089,40.722867],[-74.099011,40.727277],[-74.094487,40.72556],[-74.094521,40.725779],[-74.096176,40.726609],[-74.098962,40.727552],[-74.097897,40.73072],[-74.095303,40.735005],[-74.090313,40.735427],[-74.089305,40.734984],[-74.089273,40.73438],[-74.088516,40.734185],[-74.088478,40.734515],[-74.087426,40.735334],[-74.087387,40.735828],[-74.087098,40.735964],[-74.083391,40.734304],[-74.084974,40.735078],[-74.085261,40.735436],[-74.082957,40.73455],[-74.083027,40.734797],[-74.085797,40.736234],[-74.08475,40.736368],[-74.084967,40.736204],[-74.08468,40.736011],[-74.082231,40.735096],[-74.081326,40.735614],[-74.082479,40.735866],[-74.083126,40.736362],[-74.083846,40.736557],[-74.075969,40.738093],[-74.073843,40.737646],[-74.073484,40.737315],[-74.073667,40.736876],[-74.07399,40.737234],[-74.074316,40.736989],[-74.074066,40.736658],[-74.074609,40.736358],[-74.075042,40.736332],[-74.075077,40.736497],[-74.07544,40.736224],[-74.075875,40.735869],[-74.075951,40.735265],[-74.076496,40.734773],[-74.076389,40.734553],[-74.076605,40.734609],[-74.076609,40.733895],[-74.076393,40.733922],[-74.076071,40.733399],[-74.076254,40.733015],[-74.076472,40.732852],[-74.077626,40.732883],[-74.07766,40.733268],[-74.079247,40.733328],[-74.079504,40.732643],[-74.080012,40.732315],[-74.080014,40.731959],[-74.080339,40.73185],[-74.081467,40.730317],[-74.081289,40.730014],[-74.081473,40.729493],[-74.081654,40.729384],[-74.081184,40.729465],[-74.081333,40.728724],[-74.082343,40.728728],[-74.083357,40.72821],[-74.082893,40.727357],[-74.082389,40.727246],[-74.082429,40.726642],[-74.081567,40.726008],[-74.081425,40.725623],[-74.082041,40.725158],[-74.082191,40.724281],[-74.082918,40.723405],[-74.083641,40.723133],[-74.084613,40.723493],[-74.08512,40.723138],[-74.085196,40.722589],[-74.084909,40.722314],[-74.085198,40.722342],[-74.085307,40.722096],[-74.084626,40.721462],[-74.084663,40.721297],[-74.085131,40.721381],[-74.085387,40.720861],[-74.085929,40.720753],[-74.085464,40.720147],[-74.086258,40.720123],[-74.086765,40.719685],[-74.08709,40.719714],[-74.087308,40.719385],[-74.087093,40.71922],[-74.087887,40.719168],[-74.087816,40.718921],[-74.08861,40.718896],[-74.088824,40.719308],[-74.08958,40.719668],[-74.089906,40.71945],[-74.089368,40.718953],[-74.090521,40.719067],[-74.090128,40.718435],[-74.091029,40.71863],[-74.090995,40.718273],[-74.090096,40.717803],[-74.089918,40.717446],[-74.089995,40.716677],[-74.090464,40.716734],[-74.09,40.715909],[-74.090613,40.715911],[-74.091266,40.715309],[-74.090261,40.71451],[-74.09037,40.714263],[-74.091343,40.714431],[-74.090592,40.713495],[-74.09135,40.713443],[-74.091673,40.713664],[-74.091563,40.713938],[-74.092212,40.713913],[-74.091855,40.71339],[-74.092756,40.713503],[-74.093479,40.713313],[-74.094557,40.714031],[-74.094882,40.713977],[-74.094779,40.712988],[-74.094311,40.712822],[-74.095107,40.712523],[-74.094572,40.711533],[-74.095293,40.711535],[-74.096119,40.712142],[-74.096516,40.712171],[-74.096115,40.712911],[-74.09687,40.713243],[-74.097162,40.71275],[-74.096624,40.712144],[-74.096984,40.712282],[-74.097059,40.711898],[-74.097528,40.71179],[-74.097816,40.711956],[-74.097998,40.71171],[-74.098435,40.71097],[-74.098367,40.710338],[-74.097398,40.709457],[-74.094935,40.71115],[-74.093962,40.710982],[-74.092732,40.711609],[-74.092449,40.71062],[-74.092667,40.710401],[-74.09281,40.710648],[-74.093351,40.710623],[-74.093824,40.709911],[-74.094077,40.709802],[-74.094111,40.710159],[-74.094692,40.709612],[-74.09473,40.70931],[-74.094045,40.70917],[-74.093545,40.70829],[-74.093942,40.708237],[-74.093587,40.707302],[-74.094201,40.707167],[-74.094529,40.706647],[-74.095286,40.706704],[-74.095573,40.70698],[-74.095755,40.706788],[-74.094893,40.706126],[-74.09493,40.705934],[-74.095219,40.705963],[-74.094933,40.705468],[-74.095693,40.705086],[-74.095696,40.704647],[-74.096346,40.704539],[-74.096705,40.704733],[-74.09624,40.7041],[-74.0966,40.704266],[-74.097035,40.703801],[-74.097334,40.7021],[-74.098238,40.701773],[-74.099073,40.700788],[-74.09947,40.700762],[-74.099008,40.699608],[-74.099405,40.699609],[-74.099836,40.69994],[-74.099696,40.699226],[-74.1002,40.69931],[-74.100168,40.698678],[-74.100637,40.698652],[-74.101296,40.69698],[-74.102058,40.696242],[-74.101665,40.695636],[-74.101775,40.695335],[-74.102172,40.695336],[-74.101776,40.695225],[-74.102029,40.695034],[-74.101815,40.694676],[-74.102428,40.694596],[-74.102852,40.695432],[-74.107531,40.697702],[-74.107458,40.697935],[-74.107639,40.697825]],[[-74.081508,40.729631],[-74.081544,40.729658],[-74.081544,40.729631],[-74.081508,40.729631]],[[-74.081618,40.729274],[-74.081691,40.72922],[-74.081619,40.729192],[-74.081618,40.729274]],[[-74.08767,40.719222],[-74.087634,40.719249],[-74.08767,40.719249],[-74.08767,40.719222]],[[-74.08861,40.719006],[-74.088573,40.719033],[-74.088609,40.719033],[-74.08861,40.719006]],[[-74.088573,40.719033],[-74.088537,40.71906],[-74.088573,40.71906],[-74.088573,40.719033]],[[-74.090026,40.717446],[-74.090063,40.717391],[-74.090027,40.717391],[-74.090026,40.717446]],[[-74.090063,40.717391],[-74.090099,40.717364],[-74.090063,40.717364],[-74.090063,40.717391]],[[-74.090099,40.717364],[-74.090135,40.717337],[-74.090099,40.717337],[-74.090099,40.717364]],[[-74.091457,40.713581],[-74.091421,40.713608],[-74.091457,40.713608],[-74.091457,40.713581]],[[-74.094474,40.709886],[-74.094509,40.709968],[-74.094582,40.709886],[-74.094474,40.709886]],[[-74.095755,40.706788],[-74.095791,40.706816],[-74.095791,40.706788],[-74.095755,40.706788]],[[-74.095791,40.706816],[-74.095827,40.706843],[-74.095827,40.706816],[-74.095791,40.706816]],[[-74.095827,40.706843],[-74.095863,40.706871],[-74.095863,40.706843],[-74.095827,40.706843]],[[-74.095863,40.706871],[-74.095898,40.706898],[-74.095899,40.706871],[-74.095863,40.706871]],[[-74.097219,40.70328],[-74.097255,40.703307],[-74.097255,40.70328],[-74.097219,40.70328]],[[-74.097255,40.703307],[-74.097291,40.703335],[-74.097291,40.703307],[-74.097255,40.703307]],[[-74.107458,40.697935],[-74.107422,40.697962],[-74.107458,40.697962],[-74.107458,40.697935]],[[-74.107422,40.697962],[-74.107386,40.697989],[-74.107422,40.697989],[-74.107422,40.697962]]],[[[-74.083571,40.740234],[-74.07633,40.738149],[-74.085977,40.736345],[-74.08756,40.737092],[-74.088641,40.737288],[-74.090887,40.736005],[-74.090709,40.735538],[-74.095174,40.73517],[-74.093398,40.737015],[-74.090175,40.738579],[-74.08703,40.739535],[-74.083571,40.740234]]],[[[-74.085485,40.687646],[-74.083187,40.686046],[-74.083332,40.685854],[-74.086678,40.687184],[-74.085485,40.687646]]],[[[-74.08404,40.688108],[-74.084004,40.688108],[-74.084004,40.68808],[-74.08404,40.68808],[-74.08404,40.688108]]],[[[-74.084112,40.688135],[-74.08404,40.688108],[-74.084112,40.688108],[-74.084112,40.688135]]],[[[-74.084003,40.688163],[-74.083931,40.688135],[-74.084003,40.688135],[-74.084003,40.688163]]],[[[-74.084702,40.691816],[-74.084738,40.691789],[-74.084738,40.691816],[-74.084702,40.691816]]],[[[-74.084447,40.692144],[-74.084412,40.692089],[-74.084448,40.69209],[-74.084447,40.692144]]],[[[-74.085411,40.693767],[-74.085375,40.69374],[-74.085411,40.69374],[-74.085411,40.693767]]],[[[-74.085446,40.693905],[-74.085482,40.693932],[-74.085446,40.693932],[-74.085446,40.693905]]],[[[-74.085373,40.694014],[-74.085337,40.693987],[-74.085373,40.693987],[-74.085373,40.694014]]],[[[-74.084904,40.69404],[-74.084868,40.694067],[-74.084868,40.69404],[-74.084904,40.69404]]],[[[-74.085229,40.694069],[-74.085265,40.694096],[-74.085229,40.694096],[-74.085229,40.694069]]],[[[-74.084832,40.694067],[-74.084868,40.694095],[-74.084832,40.694095],[-74.084832,40.694067]]],[[[-74.085192,40.694096],[-74.085228,40.694124],[-74.085192,40.694124],[-74.085192,40.694096]]],[[[-74.084796,40.694122],[-74.084832,40.694095],[-74.084832,40.694122],[-74.084796,40.694122]]],[[[-74.085156,40.694123],[-74.085192,40.694151],[-74.085156,40.694151],[-74.085156,40.694123]]],[[[-74.084795,40.69415],[-74.08476,40.694122],[-74.084796,40.694122],[-74.084795,40.69415]]],[[[-74.08512,40.694151],[-74.085156,40.694178],[-74.08512,40.694178],[-74.08512,40.694151]]],[[[-74.085084,40.694206],[-74.08512,40.694178],[-74.08512,40.694206],[-74.085084,40.694206]]],[[[-74.085048,40.694205],[-74.085083,40.694233],[-74.085047,40.694233],[-74.085048,40.694205]]],[[[-74.085011,40.694233],[-74.085047,40.69426],[-74.085011,40.69426],[-74.085011,40.694233]]],[[[-74.084975,40.69426],[-74.085011,40.694288],[-74.084975,40.694287],[-74.084975,40.69426]]],[[[-74.084939,40.694287],[-74.084975,40.694315],[-74.084939,40.694315],[-74.084939,40.694287]]],[[[-74.084903,40.694315],[-74.084938,40.694342],[-74.084902,40.694342],[-74.084903,40.694315]]],[[[-74.084902,40.694397],[-74.08483,40.694369],[-74.084902,40.694342],[-74.084902,40.694397]]],[[[-74.084794,40.694424],[-74.08483,40.694397],[-74.08483,40.694424],[-74.084794,40.694424]]],[[[-74.084758,40.694424],[-74.084794,40.694452],[-74.084757,40.694451],[-74.084758,40.694424]]],[[[-74.084721,40.694451],[-74.084757,40.694479],[-74.084721,40.694479],[-74.084721,40.694451]]],[[[-74.084685,40.694479],[-74.084721,40.694506],[-74.084685,40.694506],[-74.084685,40.694479]]],[[[-74.084649,40.694506],[-74.084685,40.694533],[-74.084649,40.694533],[-74.084649,40.694506]]],[[[-74.084613,40.694533],[-74.084649,40.694561],[-74.084613,40.694561],[-74.084613,40.694533]]],[[[-74.084576,40.694561],[-74.084612,40.694588],[-74.084576,40.694588],[-74.084576,40.694561]]],[[[-74.084576,40.694643],[-74.084504,40.694615],[-74.084576,40.694588],[-74.084576,40.694643]]],[[[-74.084468,40.694643],[-74.084504,40.69467],[-74.084468,40.69467],[-74.084468,40.694643]]],[[[-74.084467,40.694725],[-74.084178,40.694916],[-74.084468,40.69467],[-74.084467,40.694725]]],[[[-74.084069,40.695025],[-74.084105,40.694916],[-74.084178,40.694916],[-74.084069,40.695025]]],[[[-74.08396,40.695025],[-74.083996,40.695053],[-74.08396,40.695052],[-74.08396,40.695025]]],[[[-74.083851,40.695162],[-74.083815,40.695189],[-74.083815,40.695162],[-74.083851,40.695162]]],[[[-74.083779,40.695189],[-74.083815,40.695217],[-74.083779,40.695216],[-74.083779,40.695189]]],[[[-74.083743,40.695216],[-74.083779,40.695244],[-74.083743,40.695244],[-74.083743,40.695216]]],[[[-74.083707,40.695271],[-74.083743,40.695244],[-74.083743,40.695271],[-74.083707,40.695271]]],[[[-74.083706,40.695326],[-74.083453,40.695462],[-74.083707,40.695271],[-74.083706,40.695326]]],[[[-74.083019,40.695653],[-74.082983,40.695625],[-74.083019,40.695625],[-74.083019,40.695653]]],[[[-74.084352,40.736394],[-74.084244,40.736476],[-74.084099,40.736475],[-74.084352,40.736394]]],[[[-74.08083,40.739922],[-74.080794,40.739949],[-74.080794,40.739922],[-74.08083,40.739922]]],[[[-74.080902,40.739977],[-74.080866,40.73995],[-74.080902,40.73995],[-74.080902,40.739977]]],[[[-74.082305,40.74067],[-74.080578,40.739729],[-74.080328,40.739426],[-74.083641,40.740344],[-74.082305,40.74067]]],[[[-74.081082,40.74006],[-74.081045,40.740088],[-74.081045,40.74006],[-74.081082,40.74006]]],[[[-74.080076,40.681917],[-74.08004,40.68189],[-74.080076,40.68189],[-74.080076,40.681917]]],[[[-74.074706,40.698423],[-74.074742,40.69845],[-74.074706,40.69845],[-74.074706,40.698423]]],[[[-74.069286,40.700022],[-74.071276,40.699096],[-74.072179,40.69888],[-74.0699,40.69986],[-74.069609,40.700188],[-74.069286,40.700022]]],[[[-74.077799,40.699861],[-74.077835,40.699834],[-74.077835,40.699861],[-74.077799,40.699861]]],[[[-74.077763,40.699889],[-74.077691,40.699861],[-74.077763,40.699834],[-74.077763,40.699889]]],[[[-74.077582,40.699943],[-74.077654,40.699971],[-74.077582,40.69997],[-74.077582,40.699943]]],[[[-74.077546,40.699998],[-74.077582,40.69997],[-74.077582,40.699998],[-74.077546,40.699998]]],[[[-74.077509,40.699997],[-74.077545,40.700025],[-74.077509,40.700025],[-74.077509,40.699997]]],[[[-74.077473,40.700025],[-74.077509,40.700052],[-74.077473,40.700052],[-74.077473,40.700025]]],[[[-74.077437,40.700052],[-74.077473,40.70008],[-74.077437,40.70008],[-74.077437,40.700052]]],[[[-74.077401,40.700079],[-74.077437,40.700107],[-74.077401,40.700107],[-74.077401,40.700079]]],[[[-74.077365,40.700107],[-74.0774,40.700134],[-74.077364,40.700134],[-74.077365,40.700107]]],[[[-74.077328,40.700134],[-74.077364,40.700162],[-74.077328,40.700162],[-74.077328,40.700134]]],[[[-74.076169,40.700898],[-74.076133,40.700926],[-74.076133,40.700898],[-74.076169,40.700898]]],[[[-74.076097,40.700926],[-74.076061,40.700953],[-74.076061,40.700925],[-74.076097,40.700926]]],[[[-74.070624,40.710678],[-74.070733,40.710623],[-74.070732,40.710678],[-74.070624,40.710678]]],[[[-74.074166,40.737894],[-74.07413,40.737866],[-74.074166,40.737866],[-74.074166,40.737894]]],[[[-74.074274,40.737922],[-74.074202,40.737894],[-74.074274,40.737894],[-74.074274,40.737922]]],[[[-74.073332,40.73855],[-74.072724,40.737614],[-74.074777,40.73828],[-74.073332,40.73855]]],[[[-74.075174,40.738392],[-74.076218,40.738643],[-74.076325,40.73889],[-74.076072,40.739054],[-74.075961,40.739383],[-74.074773,40.739022],[-74.072933,40.738878],[-74.073042,40.738713],[-74.075174,40.738392]],[[-74.073692,40.738633],[-74.073656,40.738661],[-74.073692,40.738661],[-74.073692,40.738633]]],[[[-74.073869,40.739155],[-74.073256,40.739071],[-74.073906,40.739073],[-74.073869,40.739155]]],[[[-74.079463,40.739231],[-74.079607,40.739286],[-74.079463,40.739258],[-74.079463,40.739231]]],[[[-74.079859,40.73937],[-74.079643,40.739259],[-74.079859,40.739287],[-74.079859,40.73937]]],[[[-74.079967,40.739343],[-74.079895,40.739315],[-74.079967,40.739315],[-74.079967,40.739343]]],[[[-74.080039,40.739398],[-74.080076,40.739343],[-74.080111,40.739398],[-74.080039,40.739398]]],[[[-74.080184,40.739398],[-74.080148,40.739371],[-74.080184,40.739371],[-74.080184,40.739398]]],[[[-74.080291,40.739454],[-74.080219,40.739481],[-74.080292,40.739399],[-74.080291,40.739454]]],[[[-74.080794,40.739895],[-74.080758,40.739922],[-74.080758,40.739894],[-74.080794,40.739895]]],[[[-74.073861,40.740528],[-74.073825,40.7405],[-74.073861,40.740501],[-74.073861,40.740528]]],[[[-74.081865,40.740777],[-74.077094,40.743148],[-74.071614,40.741975],[-74.07158,40.741645],[-74.070967,40.741478],[-74.071151,40.741039],[-74.072202,40.740247],[-74.072207,40.739479],[-74.073904,40.739348],[-74.075347,40.739518],[-74.075668,40.74015],[-74.075159,40.740615],[-74.075303,40.74078],[-74.074364,40.740859],[-74.073896,40.740583],[-74.073861,40.740473],[-74.073537,40.740335],[-74.073464,40.740417],[-74.074327,40.740969],[-74.075519,40.740781],[-74.076174,40.740042],[-74.076107,40.739164],[-74.076361,40.738945],[-74.080433,40.739948],[-74.081865,40.740777]],[[-74.075159,40.74067],[-74.075051,40.740615],[-74.075015,40.740669],[-74.075159,40.74067]],[[-74.074041,40.740611],[-74.074077,40.740584],[-74.074041,40.740584],[-74.074041,40.740611]],[[-74.073969,40.740583],[-74.074005,40.740556],[-74.073969,40.740556],[-74.073969,40.740583]],[[-74.081437,40.740913],[-74.081473,40.740885],[-74.081437,40.740885],[-74.081437,40.740913]],[[-74.081437,40.740885],[-74.081401,40.740858],[-74.081401,40.740885],[-74.081437,40.740885]],[[-74.081401,40.740858],[-74.081365,40.74083],[-74.081365,40.740857],[-74.081401,40.740858]],[[-74.081365,40.740857],[-74.081329,40.740885],[-74.081365,40.740885],[-74.081365,40.740857]]],[[[-74.070424,40.74186],[-74.070825,40.74123],[-74.070933,40.741231],[-74.070676,40.741944],[-74.070424,40.74186]]],[[[-74.066046,40.743546],[-74.065108,40.743487],[-74.065253,40.743268],[-74.06457,40.742854],[-74.064034,40.742111],[-74.065938,40.743463],[-74.066263,40.743409],[-74.066046,40.743546]]],[[[-74.066263,40.743354],[-74.066336,40.743272],[-74.0663,40.743355],[-74.066263,40.743354]]],[[[-74.066227,40.743354],[-74.066263,40.743382],[-74.066227,40.743382],[-74.066227,40.743354]]],[[[-74.066263,40.743409],[-74.066299,40.743382],[-74.066299,40.74341],[-74.066263,40.743409]]],[[[-74.067021,40.743467],[-74.067091,40.743687],[-74.067019,40.743769],[-74.067021,40.743467]]],[[[-74.067626,40.74476],[-74.067697,40.744842],[-74.067661,40.744842],[-74.067626,40.74476]]],[[[-74.068212,40.749016],[-74.068248,40.749044],[-74.068212,40.749044],[-74.068212,40.749016]]],[[[-74.071453,40.750236],[-74.070158,40.749463],[-74.069227,40.748307],[-74.068096,40.744679],[-74.068248,40.743472],[-74.068755,40.743199],[-74.069629,40.742022],[-74.076947,40.743257],[-74.075151,40.745534],[-74.074869,40.746946],[-74.075017,40.747986],[-74.075707,40.748974],[-74.076586,40.749638],[-74.077145,40.749931],[-74.078852,40.750223],[-74.077279,40.752171],[-74.075578,40.75246],[-74.075231,40.752756],[-74.075238,40.753133],[-74.076388,40.754383],[-74.076519,40.754856],[-74.0763,40.755143],[-74.075215,40.755339],[-74.074894,40.75562],[-74.075146,40.757157],[-74.07465,40.758294],[-74.074044,40.756999],[-74.074262,40.756752],[-74.074013,40.756285],[-74.073616,40.756256],[-74.07315,40.75565],[-74.070724,40.751194],[-74.069683,40.75034],[-74.069296,40.748801],[-74.07048,40.749903],[-74.071991,40.750678],[-74.072028,40.750568],[-74.071775,40.75054],[-74.071452,40.750346],[-74.071453,40.750236]],[[-74.07156,40.750374],[-74.071668,40.750347],[-74.07156,40.750347],[-74.07156,40.750374]]],[[[-74.071416,40.750264],[-74.071452,40.750319],[-74.071416,40.750319],[-74.071416,40.750264]]],[[[-74.069991,40.752948],[-74.068198,40.751212],[-74.068165,40.750691],[-74.0686,40.75039],[-74.06943,40.750476],[-74.069355,40.750805],[-74.069066,40.750831],[-74.069991,40.752948]]],[[[-74.070167,40.75369],[-74.070131,40.753718],[-74.070131,40.75369],[-74.070167,40.75369]]],[[[-74.072634,40.757405],[-74.072598,40.757433],[-74.072598,40.757405],[-74.072634,40.757405]]],[[[-74.07267,40.757433],[-74.072633,40.757488],[-74.072634,40.757433],[-74.07267,40.757433]]],[[[-74.072705,40.757543],[-74.072669,40.757543],[-74.072669,40.757488],[-74.072706,40.757488],[-74.072705,40.757543]]],[[[-74.072741,40.75757],[-74.072705,40.757543],[-74.072741,40.757543],[-74.072741,40.75757]]],[[[-74.072633,40.757542],[-74.072669,40.75757],[-74.072633,40.75757],[-74.072633,40.757542]]],[[[-74.095913,40.680629],[-74.095335,40.680736],[-74.095873,40.681287],[-74.095871,40.681672],[-74.095071,40.682767],[-74.094096,40.682901],[-74.093881,40.682653],[-74.093736,40.682927],[-74.09352,40.682789],[-74.092762,40.682978],[-74.088699,40.68107],[-74.087683,40.682054],[-74.087431,40.681999],[-74.087504,40.681889],[-74.087468,40.681779],[-74.08725,40.682053],[-74.086926,40.682052],[-74.084265,40.680779],[-74.083766,40.679982],[-74.083511,40.680365],[-74.083042,40.680418],[-74.082462,40.68091],[-74.082502,40.680224],[-74.083083,40.679622],[-74.082545,40.679044],[-74.081966,40.679453],[-74.081746,40.679974],[-74.080916,40.680136],[-74.08124,40.680247],[-74.080912,40.680712],[-74.080625,40.680574],[-74.080444,40.680738],[-74.080512,40.681315],[-74.080978,40.681756],[-74.080079,40.68145],[-74.079934,40.681505],[-74.080039,40.681999],[-74.079247,40.681859],[-74.079172,40.682188],[-74.080577,40.682495],[-74.081006,40.683046],[-74.081369,40.682636],[-74.081873,40.682802],[-74.082662,40.683436],[-74.082479,40.683847],[-74.082984,40.683904],[-74.083628,40.684785],[-74.082616,40.685111],[-74.08319,40.685579],[-74.082648,40.685769],[-74.082752,40.686346],[-74.081882,40.687057],[-74.081486,40.687055],[-74.080769,40.686284],[-74.080515,40.686613],[-74.080047,40.686446],[-74.080154,40.686694],[-74.08098,40.687273],[-74.081232,40.687219],[-74.081806,40.687798],[-74.082597,40.688075],[-74.084111,40.688245],[-74.086026,40.687648],[-74.085338,40.688058],[-74.086021,40.688417],[-74.086743,40.688337],[-74.086705,40.688639],[-74.087139,40.688339],[-74.087283,40.688421],[-74.082423,40.692933],[-74.081623,40.694001],[-74.078832,40.696104],[-74.078286,40.696926],[-74.078647,40.696955],[-74.080386,40.695698],[-74.085503,40.690529],[-74.086517,40.689791],[-74.08619,40.690312],[-74.084666,40.691788],[-74.08452,40.692062],[-74.084412,40.692062],[-74.084339,40.692117],[-74.083068,40.693512],[-74.084301,40.692391],[-74.082777,40.694032],[-74.082665,40.694581],[-74.082413,40.69447],[-74.08107,40.695811],[-74.081213,40.696058],[-74.080889,40.69603],[-74.080453,40.696467],[-74.080779,40.696331],[-74.080813,40.696578],[-74.082628,40.694746],[-74.083528,40.694941],[-74.08563,40.693274],[-74.085993,40.693028],[-74.086101,40.693056],[-74.085267,40.69374],[-74.085231,40.693739],[-74.084941,40.693985],[-74.084905,40.693985],[-74.084832,40.694067],[-74.084796,40.694067],[-74.084796,40.694095],[-74.08476,40.694095],[-74.08476,40.694122],[-74.084723,40.694122],[-74.084759,40.694177],[-74.084831,40.694177],[-74.085085,40.693931],[-74.085339,40.693795],[-74.084577,40.694451],[-74.083889,40.69497],[-74.0836,40.694969],[-74.083708,40.695106],[-74.083091,40.695626],[-74.082947,40.695598],[-74.08291,40.695762],[-74.082475,40.696063],[-74.083417,40.69549],[-74.081822,40.696802],[-74.082106,40.697489],[-74.081235,40.698254],[-74.080658,40.698335],[-74.080801,40.698555],[-74.080475,40.6988],[-74.078813,40.699206],[-74.077544,40.700217],[-74.077327,40.700271],[-74.077871,40.699862],[-74.077835,40.699807],[-74.077691,40.699806],[-74.076025,40.700898],[-74.076061,40.70098],[-74.076169,40.700953],[-74.07711,40.700408],[-74.075734,40.701309],[-74.075259,40.702213],[-74.075582,40.702488],[-74.074675,40.703363],[-74.074415,40.704488],[-74.074126,40.704597],[-74.073839,40.704294],[-74.073478,40.704375],[-74.072966,40.705471],[-74.073181,40.705774],[-74.072311,40.706319],[-74.072452,40.706841],[-74.073029,40.706871],[-74.073496,40.707257],[-74.073136,40.707146],[-74.072546,40.709038],[-74.072257,40.709119],[-74.072219,40.709531],[-74.071821,40.709639],[-74.07142,40.710296],[-74.070662,40.710431],[-74.069329,40.710042],[-74.068971,40.709628],[-74.067708,40.709706],[-74.067024,40.709539],[-74.06764,40.709102],[-74.067316,40.709073],[-74.06757,40.708745],[-74.067176,40.708414],[-74.066742,40.708577],[-74.066743,40.70833],[-74.066273,40.708493],[-74.065986,40.708245],[-74.064829,40.708762],[-74.065152,40.70901],[-74.064863,40.709091],[-74.065295,40.709175],[-74.065511,40.709259],[-74.064968,40.709476],[-74.06522,40.709532],[-74.06518,40.710136],[-74.064857,40.709997],[-74.064422,40.710298],[-74.064134,40.710159],[-74.063085,40.710622],[-74.061682,40.710068],[-74.061795,40.709354],[-74.061616,40.709162],[-74.061182,40.709242],[-74.061296,40.708419],[-74.059961,40.708442],[-74.057792,40.709202],[-74.057935,40.709395],[-74.058404,40.709396],[-74.058069,40.71085],[-74.058432,40.710577],[-74.058972,40.710744],[-74.059694,40.710609],[-74.060124,40.711022],[-74.060739,40.710833],[-74.060663,40.711354],[-74.061276,40.711384],[-74.061525,40.711989],[-74.061995,40.711798],[-74.062027,40.712375],[-74.062604,40.712404],[-74.063286,40.713011],[-74.063212,40.71323],[-74.064113,40.713481],[-74.064145,40.714002],[-74.064651,40.713812],[-74.065228,40.713897],[-74.065303,40.713513],[-74.065986,40.71379],[-74.066098,40.713296],[-74.066893,40.713052],[-74.066605,40.712968],[-74.066571,40.712666],[-74.067113,40.712559],[-74.067688,40.71278],[-74.068162,40.712123],[-74.066863,40.712118],[-74.066324,40.711815],[-74.066472,40.711294],[-74.065642,40.711235],[-74.065897,40.710907],[-74.065683,40.710549],[-74.066152,40.710496],[-74.066771,40.709648],[-74.070697,40.710541],[-74.070553,40.710568],[-74.070225,40.711006],[-74.070045,40.711032],[-74.069789,40.711498],[-74.069537,40.71147],[-74.068554,40.712839],[-74.06844,40.713662],[-74.068043,40.71377],[-74.068149,40.7141],[-74.06768,40.714153],[-74.067966,40.714428],[-74.067569,40.714482],[-74.067349,40.715003],[-74.06648,40.715631],[-74.066475,40.716262],[-74.066075,40.716782],[-74.06521,40.716724],[-74.065532,40.717164],[-74.065205,40.717383],[-74.06531,40.717987],[-74.064913,40.717903],[-74.065122,40.719112],[-74.064507,40.719329],[-74.064324,40.719768],[-74.064646,40.720208],[-74.064357,40.720207],[-74.064464,40.720509],[-74.063048,40.721739],[-74.0633,40.72196],[-74.062717,40.722781],[-74.061921,40.723162],[-74.061156,40.724257],[-74.060759,40.724201],[-74.060431,40.724804],[-74.059889,40.724829],[-74.056218,40.723497],[-74.056145,40.723524],[-74.056109,40.723579],[-74.056108,40.723689],[-74.056,40.723689],[-74.056001,40.723496],[-74.054525,40.723052],[-74.056254,40.718007],[-74.056085,40.716332],[-74.054376,40.712949],[-74.054419,40.711906],[-74.054859,40.710755],[-74.055005,40.710591],[-74.054961,40.711716],[-74.057903,40.719661],[-74.057789,40.720456],[-74.056437,40.723004],[-74.056257,40.722976],[-74.0564,40.723141],[-74.057314,40.721443],[-74.057386,40.721498],[-74.057862,40.720429],[-74.05797,40.720375],[-74.057975,40.719661],[-74.055921,40.713806],[-74.056104,40.713423],[-74.055639,40.712817],[-74.055677,40.712543],[-74.055929,40.712653],[-74.056219,40.712435],[-74.056112,40.71227],[-74.055715,40.712351],[-74.05597,40.711912],[-74.055756,40.7115],[-74.055972,40.711583],[-74.056117,40.711529],[-74.055687,40.711088],[-74.055685,40.71139],[-74.05518,40.711305],[-74.055367,40.710373],[-74.056781,40.70928],[-74.058084,40.708599],[-74.059892,40.708029],[-74.060471,40.707702],[-74.060364,40.707565],[-74.060762,40.707292],[-74.063765,40.705848],[-74.06547,40.704482],[-74.065363,40.70429],[-74.066124,40.703689],[-74.067749,40.703365],[-74.069883,40.702467],[-74.07032,40.701838],[-74.06917,40.701174],[-74.069136,40.700818],[-74.071561,40.699619],[-74.072789,40.699376],[-74.073043,40.699103],[-74.074958,40.698506],[-74.074778,40.698478],[-74.074815,40.698368],[-74.074418,40.698367],[-74.073118,40.698636],[-74.073842,40.698172],[-74.075179,40.697765],[-74.07685,40.695987],[-74.07624,40.695464],[-74.076387,40.69497],[-74.075738,40.695023],[-74.075879,40.695407],[-74.075556,40.695269],[-74.07613,40.69571],[-74.07569,40.696834],[-74.074933,40.696804],[-74.075587,40.696093],[-74.075082,40.696036],[-74.074683,40.696473],[-74.074358,40.696417],[-74.074649,40.696007],[-74.07321,40.695452],[-74.073537,40.695124],[-74.072816,40.695039],[-74.072746,40.694819],[-74.072312,40.69501],[-74.071807,40.694871],[-74.071918,40.694514],[-74.071093,40.693852],[-74.070434,40.695277],[-74.070146,40.695276],[-74.068512,40.697],[-74.066818,40.696856],[-74.067033,40.696994],[-74.066886,40.697405],[-74.067789,40.697299],[-74.068322,40.698399],[-74.068862,40.698703],[-74.068642,40.699196],[-74.06785,40.699001],[-74.067668,40.699192],[-74.068675,40.699663],[-74.068455,40.700156],[-74.069465,40.70027],[-74.068668,40.700733],[-74.068669,40.700541],[-74.06777,40.700126],[-74.068017,40.700951],[-74.066067,40.701355],[-74.065596,40.70171],[-74.065449,40.702094],[-74.065913,40.702809],[-74.065514,40.703274],[-74.065692,40.703522],[-74.065003,40.704206],[-74.062107,40.705787],[-74.06153,40.705757],[-74.061459,40.705565],[-74.060047,40.706356],[-74.059429,40.706985],[-74.058201,40.707254],[-74.058268,40.708051],[-74.056205,40.709058],[-74.055118,40.709878],[-74.054352,40.711028],[-74.054018,40.712564],[-74.054475,40.71424],[-74.055544,40.716303],[-74.055708,40.718746],[-74.054273,40.722968],[-74.05132,40.722188],[-74.052508,40.722577],[-74.054089,40.723489],[-74.052066,40.729191],[-74.051337,40.730286],[-74.050432,40.730722],[-74.045562,40.730593],[-74.045669,40.730758],[-74.050213,40.731188],[-74.045336,40.731937],[-74.045298,40.732157],[-74.049521,40.732118],[-74.050678,40.731793],[-74.048353,40.734063],[-74.048528,40.734914],[-74.047689,40.736174],[-74.047292,40.7362],[-74.047289,40.736666],[-74.042278,40.735795],[-74.044876,40.735833],[-74.044805,40.735668],[-74.042099,40.735657],[-74.040441,40.735376],[-74.039361,40.734933],[-74.038321,40.734078],[-74.03688,40.733715],[-74.036929,40.731821],[-74.035606,40.730114],[-74.035982,40.727947],[-74.035497,40.730141],[-74.03682,40.731958],[-74.036664,40.733577],[-74.03439,40.73365],[-74.037672,40.733938],[-74.038284,40.734187],[-74.038427,40.734408],[-74.038354,40.734545],[-74.038858,40.734656],[-74.039252,40.735152],[-74.03781,40.734872],[-74.037811,40.734789],[-74.037449,40.734925],[-74.037378,40.734678],[-74.03698,40.734841],[-74.038097,40.735175],[-74.038166,40.735559],[-74.038636,40.735506],[-74.037948,40.735751],[-74.040439,40.735651],[-74.041952,40.736074],[-74.039624,40.73643],[-74.038781,40.736295],[-74.036434,40.735584],[-74.036832,40.735362],[-74.035353,40.735263],[-74.034345,40.734962],[-74.034386,40.734336],[-74.034309,40.734952],[-74.033373,40.734673],[-74.033375,40.734332],[-74.033337,40.734662],[-74.032436,40.734394],[-74.032439,40.734082],[-74.0324,40.734383],[-74.031747,40.734189],[-74.03197,40.734052],[-74.030091,40.733695],[-74.030566,40.733735],[-74.030967,40.731276],[-74.027997,40.731011],[-74.028094,40.730228],[-74.026851,40.72951],[-74.027419,40.729492],[-74.029127,40.730468],[-74.031254,40.730755],[-74.029758,40.729759],[-74.030478,40.729769],[-74.031141,40.730229],[-74.031232,40.729473],[-74.027341,40.729073],[-74.030966,40.729341],[-74.031006,40.728998],[-74.026548,40.728601],[-74.026604,40.72819],[-74.031034,40.728575],[-74.031086,40.728036],[-74.027374,40.727716],[-74.027376,40.727515],[-74.030342,40.727781],[-74.030405,40.727036],[-74.030021,40.726476],[-74.030287,40.726135],[-74.034452,40.726238],[-74.034525,40.725771],[-74.032072,40.725567],[-74.03211,40.725235],[-74.034559,40.725585],[-74.034614,40.725286],[-74.033817,40.725209],[-74.03384,40.725007],[-74.029447,40.724567],[-74.029605,40.723812],[-74.033812,40.724127],[-74.03423,40.722149],[-74.031422,40.721896],[-74.031476,40.720258],[-74.032552,40.720129],[-74.032062,40.719669],[-74.029269,40.719356],[-74.029375,40.718921],[-74.032487,40.719279],[-74.03275,40.717386],[-74.02993,40.717066],[-74.029999,40.716713],[-74.032075,40.716919],[-74.032169,40.71639],[-74.031289,40.716292],[-74.0315,40.715724],[-74.031699,40.716164],[-74.032624,40.716228],[-74.03315,40.714155],[-74.032997,40.713831],[-74.031663,40.713565],[-74.03302,40.713729],[-74.033733,40.711677],[-74.034832,40.711793],[-74.035525,40.711406],[-74.037113,40.711659],[-74.038075,40.711106],[-74.0395,40.711082],[-74.039514,40.71038],[-74.038623,40.710148],[-74.038499,40.709581],[-74.035384,40.70908],[-74.034716,40.709167],[-74.034344,40.70887],[-74.034501,40.707679],[-74.034081,40.707627],[-74.034058,40.707141],[-74.034162,40.706652],[-74.034692,40.706696],[-74.034873,40.705751],[-74.038658,40.70608],[-74.041336,40.704785],[-74.045227,40.702193],[-74.048464,40.699254],[-74.051378,40.696016],[-74.054851,40.69064],[-74.057814,40.691965],[-74.057479,40.69281],[-74.058322,40.693287],[-74.058756,40.692501],[-74.058952,40.692563],[-74.058686,40.693452],[-74.059387,40.693881],[-74.059784,40.693079],[-74.059994,40.693121],[-74.0597,40.694059],[-74.060237,40.694409],[-74.060745,40.693614],[-74.06137,40.693886],[-74.06103,40.695033],[-74.064731,40.697091],[-74.06515,40.697088],[-74.06524,40.697678],[-74.065774,40.698034],[-74.066106,40.698135],[-74.066563,40.696832],[-74.067029,40.696369],[-74.068257,40.696866],[-74.069577,40.695732],[-74.070581,40.694436],[-74.070378,40.693824],[-74.069619,40.694049],[-74.069813,40.694365],[-74.069068,40.695173],[-74.0678,40.695391],[-74.067688,40.695217],[-74.067452,40.695555],[-74.065882,40.694626],[-74.06693,40.694008],[-74.068929,40.691697],[-74.069459,40.690723],[-74.069929,40.688696],[-74.069624,40.685822],[-74.07021,40.684684],[-74.069889,40.68445],[-74.070546,40.683946],[-74.073359,40.686049],[-74.073182,40.686206],[-74.07347,40.686778],[-74.074685,40.687589],[-74.07484,40.687935],[-74.075758,40.68829],[-74.075897,40.688661],[-74.078013,40.688601],[-74.078733,40.688949],[-74.079993,40.688906],[-74.079582,40.688726],[-74.080285,40.687995],[-74.07463,40.683866],[-74.074457,40.683971],[-74.071101,40.681665],[-74.070662,40.680639],[-74.071797,40.679744],[-74.070641,40.679209],[-74.071889,40.679629],[-74.07372,40.679817],[-74.074828,40.678352],[-74.072516,40.677158],[-74.072814,40.676909],[-74.075007,40.678078],[-74.075638,40.677405],[-74.072611,40.675807],[-74.073022,40.675347],[-74.07579,40.676812],[-74.076735,40.676002],[-74.075979,40.67691],[-74.077223,40.675599],[-74.080985,40.677371],[-74.081291,40.677066],[-74.0813,40.676473],[-74.080935,40.676073],[-74.077279,40.674274],[-74.069296,40.670879],[-74.068149,40.670712],[-74.064988,40.669224],[-74.06492,40.66853],[-74.065716,40.66704],[-74.089871,40.677148],[-74.098183,40.680856],[-74.09638,40.680932],[-74.096021,40.680601],[-74.095949,40.680601],[-74.095949,40.680629],[-74.095913,40.680629]],[[-74.095336,40.680627],[-74.0953,40.680599],[-74.0953,40.680626],[-74.095336,40.680627]],[[-74.087504,40.681779],[-74.087613,40.681725],[-74.087505,40.681724],[-74.087504,40.681779]],[[-74.080079,40.68145],[-74.080043,40.681423],[-74.080042,40.68145],[-74.080079,40.68145]],[[-74.080043,40.681423],[-74.079971,40.681395],[-74.079971,40.681423],[-74.080043,40.681423]],[[-74.079971,40.681395],[-74.079899,40.68134],[-74.079899,40.681395],[-74.079971,40.681395]],[[-74.08303,40.688159],[-74.082993,40.688186],[-74.083029,40.688186],[-74.08303,40.688159]],[[-74.08559,40.688196],[-74.085553,40.688223],[-74.08559,40.688223],[-74.08559,40.688196]],[[-74.078286,40.696926],[-74.07825,40.696953],[-74.078286,40.696953],[-74.078286,40.696926]],[[-74.084593,40.691925],[-74.084557,40.691898],[-74.084557,40.691925],[-74.084593,40.691925]],[[-74.08452,40.692007],[-74.084484,40.69198],[-74.084484,40.692007],[-74.08452,40.692007]],[[-74.083068,40.693622],[-74.082923,40.693649],[-74.082923,40.693704],[-74.083068,40.693622]],[[-74.082923,40.693759],[-74.082814,40.693758],[-74.082814,40.693813],[-74.082923,40.693759]],[[-74.082814,40.693813],[-74.082778,40.69384],[-74.082814,40.69384],[-74.082814,40.693813]],[[-74.082777,40.693895],[-74.082705,40.693868],[-74.082705,40.693922],[-74.082777,40.693895]],[[-74.082705,40.693922],[-74.082669,40.69395],[-74.082705,40.69395],[-74.082705,40.693922]],[[-74.084106,40.694778],[-74.08407,40.694751],[-74.08407,40.694778],[-74.084106,40.694778]],[[-74.083381,40.695352],[-74.083309,40.695325],[-74.083309,40.695352],[-74.083381,40.695352]],[[-74.083019,40.695598],[-74.083055,40.695571],[-74.083019,40.695571],[-74.083019,40.695598]],[[-74.082512,40.696035],[-74.08244,40.696008],[-74.082439,40.696035],[-74.082512,40.696035]],[[-74.082439,40.696172],[-74.082402,40.6962],[-74.082438,40.6962],[-74.082439,40.696172]],[[-74.065187,40.709175],[-74.06515,40.709202],[-74.065187,40.709202],[-74.065187,40.709175]],[[-74.064134,40.710159],[-74.064098,40.710132],[-74.064098,40.710159],[-74.064134,40.710159]],[[-74.064098,40.710132],[-74.064062,40.710104],[-74.064062,40.710132],[-74.064098,40.710132]],[[-74.059346,40.708631],[-74.059311,40.708604],[-74.05931,40.708631],[-74.059346,40.708631]],[[-74.057755,40.709311],[-74.057646,40.709366],[-74.057754,40.709366],[-74.057755,40.709311]],[[-74.057935,40.709395],[-74.057826,40.709449],[-74.057934,40.709449],[-74.057935,40.709395]],[[-74.057826,40.709449],[-74.057717,40.709503],[-74.057826,40.709476],[-74.057826,40.709449]],[[-74.057717,40.709503],[-74.057645,40.709558],[-74.057681,40.709558],[-74.057717,40.709503]],[[-74.060124,40.711022],[-74.060088,40.71105],[-74.060124,40.71105],[-74.060124,40.711022]],[[-74.054966,40.710975],[-74.05493,40.710948],[-74.05493,40.710975],[-74.054966,40.710975]],[[-74.056875,40.722319],[-74.056911,40.722347],[-74.056911,40.72232],[-74.056875,40.722319]],[[-74.057131,40.721854],[-74.057166,40.721881],[-74.057167,40.721854],[-74.057131,40.721854]],[[-74.057313,40.721525],[-74.057349,40.721553],[-74.057349,40.721525],[-74.057313,40.721525]],[[-74.057715,40.720786],[-74.057751,40.720813],[-74.057751,40.720786],[-74.057715,40.720786]],[[-74.057861,40.720512],[-74.057897,40.720567],[-74.057897,40.720512],[-74.057861,40.720512]],[[-74.057898,40.720429],[-74.057933,40.720484],[-74.057934,40.720429],[-74.057898,40.720429]],[[-74.056008,40.711583],[-74.056044,40.711611],[-74.056044,40.711583],[-74.056008,40.711583]],[[-74.056117,40.711556],[-74.056152,40.711584],[-74.056153,40.711556],[-74.056117,40.711556]],[[-74.060471,40.70762],[-74.060544,40.707593],[-74.060472,40.707593],[-74.060471,40.70762]],[[-74.060544,40.70762],[-74.060507,40.707675],[-74.060616,40.707621],[-74.060544,40.70762]],[[-74.065579,40.704263],[-74.065722,40.704456],[-74.065795,40.704428],[-74.065579,40.704263]],[[-74.07485,40.698423],[-74.074887,40.698396],[-74.074851,40.698396],[-74.07485,40.698423]],[[-74.038354,40.734435],[-74.038318,40.734407],[-74.038318,40.734435],[-74.038354,40.734435]],[[-74.037882,40.734845],[-74.037919,40.734817],[-74.037883,40.734817],[-74.037882,40.734845]],[[-74.036904,40.735472],[-74.037011,40.735555],[-74.037084,40.735473],[-74.036904,40.735472]],[[-74.037192,40.735501],[-74.037047,40.735582],[-74.037192,40.735583],[-74.037192,40.735501]],[[-74.09577,40.680491],[-74.095698,40.680408],[-74.095733,40.680491],[-74.09577,40.680491]]],[[[-74.060399,40.707647],[-74.060183,40.707619],[-74.060399,40.70762],[-74.060399,40.707647]]],[[[-74.060399,40.707675],[-74.060435,40.707702],[-74.060399,40.707702],[-74.060399,40.707675]]],[[[-74.058081,40.709093],[-74.058045,40.709066],[-74.058081,40.709066],[-74.058081,40.709093]]],[[[-74.058008,40.709203],[-74.05808,40.70923],[-74.058008,40.70923],[-74.058008,40.709203]]],[[[-74.056745,40.709253],[-74.056456,40.709279],[-74.056782,40.709116],[-74.056745,40.709253]]],[[[-74.055041,40.710591],[-74.055005,40.710536],[-74.055041,40.710536],[-74.055041,40.710591]]],[[[-74.057423,40.721306],[-74.057386,40.721361],[-74.057387,40.721306],[-74.057423,40.721306]]],[[[-74.056181,40.723552],[-74.056217,40.723525],[-74.056217,40.723552],[-74.056181,40.723552]]],[[[-74.055305,40.725086],[-74.055269,40.725058],[-74.055305,40.725058],[-74.055305,40.725086]]],[[[-74.055269,40.725141],[-74.055233,40.725113],[-74.055269,40.725113],[-74.055269,40.725141]]],[[[-74.054576,40.726263],[-74.054504,40.726208],[-74.054576,40.726181],[-74.054576,40.726263]]],[[[-74.054247,40.726894],[-74.054283,40.726866],[-74.054283,40.726894],[-74.054247,40.726894]]],[[[-74.055197,40.725113],[-74.055228,40.725799],[-74.054396,40.726208],[-74.054539,40.726318],[-74.054358,40.726482],[-74.054392,40.726702],[-74.054319,40.726839],[-74.054211,40.726866],[-74.054246,40.727003],[-74.054174,40.726976],[-74.054316,40.727388],[-74.054062,40.727469],[-74.053956,40.727249],[-74.053846,40.727468],[-74.054166,40.728101],[-74.053841,40.728155],[-74.05315,40.728948],[-74.052754,40.728919],[-74.052569,40.729632],[-74.051841,40.730563],[-74.052092,40.730728],[-74.052091,40.73092],[-74.052234,40.731031],[-74.052379,40.731031],[-74.052378,40.731086],[-74.052342,40.731113],[-74.052485,40.731279],[-74.052377,40.731278],[-74.05227,40.731168],[-74.051657,40.730974],[-74.051404,40.731028],[-74.052648,40.728589],[-74.054267,40.723847],[-74.054659,40.724644],[-74.054981,40.724947],[-74.05509,40.724893],[-74.055306,40.724921],[-74.055197,40.725113]],[[-74.054468,40.726153],[-74.054432,40.726126],[-74.054432,40.726153],[-74.054468,40.726153]],[[-74.054467,40.726345],[-74.054431,40.726373],[-74.054467,40.726373],[-74.054467,40.726345]],[[-74.054356,40.726702],[-74.05432,40.726674],[-74.05432,40.726702],[-74.054356,40.726702]],[[-74.05432,40.726784],[-74.054284,40.726756],[-74.054283,40.726784],[-74.05432,40.726784]],[[-74.054174,40.727031],[-74.054137,40.727085],[-74.054173,40.727085],[-74.054174,40.727031]],[[-74.052091,40.730893],[-74.052055,40.730865],[-74.052055,40.730893],[-74.052091,40.730893]],[[-74.055198,40.724921],[-74.055162,40.724948],[-74.055198,40.724948],[-74.055198,40.724921]]],[[[-74.052394,40.728753],[-74.052358,40.72878],[-74.052358,40.728753],[-74.052394,40.728753]]],[[[-74.052358,40.728808],[-74.052321,40.728917],[-74.052321,40.728808],[-74.052358,40.728808]]],[[[-74.052321,40.728917],[-74.051844,40.730123],[-74.051552,40.730561],[-74.051445,40.730341],[-74.052321,40.728917]]],[[[-74.051337,40.730396],[-74.05126,40.731027],[-74.049276,40.730937],[-74.050576,40.730805],[-74.051337,40.730396]]],[[[-74.052163,40.730893],[-74.052127,40.730921],[-74.052127,40.730893],[-74.052163,40.730893]]],[[[-74.049168,40.730909],[-74.04906,40.730881],[-74.049168,40.730882],[-74.049168,40.730909]]],[[[-74.052199,40.730921],[-74.052163,40.730948],[-74.052163,40.730921],[-74.052199,40.730921]]],[[[-74.052235,40.730948],[-74.052199,40.730976],[-74.052199,40.730948],[-74.052235,40.730948]]],[[[-74.052271,40.730976],[-74.052235,40.731003],[-74.052235,40.730976],[-74.052271,40.730976]]],[[[-74.052414,40.731114],[-74.052378,40.731086],[-74.052414,40.731086],[-74.052414,40.731114]]],[[[-74.05245,40.731141],[-74.052414,40.731169],[-74.052414,40.731141],[-74.05245,40.731141]]],[[[-74.052486,40.731196],[-74.05245,40.731196],[-74.05245,40.731169],[-74.052486,40.731169],[-74.052486,40.731196]]],[[[-74.052522,40.731224],[-74.052486,40.731196],[-74.052522,40.731197],[-74.052522,40.731224]]],[[[-74.052233,40.731223],[-74.052269,40.731196],[-74.052269,40.731223],[-74.052233,40.731223]]],[[[-74.052269,40.731223],[-74.052305,40.731251],[-74.052269,40.73125],[-74.052269,40.731223]]],[[[-74.051222,40.731274],[-74.051042,40.731246],[-74.051223,40.731246],[-74.051222,40.731274]]],[[[-74.052485,40.731306],[-74.052521,40.731279],[-74.052521,40.731306],[-74.052485,40.731306]]],[[[-74.052341,40.731278],[-74.052377,40.731306],[-74.052341,40.731306],[-74.052341,40.731278]]],[[[-74.051185,40.731411],[-74.051076,40.731548],[-74.051004,40.731547],[-74.051004,40.731493],[-74.051185,40.731411]]],[[[-74.047321,40.731917],[-74.050139,40.731379],[-74.050969,40.731383],[-74.050425,40.731792],[-74.049521,40.732008],[-74.047321,40.731917]]],[[[-74.064507,40.746971],[-74.064472,40.746944],[-74.064508,40.746944],[-74.064507,40.746971]]],[[[-74.064471,40.747108],[-74.064435,40.747026],[-74.064471,40.747026],[-74.064471,40.747108]]],[[[-74.064903,40.747165],[-74.064867,40.747137],[-74.064903,40.747137],[-74.064903,40.747165]]],[[[-74.063886,40.748259],[-74.063849,40.748259],[-74.06385,40.748231],[-74.063886,40.748232],[-74.063886,40.748259]]],[[[-74.063921,40.748287],[-74.063886,40.748259],[-74.063922,40.748259],[-74.063921,40.748287]]],[[[-74.060725,40.751376],[-74.060761,40.751349],[-74.060761,40.751377],[-74.060725,40.751376]]],[[[-74.060689,40.751376],[-74.060725,40.751404],[-74.060689,40.751404],[-74.060689,40.751376]]],[[[-74.061013,40.751405],[-74.060977,40.751432],[-74.060977,40.751405],[-74.061013,40.751405]]],[[[-74.072921,40.757736],[-74.071099,40.754764],[-74.069825,40.750724],[-74.070614,40.751551],[-74.073323,40.756886],[-74.074396,40.758427],[-74.072666,40.758911],[-74.072224,40.760123],[-74.068594,40.761976],[-74.06629,40.762818],[-74.064931,40.763763],[-74.063801,40.763669],[-74.062501,40.762673],[-74.061794,40.76242],[-74.060022,40.76255],[-74.060002,40.76341],[-74.05963,40.764001],[-74.059993,40.765701],[-74.058474,40.766757],[-74.056954,40.769011],[-74.052044,40.760841],[-74.05225,40.760951],[-74.052396,40.760705],[-74.052073,40.760484],[-74.051896,40.760593],[-74.051894,40.760291],[-74.053713,40.758212],[-74.053859,40.757993],[-74.053824,40.757828],[-74.053898,40.757526],[-74.054188,40.757281],[-74.054369,40.757199],[-74.054513,40.757227],[-74.054586,40.757145],[-74.054551,40.757007],[-74.054842,40.756652],[-74.055531,40.756188],[-74.055424,40.756077],[-74.055714,40.755832],[-74.05532,40.755336],[-74.055468,40.75487],[-74.057435,40.752215],[-74.058379,40.751367],[-74.058667,40.751451],[-74.059139,40.751041],[-74.059933,40.751099],[-74.060155,40.750249],[-74.060768,40.750333],[-74.060842,40.749977],[-74.059903,40.750028],[-74.05998,40.749397],[-74.060595,40.749125],[-74.060846,40.749483],[-74.061505,40.747948],[-74.062085,40.747676],[-74.062914,40.747816],[-74.062872,40.748694],[-74.062546,40.74883],[-74.063232,40.748778],[-74.064475,40.74645],[-74.064069,40.747793],[-74.06447,40.747246],[-74.064653,40.74678],[-74.064761,40.746917],[-74.06403,40.748205],[-74.063886,40.748204],[-74.063958,40.748177],[-74.063923,40.748095],[-74.063995,40.74804],[-74.063923,40.748012],[-74.063558,40.748615],[-74.061961,40.750063],[-74.06185,40.75042],[-74.061488,40.750556],[-74.060797,40.751349],[-74.060725,40.751321],[-74.060689,40.751376],[-74.060653,40.751376],[-74.059997,40.752197],[-74.061594,40.750995],[-74.06185,40.750502],[-74.062066,40.750531],[-74.063918,40.748753],[-74.064759,40.747109],[-74.064868,40.747055],[-74.064831,40.74711],[-74.064867,40.74722],[-74.065047,40.747193],[-74.065012,40.747028],[-74.065342,40.746288],[-74.065998,40.74533],[-74.066829,40.745196],[-74.06705,40.744483],[-74.066476,40.743904],[-74.066622,40.74374],[-74.06691,40.743906],[-74.066876,40.743439],[-74.066982,40.743824],[-74.067127,40.743742],[-74.067627,40.74454],[-74.067589,40.744897],[-74.067769,40.74498],[-74.069288,40.750091],[-74.068963,40.750117],[-74.068535,40.749292],[-74.06814,40.749016],[-74.068746,40.750116],[-74.067877,40.750552],[-74.067837,40.751211],[-74.069523,40.752809],[-74.070094,40.753827],[-74.070203,40.753718],[-74.070204,40.753608],[-74.070027,40.753004],[-74.070135,40.753004],[-74.071558,40.756276],[-74.072238,40.757266],[-74.072632,40.757652],[-74.072777,40.757598],[-74.072921,40.757736]],[[-74.069684,40.761402],[-74.069649,40.761319],[-74.069648,40.761402],[-74.069684,40.761402]],[[-74.053859,40.757938],[-74.053895,40.757883],[-74.053859,40.757883],[-74.053859,40.757938]],[[-74.054477,40.757227],[-74.054441,40.757254],[-74.054477,40.757254],[-74.054477,40.757227]],[[-74.054441,40.757254],[-74.054405,40.757281],[-74.054441,40.757281],[-74.054441,40.757254]],[[-74.054405,40.757281],[-74.054368,40.757309],[-74.054405,40.757309],[-74.054405,40.757281]],[[-74.054587,40.75709],[-74.054623,40.757063],[-74.054587,40.757062],[-74.054587,40.75709]],[[-74.054623,40.757063],[-74.054659,40.757035],[-74.054623,40.757035],[-74.054623,40.757063]],[[-74.055495,40.756133],[-74.055532,40.756105],[-74.055496,40.756105],[-74.055495,40.756133]],[[-74.062697,40.747898],[-74.06266,40.747952],[-74.062696,40.747953],[-74.062697,40.747898]],[[-74.063959,40.748095],[-74.063995,40.748122],[-74.063995,40.748095],[-74.063959,40.748095]],[[-74.059997,40.752197],[-74.059961,40.752224],[-74.059997,40.752225],[-74.059997,40.752197]],[[-74.059961,40.752279],[-74.059853,40.752279],[-74.059852,40.752306],[-74.059961,40.752279]],[[-74.061013,40.75146],[-74.061049,40.751515],[-74.061049,40.75146],[-74.061013,40.75146]],[[-74.064028,40.748616],[-74.064063,40.748644],[-74.064064,40.748617],[-74.064028,40.748616]],[[-74.065048,40.747138],[-74.065084,40.747111],[-74.065048,40.747111],[-74.065048,40.747138]],[[-74.067127,40.743824],[-74.06709,40.743852],[-74.067126,40.743852],[-74.067127,40.743824]],[[-74.067162,40.743934],[-74.067126,40.743962],[-74.067162,40.743962],[-74.067162,40.743934]],[[-74.067661,40.744979],[-74.067696,40.745007],[-74.067697,40.744979],[-74.067661,40.744979]],[[-74.07274,40.757708],[-74.072668,40.75768],[-74.072668,40.757707],[-74.07274,40.757708]],[[-74.072921,40.757736],[-74.072956,40.757763],[-74.072957,40.757736],[-74.072921,40.757736]],[[-74.072956,40.757763],[-74.072992,40.757791],[-74.072993,40.757763],[-74.072956,40.757763]]],[[[-74.055351,40.75616],[-74.055423,40.756215],[-74.05535,40.756242],[-74.055351,40.75616]]],[[[-74.054478,40.757172],[-74.05455,40.75709],[-74.054514,40.757172],[-74.054478,40.757172]]],[[[-74.05375,40.758047],[-74.053714,40.758075],[-74.053714,40.758047],[-74.05375,40.758047]]],[[[-74.052035,40.760824],[-74.052028,40.760813],[-74.052035,40.760813],[-74.052035,40.760824]]],[[[-74.038462,40.734518],[-74.038426,40.734462],[-74.038462,40.734463],[-74.038462,40.734518]]],[[[-74.03893,40.734657],[-74.038894,40.734629],[-74.03893,40.734629],[-74.03893,40.734657]]],[[[-74.037629,40.734953],[-74.037701,40.734926],[-74.037701,40.734954],[-74.037629,40.734953]]],[[[-74.038853,40.735343],[-74.038745,40.735342],[-74.038745,40.735315],[-74.038854,40.735315],[-74.038853,40.735343]]],[[[-74.035678,40.735302],[-74.035606,40.73533],[-74.035606,40.735302],[-74.035678,40.735302]]],[[[-74.038961,40.73537],[-74.038853,40.735343],[-74.038962,40.735343],[-74.038961,40.73537]]],[[[-74.038853,40.735425],[-74.038781,40.735425],[-74.038781,40.735397],[-74.038853,40.735398],[-74.038853,40.735425]]],[[[-74.035894,40.735413],[-74.036038,40.735466],[-74.035671,40.735357],[-74.035894,40.735413]]],[[[-74.038925,40.735453],[-74.038853,40.735425],[-74.038925,40.735425],[-74.038925,40.735453]]],[[[-74.038816,40.735507],[-74.038636,40.735479],[-74.038853,40.735452],[-74.038816,40.735507]]],[[[-74.038852,40.735507],[-74.038925,40.73548],[-74.038924,40.735508],[-74.038852,40.735507]]],[[[-74.040476,40.735569],[-74.04044,40.735541],[-74.040476,40.735541],[-74.040476,40.735569]]],[[[-74.038707,40.735617],[-74.038888,40.735562],[-74.038888,40.73559],[-74.038707,40.735617]]],[[[-74.045125,40.736493],[-74.045269,40.736466],[-74.045269,40.736494],[-74.045125,40.736493]]],[[[-74.045305,40.736494],[-74.045269,40.736521],[-74.045269,40.736494],[-74.045305,40.736494]]],[[[-74.04516,40.736658],[-74.045736,40.736852],[-74.045914,40.73721],[-74.045508,40.738498],[-74.045218,40.738689],[-74.04514,40.739513],[-74.044707,40.739566],[-74.044559,40.740087],[-74.043508,40.740686],[-74.042405,40.743619],[-74.042332,40.743729],[-74.042224,40.743673],[-74.042259,40.743866],[-74.042186,40.743975],[-74.042078,40.743947],[-74.04204,40.744222],[-74.041968,40.744194],[-74.041896,40.744276],[-74.041858,40.744413],[-74.041749,40.744522],[-74.041749,40.744577],[-74.041713,40.744577],[-74.041713,40.744632],[-74.04164,40.744659],[-74.041494,40.744933],[-74.04124,40.745152],[-74.041056,40.745673],[-74.040656,40.746055],[-74.040548,40.746],[-74.040185,40.746355],[-74.040148,40.746465],[-74.040112,40.74652],[-74.040075,40.74652],[-74.040111,40.746602],[-74.039162,40.74819],[-74.038907,40.748409],[-74.038942,40.748574],[-74.038762,40.748628],[-74.038652,40.748792],[-74.038103,40.749943],[-74.038138,40.750026],[-74.038066,40.750108],[-74.038101,40.750218],[-74.03792,40.750272],[-74.037847,40.750359],[-74.039603,40.746747],[-74.041619,40.744285],[-74.041521,40.743999],[-74.042208,40.742804],[-74.042169,40.741354],[-74.043516,40.740349],[-74.043782,40.739857],[-74.043922,40.739012],[-74.04352,40.738505],[-74.043911,40.73754],[-74.042837,40.736505],[-74.042817,40.736182],[-74.04516,40.736658]],[[-74.042261,40.743674],[-74.042297,40.743646],[-74.042261,40.743646],[-74.042261,40.743674]],[[-74.042224,40.743756],[-74.042187,40.74381],[-74.042224,40.743811],[-74.042224,40.743756]],[[-74.042187,40.743893],[-74.042151,40.743865],[-74.042151,40.743893],[-74.042187,40.743893]],[[-74.042151,40.743893],[-74.042115,40.74392],[-74.042151,40.74392],[-74.042151,40.743893]],[[-74.042041,40.744167],[-74.042005,40.744139],[-74.042005,40.744167],[-74.042041,40.744167]],[[-74.040657,40.745973],[-74.040621,40.74589],[-74.040621,40.745973],[-74.040657,40.745973]],[[-74.040039,40.746629],[-74.040003,40.746602],[-74.040003,40.746629],[-74.040039,40.746629]],[[-74.038102,40.750025],[-74.038066,40.749998],[-74.038066,40.750025],[-74.038102,40.750025]],[[-74.038065,40.750217],[-74.038029,40.75019],[-74.038029,40.750217],[-74.038065,40.750217]],[[-74.045267,40.736741],[-74.045231,40.736768],[-74.045267,40.736768],[-74.045267,40.736741]]],[[[-74.042077,40.744057],[-74.042114,40.74403],[-74.042114,40.744057],[-74.042077,40.744057]]],[[[-74.041968,40.744276],[-74.042004,40.744249],[-74.042004,40.744276],[-74.041968,40.744276]]],[[[-74.041858,40.744441],[-74.041895,40.744413],[-74.041894,40.744441],[-74.041858,40.744441]]],[[[-74.041822,40.744495],[-74.041858,40.744468],[-74.041858,40.744495],[-74.041822,40.744495]]],[[[-74.041785,40.74455],[-74.041822,40.744523],[-74.041821,40.74455],[-74.041785,40.74455]]],[[[-74.041785,40.744605],[-74.041749,40.744577],[-74.041785,40.744577],[-74.041785,40.744605]]],[[[-74.041712,40.74466],[-74.041749,40.744632],[-74.041749,40.74466],[-74.041712,40.74466]]],[[[-74.041567,40.744851],[-74.041603,40.744824],[-74.041603,40.744851],[-74.041567,40.744851]]],[[[-74.04153,40.744906],[-74.041567,40.744879],[-74.041566,40.744906],[-74.04153,40.744906]]],[[[-74.041494,40.744961],[-74.04153,40.744933],[-74.04153,40.744961],[-74.041494,40.744961]]],[[[-74.041385,40.745097],[-74.041421,40.74507],[-74.041421,40.745098],[-74.041385,40.745097]]],[[[-74.040548,40.746082],[-74.040584,40.746055],[-74.040584,40.746082],[-74.040548,40.746082]]],[[[-74.039969,40.7463],[-74.039943,40.7463],[-74.039969,40.746266],[-74.039969,40.7463]]],[[[-74.040257,40.746383],[-74.040293,40.746356],[-74.040293,40.746383],[-74.040257,40.746383]]],[[[-74.040148,40.746492],[-74.040184,40.746465],[-74.040184,40.746493],[-74.040148,40.746492]]],[[[-74.040147,40.746547],[-74.040112,40.74652],[-74.040148,40.74652],[-74.040147,40.746547]]],[[[-74.038943,40.748492],[-74.038979,40.748464],[-74.039015,40.748492],[-74.038943,40.748492]]],[[[-74.038834,40.748656],[-74.03887,40.748628],[-74.03887,40.748656],[-74.038834,40.748656]]],[[[-74.038544,40.748765],[-74.038544,40.748819],[-74.038514,40.748819],[-74.038544,40.748765]]],[[[-74.038687,40.748957],[-74.038723,40.74893],[-74.038723,40.748957],[-74.038687,40.748957]]],[[[-74.038541,40.749259],[-74.038577,40.749231],[-74.038577,40.749259],[-74.038541,40.749259]]],[[[-74.038321,40.749669],[-74.038393,40.749725],[-74.038321,40.749724],[-74.038321,40.749669]]],[[[-74.038248,40.749861],[-74.038284,40.749834],[-74.038284,40.749861],[-74.038248,40.749861]]],[[[-74.038211,40.749943],[-74.038247,40.749916],[-74.038247,40.749944],[-74.038211,40.749943]]],[[[-74.038101,40.750135],[-74.038138,40.750108],[-74.038138,40.750135],[-74.038101,40.750135]]],[[[-74.037992,40.750299],[-74.038028,40.750272],[-74.038028,40.7503],[-74.037992,40.750299]]],[[[-74.037883,40.750354],[-74.03792,40.750327],[-74.037919,40.750354],[-74.037883,40.750354]]]]}}]}