{"type":"FeatureCollection","features":[{"type":"Feature","properties":{"level_ft":20},"geometry":{"type":"MultiPolygon","coordinates":[[[[-74.08979,40.685438],[-74.089826,40.685411],[-74.089826,40.685438],[-74.08979,40.685438]]],[[[-74.089754,40.685466],[-74.08979,40.685438],[-74.08979,40.685466],[-74.089754,40.685466]]],[[[-74.090042,40.685521],[-74.090005,40.685549],[-74.090006,40.685521],[-74.090042,40.685521]]],[[[-74.09033,40.685605],[-74.090402,40.685633],[-74.090329,40.685632],[-74.09033,40.685605]]],[[[-74.090257,40.685605],[-74.090293,40.685632],[-74.090257,40.685632],[-74.090257,40.685605]]],[[[-74.090149,40.685632],[-74.090113,40.685659],[-74.090113,40.685632],[-74.090149,40.685632]]],[[[-74.096242,40.6859],[-74.095737,40.685816],[-74.096279,40.685736],[-74.096242,40.6859]]],[[[-74.094867,40.686691],[-74.094364,40.686333],[-74.09469,40.686059],[-74.096132,40.686147],[-74.096057,40.686586],[-74.095663,40.686228],[-74.095444,40.686584],[-74.095374,40.686281],[-74.094867,40.686691]]],[[[-74.094218,40.686579],[-74.094182,40.686607],[-74.094182,40.686579],[-74.094218,40.686579]]],[[[-74.094326,40.686662],[-74.094181,40.686689],[-74.094218,40.686607],[-74.094326,40.686662]]],[[[-74.094361,40.686745],[-74.094433,40.686772],[-74.094361,40.686772],[-74.094361,40.686745]]],[[[-74.094433,40.686772],[-74.094469,40.6868],[-74.094433,40.6868],[-74.094433,40.686772]]],[[[-74.094217,40.686799],[-74.094181,40.686771],[-74.094217,40.686771],[-74.094217,40.686799]]],[[[-74.094541,40.6868],[-74.094469,40.686827],[-74.094469,40.6868],[-74.094541,40.6868]]],[[[-74.098725,40.68676],[-74.098976,40.686953],[-74.098724,40.686815],[-74.098725,40.68676]]],[[[-74.094,40.686881],[-74.094073,40.686798],[-74.094144,40.686908],[-74.094,40.686881]]],[[[-74.094432,40.687019],[-74.09418,40.686936],[-74.09418,40.686909],[-74.094432,40.687019]]],[[[-74.093747,40.686962],[-74.093711,40.686989],[-74.093711,40.686962],[-74.093747,40.686962]]],[[[-74.093675,40.686989],[-74.093711,40.687017],[-74.093675,40.687017],[-74.093675,40.686989]]],[[[-74.093639,40.687017],[-74.093674,40.687044],[-74.093638,40.687044],[-74.093639,40.687017]]],[[[-74.090286,40.686867],[-74.089779,40.68714],[-74.089635,40.68714],[-74.089708,40.686948],[-74.090286,40.686867]]],[[[-74.093602,40.687071],[-74.093638,40.687044],[-74.093638,40.687071],[-74.093602,40.687071]]],[[[-74.099439,40.687915],[-74.097853,40.6878],[-74.098507,40.687006],[-74.099439,40.687915]]],[[[-74.098069,40.68791],[-74.09778,40.687964],[-74.097744,40.687909],[-74.098069,40.68791]]],[[[-74.097708,40.687992],[-74.09778,40.688019],[-74.097707,40.688019],[-74.097708,40.687992]]],[[[-74.097995,40.688102],[-74.09778,40.688019],[-74.097996,40.688047],[-74.097995,40.688102]]],[[[-74.097598,40.688293],[-74.097596,40.688485],[-74.097453,40.688375],[-74.097598,40.688293]]],[[[-74.101166,40.688588],[-74.101175,40.688607],[-74.101166,40.688607],[-74.101166,40.688588]]],[[[-74.097559,40.68865],[-74.097271,40.688621],[-74.097272,40.688484],[-74.097559,40.68865]]],[[[-74.10091,40.689238],[-74.099687,40.688602],[-74.099616,40.688465],[-74.100732,40.688798],[-74.10091,40.689238]]],[[[-74.10091,40.689101],[-74.100874,40.689128],[-74.100874,40.689101],[-74.10091,40.689101]]],[[[-74.099433,40.688986],[-74.100296,40.689291],[-74.10087,40.689842],[-74.099861,40.689646],[-74.099216,40.689067],[-74.099433,40.688986]],[[-74.099252,40.689067],[-74.099288,40.689095],[-74.099288,40.689068],[-74.099252,40.689067]],[[-74.099288,40.689095],[-74.099324,40.689123],[-74.099324,40.689095],[-74.099288,40.689095]]],[[[-74.090196,40.689777],[-74.090124,40.689749],[-74.090305,40.689695],[-74.090196,40.689777]]],[[[-74.099283,40.689946],[-74.099104,40.689643],[-74.099573,40.68959],[-74.100255,40.690141],[-74.099283,40.689946]]],[[[-74.090087,40.689941],[-74.089906,40.689968],[-74.090087,40.689886],[-74.090087,40.689941]]],[[[-74.101401,40.691439],[-74.100505,40.690499],[-74.100507,40.690307],[-74.101991,40.690889],[-74.101401,40.691439]]],[[[-74.101355,40.693165],[-74.101391,40.693192],[-74.101355,40.693192],[-74.101355,40.693165]]],[[[-74.101427,40.69322],[-74.101391,40.693192],[-74.101427,40.693193],[-74.101427,40.69322]]],[[[-74.101247,40.693192],[-74.101785,40.693606],[-74.101567,40.693934],[-74.102438,40.694569],[-74.102852,40.695432],[-74.114232,40.700952],[-74.114309,40.704609],[-74.116408,40.709735],[-74.113869,40.712314],[-74.110167,40.715375],[-74.10747,40.717075],[-74.102976,40.71933],[-74.10177,40.720231],[-74.100089,40.722867],[-74.099011,40.727277],[-74.095495,40.725893],[-74.095422,40.725975],[-74.09535,40.726002],[-74.09614,40.726554],[-74.098962,40.727552],[-74.097897,40.73072],[-74.095303,40.735005],[-74.089951,40.735508],[-74.089845,40.735233],[-74.089448,40.735149],[-74.089229,40.735615],[-74.08717,40.735992],[-74.086232,40.735879],[-74.086411,40.736127],[-74.075789,40.738119],[-74.072726,40.73734],[-74.072439,40.737091],[-74.073205,40.735777],[-74.073637,40.736025],[-74.07429,40.735479],[-74.074684,40.735919],[-74.075301,40.7354],[-74.075877,40.735594],[-74.076353,40.734498],[-74.075274,40.734],[-74.074803,40.734163],[-74.074877,40.733971],[-74.074265,40.733722],[-74.074844,40.733449],[-74.074702,40.73312],[-74.073693,40.732896],[-74.073258,40.733197],[-74.073618,40.733363],[-74.073509,40.733499],[-74.072642,40.733633],[-74.072065,40.733494],[-74.07188,40.73418],[-74.071664,40.734151],[-74.071155,40.734726],[-74.070945,40.733737],[-74.07156,40.733547],[-74.071453,40.733245],[-74.071854,40.732587],[-74.071565,40.732751],[-74.071531,40.732449],[-74.072182,40.732177],[-74.072511,40.731519],[-74.073307,40.731111],[-74.07359,40.73199],[-74.073265,40.732126],[-74.073769,40.732265],[-74.073803,40.732595],[-74.074596,40.732762],[-74.075465,40.732299],[-74.076475,40.732275],[-74.077086,40.732771],[-74.077519,40.732718],[-74.078527,40.733106],[-74.078493,40.732832],[-74.078781,40.732833],[-74.079545,40.731929],[-74.080088,40.731684],[-74.080563,40.730616],[-74.079881,40.730119],[-74.0801,40.729708],[-74.079777,40.729515],[-74.080107,40.72861],[-74.079747,40.728499],[-74.079641,40.728114],[-74.079894,40.728033],[-74.080722,40.728365],[-74.081522,40.727353],[-74.081091,40.727022],[-74.081056,40.726829],[-74.081488,40.726968],[-74.081561,40.726831],[-74.080883,40.725676],[-74.081645,40.725047],[-74.08183,40.724334],[-74.082631,40.723184],[-74.083716,40.722749],[-74.083645,40.722502],[-74.083213,40.722445],[-74.082965,40.721703],[-74.08329,40.721567],[-74.083149,40.721072],[-74.083404,40.720716],[-74.084522,40.720693],[-74.08438,40.72039],[-74.084993,40.72042],[-74.084492,40.719732],[-74.08525,40.719652],[-74.085253,40.719213],[-74.085721,40.71938],[-74.085902,40.719243],[-74.085871,40.718447],[-74.086162,40.718009],[-74.086559,40.718093],[-74.086632,40.717901],[-74.08721,40.71782],[-74.087064,40.718067],[-74.087172,40.718122],[-74.087425,40.718041],[-74.087318,40.717793],[-74.088112,40.717824],[-74.088297,40.717083],[-74.088658,40.717002],[-74.088299,40.716781],[-74.088588,40.716672],[-74.088558,40.715629],[-74.088127,40.715326],[-74.088201,40.715134],[-74.087696,40.715022],[-74.087988,40.714474],[-74.087378,40.713978],[-74.087632,40.713732],[-74.088242,40.714228],[-74.088532,40.714064],[-74.088174,40.713624],[-74.088642,40.713818],[-74.089184,40.713573],[-74.088789,40.713297],[-74.088427,40.71346],[-74.088284,40.713295],[-74.088576,40.712829],[-74.089115,40.713133],[-74.089011,40.712392],[-74.088581,40.711978],[-74.089343,40.711185],[-74.088546,40.711759],[-74.088188,40.711373],[-74.089349,40.710252],[-74.089782,40.710253],[-74.090398,40.709734],[-74.090867,40.709763],[-74.09076,40.709516],[-74.09105,40.709297],[-74.091049,40.709489],[-74.09141,40.709436],[-74.091846,40.708943],[-74.092351,40.708862],[-74.092102,40.708422],[-74.09268,40.708177],[-74.092611,40.707738],[-74.093229,40.706971],[-74.094532,40.706235],[-74.094391,40.705658],[-74.095299,40.704645],[-74.095303,40.704042],[-74.0957,40.703933],[-74.095776,40.703302],[-74.09621,40.703166],[-74.096322,40.70248],[-74.096756,40.702317],[-74.09694,40.701714],[-74.098752,40.700265],[-74.098649,40.699414],[-74.099119,40.699141],[-74.099266,40.698675],[-74.099591,40.698621],[-74.099558,40.698209],[-74.100173,40.6978],[-74.100031,40.697388],[-74.10061,40.697115],[-74.10083,40.696512],[-74.101337,40.696239],[-74.101267,40.695827],[-74.101592,40.695773],[-74.101417,40.694867],[-74.100916,40.694206],[-74.100412,40.694095],[-74.100776,40.693465],[-74.101247,40.693192]],[[-74.095422,40.725947],[-74.095387,40.72592],[-74.095386,40.725947],[-74.095422,40.725947]],[[-74.07389,40.735889],[-74.073962,40.735917],[-74.073962,40.735889],[-74.07389,40.735889]],[[-74.079749,40.728115],[-74.079785,40.728142],[-74.079785,40.728115],[-74.079749,40.728115]]],[[[-74.087272,40.684386],[-74.087236,40.684413],[-74.087236,40.684386],[-74.087272,40.684386]]],[[[-74.087344,40.684414],[-74.087308,40.684441],[-74.087308,40.684414],[-74.087344,40.684414]]],[[[-74.087811,40.684635],[-74.087775,40.684662],[-74.087775,40.684635],[-74.087811,40.684635]]],[[[-74.087847,40.684663],[-74.087883,40.68469],[-74.087847,40.68469],[-74.087847,40.684663]]],[[[-74.087919,40.68469],[-74.087883,40.684718],[-74.087883,40.68469],[-74.087919,40.68469]]],[[[-74.087955,40.684718],[-74.087991,40.684746],[-74.087955,40.684745],[-74.087955,40.684718]]],[[[-74.088351,40.684912],[-74.088386,40.684939],[-74.08835,40.684939],[-74.088351,40.684912]]],[[[-74.088422,40.684967],[-74.088386,40.684939],[-74.088423,40.684939],[-74.088422,40.684967]]],[[[-74.088494,40.684994],[-74.088458,40.684967],[-74.088494,40.684967],[-74.088494,40.684994]]],[[[-74.08907,40.685189],[-74.089034,40.685216],[-74.089034,40.685188],[-74.08907,40.685189]]],[[[-74.08925,40.685244],[-74.089214,40.685271],[-74.089214,40.685244],[-74.08925,40.685244]]],[[[-74.08943,40.685355],[-74.089393,40.685382],[-74.089394,40.685354],[-74.08943,40.685355]]],[[[-74.086277,40.687841],[-74.086241,40.687814],[-74.086277,40.687814],[-74.086277,40.687841]]],[[[-74.086951,40.689683],[-74.086915,40.68971],[-74.086915,40.689683],[-74.086951,40.689683]]],[[[-74.086842,40.689737],[-74.086806,40.689765],[-74.086806,40.689737],[-74.086842,40.689737]]],[[[-74.087728,40.692376],[-74.087656,40.692321],[-74.087728,40.692293],[-74.087728,40.692376]]],[[[-74.087076,40.69284],[-74.08704,40.692813],[-74.087076,40.692813],[-74.087076,40.69284]]],[[[-74.086677,40.693113],[-74.086713,40.693086],[-74.086713,40.693113],[-74.086677,40.693113]]],[[[-74.086641,40.693141],[-74.086677,40.693113],[-74.086677,40.693141],[-74.086641,40.693141]]],[[[-74.085988,40.693687],[-74.085953,40.69366],[-74.085989,40.69366],[-74.085988,40.693687]]],[[[-74.085735,40.693878],[-74.085699,40.693851],[-74.085735,40.693851],[-74.085735,40.693878]]],[[[-74.085699,40.693906],[-74.085663,40.693878],[-74.085699,40.693878],[-74.085699,40.693906]]],[[[-74.083887,40.695299],[-74.083923,40.695272],[-74.083923,40.695299],[-74.083887,40.695299]]],[[[-74.08385,40.695327],[-74.083887,40.695299],[-74.083886,40.695327],[-74.08385,40.695327]]],[[[-74.08385,40.695354],[-74.083814,40.695326],[-74.08385,40.695327],[-74.08385,40.695354]]],[[[-74.088248,40.736627],[-74.087241,40.736102],[-74.088867,40.735806],[-74.089155,40.735972],[-74.08919,40.736164],[-74.088248,40.736627]]],[[[-74.071859,40.737446],[-74.072113,40.737337],[-74.072292,40.737448],[-74.071859,40.737446]]],[[[-74.071895,40.737501],[-74.072039,40.737584],[-74.071859,40.737583],[-74.071895,40.737501]]],[[[-74.083643,40.740234],[-74.076113,40.738203],[-74.086808,40.736183],[-74.08886,40.736932],[-74.090671,40.735867],[-74.090492,40.735565],[-74.095174,40.73517],[-74.093398,40.737015],[-74.090175,40.738579],[-74.08703,40.739535],[-74.083643,40.740234]]],[[[-74.07413,40.737866],[-74.074202,40.737894],[-74.07413,40.737894],[-74.07413,40.737866]]],[[[-74.074202,40.737894],[-74.07431,40.737922],[-74.074202,40.737921],[-74.074202,40.737894]]],[[[-74.072793,40.738191],[-74.072145,40.737996],[-74.072184,40.73753],[-74.074886,40.738253],[-74.072971,40.738603],[-74.072793,40.738191]]],[[[-74.077408,40.738839],[-74.077264,40.738866],[-74.077228,40.738811],[-74.077408,40.738839]]],[[[-74.077624,40.739005],[-74.07766,40.738977],[-74.07766,40.739005],[-74.077624,40.739005]]],[[[-74.073942,40.739073],[-74.07275,40.739234],[-74.072571,40.739068],[-74.073942,40.739073]],[[-74.07275,40.739206],[-74.072895,40.739179],[-74.072751,40.739179],[-74.07275,40.739206]]],[[[-74.082233,40.740668],[-74.080038,40.739617],[-74.077372,40.738894],[-74.079679,40.739232],[-74.083641,40.740344],[-74.082233,40.740668]],[[-74.080219,40.739453],[-74.080184,40.739398],[-74.080111,40.739398],[-74.080219,40.739453]],[[-74.080866,40.73995],[-74.080902,40.739922],[-74.080866,40.739922],[-74.080866,40.73995]]],[[[-74.077094,40.743148],[-74.070495,40.741915],[-74.070463,40.741284],[-74.070973,40.740572],[-74.07083,40.740379],[-74.071447,40.739888],[-74.071124,40.739585],[-74.073688,40.739347],[-74.075275,40.739435],[-74.07567,40.739711],[-74.075811,40.740261],[-74.075448,40.740699],[-74.074508,40.740887],[-74.07368,40.740637],[-74.074327,40.740969],[-74.075085,40.740944],[-74.075882,40.740508],[-74.076174,40.740015],[-74.076105,40.739521],[-74.075923,40.739657],[-74.075817,40.73941],[-74.074773,40.739022],[-74.072716,40.739014],[-74.072609,40.738794],[-74.075426,40.738338],[-74.076795,40.738755],[-74.076902,40.738975],[-74.080073,40.73981],[-74.081865,40.740777],[-74.07943,40.741797],[-74.077094,40.743148]]],[[[-74.06877,40.740811],[-74.068734,40.740838],[-74.068734,40.740811],[-74.06877,40.740811]]],[[[-74.070777,40.754242],[-74.070741,40.754296],[-74.070741,40.754241],[-74.070777,40.754242]]],[[[-74.06881,40.701146],[-74.068846,40.701118],[-74.068846,40.701146],[-74.06881,40.701146]]],[[[-74.058302,40.708353],[-74.058375,40.708326],[-74.058374,40.708353],[-74.058302,40.708353]]],[[[-74.058266,40.708353],[-74.058302,40.70838],[-74.058266,40.70838],[-74.058266,40.708353]]],[[[-74.058157,40.708435],[-74.058194,40.708407],[-74.058193,40.708435],[-74.058157,40.708435]]],[[[-74.058012,40.708599],[-74.057976,40.708626],[-74.057976,40.708599],[-74.058012,40.708599]]],[[[-74.097618,40.684917],[-74.097188,40.684531],[-74.096243,40.685626],[-74.095738,40.685706],[-74.098135,40.68286],[-74.095594,40.685706],[-74.095125,40.685704],[-74.095164,40.685183],[-74.095924,40.684829],[-74.097013,40.683487],[-74.09713,40.682143],[-74.097635,40.682117],[-74.097672,40.681843],[-74.098251,40.681625],[-74.097278,40.681429],[-74.0967,40.681592],[-74.096846,40.681373],[-74.096991,40.681291],[-74.096596,40.680933],[-74.096235,40.680987],[-74.096164,40.680931],[-74.095838,40.681013],[-74.096017,40.68126],[-74.095833,40.681864],[-74.094562,40.683396],[-74.093698,40.683229],[-74.093299,40.683502],[-74.091934,40.682618],[-74.091969,40.682948],[-74.092507,40.683307],[-74.092433,40.683663],[-74.091961,40.684211],[-74.091277,40.684016],[-74.091059,40.68429],[-74.087932,40.682604],[-74.086923,40.682573],[-74.086996,40.682326],[-74.085739,40.681553],[-74.083618,40.680585],[-74.0826,40.681899],[-74.082167,40.681925],[-74.082164,40.682446],[-74.084718,40.683334],[-74.084898,40.683417],[-74.084861,40.683554],[-74.085042,40.683472],[-74.086553,40.683999],[-74.0872,40.684331],[-74.087236,40.684441],[-74.087559,40.684607],[-74.087955,40.684773],[-74.088063,40.684746],[-74.088315,40.684857],[-74.088351,40.684884],[-74.088351,40.684912],[-74.088315,40.684911],[-74.088314,40.684939],[-74.088386,40.684994],[-74.088458,40.684994],[-74.088422,40.685077],[-74.088998,40.685161],[-74.088961,40.685271],[-74.089105,40.685326],[-74.090221,40.685604],[-74.089175,40.685711],[-74.089282,40.685958],[-74.088884,40.686094],[-74.088811,40.686286],[-74.087943,40.686667],[-74.08787,40.686776],[-74.088811,40.686313],[-74.089172,40.686232],[-74.089099,40.686369],[-74.086206,40.687704],[-74.086204,40.688006],[-74.087396,40.687653],[-74.088152,40.687821],[-74.086195,40.689433],[-74.080498,40.69504],[-74.079593,40.695641],[-74.079299,40.696436],[-74.081547,40.694577],[-74.086664,40.689407],[-74.089162,40.687907],[-74.08938,40.687578],[-74.090898,40.687007],[-74.089739,40.687881],[-74.087677,40.688862],[-74.086299,40.690147],[-74.086262,40.690339],[-74.085136,40.691516],[-74.087277,40.689437],[-74.087892,40.689055],[-74.088289,40.689056],[-74.088394,40.689523],[-74.087997,40.689577],[-74.087703,40.690509],[-74.08716,40.690891],[-74.087118,40.691742],[-74.087405,40.69199],[-74.090195,40.689942],[-74.090377,40.68964],[-74.09002,40.689117],[-74.090566,40.688296],[-74.091323,40.688244],[-74.09179,40.68852],[-74.093494,40.687071],[-74.093638,40.687099],[-74.093891,40.686935],[-74.094251,40.687101],[-74.090664,40.689943],[-74.089614,40.690653],[-74.088598,40.691528],[-74.088238,40.691417],[-74.088417,40.691665],[-74.084068,40.69508],[-74.0836,40.694969],[-74.083887,40.695272],[-74.082945,40.695927],[-74.083017,40.695982],[-74.083016,40.696174],[-74.082723,40.696805],[-74.082144,40.697187],[-74.082358,40.697545],[-74.079569,40.699483],[-74.07874,40.699316],[-74.07577,40.701309],[-74.075841,40.701529],[-74.075405,40.701966],[-74.07569,40.702544],[-74.074893,40.703062],[-74.074524,40.704433],[-74.073398,40.705665],[-74.073829,40.705941],[-74.073826,40.706325],[-74.073353,40.706982],[-74.073568,40.707257],[-74.073164,40.708299],[-74.072583,40.708901],[-74.072579,40.709587],[-74.071419,40.710461],[-74.068825,40.709985],[-74.070625,40.710486],[-74.071308,40.710927],[-74.070836,40.711337],[-74.070477,40.711089],[-74.069969,40.711609],[-74.069571,40.711689],[-74.067344,40.715854],[-74.066656,40.716208],[-74.066216,40.717249],[-74.066467,40.717525],[-74.065519,40.719141],[-74.065048,40.719441],[-74.063663,40.721494],[-74.063339,40.721411],[-74.063121,40.721657],[-74.063153,40.722289],[-74.061444,40.724368],[-74.061083,40.724312],[-74.060249,40.724995],[-74.057334,40.723858],[-74.056181,40.723552],[-74.056,40.723689],[-74.056073,40.723552],[-74.054525,40.723079],[-74.056254,40.718007],[-74.056085,40.716332],[-74.054445,40.713334],[-74.054381,40.712153],[-74.054786,40.710892],[-74.055114,40.710427],[-74.055033,40.711799],[-74.057585,40.718616],[-74.055143,40.711497],[-74.05544,40.710236],[-74.056165,40.709635],[-74.057831,40.70868],[-74.058048,40.708654],[-74.058229,40.708462],[-74.058194,40.70838],[-74.058374,40.708381],[-74.059641,40.707699],[-74.059785,40.707837],[-74.063767,40.705656],[-74.06616,40.703661],[-74.067713,40.703338],[-74.069992,40.702358],[-74.07032,40.701838],[-74.069206,40.701202],[-74.069455,40.701752],[-74.069236,40.702135],[-74.068224,40.702489],[-74.06801,40.702049],[-74.068773,40.701283],[-74.068882,40.701146],[-74.068919,40.700954],[-74.069825,40.700353],[-74.073261,40.698884],[-74.07037,40.699669],[-74.068595,40.700815],[-74.068454,40.700431],[-74.068094,40.70032],[-74.068235,40.700842],[-74.067945,40.701033],[-74.065958,40.701464],[-74.065521,40.702176],[-74.065949,40.702892],[-74.065003,40.704206],[-74.062577,40.705624],[-74.061166,40.70614],[-74.060767,40.706551],[-74.059212,40.707094],[-74.059137,40.707587],[-74.056205,40.709058],[-74.055118,40.709878],[-74.054279,40.71122],[-74.054051,40.713003],[-74.055544,40.716303],[-74.055782,40.718417],[-74.054273,40.722996],[-74.051356,40.722133],[-74.054089,40.723434],[-74.05214,40.729026],[-74.051337,40.730286],[-74.050432,40.730722],[-74.046391,40.730624],[-74.046462,40.730843],[-74.050213,40.731188],[-74.046094,40.731858],[-74.045949,40.732077],[-74.049521,40.732118],[-74.05046,40.731902],[-74.051113,40.731411],[-74.051257,40.731439],[-74.049006,40.733516],[-74.049112,40.733791],[-74.048342,40.735627],[-74.047799,40.735927],[-74.047651,40.736421],[-74.047327,40.736282],[-74.047324,40.736721],[-74.04354,40.736075],[-74.043359,40.736074],[-74.043467,40.736102],[-74.043467,40.73613],[-74.043287,40.736129],[-74.043358,40.736211],[-74.04307,40.736183],[-74.043682,40.736432],[-74.04397,40.736406],[-74.043934,40.736488],[-74.046132,40.736909],[-74.045584,40.73795],[-74.045907,40.738225],[-74.045326,40.738745],[-74.045176,40.739513],[-74.044341,40.740223],[-74.044264,40.740909],[-74.043792,40.741374],[-74.043179,40.741289],[-74.042478,40.743592],[-74.041164,40.745646],[-74.040547,40.74622],[-74.040403,40.746192],[-74.040402,40.746219],[-74.040366,40.746219],[-74.040366,40.746246],[-74.04033,40.746246],[-74.04033,40.746301],[-74.040257,40.746301],[-74.040257,40.746356],[-74.040185,40.746355],[-74.039015,40.748519],[-74.038869,40.748683],[-74.038725,40.748683],[-74.038725,40.748765],[-74.038688,40.74882],[-74.038759,40.748985],[-74.037991,40.750443],[-74.037956,40.750272],[-74.037729,40.75029],[-74.03858,40.748819],[-74.039603,40.746747],[-74.041619,40.744285],[-74.041521,40.743999],[-74.042208,40.742804],[-74.042169,40.741354],[-74.043516,40.740349],[-74.043782,40.739857],[-74.043922,40.739012],[-74.04352,40.738505],[-74.043911,40.73754],[-74.042837,40.736505],[-74.042927,40.735935],[-74.042818,40.736127],[-74.042792,40.735945],[-74.042313,40.735988],[-74.042333,40.736015],[-74.039624,40.73643],[-74.038781,40.736295],[-74.036434,40.735584],[-74.036832,40.735362],[-74.035389,40.735273],[-74.033373,40.734673],[-74.033374,40.734497],[-74.033337,40.734662],[-74.031747,40.734189],[-74.031934,40.734052],[-74.030091,40.733695],[-74.030566,40.733735],[-74.030967,40.731276],[-74.027997,40.731011],[-74.028094,40.730228],[-74.026851,40.72951],[-74.027419,40.729492],[-74.029127,40.730468],[-74.031254,40.730755],[-74.029758,40.729759],[-74.030478,40.729769],[-74.031141,40.730229],[-74.031232,40.729473],[-74.027341,40.729073],[-74.030966,40.729341],[-74.031006,40.728998],[-74.026548,40.728601],[-74.026607,40.728186],[-74.031034,40.728575],[-74.031086,40.728036],[-74.027349,40.727701],[-74.027376,40.727515],[-74.030342,40.727781],[-74.030405,40.727036],[-74.030021,40.726476],[-74.030287,40.726135],[-74.034452,40.726238],[-74.034525,40.725771],[-74.032064,40.725559],[-74.03211,40.725235],[-74.034559,40.725585],[-74.034614,40.725286],[-74.033817,40.725209],[-74.03384,40.725007],[-74.029447,40.724567],[-74.029605,40.723812],[-74.033812,40.724127],[-74.03423,40.722149],[-74.031422,40.721896],[-74.031476,40.720258],[-74.032552,40.720129],[-74.032062,40.719669],[-74.029269,40.719356],[-74.029375,40.718921],[-74.032487,40.719279],[-74.03275,40.717386],[-74.02993,40.717066],[-74.029999,40.716713],[-74.032075,40.716919],[-74.032169,40.71639],[-74.031289,40.716292],[-74.0315,40.715724],[-74.031699,40.716164],[-74.032624,40.716228],[-74.03315,40.714155],[-74.032997,40.713831],[-74.031663,40.713565],[-74.03302,40.713729],[-74.033733,40.711677],[-74.034832,40.711793],[-74.035525,40.711406],[-74.037307,40.711628],[-74.038007,40.711122],[-74.0395,40.711082],[-74.039514,40.71038],[-74.038623,40.710148],[-74.03854,40.709625],[-74.037985,40.709385],[-74.034716,40.709167],[-74.034282,40.708769],[-74.034501,40.707679],[-74.034081,40.707627],[-74.034158,40.706655],[-74.034692,40.706696],[-74.034873,40.705751],[-74.038567,40.70609],[-74.041336,40.704785],[-74.045227,40.702193],[-74.048464,40.699254],[-74.051378,40.696016],[-74.054851,40.69064],[-74.057814,40.691965],[-74.057479,40.69281],[-74.058322,40.693287],[-74.058756,40.692501],[-74.058952,40.692563],[-74.058686,40.693452],[-74.059387,40.693881],[-74.059784,40.693079],[-74.059994,40.693121],[-74.0597,40.694059],[-74.060237,40.694409],[-74.060745,40.693614],[-74.06137,40.693886],[-74.06103,40.695033],[-74.064731,40.697091],[-74.06515,40.697088],[-74.06524,40.697678],[-74.065774,40.698034],[-74.066106,40.698135],[-74.066563,40.696832],[-74.067029,40.696369],[-74.068257,40.696866],[-74.069577,40.695732],[-74.070581,40.694436],[-74.070378,40.693824],[-74.069619,40.694049],[-74.069813,40.694365],[-74.069068,40.695173],[-74.0678,40.695391],[-74.067688,40.695217],[-74.067452,40.695555],[-74.065882,40.694626],[-74.06693,40.694008],[-74.068929,40.691697],[-74.069459,40.690723],[-74.069929,40.688696],[-74.069624,40.685822],[-74.07021,40.684684],[-74.069889,40.68445],[-74.070537,40.68395],[-74.073359,40.686049],[-74.073182,40.686206],[-74.07347,40.686778],[-74.074685,40.687589],[-74.07484,40.687935],[-74.075758,40.68829],[-74.075897,40.688661],[-74.078013,40.688601],[-74.078733,40.688949],[-74.079999,40.688892],[-74.079582,40.688726],[-74.080285,40.687995],[-74.07463,40.683866],[-74.074457,40.683971],[-74.071101,40.681665],[-74.070662,40.680639],[-74.071797,40.679744],[-74.070641,40.679209],[-74.071889,40.679629],[-74.07372,40.679817],[-74.074828,40.678352],[-74.072516,40.677158],[-74.072814,40.676909],[-74.075007,40.678078],[-74.075638,40.677405],[-74.072611,40.675807],[-74.073022,40.675347],[-74.07579,40.676812],[-74.076735,40.676002],[-74.075979,40.67691],[-74.077223,40.675599],[-74.080985,40.677371],[-74.081291,40.677066],[-74.0813,40.676473],[-74.080935,40.676073],[-74.077279,40.674274],[-74.069296,40.670879],[-74.068149,40.670712],[-74.064988,40.669224],[-74.06492,40.66853],[-74.065716,40.66704],[-74.09813,40.680694],[-74.098242,40.680994],[-74.097895,40.680828],[-74.097678,40.680882],[-74.098283,40.681103],[-74.098837,40.682588],[-74.098531,40.683026],[-74.098878,40.682698],[-74.099823,40.685914],[-74.101148,40.688552],[-74.098331,40.686292],[-74.097544,40.685164],[-74.097726,40.684945],[-74.097618,40.684917]],[[-74.097404,40.684559],[-74.09744,40.684504],[-74.097404,40.684504],[-74.097404,40.684559]],[[-74.09744,40.684504],[-74.097477,40.684422],[-74.097441,40.684422],[-74.09744,40.684504]],[[-74.096882,40.681428],[-74.096918,40.681401],[-74.096882,40.681401],[-74.096882,40.681428]],[[-74.09638,40.68096],[-74.096344,40.680932],[-74.096344,40.680959],[-74.09638,40.68096]],[[-74.083351,40.68289],[-74.083315,40.682917],[-74.083351,40.682917],[-74.083351,40.68289]],[[-74.084754,40.683389],[-74.084718,40.683416],[-74.084754,40.683416],[-74.084754,40.683389]],[[-74.084826,40.683417],[-74.08479,40.683444],[-74.084826,40.683444],[-74.084826,40.683417]],[[-74.085042,40.6835],[-74.085006,40.683527],[-74.085042,40.683527],[-74.085042,40.6835]],[[-74.085114,40.683527],[-74.085078,40.683555],[-74.085114,40.683555],[-74.085114,40.683527]],[[-74.088063,40.684773],[-74.088027,40.684801],[-74.088063,40.684801],[-74.088063,40.684773]],[[-74.088171,40.684829],[-74.088135,40.684856],[-74.088171,40.684856],[-74.088171,40.684829]],[[-74.088243,40.684856],[-74.088207,40.684884],[-74.088243,40.684884],[-74.088243,40.684856]],[[-74.088485,40.686504],[-74.088521,40.686532],[-74.088521,40.686504],[-74.088485,40.686504]],[[-74.079228,40.696325],[-74.079192,40.696353],[-74.079228,40.696353],[-74.079228,40.696325]],[[-74.079192,40.696353],[-74.079155,40.69638],[-74.079191,40.69638],[-74.079192,40.696353]],[[-74.086226,40.690257],[-74.08619,40.690312],[-74.086226,40.690312],[-74.086226,40.690257]],[[-74.085136,40.69157],[-74.084883,40.691707],[-74.08481,40.691844],[-74.085136,40.69157]],[[-74.08481,40.691844],[-74.084774,40.691871],[-74.08481,40.691871],[-74.08481,40.691844]],[[-74.084773,40.691926],[-74.084701,40.691898],[-74.084701,40.691953],[-74.084773,40.691926]],[[-74.084701,40.691953],[-74.084665,40.691981],[-74.084701,40.691981],[-74.084701,40.691953]],[[-74.084665,40.691981],[-74.084628,40.692008],[-74.084664,40.692008],[-74.084665,40.691981]],[[-74.084628,40.692063],[-74.084556,40.692035],[-74.084556,40.69209],[-74.084628,40.692063]],[[-74.084555,40.692145],[-74.084447,40.692144],[-74.084447,40.692199],[-74.084555,40.692145]],[[-74.084447,40.692254],[-74.084338,40.692254],[-74.084338,40.692309],[-74.084447,40.692254]],[[-74.084338,40.692309],[-74.084302,40.692336],[-74.084338,40.692336],[-74.084338,40.692309]],[[-74.084301,40.692391],[-74.08423,40.692363],[-74.084229,40.692418],[-74.084301,40.692391]],[[-74.084229,40.692418],[-74.084193,40.692445],[-74.084229,40.692446],[-74.084229,40.692418]],[[-74.084193,40.6925],[-74.084121,40.692473],[-74.08412,40.692528],[-74.084193,40.6925]],[[-74.08412,40.692528],[-74.084084,40.692555],[-74.08412,40.692555],[-74.08412,40.692528]],[[-74.084084,40.69261],[-74.084012,40.692582],[-74.084011,40.692637],[-74.084084,40.69261]],[[-74.084011,40.692637],[-74.083975,40.692664],[-74.084011,40.692664],[-74.084011,40.692637]],[[-74.083975,40.692664],[-74.083939,40.692692],[-74.083975,40.692692],[-74.083975,40.692664]],[[-74.083939,40.692747],[-74.083867,40.692719],[-74.083866,40.692774],[-74.083939,40.692747]],[[-74.083866,40.692774],[-74.08383,40.692801],[-74.083866,40.692801],[-74.083866,40.692774]],[[-74.08383,40.692801],[-74.083794,40.692828],[-74.08383,40.692828],[-74.08383,40.692801]],[[-74.083794,40.692828],[-74.083757,40.692883],[-74.083794,40.692883],[-74.083794,40.692828]],[[-74.083757,40.692883],[-74.083721,40.69291],[-74.083757,40.692911],[-74.083757,40.692883]],[[-74.083721,40.692965],[-74.083649,40.692938],[-74.083649,40.692993],[-74.083721,40.692965]],[[-74.083649,40.692993],[-74.083612,40.69302],[-74.083648,40.69302],[-74.083649,40.692993]],[[-74.083612,40.69302],[-74.083576,40.693047],[-74.083612,40.693047],[-74.083612,40.69302]],[[-74.083576,40.693047],[-74.08354,40.693102],[-74.083576,40.693102],[-74.083576,40.693047]],[[-74.08354,40.693102],[-74.083503,40.693129],[-74.08354,40.693129],[-74.08354,40.693102]],[[-74.083503,40.693129],[-74.083467,40.693157],[-74.083503,40.693157],[-74.083503,40.693129]],[[-74.083467,40.693157],[-74.083431,40.693211],[-74.083467,40.693211],[-74.083467,40.693157]],[[-74.083431,40.693211],[-74.083395,40.693239],[-74.083431,40.693239],[-74.083431,40.693211]],[[-74.083395,40.693239],[-74.083358,40.693266],[-74.083394,40.693266],[-74.083395,40.693239]],[[-74.083358,40.693266],[-74.083322,40.693321],[-74.083358,40.693321],[-74.083358,40.693266]],[[-74.083322,40.693321],[-74.083286,40.693348],[-74.083322,40.693348],[-74.083322,40.693321]],[[-74.083286,40.693348],[-74.083249,40.693375],[-74.083286,40.693376],[-74.083286,40.693348]],[[-74.083249,40.693375],[-74.083213,40.693403],[-74.083249,40.693403],[-74.083249,40.693375]],[[-74.083213,40.693403],[-74.083177,40.69343],[-74.083213,40.69343],[-74.083213,40.693403]],[[-74.088,40.689138],[-74.087964,40.689192],[-74.088,40.689193],[-74.088,40.689138]],[[-74.090377,40.68964],[-74.090413,40.689613],[-74.090377,40.689613],[-74.090377,40.68964]],[[-74.090413,40.689613],[-74.090449,40.689586],[-74.090413,40.689585],[-74.090413,40.689613]],[[-74.092913,40.687673],[-74.092877,40.687755],[-74.092949,40.687755],[-74.092913,40.687673]],[[-74.090628,40.689943],[-74.090556,40.689888],[-74.090519,40.689943],[-74.090628,40.689943]],[[-74.087367,40.692429],[-74.087476,40.692293],[-74.087295,40.692429],[-74.087367,40.692429]],[[-74.083489,40.695517],[-74.083417,40.69549],[-74.083416,40.695517],[-74.083489,40.695517]],[[-74.082981,40.695982],[-74.082945,40.69601],[-74.082981,40.69601],[-74.082981,40.695982]],[[-74.082945,40.69601],[-74.082908,40.696037],[-74.082944,40.696037],[-74.082945,40.69601]],[[-74.070661,40.710595],[-74.070589,40.710568],[-74.070589,40.710595],[-74.070661,40.710595]],[[-74.057585,40.718644],[-74.0579,40.720155],[-74.056839,40.722292],[-74.05797,40.720347],[-74.057585,40.718644]],[[-74.056839,40.722292],[-74.056803,40.722347],[-74.056839,40.722347],[-74.056839,40.722292]],[[-74.056803,40.722347],[-74.056766,40.722401],[-74.056802,40.722402],[-74.056803,40.722347]],[[-74.05735,40.721415],[-74.057386,40.721471],[-74.057386,40.721416],[-74.05735,40.721415]],[[-74.057386,40.721416],[-74.057422,40.721388],[-74.057386,40.721388],[-74.057386,40.721416]],[[-74.057795,40.708735],[-74.057831,40.708763],[-74.057831,40.708735],[-74.057795,40.708735]],[[-74.059712,40.707837],[-74.059676,40.707864],[-74.059712,40.707864],[-74.059712,40.707837]],[[-74.068882,40.701146],[-74.068918,40.701174],[-74.068918,40.701146],[-74.068882,40.701146]],[[-74.068918,40.701174],[-74.068954,40.701201],[-74.068954,40.701174],[-74.068918,40.701174]],[[-74.073153,40.698801],[-74.073189,40.698774],[-74.073153,40.698774],[-74.073153,40.698801]],[[-74.046282,40.730788],[-74.046246,40.730815],[-74.046282,40.730815],[-74.046282,40.730788]],[[-74.043143,40.736046],[-74.043324,40.735992],[-74.043035,40.735963],[-74.043143,40.736046]],[[-74.043826,40.736433],[-74.043862,40.736461],[-74.043862,40.736433],[-74.043826,40.736433]],[[-74.041895,40.744413],[-74.041859,40.744358],[-74.041858,40.744413],[-74.041895,40.744413]],[[-74.041895,40.744358],[-74.041968,40.744276],[-74.041896,40.744276],[-74.041895,40.744358]],[[-74.041858,40.744468],[-74.041822,40.74444],[-74.041822,40.744468],[-74.041858,40.744468]],[[-74.041676,40.744742],[-74.04164,40.744714],[-74.04164,40.744742],[-74.041676,40.744742]],[[-74.041639,40.744797],[-74.041567,40.744769],[-74.041567,40.744796],[-74.041639,40.744797]],[[-74.041567,40.744879],[-74.041531,40.744851],[-74.04153,40.744878],[-74.041567,40.744879]],[[-74.04153,40.744933],[-74.041494,40.744906],[-74.041494,40.744933],[-74.04153,40.744933]],[[-74.041494,40.744933],[-74.041458,40.74496],[-74.041494,40.744961],[-74.041494,40.744933]],[[-74.041458,40.74496],[-74.041385,40.745043],[-74.041421,40.745043],[-74.041458,40.74496]],[[-74.040439,40.746192],[-74.040511,40.74611],[-74.040439,40.746109],[-74.040439,40.746192]],[[-74.040511,40.74611],[-74.040548,40.746082],[-74.040512,40.746082],[-74.040511,40.74611]],[[-74.038943,40.748437],[-74.038907,40.748464],[-74.038943,40.748464],[-74.038943,40.748437]],[[-74.03887,40.748628],[-74.038834,40.748601],[-74.038834,40.748628],[-74.03887,40.748628]],[[-74.038687,40.749012],[-74.038651,40.748984],[-74.038651,40.749012],[-74.038687,40.749012]],[[-74.042096,40.736042],[-74.04206,40.736014],[-74.04206,40.736042],[-74.042096,40.736042]],[[-74.09769,40.684917],[-74.097726,40.68489],[-74.09769,40.68489],[-74.09769,40.684917]]],[[[-74.056927,40.709061],[-74.056963,40.709034],[-74.056963,40.709061],[-74.056927,40.709061]]],[[[-74.056927,40.709061],[-74.056564,40.709362],[-74.056311,40.709388],[-74.056927,40.709061]]],[[[-74.056094,40.709525],[-74.056203,40.709415],[-74.056311,40.709388],[-74.056275,40.709471],[-74.056094,40.709525]]],[[[-74.056058,40.709552],[-74.056094,40.709525],[-74.056094,40.709552],[-74.056058,40.709552]]],[[[-74.05515,40.710399],[-74.055114,40.710427],[-74.055114,40.710399],[-74.05515,40.710399]]],[[[-74.054649,40.726099],[-74.054613,40.726071],[-74.054649,40.726072],[-74.054649,40.726099]]],[[[-74.054504,40.726181],[-74.054715,40.726978],[-74.054279,40.72747],[-74.053919,40.727304],[-74.053808,40.727688],[-74.054346,40.728157],[-74.053623,40.728483],[-74.052712,40.729742],[-74.052897,40.729029],[-74.052826,40.728919],[-74.051913,40.730563],[-74.052165,40.730564],[-74.052235,40.730893],[-74.052199,40.731003],[-74.052485,40.731279],[-74.052269,40.731305],[-74.051729,40.731001],[-74.051404,40.731055],[-74.052648,40.728589],[-74.054267,40.723819],[-74.054982,40.724865],[-74.055306,40.724921],[-74.055698,40.725719],[-74.055589,40.725828],[-74.055302,40.725553],[-74.055264,40.725827],[-74.054938,40.726018],[-74.054614,40.725989],[-74.054504,40.726181]],[[-74.053991,40.727332],[-74.054027,40.727304],[-74.053991,40.727304],[-74.053991,40.727332]],[[-74.052199,40.730976],[-74.052163,40.730948],[-74.052163,40.730976],[-74.052199,40.730976]],[[-74.052163,40.730948],[-74.052127,40.730921],[-74.052127,40.730948],[-74.052163,40.730948]],[[-74.052127,40.730921],[-74.052091,40.730893],[-74.052091,40.73092],[-74.052127,40.730921]],[[-74.052091,40.730893],[-74.052055,40.730865],[-74.052055,40.730893],[-74.052091,40.730893]],[[-74.052377,40.731278],[-74.052341,40.731251],[-74.052341,40.731278],[-74.052377,40.731278]],[[-74.052341,40.731251],[-74.052305,40.731223],[-74.052305,40.731251],[-74.052341,40.731251]],[[-74.052305,40.731223],[-74.052269,40.731196],[-74.052269,40.731223],[-74.052305,40.731223]],[[-74.052269,40.731196],[-74.052233,40.731168],[-74.052233,40.731195],[-74.052269,40.731196]],[[-74.05465,40.725989],[-74.054686,40.725962],[-74.05465,40.725962],[-74.05465,40.725989]]],[[[-74.062607,40.73958],[-74.062571,40.739552],[-74.062607,40.739553],[-74.062607,40.73958]]],[[[-74.062607,40.739607],[-74.062643,40.739635],[-74.062607,40.739635],[-74.062607,40.739607]]],[[[-74.062643,40.739635],[-74.062679,40.739663],[-74.062642,40.739663],[-74.062643,40.739635]]],[[[-74.062786,40.739773],[-74.06275,40.7398],[-74.06275,40.739773],[-74.062786,40.739773]]],[[[-74.063072,40.740241],[-74.062424,40.739909],[-74.062426,40.739579],[-74.063072,40.740241]]],[[[-74.062929,40.739966],[-74.062893,40.739938],[-74.062929,40.739938],[-74.062929,40.739966]]],[[[-74.063001,40.740021],[-74.062965,40.740048],[-74.062965,40.740021],[-74.063001,40.740021]]],[[[-74.063144,40.740213],[-74.06318,40.740241],[-74.063144,40.740241],[-74.063144,40.740213]]],[[[-74.063072,40.740268],[-74.063144,40.740241],[-74.063144,40.740268],[-74.063072,40.740268]]],[[[-74.062855,40.740295],[-74.062819,40.740322],[-74.062819,40.740295],[-74.062855,40.740295]]],[[[-74.062963,40.740323],[-74.062891,40.74035],[-74.062891,40.740322],[-74.062963,40.740323]]],[[[-74.068699,40.740728],[-74.068662,40.740756],[-74.068662,40.740728],[-74.068699,40.740728]]],[[[-74.063354,40.741175],[-74.063141,40.74068],[-74.062962,40.74046],[-74.06343,40.740654],[-74.063354,40.741175]]],[[[-74.068734,40.740866],[-74.068551,40.741194],[-74.068515,40.741194],[-74.068515,40.741249],[-74.068479,40.741249],[-74.068478,40.741304],[-74.068442,40.741304],[-74.068442,40.741359],[-74.068406,40.741359],[-74.068405,40.741414],[-74.068117,40.741412],[-74.068483,40.740618],[-74.068734,40.740866]],[[-74.068698,40.740866],[-74.068661,40.740893],[-74.068697,40.740893],[-74.068698,40.740866]]],[[[-74.068624,40.741112],[-74.06866,40.741085],[-74.06866,40.741113],[-74.068624,40.741112]]],[[[-74.068587,40.741167],[-74.068624,40.74114],[-74.068624,40.741167],[-74.068587,40.741167]]],[[[-74.068587,40.741222],[-74.068551,40.741194],[-74.068587,40.741195],[-74.068587,40.741222]]],[[[-74.063246,40.741202],[-74.063282,40.741175],[-74.063282,40.741202],[-74.063246,40.741202]]],[[[-74.068551,40.741277],[-74.068515,40.741249],[-74.068551,40.741249],[-74.068551,40.741277]]],[[[-74.068478,40.741331],[-74.068514,40.741304],[-74.068514,40.741332],[-74.068478,40.741331]]],[[[-74.063352,40.741559],[-74.063499,40.741148],[-74.063644,40.741066],[-74.063643,40.741176],[-74.063352,40.741559]]],[[[-74.068478,40.741386],[-74.068442,40.741359],[-74.068478,40.741359],[-74.068478,40.741386]]],[[[-74.068441,40.741441],[-74.068405,40.741414],[-74.068441,40.741414],[-74.068441,40.741441]]],[[[-74.068619,40.741799],[-74.068801,40.74169],[-74.0688,40.741772],[-74.068619,40.741799]]],[[[-74.06826,40.741578],[-74.06775,40.742235],[-74.067459,40.742673],[-74.06739,40.742096],[-74.067827,40.741549],[-74.06826,40.741578]],[[-74.067899,40.741604],[-74.067863,40.741631],[-74.067899,40.741631],[-74.067899,40.741604]]],[[[-74.074532,40.742754],[-74.076947,40.743257],[-74.075713,40.744629],[-74.075015,40.745906],[-74.074869,40.746946],[-74.075147,40.748252],[-74.076141,40.749364],[-74.076897,40.749815],[-74.078852,40.750223],[-74.077279,40.752171],[-74.075578,40.75246],[-74.075231,40.752756],[-74.075238,40.753133],[-74.076523,40.754816],[-74.0763,40.755143],[-74.075215,40.755339],[-74.074867,40.755671],[-74.075146,40.757157],[-74.0748,40.758157],[-74.072622,40.758939],[-74.072224,40.760123],[-74.068594,40.761976],[-74.06629,40.762818],[-74.064931,40.763763],[-74.063801,40.763669],[-74.062501,40.762673],[-74.061794,40.76242],[-74.060022,40.76255],[-74.060002,40.76341],[-74.05963,40.764001],[-74.059993,40.765701],[-74.058474,40.766757],[-74.056954,40.769011],[-74.052044,40.760841],[-74.05225,40.760951],[-74.052396,40.760705],[-74.051856,40.760526],[-74.052403,40.759689],[-74.052297,40.759359],[-74.051715,40.760071],[-74.051404,40.760152],[-74.050994,40.759903],[-74.051428,40.75974],[-74.051722,40.759055],[-74.053031,40.757551],[-74.054556,40.756294],[-74.054633,40.755525],[-74.055253,40.754595],[-74.057724,40.752051],[-74.057618,40.751776],[-74.058563,40.750764],[-74.059505,40.750246],[-74.060674,40.748165],[-74.062558,40.747074],[-74.062778,40.746553],[-74.063644,40.746584],[-74.063865,40.745898],[-74.063725,40.745212],[-74.063295,40.744716],[-74.063785,40.741479],[-74.064753,40.742553],[-74.06601,40.743408],[-74.067206,40.742644],[-74.067128,40.743687],[-74.067664,40.744485],[-74.069324,40.750091],[-74.068891,40.75009],[-74.068248,40.749017],[-74.068854,40.750117],[-74.06824,40.750224],[-74.067877,40.750552],[-74.067872,40.751266],[-74.0692,40.752506],[-74.069597,40.752563],[-74.068127,40.751047],[-74.068455,40.750445],[-74.06943,40.750476],[-74.070455,40.753884],[-74.070632,40.754323],[-74.070884,40.754379],[-74.069825,40.750807],[-74.069861,40.750725],[-74.072329,40.75433],[-74.070724,40.751194],[-74.069683,40.75034],[-74.069225,40.748691],[-74.070157,40.749655],[-74.070372,40.749821],[-74.070516,40.749876],[-74.070589,40.749849],[-74.069048,40.748031],[-74.06771,40.742921],[-74.067967,40.742263],[-74.0688,40.741827],[-74.073882,40.742806],[-74.074532,40.742754]],[[-74.069684,40.761402],[-74.069649,40.761319],[-74.069648,40.761402],[-74.069684,40.761402]],[[-74.063783,40.741835],[-74.063819,40.741918],[-74.063819,40.741836],[-74.063783,40.741835]],[[-74.06659,40.743081],[-74.066554,40.743136],[-74.06659,40.743136],[-74.06659,40.743081]],[[-74.07074,40.754379],[-74.070704,40.754433],[-74.07074,40.754434],[-74.07074,40.754379]],[[-74.070516,40.749876],[-74.07048,40.749903],[-74.070516,40.749903],[-74.070516,40.749876]],[[-74.074171,40.742835],[-74.074243,40.742863],[-74.074243,40.742835],[-74.074171,40.742835]]],[[[-74.052358,40.728753],[-74.052394,40.72878],[-74.052358,40.72878],[-74.052358,40.728753]]],[[[-74.052321,40.728917],[-74.052358,40.728808],[-74.052357,40.728918],[-74.052321,40.728917]]],[[[-74.052321,40.728917],[-74.05188,40.730096],[-74.05126,40.731027],[-74.049276,40.730937],[-74.050359,40.730859],[-74.051445,40.730424],[-74.052321,40.728917]],[[-74.051552,40.730561],[-74.051516,40.730534],[-74.051516,40.730561],[-74.051552,40.730561]],[[-74.051445,40.730424],[-74.051516,40.730506],[-74.051517,40.730424],[-74.051445,40.730424]]],[[[-74.049168,40.730882],[-74.04906,40.730909],[-74.04906,40.730881],[-74.049168,40.730882]]],[[[-74.052235,40.730976],[-74.052271,40.731003],[-74.052235,40.731003],[-74.052235,40.730976]]],[[[-74.052414,40.731086],[-74.052378,40.731114],[-74.052378,40.731086],[-74.052414,40.731086]]],[[[-74.052414,40.731141],[-74.05245,40.731169],[-74.052414,40.731169],[-74.052414,40.731141]]],[[[-74.052486,40.731196],[-74.05245,40.731196],[-74.05245,40.731169],[-74.052486,40.731169],[-74.052486,40.731196]]],[[[-74.052522,40.731224],[-74.052486,40.731196],[-74.052522,40.731197],[-74.052522,40.731224]]],[[[-74.051223,40.731246],[-74.051042,40.731273],[-74.051042,40.731246],[-74.051223,40.731246]]],[[[-74.052521,40.731306],[-74.052485,40.731279],[-74.052521,40.731279],[-74.052521,40.731306]]],[[[-74.051258,40.731274],[-74.05133,40.731302],[-74.051258,40.731301],[-74.051258,40.731274]]],[[[-74.052449,40.731334],[-74.052485,40.731306],[-74.052485,40.731334],[-74.052449,40.731334]]],[[[-74.052377,40.731333],[-74.052413,40.731306],[-74.052413,40.731333],[-74.052377,40.731333]]],[[[-74.047321,40.731917],[-74.050139,40.731379],[-74.050969,40.731383],[-74.050425,40.731792],[-74.049558,40.732009],[-74.047321,40.731917]]],[[[-74.035858,40.735358],[-74.036038,40.735466],[-74.035606,40.735302],[-74.035858,40.735358]]],[[[-74.043611,40.736158],[-74.043467,40.73613],[-74.043611,40.73613],[-74.043611,40.736158]]],[[[-74.043755,40.736186],[-74.043647,40.736185],[-74.043647,40.736158],[-74.043756,40.736158],[-74.043755,40.736186]]],[[[-74.043863,40.736213],[-74.043755,40.736186],[-74.043864,40.736186],[-74.043863,40.736213]]],[[[-74.043503,40.736185],[-74.043467,40.736212],[-74.043467,40.736184],[-74.043503,40.736185]]],[[[-74.0439,40.736214],[-74.044008,40.736241],[-74.043899,40.736241],[-74.0439,40.736214]]],[[[-74.04343,40.736239],[-74.043358,40.736266],[-74.043431,40.736184],[-74.04343,40.736239]]],[[[-74.043719,40.73624],[-74.043683,40.736268],[-74.043683,40.73624],[-74.043719,40.73624]]],[[[-74.043646,40.736295],[-74.04361,40.736267],[-74.043647,40.736268],[-74.043646,40.736295]]],[[[-74.043754,40.736378],[-74.04379,40.736405],[-74.043754,40.736405],[-74.043754,40.736378]]],[[[-74.044115,40.736434],[-74.044042,40.736461],[-74.044042,40.736434],[-74.044115,40.736434]]],[[[-74.045305,40.736521],[-74.045088,40.73652],[-74.045089,40.736438],[-74.045305,40.736521]]],[[[-74.044222,40.736489],[-74.044187,40.736462],[-74.044223,40.736462],[-74.044222,40.736489]]],[[[-74.045088,40.736575],[-74.045052,40.736548],[-74.045088,40.736548],[-74.045088,40.736575]]],[[[-74.04516,40.736575],[-74.045232,40.736603],[-74.04516,40.736603],[-74.04516,40.736575]]],[[[-74.040438,40.746247],[-74.040402,40.746219],[-74.040438,40.746219],[-74.040438,40.746247]]],[[[-74.040402,40.746274],[-74.040366,40.746246],[-74.040402,40.746246],[-74.040402,40.746274]]],[[[-74.040329,40.746329],[-74.040366,40.746301],[-74.040366,40.746329],[-74.040329,40.746329]]],[[[-74.040257,40.746383],[-74.040293,40.746356],[-74.040293,40.746383],[-74.040257,40.746383]]],[[[-74.038724,40.748793],[-74.038725,40.748765],[-74.038761,40.748765],[-74.03876,40.748793],[-74.038724,40.748793]]],[[[-74.038514,40.748819],[-74.038544,40.748765],[-74.038544,40.748819],[-74.038514,40.748819]]],[[[-74.038796,40.74882],[-74.03876,40.748793],[-74.038797,40.748793],[-74.038796,40.74882]]],[[[-74.037883,40.750354],[-74.03792,40.750327],[-74.037919,40.750354],[-74.037883,40.750354]]],[[[-74.052028,40.760813],[-74.052035,40.760813],[-74.052035,40.760824],[-74.052028,40.760813]]]]}}]}