{"type":"FeatureCollection","features":[{"type":"Feature","properties":{"level_ft":2},"geometry":{"type":"MultiPolygon","coordinates":[[[[-74.073397,40.672614],[-74.073536,40.672642],[-74.073572,40.672694],[-74.073397,40.672614]]],[[[-74.07358,40.672697],[-74.074867,40.673196],[-74.076628,40.674023],[-74.075304,40.67348],[-74.07358,40.672697]]],[[[-74.0767,40.674027],[-74.0767,40.674053],[-74.076635,40.674026],[-74.0767,40.674027]]],[[[-74.076702,40.674054],[-74.076844,40.674109],[-74.077024,40.67418],[-74.076968,40.674161],[-74.076702,40.674054]]],[[[-74.077095,40.674206],[-74.077058,40.674193],[-74.077096,40.674193],[-74.077095,40.674206]]],[[[-74.077167,40.67422],[-74.077167,40.674232],[-74.077135,40.67422],[-74.077167,40.67422]]],[[[-74.077239,40.674248],[-74.077239,40.674259],[-74.07721,40.674248],[-74.077239,40.674248]]],[[[-74.077347,40.674307],[-74.077339,40.674303],[-74.077347,40.674303],[-74.077347,40.674307]]],[[[-74.077419,40.674342],[-74.077397,40.674331],[-74.077419,40.674331],[-74.077419,40.674342]]],[[[-74.077491,40.674359],[-74.077491,40.674377],[-74.077454,40.674359],[-74.077491,40.674359]]],[[[-74.077527,40.674394],[-74.077511,40.674386],[-74.077527,40.674386],[-74.077527,40.674394]]],[[[-74.077599,40.674429],[-74.077568,40.674414],[-74.077599,40.674414],[-74.077599,40.674429]]],[[[-74.077671,40.674442],[-74.077671,40.674464],[-74.077625,40.674442],[-74.077671,40.674442]]],[[[-74.072814,40.676909],[-74.075007,40.678078],[-74.075638,40.677405],[-74.072611,40.675807],[-74.073022,40.675347],[-74.07579,40.676812],[-74.076735,40.676002],[-74.075979,40.67691],[-74.076149,40.676805],[-74.076263,40.676626],[-74.076999,40.675804],[-74.077246,40.675601],[-74.080985,40.677371],[-74.081337,40.676877],[-74.080995,40.676126],[-74.077682,40.674469],[-74.080798,40.675908],[-74.081839,40.676626],[-74.081294,40.677365],[-74.080969,40.677446],[-74.077195,40.675648],[-74.076177,40.676852],[-74.075924,40.676961],[-74.072977,40.67544],[-74.072723,40.675741],[-74.072866,40.675906],[-74.075669,40.677344],[-74.075669,40.677454],[-74.075378,40.677865],[-74.074652,40.678576],[-74.074614,40.678823],[-74.074252,40.679123],[-74.07413,40.679123],[-74.074828,40.678352],[-74.072516,40.677158],[-74.072814,40.676909]]],[[[-74.07407,40.679342],[-74.074107,40.67926],[-74.074286,40.679425],[-74.07407,40.679342]]],[[[-74.073962,40.679369],[-74.073898,40.679396],[-74.073962,40.679317],[-74.073962,40.679369]]],[[[-74.073882,40.679416],[-74.073889,40.679424],[-74.073875,40.679424],[-74.073882,40.679416]]],[[[-74.07383,40.679479],[-74.073853,40.67945],[-74.073853,40.679479],[-74.07383,40.679479]]],[[[-74.073817,40.679533],[-74.073775,40.679533],[-74.073817,40.679494],[-74.073817,40.679533]]],[[[-74.073853,40.679534],[-74.073816,40.679561],[-74.073817,40.679533],[-74.073853,40.679534]]],[[[-74.079302,40.684495],[-74.077613,40.68361],[-74.077796,40.683226],[-74.0774,40.683005],[-74.077511,40.682676],[-74.078265,40.683063],[-74.077902,40.683584],[-74.079302,40.684495]]],[[[-74.074069,40.679617],[-74.076184,40.681464],[-74.07755,40.682155],[-74.078918,40.682517],[-74.076902,40.681988],[-74.073562,40.679862],[-74.071868,40.679718],[-74.073596,40.680219],[-74.076254,40.681876],[-74.077331,40.682648],[-74.077039,40.683086],[-74.073592,40.680878],[-74.073841,40.6814],[-74.073229,40.681288],[-74.072252,40.681724],[-74.071534,40.681254],[-74.071207,40.681692],[-74.072321,40.6823],[-74.074402,40.683873],[-74.074511,40.683818],[-74.074727,40.683847],[-74.076522,40.685006],[-74.076593,40.685198],[-74.076556,40.685363],[-74.077095,40.685749],[-74.077599,40.685779],[-74.077633,40.686108],[-74.080326,40.687957],[-74.080216,40.688204],[-74.079781,40.688614],[-74.079924,40.688887],[-74.079582,40.688726],[-74.080285,40.687995],[-74.076469,40.68537],[-74.07463,40.683866],[-74.074457,40.683971],[-74.071101,40.681665],[-74.070662,40.680639],[-74.071797,40.679744],[-74.070641,40.679209],[-74.072032,40.679656],[-74.073664,40.67982],[-74.073889,40.679561],[-74.074069,40.679617]],[[-74.073924,40.679616],[-74.073888,40.679644],[-74.073924,40.679644],[-74.073924,40.679616]],[[-74.073924,40.679644],[-74.07396,40.679671],[-74.07396,40.679644],[-74.073924,40.679644]]],[[[-74.074701,40.687827],[-74.074709,40.687818],[-74.074713,40.687827],[-74.074701,40.687827]]],[[[-74.074737,40.687882],[-74.074746,40.687871],[-74.074761,40.687882],[-74.074737,40.687882]]],[[[-74.078802,40.689489],[-74.079558,40.689739],[-74.080352,40.689549],[-74.080712,40.68977],[-74.080099,40.689658],[-74.079444,40.690589],[-74.078758,40.690751],[-74.078616,40.690421],[-74.079159,40.690012],[-74.077539,40.689621],[-74.077901,40.689348],[-74.078622,40.689378],[-74.078624,40.689049],[-74.077292,40.688687],[-74.075886,40.688709],[-74.074773,40.68789],[-74.075758,40.68829],[-74.075906,40.688665],[-74.078013,40.688601],[-74.078733,40.688949],[-74.080104,40.688917],[-74.079814,40.689108],[-74.078841,40.68905],[-74.078802,40.689489]],[[-74.078732,40.689187],[-74.078732,40.689187],[-74.078768,40.689187],[-74.078732,40.689187]]],[[[-74.073836,40.693533],[-74.072471,40.692677],[-74.072474,40.692101],[-74.07359,40.692544],[-74.074125,40.69337],[-74.073836,40.693533]]],[[[-74.101313,40.712325],[-74.099767,40.711386],[-74.099732,40.711249],[-74.10049,40.711114],[-74.100669,40.711417],[-74.101676,40.71186],[-74.101313,40.712325]]],[[[-74.096818,40.721917],[-74.096676,40.721532],[-74.097079,40.72049],[-74.098644,40.71819],[-74.099475,40.718056],[-74.10153,40.7182],[-74.101101,40.717622],[-74.101678,40.717652],[-74.102076,40.717433],[-74.106352,40.714291],[-74.103405,40.712415],[-74.103912,40.712005],[-74.106291,40.712342],[-74.107376,40.711907],[-74.107235,40.711275],[-74.107713,40.709794],[-74.106381,40.70935],[-74.106305,40.703915],[-74.101932,40.705272],[-74.104319,40.704265],[-74.10407,40.703633],[-74.10346,40.703109],[-74.102668,40.702832],[-74.101838,40.702911],[-74.101731,40.702719],[-74.105073,40.698777],[-74.105869,40.698286],[-74.107492,40.698209],[-74.107844,40.697854],[-74.114232,40.700952],[-74.114309,40.704609],[-74.116408,40.709735],[-74.113869,40.712314],[-74.110167,40.715375],[-74.10747,40.717075],[-74.102976,40.71933],[-74.10177,40.720231],[-74.100089,40.722867],[-74.099011,40.727277],[-74.096826,40.726556],[-74.096792,40.726254],[-74.096036,40.725922],[-74.096326,40.725621],[-74.095534,40.725453],[-74.092622,40.723686],[-74.092875,40.723632],[-74.094385,40.724516],[-74.094927,40.724298],[-74.095431,40.724547],[-74.095466,40.72474],[-74.095068,40.724848],[-74.095464,40.725124],[-74.095895,40.725372],[-74.095969,40.725126],[-74.096509,40.725347],[-74.096547,40.725018],[-74.096116,40.724659],[-74.096705,40.722767],[-74.09631,40.722382],[-74.096925,40.722164],[-74.096887,40.722356],[-74.096923,40.722466],[-74.097178,40.722001],[-74.096818,40.721917]],[[-74.094421,40.724516],[-74.094457,40.724544],[-74.094457,40.724516],[-74.094421,40.724516]],[[-74.094996,40.72482],[-74.095033,40.724765],[-74.094961,40.724765],[-74.094996,40.72482]],[[-74.094961,40.724765],[-74.094925,40.724738],[-74.094924,40.724765],[-74.094961,40.724765]],[[-74.094925,40.724738],[-74.094853,40.72471],[-74.094852,40.724737],[-74.094925,40.724738]],[[-74.097178,40.722001],[-74.097215,40.721946],[-74.097179,40.721946],[-74.097178,40.722001]]],[[[-74.085391,40.726104],[-74.084998,40.725416],[-74.084242,40.725111],[-74.084174,40.724562],[-74.08338,40.724504],[-74.083419,40.724093],[-74.085006,40.724153],[-74.085683,40.725473],[-74.086477,40.725504],[-74.086438,40.725998],[-74.086002,40.726408],[-74.085391,40.726104]]],[[[-74.088235,40.727157],[-74.088816,40.726445],[-74.089038,40.725595],[-74.089471,40.725542],[-74.089721,40.726009],[-74.089071,40.726117],[-74.089105,40.726474],[-74.089713,40.7273],[-74.088592,40.727762],[-74.088235,40.727157]]],[[[-74.095303,40.735005],[-74.091721,40.735295],[-74.093676,40.734231],[-74.094192,40.732531],[-74.094735,40.732176],[-74.094522,40.731599],[-74.094993,40.731244],[-74.09485,40.731023],[-74.094275,40.730637],[-74.09359,40.73058],[-74.093523,40.729756],[-74.092875,40.729479],[-74.092374,40.728901],[-74.091111,40.728842],[-74.09104,40.728622],[-74.091402,40.728513],[-74.091041,40.72854],[-74.090461,40.728894],[-74.090705,40.73035],[-74.088794,40.730096],[-74.08869,40.729464],[-74.08959,40.729715],[-74.089735,40.729551],[-74.089557,40.729275],[-74.088799,40.729328],[-74.088729,40.728998],[-74.089639,40.727684],[-74.090326,40.727384],[-74.092745,40.727228],[-74.09332,40.727477],[-74.094764,40.72751],[-74.095704,40.727074],[-74.096498,40.727104],[-74.096645,40.726693],[-74.098949,40.727524],[-74.098495,40.729323],[-74.09737,40.731748],[-74.095303,40.735005]]],[[[-74.091649,40.735322],[-74.091578,40.735157],[-74.091686,40.735157],[-74.091649,40.735322]]],[[[-74.085544,40.736288],[-74.08162,40.734709],[-74.081333,40.734461],[-74.083675,40.735156],[-74.084934,40.735737],[-74.085544,40.736288]]],[[[-74.083643,40.740262],[-74.080761,40.739373],[-74.081846,40.738965],[-74.082494,40.739297],[-74.084011,40.739083],[-74.08788,40.737834],[-74.085901,40.736839],[-74.085579,40.736426],[-74.088531,40.737562],[-74.091501,40.735843],[-74.091467,40.735458],[-74.095174,40.73517],[-74.093398,40.737015],[-74.090175,40.738579],[-74.08703,40.739535],[-74.083643,40.740262]]],[[[-74.080796,40.739593],[-74.08076,40.739538],[-74.080796,40.739538],[-74.080796,40.739593]]],[[[-74.08112,40.739621],[-74.081084,40.739676],[-74.081012,40.739621],[-74.08112,40.739621]]],[[[-74.080976,40.739703],[-74.081841,40.739816],[-74.083641,40.740344],[-74.082233,40.740668],[-74.080938,40.739923],[-74.080796,40.739593],[-74.080976,40.739703]]],[[[-74.081865,40.740777],[-74.077094,40.743148],[-74.075687,40.742813],[-74.076304,40.742239],[-74.076882,40.742159],[-74.076775,40.741911],[-74.077608,40.741557],[-74.07779,40.741174],[-74.078766,40.740958],[-74.079564,40.740384],[-74.078879,40.740217],[-74.078773,40.739887],[-74.079277,40.740136],[-74.080433,40.739948],[-74.081865,40.740777]]],[[[-74.075664,40.752009],[-74.073433,40.75093],[-74.073332,40.749914],[-74.073692,40.749915],[-74.07376,40.750684],[-74.07527,40.751513],[-74.075919,40.751708],[-74.076713,40.751683],[-74.076607,40.751353],[-74.074345,40.749533],[-74.074383,40.749177],[-74.073775,40.748296],[-74.073643,40.746401],[-74.074004,40.74632],[-74.074045,40.745607],[-74.074409,40.745059],[-74.074194,40.744839],[-74.075286,40.743361],[-74.075035,40.743113],[-74.07583,40.743006],[-74.076947,40.743257],[-74.075151,40.745534],[-74.074869,40.746946],[-74.075017,40.747986],[-74.075707,40.748974],[-74.076586,40.749638],[-74.077145,40.749931],[-74.078852,40.750223],[-74.077279,40.752171],[-74.075842,40.752391],[-74.075664,40.752009]]],[[[-74.075343,40.751431],[-74.074588,40.750989],[-74.074844,40.750414],[-74.075888,40.750912],[-74.076497,40.7516],[-74.075343,40.751431]]],[[[-74.075807,40.752366],[-74.07577,40.752393],[-74.07577,40.752366],[-74.075807,40.752366]]],[[[-74.07521,40.752812],[-74.076523,40.754816],[-74.0763,40.755143],[-74.075215,40.755339],[-74.074894,40.75562],[-74.075146,40.757157],[-74.07465,40.758294],[-74.074045,40.756971],[-74.074335,40.75678],[-74.073977,40.756175],[-74.07358,40.756228],[-74.073293,40.75587],[-74.072366,40.754138],[-74.073014,40.75436],[-74.073378,40.753977],[-74.073992,40.753842],[-74.073961,40.753155],[-74.074649,40.752774],[-74.07465,40.752527],[-74.075589,40.752448],[-74.07521,40.752812]]],[[[-74.073927,40.758398],[-74.071422,40.754958],[-74.071246,40.754298],[-74.0715,40.754162],[-74.072148,40.754302],[-74.073394,40.757024],[-74.074254,40.758152],[-74.07418,40.758317],[-74.073927,40.758398]],[[-74.073928,40.758316],[-74.074036,40.758289],[-74.073928,40.758288],[-74.073928,40.758316]]],[[[-74.074035,40.758426],[-74.074396,40.7584],[-74.073962,40.758508],[-74.074035,40.758426]]],[[[-74.069473,40.670953],[-74.069473,40.670954],[-74.069469,40.670953],[-74.069473,40.670953]]],[[[-74.069545,40.67099],[-74.069526,40.67098],[-74.069545,40.670981],[-74.069545,40.67099]]],[[[-74.069617,40.671025],[-74.069583,40.671008],[-74.069617,40.671008],[-74.069617,40.671025]]],[[[-74.069745,40.671087],[-74.069725,40.671036],[-74.069796,40.671112],[-74.069745,40.671087]]],[[[-74.06981,40.671119],[-74.072637,40.672255],[-74.07332,40.672584],[-74.071237,40.671833],[-74.06981,40.671119]]],[[[-74.073392,40.672587],[-74.073392,40.672612],[-74.073329,40.672587],[-74.073392,40.672587]]],[[[-74.074306,40.687661],[-74.074377,40.68788],[-74.073398,40.6887],[-74.072099,40.688833],[-74.069841,40.686573],[-74.070222,40.689045],[-74.070206,40.691543],[-74.070964,40.691491],[-74.071315,40.692865],[-74.070675,40.691572],[-74.069985,40.692201],[-74.068901,40.692527],[-74.068904,40.69217],[-74.069337,40.692007],[-74.069086,40.691814],[-74.067424,40.693345],[-74.068929,40.691697],[-74.069664,40.690114],[-74.069948,40.687888],[-74.069624,40.685822],[-74.07021,40.684684],[-74.069889,40.68445],[-74.070537,40.68395],[-74.073359,40.686049],[-74.073182,40.686206],[-74.07343,40.686729],[-74.074685,40.687589],[-74.074698,40.687772],[-74.074306,40.687661]]],[[[-74.07334,40.692159],[-74.071792,40.691686],[-74.071542,40.691219],[-74.072875,40.691526],[-74.073341,40.691857],[-74.07334,40.692159]]],[[[-74.070584,40.694431],[-74.070256,40.695002],[-74.070184,40.695029],[-74.070183,40.695084],[-74.070078,40.695139],[-74.070359,40.694629],[-74.070584,40.694431]]],[[[-74.070075,40.695141],[-74.069644,40.695631],[-74.069891,40.695278],[-74.070075,40.695141]]],[[[-74.06961,40.695686],[-74.069639,40.695639],[-74.069638,40.695686],[-74.06961,40.695686]]],[[[-74.069577,40.695732],[-74.069602,40.695741],[-74.069532,40.695768],[-74.069577,40.695732]]],[[[-74.0695,40.695795],[-74.06953,40.69577],[-74.069529,40.695796],[-74.0695,40.695795]]],[[[-74.069493,40.695801],[-74.069457,40.695878],[-74.069391,40.695905],[-74.069493,40.695801]]],[[[-74.069296,40.696001],[-74.069384,40.69596],[-74.069283,40.696014],[-74.069296,40.696001]]],[[[-74.069256,40.696042],[-74.069276,40.696022],[-74.069275,40.696042],[-74.069256,40.696042]]],[[[-74.069229,40.696069],[-74.069239,40.696059],[-74.069239,40.696069],[-74.069229,40.696069]]],[[[-74.069203,40.696124],[-74.069175,40.696124],[-74.069203,40.696095],[-74.069203,40.696124]]],[[[-74.069166,40.696151],[-74.069141,40.696151],[-74.069167,40.696132],[-74.069166,40.696151]]],[[[-74.06913,40.696178],[-74.069104,40.696178],[-74.06913,40.696159],[-74.06913,40.696178]]],[[[-74.069094,40.696186],[-74.069094,40.696206],[-74.069068,40.696206],[-74.069094,40.696186]]],[[[-74.069058,40.696233],[-74.069031,40.696233],[-74.069058,40.696213],[-74.069058,40.696233]]],[[[-74.069022,40.69626],[-74.068995,40.69626],[-74.069022,40.69624],[-74.069022,40.69626]]],[[[-74.068985,40.696267],[-74.068985,40.696288],[-74.068959,40.696288],[-74.068985,40.696267]]],[[[-74.068949,40.696295],[-74.068949,40.696315],[-74.068922,40.696315],[-74.068949,40.696295]]],[[[-74.068913,40.696322],[-74.068913,40.696342],[-74.068886,40.696342],[-74.068913,40.696322]]],[[[-74.0676,40.704133],[-74.069807,40.703126],[-74.070275,40.703292],[-74.07031,40.703485],[-74.06973,40.703812],[-74.067344,40.704654],[-74.0676,40.704133]]],[[[-74.068505,40.70927],[-74.069266,40.708696],[-74.069305,40.708285],[-74.069629,40.708396],[-74.069991,40.70815],[-74.070098,40.708342],[-74.070388,40.708124],[-74.070928,40.708263],[-74.070528,40.708811],[-74.070133,40.708535],[-74.069878,40.708836],[-74.069229,40.708861],[-74.068828,40.709463],[-74.068505,40.70927]]],[[[-74.068357,40.748962],[-74.068394,40.748798],[-74.068429,40.748935],[-74.068357,40.748962]]],[[[-74.06814,40.748934],[-74.068176,40.748907],[-74.068176,40.748934],[-74.06814,40.748934]]],[[[-74.068501,40.748935],[-74.068465,40.749017],[-74.068429,40.748935],[-74.068501,40.748935]]],[[[-74.068573,40.74899],[-74.068537,40.749018],[-74.068537,40.74899],[-74.068573,40.74899]]],[[[-74.068609,40.749018],[-74.068573,40.749045],[-74.068573,40.749018],[-74.068609,40.749018]]],[[[-74.0685,40.749045],[-74.068537,40.749018],[-74.068537,40.749045],[-74.0685,40.749045]]],[[[-74.068609,40.749045],[-74.068645,40.749073],[-74.068609,40.749073],[-74.068609,40.749045]]],[[[-74.068536,40.749073],[-74.068573,40.749045],[-74.068572,40.749073],[-74.068536,40.749073]]],[[[-74.068572,40.749073],[-74.068608,40.7491],[-74.068572,40.7491],[-74.068572,40.749073]]],[[[-74.068571,40.749237],[-74.068716,40.749211],[-74.068716,40.749265],[-74.068571,40.749237]]],[[[-74.067871,40.751513],[-74.067333,40.751017],[-74.067334,40.75077],[-74.067658,40.750881],[-74.067696,40.750716],[-74.067337,40.750413],[-74.066903,40.750412],[-74.067198,40.749562],[-74.067019,40.749232],[-74.067202,40.748875],[-74.067454,40.749014],[-74.067526,40.748986],[-74.067456,40.748739],[-74.06688,40.74849],[-74.067673,40.748603],[-74.068104,40.748906],[-74.068385,40.75017],[-74.067877,40.750552],[-74.067801,40.751101],[-74.069271,40.752671],[-74.068731,40.752477],[-74.068697,40.752148],[-74.0683,40.752119],[-74.067871,40.751513]],[[-74.067779,40.748905],[-74.067743,40.74896],[-74.067887,40.74896],[-74.067779,40.748905]]],[[[-74.068958,40.750831],[-74.068988,40.751764],[-74.069489,40.752425],[-74.068198,40.751212],[-74.068347,40.750499],[-74.068564,40.750418],[-74.06849,40.750637],[-74.068958,40.750831]],[[-74.06849,40.750692],[-74.068418,40.750664],[-74.068418,40.750692],[-74.06849,40.750692]]],[[[-74.072527,40.759049],[-74.072183,40.760144],[-74.070946,40.756026],[-74.071379,40.756083],[-74.073456,40.758726],[-74.072527,40.759049]]],[[[-74.071068,40.759458],[-74.070969,40.758058],[-74.071258,40.757977],[-74.071683,40.759378],[-74.07132,40.759624],[-74.071068,40.759458]]],[[[-74.070372,40.761102],[-74.07146,40.760365],[-74.07193,40.760202],[-74.070372,40.761102]]],[[[-74.067735,40.761367],[-74.067699,40.761395],[-74.067699,40.761367],[-74.067735,40.761367]]],[[[-74.065716,40.66704],[-74.065054,40.668576],[-74.065158,40.669152],[-74.065481,40.669401],[-74.06577,40.669264],[-74.066272,40.669788],[-74.067423,40.670177],[-74.067817,40.670507],[-74.069113,40.670864],[-74.068149,40.670712],[-74.064865,40.669133],[-74.065154,40.667885],[-74.065716,40.66704]]],[[[-74.067417,40.693372],[-74.067405,40.693372],[-74.067417,40.693352],[-74.067417,40.693372]]],[[[-74.067053,40.694002],[-74.068308,40.694995],[-74.06885,40.694832],[-74.069105,40.694504],[-74.068818,40.694201],[-74.068965,40.693845],[-74.069616,40.6936],[-74.07027,40.692779],[-74.070987,40.693495],[-74.07062,40.694427],[-74.070378,40.693824],[-74.06982,40.693912],[-74.069593,40.694095],[-74.069813,40.694365],[-74.069268,40.695048],[-74.0678,40.695391],[-74.067688,40.695217],[-74.067438,40.695557],[-74.065882,40.694654],[-74.067235,40.693619],[-74.067053,40.694002]],[[-74.067053,40.694002],[-74.067016,40.694029],[-74.067052,40.694029],[-74.067053,40.694002]]],[[[-74.059516,40.693919],[-74.059263,40.693918],[-74.058724,40.693614],[-74.058618,40.693256],[-74.058221,40.693337],[-74.057431,40.692895],[-74.057689,40.691963],[-74.054921,40.690689],[-74.054191,40.691949],[-74.054818,40.690657],[-74.05494,40.69064],[-74.055911,40.691059],[-74.057814,40.691965],[-74.057479,40.69281],[-74.058322,40.693287],[-74.058756,40.692501],[-74.058952,40.692563],[-74.058686,40.693452],[-74.059387,40.693881],[-74.059784,40.693079],[-74.059994,40.693121],[-74.0597,40.694059],[-74.060237,40.694409],[-74.060745,40.693614],[-74.06137,40.693886],[-74.06103,40.695033],[-74.064731,40.697091],[-74.06515,40.697088],[-74.06524,40.697678],[-74.065774,40.698034],[-74.066106,40.698135],[-74.066563,40.696832],[-74.067029,40.696369],[-74.067972,40.696888],[-74.067037,40.696418],[-74.066601,40.696855],[-74.066124,40.698144],[-74.0658,40.698115],[-74.065045,40.697673],[-74.065049,40.697124],[-74.06476,40.697178],[-74.063753,40.696735],[-74.060914,40.695104],[-74.061173,40.694172],[-74.060959,40.693814],[-74.060706,40.693841],[-74.060377,40.694471],[-74.060161,40.69447],[-74.059586,40.694111],[-74.059661,40.693754],[-74.059516,40.693919]],[[-74.059662,40.693645],[-74.059697,40.693672],[-74.059771,40.693535],[-74.059662,40.693645]]],[[[-74.068731,40.696561],[-74.068343,40.696807],[-74.068877,40.696349],[-74.068731,40.696561]]],[[[-74.068333,40.696834],[-74.068306,40.696834],[-74.068333,40.696815],[-74.068333,40.696834]]],[[[-74.068296,40.696862],[-74.068263,40.696861],[-74.068296,40.69684],[-74.068296,40.696862]]],[[[-74.068224,40.696889],[-74.06808,40.69687],[-74.068224,40.696871],[-74.068224,40.696889]]],[[[-74.066083,40.748899],[-74.066337,40.748653],[-74.066263,40.749009],[-74.066552,40.748955],[-74.066621,40.749505],[-74.066083,40.748899]]],[[[-74.066728,40.74967],[-74.066655,40.749752],[-74.066656,40.749669],[-74.066728,40.74967]]],[[[-74.066655,40.749779],[-74.066619,40.749807],[-74.066619,40.749779],[-74.066655,40.749779]]],[[[-74.066655,40.749807],[-74.066691,40.749834],[-74.066655,40.749834],[-74.066655,40.749807]]],[[[-74.066655,40.749834],[-74.066582,40.749861],[-74.066582,40.749834],[-74.066655,40.749834]]],[[[-74.066546,40.749861],[-74.066582,40.749889],[-74.066546,40.749889],[-74.066546,40.749861]]],[[[-74.066582,40.749889],[-74.066618,40.749916],[-74.066582,40.749916],[-74.066582,40.749889]]],[[[-74.066509,40.750053],[-74.066545,40.750081],[-74.066509,40.750081],[-74.066509,40.750053]]],[[[-74.066759,40.750438],[-74.066723,40.750466],[-74.066723,40.750438],[-74.066759,40.750438]]],[[[-74.066687,40.750466],[-74.066722,40.750493],[-74.066686,40.750493],[-74.066687,40.750466]]],[[[-74.066759,40.750466],[-74.066758,40.750521],[-74.066722,40.750548],[-74.066759,40.750466]]],[[[-74.066758,40.750576],[-74.066794,40.750548],[-74.066794,40.750576],[-74.066758,40.750576]]],[[[-74.067081,40.750797],[-74.066794,40.750548],[-74.066831,40.750494],[-74.067081,40.750797]]],[[[-74.066973,40.750769],[-74.067009,40.750796],[-74.066973,40.750796],[-74.066973,40.750769]]],[[[-74.067009,40.750796],[-74.067045,40.750824],[-74.067009,40.750824],[-74.067009,40.750796]]],[[[-74.067117,40.750934],[-74.067118,40.750797],[-74.067261,40.750989],[-74.067117,40.750934]]],[[[-74.067224,40.751017],[-74.067296,40.751044],[-74.067224,40.751072],[-74.067224,40.751017]]],[[[-74.06726,40.751127],[-74.067296,40.751154],[-74.06726,40.751154],[-74.06726,40.751127]]],[[[-74.067331,40.751264],[-74.067295,40.751264],[-74.067295,40.751209],[-74.067331,40.751209],[-74.067331,40.751264]]],[[[-74.067439,40.751264],[-74.067403,40.751292],[-74.067403,40.751264],[-74.067439,40.751264]]],[[[-74.067403,40.751319],[-74.067331,40.751264],[-74.067367,40.751264],[-74.067403,40.751319]]],[[[-74.067475,40.751292],[-74.067439,40.751319],[-74.067439,40.751292],[-74.067475,40.751292]]],[[[-74.067583,40.751375],[-74.067547,40.751402],[-74.067547,40.751375],[-74.067583,40.751375]]],[[[-74.067619,40.751402],[-74.067583,40.75143],[-74.067583,40.751402],[-74.067619,40.751402]]],[[[-74.067655,40.75143],[-74.067619,40.751457],[-74.067619,40.75143],[-74.067655,40.75143]]],[[[-74.067654,40.751595],[-74.067403,40.751374],[-74.067403,40.751319],[-74.067547,40.75132],[-74.067511,40.751402],[-74.067618,40.751485],[-74.067727,40.751458],[-74.067798,40.751595],[-74.067654,40.751595]],[[-74.067762,40.75154],[-74.067726,40.751568],[-74.067762,40.751568],[-74.067762,40.75154]]],[[[-74.067834,40.75165],[-74.067798,40.751678],[-74.067798,40.75165],[-74.067834,40.75165]]],[[[-74.060856,40.753408],[-74.061357,40.754069],[-74.06114,40.754123],[-74.060637,40.753792],[-74.059877,40.753981],[-74.059078,40.754774],[-74.058565,40.755897],[-74.058204,40.755951],[-74.05784,40.756389],[-74.05719,40.756441],[-74.057192,40.756167],[-74.058682,40.754553],[-74.058971,40.754609],[-74.059192,40.753868],[-74.060752,40.752749],[-74.061625,40.751709],[-74.062276,40.751574],[-74.063237,40.753554],[-74.062841,40.753471],[-74.062987,40.753252],[-74.062166,40.751821],[-74.061004,40.752832],[-74.061509,40.752889],[-74.060856,40.753408]],[[-74.060856,40.753408],[-74.06082,40.753381],[-74.06082,40.753408],[-74.060856,40.753408]]],[[[-74.067425,40.759115],[-74.067389,40.759088],[-74.067425,40.759088],[-74.067425,40.759115]]],[[[-74.067353,40.759087],[-74.067316,40.759115],[-74.067316,40.759087],[-74.067353,40.759087]]],[[[-74.067352,40.759115],[-74.067388,40.759142],[-74.067352,40.759142],[-74.067352,40.759115]]],[[[-74.068527,40.7617],[-74.06867,40.76194],[-74.068055,40.762164],[-74.06802,40.761862],[-74.067805,40.761615],[-74.067734,40.76145],[-74.067771,40.76134],[-74.067663,40.761312],[-74.067665,40.761038],[-74.067412,40.761009],[-74.064917,40.756141],[-74.06617,40.75771],[-74.066487,40.758919],[-74.066956,40.759031],[-74.067313,40.759691],[-74.067421,40.759609],[-74.06728,40.759197],[-74.067496,40.759253],[-74.068529,40.761453],[-74.068961,40.761619],[-74.068888,40.761728],[-74.068527,40.7617]],[[-74.06777,40.76145],[-74.067807,40.761422],[-74.067771,40.761422],[-74.06777,40.76145]],[[-74.067387,40.759335],[-74.067422,40.759499],[-74.067529,40.759637],[-74.067387,40.759335]],[[-74.067529,40.759637],[-74.067601,40.759747],[-74.067566,40.759637],[-74.067529,40.759637]],[[-74.068744,40.7617],[-74.06878,40.761673],[-74.068744,40.761673],[-74.068744,40.7617]],[[-74.068672,40.761673],[-74.068599,40.761645],[-74.068599,40.761672],[-74.068672,40.761673]]],[[[-74.067242,40.759416],[-74.067278,40.759471],[-74.067242,40.759471],[-74.067242,40.759416]]],[[[-74.067313,40.759554],[-74.067278,40.759499],[-74.067314,40.759499],[-74.067313,40.759554]]],[[[-74.067313,40.759581],[-74.067349,40.759609],[-74.067313,40.759609],[-74.067313,40.759581]]],[[[-74.06629,40.762818],[-74.064545,40.763828],[-74.063897,40.763709],[-74.062501,40.762673],[-74.061626,40.762382],[-74.060022,40.76255],[-74.060002,40.76341],[-74.05963,40.764001],[-74.059993,40.765701],[-74.058474,40.766757],[-74.056927,40.768902],[-74.054572,40.764693],[-74.054825,40.764667],[-74.05661,40.767638],[-74.057225,40.767476],[-74.059185,40.765919],[-74.058257,40.764296],[-74.058805,40.763337],[-74.057653,40.762811],[-74.057943,40.762648],[-74.059095,40.763091],[-74.06255,40.759234],[-74.060102,40.758264],[-74.059517,40.759415],[-74.058755,40.759906],[-74.056863,40.762204],[-74.057691,40.762537],[-74.057653,40.762784],[-74.055962,40.762009],[-74.057127,40.760449],[-74.057926,40.75982],[-74.058619,40.758752],[-74.058477,40.758313],[-74.05975,40.756863],[-74.060693,40.756207],[-74.062024,40.756871],[-74.062676,40.756544],[-74.062896,40.756079],[-74.063508,40.7563],[-74.063728,40.75578],[-74.063261,40.755421],[-74.063659,40.755368],[-74.063732,40.755121],[-74.063343,40.753912],[-74.063703,40.754133],[-74.065022,40.756636],[-74.064912,40.756937],[-74.064697,40.756634],[-74.06448,40.756716],[-74.064188,40.757236],[-74.065272,40.757076],[-74.06602,40.758643],[-74.065447,40.757955],[-74.062665,40.758246],[-74.063161,40.759648],[-74.062252,40.760605],[-74.063261,40.760911],[-74.06362,40.761297],[-74.065455,40.76221],[-74.067369,40.762162],[-74.067516,40.761696],[-74.067983,40.762109],[-74.06629,40.762818]]],[[[-74.054155,40.691963],[-74.054118,40.692086],[-74.054049,40.692141],[-74.054155,40.691963]]],[[[-74.054046,40.692146],[-74.054045,40.692196],[-74.054016,40.692196],[-74.054046,40.692146]]],[[[-74.053984,40.69225],[-74.054009,40.692207],[-74.054009,40.69225],[-74.053984,40.69225]]],[[[-74.053972,40.692333],[-74.053902,40.692387],[-74.053973,40.692269],[-74.053972,40.692333]]],[[[-74.053899,40.692442],[-74.053869,40.692442],[-74.0539,40.692391],[-74.053899,40.692442]]],[[[-74.053863,40.692497],[-74.053835,40.692497],[-74.053863,40.692452],[-74.053863,40.692497]]],[[[-74.053826,40.692552],[-74.0538,40.692552],[-74.053827,40.69251],[-74.053826,40.692552]]],[[[-74.05379,40.692568],[-74.05379,40.692606],[-74.053766,40.692606],[-74.05379,40.692568]]],[[[-74.053754,40.692661],[-74.053731,40.692661],[-74.053754,40.692625],[-74.053754,40.692661]]],[[[-74.053697,40.692716],[-74.053717,40.692683],[-74.053717,40.692716],[-74.053697,40.692716]]],[[[-74.053681,40.692798],[-74.053645,40.692798],[-74.053681,40.692741],[-74.053681,40.692798]]],[[[-74.05361,40.692853],[-74.053644,40.692799],[-74.053644,40.692853],[-74.05361,40.692853]]],[[[-74.053576,40.692908],[-74.053608,40.692856],[-74.053608,40.692908],[-74.053576,40.692908]]],[[[-74.053572,40.692914],[-74.053571,40.692962],[-74.053541,40.692962],[-74.053572,40.692914]]],[[[-74.053535,40.693017],[-74.053506,40.693017],[-74.053535,40.692972],[-74.053535,40.693017]]],[[[-74.053483,40.693055],[-74.053499,40.693029],[-74.053498,40.693072],[-74.053483,40.693055]]],[[[-74.053462,40.693087],[-74.053462,40.693127],[-74.053437,40.693127],[-74.053462,40.693087]]],[[[-74.053401,40.693181],[-74.053426,40.693143],[-74.053426,40.693182],[-74.053401,40.693181]]],[[[-74.053366,40.693236],[-74.053389,40.6932],[-74.053389,40.693236],[-74.053366,40.693236]]],[[[-74.053353,40.693319],[-74.053296,40.693346],[-74.053353,40.693257],[-74.053353,40.693319]]],[[[-74.05328,40.693371],[-74.05328,40.693428],[-74.053208,40.693483],[-74.05328,40.693371]]],[[[-74.053207,40.693538],[-74.053173,40.693537],[-74.053207,40.693484],[-74.053207,40.693538]]],[[[-74.05317,40.693592],[-74.053138,40.693592],[-74.053171,40.693541],[-74.05317,40.693592]]],[[[-74.053132,40.693602],[-74.053134,40.693647],[-74.053101,40.693647],[-74.053132,40.693602]]],[[[-74.053063,40.693702],[-74.053098,40.693651],[-74.053097,40.693702],[-74.053063,40.693702]]],[[[-74.053026,40.693756],[-74.053061,40.693704],[-74.053061,40.693757],[-74.053026,40.693756]]],[[[-74.053025,40.693757],[-74.052879,40.69403],[-74.052819,40.694058],[-74.053025,40.693757]]],[[[-74.052806,40.694112],[-74.052782,40.694112],[-74.052806,40.694077],[-74.052806,40.694112]]],[[[-74.052744,40.694167],[-74.05277,40.69413],[-74.05277,40.694167],[-74.052744,40.694167]]],[[[-74.052707,40.694222],[-74.052734,40.694183],[-74.052733,40.694222],[-74.052707,40.694222]]],[[[-74.052697,40.694277],[-74.052683,40.694257],[-74.052697,40.694236],[-74.052697,40.694277]]],[[[-74.058209,40.706156],[-74.059367,40.70553],[-74.059726,40.705833],[-74.059688,40.706107],[-74.058638,40.706625],[-74.058209,40.706156]]],[[[-74.05466,40.713582],[-74.054588,40.713636],[-74.054588,40.713582],[-74.05466,40.713582]]],[[[-74.05408,40.713964],[-74.053686,40.713523],[-74.053975,40.713552],[-74.054086,40.71314],[-74.054476,40.714212],[-74.053862,40.71432],[-74.05408,40.713964]]],[[[-74.05484,40.71372],[-74.054765,40.714021],[-74.054731,40.713719],[-74.05484,40.71372]]],[[[-74.054873,40.714187],[-74.055016,40.714242],[-74.054908,40.714242],[-74.054873,40.714187]]],[[[-74.055337,40.714875],[-74.055124,40.714407],[-74.055231,40.71449],[-74.055337,40.714875]]],[[[-74.0536,40.715609],[-74.052663,40.715578],[-74.052628,40.715386],[-74.05241,40.71555],[-74.051689,40.715492],[-74.051583,40.715189],[-74.052161,40.715082],[-74.052633,40.714562],[-74.052599,40.714288],[-74.052024,40.713983],[-74.0535,40.714456],[-74.054619,40.714323],[-74.055044,40.715505],[-74.05389,40.715473],[-74.054287,40.715365],[-74.054402,40.714459],[-74.053823,40.714622],[-74.052995,40.714481],[-74.052776,40.714755],[-74.052881,40.715359],[-74.05389,40.7155],[-74.053924,40.715775],[-74.052913,40.715908],[-74.053671,40.715774],[-74.0536,40.715609]]],[[[-74.054835,40.757722],[-74.055382,40.756901],[-74.061702,40.750913],[-74.060208,40.753049],[-74.057924,40.754577],[-74.054835,40.757722]]],[[[-74.054763,40.757667],[-74.054727,40.757694],[-74.054727,40.757667],[-74.054763,40.757667]]],[[[-74.054762,40.757804],[-74.054799,40.757695],[-74.054835,40.757777],[-74.054762,40.757804]]],[[[-74.054762,40.757804],[-74.054543,40.758133],[-74.054435,40.758187],[-74.054654,40.757749],[-74.054726,40.757804],[-74.054762,40.757804]],[[-74.054689,40.757886],[-74.054654,40.757859],[-74.054653,40.757886],[-74.054689,40.757886]]],[[[-74.053271,40.759528],[-74.053307,40.759555],[-74.05327,40.759555],[-74.053271,40.759528]]],[[[-74.054399,40.75816],[-74.053776,40.759502],[-74.054681,40.759231],[-74.056533,40.757591],[-74.054861,40.759287],[-74.056119,40.760033],[-74.056117,40.760335],[-74.05493,40.759781],[-74.054532,40.759807],[-74.054169,40.760135],[-74.054276,40.76041],[-74.055787,40.761185],[-74.055821,40.761514],[-74.05528,40.76132],[-74.055891,40.761844],[-74.055708,40.762145],[-74.054016,40.761425],[-74.052932,40.761585],[-74.052972,40.761064],[-74.053591,40.76027],[-74.053009,40.76079],[-74.052614,40.760541],[-74.053816,40.758954],[-74.054036,40.758433],[-74.054399,40.75816]],[[-74.054107,40.758598],[-74.054071,40.75857],[-74.054071,40.758598],[-74.054107,40.758598]]],[[[-74.052661,40.694331],[-74.05263,40.694331],[-74.052661,40.694288],[-74.052661,40.694331]]],[[[-74.052624,40.694386],[-74.052591,40.694386],[-74.052624,40.694339],[-74.052624,40.694386]]],[[[-74.052588,40.69439],[-74.052588,40.694441],[-74.052552,40.694441],[-74.052588,40.69439]]],[[[-74.052478,40.694605],[-74.052376,40.694687],[-74.052552,40.694441],[-74.052478,40.694605]]],[[[-74.052369,40.694742],[-74.052337,40.694742],[-74.05237,40.694697],[-74.052369,40.694742]]],[[[-74.052333,40.694748],[-74.052333,40.694797],[-74.052298,40.694797],[-74.052333,40.694748]]],[[[-74.052162,40.694988],[-74.052297,40.694799],[-74.052224,40.694961],[-74.052162,40.694988]]],[[[-74.052123,40.695043],[-74.052151,40.695004],[-74.052151,40.695043],[-74.052123,40.695043]]],[[[-74.0521,40.695075],[-74.052114,40.695098],[-74.052083,40.695098],[-74.0521,40.695075]]],[[[-74.052078,40.695104],[-74.052042,40.695153],[-74.05198,40.695235],[-74.052078,40.695104]]],[[[-74.051969,40.695249],[-74.051969,40.69529],[-74.051939,40.695289],[-74.051969,40.695249]]],[[[-74.051932,40.695344],[-74.051897,40.695344],[-74.051933,40.695297],[-74.051932,40.695344]]],[[[-74.05186,40.695399],[-74.051794,40.695481],[-74.051896,40.695345],[-74.05186,40.695399]]],[[[-74.051787,40.695536],[-74.051753,40.695536],[-74.051787,40.69549],[-74.051787,40.695536]]],[[[-74.051678,40.695645],[-74.051608,40.695727],[-74.051751,40.695539],[-74.051678,40.695645]]],[[[-74.051569,40.695782],[-74.051499,40.695864],[-74.051605,40.69573],[-74.051569,40.695782]]],[[[-74.05146,40.695919],[-74.05139,40.696001],[-74.051496,40.695867],[-74.05146,40.695919]]],[[[-74.052918,40.698917],[-74.051915,40.697979],[-74.052243,40.697432],[-74.050981,40.697317],[-74.051379,40.697154],[-74.051454,40.696825],[-74.053827,40.697905],[-74.053638,40.699112],[-74.053133,40.699165],[-74.052702,40.698971],[-74.052918,40.698917]],[[-74.052918,40.698917],[-74.05299,40.698944],[-74.052991,40.698917],[-74.052918,40.698917]],[[-74.05299,40.698944],[-74.053062,40.698972],[-74.053062,40.698945],[-74.05299,40.698944]]],[[[-74.04495,40.702389],[-74.048464,40.699254],[-74.05124,40.69601],[-74.051531,40.696029],[-74.053533,40.693237],[-74.054263,40.691977],[-74.055592,40.692723],[-74.056057,40.693301],[-74.05649,40.693303],[-74.058035,40.69427],[-74.058103,40.694874],[-74.057522,40.695503],[-74.057519,40.695887],[-74.055603,40.696511],[-74.055316,40.696346],[-74.054337,40.697056],[-74.053618,40.696833],[-74.053039,40.697078],[-74.051278,40.696055],[-74.048516,40.699311],[-74.045068,40.702345],[-74.045139,40.70262],[-74.044815,40.702536],[-74.041408,40.704828],[-74.041306,40.7048],[-74.04495,40.702389]]],[[[-74.051211,40.700777],[-74.050349,40.700197],[-74.051218,40.699624],[-74.052186,40.700506],[-74.052041,40.700698],[-74.051211,40.700777]]],[[[-74.041256,40.704828],[-74.0413,40.704804],[-74.0413,40.704828],[-74.041256,40.704828]]],[[[-74.041228,40.704855],[-74.041206,40.704855],[-74.041228,40.704843],[-74.041228,40.704855]]],[[[-74.041156,40.704882],[-74.041192,40.704863],[-74.041192,40.704882],[-74.041156,40.704882]]],[[[-74.041105,40.704909],[-74.041119,40.704902],[-74.041119,40.704909],[-74.041105,40.704909]]],[[[-74.041062,40.704933],[-74.041083,40.704937],[-74.041055,40.704937],[-74.041062,40.704933]]],[[[-74.041,40.704964],[-74.041047,40.70494],[-74.041047,40.704964],[-74.041,40.704964]]],[[[-74.040946,40.704991],[-74.040975,40.704977],[-74.040974,40.704991],[-74.040946,40.704991]]],[[[-74.040902,40.705018],[-74.040892,40.705018],[-74.040902,40.705013],[-74.040902,40.705018]]],[[[-74.040866,40.705032],[-74.040866,40.705046],[-74.040838,40.705046],[-74.040866,40.705032]]],[[[-74.04083,40.70505],[-74.04083,40.705073],[-74.040784,40.705073],[-74.04083,40.70505]]],[[[-74.040757,40.7051],[-74.04073,40.7051],[-74.040757,40.705086],[-74.040757,40.7051]]],[[[-74.040721,40.705127],[-74.040676,40.705127],[-74.040721,40.705104],[-74.040721,40.705127]]],[[[-74.040649,40.705141],[-74.040649,40.705155],[-74.040622,40.705155],[-74.040649,40.705141]]],[[[-74.040595,40.705168],[-74.040612,40.705182],[-74.040567,40.705182],[-74.040595,40.705168]]],[[[-74.04054,40.705209],[-74.04051,40.705209],[-74.04054,40.705195],[-74.04054,40.705209]]],[[[-74.040468,40.70523],[-74.040468,40.705236],[-74.040454,40.705236],[-74.040468,40.70523]]],[[[-74.040398,40.705263],[-74.040432,40.705247],[-74.040432,40.705264],[-74.040398,40.705263]]],[[[-74.040395,40.705291],[-74.040341,40.705291],[-74.040395,40.705265],[-74.040395,40.705291]]],[[[-74.040285,40.705318],[-74.040323,40.7053],[-74.040323,40.705318],[-74.040285,40.705318]]],[[[-74.041408,40.704828],[-74.043278,40.705659],[-74.043165,40.7064],[-74.041145,40.706474],[-74.034945,40.705791],[-74.034759,40.706668],[-74.034428,40.70749],[-74.034536,40.707628],[-74.034534,40.707793],[-74.034383,40.708863],[-74.034563,40.708918],[-74.034706,40.709111],[-74.0355,40.709032],[-74.037951,40.709316],[-74.038598,40.709566],[-74.038667,40.710115],[-74.039351,40.710283],[-74.039753,40.709571],[-74.05125,40.710988],[-74.051501,40.711346],[-74.051897,40.711348],[-74.051822,40.711814],[-74.052723,40.71201],[-74.053765,40.712645],[-74.053763,40.712865],[-74.052501,40.712832],[-74.052503,40.712448],[-74.051205,40.712333],[-74.05099,40.71214],[-74.042302,40.711337],[-74.042585,40.712052],[-74.043343,40.712083],[-74.043044,40.713564],[-74.042682,40.7137],[-74.041926,40.713532],[-74.041929,40.71312],[-74.041676,40.713092],[-74.041863,40.712187],[-74.041536,40.71246],[-74.040924,40.71232],[-74.041075,40.711305],[-74.041364,40.711334],[-74.041365,40.711169],[-74.039563,40.71097],[-74.039526,40.711107],[-74.038082,40.711129],[-74.037652,40.711401],[-74.038007,40.711122],[-74.038437,40.711035],[-74.0395,40.711082],[-74.039514,40.71038],[-74.038623,40.710148],[-74.03854,40.709625],[-74.037985,40.709385],[-74.034716,40.709167],[-74.034401,40.708925],[-74.034282,40.708769],[-74.034501,40.707679],[-74.034081,40.707627],[-74.034158,40.706655],[-74.034692,40.706696],[-74.034873,40.705751],[-74.038839,40.706108],[-74.041408,40.704828]]],[[[-74.042815,40.736237],[-74.043033,40.736265],[-74.042923,40.736567],[-74.042837,40.736505],[-74.042815,40.736237]]],[[[-74.044107,40.737505],[-74.043321,40.736403],[-74.04469,40.736711],[-74.044107,40.737505]]],[[[-74.043829,40.737742],[-74.043853,40.737682],[-74.043853,40.737778],[-74.043829,40.737742]]],[[[-74.043632,40.738381],[-74.04352,40.738505],[-74.04357,40.738381],[-74.043632,40.738381]]],[[[-74.040229,40.705345],[-74.040251,40.705335],[-74.040251,40.705345],[-74.040229,40.705345]]],[[[-74.040214,40.705372],[-74.040173,40.705372],[-74.040215,40.705352],[-74.040214,40.705372]]],[[[-74.040115,40.7054],[-74.040142,40.705387],[-74.040142,40.7054],[-74.040115,40.7054]]],[[[-74.040057,40.705427],[-74.040106,40.705404],[-74.040106,40.705427],[-74.040057,40.705427]]],[[[-74.040033,40.705454],[-74.039999,40.705454],[-74.040034,40.705438],[-74.040033,40.705454]]],[[[-74.039961,40.705472],[-74.039961,40.705481],[-74.039941,40.705481],[-74.039961,40.705472]]],[[[-74.039925,40.705489],[-74.039925,40.705509],[-74.039883,40.705508],[-74.039925,40.705489]]],[[[-74.039853,40.705536],[-74.039824,40.705536],[-74.039853,40.705522],[-74.039853,40.705536]]],[[[-74.039816,40.705563],[-74.039766,40.705563],[-74.039816,40.705539],[-74.039816,40.705563]]],[[[-74.039744,40.705573],[-74.039744,40.70559],[-74.039708,40.70559],[-74.039744,40.705573]]],[[[-74.039687,40.7056],[-74.039708,40.705618],[-74.039649,40.705617],[-74.039687,40.7056]]],[[[-74.039635,40.705645],[-74.039589,40.705644],[-74.039636,40.705623],[-74.039635,40.705645]]],[[[-74.039563,40.705656],[-74.039563,40.705672],[-74.03953,40.705672],[-74.039563,40.705656]]],[[[-74.039491,40.705699],[-74.03947,40.705699],[-74.039491,40.705689],[-74.039491,40.705699]]],[[[-74.03941,40.705726],[-74.039455,40.705706],[-74.039454,40.705726],[-74.03941,40.705726]]],[[[-74.039382,40.705753],[-74.03935,40.705753],[-74.039382,40.705739],[-74.039382,40.705753]]],[[[-74.039289,40.705781],[-74.03931,40.705771],[-74.03931,40.705781],[-74.039289,40.705781]]],[[[-74.039227,40.705808],[-74.039274,40.705787],[-74.039274,40.705808],[-74.039227,40.705808]]],[[[-74.039201,40.705835],[-74.039165,40.705835],[-74.039201,40.705819],[-74.039201,40.705835]]],[[[-74.039103,40.705862],[-74.039129,40.705851],[-74.039129,40.705862],[-74.039103,40.705862]]],[[[-74.039041,40.705889],[-74.039057,40.705882],[-74.039057,40.705889],[-74.039041,40.705889]]],[[[-74.03902,40.705917],[-74.038979,40.705917],[-74.03902,40.705898],[-74.03902,40.705917]]],[[[-74.038948,40.705944],[-74.038913,40.705944],[-74.038948,40.705929],[-74.038948,40.705944]]],[[[-74.038876,40.705971],[-74.038846,40.705971],[-74.038876,40.705959],[-74.038876,40.705971]]],[[[-74.038803,40.705988],[-74.038803,40.705998],[-74.038779,40.705998],[-74.038803,40.705988]]],[[[-74.038767,40.706026],[-74.038712,40.706025],[-74.038767,40.706003],[-74.038767,40.706026]]],[[[-74.038695,40.706053],[-74.038651,40.706052],[-74.038695,40.706032],[-74.038695,40.706053]]],[[[-74.038622,40.706065],[-74.038622,40.70608],[-74.038591,40.70608],[-74.038622,40.706065]]],[[[-74.037648,40.711405],[-74.037466,40.711593],[-74.0374,40.711592],[-74.037648,40.711405]]],[[[-74.034832,40.711793],[-74.035525,40.711406],[-74.036957,40.711657],[-74.037394,40.711596],[-74.036888,40.7117],[-74.035591,40.711448],[-74.035337,40.711694],[-74.038184,40.712035],[-74.038145,40.712501],[-74.036668,40.712248],[-74.035044,40.712269],[-74.03472,40.712158],[-74.034759,40.711801],[-74.034254,40.711744],[-74.034832,40.711793]]],[[[-74.033305,40.713388],[-74.034066,40.712924],[-74.034495,40.713475],[-74.034419,40.714024],[-74.034094,40.714105],[-74.034023,40.713857],[-74.033985,40.714104],[-74.033192,40.714019],[-74.033305,40.713388]]],[[[-74.031141,40.730229],[-74.031232,40.729473],[-74.027341,40.729073],[-74.030966,40.729341],[-74.031006,40.728998],[-74.026548,40.728601],[-74.026604,40.72819],[-74.031034,40.728575],[-74.031086,40.728036],[-74.027374,40.727716],[-74.027376,40.727515],[-74.030342,40.727781],[-74.030405,40.727036],[-74.030021,40.726476],[-74.03016,40.726236],[-74.030287,40.726135],[-74.032455,40.726062],[-74.034452,40.726238],[-74.034525,40.725771],[-74.032064,40.725559],[-74.03211,40.725235],[-74.033782,40.725386],[-74.033765,40.725532],[-74.034559,40.725585],[-74.034614,40.725286],[-74.033817,40.725209],[-74.03384,40.725007],[-74.02978,40.724657],[-74.029447,40.724567],[-74.029605,40.723812],[-74.033812,40.724127],[-74.033883,40.724023],[-74.033838,40.723809],[-74.033893,40.723483],[-74.033968,40.723486],[-74.034032,40.723033],[-74.03398,40.722865],[-74.03423,40.722142],[-74.031422,40.721896],[-74.031522,40.721173],[-74.031354,40.721164],[-74.03133,40.720629],[-74.031476,40.720258],[-74.031741,40.720177],[-74.032375,40.720226],[-74.032552,40.720129],[-74.032062,40.719669],[-74.029283,40.719364],[-74.029258,40.719333],[-74.029349,40.718935],[-74.029375,40.718921],[-74.032487,40.719279],[-74.032469,40.718886],[-74.032825,40.717531],[-74.03275,40.717386],[-74.02993,40.717066],[-74.029999,40.716713],[-74.032075,40.716919],[-74.032169,40.71639],[-74.031289,40.716292],[-74.0315,40.715724],[-74.031699,40.716164],[-74.032624,40.716228],[-74.03315,40.714155],[-74.032975,40.714108],[-74.032997,40.713831],[-74.031663,40.713565],[-74.03302,40.713729],[-74.03325,40.712592],[-74.033428,40.712527],[-74.033439,40.71215],[-74.033733,40.711677],[-74.033954,40.711677],[-74.034201,40.711717],[-74.033858,40.711715],[-74.033491,40.712647],[-74.033274,40.712646],[-74.033037,40.715583],[-74.032784,40.715636],[-74.032635,40.716295],[-74.032202,40.716403],[-74.03209,40.716951],[-74.029998,40.716751],[-74.029961,40.716943],[-74.031619,40.717224],[-74.031836,40.71706],[-74.032629,40.717173],[-74.032879,40.717586],[-74.032542,40.719314],[-74.02955,40.718972],[-74.029295,40.719273],[-74.031133,40.719555],[-74.031639,40.719392],[-74.032143,40.719642],[-74.032573,40.720083],[-74.032572,40.720192],[-74.032391,40.720274],[-74.031452,40.720352],[-74.031554,40.721231],[-74.031442,40.721862],[-74.034254,40.722093],[-74.033992,40.72352],[-74.033883,40.723574],[-74.034023,40.724178],[-74.029624,40.723886],[-74.029549,40.724243],[-74.029801,40.724244],[-74.029839,40.724024],[-74.030127,40.724163],[-74.030052,40.724492],[-74.029512,40.724352],[-74.029582,40.7246],[-74.033874,40.724946],[-74.033872,40.725166],[-74.034629,40.725251],[-74.034591,40.725636],[-74.032103,40.725379],[-74.034554,40.72569],[-74.034478,40.726294],[-74.034261,40.726375],[-74.032567,40.726122],[-74.030329,40.726195],[-74.030111,40.726359],[-74.030432,40.726909],[-74.03039,40.727815],[-74.029451,40.727838],[-74.031146,40.72801],[-74.030992,40.729409],[-74.031244,40.729438],[-74.031166,40.730261],[-74.030376,40.729791],[-74.029907,40.729762],[-74.029907,40.729789],[-74.030986,40.730315],[-74.03138,40.730619],[-74.031343,40.730756],[-74.029758,40.729759],[-74.030478,40.729769],[-74.031141,40.730229]]],[[[-74.030839,40.730644],[-74.030839,40.730621],[-74.030924,40.730644],[-74.030839,40.730644]]],[[[-74.029,40.730444],[-74.028208,40.730139],[-74.028058,40.730962],[-74.031015,40.731248],[-74.030676,40.733251],[-74.030967,40.731276],[-74.027997,40.731011],[-74.028094,40.730228],[-74.026853,40.729505],[-74.027419,40.729492],[-74.029127,40.730468],[-74.030823,40.730616],[-74.029432,40.730556],[-74.029,40.730444]]],[[[-74.030609,40.733525],[-74.03064,40.73331],[-74.030638,40.733525],[-74.030609,40.733525]]],[[[-74.030586,40.733635],[-74.030602,40.733557],[-74.030601,40.733635],[-74.030586,40.733635]]],[[[-74.030818,40.733691],[-74.030711,40.733498],[-74.03154,40.733556],[-74.031468,40.733611],[-74.030818,40.733691]]],[[[-74.030204,40.733705],[-74.030168,40.733715],[-74.030168,40.733702],[-74.030204,40.733705]]],[[[-74.037345,40.734321],[-74.031286,40.73383],[-74.031142,40.733774],[-74.032153,40.733586],[-74.036986,40.734018],[-74.037345,40.734321]]]]}}]}