{"type":"FeatureCollection","features":[{"type":"Feature","properties":{"level_ft":7},"geometry":{"type":"MultiPolygon","coordinates":[[[[-74.076068,40.671395],[-74.075708,40.671333],[-74.075708,40.671244],[-74.076068,40.671395]]],[[[-74.089804,40.677286],[-74.089589,40.677047],[-74.089948,40.677286],[-74.089804,40.677286]]],[[[-74.089984,40.677231],[-74.089949,40.677181],[-74.090065,40.677232],[-74.089984,40.677231]]],[[[-74.090164,40.677275],[-74.090192,40.677287],[-74.090164,40.677287],[-74.090164,40.677275]]],[[[-74.092742,40.678394],[-74.090775,40.677618],[-74.09056,40.677447],[-74.092742,40.678394]]],[[[-74.08613,40.676559],[-74.085089,40.675896],[-74.0816,40.674566],[-74.080981,40.675552],[-74.082059,40.676077],[-74.083212,40.676301],[-74.083283,40.676494],[-74.08303,40.676548],[-74.084864,40.677323],[-74.084754,40.677542],[-74.084466,40.677513],[-74.084752,40.677844],[-74.083961,40.677567],[-74.083635,40.67773],[-74.083637,40.677538],[-74.083238,40.677866],[-74.08353,40.677291],[-74.082452,40.67671],[-74.082486,40.676957],[-74.081725,40.677668],[-74.080861,40.677363],[-74.080752,40.677555],[-74.080103,40.677553],[-74.078234,40.676695],[-74.078128,40.67631],[-74.077481,40.676006],[-74.076756,40.676525],[-74.077177,40.678393],[-74.07682,40.677843],[-74.076923,40.678721],[-74.076382,40.678774],[-74.076167,40.678554],[-74.075695,40.679074],[-74.076017,40.679432],[-74.07562,40.679485],[-74.07695,40.680149],[-74.077093,40.680314],[-74.076984,40.680451],[-74.076372,40.680229],[-74.076766,40.680615],[-74.07709,40.680726],[-74.077017,40.680918],[-74.077377,40.681056],[-74.077123,40.68122],[-74.076511,40.681026],[-74.076544,40.68163],[-74.077874,40.682238],[-74.078919,40.682352],[-74.078954,40.682517],[-74.078161,40.682459],[-74.076866,40.681988],[-74.077585,40.682375],[-74.079061,40.682764],[-74.079094,40.683121],[-74.079812,40.6837],[-74.079271,40.683671],[-74.079237,40.683451],[-74.078587,40.683559],[-74.078517,40.683229],[-74.078335,40.683503],[-74.07934,40.684193],[-74.079845,40.684167],[-74.079884,40.683783],[-74.080278,40.684141],[-74.078687,40.684849],[-74.078113,40.684353],[-74.077141,40.684102],[-74.076891,40.683717],[-74.076532,40.683441],[-74.076496,40.683496],[-74.078,40.685204],[-74.078576,40.685261],[-74.078538,40.685617],[-74.081013,40.687767],[-74.079781,40.688669],[-74.079816,40.688806],[-74.079996,40.688862],[-74.079996,40.688884],[-74.079635,40.688869],[-74.079602,40.688695],[-74.080285,40.687995],[-74.07463,40.683866],[-74.074457,40.683971],[-74.071101,40.681665],[-74.070662,40.680639],[-74.071797,40.679744],[-74.070641,40.679209],[-74.071889,40.679629],[-74.07372,40.679817],[-74.074828,40.678352],[-74.072516,40.677158],[-74.072814,40.676909],[-74.075007,40.678078],[-74.075638,40.677405],[-74.072611,40.675807],[-74.073022,40.675347],[-74.07579,40.676812],[-74.076735,40.676002],[-74.075979,40.67691],[-74.077223,40.675599],[-74.080985,40.677371],[-74.081291,40.677066],[-74.0813,40.676473],[-74.080935,40.676073],[-74.077279,40.674274],[-74.069296,40.670879],[-74.068149,40.670712],[-74.064988,40.669224],[-74.06492,40.66853],[-74.065716,40.66704],[-74.075672,40.671229],[-74.075672,40.671278],[-74.074842,40.671357],[-74.074375,40.671163],[-74.074198,40.670668],[-74.073729,40.670639],[-74.073694,40.670419],[-74.072792,40.670608],[-74.072758,40.670334],[-74.071819,40.670495],[-74.071857,40.670303],[-74.071568,40.670302],[-74.070485,40.670517],[-74.069732,40.669883],[-74.069443,40.670019],[-74.069944,40.67057],[-74.069189,40.67032],[-74.068646,40.67062],[-74.070049,40.671092],[-74.075909,40.673612],[-74.076127,40.673366],[-74.074869,40.672812],[-74.0748,40.672373],[-74.075523,40.672018],[-74.075739,40.672129],[-74.076029,40.671801],[-74.076779,40.671694],[-74.087683,40.676267],[-74.08689,40.676095],[-74.086925,40.676287],[-74.08613,40.676559]],[[-74.08303,40.67652],[-74.082958,40.676465],[-74.082958,40.676492],[-74.08303,40.67652]],[[-74.083673,40.677538],[-74.083709,40.677511],[-74.083673,40.677511],[-74.083673,40.677538]],[[-74.076856,40.677843],[-74.076892,40.677815],[-74.076856,40.677815],[-74.076856,40.677843]],[[-74.076949,40.680204],[-74.076913,40.680231],[-74.076949,40.680231],[-74.076949,40.680204]],[[-74.07684,40.680341],[-74.076805,40.680258],[-74.076733,40.680258],[-74.07684,40.680341]],[[-74.076372,40.680229],[-74.076336,40.680202],[-74.076336,40.680229],[-74.076372,40.680229]],[[-74.076473,40.681382],[-74.076437,40.681355],[-74.076437,40.681382],[-74.076473,40.681382]],[[-74.076794,40.681987],[-74.07683,40.681933],[-74.076758,40.681932],[-74.076794,40.681987]],[[-74.076758,40.681932],[-74.076722,40.681905],[-74.076722,40.681932],[-74.076758,40.681932]],[[-74.078517,40.683229],[-74.078661,40.683175],[-74.078517,40.683174],[-74.078517,40.683229]],[[-74.076496,40.683441],[-74.07646,40.683414],[-74.07646,40.683441],[-74.076496,40.683441]],[[-74.086348,40.676367],[-74.086276,40.67634],[-74.086276,40.676367],[-74.086348,40.676367]],[[-74.086276,40.67634],[-74.08624,40.676312],[-74.08624,40.676339],[-74.086276,40.67634]]],[[[-74.092753,40.678421],[-74.092753,40.678399],[-74.092806,40.678422],[-74.092753,40.678421]]],[[[-74.092933,40.678504],[-74.092825,40.67843],[-74.092997,40.678505],[-74.092933,40.678504]]],[[[-74.093221,40.678643],[-74.093005,40.678508],[-74.093316,40.678643],[-74.093221,40.678643]]],[[[-74.093329,40.678671],[-74.093329,40.678649],[-74.09338,40.678671],[-74.093329,40.678671]]],[[[-74.076019,40.679075],[-74.07602,40.678883],[-74.076345,40.678802],[-74.07638,40.679021],[-74.076019,40.679075]]],[[[-74.076307,40.679103],[-74.076344,40.679076],[-74.076343,40.679104],[-74.076307,40.679103]]],[[[-74.095914,40.680382],[-74.095951,40.680354],[-74.09595,40.680382],[-74.095914,40.680382]]],[[[-74.096596,40.680933],[-74.09541,40.680325],[-74.095592,40.680024],[-74.095952,40.680052],[-74.095878,40.680436],[-74.096022,40.680437],[-74.09606,40.680135],[-74.096384,40.680301],[-74.096625,40.680055],[-74.097472,40.680414],[-74.097249,40.680386],[-74.097498,40.680799],[-74.096596,40.680933]],[[-74.095698,40.680381],[-74.095662,40.680353],[-74.095662,40.680381],[-74.095698,40.680381]],[[-74.095698,40.680353],[-74.095734,40.680326],[-74.095698,40.680326],[-74.095698,40.680353]],[[-74.095698,40.680326],[-74.095663,40.680271],[-74.095662,40.680326],[-74.095698,40.680326]],[[-74.095663,40.680271],[-74.095627,40.680188],[-74.095591,40.680271],[-74.095663,40.680271]],[[-74.095555,40.680161],[-74.095591,40.680188],[-74.095591,40.680161],[-74.095555,40.680161]],[[-74.096021,40.680574],[-74.096058,40.680492],[-74.09595,40.680464],[-74.096021,40.680574]]],[[[-74.077093,40.680369],[-74.077165,40.680342],[-74.077165,40.680369],[-74.077093,40.680369]]],[[[-74.076731,40.68056],[-74.076767,40.680533],[-74.076767,40.68056],[-74.076731,40.68056]]],[[[-74.077055,40.680588],[-74.076839,40.68056],[-74.076803,40.680505],[-74.077055,40.680588]]],[[[-74.077055,40.680643],[-74.077127,40.680616],[-74.077127,40.680644],[-74.077055,40.680643]]],[[[-74.076983,40.680616],[-74.076947,40.680643],[-74.076947,40.680616],[-74.076983,40.680616]]],[[[-74.077127,40.680644],[-74.077163,40.680671],[-74.077127,40.680671],[-74.077127,40.680644]]],[[[-74.076619,40.681163],[-74.076691,40.681109],[-74.076727,40.681164],[-74.076619,40.681163]]],[[[-74.075584,40.690822],[-74.075371,40.690355],[-74.075769,40.690109],[-74.07674,40.690579],[-74.076484,40.691072],[-74.075584,40.690822]]],[[[-74.08493,40.689978],[-74.086088,40.689296],[-74.084453,40.691156],[-74.082351,40.692851],[-74.082099,40.692822],[-74.082462,40.692412],[-74.082319,40.692164],[-74.082827,40.691782],[-74.082471,40.691039],[-74.081285,40.690404],[-74.079693,40.691194],[-74.079584,40.691303],[-74.07951,40.691578],[-74.079691,40.691496],[-74.080301,40.691965],[-74.080837,40.692735],[-74.079147,40.691933],[-74.079,40.692427],[-74.079791,40.692732],[-74.07979,40.693006],[-74.078819,40.692563],[-74.078564,40.692864],[-74.079608,40.693225],[-74.07975,40.6935],[-74.079935,40.692869],[-74.080331,40.692871],[-74.080145,40.693776],[-74.080651,40.693723],[-74.080653,40.693421],[-74.080941,40.693504],[-74.080578,40.693887],[-74.080574,40.694381],[-74.080247,40.694819],[-74.078871,40.695665],[-74.076562,40.695876],[-74.076672,40.69552],[-74.076349,40.695272],[-74.076639,40.695136],[-74.076641,40.694696],[-74.076968,40.694423],[-74.077651,40.6947],[-74.077845,40.692505],[-74.078644,40.691602],[-74.079077,40.691631],[-74.078073,40.690694],[-74.07872,40.691053],[-74.079551,40.690782],[-74.079585,40.691111],[-74.080092,40.690784],[-74.080058,40.690399],[-74.080421,40.690153],[-74.081322,40.690184],[-74.081503,40.69002],[-74.081324,40.6898],[-74.082045,40.68983],[-74.083133,40.688983],[-74.084429,40.689207],[-74.084643,40.689702],[-74.084462,40.689839],[-74.08493,40.689978]],[[-74.084462,40.689811],[-74.084426,40.689784],[-74.084426,40.689811],[-74.084462,40.689811]],[[-74.084426,40.689784],[-74.084354,40.689756],[-74.084354,40.689783],[-74.084426,40.689784]],[[-74.084354,40.689756],[-74.084318,40.689728],[-74.084318,40.689756],[-74.084354,40.689756]]],[[[-74.081616,40.695071],[-74.08158,40.695071],[-74.08158,40.695044],[-74.081616,40.695044],[-74.081616,40.695071]]],[[[-74.081652,40.695099],[-74.081616,40.695071],[-74.081652,40.695072],[-74.081652,40.695099]]],[[[-74.081544,40.695071],[-74.08158,40.695099],[-74.081544,40.695099],[-74.081544,40.695071]]],[[[-74.081616,40.695099],[-74.08158,40.695126],[-74.08158,40.695099],[-74.081616,40.695099]]],[[[-74.08158,40.695126],[-74.081507,40.695153],[-74.081508,40.695098],[-74.08158,40.695126]]],[[[-74.076297,40.697797],[-74.074491,40.69823],[-74.074492,40.698065],[-74.07554,40.697739],[-74.076739,40.696316],[-74.077354,40.696017],[-74.079232,40.695694],[-74.081588,40.693726],[-74.079991,40.69534],[-74.079013,40.696023],[-74.078074,40.696211],[-74.07818,40.696541],[-74.077496,40.696374],[-74.076846,40.696564],[-74.076409,40.697166],[-74.076623,40.697634],[-74.076297,40.697797]],[[-74.076081,40.697824],[-74.076045,40.697796],[-74.076044,40.697824],[-74.076081,40.697824]]],[[[-74.081139,40.69636],[-74.082192,40.695293],[-74.082806,40.695131],[-74.082658,40.695652],[-74.082297,40.695678],[-74.081643,40.696526],[-74.080991,40.696936],[-74.081139,40.69636]]],[[[-74.080599,40.696166],[-74.080636,40.696138],[-74.080635,40.696166],[-74.080599,40.696166]]],[[[-74.080556,40.697346],[-74.080592,40.697319],[-74.080592,40.697346],[-74.080556,40.697346]]],[[[-74.106917,40.697933],[-74.106449,40.697821],[-74.106596,40.697273],[-74.107445,40.69766],[-74.106917,40.697933]]],[[[-74.10533,40.69801],[-74.105366,40.697982],[-74.105366,40.69801],[-74.10533,40.69801]]],[[[-74.106555,40.698096],[-74.1067,40.698014],[-74.1067,40.698069],[-74.106555,40.698096]]],[[[-74.10605,40.698177],[-74.105978,40.698149],[-74.10605,40.698149],[-74.10605,40.698177]]],[[[-74.105797,40.698203],[-74.105761,40.698176],[-74.105797,40.698176],[-74.105797,40.698203]]],[[[-74.105725,40.698203],[-74.105689,40.698231],[-74.105689,40.698203],[-74.105725,40.698203]]],[[[-74.102459,40.701623],[-74.102386,40.701705],[-74.102387,40.701623],[-74.102459,40.701623]]],[[[-74.099878,40.704963],[-74.099914,40.704936],[-74.099914,40.704963],[-74.099878,40.704963]]],[[[-74.099804,40.705265],[-74.099768,40.705237],[-74.099804,40.705238],[-74.099804,40.705265]]],[[[-74.099361,40.70702],[-74.099509,40.706362],[-74.099721,40.707049],[-74.09965,40.706857],[-74.09954,40.707103],[-74.099361,40.70702]],[[-74.099578,40.706939],[-74.099506,40.706884],[-74.099505,40.706938],[-74.099578,40.706939]]],[[[-74.097405,40.708359],[-74.096394,40.708547],[-74.09625,40.708382],[-74.09755,40.708112],[-74.097954,40.707015],[-74.098169,40.707208],[-74.098677,40.706798],[-74.098199,40.708224],[-74.098414,40.708499],[-74.097763,40.708744],[-74.097405,40.708359]]],[[[-74.106916,40.698125],[-74.107711,40.697789],[-74.114232,40.700952],[-74.114309,40.704609],[-74.116408,40.709735],[-74.113869,40.712314],[-74.110167,40.715375],[-74.10747,40.717075],[-74.102976,40.71933],[-74.10177,40.720231],[-74.100089,40.722867],[-74.099011,40.727277],[-74.096826,40.726556],[-74.096574,40.726418],[-74.096756,40.726226],[-74.095783,40.726031],[-74.09456,40.725313],[-74.093875,40.725256],[-74.093838,40.725502],[-74.093368,40.725583],[-74.093654,40.725941],[-74.094303,40.726026],[-74.094266,40.726327],[-74.094553,40.726466],[-74.0947,40.726164],[-74.095493,40.726249],[-74.095636,40.72647],[-74.098949,40.727524],[-74.098849,40.728189],[-74.09737,40.731748],[-74.095303,40.735005],[-74.09136,40.735348],[-74.088015,40.733497],[-74.089132,40.733776],[-74.08982,40.733421],[-74.090077,40.732626],[-74.091085,40.733014],[-74.091304,40.732713],[-74.092097,40.732908],[-74.092606,40.732223],[-74.094012,40.732448],[-74.094381,40.731132],[-74.094238,40.730857],[-74.093588,40.730909],[-74.093086,40.730441],[-74.093125,40.729974],[-74.091614,40.729173],[-74.090604,40.729169],[-74.09074,40.730433],[-74.088721,40.730206],[-74.088472,40.729683],[-74.08887,40.72941],[-74.088657,40.728888],[-74.088877,40.728367],[-74.088264,40.7282],[-74.08819,40.728557],[-74.087653,40.727814],[-74.088338,40.728036],[-74.088519,40.727899],[-74.087511,40.727456],[-74.087581,40.727841],[-74.087292,40.727867],[-74.085908,40.730004],[-74.084567,40.730959],[-74.08457,40.730438],[-74.083202,40.729966],[-74.082593,40.729196],[-74.083423,40.729144],[-74.084147,40.728817],[-74.084912,40.727667],[-74.084047,40.727471],[-74.083577,40.727689],[-74.08279,40.726561],[-74.083263,40.725986],[-74.082905,40.725518],[-74.083522,40.724972],[-74.083162,40.724696],[-74.08306,40.723817],[-74.085008,40.723742],[-74.085907,40.724349],[-74.085614,40.725061],[-74.085756,40.725419],[-74.085972,40.72542],[-74.086047,40.725008],[-74.086658,40.72534],[-74.087454,40.725041],[-74.088316,40.725648],[-74.08778,40.724905],[-74.088401,40.723644],[-74.087105,40.7232],[-74.087142,40.723008],[-74.088655,40.723425],[-74.087505,40.722653],[-74.088874,40.722877],[-74.089197,40.723235],[-74.08956,40.72288],[-74.088983,40.722795],[-74.087042,40.721663],[-74.088699,40.722026],[-74.089777,40.722716],[-74.08952,40.723538],[-74.089808,40.723539],[-74.090136,40.723046],[-74.090534,40.722938],[-74.090499,40.722691],[-74.090751,40.722829],[-74.090824,40.722719],[-74.090427,40.722636],[-74.090177,40.722278],[-74.089492,40.722248],[-74.088917,40.721889],[-74.088627,40.721998],[-74.088522,40.721558],[-74.086903,40.720839],[-74.087695,40.721034],[-74.088021,40.72087],[-74.088055,40.7212],[-74.088739,40.721504],[-74.089208,40.721369],[-74.088991,40.72156],[-74.089748,40.721618],[-74.089782,40.721974],[-74.090286,40.722223],[-74.090973,40.721979],[-74.090826,40.722335],[-74.091186,40.722528],[-74.091477,40.722145],[-74.090975,40.72154],[-74.0913,40.721513],[-74.091374,40.721266],[-74.090692,40.720605],[-74.091486,40.720553],[-74.091704,40.720362],[-74.09149,40.720004],[-74.092248,40.71987],[-74.092142,40.719485],[-74.092575,40.719459],[-74.09261,40.719679],[-74.09297,40.719762],[-74.092758,40.719103],[-74.093229,40.718748],[-74.092835,40.718334],[-74.093159,40.718445],[-74.093593,40.718255],[-74.093164,40.717594],[-74.093597,40.717651],[-74.093382,40.717403],[-74.093672,40.717102],[-74.09364,40.716471],[-74.09447,40.716474],[-74.094576,40.716721],[-74.095012,40.716338],[-74.094147,40.716143],[-74.094221,40.715786],[-74.093717,40.71573],[-74.093754,40.715428],[-74.09318,40.714987],[-74.093721,40.714961],[-74.094621,40.715349],[-74.095092,40.715048],[-74.09556,40.715132],[-74.095888,40.714612],[-74.094696,40.714827],[-74.094806,40.714526],[-74.095459,40.714034],[-74.096215,40.714284],[-74.097087,40.713161],[-74.097267,40.713244],[-74.097049,40.713545],[-74.097339,40.713272],[-74.09741,40.713437],[-74.097591,40.713328],[-74.097297,40.714233],[-74.09751,40.714892],[-74.096786,40.715246],[-74.097147,40.715275],[-74.097109,40.715604],[-74.096496,40.715438],[-74.096134,40.715711],[-74.096353,40.715272],[-74.096319,40.71486],[-74.096173,40.715134],[-74.095847,40.715435],[-74.095555,40.715983],[-74.095736,40.715929],[-74.095988,40.715985],[-74.09613,40.716287],[-74.0966,40.716097],[-74.096672,40.716179],[-74.09584,40.716533],[-74.095658,40.716862],[-74.096558,40.717085],[-74.097533,40.716951],[-74.097819,40.717419],[-74.099117,40.71756],[-74.09908,40.71778],[-74.09861,40.717888],[-74.098318,40.718491],[-74.098825,40.718053],[-74.101531,40.718173],[-74.101064,40.717842],[-74.101101,40.717595],[-74.101714,40.717624],[-74.103635,40.716203],[-74.100649,40.714766],[-74.100615,40.714491],[-74.101083,40.714603],[-74.101265,40.714384],[-74.101552,40.714522],[-74.101986,40.714386],[-74.102242,40.713756],[-74.101812,40.713287],[-74.102461,40.713454],[-74.102643,40.713071],[-74.102104,40.712822],[-74.102102,40.713151],[-74.101669,40.71315],[-74.0998,40.711935],[-74.099191,40.71122],[-74.09883,40.711328],[-74.098574,40.711904],[-74.098612,40.711574],[-74.098395,40.711656],[-74.098395,40.711574],[-74.098577,40.7113],[-74.098179,40.7116],[-74.098799,40.710395],[-74.098476,40.710092],[-74.098873,40.710175],[-74.099274,40.709381],[-74.098989,40.708886],[-74.09896,40.707678],[-74.099213,40.707514],[-74.099429,40.707597],[-74.099601,40.708998],[-74.099564,40.709272],[-74.099712,40.708641],[-74.099744,40.709327],[-74.099925,40.709081],[-74.099758,40.706912],[-74.099869,40.706501],[-74.100303,40.706337],[-74.100087,40.706117],[-74.100593,40.705954],[-74.100561,40.705295],[-74.100165,40.705211],[-74.100204,40.704717],[-74.099915,40.704716],[-74.099367,40.706032],[-74.098863,40.705728],[-74.098751,40.706469],[-74.098388,40.70688],[-74.097852,40.705999],[-74.096767,40.706407],[-74.096765,40.706792],[-74.09601,40.706377],[-74.096805,40.70616],[-74.096771,40.705831],[-74.09742,40.705888],[-74.097601,40.705751],[-74.097422,40.705421],[-74.097927,40.705506],[-74.09779,40.704242],[-74.098656,40.704218],[-74.098693,40.704026],[-74.098224,40.704162],[-74.098116,40.704079],[-74.098551,40.703614],[-74.098876,40.703587],[-74.098845,40.702764],[-74.099031,40.701859],[-74.099466,40.701476],[-74.099359,40.701228],[-74.099973,40.701066],[-74.099531,40.702601],[-74.099747,40.702794],[-74.099526,40.703452],[-74.099743,40.703453],[-74.099774,40.704277],[-74.10148,40.702389],[-74.101084,40.702305],[-74.101158,40.701976],[-74.101519,40.701895],[-74.101698,40.702115],[-74.1021,40.701265],[-74.102497,40.701322],[-74.102242,40.70165],[-74.102494,40.701788],[-74.103184,40.700912],[-74.102606,40.70113],[-74.103805,40.699652],[-74.103373,40.699513],[-74.10334,40.699046],[-74.10298,40.69888],[-74.10179,40.698931],[-74.101428,40.699094],[-74.101245,40.699588],[-74.100669,40.699394],[-74.100371,40.700902],[-74.100011,40.700846],[-74.099976,40.700599],[-74.100305,40.699887],[-74.100126,40.699694],[-74.100561,40.699283],[-74.10144,40.696981],[-74.102566,40.695804],[-74.102887,40.696272],[-74.10336,40.695678],[-74.103791,40.695888],[-74.103466,40.696082],[-74.104402,40.696332],[-74.103827,40.695905],[-74.106201,40.697057],[-74.105294,40.697982],[-74.105364,40.698367],[-74.106916,40.698125]],[[-74.094381,40.731104],[-74.094418,40.730995],[-74.094382,40.730994],[-74.094381,40.731104]],[[-74.088835,40.723426],[-74.088762,40.723508],[-74.088834,40.723508],[-74.088835,40.723426]],[[-74.096786,40.715301],[-74.096749,40.715329],[-74.096785,40.715329],[-74.096786,40.715301]],[[-74.096355,40.714861],[-74.096392,40.714806],[-74.096356,40.714806],[-74.096355,40.714861]],[[-74.096283,40.714915],[-74.096247,40.71486],[-74.096247,40.714915],[-74.096283,40.714915]],[[-74.095663,40.715984],[-74.095699,40.716011],[-74.095699,40.715984],[-74.095663,40.715984]],[[-74.09883,40.711328],[-74.098794,40.711301],[-74.098794,40.711328],[-74.09883,40.711328]],[[-74.098793,40.711383],[-74.098721,40.711355],[-74.098721,40.711383],[-74.098793,40.711383]],[[-74.098757,40.711438],[-74.098721,40.71141],[-74.098721,40.711438],[-74.098757,40.711438]],[[-74.098721,40.711492],[-74.098685,40.711465],[-74.098684,40.711492],[-74.098721,40.711492]],[[-74.098396,40.711409],[-74.09836,40.711381],[-74.09836,40.711409],[-74.098396,40.711409]],[[-74.099565,40.708997],[-74.099529,40.709052],[-74.099565,40.709052],[-74.099565,40.708997]],[[-74.099904,40.706583],[-74.099941,40.706556],[-74.099904,40.706556],[-74.099904,40.706583]],[[-74.099941,40.706556],[-74.099977,40.706528],[-74.099941,40.706528],[-74.099941,40.706556]],[[-74.100049,40.706446],[-74.100085,40.706501],[-74.100085,40.706446],[-74.100049,40.706446]],[[-74.100266,40.706365],[-74.100302,40.706392],[-74.100302,40.706365],[-74.100266,40.706365]],[[-74.099648,40.701257],[-74.099611,40.701312],[-74.099647,40.701312],[-74.099648,40.701257]],[[-74.102242,40.70165],[-74.102206,40.701622],[-74.102206,40.70165],[-74.102242,40.70165]],[[-74.102278,40.701733],[-74.102241,40.701787],[-74.102277,40.701787],[-74.102278,40.701733]],[[-74.102241,40.701842],[-74.102169,40.701814],[-74.102169,40.701869],[-74.102241,40.701842]],[[-74.102169,40.701869],[-74.102132,40.701924],[-74.102168,40.701924],[-74.102169,40.701869]],[[-74.102132,40.701924],[-74.102096,40.701951],[-74.102132,40.701952],[-74.102132,40.701924]],[[-74.102096,40.701951],[-74.10206,40.702006],[-74.102096,40.702006],[-74.102096,40.701951]],[[-74.10206,40.702006],[-74.102024,40.702034],[-74.10206,40.702034],[-74.10206,40.702006]],[[-74.102024,40.702034],[-74.101987,40.702088],[-74.102023,40.702088],[-74.102024,40.702034]],[[-74.101987,40.702088],[-74.101951,40.702143],[-74.101987,40.702143],[-74.101987,40.702088]],[[-74.101951,40.702143],[-74.101915,40.70217],[-74.101951,40.702171],[-74.101951,40.702143]],[[-74.101915,40.70217],[-74.101878,40.702225],[-74.101914,40.702225],[-74.101915,40.70217]],[[-74.103005,40.700829],[-74.103077,40.700857],[-74.103077,40.700802],[-74.103005,40.700829]],[[-74.103077,40.700802],[-74.103113,40.700775],[-74.103077,40.700774],[-74.103077,40.700802]],[[-74.10334,40.699046],[-74.103412,40.698991],[-74.10334,40.698991],[-74.10334,40.699046]],[[-74.102851,40.696272],[-74.102815,40.696299],[-74.102851,40.696299],[-74.102851,40.696272]],[[-74.105256,40.698257],[-74.10522,40.698311],[-74.105292,40.698312],[-74.105256,40.698257]],[[-74.10522,40.698311],[-74.105183,40.698339],[-74.105219,40.698339],[-74.10522,40.698311]]],[[[-74.097642,40.716896],[-74.096489,40.716645],[-74.09649,40.716398],[-74.096925,40.71618],[-74.096959,40.716427],[-74.097753,40.716403],[-74.098004,40.716733],[-74.098689,40.716735],[-74.098976,40.717038],[-74.098579,40.717037],[-74.098505,40.717311],[-74.097928,40.717309],[-74.097642,40.716896]]],[[[-74.087348,40.724601],[-74.086778,40.723528],[-74.087751,40.723724],[-74.08789,40.724548],[-74.087348,40.724601]]],[[[-74.081663,40.733694],[-74.082425,40.733038],[-74.082281,40.732873],[-74.08257,40.732901],[-74.08326,40.732245],[-74.083802,40.73211],[-74.084818,40.731125],[-74.08478,40.731482],[-74.085104,40.731675],[-74.084632,40.73203],[-74.084236,40.731892],[-74.082421,40.733697],[-74.082347,40.733998],[-74.083281,40.734551],[-74.082093,40.73408],[-74.081911,40.734409],[-74.085042,40.735737],[-74.085616,40.736261],[-74.085183,40.736314],[-74.081837,40.734765],[-74.081548,40.734819],[-74.0814,40.735285],[-74.08133,40.735038],[-74.080607,40.735118],[-74.080646,40.734651],[-74.079639,40.734236],[-74.080326,40.733936],[-74.080433,40.734184],[-74.080614,40.73402],[-74.081227,40.734077],[-74.08076,40.733746],[-74.081301,40.733885],[-74.081484,40.733446],[-74.081737,40.733447],[-74.081663,40.733694]],[[-74.080645,40.734871],[-74.080681,40.734843],[-74.080645,40.734843],[-74.080645,40.734871]],[[-74.081663,40.733694],[-74.081627,40.733721],[-74.081663,40.733721],[-74.081663,40.733694]]],[[[-74.07709,40.73785],[-74.076152,40.737709],[-74.075145,40.737184],[-74.076301,40.737078],[-74.076916,40.736724],[-74.076702,40.736393],[-74.077711,40.736644],[-74.077637,40.736864],[-74.077962,40.736865],[-74.077961,40.737057],[-74.078286,40.736948],[-74.07803,40.737579],[-74.07709,40.73785]],[[-74.07709,40.737767],[-74.077054,40.73774],[-74.077054,40.737767],[-74.07709,40.737767]]],[[[-74.078791,40.73706],[-74.079586,40.736926],[-74.080089,40.737174],[-74.080631,40.737039],[-74.080811,40.73715],[-74.07839,40.737635],[-74.078791,40.73706]]],[[[-74.084239,40.737162],[-74.085035,40.736918],[-74.085538,40.737194],[-74.084917,40.7384],[-74.085422,40.738566],[-74.087772,40.737861],[-74.085613,40.736783],[-74.085652,40.736398],[-74.088532,40.737507],[-74.091284,40.735924],[-74.091431,40.735458],[-74.095174,40.73517],[-74.093398,40.737015],[-74.090175,40.738579],[-74.083859,40.740291],[-74.079608,40.739149],[-74.078276,40.73854],[-74.077843,40.738566],[-74.077773,40.738182],[-74.07799,40.738073],[-74.077594,40.737961],[-74.080702,40.737314],[-74.083881,40.736804],[-74.084239,40.737162]],[[-74.079906,40.737558],[-74.079979,40.737503],[-74.079907,40.737531],[-74.079906,40.737558]],[[-74.083952,40.736996],[-74.083915,40.737024],[-74.083952,40.737024],[-74.083952,40.736996]]],[[[-74.080794,40.739949],[-74.08083,40.739922],[-74.08083,40.73995],[-74.080794,40.739949]]],[[[-74.082305,40.74067],[-74.08065,40.739757],[-74.080436,40.739454],[-74.083641,40.740344],[-74.082305,40.74067]]],[[[-74.075122,40.740835],[-74.074942,40.740779],[-74.075122,40.74078],[-74.075122,40.740835]]],[[[-74.081365,40.74083],[-74.077094,40.743148],[-74.074064,40.74256],[-74.07212,40.741894],[-74.072517,40.741896],[-74.073067,40.740552],[-74.074327,40.740969],[-74.075519,40.740781],[-74.076137,40.740125],[-74.076214,40.739274],[-74.07661,40.739468],[-74.076974,40.739085],[-74.080073,40.73981],[-74.081865,40.740777],[-74.081365,40.74083]]],[[[-74.073222,40.693558],[-74.072218,40.692649],[-74.07233,40.692128],[-74.071181,40.69141],[-74.071183,40.691053],[-74.071509,40.690862],[-74.071185,40.690723],[-74.071079,40.690339],[-74.073317,40.690018],[-74.07317,40.690539],[-74.072555,40.690811],[-74.071762,40.690753],[-74.071832,40.691055],[-74.072805,40.691086],[-74.073344,40.69139],[-74.07388,40.692161],[-74.073411,40.692324],[-74.074344,40.693014],[-74.074087,40.693781],[-74.073222,40.693558]]],[[[-74.073716,40.695372],[-74.073611,40.694905],[-74.074296,40.694907],[-74.075229,40.695652],[-74.074903,40.695843],[-74.074182,40.695758],[-74.073716,40.695372]]],[[[-74.081543,40.695236],[-74.080563,40.696138],[-74.080599,40.696248],[-74.080344,40.696659],[-74.079074,40.697835],[-74.080628,40.697264],[-74.079941,40.697618],[-74.07994,40.697701],[-74.080447,40.697483],[-74.080519,40.697538],[-74.076316,40.700515],[-74.074039,40.70122],[-74.072662,40.702176],[-74.072444,40.702559],[-74.072696,40.702642],[-74.072154,40.702668],[-74.072334,40.702833],[-74.073491,40.702371],[-74.073126,40.703028],[-74.072514,40.702806],[-74.072441,40.703026],[-74.073125,40.703248],[-74.072835,40.703439],[-74.072584,40.703218],[-74.0724,40.703739],[-74.071603,40.704258],[-74.071996,40.704808],[-74.072465,40.704838],[-74.072211,40.705139],[-74.070839,40.705271],[-74.071095,40.704778],[-74.070627,40.704639],[-74.068637,40.705592],[-74.068312,40.705536],[-74.06719,40.70619],[-74.067043,40.706574],[-74.066141,40.706626],[-74.065201,40.706979],[-74.065893,40.706021],[-74.065749,40.705938],[-74.065203,40.70665],[-74.064333,40.707305],[-74.064117,40.707332],[-74.063686,40.707028],[-74.062962,40.707355],[-74.063143,40.707246],[-74.063035,40.70719],[-74.062745,40.707382],[-74.062853,40.707437],[-74.062709,40.707491],[-74.062708,40.707546],[-74.062817,40.707464],[-74.062925,40.707492],[-74.062706,40.707903],[-74.062271,40.708203],[-74.06256,40.708232],[-74.062343,40.708313],[-74.062306,40.708396],[-74.062162,40.708368],[-74.062162,40.708395],[-74.062126,40.708395],[-74.062125,40.708422],[-74.062233,40.708505],[-74.062414,40.708451],[-74.063097,40.708728],[-74.060791,40.708362],[-74.061729,40.708338],[-74.060649,40.708005],[-74.060868,40.707704],[-74.061193,40.707568],[-74.06105,40.70743],[-74.061953,40.707186],[-74.061774,40.707076],[-74.062316,40.706803],[-74.062065,40.706693],[-74.063729,40.70593],[-74.065579,40.704373],[-74.065865,40.704676],[-74.066082,40.704622],[-74.065471,40.704208],[-74.066088,40.703716],[-74.067785,40.703393],[-74.0701,40.702441],[-74.070286,40.701563],[-74.069172,40.700845],[-74.06939,40.700626],[-74.069788,40.700408],[-74.069569,40.700819],[-74.070217,40.701069],[-74.070363,40.70074],[-74.070977,40.700605],[-74.071225,40.701319],[-74.070864,40.701346],[-74.071224,40.701566],[-74.071621,40.701513],[-74.071658,40.701294],[-74.072127,40.70124],[-74.071734,40.700662],[-74.071988,40.700554],[-74.071774,40.700169],[-74.072278,40.700198],[-74.072389,40.699814],[-74.073541,40.700093],[-74.073218,40.699927],[-74.073256,40.699652],[-74.072354,40.699677],[-74.071774,40.700059],[-74.071631,40.699839],[-74.070438,40.700411],[-74.070006,40.700272],[-74.07203,40.699483],[-74.072499,40.699567],[-74.074631,40.698889],[-74.074813,40.69867],[-74.075895,40.698619],[-74.076042,40.69829],[-74.076869,40.69854],[-74.077846,40.69816],[-74.077919,40.697913],[-74.078171,40.698078],[-74.078646,40.69701],[-74.081654,40.694687],[-74.081399,40.695126],[-74.081543,40.695236]],[[-74.080527,40.696248],[-74.080491,40.69622],[-74.080491,40.696248],[-74.080527,40.696248]],[[-74.07994,40.697701],[-74.079904,40.697728],[-74.07994,40.697728],[-74.07994,40.697701]],[[-74.065821,40.705938],[-74.065857,40.705911],[-74.065821,40.705911],[-74.065821,40.705938]],[[-74.06495,40.706813],[-74.064914,40.706786],[-74.064913,40.706813],[-74.06495,40.706813]],[[-74.064045,40.707194],[-74.064226,40.707168],[-74.064298,40.707085],[-74.064045,40.707194]],[[-74.064299,40.707058],[-74.064371,40.707058],[-74.06448,40.706976],[-74.064299,40.707058]],[[-74.06448,40.706976],[-74.064552,40.706922],[-74.064516,40.706922],[-74.06448,40.706976]],[[-74.063324,40.707192],[-74.06336,40.707137],[-74.063252,40.707191],[-74.063324,40.707192]],[[-74.06336,40.707137],[-74.063433,40.70711],[-74.06336,40.707109],[-74.06336,40.707137]],[[-74.062854,40.7073],[-74.062818,40.707272],[-74.062818,40.707299],[-74.062854,40.7073]],[[-74.062745,40.707409],[-74.062673,40.707464],[-74.062709,40.707464],[-74.062745,40.707409]],[[-74.062673,40.707409],[-74.062637,40.707381],[-74.062637,40.707409],[-74.062673,40.707409]],[[-74.062637,40.707381],[-74.062565,40.707353],[-74.062565,40.707381],[-74.062637,40.707381]],[[-74.062672,40.707628],[-74.062313,40.707298],[-74.061772,40.707268],[-74.061771,40.70746],[-74.061012,40.707677],[-74.060938,40.707979],[-74.061658,40.708119],[-74.06166,40.707872],[-74.061298,40.708035],[-74.061083,40.707842],[-74.061265,40.707623],[-74.061373,40.707706],[-74.061698,40.707625],[-74.061731,40.708091],[-74.062019,40.708092],[-74.062672,40.707628]],[[-74.061658,40.708119],[-74.061694,40.708146],[-74.061695,40.708119],[-74.061658,40.708119]],[[-74.061694,40.708146],[-74.06173,40.708174],[-74.06173,40.708146],[-74.061694,40.708146]],[[-74.061698,40.707652],[-74.061661,40.707679],[-74.061697,40.70768],[-74.061698,40.707652]],[[-74.061193,40.70754],[-74.06123,40.707513],[-74.061194,40.707513],[-74.061193,40.70754]],[[-74.061122,40.707485],[-74.061158,40.707458],[-74.061122,40.707458],[-74.061122,40.707485]],[[-74.062281,40.706694],[-74.062353,40.706694],[-74.062389,40.706666],[-74.062281,40.706694]],[[-74.062389,40.706666],[-74.062462,40.706639],[-74.06239,40.706639],[-74.062389,40.706666]],[[-74.062462,40.706639],[-74.062498,40.706612],[-74.062462,40.706612],[-74.062462,40.706639]],[[-74.062498,40.706612],[-74.06257,40.706585],[-74.062498,40.706585],[-74.062498,40.706612]],[[-74.06257,40.706585],[-74.062643,40.706558],[-74.062571,40.706557],[-74.06257,40.706585]],[[-74.062643,40.706558],[-74.062679,40.70653],[-74.062643,40.70653],[-74.062643,40.706558]],[[-74.062679,40.70653],[-74.062787,40.706476],[-74.062679,40.706503],[-74.062679,40.70653]],[[-74.062787,40.706476],[-74.06286,40.706449],[-74.062788,40.706448],[-74.062787,40.706476]],[[-74.06286,40.706449],[-74.062896,40.706421],[-74.06286,40.706421],[-74.06286,40.706449]],[[-74.062896,40.706421],[-74.062968,40.706394],[-74.062896,40.706394],[-74.062896,40.706421]],[[-74.062969,40.706367],[-74.063041,40.706367],[-74.063149,40.706313],[-74.062969,40.706367]],[[-74.063149,40.706313],[-74.063186,40.706285],[-74.063149,40.706285],[-74.063149,40.706313]],[[-74.063186,40.706285],[-74.063258,40.706258],[-74.063186,40.706258],[-74.063186,40.706285]],[[-74.063258,40.706258],[-74.06333,40.706231],[-74.063258,40.706231],[-74.063258,40.706258]],[[-74.065901,40.704676],[-74.065937,40.704703],[-74.065937,40.704676],[-74.065901,40.704676]],[[-74.065795,40.704346],[-74.065831,40.704319],[-74.065795,40.704319],[-74.065795,40.704346]],[[-74.071224,40.701566],[-74.071187,40.701594],[-74.071223,40.701594],[-74.071224,40.701566]],[[-74.072062,40.700224],[-74.072098,40.700252],[-74.072098,40.700225],[-74.072062,40.700224]],[[-74.081435,40.695181],[-74.081399,40.695208],[-74.081435,40.695208],[-74.081435,40.695181]],[[-74.081399,40.695208],[-74.081362,40.695235],[-74.081399,40.695235],[-74.081399,40.695208]],[[-74.081362,40.695235],[-74.08129,40.695262],[-74.081362,40.695263],[-74.081362,40.695235]],[[-74.081434,40.69529],[-74.081398,40.695263],[-74.081398,40.69529],[-74.081434,40.69529]]],[[[-74.073854,40.702043],[-74.073817,40.70207],[-74.073818,40.702043],[-74.073854,40.702043]]],[[[-74.073817,40.70207],[-74.073781,40.702097],[-74.073781,40.70207],[-74.073817,40.70207]]],[[[-74.07418,40.701715],[-74.072805,40.702423],[-74.072625,40.70245],[-74.07418,40.701715]]],[[[-74.073745,40.702125],[-74.073709,40.702097],[-74.073745,40.702097],[-74.073745,40.702125]]],[[[-74.073673,40.702125],[-74.0736,40.702179],[-74.0736,40.702152],[-74.073673,40.702125]]],[[[-74.073564,40.702206],[-74.073528,40.702179],[-74.073564,40.702179],[-74.073564,40.702206]]],[[[-74.073456,40.702206],[-74.073528,40.702234],[-74.073456,40.702234],[-74.073456,40.702206]]],[[[-74.073456,40.702234],[-74.073383,40.702261],[-74.073383,40.702233],[-74.073456,40.702234]]],[[[-74.073383,40.702261],[-74.073347,40.702288],[-74.073347,40.702261],[-74.073383,40.702261]]],[[[-74.073311,40.702315],[-74.073275,40.702288],[-74.073311,40.702288],[-74.073311,40.702315]]],[[[-74.073238,40.70237],[-74.072913,40.702479],[-74.073275,40.702315],[-74.073238,40.70237]]],[[[-74.068542,40.70916],[-74.069158,40.708723],[-74.069343,40.707983],[-74.070207,40.708178],[-74.070605,40.70796],[-74.071037,40.708154],[-74.070418,40.709112],[-74.070096,40.708644],[-74.069806,40.708918],[-74.069373,40.708889],[-74.069044,40.709519],[-74.068684,40.709463],[-74.068542,40.70916]]],[[[-74.074238,40.738031],[-74.074166,40.738004],[-74.074238,40.738004],[-74.074238,40.738031]]],[[[-74.073984,40.738195],[-74.073948,40.738168],[-74.073984,40.738168],[-74.073984,40.738195]]],[[[-74.07402,40.738195],[-74.073984,40.738223],[-74.073984,40.738195],[-74.07402,40.738195]]],[[[-74.074705,40.738253],[-74.073874,40.738414],[-74.074056,40.738195],[-74.073876,40.738112],[-74.073693,40.738496],[-74.073733,40.737975],[-74.074094,40.737949],[-74.074057,40.738058],[-74.074705,40.738253]],[[-74.074381,40.738197],[-74.074345,40.738224],[-74.074381,40.738224],[-74.074381,40.738197]]],[[[-74.075677,40.738696],[-74.074845,40.739049],[-74.073907,40.738991],[-74.074052,40.738799],[-74.073944,40.738799],[-74.073837,40.738634],[-74.075281,40.738502],[-74.075677,40.738696]],[[-74.074052,40.738799],[-74.074088,40.738772],[-74.074052,40.738772],[-74.074052,40.738799]],[[-74.073908,40.738716],[-74.073945,40.738689],[-74.073909,40.738689],[-74.073908,40.738716]],[[-74.075389,40.738585],[-74.075353,40.738612],[-74.075389,40.738612],[-74.075389,40.738585]]],[[[-74.074652,40.740888],[-74.074509,40.740805],[-74.074653,40.740833],[-74.074652,40.740888]]],[[[-74.073142,40.751286],[-74.071813,40.750265],[-74.070302,40.749573],[-74.069621,40.748802],[-74.068273,40.745174],[-74.068424,40.744049],[-74.068601,40.744653],[-74.069535,40.745371],[-74.0704,40.745456],[-74.071377,40.745213],[-74.070804,40.744442],[-74.069509,40.743806],[-74.070089,40.743369],[-74.070164,40.743012],[-74.070814,40.74296],[-74.070562,40.742712],[-74.070709,40.742301],[-74.073846,40.742834],[-74.07406,40.743191],[-74.074676,40.742782],[-74.074783,40.743029],[-74.075685,40.743115],[-74.075613,40.743032],[-74.075686,40.742978],[-74.076947,40.743257],[-74.075151,40.745534],[-74.074869,40.746946],[-74.075017,40.747986],[-74.075707,40.748974],[-74.076586,40.749638],[-74.077145,40.749931],[-74.078852,40.750223],[-74.077279,40.752171],[-74.075228,40.752584],[-74.075238,40.753133],[-74.076523,40.754816],[-74.0763,40.755143],[-74.075215,40.755339],[-74.074894,40.75562],[-74.075146,40.757157],[-74.07465,40.758294],[-74.074044,40.756999],[-74.074298,40.75678],[-74.074013,40.75623],[-74.07358,40.756228],[-74.073293,40.75587],[-74.070939,40.751525],[-74.069719,40.75034],[-74.069367,40.748966],[-74.070876,40.750152],[-74.073142,40.751286]],[[-74.070814,40.742877],[-74.07085,40.742823],[-74.070814,40.742822],[-74.070814,40.742877]],[[-74.073142,40.751286],[-74.073178,40.751313],[-74.073178,40.751286],[-74.073142,40.751286]]],[[[-74.069669,40.75259],[-74.068127,40.751047],[-74.068201,40.750636],[-74.0686,40.75039],[-74.069031,40.750776],[-74.069669,40.75259]]],[[[-74.072063,40.756387],[-74.070922,40.754187],[-74.069897,40.75078],[-74.070614,40.751551],[-74.073394,40.757024],[-74.074396,40.758427],[-74.073781,40.758602],[-74.072063,40.756387]],[[-74.072242,40.75658],[-74.072278,40.756553],[-74.072242,40.756553],[-74.072242,40.75658]]],[[[-74.068804,40.757912],[-74.068768,40.75794],[-74.068768,40.757912],[-74.068804,40.757912]]],[[[-74.06884,40.75794],[-74.068804,40.757995],[-74.068804,40.75794],[-74.06884,40.75794]]],[[[-74.068839,40.758132],[-74.068767,40.758077],[-74.068876,40.758023],[-74.068875,40.758132],[-74.068839,40.758132]]],[[[-74.068911,40.758187],[-74.068875,40.758132],[-74.068911,40.758132],[-74.068911,40.758187]]],[[[-74.068946,40.75827],[-74.068874,40.758242],[-74.068874,40.758215],[-74.068946,40.75827]]],[[[-74.06873,40.758269],[-74.068838,40.758242],[-74.068838,40.758269],[-74.06873,40.758269]]],[[[-74.068946,40.758297],[-74.06891,40.758325],[-74.06891,40.758297],[-74.068946,40.758297]]],[[[-74.068946,40.758352],[-74.068982,40.758325],[-74.068982,40.758352],[-74.068946,40.758352]]],[[[-74.068765,40.758352],[-74.068838,40.758324],[-74.068837,40.758352],[-74.068765,40.758352]]],[[[-74.068982,40.75838],[-74.068945,40.758407],[-74.068945,40.75838],[-74.068982,40.75838]]],[[[-74.068981,40.758407],[-74.069017,40.758462],[-74.068981,40.758462],[-74.068981,40.758407]]],[[[-74.069088,40.758655],[-74.069016,40.758627],[-74.069017,40.758517],[-74.069088,40.758655]]],[[[-74.06898,40.758627],[-74.068908,40.758599],[-74.06898,40.758599],[-74.06898,40.758627]]],[[[-74.069052,40.758655],[-74.069016,40.758682],[-74.069016,40.758654],[-74.069052,40.758655]]],[[[-74.069088,40.758737],[-74.069124,40.75871],[-74.069124,40.758737],[-74.069088,40.758737]]],[[[-74.069123,40.758765],[-74.069087,40.758792],[-74.069087,40.758765],[-74.069123,40.758765]]],[[[-74.069123,40.758847],[-74.069159,40.758792],[-74.069159,40.758847],[-74.069123,40.758847]]],[[[-74.069087,40.758874],[-74.069051,40.758847],[-74.069087,40.758847],[-74.069087,40.758874]]],[[[-74.069195,40.758875],[-74.069123,40.758902],[-74.069123,40.758874],[-74.069195,40.758875]]],[[[-74.069014,40.758929],[-74.069123,40.758902],[-74.069122,40.758929],[-74.069014,40.758929]]],[[[-74.06923,40.759012],[-74.069194,40.758957],[-74.069231,40.758957],[-74.06923,40.759012]]],[[[-74.069265,40.759149],[-74.069229,40.759122],[-74.069266,40.759122],[-74.069265,40.759149]]],[[[-74.069265,40.759204],[-74.069302,40.75915],[-74.069301,40.759205],[-74.069265,40.759204]]],[[[-74.069265,40.759232],[-74.069157,40.759204],[-74.069265,40.759204],[-74.069265,40.759232]]],[[[-74.069301,40.759287],[-74.069337,40.759232],[-74.069337,40.759287],[-74.069301,40.759287]]],[[[-74.0693,40.759369],[-74.069372,40.759342],[-74.069372,40.759369],[-74.0693,40.759369]]],[[[-74.069264,40.759397],[-74.069192,40.759369],[-74.069264,40.759369],[-74.069264,40.759397]]],[[[-74.069372,40.759424],[-74.069408,40.759479],[-74.069372,40.759479],[-74.069372,40.759424]]],[[[-74.069334,40.759726],[-74.069479,40.759672],[-74.069514,40.759727],[-74.069334,40.759726]]],[[[-74.071858,40.76012],[-74.071895,40.760065],[-74.071894,40.76012],[-74.071858,40.76012]]],[[[-74.068383,40.700128],[-74.068348,40.700101],[-74.068384,40.700101],[-74.068383,40.700128]]],[[[-74.068383,40.700156],[-74.06842,40.700129],[-74.068419,40.700156],[-74.068383,40.700156]]],[[[-74.06542,40.706568],[-74.065384,40.706595],[-74.065384,40.706568],[-74.06542,40.706568]]],[[[-74.063541,40.70711],[-74.063577,40.707138],[-74.063541,40.707137],[-74.063541,40.70711]]],[[[-74.063044,40.71688],[-74.06243,40.71696],[-74.062323,40.71674],[-74.062757,40.716715],[-74.062976,40.716331],[-74.063227,40.716524],[-74.063373,40.716305],[-74.063732,40.716471],[-74.064599,40.716282],[-74.064597,40.716612],[-74.063767,40.716691],[-74.063908,40.717186],[-74.063044,40.71688]]],[[[-74.067589,40.744814],[-74.067553,40.744787],[-74.06759,40.744787],[-74.067589,40.744814]]],[[[-74.067624,40.745034],[-74.06766,40.745007],[-74.06766,40.745034],[-74.067624,40.745034]]],[[[-74.067732,40.745034],[-74.067695,40.745172],[-74.067768,40.745144],[-74.067767,40.745227],[-74.067659,40.745199],[-74.067732,40.745034]]],[[[-74.067173,40.747832],[-74.067137,40.747805],[-74.067173,40.747805],[-74.067173,40.747832]]],[[[-74.067208,40.747915],[-74.067172,40.747887],[-74.067209,40.747887],[-74.067208,40.747915]]],[[[-74.067244,40.747942],[-74.067208,40.74797],[-74.067208,40.747942],[-74.067244,40.747942]]],[[[-74.067782,40.748576],[-74.067818,40.748548],[-74.067818,40.748576],[-74.067782,40.748576]]],[[[-74.067925,40.748659],[-74.067962,40.748631],[-74.067962,40.748659],[-74.067925,40.748659]]],[[[-74.065144,40.74895],[-74.065072,40.749005],[-74.065072,40.748922],[-74.065144,40.74895]]],[[[-74.068212,40.748989],[-74.068176,40.749016],[-74.068176,40.748989],[-74.068212,40.748989]]],[[[-74.068248,40.749017],[-74.068212,40.749044],[-74.068212,40.749016],[-74.068248,40.749017]]],[[[-74.065323,40.749198],[-74.065287,40.74917],[-74.065323,40.74917],[-74.065323,40.749198]]],[[[-74.06489,40.749224],[-74.064926,40.749169],[-74.064926,40.749224],[-74.06489,40.749224]]],[[[-74.064926,40.749279],[-74.064962,40.749251],[-74.064962,40.749279],[-74.064926,40.749279]]],[[[-74.06543,40.74939],[-74.065322,40.749362],[-74.06543,40.749363],[-74.06543,40.74939]]],[[[-74.064887,40.749635],[-74.064851,40.749608],[-74.064887,40.749608],[-74.064887,40.749635]]],[[[-74.064559,40.750156],[-74.064523,40.750128],[-74.064559,40.750128],[-74.064559,40.750156]]],[[[-74.064413,40.75032],[-74.06445,40.750293],[-74.06445,40.75032],[-74.064413,40.75032]]],[[[-74.064522,40.75032],[-74.064485,40.750348],[-74.064486,40.75032],[-74.064522,40.75032]]],[[[-74.06488,40.750706],[-74.064916,40.750679],[-74.064916,40.750706],[-74.06488,40.750706]]],[[[-74.068023,40.755823],[-74.067951,40.755851],[-74.067951,40.755823],[-74.068023,40.755823]]],[[[-74.067915,40.755905],[-74.067951,40.755933],[-74.067914,40.755933],[-74.067915,40.755905]]],[[[-74.068023,40.755961],[-74.068059,40.755906],[-74.068059,40.755961],[-74.068023,40.755961]]],[[[-74.068058,40.756016],[-74.068094,40.756071],[-74.068058,40.756071],[-74.068058,40.756016]]],[[[-74.06813,40.756071],[-74.068094,40.756126],[-74.068094,40.756071],[-74.06813,40.756071]]],[[[-74.068201,40.756263],[-74.068165,40.756291],[-74.068165,40.756263],[-74.068201,40.756263]]],[[[-74.068164,40.756428],[-74.068236,40.756483],[-74.0682,40.756483],[-74.068164,40.756428]]],[[[-74.068236,40.75651],[-74.068272,40.756483],[-74.068272,40.756511],[-74.068236,40.75651]]],[[[-74.068199,40.756565],[-74.068163,40.756538],[-74.068199,40.756538],[-74.068199,40.756565]]],[[[-74.068271,40.75662],[-74.068307,40.756566],[-74.068307,40.75662],[-74.068271,40.75662]]],[[[-74.071048,40.75696],[-74.070559,40.754488],[-74.071844,40.756771],[-74.073456,40.758726],[-74.072568,40.758994],[-74.072247,40.760108],[-74.071721,40.759076],[-74.071679,40.759955],[-74.07193,40.76026],[-74.070191,40.761184],[-74.069657,40.760029],[-74.070084,40.761019],[-74.069902,40.761156],[-74.070155,40.761203],[-74.066427,40.76275],[-74.064835,40.763786],[-74.063801,40.763669],[-74.062501,40.762673],[-74.061794,40.76242],[-74.060078,40.762516],[-74.060002,40.76341],[-74.05963,40.764001],[-74.059993,40.765701],[-74.058474,40.766757],[-74.056954,40.769011],[-74.052044,40.760841],[-74.05225,40.760951],[-74.052396,40.760705],[-74.051856,40.760511],[-74.053095,40.758813],[-74.053167,40.758841],[-74.053239,40.758814],[-74.053494,40.758458],[-74.053602,40.758541],[-74.05364,40.758239],[-74.054877,40.756871],[-74.054878,40.756652],[-74.055313,40.756461],[-74.057457,40.754301],[-74.057134,40.75397],[-74.057209,40.753531],[-74.058339,40.751971],[-74.059602,40.751894],[-74.060507,40.751513],[-74.059271,40.752826],[-74.059307,40.752936],[-74.061085,40.751488],[-74.061158,40.751405],[-74.061122,40.751296],[-74.061739,40.750859],[-74.061886,40.750475],[-74.06203,40.750558],[-74.062683,40.750039],[-74.06381,40.74878],[-74.064523,40.750156],[-74.064522,40.750238],[-74.06445,40.750238],[-74.064378,40.750292],[-74.064377,40.750347],[-74.064593,40.750403],[-74.064522,40.750265],[-74.064595,40.750156],[-74.064879,40.750871],[-74.065059,40.750899],[-74.064889,40.749279],[-74.06521,40.749939],[-74.065247,40.749829],[-74.065035,40.749059],[-74.065324,40.749033],[-74.065214,40.749335],[-74.065428,40.749665],[-74.065609,40.749583],[-74.065393,40.7495],[-74.065539,40.749363],[-74.065041,40.748154],[-74.065257,40.748237],[-74.065259,40.747962],[-74.065008,40.747687],[-74.065775,40.746372],[-74.066534,40.7461],[-74.066611,40.745415],[-74.067047,40.744922],[-74.067263,40.745033],[-74.066944,40.744181],[-74.067621,40.745473],[-74.067659,40.745281],[-74.067838,40.745364],[-74.069184,40.749404],[-74.069215,40.750146],[-74.068963,40.750117],[-74.068678,40.74943],[-74.068463,40.749264],[-74.06832,40.749017],[-74.068212,40.748962],[-74.068104,40.748989],[-74.068638,40.750116],[-74.067877,40.750552],[-74.067837,40.751211],[-74.06963,40.752975],[-74.071048,40.75696]],[[-74.069657,40.760029],[-74.069621,40.759919],[-74.069621,40.760029],[-74.069657,40.760029]],[[-74.069622,40.759837],[-74.068521,40.757006],[-74.06834,40.75706],[-74.068485,40.756978],[-74.068486,40.756923],[-74.068024,40.755714],[-74.067807,40.755768],[-74.067772,40.75563],[-74.067841,40.75607],[-74.068058,40.756071],[-74.067877,40.75618],[-74.068338,40.757362],[-74.068555,40.757335],[-74.06841,40.757417],[-74.068445,40.757637],[-74.069013,40.759094],[-74.069266,40.759067],[-74.069049,40.759121],[-74.069155,40.759478],[-74.069444,40.759507],[-74.069226,40.759589],[-74.069226,40.759643],[-74.069443,40.759589],[-74.069262,40.759726],[-74.06955,40.759782],[-74.069333,40.759863],[-74.069368,40.760001],[-74.069622,40.759837]],[[-74.067988,40.755713],[-74.067952,40.755631],[-74.067952,40.755713],[-74.067988,40.755713]],[[-74.069941,40.760799],[-74.06976,40.760798],[-74.06976,40.760853],[-74.069941,40.760799]],[[-74.054986,40.75668],[-74.05495,40.756707],[-74.054986,40.756707],[-74.054986,40.75668]],[[-74.05495,40.756707],[-74.054914,40.756734],[-74.05495,40.756734],[-74.05495,40.756707]],[[-74.055313,40.756461],[-74.055348,40.756516],[-74.055349,40.756461],[-74.055313,40.756461]],[[-74.055312,40.756516],[-74.055276,40.756544],[-74.055312,40.756544],[-74.055312,40.756516]],[[-74.055276,40.756544],[-74.05524,40.756571],[-74.055276,40.756571],[-74.055276,40.756544]],[[-74.059199,40.752908],[-74.058944,40.753181],[-74.058763,40.753318],[-74.059198,40.753045],[-74.059199,40.752908]],[[-74.061158,40.751351],[-74.061194,40.751323],[-74.061158,40.751323],[-74.061158,40.751351]],[[-74.06445,40.750238],[-74.064342,40.75021],[-74.064342,40.750237],[-74.06445,40.750238]],[[-74.06445,40.75021],[-74.064487,40.750183],[-74.06445,40.750183],[-74.06445,40.75021]],[[-74.064593,40.750485],[-74.064521,40.750457],[-74.064521,40.750485],[-74.064593,40.750485]],[[-74.064593,40.750485],[-74.064665,40.75054],[-74.064629,40.750485],[-74.064593,40.750485]],[[-74.065023,40.750926],[-74.065059,40.750981],[-74.065059,40.750926],[-74.065023,40.750926]],[[-74.067621,40.745473],[-74.067585,40.745501],[-74.067621,40.745501],[-74.067621,40.745473]],[[-74.067621,40.745556],[-74.067501,40.747394],[-74.067034,40.747008],[-74.067067,40.747475],[-74.066994,40.74753],[-74.067172,40.747969],[-74.067746,40.748576],[-74.068249,40.748824],[-74.067749,40.748054],[-74.067621,40.745556]],[[-74.067033,40.747118],[-74.066997,40.747173],[-74.067033,40.747173],[-74.067033,40.747118]],[[-74.069041,40.749239],[-74.068968,40.749266],[-74.06904,40.749267],[-74.069041,40.749239]],[[-74.068896,40.749266],[-74.068896,40.749211],[-74.06886,40.749184],[-74.068896,40.749266]],[[-74.068356,40.749072],[-74.068392,40.749045],[-74.068356,40.749044],[-74.068356,40.749072]],[[-74.06814,40.748961],[-74.068104,40.748934],[-74.068104,40.748961],[-74.06814,40.748961]],[[-74.071084,40.756988],[-74.070976,40.757015],[-74.071048,40.757042],[-74.071084,40.756988]],[[-74.071048,40.757042],[-74.071119,40.757153],[-74.07112,40.757043],[-74.071048,40.757042]]],[[[-74.068343,40.756703],[-74.068307,40.756648],[-74.068343,40.756648],[-74.068343,40.756703]]],[[[-74.068379,40.756731],[-74.068342,40.756785],[-74.068342,40.75673],[-74.068379,40.756731]]],[[[-74.068342,40.756868],[-74.068414,40.756895],[-74.068341,40.756895],[-74.068342,40.756868]]],[[[-74.068341,40.756923],[-74.068269,40.756895],[-74.068341,40.756895],[-74.068341,40.756923]]],[[[-74.068413,40.756978],[-74.06845,40.756923],[-74.068449,40.756978],[-74.068413,40.756978]]],[[[-74.068377,40.75695],[-74.068305,40.756977],[-74.068305,40.75695],[-74.068377,40.75695]]],[[[-74.06852,40.75717],[-74.068448,40.757088],[-74.068521,40.757088],[-74.06852,40.75717]]],[[[-74.068448,40.757115],[-74.068376,40.757142],[-74.068376,40.757115],[-74.068448,40.757115]]],[[[-74.068376,40.75717],[-74.068448,40.757197],[-74.068376,40.757197],[-74.068376,40.75717]]],[[[-74.068556,40.75728],[-74.068591,40.757335],[-74.068555,40.757335],[-74.068556,40.75728]]],[[[-74.068627,40.757363],[-74.068555,40.757417],[-74.068591,40.757363],[-74.068627,40.757363]]],[[[-74.068446,40.757472],[-74.068482,40.757445],[-74.068482,40.757472],[-74.068446,40.757472]]],[[[-74.068663,40.757473],[-74.06859,40.7575],[-74.06859,40.757473],[-74.068663,40.757473]]],[[[-74.068697,40.757665],[-74.068626,40.75761],[-74.068698,40.757583],[-74.068697,40.757665]]],[[[-74.068517,40.757664],[-74.068589,40.757637],[-74.068589,40.757665],[-74.068517,40.757664]]],[[[-74.068624,40.757857],[-74.068804,40.757885],[-74.068624,40.757912],[-74.068624,40.757857]]],[[[-74.068695,40.758022],[-74.068804,40.757995],[-74.068803,40.758022],[-74.068695,40.758022]]],[[[-74.068694,40.758132],[-74.068731,40.758104],[-74.06873,40.758132],[-74.068694,40.758132]]],[[[-74.061737,40.707103],[-74.061773,40.707158],[-74.061737,40.707158],[-74.061737,40.707103]]],[[[-74.062962,40.707355],[-74.062854,40.707409],[-74.062854,40.707354],[-74.062962,40.707355]]],[[[-74.062349,40.70738],[-74.062276,40.707407],[-74.062277,40.70738],[-74.062349,40.70738]]],[[[-74.062421,40.707408],[-74.062384,40.707435],[-74.062385,40.707408],[-74.062421,40.707408]]],[[[-74.062384,40.707435],[-74.062348,40.707462],[-74.062348,40.707435],[-74.062384,40.707435]]],[[[-74.062384,40.707463],[-74.06242,40.70749],[-74.062384,40.70749],[-74.062384,40.707463]]],[[[-74.062204,40.707489],[-74.062168,40.707462],[-74.062204,40.707462],[-74.062204,40.707489]]],[[[-74.060941,40.707484],[-74.060977,40.70754],[-74.060905,40.707539],[-74.060941,40.707484]]],[[[-74.061842,40.70757],[-74.062022,40.707626],[-74.061806,40.707652],[-74.061842,40.70757]]],[[[-74.060832,40.707566],[-74.060869,40.707539],[-74.060869,40.707567],[-74.060832,40.707566]]],[[[-74.062131,40.707626],[-74.062167,40.707654],[-74.06213,40.707654],[-74.062131,40.707626]]],[[[-74.062022,40.707626],[-74.062058,40.707653],[-74.062022,40.707653],[-74.062022,40.707626]]],[[[-74.061445,40.707651],[-74.061409,40.707624],[-74.061445,40.707624],[-74.061445,40.707651]]],[[[-74.062202,40.707709],[-74.062166,40.707681],[-74.062202,40.707681],[-74.062202,40.707709]]],[[[-74.062202,40.707819],[-74.062094,40.707763],[-74.062238,40.707709],[-74.062202,40.707819]]],[[[-74.061877,40.707845],[-74.061841,40.707817],[-74.061877,40.707817],[-74.061877,40.707845]]],[[[-74.062129,40.707846],[-74.062093,40.707873],[-74.062093,40.707846],[-74.062129,40.707846]]],[[[-74.061949,40.707845],[-74.061877,40.707872],[-74.061877,40.707845],[-74.061949,40.707845]]],[[[-74.06184,40.707927],[-74.061876,40.7079],[-74.061876,40.707927],[-74.06184,40.707927]]],[[[-74.06202,40.707955],[-74.062057,40.707928],[-74.062056,40.707955],[-74.06202,40.707955]]],[[[-74.060901,40.708116],[-74.060865,40.70817],[-74.060865,40.708116],[-74.060901,40.708116]]],[[[-74.062415,40.708341],[-74.062378,40.708396],[-74.062378,40.708341],[-74.062415,40.708341]]],[[[-74.062486,40.708424],[-74.062595,40.708397],[-74.062594,40.708424],[-74.062486,40.708424]]],[[[-74.062414,40.708451],[-74.06245,40.708396],[-74.06245,40.708451],[-74.062414,40.708451]]],[[[-74.062342,40.708396],[-74.062378,40.708451],[-74.062342,40.708451],[-74.062342,40.708396]]],[[[-74.062197,40.70845],[-74.062234,40.708395],[-74.06227,40.70845],[-74.062197,40.70845]]],[[[-74.062666,40.708452],[-74.06263,40.708424],[-74.062667,40.708424],[-74.062666,40.708452]]],[[[-74.062522,40.708479],[-74.062558,40.708451],[-74.062558,40.708479],[-74.062522,40.708479]]],[[[-74.054932,40.710701],[-74.054968,40.710673],[-74.054968,40.710701],[-74.054932,40.710701]]],[[[-74.054896,40.710728],[-74.054967,40.710783],[-74.054895,40.71081],[-74.054896,40.710728]]],[[[-74.054894,40.711002],[-74.05493,40.710975],[-74.05493,40.711003],[-74.054894,40.711002]]],[[[-74.055419,40.713365],[-74.055492,40.713311],[-74.055491,40.713393],[-74.055419,40.713365]]],[[[-74.061671,40.717205],[-74.0625,40.717318],[-74.062389,40.717729],[-74.062785,40.717868],[-74.063147,40.717704],[-74.063037,40.718006],[-74.06336,40.718254],[-74.064045,40.718229],[-74.064221,40.718971],[-74.064037,40.719465],[-74.063641,40.719408],[-74.062696,40.72042],[-74.061795,40.720252],[-74.061869,40.720088],[-74.062625,40.720228],[-74.063461,40.719325],[-74.063174,40.719077],[-74.063788,40.718915],[-74.062205,40.718277],[-74.061439,40.719592],[-74.061113,40.7197],[-74.061224,40.719399],[-74.060685,40.719067],[-74.061081,40.719179],[-74.061479,40.718906],[-74.061121,40.71852],[-74.061269,40.717972],[-74.061595,40.717836],[-74.060948,40.717421],[-74.06076,40.718629],[-74.060471,40.718655],[-74.059376,40.720572],[-74.05916,40.720571],[-74.059452,40.719969],[-74.059348,40.719309],[-74.05971,40.719228],[-74.059965,40.718735],[-74.05964,40.718762],[-74.059462,40.718514],[-74.058954,40.718924],[-74.058378,40.718729],[-74.058086,40.719195],[-74.058225,40.720046],[-74.058873,40.720296],[-74.059123,40.720681],[-74.058186,40.720458],[-74.057822,40.720896],[-74.057892,40.721225],[-74.057421,40.721553],[-74.05797,40.720375],[-74.057975,40.719661],[-74.056066,40.71367],[-74.056973,40.712987],[-74.056577,40.712821],[-74.057158,40.712246],[-74.057091,40.711478],[-74.05767,40.711233],[-74.057671,40.711013],[-74.058139,40.711289],[-74.058608,40.711264],[-74.058858,40.711594],[-74.059184,40.711458],[-74.059218,40.711705],[-74.059507,40.711624],[-74.059468,40.712145],[-74.060044,40.712203],[-74.060184,40.712862],[-74.060439,40.712506],[-74.060691,40.712617],[-74.060903,40.713304],[-74.061732,40.713362],[-74.062162,40.713858],[-74.062884,40.713723],[-74.063168,40.71441],[-74.062917,40.7143],[-74.062591,40.714491],[-74.062987,40.71452],[-74.063346,40.714905],[-74.062477,40.715396],[-74.061539,40.71531],[-74.061361,40.715035],[-74.060854,40.715307],[-74.060205,40.715278],[-74.059335,40.715878],[-74.059229,40.715576],[-74.058105,40.716313],[-74.057311,40.716337],[-74.057309,40.716776],[-74.057491,40.716502],[-74.057958,40.716696],[-74.057704,40.71697],[-74.058135,40.717273],[-74.058714,40.716946],[-74.058357,40.716506],[-74.058931,40.716865],[-74.059293,40.716701],[-74.05911,40.717113],[-74.059433,40.717333],[-74.059181,40.717387],[-74.059108,40.717497],[-74.061709,40.716958],[-74.061671,40.717205]],[[-74.061671,40.717205],[-74.06149,40.717341],[-74.061706,40.717452],[-74.061671,40.717205]]],[[[-74.057682,40.720319],[-74.057097,40.721469],[-74.056666,40.721248],[-74.056808,40.721578],[-74.056518,40.721714],[-74.056986,40.721936],[-74.056037,40.723469],[-74.054561,40.723052],[-74.056033,40.718693],[-74.056067,40.71905],[-74.05626,40.717074],[-74.055943,40.715975],[-74.054446,40.713224],[-74.054378,40.712647],[-74.054984,40.713775],[-74.054706,40.712182],[-74.054598,40.712044],[-74.054381,40.712181],[-74.05453,40.711495],[-74.054782,40.711606],[-74.054672,40.711825],[-74.055239,40.713392],[-74.055272,40.713804],[-74.055199,40.713858],[-74.055344,40.713832],[-74.055527,40.71342],[-74.057867,40.719551],[-74.057863,40.720237],[-74.057682,40.720319]],[[-74.056878,40.721908],[-74.056841,40.721963],[-74.056877,40.721963],[-74.056878,40.721908]],[[-74.056841,40.721963],[-74.056805,40.722045],[-74.056841,40.722045],[-74.056841,40.721963]],[[-74.056805,40.722045],[-74.056768,40.722072],[-74.056804,40.722072],[-74.056805,40.722045]],[[-74.056031,40.71905],[-74.055994,40.719077],[-74.056031,40.719077],[-74.056031,40.71905]],[[-74.054945,40.714104],[-74.054982,40.714077],[-74.054945,40.714077],[-74.054945,40.714104]],[[-74.054981,40.714105],[-74.055017,40.714132],[-74.055017,40.714105],[-74.054981,40.714105]],[[-74.055237,40.713694],[-74.0552,40.713721],[-74.055236,40.713721],[-74.055237,40.713694]],[[-74.055272,40.713859],[-74.055307,40.713886],[-74.055308,40.713859],[-74.055272,40.713859]]],[[[-74.057861,40.720566],[-74.057825,40.720539],[-74.057861,40.720539],[-74.057861,40.720566]]],[[[-74.057643,40.720703],[-74.057571,40.720675],[-74.057644,40.720648],[-74.057643,40.720703]]],[[[-74.057751,40.720731],[-74.057715,40.720758],[-74.057715,40.720731],[-74.057751,40.720731]]],[[[-74.057534,40.72084],[-74.05757,40.720812],[-74.05757,40.72084],[-74.057534,40.72084]]],[[[-74.057425,40.720922],[-74.057497,40.721004],[-74.057389,40.721031],[-74.057425,40.720922]]],[[[-74.057389,40.721031],[-74.057352,40.721086],[-74.057353,40.721031],[-74.057389,40.721031]]],[[[-74.06156,40.723079],[-74.062218,40.721901],[-74.06139,40.721541],[-74.0611,40.721759],[-74.061138,40.721457],[-74.060779,40.721127],[-74.062401,40.721435],[-74.063886,40.720589],[-74.062829,40.722177],[-74.06156,40.723079]]],[[[-74.05921,40.723893],[-74.058273,40.723642],[-74.057262,40.723776],[-74.056254,40.723443],[-74.057167,40.721854],[-74.057164,40.722183],[-74.058391,40.72227],[-74.05839,40.722435],[-74.059685,40.722879],[-74.059647,40.723181],[-74.05817,40.722956],[-74.058311,40.723341],[-74.059393,40.723509],[-74.059894,40.72406],[-74.05928,40.72414],[-74.05921,40.723893]]],[[[-74.061343,40.750665],[-74.061279,40.749457],[-74.062361,40.749543],[-74.06178,40.750145],[-74.061778,40.750475],[-74.061343,40.750665]]],[[[-74.062248,40.750312],[-74.062212,40.750284],[-74.062248,40.750284],[-74.062248,40.750312]]],[[[-74.061086,40.75135],[-74.061122,40.751378],[-74.061086,40.751378],[-74.061086,40.75135]]],[[[-74.061085,40.751433],[-74.061049,40.751405],[-74.061086,40.751405],[-74.061085,40.751433]]],[[[-74.056222,40.755477],[-74.055968,40.755668],[-74.055786,40.755832],[-74.055932,40.755613],[-74.056222,40.755477]]],[[[-74.055677,40.755941],[-74.055641,40.755969],[-74.055641,40.755941],[-74.055677,40.755941]]],[[[-74.055605,40.755968],[-74.055641,40.755996],[-74.055605,40.755996],[-74.055605,40.755968]]],[[[-74.055605,40.755996],[-74.055568,40.756023],[-74.055568,40.755996],[-74.055605,40.755996]]],[[[-74.054732,40.756953],[-74.054696,40.756926],[-74.054732,40.756926],[-74.054732,40.756953]]],[[[-74.054659,40.757035],[-74.054623,40.757008],[-74.054659,40.757008],[-74.054659,40.757035]]],[[[-74.054477,40.757199],[-74.054441,40.757227],[-74.054441,40.757199],[-74.054477,40.757199]]],[[[-74.054332,40.757391],[-74.054296,40.757363],[-74.054332,40.757363],[-74.054332,40.757391]]],[[[-74.0539,40.692391],[-74.053826,40.692579],[-74.053645,40.692798],[-74.0539,40.692391]]],[[[-74.053644,40.69288],[-74.053208,40.693483],[-74.053644,40.692799],[-74.053644,40.69288]]],[[[-74.053207,40.693538],[-74.053173,40.693537],[-74.053207,40.693484],[-74.053207,40.693538]]],[[[-74.05317,40.693592],[-74.053138,40.693592],[-74.053171,40.693541],[-74.05317,40.693592]]],[[[-74.053132,40.693602],[-74.053134,40.693647],[-74.053101,40.693647],[-74.053132,40.693602]]],[[[-74.053063,40.693702],[-74.053098,40.693651],[-74.053097,40.693702],[-74.053063,40.693702]]],[[[-74.053026,40.693756],[-74.053061,40.693704],[-74.053061,40.693757],[-74.053026,40.693756]]],[[[-74.052734,40.694195],[-74.052552,40.694441],[-74.053025,40.693757],[-74.052734,40.694195]]],[[[-74.068563,40.700321],[-74.06932,40.700297],[-74.068777,40.700624],[-74.067592,40.699824],[-74.067262,40.700646],[-74.065778,40.701436],[-74.065413,40.702149],[-74.065841,40.702919],[-74.065517,40.702698],[-74.064577,40.703079],[-74.064538,40.703573],[-74.065367,40.703686],[-74.065693,40.703495],[-74.064894,40.704288],[-74.064134,40.704642],[-74.061825,40.70477],[-74.06027,40.705313],[-74.05991,40.705257],[-74.059475,40.705502],[-74.05976,40.706107],[-74.059216,40.706462],[-74.05853,40.706652],[-74.058136,40.706156],[-74.058897,40.705747],[-74.058897,40.70561],[-74.057776,40.706072],[-74.057303,40.706784],[-74.056835,40.706535],[-74.0534,40.707812],[-74.053826,40.708775],[-74.05606,40.70914],[-74.055335,40.709714],[-74.054469,40.709848],[-74.054863,40.710234],[-74.054057,40.71207],[-74.054086,40.713195],[-74.054512,40.714158],[-74.05415,40.714376],[-74.054583,40.714295],[-74.054762,40.71457],[-74.055367,40.715753],[-74.055682,40.717182],[-74.055597,40.719185],[-74.055045,40.72083],[-74.054756,40.720829],[-74.054971,40.721022],[-74.054273,40.722941],[-74.051284,40.722078],[-74.051465,40.721997],[-74.051288,40.721447],[-74.050749,40.721225],[-74.05075,40.721061],[-74.051146,40.721117],[-74.051329,40.720788],[-74.051653,40.720817],[-74.051114,40.720568],[-74.051297,40.720129],[-74.05173,40.720159],[-74.051659,40.719994],[-74.052018,40.720187],[-74.052127,40.720133],[-74.051843,40.719445],[-74.050905,40.719387],[-74.050619,40.719111],[-74.050221,40.719274],[-74.050187,40.718945],[-74.050837,40.718755],[-74.051097,40.71774],[-74.051528,40.717934],[-74.051496,40.717413],[-74.051784,40.717414],[-74.052003,40.717058],[-74.051066,40.716944],[-74.050487,40.717189],[-74.050416,40.716997],[-74.049336,40.716745],[-74.049119,40.716745],[-74.049118,40.716992],[-74.049693,40.717213],[-74.04962,40.717378],[-74.048719,40.717292],[-74.048104,40.717564],[-74.048069,40.717317],[-74.047743,40.717535],[-74.046915,40.71723],[-74.046841,40.717504],[-74.046299,40.717722],[-74.04594,40.717473],[-74.045542,40.717581],[-74.045433,40.717746],[-74.045686,40.717692],[-74.045756,40.717884],[-74.045395,40.71802],[-74.045283,40.718459],[-74.04496,40.718265],[-74.044527,40.718346],[-74.044198,40.718921],[-74.043406,40.718698],[-74.042754,40.719025],[-74.042105,40.71905],[-74.042644,40.719299],[-74.041885,40.719571],[-74.041844,40.720284],[-74.042059,40.720505],[-74.04224,40.720313],[-74.04209,40.721164],[-74.041981,40.721356],[-74.041475,40.721381],[-74.04147,40.722095],[-74.041254,40.722094],[-74.041113,40.721654],[-74.041037,40.72212],[-74.041289,40.722231],[-74.041285,40.722862],[-74.042041,40.72303],[-74.041391,40.72311],[-74.041246,40.723274],[-74.042073,40.723662],[-74.042437,40.723196],[-74.04247,40.723663],[-74.042901,40.723857],[-74.042468,40.723938],[-74.042322,40.724212],[-74.042107,40.723936],[-74.041854,40.724045],[-74.041639,40.72388],[-74.041312,40.72418],[-74.041096,40.724097],[-74.041526,40.724456],[-74.040623,40.724617],[-74.040549,40.724973],[-74.040837,40.725002],[-74.0408,40.725194],[-74.040221,40.725411],[-74.040146,40.725823],[-74.039569,40.725765],[-74.039786,40.725656],[-74.039282,40.725462],[-74.039466,40.724996],[-74.03788,40.72477],[-74.037585,40.725648],[-74.037838,40.725566],[-74.038089,40.725842],[-74.037402,40.726086],[-74.037403,40.725921],[-74.036394,40.725725],[-74.036723,40.725123],[-74.03661,40.725726],[-74.037404,40.725757],[-74.037518,40.724989],[-74.036796,40.724931],[-74.037375,40.724714],[-74.037341,40.724466],[-74.04026,40.72489],[-74.040415,40.723353],[-74.038828,40.723264],[-74.038758,40.72299],[-74.03984,40.723076],[-74.039158,40.722634],[-74.038472,40.722577],[-74.038146,40.722795],[-74.037895,40.722547],[-74.037497,40.722738],[-74.03721,40.722517],[-74.037172,40.722791],[-74.037176,40.722242],[-74.037284,40.722298],[-74.037249,40.722105],[-74.03714,40.72216],[-74.037102,40.722516],[-74.036487,40.722706],[-74.036486,40.722898],[-74.036918,40.72301],[-74.036592,40.723173],[-74.036879,40.723366],[-74.036518,40.723475],[-74.036659,40.723887],[-74.036152,40.724132],[-74.035576,40.72402],[-74.03569,40.723197],[-74.035436,40.723333],[-74.035476,40.722839],[-74.035801,40.722731],[-74.035914,40.722072],[-74.035624,40.722236],[-74.035591,40.721824],[-74.036311,40.722074],[-74.036674,40.721774],[-74.03635,40.72169],[-74.036389,40.721196],[-74.035849,40.721111],[-74.035849,40.721029],[-74.036209,40.72114],[-74.036679,40.721115],[-74.03549,40.720835],[-74.035674,40.720342],[-74.035241,40.720313],[-74.035419,40.720643],[-74.03531,40.720752],[-74.034988,40.720339],[-74.035172,40.719846],[-74.035857,40.719931],[-74.036328,40.719631],[-74.03532,40.719352],[-74.035438,40.71798],[-74.035219,40.718227],[-74.034967,40.718143],[-74.034745,40.718938],[-74.034203,40.719101],[-74.034024,40.718853],[-74.033872,40.719978],[-74.034167,40.719128],[-74.034309,40.719486],[-74.034124,40.720144],[-74.034014,40.720335],[-74.033763,40.720197],[-74.033688,40.720581],[-74.033473,40.720278],[-74.032753,40.720166],[-74.03145,40.720627],[-74.031448,40.721039],[-74.032132,40.721206],[-74.032058,40.721426],[-74.031662,40.721369],[-74.031551,40.721753],[-74.034327,40.722011],[-74.03425,40.722779],[-74.0345,40.723027],[-74.034138,40.723328],[-74.034025,40.723877],[-74.034637,40.724071],[-74.034672,40.724291],[-74.034454,40.72451],[-74.034021,40.724453],[-74.033981,40.725057],[-74.035098,40.725308],[-74.035427,40.724733],[-74.03586,40.724707],[-74.035821,40.725174],[-74.036324,40.725341],[-74.036214,40.725615],[-74.03578,40.72575],[-74.035921,40.726355],[-74.035811,40.726601],[-74.035414,40.7266],[-74.035556,40.726875],[-74.035159,40.726956],[-74.03512,40.727285],[-74.034651,40.727283],[-74.034653,40.727036],[-74.034291,40.727254],[-74.033933,40.726841],[-74.033319,40.726838],[-74.033425,40.727223],[-74.033713,40.727224],[-74.033492,40.727937],[-74.033998,40.727884],[-74.034217,40.727473],[-74.034213,40.727995],[-74.033924,40.728076],[-74.033812,40.728625],[-74.033451,40.728596],[-74.033449,40.728925],[-74.034313,40.72923],[-74.034022,40.729531],[-74.033228,40.729528],[-74.032858,40.730899],[-74.031705,40.730675],[-74.031781,40.730071],[-74.031312,40.730097],[-74.031415,40.730866],[-74.030946,40.730809],[-74.030908,40.731056],[-74.031593,40.731141],[-74.031739,40.730922],[-74.031846,40.731115],[-74.031736,40.731334],[-74.03105,40.731441],[-74.031187,40.732484],[-74.031402,40.732732],[-74.031548,40.732458],[-74.031799,40.732652],[-74.032052,40.732543],[-74.032014,40.732872],[-74.033959,40.733456],[-74.033705,40.73362],[-74.032443,40.733533],[-74.032406,40.733615],[-74.037203,40.733909],[-74.037562,40.734267],[-74.037958,40.734296],[-74.038065,40.734461],[-74.038283,40.734325],[-74.038354,40.734545],[-74.038858,40.734684],[-74.039036,40.735069],[-74.035432,40.734313],[-74.034455,40.734748],[-74.034743,40.734805],[-74.034706,40.734914],[-74.034382,40.734913],[-74.034423,40.734172],[-74.034348,40.734611],[-74.033842,40.734609],[-74.034311,40.734666],[-74.034176,40.734912],[-74.033373,40.734673],[-74.034204,40.734528],[-74.033374,40.734525],[-74.033341,40.734058],[-74.033338,40.734497],[-74.032868,40.734522],[-74.032436,40.734394],[-74.032439,40.734082],[-74.0324,40.734383],[-74.031747,40.734189],[-74.03233,40.734109],[-74.030348,40.733772],[-74.030566,40.733735],[-74.030967,40.731276],[-74.027997,40.731011],[-74.028094,40.730228],[-74.026851,40.72951],[-74.027419,40.729492],[-74.029127,40.730468],[-74.031254,40.730755],[-74.029758,40.729759],[-74.030478,40.729769],[-74.031141,40.730229],[-74.031232,40.729473],[-74.027341,40.729073],[-74.030966,40.729341],[-74.031006,40.728998],[-74.026548,40.728601],[-74.026604,40.72819],[-74.031034,40.728575],[-74.031086,40.728036],[-74.027374,40.727716],[-74.027376,40.727515],[-74.030342,40.727781],[-74.030405,40.727036],[-74.030021,40.726476],[-74.030287,40.726135],[-74.034452,40.726238],[-74.034525,40.725771],[-74.032072,40.725567],[-74.03211,40.725235],[-74.034559,40.725585],[-74.034614,40.725286],[-74.033817,40.725209],[-74.03384,40.725007],[-74.029447,40.724567],[-74.029605,40.723812],[-74.033812,40.724127],[-74.03423,40.722149],[-74.031422,40.721896],[-74.03133,40.720629],[-74.031476,40.720258],[-74.032552,40.720129],[-74.032062,40.719669],[-74.029269,40.719356],[-74.029375,40.718921],[-74.032487,40.719279],[-74.03275,40.717386],[-74.02993,40.717066],[-74.029999,40.716713],[-74.032075,40.716919],[-74.032169,40.71639],[-74.031289,40.716292],[-74.0315,40.715724],[-74.031699,40.716164],[-74.032624,40.716228],[-74.03315,40.714155],[-74.032997,40.713831],[-74.031663,40.713565],[-74.03302,40.713729],[-74.033733,40.711677],[-74.034832,40.711793],[-74.035525,40.711406],[-74.037113,40.711659],[-74.038075,40.711106],[-74.0395,40.711082],[-74.039514,40.71038],[-74.038623,40.710148],[-74.038499,40.709581],[-74.035384,40.70908],[-74.034716,40.709167],[-74.034344,40.70887],[-74.034501,40.707679],[-74.034081,40.707627],[-74.034058,40.707141],[-74.034162,40.706652],[-74.034692,40.706696],[-74.034873,40.705751],[-74.038839,40.706108],[-74.041372,40.70491],[-74.041351,40.70469],[-74.045227,40.702193],[-74.049199,40.698487],[-74.052552,40.694441],[-74.051423,40.696029],[-74.051604,40.695947],[-74.05419,40.692169],[-74.054227,40.691949],[-74.053902,40.692387],[-74.054851,40.69064],[-74.057814,40.691965],[-74.057479,40.69281],[-74.058322,40.693287],[-74.058756,40.692501],[-74.058952,40.692563],[-74.058686,40.693452],[-74.059387,40.693881],[-74.059784,40.693079],[-74.059994,40.693121],[-74.0597,40.694059],[-74.060237,40.694409],[-74.060745,40.693614],[-74.06137,40.693886],[-74.06103,40.695033],[-74.064731,40.697091],[-74.06515,40.697088],[-74.06524,40.697678],[-74.065774,40.698034],[-74.066106,40.698135],[-74.066563,40.696832],[-74.067029,40.696369],[-74.068257,40.696866],[-74.069577,40.695732],[-74.070581,40.694436],[-74.070378,40.693824],[-74.069619,40.694049],[-74.069813,40.694365],[-74.069068,40.695173],[-74.0678,40.695391],[-74.067688,40.695217],[-74.067452,40.695555],[-74.065882,40.694626],[-74.06693,40.694008],[-74.068929,40.691697],[-74.069459,40.690723],[-74.069929,40.688696],[-74.069624,40.685822],[-74.07021,40.684684],[-74.069889,40.68445],[-74.070559,40.683946],[-74.073359,40.686049],[-74.073182,40.686206],[-74.07347,40.686778],[-74.074685,40.687589],[-74.07484,40.687935],[-74.075758,40.68829],[-74.075897,40.688661],[-74.078013,40.688601],[-74.078733,40.688949],[-74.080104,40.68889],[-74.080067,40.689109],[-74.079345,40.689189],[-74.079379,40.689436],[-74.079054,40.689572],[-74.079702,40.689712],[-74.080425,40.689467],[-74.081216,40.689882],[-74.080025,40.689987],[-74.079372,40.690671],[-74.078722,40.690779],[-74.078507,40.690448],[-74.079123,40.690066],[-74.078509,40.690119],[-74.077395,40.689511],[-74.078191,40.689102],[-74.077904,40.688936],[-74.076029,40.688875],[-74.074306,40.687633],[-74.074303,40.688127],[-74.073434,40.6887],[-74.072062,40.68886],[-74.070091,40.686986],[-74.069874,40.687068],[-74.070292,40.68932],[-74.070242,40.691489],[-74.071,40.691436],[-74.071246,40.692453],[-74.071534,40.692454],[-74.071388,40.692865],[-74.071636,40.693443],[-74.072103,40.693829],[-74.072967,40.694079],[-74.073467,40.694795],[-74.072207,40.69446],[-74.071093,40.693825],[-74.070292,40.69503],[-74.068549,40.696808],[-74.067899,40.696942],[-74.067108,40.696528],[-74.06671,40.696828],[-74.066563,40.697239],[-74.066887,40.697213],[-74.06685,40.697433],[-74.067717,40.697271],[-74.067968,40.697464],[-74.068358,40.698481],[-74.067815,40.698781],[-74.067741,40.69911],[-74.067561,40.699055],[-74.067416,40.699082],[-74.068315,40.699579],[-74.068311,40.700128],[-74.068563,40.700321]],[[-74.05415,40.714403],[-74.054078,40.714348],[-74.054006,40.714348],[-74.05415,40.714403]],[[-74.054078,40.714348],[-74.054114,40.714321],[-74.054078,40.714321],[-74.054078,40.714348]],[[-74.054005,40.71443],[-74.053645,40.714374],[-74.053572,40.714429],[-74.054005,40.71443]],[[-74.053428,40.714401],[-74.053609,40.714346],[-74.053357,40.714318],[-74.053428,40.714401]],[[-74.054756,40.720802],[-74.054687,40.720417],[-74.053892,40.720496],[-74.052921,40.720026],[-74.053209,40.720219],[-74.052955,40.720383],[-74.053819,40.720633],[-74.05367,40.721374],[-74.052228,40.721149],[-74.052153,40.721697],[-74.05179,40.721943],[-74.052187,40.721999],[-74.05266,40.72137],[-74.053056,40.721454],[-74.052979,40.722167],[-74.053485,40.722114],[-74.053741,40.721594],[-74.054317,40.721816],[-74.054174,40.721513],[-74.05454,40.720801],[-74.054756,40.720802]],[[-74.047095,40.717258],[-74.047132,40.717203],[-74.047096,40.717203],[-74.047095,40.717258]],[[-74.045433,40.717746],[-74.045396,40.717773],[-74.045432,40.717773],[-74.045433,40.717746]],[[-74.044345,40.718455],[-74.04431,40.718428],[-74.044309,40.718455],[-74.044345,40.718455]],[[-74.037403,40.725921],[-74.037439,40.725894],[-74.037403,40.725894],[-74.037403,40.725921]],[[-74.035241,40.720313],[-74.035205,40.720258],[-74.035205,40.720313],[-74.035241,40.720313]],[[-74.033799,40.72017],[-74.03398,40.720061],[-74.0338,40.719978],[-74.033799,40.72017]],[[-74.033451,40.728596],[-74.033415,40.728568],[-74.033415,40.728595],[-74.033451,40.728596]],[[-74.033705,40.733538],[-74.033669,40.733565],[-74.033705,40.733565],[-74.033705,40.733538]],[[-74.03785,40.734323],[-74.037778,40.73435],[-74.03785,40.734378],[-74.03785,40.734323]],[[-74.038102,40.734461],[-74.038137,40.734489],[-74.038138,40.734461],[-74.038102,40.734461]],[[-74.034706,40.734887],[-74.034671,40.734859],[-74.03467,40.734887],[-74.034706,40.734887]],[[-74.031466,40.733885],[-74.031502,40.733858],[-74.031466,40.733858],[-74.031466,40.733885]]],[[[-74.054746,40.711496],[-74.054603,40.711358],[-74.054931,40.710865],[-74.054858,40.710975],[-74.054854,40.711524],[-74.054746,40.711496]],[[-74.05471,40.711441],[-74.054747,40.711414],[-74.054711,40.711413],[-74.05471,40.711441]]],[[[-74.053981,40.723461],[-74.052581,40.727793],[-74.051716,40.727625],[-74.051498,40.727844],[-74.051532,40.728228],[-74.052218,40.728121],[-74.052323,40.728506],[-74.051374,40.730204],[-74.051268,40.729847],[-74.051159,40.729956],[-74.051306,40.729545],[-74.049897,40.729759],[-74.048311,40.729533],[-74.048091,40.730081],[-74.048023,40.729505],[-74.046652,40.729389],[-74.046432,40.729938],[-74.046328,40.729333],[-74.044957,40.729245],[-74.045935,40.728728],[-74.045538,40.728754],[-74.04554,40.728534],[-74.046048,40.728042],[-74.046626,40.727989],[-74.046628,40.727687],[-74.046123,40.727603],[-74.046306,40.727302],[-74.046017,40.727328],[-74.045732,40.726778],[-74.045914,40.726532],[-74.045408,40.726667],[-74.045518,40.726365],[-74.045086,40.726199],[-74.04516,40.725952],[-74.044082,40.725399],[-74.044443,40.725346],[-74.044445,40.725016],[-74.043759,40.725123],[-74.043437,40.72471],[-74.042968,40.724653],[-74.043078,40.724379],[-74.043619,40.724491],[-74.043622,40.72408],[-74.044702,40.724303],[-74.045029,40.724113],[-74.044922,40.723893],[-74.045282,40.723976],[-74.04532,40.723729],[-74.045681,40.723621],[-74.045895,40.723979],[-74.046835,40.723818],[-74.046152,40.723403],[-74.046621,40.72335],[-74.046695,40.723131],[-74.04691,40.723351],[-74.047271,40.72327],[-74.047311,40.722776],[-74.04814,40.72278],[-74.048034,40.722532],[-74.048826,40.722728],[-74.049477,40.72251],[-74.049547,40.722813],[-74.050127,40.72254],[-74.050237,40.722239],[-74.050561,40.72224],[-74.050527,40.722075],[-74.050706,40.722241],[-74.051248,40.722106],[-74.051282,40.72238],[-74.052508,40.722577],[-74.052506,40.722797],[-74.053658,40.723213],[-74.05362,40.723515],[-74.053981,40.723461]],[[-74.045936,40.728673],[-74.045972,40.728618],[-74.045936,40.728618],[-74.045936,40.728673]],[[-74.045914,40.726532],[-74.04595,40.726504],[-74.045914,40.726504],[-74.045914,40.726532]],[[-74.04691,40.723351],[-74.046874,40.723379],[-74.04691,40.723379],[-74.04691,40.723351]],[[-74.05362,40.723515],[-74.053583,40.723542],[-74.05362,40.723542],[-74.05362,40.723515]]],[[[-74.054503,40.726291],[-74.05454,40.726263],[-74.054539,40.726291],[-74.054503,40.726291]]],[[[-74.054396,40.726208],[-74.054211,40.726811],[-74.054101,40.727113],[-74.054136,40.727277],[-74.053846,40.727468],[-74.053769,40.728237],[-74.052355,40.729219],[-74.052612,40.728479],[-74.053519,40.727769],[-74.052979,40.72763],[-74.05309,40.727164],[-74.053196,40.727493],[-74.053701,40.727523],[-74.053847,40.727304],[-74.053921,40.72703],[-74.053274,40.726643],[-74.054194,40.724011],[-74.054588,40.724424],[-74.054582,40.725275],[-74.054798,40.725441],[-74.054396,40.726208]],[[-74.0541,40.727277],[-74.054064,40.72725],[-74.054064,40.727277],[-74.0541,40.727277]]],[[[-74.054283,40.726811],[-74.05432,40.726784],[-74.054319,40.726811],[-74.054283,40.726811]]],[[[-74.054247,40.726866],[-74.054283,40.726894],[-74.054247,40.726894],[-74.054247,40.726866]]],[[[-74.05421,40.726948],[-74.054246,40.726976],[-74.05421,40.726976],[-74.05421,40.726948]]],[[[-74.054173,40.727058],[-74.05421,40.727031],[-74.054209,40.727058],[-74.054173,40.727058]]],[[[-74.054137,40.72714],[-74.054173,40.727113],[-74.054173,40.72714],[-74.054137,40.72714]]],[[[-74.052357,40.728835],[-74.052321,40.728917],[-74.052321,40.728835],[-74.052357,40.728835]]],[[[-74.05221,40.729274],[-74.052285,40.728917],[-74.052321,40.728917],[-74.05221,40.729274]]],[[[-74.051445,40.730341],[-74.051954,40.729767],[-74.051552,40.730534],[-74.051445,40.730341]]],[[[-74.045454,40.73051],[-74.045202,40.730399],[-74.046609,40.730542],[-74.046611,40.730158],[-74.046214,40.730239],[-74.046215,40.730019],[-74.046757,40.729994],[-74.048956,40.730249],[-74.049314,40.730663],[-74.049891,40.730747],[-74.045454,40.73051]]],[[[-74.05184,40.730645],[-74.051804,40.730617],[-74.05184,40.730617],[-74.05184,40.730645]]],[[[-74.050865,40.730723],[-74.051409,40.730396],[-74.051552,40.730561],[-74.05137,40.730863],[-74.050865,40.730723]]],[[[-74.051876,40.730645],[-74.05184,40.730672],[-74.05184,40.730645],[-74.051876,40.730645]]],[[[-74.051876,40.7307],[-74.051912,40.730673],[-74.051912,40.7307],[-74.051876,40.7307]]],[[[-74.051983,40.730783],[-74.05202,40.730755],[-74.05202,40.730783],[-74.051983,40.730783]]],[[[-74.05227,40.731141],[-74.05191,40.731002],[-74.051729,40.731001],[-74.051694,40.730946],[-74.051477,40.730945],[-74.051733,40.730535],[-74.051803,40.730837],[-74.052092,40.730811],[-74.052055,40.730948],[-74.052449,40.731251],[-74.052413,40.731251],[-74.052414,40.731224],[-74.052377,40.731223],[-74.052378,40.731196],[-74.052305,40.731196],[-74.05227,40.731141]]],[[[-74.04906,40.730881],[-74.049168,40.730909],[-74.04906,40.730909],[-74.04906,40.730881]]],[[[-74.049276,40.730909],[-74.05007,40.730995],[-74.049276,40.730937],[-74.049276,40.730909]]],[[[-74.052235,40.730976],[-74.052199,40.730976],[-74.052199,40.730948],[-74.052235,40.730948],[-74.052235,40.730976]]],[[[-74.052235,40.731003],[-74.052235,40.730976],[-74.052271,40.730976],[-74.052271,40.731003],[-74.052235,40.731003]]],[[[-74.05227,40.731031],[-74.052271,40.731003],[-74.052307,40.731004],[-74.052307,40.731031],[-74.05227,40.731031]]],[[[-74.052342,40.731059],[-74.052307,40.731031],[-74.052343,40.731031],[-74.052342,40.731059]]],[[[-74.05209,40.731085],[-74.052126,40.731113],[-74.05209,40.731113],[-74.05209,40.731085]]],[[[-74.052162,40.731113],[-74.052125,40.73114],[-74.052126,40.731113],[-74.052162,40.731113]]],[[[-74.05245,40.731141],[-74.052414,40.731169],[-74.052414,40.731141],[-74.05245,40.731141]]],[[[-74.05245,40.731196],[-74.052486,40.731169],[-74.052486,40.731196],[-74.05245,40.731196]]],[[[-74.052449,40.731279],[-74.052449,40.731251],[-74.052486,40.731251],[-74.052485,40.731279],[-74.052449,40.731279]]],[[[-74.052521,40.731306],[-74.052485,40.731279],[-74.052521,40.731279],[-74.052521,40.731306]]],[[[-74.047321,40.731917],[-74.050139,40.731379],[-74.05057,40.731656],[-74.049521,40.732008],[-74.047321,40.731917]]],[[[-74.045091,40.736109],[-74.044044,40.736187],[-74.042748,40.73577],[-74.044733,40.735778],[-74.045163,40.736109],[-74.044769,40.73575],[-74.04513,40.735669],[-74.042099,40.735657],[-74.040369,40.735349],[-74.037817,40.733884],[-74.037998,40.733802],[-74.037677,40.733224],[-74.037829,40.732072],[-74.038479,40.732102],[-74.038626,40.731691],[-74.037543,40.731769],[-74.037542,40.731961],[-74.037216,40.732015],[-74.037284,40.732646],[-74.036922,40.732837],[-74.036929,40.731821],[-74.035641,40.730251],[-74.036109,40.730336],[-74.036183,40.730144],[-74.036185,40.729814],[-74.035861,40.729758],[-74.036763,40.729734],[-74.036801,40.729515],[-74.035682,40.729593],[-74.035756,40.729236],[-74.036766,40.72935],[-74.037237,40.729023],[-74.03803,40.729163],[-74.037955,40.729547],[-74.037485,40.729765],[-74.037628,40.72993],[-74.036438,40.729843],[-74.03629,40.730364],[-74.03766,40.730507],[-74.038058,40.730261],[-74.038129,40.730454],[-74.039066,40.730649],[-74.039573,40.73035],[-74.03975,40.730872],[-74.040576,40.731506],[-74.039961,40.731641],[-74.04061,40.731754],[-74.040428,40.731973],[-74.041438,40.732031],[-74.041761,40.73228],[-74.041943,40.732116],[-74.041367,40.731839],[-74.042126,40.731787],[-74.041477,40.731647],[-74.041441,40.731592],[-74.042129,40.731238],[-74.042671,40.73124],[-74.042819,40.730664],[-74.04307,40.73083],[-74.043072,40.730638],[-74.043831,40.730421],[-74.043399,40.730282],[-74.043363,40.7302],[-74.044338,40.730149],[-74.044592,40.729958],[-74.044844,40.729959],[-74.045094,40.730371],[-74.044696,40.730535],[-74.044768,40.730645],[-74.050141,40.731132],[-74.0453,40.731964],[-74.045698,40.731719],[-74.044977,40.731661],[-74.044975,40.731963],[-74.044649,40.732099],[-74.044614,40.731934],[-74.044613,40.732154],[-74.049521,40.732118],[-74.050244,40.731956],[-74.047883,40.734198],[-74.047516,40.735075],[-74.047621,40.735487],[-74.046929,40.736555],[-74.045161,40.736411],[-74.045091,40.736109]],[[-74.037998,40.733802],[-74.038034,40.73383],[-74.038034,40.733802],[-74.037998,40.733802]],[[-74.036257,40.729815],[-74.036257,40.729815],[-74.036185,40.729814],[-74.036257,40.729815]],[[-74.037594,40.729628],[-74.037558,40.7296],[-74.037558,40.729628],[-74.037594,40.729628]],[[-74.042017,40.731759],[-74.042054,40.731732],[-74.042018,40.731732],[-74.042017,40.731759]],[[-74.043507,40.730283],[-74.043579,40.730256],[-74.043507,40.730255],[-74.043507,40.730283]],[[-74.04545,40.736412],[-74.045414,40.736384],[-74.045414,40.736412],[-74.04545,40.736412]]],[[[-74.042853,40.736209],[-74.042817,40.736182],[-74.042853,40.736182],[-74.042853,40.736209]]],[[[-74.042961,40.736237],[-74.042889,40.73621],[-74.042961,40.73621],[-74.042961,40.736237]]],[[[-74.045161,40.736493],[-74.045233,40.736466],[-74.045233,40.736493],[-74.045161,40.736493]]],[[[-74.042673,40.741479],[-74.042598,40.741781],[-74.042237,40.741862],[-74.042522,40.742357],[-74.042117,40.743591],[-74.04135,40.74485],[-74.040951,40.745233],[-74.042097,40.743235],[-74.042169,40.741354],[-74.042277,40.741206],[-74.043516,40.740349],[-74.043782,40.739857],[-74.043922,40.739012],[-74.04352,40.738505],[-74.043911,40.73754],[-74.042837,40.736505],[-74.042815,40.736237],[-74.043105,40.736238],[-74.044366,40.736655],[-74.045123,40.736658],[-74.045914,40.737155],[-74.045298,40.737509],[-74.045187,40.737975],[-74.044716,40.738138],[-74.044816,40.739401],[-74.044596,40.739895],[-74.043582,40.740385],[-74.042592,40.742769],[-74.042926,40.741425],[-74.042673,40.741479]],[[-74.042277,40.741231],[-74.042313,40.741258],[-74.042313,40.741231],[-74.042277,40.741231]],[[-74.042926,40.741425],[-74.042962,40.741398],[-74.042926,40.741398],[-74.042926,40.741425]],[[-74.042745,40.741425],[-74.042673,40.741369],[-74.042673,40.741397],[-74.042745,40.741425]]],[[[-74.042817,40.741507],[-74.042889,40.741453],[-74.042889,40.741507],[-74.042817,40.741507]]],[[[-74.042852,40.741672],[-74.04278,40.741589],[-74.042853,40.741535],[-74.042852,40.741672]]],[[[-74.042815,40.741782],[-74.042779,40.741727],[-74.042815,40.741727],[-74.042815,40.741782]]],[[[-74.042706,40.741918],[-74.042742,40.741836],[-74.042778,40.741836],[-74.042778,40.741919],[-74.042706,40.741918]]],[[[-74.054259,40.757473],[-74.054223,40.757445],[-74.054259,40.757445],[-74.054259,40.757473]]],[[[-74.054005,40.757746],[-74.053968,40.757774],[-74.053968,40.757746],[-74.054005,40.757746]]],[[[-74.053203,40.758814],[-74.053167,40.758786],[-74.053203,40.758786],[-74.053203,40.758814]]],[[[-74.052035,40.760824],[-74.052028,40.760813],[-74.052035,40.760813],[-74.052035,40.760824]]],[[[-74.041206,40.704855],[-74.0413,40.704804],[-74.041264,40.704855],[-74.041206,40.704855]]],[[[-74.041156,40.704882],[-74.041192,40.704863],[-74.041192,40.704882],[-74.041156,40.704882]]],[[[-74.041105,40.704909],[-74.041156,40.704882],[-74.041155,40.70491],[-74.041105,40.704909]]],[[[-74.041062,40.704933],[-74.041083,40.704921],[-74.041083,40.704937],[-74.041062,40.704933]]],[[[-74.041,40.704964],[-74.041047,40.70494],[-74.041047,40.704964],[-74.041,40.704964]]],[[[-74.040975,40.704977],[-74.040974,40.704991],[-74.040946,40.704991],[-74.040975,40.704977]]],[[[-74.040838,40.705046],[-74.040938,40.704995],[-74.040902,40.705046],[-74.040838,40.705046]]],[[[-74.04083,40.705073],[-74.040784,40.705073],[-74.04083,40.70505],[-74.04083,40.705073]]],[[[-74.040757,40.7051],[-74.04073,40.7051],[-74.040757,40.705086],[-74.040757,40.7051]]],[[[-74.040721,40.705104],[-74.040721,40.705127],[-74.040676,40.705127],[-74.040721,40.705104]]],[[[-74.040649,40.705141],[-74.040649,40.705155],[-74.040622,40.705155],[-74.040649,40.705141]]],[[[-74.040595,40.705168],[-74.040576,40.705209],[-74.04051,40.705209],[-74.040595,40.705168]]],[[[-74.040504,40.705236],[-74.040454,40.705236],[-74.040504,40.705212],[-74.040504,40.705236]]],[[[-74.040398,40.705263],[-74.040432,40.705247],[-74.040432,40.705264],[-74.040398,40.705263]]],[[[-74.040341,40.705291],[-74.040395,40.705265],[-74.040395,40.705291],[-74.040341,40.705291]]],[[[-74.040323,40.7053],[-74.040287,40.705345],[-74.040229,40.705345],[-74.040323,40.7053]]],[[[-74.040215,40.705352],[-74.040178,40.7054],[-74.040115,40.7054],[-74.040215,40.705352]]],[[[-74.039999,40.705454],[-74.040106,40.705404],[-74.04007,40.705454],[-74.039999,40.705454]]],[[[-74.039997,40.705481],[-74.039941,40.705481],[-74.039997,40.705455],[-74.039997,40.705481]]],[[[-74.039925,40.705509],[-74.039883,40.705508],[-74.039925,40.705489],[-74.039925,40.705509]]],[[[-74.039853,40.705522],[-74.039853,40.705536],[-74.039824,40.705536],[-74.039853,40.705522]]],[[[-74.039816,40.705563],[-74.039766,40.705563],[-74.039816,40.705539],[-74.039816,40.705563]]],[[[-74.039744,40.70559],[-74.039708,40.70559],[-74.039744,40.705573],[-74.039744,40.70559]]],[[[-74.039708,40.705618],[-74.039687,40.7056],[-74.039708,40.70559],[-74.039708,40.705618]]],[[[-74.039589,40.705644],[-74.039636,40.705623],[-74.039635,40.705645],[-74.039589,40.705644]]],[[[-74.039563,40.705672],[-74.03953,40.705672],[-74.039563,40.705656],[-74.039563,40.705672]]],[[[-74.039469,40.729745],[-74.039619,40.728922],[-74.038504,40.728451],[-74.038542,40.728177],[-74.038937,40.728398],[-74.039659,40.728346],[-74.038579,40.728012],[-74.038906,40.727767],[-74.038691,40.727519],[-74.039449,40.727467],[-74.038691,40.727436],[-74.038693,40.727244],[-74.039919,40.727277],[-74.03973,40.728621],[-74.040018,40.728677],[-74.04001,40.72983],[-74.039469,40.729745]]],[[[-74.038815,40.735617],[-74.040511,40.735679],[-74.041484,40.73593],[-74.041554,40.736122],[-74.041916,40.736079],[-74.039624,40.73643],[-74.03754,40.735914],[-74.038815,40.735617]],[[-74.038707,40.735699],[-74.038742,40.735726],[-74.038743,40.735699],[-74.038707,40.735699]]],[[[-74.042705,40.741973],[-74.042742,40.741946],[-74.042741,40.741974],[-74.042705,40.741973]]],[[[-74.042632,40.742083],[-74.042669,40.742056],[-74.042668,40.742083],[-74.042632,40.742083]]],[[[-74.042519,40.742851],[-74.042592,40.742769],[-74.042591,40.742879],[-74.042519,40.742851]]],[[[-74.042482,40.742933],[-74.042555,40.742906],[-74.042554,40.742961],[-74.042482,40.742933]]],[[[-74.042518,40.743043],[-74.042445,40.74307],[-74.042445,40.743043],[-74.042518,40.743043]]],[[[-74.042445,40.743153],[-74.042409,40.743125],[-74.042445,40.743125],[-74.042445,40.743153]]],[[[-74.042408,40.743262],[-74.042371,40.743317],[-74.042372,40.743262],[-74.042408,40.743262]]],[[[-74.042407,40.743345],[-74.042443,40.743317],[-74.042443,40.743345],[-74.042407,40.743345]]],[[[-74.042335,40.743372],[-74.042371,40.743345],[-74.042371,40.743372],[-74.042335,40.743372]]],[[[-74.042334,40.743482],[-74.042298,40.743454],[-74.042334,40.743454],[-74.042334,40.743482]]],[[[-74.040951,40.745233],[-74.040441,40.74589],[-74.040341,40.745862],[-74.040951,40.745233]]],[[[-74.040405,40.74589],[-74.04015,40.746218],[-74.040005,40.7463],[-74.040333,40.745871],[-74.040405,40.74589]]],[[[-74.039969,40.746266],[-74.039969,40.7463],[-74.039943,40.7463],[-74.039969,40.746266]]],[[[-74.039902,40.746354],[-74.039933,40.746314],[-74.039932,40.746354],[-74.039902,40.746354]]],[[[-74.039969,40.746327],[-74.040004,40.746355],[-74.039968,40.746355],[-74.039969,40.746327]]],[[[-74.039896,40.746362],[-74.039317,40.747368],[-74.039603,40.746747],[-74.039896,40.746362]]],[[[-74.039311,40.747422],[-74.039304,40.747397],[-74.039312,40.74738],[-74.039311,40.747422]]],[[[-74.039275,40.747505],[-74.039244,40.747505],[-74.039275,40.747449],[-74.039275,40.747505]]],[[[-74.039238,40.747515],[-74.039238,40.747559],[-74.039214,40.747559],[-74.039238,40.747515]]],[[[-74.039202,40.747614],[-74.039183,40.747614],[-74.039202,40.747581],[-74.039202,40.747614]]],[[[-74.039165,40.747696],[-74.039138,40.747696],[-74.039165,40.747646],[-74.039165,40.747696]]],[[[-74.039129,40.747712],[-74.039129,40.747751],[-74.039107,40.747751],[-74.039129,40.747712]]],[[[-74.039062,40.747833],[-74.039092,40.747778],[-74.039092,40.747833],[-74.039062,40.747833]]],[[[-74.039051,40.747853],[-74.039055,40.747888],[-74.039031,40.747888],[-74.039051,40.747853]]],[[[-74.039019,40.74791],[-74.039019,40.74797],[-74.038985,40.74797],[-74.039019,40.74791]]],[[[-74.038982,40.747998],[-74.038982,40.747976],[-74.038983,40.747975],[-74.038982,40.747998]]],[[[-74.039491,40.705699],[-74.03947,40.705699],[-74.039491,40.705689],[-74.039491,40.705699]]],[[[-74.039454,40.705726],[-74.03941,40.705726],[-74.039455,40.705706],[-74.039454,40.705726]]],[[[-74.039382,40.705753],[-74.03935,40.705753],[-74.039382,40.705739],[-74.039382,40.705753]]],[[[-74.03931,40.705781],[-74.039289,40.705781],[-74.03931,40.705771],[-74.03931,40.705781]]],[[[-74.039227,40.705808],[-74.039274,40.705787],[-74.039274,40.705808],[-74.039227,40.705808]]],[[[-74.039165,40.705835],[-74.039201,40.705819],[-74.039201,40.705835],[-74.039165,40.705835]]],[[[-74.039129,40.705862],[-74.039103,40.705862],[-74.039129,40.705851],[-74.039129,40.705862]]],[[[-74.039041,40.705889],[-74.039057,40.705882],[-74.039057,40.705889],[-74.039041,40.705889]]],[[[-74.038979,40.705917],[-74.03902,40.705898],[-74.03902,40.705917],[-74.038979,40.705917]]],[[[-74.038948,40.705929],[-74.038948,40.705944],[-74.038913,40.705944],[-74.038948,40.705929]]],[[[-74.038912,40.705971],[-74.038846,40.705971],[-74.038912,40.705944],[-74.038912,40.705971]]],[[[-74.038839,40.705998],[-74.038779,40.705998],[-74.03884,40.705974],[-74.038839,40.705998]]],[[[-74.038767,40.706003],[-74.038767,40.706026],[-74.038712,40.706025],[-74.038767,40.706003]]],[[[-74.038695,40.706053],[-74.038651,40.706052],[-74.038695,40.706032],[-74.038695,40.706053]]],[[[-74.038591,40.70608],[-74.038622,40.706065],[-74.038622,40.70608],[-74.038591,40.70608]]],[[[-74.033986,40.719237],[-74.034022,40.719183],[-74.034022,40.719237],[-74.033986,40.719237]]],[[[-74.037172,40.722846],[-74.037208,40.722819],[-74.037208,40.722846],[-74.037172,40.722846]]],[[[-74.037171,40.722983],[-74.037207,40.722929],[-74.037207,40.722983],[-74.037171,40.722983]]],[[[-74.034715,40.728518],[-74.03454,40.727667],[-74.034754,40.728134],[-74.035729,40.728001],[-74.035761,40.728577],[-74.034715,40.728518]]],[[[-74.036666,40.728169],[-74.036843,40.728582],[-74.035905,40.728633],[-74.035981,40.728112],[-74.036666,40.728169]]],[[[-74.035976,40.728825],[-74.035905,40.72866],[-74.03677,40.728774],[-74.036769,40.728856],[-74.035976,40.728825]]],[[[-74.035648,40.729208],[-74.035393,40.729537],[-74.035179,40.729234],[-74.035648,40.729208]]],[[[-74.034033,40.733072],[-74.033353,40.732301],[-74.032129,40.731939],[-74.032708,40.73164],[-74.032779,40.731914],[-74.033751,40.73222],[-74.033898,40.731782],[-74.034149,40.732002],[-74.034332,40.731674],[-74.034657,40.73162],[-74.034373,40.730933],[-74.03401,40.731206],[-74.033759,40.731095],[-74.034049,40.730876],[-74.033727,40.730463],[-74.034088,40.730465],[-74.034456,40.729423],[-74.034562,40.729753],[-74.034816,40.729562],[-74.035066,40.729865],[-74.035391,40.729811],[-74.03571,40.730691],[-74.036749,40.731821],[-74.036814,40.732782],[-74.036601,40.732232],[-74.035087,40.732088],[-74.034832,40.732472],[-74.034507,40.732415],[-74.034867,40.732582],[-74.03479,40.73324],[-74.034071,40.732798],[-74.034033,40.733072]],[[-74.034035,40.732798],[-74.034,40.732688],[-74.033999,40.732798],[-74.034035,40.732798]]],[[[-74.035078,40.733324],[-74.0358,40.733354],[-74.03602,40.732751],[-74.03674,40.733083],[-74.036411,40.733713],[-74.034968,40.733625],[-74.035221,40.733489],[-74.035078,40.733324]]],[[[-74.03692,40.733194],[-74.03699,40.733469],[-74.037386,40.733525],[-74.037133,40.733661],[-74.037421,40.733745],[-74.03742,40.733827],[-74.03688,40.733715],[-74.03692,40.733194]]],[[[-74.034678,40.733734],[-74.033957,40.733676],[-74.033921,40.733621],[-74.034679,40.733679],[-74.034678,40.733734]]],[[[-74.034751,40.733734],[-74.035003,40.733708],[-74.035003,40.733735],[-74.034751,40.733734]]],[[[-74.03024,40.733707],[-74.030158,40.733715],[-74.030091,40.733695],[-74.03024,40.733707]]],[[[-74.038211,40.734297],[-74.038247,40.73427],[-74.038247,40.734297],[-74.038211,40.734297]]],[[[-74.032962,40.73455],[-74.033338,40.734552],[-74.033337,40.734579],[-74.033301,40.734651],[-74.032962,40.73455]]],[[[-74.038495,40.735012],[-74.038567,40.734985],[-74.038567,40.735012],[-74.038495,40.735012]]],[[[-74.038744,40.735562],[-74.038816,40.73559],[-74.038743,40.735589],[-74.038744,40.735562]]],[[[-74.037877,40.735641],[-74.038527,40.735561],[-74.038527,40.735588],[-74.037877,40.735641]]],[[[-74.038215,40.749367],[-74.038215,40.749367],[-74.038215,40.749367],[-74.038215,40.749367]]],[[[-74.038322,40.749532],[-74.038358,40.749505],[-74.038358,40.749532],[-74.038322,40.749532]]],[[[-74.038286,40.749614],[-74.038322,40.749587],[-74.038322,40.749614],[-74.038286,40.749614]]],[[[-74.038285,40.749642],[-74.038249,40.749697],[-74.038249,40.749642],[-74.038285,40.749642]]],[[[-74.038249,40.749697],[-74.038212,40.749751],[-74.038213,40.749696],[-74.038249,40.749697]]],[[[-74.038212,40.749751],[-74.038176,40.749834],[-74.038176,40.749751],[-74.038212,40.749751]]],[[[-74.03814,40.749833],[-74.038175,40.749888],[-74.038139,40.749888],[-74.03814,40.749833]]],[[[-74.038139,40.749943],[-74.038103,40.749916],[-74.038139,40.749916],[-74.038139,40.749943]]],[[[-74.038103,40.749943],[-74.038066,40.74997],[-74.038067,40.749943],[-74.038103,40.749943]]],[[[-74.037994,40.750025],[-74.038066,40.750053],[-74.037994,40.75008],[-74.037994,40.750025]]],[[[-74.03803,40.75008],[-74.038066,40.750108],[-74.038029,40.750107],[-74.03803,40.75008]]],[[[-74.037921,40.750134],[-74.038029,40.750162],[-74.03792,40.750217],[-74.037921,40.750134]]],[[[-74.037884,40.750217],[-74.03792,40.750272],[-74.037884,40.750272],[-74.037884,40.750217]]],[[[-74.037884,40.750272],[-74.037847,40.750326],[-74.037848,40.750271],[-74.037884,40.750272]]],[[[-74.037847,40.750326],[-74.037811,40.750338],[-74.037811,40.750326],[-74.037847,40.750326]]]]}}]}