{"type":"FeatureCollection","features":[{"type":"Feature","properties":{"level_ft":9},"geometry":{"type":"MultiPolygon","coordinates":[[[[-74.09545,40.679611],[-74.095343,40.67951],[-74.095582,40.679612],[-74.095558,40.679639],[-74.095522,40.679639],[-74.095522,40.679612],[-74.09545,40.679611]]],[[[-74.095647,40.679639],[-74.09563,40.679639],[-74.09563,40.679632],[-74.095647,40.679639]]],[[[-74.095594,40.679667],[-74.095558,40.679639],[-74.095594,40.679639],[-74.095594,40.679667]]],[[[-74.09563,40.679667],[-74.095666,40.679694],[-74.09563,40.679694],[-74.09563,40.679667]]],[[[-74.097896,40.680594],[-74.096452,40.680905],[-74.095734,40.680381],[-74.095409,40.680435],[-74.095266,40.680297],[-74.095157,40.680461],[-74.094833,40.680268],[-74.094585,40.679663],[-74.095054,40.67961],[-74.095377,40.679803],[-74.095666,40.679722],[-74.095702,40.679667],[-74.095666,40.679648],[-74.097896,40.680594]],[[-74.095698,40.680381],[-74.095662,40.680353],[-74.095662,40.680381],[-74.095698,40.680381]],[[-74.095197,40.679748],[-74.095089,40.679775],[-74.095161,40.679802],[-74.095197,40.679748]],[[-74.095197,40.679775],[-74.095233,40.679803],[-74.095233,40.679775],[-74.095197,40.679775]],[[-74.095413,40.679803],[-74.095305,40.67983],[-74.095305,40.679858],[-74.095413,40.679858],[-74.095413,40.679803]],[[-74.095305,40.67983],[-74.095269,40.679803],[-74.095269,40.67983],[-74.095305,40.67983]],[[-74.095413,40.679858],[-74.095449,40.679886],[-74.095449,40.679858],[-74.095413,40.679858]],[[-74.096133,40.679998],[-74.096061,40.680053],[-74.096133,40.680025],[-74.096133,40.679998]]],[[[-74.087655,40.680819],[-74.086504,40.680321],[-74.086182,40.679963],[-74.086327,40.679744],[-74.087801,40.680408],[-74.08798,40.680738],[-74.087655,40.680819]]],[[[-74.085053,40.687508],[-74.083618,40.686377],[-74.083618,40.686295],[-74.086389,40.687155],[-74.08563,40.687537],[-74.085053,40.687508]]],[[[-74.084071,40.688822],[-74.084107,40.688794],[-74.084107,40.688822],[-74.084071,40.688822]]],[[[-74.083999,40.688849],[-74.084035,40.688821],[-74.084035,40.688849],[-74.083999,40.688849]]],[[[-74.08307,40.693265],[-74.085539,40.690529],[-74.086228,40.69001],[-74.085754,40.690749],[-74.08307,40.693265]]],[[[-74.082015,40.694689],[-74.082051,40.694661],[-74.082051,40.694689],[-74.082015,40.694689]]],[[[-74.082015,40.694716],[-74.081979,40.694688],[-74.082015,40.694689],[-74.082015,40.694716]]],[[[-74.081906,40.694798],[-74.081942,40.694771],[-74.081942,40.694798],[-74.081906,40.694798]]],[[[-74.08187,40.694825],[-74.081906,40.694798],[-74.081906,40.694825],[-74.08187,40.694825]]],[[[-74.081834,40.694853],[-74.08187,40.694825],[-74.08187,40.694853],[-74.081834,40.694853]]],[[[-74.081833,40.694907],[-74.081797,40.69488],[-74.081834,40.69488],[-74.081833,40.694907]]],[[[-74.083092,40.695543],[-74.083128,40.695516],[-74.083128,40.695544],[-74.083092,40.695543]]],[[[-74.083092,40.695543],[-74.083055,40.695571],[-74.083056,40.695543],[-74.083092,40.695543]]],[[[-74.082947,40.695653],[-74.082911,40.69568],[-74.082911,40.695653],[-74.082947,40.695653]]],[[[-74.082874,40.69568],[-74.08291,40.695707],[-74.082874,40.695707],[-74.082874,40.69568]]],[[[-74.082838,40.695707],[-74.082874,40.695735],[-74.082838,40.695735],[-74.082838,40.695707]]],[[[-74.082802,40.695735],[-74.082838,40.695762],[-74.082802,40.695762],[-74.082802,40.695735]]],[[[-74.082693,40.695844],[-74.082657,40.695871],[-74.082657,40.695844],[-74.082693,40.695844]]],[[[-74.082621,40.695871],[-74.082657,40.695899],[-74.082621,40.695899],[-74.082621,40.695871]]],[[[-74.082585,40.695898],[-74.08262,40.695926],[-74.082584,40.695926],[-74.082585,40.695898]]],[[[-74.082584,40.695926],[-74.082548,40.695953],[-74.082548,40.695926],[-74.082584,40.695926]]],[[[-74.082548,40.695953],[-74.082512,40.695981],[-74.082512,40.695953],[-74.082548,40.695953]]],[[[-74.082439,40.696063],[-74.082476,40.696035],[-74.082475,40.696063],[-74.082439,40.696063]]],[[[-74.082259,40.696062],[-74.082295,40.696035],[-74.082295,40.696062],[-74.082259,40.696062]]],[[[-74.082403,40.69609],[-74.082367,40.696117],[-74.082367,40.69609],[-74.082403,40.69609]]],[[[-74.082186,40.696117],[-74.082223,40.696089],[-74.082223,40.696117],[-74.082186,40.696117]]],[[[-74.08215,40.696116],[-74.082114,40.696116],[-74.082115,40.696089],[-74.082151,40.696089],[-74.08215,40.696116]]],[[[-74.082186,40.696144],[-74.08215,40.696116],[-74.082186,40.696117],[-74.082186,40.696144]]],[[[-74.082258,40.696144],[-74.082367,40.696117],[-74.082258,40.696199],[-74.082258,40.696144]]],[[[-74.082041,40.696363],[-74.08215,40.696226],[-74.082222,40.696227],[-74.082041,40.696363]]],[[[-74.082041,40.696363],[-74.081968,40.696418],[-74.081969,40.696363],[-74.082041,40.696363]]],[[[-74.081824,40.696472],[-74.081859,40.696527],[-74.081823,40.696527],[-74.081824,40.696472]]],[[[-74.081823,40.696554],[-74.081787,40.696527],[-74.081823,40.696527],[-74.081823,40.696554]]],[[[-74.081787,40.696582],[-74.081751,40.696554],[-74.081787,40.696554],[-74.081787,40.696582]]],[[[-74.081751,40.696609],[-74.081715,40.696582],[-74.081751,40.696582],[-74.081751,40.696609]]],[[[-74.081642,40.696609],[-74.081714,40.696636],[-74.081642,40.696664],[-74.081642,40.696609]]],[[[-74.081642,40.696691],[-74.081606,40.696663],[-74.081642,40.696664],[-74.081642,40.696691]]],[[[-74.081606,40.696691],[-74.081533,40.6968],[-74.081461,40.6968],[-74.081606,40.696691]]],[[[-74.10706,40.698071],[-74.107675,40.697772],[-74.114232,40.700952],[-74.114309,40.704609],[-74.116408,40.709735],[-74.113869,40.712314],[-74.110167,40.715375],[-74.10747,40.717075],[-74.102976,40.71933],[-74.10177,40.720231],[-74.100089,40.722867],[-74.099011,40.727277],[-74.097078,40.726667],[-74.094488,40.72534],[-74.09391,40.725448],[-74.096248,40.726664],[-74.098962,40.727552],[-74.097897,40.73072],[-74.095303,40.735005],[-74.091107,40.735347],[-74.089415,40.734655],[-74.089058,40.73405],[-74.086178,40.733024],[-74.084343,40.732057],[-74.082675,40.733423],[-74.082781,40.73378],[-74.082564,40.733835],[-74.082922,40.734302],[-74.083643,40.734497],[-74.084073,40.734911],[-74.082381,40.734218],[-74.082235,40.734492],[-74.085078,40.735738],[-74.085689,40.736261],[-74.085147,40.736342],[-74.082052,40.734876],[-74.08162,40.734847],[-74.081146,40.735559],[-74.079812,40.735307],[-74.079741,40.735114],[-74.080212,40.734924],[-74.079961,40.734566],[-74.07924,40.734536],[-74.078767,40.735056],[-74.078083,40.734889],[-74.078084,40.734642],[-74.077688,40.73453],[-74.078017,40.7339],[-74.077116,40.733677],[-74.07719,40.733431],[-74.078452,40.733545],[-74.078847,40.733821],[-74.079102,40.73352],[-74.080074,40.733825],[-74.079972,40.732864],[-74.080404,40.732948],[-74.08066,40.732537],[-74.081095,40.73221],[-74.081598,40.732513],[-74.081925,40.73224],[-74.081631,40.73298],[-74.082065,40.732844],[-74.082719,40.732078],[-74.082681,40.73238],[-74.083006,40.732464],[-74.084569,40.730603],[-74.082446,40.729607],[-74.082157,40.729688],[-74.082451,40.728783],[-74.083138,40.728621],[-74.083502,40.728128],[-74.083933,40.728349],[-74.082288,40.726065],[-74.082542,40.725764],[-74.082111,40.725433],[-74.082299,40.724226],[-74.082805,40.724145],[-74.083133,40.72357],[-74.083998,40.723738],[-74.085371,40.723496],[-74.085657,40.723826],[-74.0866,40.723089],[-74.086313,40.722786],[-74.086963,40.722788],[-74.086426,40.722072],[-74.087975,40.722462],[-74.087797,40.722132],[-74.087256,40.722048],[-74.087005,40.721745],[-74.086175,40.721742],[-74.086686,40.72092],[-74.086143,40.721165],[-74.086327,40.720507],[-74.086868,40.720592],[-74.087195,40.720236],[-74.087592,40.720237],[-74.087516,40.720868],[-74.087732,40.720897],[-74.087553,40.720649],[-74.087949,40.720788],[-74.088384,40.72046],[-74.088237,40.720898],[-74.088453,40.721036],[-74.088706,40.720982],[-74.088744,40.720571],[-74.089394,40.720546],[-74.089505,40.719997],[-74.090083,40.720027],[-74.090409,40.719698],[-74.091347,40.719757],[-74.091169,40.719427],[-74.091673,40.719511],[-74.091458,40.719318],[-74.091711,40.719209],[-74.09164,40.718989],[-74.092217,40.719018],[-74.091896,40.718413],[-74.091973,40.717755],[-74.092988,40.716935],[-74.092737,40.716577],[-74.093027,40.716441],[-74.093278,40.716634],[-74.09346,40.716388],[-74.094613,40.716584],[-74.094759,40.716392],[-74.093391,40.715921],[-74.093502,40.715454],[-74.092602,40.715122],[-74.092317,40.714517],[-74.09412,40.714688],[-74.094374,40.714387],[-74.095024,40.714279],[-74.095243,40.713869],[-74.096215,40.714256],[-74.096796,40.713572],[-74.09651,40.713104],[-74.096942,40.713271],[-74.097633,40.712449],[-74.098727,40.710367],[-74.097434,40.709429],[-74.097037,40.709483],[-74.097329,40.708935],[-74.097007,40.708549],[-74.095816,40.708628],[-74.095998,40.708326],[-74.095605,40.707666],[-74.096001,40.707887],[-74.096218,40.707751],[-74.095177,40.706923],[-74.096471,40.707587],[-74.096869,40.707533],[-74.095684,40.706623],[-74.095938,40.706322],[-74.095867,40.706157],[-74.095578,40.706266],[-74.095653,40.7058],[-74.096481,40.70594],[-74.096485,40.705336],[-74.097276,40.705805],[-74.097316,40.705147],[-74.097677,40.70512],[-74.097714,40.704873],[-74.097177,40.70424],[-74.098009,40.703886],[-74.097902,40.703666],[-74.098371,40.70364],[-74.09805,40.703063],[-74.098697,40.703395],[-74.098375,40.702954],[-74.098379,40.702213],[-74.098812,40.702324],[-74.098706,40.701912],[-74.099722,40.700818],[-74.099653,40.700378],[-74.100159,40.700161],[-74.099983,40.699529],[-74.100199,40.699557],[-74.100672,40.698817],[-74.101405,40.696953],[-74.102602,40.695804],[-74.102822,40.695209],[-74.102852,40.695432],[-74.10746,40.697667],[-74.10706,40.698071]],[[-74.081022,40.732319],[-74.080658,40.732839],[-74.080837,40.733032],[-74.081525,40.73265],[-74.081022,40.732319]],[[-74.098486,40.702543],[-74.098522,40.70257],[-74.098522,40.702543],[-74.098486,40.702543]],[[-74.098812,40.702324],[-74.098883,40.702434],[-74.098884,40.702325],[-74.098812,40.702324]],[[-74.10706,40.698071],[-74.106988,40.698098],[-74.10706,40.698098],[-74.10706,40.698071]]],[[[-74.083859,40.740291],[-74.077554,40.738538],[-74.077303,40.738372],[-74.077484,40.738318],[-74.077521,40.738098],[-74.0768,40.738068],[-74.084712,40.736642],[-74.085468,40.736919],[-74.084965,40.736588],[-74.085832,40.736372],[-74.088532,40.737479],[-74.091103,40.736006],[-74.091287,40.735485],[-74.095174,40.73517],[-74.093398,40.737015],[-74.090175,40.738579],[-74.08703,40.739535],[-74.083859,40.740291]]],[[[-74.080866,40.739977],[-74.080902,40.73995],[-74.080902,40.739977],[-74.080866,40.739977]]],[[[-74.082305,40.74067],[-74.080578,40.739729],[-74.080364,40.739426],[-74.083641,40.740344],[-74.082305,40.74067]]],[[[-74.081081,40.740088],[-74.081045,40.74006],[-74.081082,40.74006],[-74.081081,40.740088]]],[[[-74.081293,40.740939],[-74.081401,40.74094],[-74.081292,40.740981],[-74.081293,40.740939]]],[[[-74.076304,40.679625],[-74.07634,40.679598],[-74.07634,40.679625],[-74.076304,40.679625]]],[[[-74.076555,40.679791],[-74.076664,40.679736],[-74.076663,40.679818],[-74.076555,40.679791]]],[[[-74.076519,40.679873],[-74.076555,40.679845],[-74.076555,40.679873],[-74.076519,40.679873]]],[[[-74.077486,40.680865],[-74.077522,40.680837],[-74.077522,40.680865],[-74.077486,40.680865]]],[[[-74.07763,40.680865],[-74.077738,40.680865],[-74.077846,40.680893],[-74.07763,40.680865]]],[[[-74.077846,40.680921],[-74.077955,40.680894],[-74.077954,40.680921],[-74.077846,40.680921]]],[[[-74.077666,40.68092],[-74.07763,40.680893],[-74.077666,40.680893],[-74.077666,40.68092]]],[[[-74.077954,40.680949],[-74.078063,40.680922],[-74.078062,40.680949],[-74.077954,40.680949]]],[[[-74.074673,40.692301],[-74.073454,40.691198],[-74.074102,40.691283],[-74.074068,40.690981],[-74.074283,40.691284],[-74.075366,40.691151],[-74.075226,40.690354],[-74.076058,40.690055],[-74.075987,40.689835],[-74.076998,40.689565],[-74.077247,40.690142],[-74.076633,40.690277],[-74.076884,40.69047],[-74.076665,40.690963],[-74.076157,40.691456],[-74.076014,40.691208],[-74.075798,40.691262],[-74.075434,40.691755],[-74.075503,40.692194],[-74.074673,40.692301]]],[[[-74.075227,40.695872],[-74.074218,40.695813],[-74.073502,40.694959],[-74.07426,40.69488],[-74.075123,40.69524],[-74.075875,40.696176],[-74.075227,40.695872]]],[[[-74.081461,40.696828],[-74.081425,40.6968],[-74.081461,40.6968],[-74.081461,40.696828]]],[[[-74.077345,40.697444],[-74.077417,40.697472],[-74.077345,40.697471],[-74.077345,40.697444]]],[[[-74.077309,40.697526],[-74.077345,40.697471],[-74.077345,40.697526],[-74.077309,40.697526]]],[[[-74.077309,40.697554],[-74.077273,40.697526],[-74.077309,40.697526],[-74.077309,40.697554]]],[[[-74.077236,40.697553],[-74.077272,40.697581],[-74.077236,40.697581],[-74.077236,40.697553]]],[[[-74.076043,40.698016],[-74.076079,40.698043],[-74.076043,40.698043],[-74.076043,40.698016]]],[[[-74.074758,40.701634],[-74.074794,40.701607],[-74.074794,40.701635],[-74.074758,40.701634]]],[[[-74.074649,40.701689],[-74.074686,40.701662],[-74.074685,40.701689],[-74.074649,40.701689]]],[[[-74.074577,40.701716],[-74.074613,40.701689],[-74.074613,40.701716],[-74.074577,40.701716]]],[[[-74.074577,40.701744],[-74.074505,40.701716],[-74.074577,40.701716],[-74.074577,40.701744]]],[[[-74.074505,40.701771],[-74.074469,40.701743],[-74.074505,40.701743],[-74.074505,40.701771]]],[[[-74.074468,40.701798],[-74.074396,40.70177],[-74.074468,40.701771],[-74.074468,40.701798]]],[[[-74.076584,40.737985],[-74.074602,40.737511],[-74.074275,40.737784],[-74.07406,40.737537],[-74.075254,40.737019],[-74.07533,40.736471],[-74.075763,40.736417],[-74.076129,40.73576],[-74.076378,40.736255],[-74.077102,40.735956],[-74.077171,40.73634],[-74.077318,40.736011],[-74.07757,40.73604],[-74.077675,40.736534],[-74.078323,40.736784],[-74.078975,40.736457],[-74.079297,40.736925],[-74.08085,40.736711],[-74.081498,40.736987],[-74.082186,40.736578],[-74.08251,40.736771],[-74.082003,40.736962],[-74.076584,40.737985]]],[[[-74.07413,40.737894],[-74.074166,40.737866],[-74.074166,40.737894],[-74.07413,40.737894]]],[[[-74.074274,40.737922],[-74.074238,40.737894],[-74.074274,40.737894],[-74.074274,40.737922]]],[[[-74.073264,40.737891],[-74.074238,40.737977],[-74.074741,40.73828],[-74.073621,40.738496],[-74.073264,40.737891]]],[[[-74.073366,40.738852],[-74.073259,40.738687],[-74.07521,40.738364],[-74.075965,40.738751],[-74.075423,40.738832],[-74.075423,40.738887],[-74.07618,40.738944],[-74.075925,40.739328],[-74.0756,40.739354],[-74.074809,40.739022],[-74.073366,40.738852]],[[-74.073692,40.738633],[-74.073656,40.738661],[-74.073692,40.738661],[-74.073692,40.738633]],[[-74.073583,40.738852],[-74.073655,40.738798],[-74.073547,40.738797],[-74.073583,40.738852]]],[[[-74.073834,40.739128],[-74.073725,40.739155],[-74.073545,40.739154],[-74.073581,40.7391],[-74.073834,40.739128]]],[[[-74.073508,40.739182],[-74.073437,40.739072],[-74.073509,40.739072],[-74.073508,40.739182]]],[[[-74.073869,40.739155],[-74.073834,40.739128],[-74.07387,40.739128],[-74.073869,40.739155]]],[[[-74.079715,40.739287],[-74.079679,40.739259],[-74.079715,40.739259],[-74.079715,40.739287]]],[[[-74.080147,40.739398],[-74.080184,40.739371],[-74.080184,40.739398],[-74.080147,40.739398]]],[[[-74.080794,40.739922],[-74.08083,40.73995],[-74.080794,40.739949],[-74.080794,40.739922]]],[[[-74.073934,40.740309],[-74.073363,40.739373],[-74.074445,40.739405],[-74.074047,40.739623],[-74.075598,40.739766],[-74.075595,40.740205],[-74.07538,40.739902],[-74.075055,40.739956],[-74.075051,40.74056],[-74.073934,40.740309]]],[[[-74.075195,40.740725],[-74.074508,40.740887],[-74.074437,40.740777],[-74.075195,40.740725]]],[[[-74.081184,40.741023],[-74.07702,40.743147],[-74.072551,40.74217],[-74.072012,40.741811],[-74.072194,40.74162],[-74.072016,40.741235],[-74.072632,40.740825],[-74.072783,40.739755],[-74.073108,40.739674],[-74.073361,40.73973],[-74.0735,40.740554],[-74.074039,40.740885],[-74.074977,40.740971],[-74.075519,40.740781],[-74.076174,40.740042],[-74.076179,40.739109],[-74.076577,40.738973],[-74.080073,40.73981],[-74.081865,40.740777],[-74.081365,40.74083],[-74.081293,40.740939],[-74.081184,40.741023]]],[[[-74.075145,40.742921],[-74.075001,40.742865],[-74.075145,40.742866],[-74.075145,40.742921]]],[[[-74.075181,40.742948],[-74.075253,40.742894],[-74.075289,40.742949],[-74.075181,40.742948]]],[[[-74.072244,40.750596],[-74.070625,40.749822],[-74.069477,40.748664],[-74.069195,40.747675],[-74.068907,40.747509],[-74.068097,40.744514],[-74.068242,40.744378],[-74.068349,40.74457],[-74.068281,40.743966],[-74.068498,40.743884],[-74.069571,40.745371],[-74.070256,40.745456],[-74.071377,40.745158],[-74.070696,40.744387],[-74.069113,40.743585],[-74.069475,40.743449],[-74.069477,40.743119],[-74.069802,40.743038],[-74.070422,40.74208],[-74.071322,40.742468],[-74.074278,40.742945],[-74.074532,40.742754],[-74.074963,40.743057],[-74.075721,40.743088],[-74.075397,40.743004],[-74.075542,40.74295],[-74.076947,40.743257],[-74.075151,40.745534],[-74.074869,40.746946],[-74.075017,40.747986],[-74.075707,40.748974],[-74.076586,40.749638],[-74.077145,40.749931],[-74.078852,40.750223],[-74.077279,40.752171],[-74.075228,40.752584],[-74.075238,40.753133],[-74.076523,40.754816],[-74.0763,40.755143],[-74.075215,40.755339],[-74.074894,40.75562],[-74.075146,40.757157],[-74.07465,40.758294],[-74.074044,40.756999],[-74.074298,40.756835],[-74.074049,40.756312],[-74.07358,40.756228],[-74.073293,40.75587],[-74.070724,40.751194],[-74.069719,40.750367],[-74.069332,40.748883],[-74.070696,40.750041],[-74.072783,40.751092],[-74.072244,40.750596]]],[[[-74.072351,40.750789],[-74.072387,40.750816],[-74.072351,40.750816],[-74.072351,40.750789]]],[[[-74.072385,40.756883],[-74.072348,40.75691],[-74.072348,40.756883],[-74.072385,40.756883]]],[[[-74.073278,40.758259],[-74.073314,40.758231],[-74.073314,40.758259],[-74.073278,40.758259]]],[[[-74.07335,40.758286],[-74.073314,40.758314],[-74.073314,40.758286],[-74.07335,40.758286]]],[[[-74.073386,40.758314],[-74.07335,40.758341],[-74.07335,40.758314],[-74.073386,40.758314]]],[[[-74.073422,40.758396],[-74.073386,40.758396],[-74.073386,40.758341],[-74.073422,40.758341],[-74.073422,40.758396]]],[[[-74.073457,40.758506],[-74.073458,40.758396],[-74.073529,40.758507],[-74.073457,40.758506]]],[[[-74.073529,40.758589],[-74.07368,40.758644],[-74.0736,40.758678],[-74.073529,40.758589]]],[[[-74.073492,40.758671],[-74.073456,40.758671],[-74.073456,40.758643],[-74.073492,40.758644],[-74.073492,40.758671]]],[[[-74.07355,40.758699],[-74.073492,40.758671],[-74.073528,40.758671],[-74.07355,40.758699]]],[[[-74.069322,40.69994],[-74.071203,40.699151],[-74.071853,40.699016],[-74.069936,40.699805],[-74.069573,40.700188],[-74.069322,40.69994]]],[[[-74.068419,40.700183],[-74.068455,40.700156],[-74.068455,40.700184],[-74.068419,40.700183]]],[[[-74.084035,40.688904],[-74.084827,40.689071],[-74.084682,40.689263],[-74.085004,40.689594],[-74.085691,40.689267],[-74.08616,40.689268],[-74.086159,40.689433],[-74.081842,40.69359],[-74.081481,40.693644],[-74.081695,40.693919],[-74.081262,40.694082],[-74.08039,40.69504],[-74.079086,40.695996],[-74.078435,40.696158],[-74.078289,40.696542],[-74.077783,40.696622],[-74.077496,40.696401],[-74.076918,40.696537],[-74.076445,40.697194],[-74.076841,40.697415],[-74.078035,40.696788],[-74.077961,40.69698],[-74.077672,40.697116],[-74.077599,40.69728],[-74.077491,40.69728],[-74.07749,40.697362],[-74.077418,40.697362],[-74.077345,40.697444],[-74.077273,40.697444],[-74.077237,40.697471],[-74.077273,40.697526],[-74.077236,40.697553],[-74.0772,40.697553],[-74.077272,40.697608],[-74.077742,40.697391],[-74.077704,40.697775],[-74.077739,40.69794],[-74.077811,40.69794],[-74.077922,40.697556],[-74.078101,40.697639],[-74.078611,40.696982],[-74.080531,40.695616],[-74.081766,40.694221],[-74.082451,40.694251],[-74.081762,40.694825],[-74.081797,40.694962],[-74.081397,40.69551],[-74.08049,40.696303],[-74.08038,40.696659],[-74.079292,40.697616],[-74.079688,40.697672],[-74.079941,40.697536],[-74.079799,40.697288],[-74.080486,40.697016],[-74.082446,40.694992],[-74.083168,40.694857],[-74.083166,40.695214],[-74.083492,40.694968],[-74.0836,40.694996],[-74.082042,40.696089],[-74.08099,40.6971],[-74.081389,40.696827],[-74.081424,40.696882],[-74.077691,40.699806],[-74.078018,40.699395],[-74.075954,40.700788],[-74.074327,40.701276],[-74.074506,40.701524],[-74.075265,40.701225],[-74.074144,40.701769],[-74.073818,40.70196],[-74.073818,40.702015],[-74.074685,40.701799],[-74.074827,40.702101],[-74.075155,40.701581],[-74.075624,40.7015],[-74.075077,40.702541],[-74.074644,40.702485],[-74.075039,40.702843],[-74.07464,40.703089],[-74.074416,40.704296],[-74.073333,40.704429],[-74.072861,40.704894],[-74.072895,40.705224],[-74.072679,40.705223],[-74.072638,40.705936],[-74.072423,40.705771],[-74.072313,40.706072],[-74.07199,40.705824],[-74.071592,40.705987],[-74.071738,40.705768],[-74.07127,40.705547],[-74.070981,40.705683],[-74.071087,40.705931],[-74.070691,40.705819],[-74.06982,40.706722],[-74.070035,40.70697],[-74.07036,40.706889],[-74.070358,40.707108],[-74.069634,40.707627],[-74.06949,40.707462],[-74.068913,40.707515],[-74.06877,40.707267],[-74.067793,40.70784],[-74.067685,40.707675],[-74.068193,40.70721],[-74.067763,40.706797],[-74.068052,40.706798],[-74.06885,40.706059],[-74.06921,40.706198],[-74.069717,40.705816],[-74.070041,40.705982],[-74.069719,40.705569],[-74.070043,40.705652],[-74.070769,40.705023],[-74.069795,40.705047],[-74.069576,40.705321],[-74.067298,40.706163],[-74.06744,40.706521],[-74.066501,40.706819],[-74.066748,40.707589],[-74.065922,40.707092],[-74.065887,40.706844],[-74.065164,40.707061],[-74.064908,40.707664],[-74.065705,40.707118],[-74.066172,40.707422],[-74.06581,40.707558],[-74.065845,40.707778],[-74.065341,40.707638],[-74.065517,40.708353],[-74.06454,40.708733],[-74.063857,40.708429],[-74.06346,40.70851],[-74.063316,40.708372],[-74.063279,40.708509],[-74.063387,40.708647],[-74.063278,40.708729],[-74.06371,40.708813],[-74.063563,40.709224],[-74.063203,40.709195],[-74.063236,40.709634],[-74.062549,40.709879],[-74.061974,40.709575],[-74.06176,40.709107],[-74.061941,40.708998],[-74.06169,40.70886],[-74.061944,40.708641],[-74.060142,40.708387],[-74.060684,40.708225],[-74.060107,40.708168],[-74.060722,40.70795],[-74.060724,40.707676],[-74.060615,40.70773],[-74.060543,40.707675],[-74.06152,40.707212],[-74.061667,40.706883],[-74.063874,40.705821],[-74.065578,40.704537],[-74.065471,40.704317],[-74.065831,40.704456],[-74.065471,40.704208],[-74.066088,40.703716],[-74.067822,40.703365],[-74.070136,40.702386],[-74.07032,40.701838],[-74.069173,40.70079],[-74.069752,40.700408],[-74.070075,40.700684],[-74.070221,40.700437],[-74.069933,40.700299],[-74.071994,40.699483],[-74.074342,40.698943],[-74.076042,40.698263],[-74.077267,40.698377],[-74.076837,40.697936],[-74.076115,40.698153],[-74.076259,40.698044],[-74.076224,40.697934],[-74.075828,40.697905],[-74.075863,40.69807],[-74.07431,40.698366],[-74.07413,40.698283],[-74.07554,40.697684],[-74.076306,40.696425],[-74.077137,40.696126],[-74.076849,40.696097],[-74.076995,40.695851],[-74.076526,40.695876],[-74.076496,40.694833],[-74.076968,40.694396],[-74.077544,40.69448],[-74.077882,40.692395],[-74.078608,40.691602],[-74.079005,40.691603],[-74.077391,40.69017],[-74.078612,40.690943],[-74.079118,40.69078],[-74.078721,40.690834],[-74.078545,40.690202],[-74.078148,40.6902],[-74.07797,40.689843],[-74.077143,40.689483],[-74.077721,40.689293],[-74.077039,40.688851],[-74.076209,40.688875],[-74.076603,40.689371],[-74.076096,40.689726],[-74.0757,40.689587],[-74.07563,40.689285],[-74.075555,40.689669],[-74.07505,40.68975],[-74.074763,40.689474],[-74.074873,40.689172],[-74.074119,40.68873],[-74.074267,40.688155],[-74.073579,40.688536],[-74.073577,40.688866],[-74.073289,40.688727],[-74.072134,40.688888],[-74.070127,40.687041],[-74.06991,40.687068],[-74.070468,40.690035],[-74.070178,40.690226],[-74.070534,40.691023],[-74.070243,40.691461],[-74.070893,40.691271],[-74.070828,40.690146],[-74.071079,40.690366],[-74.073353,40.690018],[-74.073205,40.690621],[-74.072014,40.690809],[-74.072986,40.691005],[-74.073811,40.691694],[-74.073701,40.691995],[-74.074348,40.6923],[-74.073914,40.692573],[-74.074488,40.693014],[-74.074557,40.693481],[-74.074124,40.693507],[-74.07434,40.693672],[-74.074157,40.693974],[-74.07315,40.69364],[-74.072253,40.692896],[-74.072003,40.692456],[-74.072221,40.692237],[-74.071932,40.692263],[-74.072006,40.692044],[-74.071503,40.691795],[-74.07111,40.691107],[-74.071176,40.692151],[-74.071282,40.692481],[-74.07157,40.692509],[-74.071745,40.693333],[-74.073111,40.69408],[-74.073503,40.694767],[-74.072566,40.694709],[-74.071093,40.693825],[-74.070363,40.695112],[-74.068476,40.696999],[-74.067574,40.696941],[-74.067071,40.696665],[-74.066746,40.696801],[-74.067033,40.696994],[-74.066886,40.697433],[-74.067717,40.697271],[-74.067968,40.697464],[-74.068358,40.698509],[-74.067815,40.698836],[-74.067741,40.699138],[-74.067561,40.699082],[-74.067488,40.699109],[-74.068603,40.69969],[-74.06842,40.700019],[-74.068383,40.700266],[-74.069465,40.70027],[-74.068813,40.700652],[-74.067663,40.699961],[-74.067371,40.700564],[-74.065596,40.701655],[-74.065413,40.702039],[-74.06584,40.702946],[-74.065623,40.70311],[-74.064866,40.703052],[-74.064574,40.703491],[-74.065692,40.703522],[-74.064821,40.704342],[-74.064025,40.704724],[-74.063629,40.704585],[-74.061101,40.705179],[-74.060666,40.705425],[-74.060699,40.705864],[-74.059975,40.706383],[-74.05994,40.706108],[-74.060376,40.705726],[-74.059981,40.70534],[-74.059511,40.70553],[-74.05976,40.706162],[-74.05871,40.706652],[-74.058137,40.705991],[-74.057776,40.7061],[-74.057521,40.706483],[-74.057662,40.706978],[-74.056866,40.707359],[-74.057224,40.707745],[-74.05715,40.708046],[-74.055597,40.70837],[-74.055631,40.70859],[-74.055271,40.708478],[-74.055629,40.708919],[-74.055812,40.70859],[-74.056208,40.708729],[-74.057292,40.708349],[-74.055118,40.709878],[-74.054094,40.71185],[-74.054086,40.713195],[-74.055367,40.715753],[-74.055682,40.717182],[-74.055634,40.719048],[-74.054309,40.722886],[-74.051428,40.722106],[-74.051283,40.722243],[-74.052508,40.722577],[-74.054053,40.723489],[-74.052066,40.729191],[-74.051519,40.730095],[-74.050721,40.730641],[-74.050361,40.730639],[-74.050398,40.730447],[-74.051194,40.730121],[-74.051125,40.729709],[-74.050402,40.729788],[-74.05022,40.730035],[-74.049646,40.729648],[-74.048311,40.729533],[-74.048055,40.730081],[-74.048023,40.729505],[-74.046652,40.729389],[-74.046432,40.729938],[-74.046364,40.729361],[-74.044993,40.729273],[-74.044916,40.730069],[-74.045166,40.730372],[-74.046537,40.730514],[-74.046539,40.730185],[-74.046214,40.730239],[-74.046179,40.730074],[-74.046757,40.729994],[-74.049209,40.73025],[-74.049675,40.730636],[-74.050253,40.730529],[-74.050143,40.730776],[-74.049024,40.730799],[-74.045165,40.730509],[-74.0452,40.730729],[-74.050177,40.731187],[-74.044903,40.731963],[-74.044865,40.732155],[-74.049521,40.732118],[-74.050569,40.731848],[-74.047954,40.734336],[-74.047697,40.735048],[-74.047985,40.735022],[-74.04802,40.735269],[-74.047219,40.736282],[-74.047253,40.736639],[-74.045269,40.736439],[-74.045091,40.736163],[-74.044585,40.736271],[-74.042567,40.735824],[-74.044516,40.735749],[-74.045092,40.735971],[-74.044733,40.73575],[-74.045022,40.735669],[-74.042099,40.735657],[-74.040441,40.735376],[-74.039325,40.734905],[-74.038321,40.734078],[-74.03688,40.733715],[-74.036929,40.731821],[-74.035606,40.730114],[-74.035948,40.72759],[-74.035497,40.730169],[-74.03682,40.731986],[-74.036664,40.73355],[-74.036411,40.733713],[-74.034319,40.73354],[-74.034066,40.733621],[-74.0376,40.733938],[-74.037888,40.734076],[-74.037491,40.734047],[-74.03749,40.734212],[-74.037959,40.734241],[-74.038174,40.734461],[-74.038283,40.734297],[-74.038354,40.734545],[-74.038894,40.734684],[-74.039072,40.735096],[-74.036838,40.734566],[-74.03608,40.734508],[-74.035429,40.734725],[-74.035468,40.734341],[-74.03536,40.734313],[-74.035356,40.734917],[-74.036042,40.734865],[-74.035825,40.734891],[-74.035825,40.734946],[-74.036654,40.735087],[-74.036364,40.735195],[-74.036726,40.735114],[-74.036942,40.735143],[-74.037553,40.735475],[-74.037337,40.735501],[-74.03485,40.735052],[-74.034816,40.734668],[-74.034669,40.735059],[-74.034363,40.734968],[-74.034423,40.734172],[-74.034309,40.734952],[-74.033373,40.734673],[-74.03359,40.734553],[-74.033374,40.734525],[-74.033377,40.734085],[-74.033338,40.734524],[-74.032905,40.734533],[-74.032436,40.734394],[-74.032439,40.734082],[-74.0324,40.734383],[-74.031747,40.734189],[-74.03197,40.734052],[-74.030091,40.733695],[-74.030566,40.733735],[-74.030967,40.731276],[-74.027997,40.731011],[-74.028094,40.730228],[-74.026851,40.72951],[-74.027419,40.729492],[-74.029127,40.730468],[-74.031254,40.730755],[-74.029758,40.729759],[-74.030478,40.729769],[-74.031141,40.730229],[-74.031232,40.729473],[-74.027341,40.729073],[-74.030966,40.729341],[-74.031006,40.728998],[-74.026548,40.728601],[-74.026604,40.72819],[-74.031034,40.728575],[-74.031086,40.728036],[-74.027374,40.727716],[-74.027376,40.727515],[-74.030342,40.727781],[-74.030405,40.727036],[-74.030021,40.726476],[-74.030287,40.726135],[-74.034452,40.726238],[-74.034525,40.725771],[-74.032072,40.725567],[-74.03211,40.725235],[-74.034559,40.725585],[-74.034614,40.725286],[-74.033817,40.725209],[-74.03384,40.725007],[-74.029447,40.724567],[-74.029605,40.723812],[-74.033812,40.724127],[-74.03423,40.722149],[-74.031422,40.721896],[-74.031476,40.720258],[-74.032552,40.720129],[-74.032062,40.719669],[-74.029269,40.719356],[-74.029375,40.718921],[-74.032487,40.719279],[-74.03275,40.717386],[-74.02993,40.717066],[-74.029999,40.716713],[-74.032075,40.716919],[-74.032169,40.71639],[-74.031289,40.716292],[-74.0315,40.715724],[-74.031699,40.716164],[-74.032624,40.716228],[-74.03315,40.714155],[-74.032997,40.713831],[-74.031663,40.713565],[-74.03302,40.713729],[-74.033733,40.711677],[-74.034832,40.711793],[-74.035525,40.711406],[-74.037113,40.711659],[-74.038075,40.711106],[-74.0395,40.711082],[-74.039514,40.71038],[-74.038623,40.710148],[-74.038499,40.709581],[-74.035384,40.70908],[-74.034716,40.709167],[-74.034344,40.70887],[-74.034501,40.707679],[-74.034081,40.707627],[-74.034058,40.707141],[-74.034162,40.706652],[-74.034692,40.706696],[-74.034873,40.705751],[-74.038911,40.706081],[-74.041408,40.704883],[-74.041156,40.704882],[-74.045227,40.702193],[-74.048464,40.699254],[-74.051378,40.696016],[-74.054851,40.69064],[-74.057814,40.691965],[-74.057479,40.69281],[-74.058322,40.693287],[-74.058756,40.692501],[-74.058952,40.692563],[-74.058686,40.693452],[-74.059387,40.693881],[-74.059784,40.693079],[-74.059994,40.693121],[-74.0597,40.694059],[-74.060237,40.694409],[-74.060745,40.693614],[-74.06137,40.693886],[-74.06103,40.695033],[-74.064731,40.697091],[-74.06515,40.697088],[-74.06524,40.697678],[-74.065774,40.698034],[-74.066106,40.698135],[-74.066563,40.696832],[-74.067029,40.696369],[-74.068257,40.696866],[-74.069577,40.695732],[-74.070581,40.694436],[-74.070378,40.693824],[-74.069619,40.694049],[-74.069813,40.694365],[-74.069068,40.695173],[-74.0678,40.695391],[-74.067688,40.695217],[-74.067452,40.695555],[-74.065882,40.694626],[-74.06693,40.694008],[-74.068929,40.691697],[-74.069459,40.690723],[-74.069929,40.688696],[-74.069624,40.685822],[-74.07021,40.684684],[-74.069889,40.68445],[-74.070546,40.683946],[-74.073359,40.686049],[-74.073182,40.686206],[-74.07347,40.686778],[-74.074685,40.687589],[-74.07484,40.687935],[-74.075758,40.68829],[-74.075897,40.688661],[-74.078013,40.688601],[-74.078733,40.688949],[-74.079993,40.688906],[-74.079582,40.688726],[-74.080285,40.687995],[-74.07463,40.683866],[-74.074457,40.683971],[-74.071101,40.681665],[-74.070662,40.680639],[-74.071797,40.679744],[-74.070641,40.679209],[-74.071889,40.679629],[-74.07372,40.679817],[-74.074828,40.678352],[-74.072516,40.677158],[-74.072814,40.676909],[-74.075007,40.678078],[-74.075638,40.677405],[-74.072611,40.675807],[-74.073022,40.675347],[-74.07579,40.676812],[-74.076735,40.676002],[-74.075979,40.67691],[-74.077223,40.675599],[-74.080985,40.677371],[-74.081291,40.677066],[-74.0813,40.676473],[-74.080935,40.676073],[-74.077279,40.674274],[-74.069296,40.670879],[-74.068149,40.670712],[-74.064988,40.669224],[-74.06492,40.66853],[-74.065716,40.66704],[-74.089871,40.677148],[-74.094655,40.679224],[-74.091458,40.677895],[-74.090626,40.678469],[-74.09063,40.677755],[-74.089584,40.677861],[-74.088219,40.677005],[-74.087529,40.677772],[-74.088174,40.678405],[-74.086665,40.677659],[-74.086192,40.678261],[-74.085904,40.678232],[-74.086051,40.677739],[-74.085763,40.67771],[-74.084823,40.678146],[-74.083916,40.679049],[-74.083195,40.679019],[-74.083588,40.679487],[-74.083443,40.679596],[-74.082297,40.678466],[-74.081864,40.678492],[-74.081938,40.678191],[-74.081469,40.678244],[-74.080282,40.6778],[-74.079956,40.678019],[-74.07956,40.677962],[-74.079489,40.677715],[-74.078478,40.677904],[-74.078128,40.676338],[-74.077409,40.676006],[-74.077119,40.676114],[-74.076756,40.676635],[-74.077388,40.6793],[-74.076989,40.6796],[-74.07724,40.679848],[-74.076628,40.679681],[-74.076917,40.6796],[-74.076486,40.679379],[-74.076196,40.679597],[-74.076159,40.679817],[-74.077417,40.680453],[-74.077453,40.680398],[-74.077633,40.680371],[-74.078028,40.680647],[-74.077919,40.680784],[-74.07666,40.680395],[-74.077631,40.68081],[-74.07745,40.68081],[-74.077414,40.680864],[-74.078026,40.681086],[-74.077665,40.68114],[-74.077807,40.681387],[-74.07723,40.681385],[-74.077482,40.681523],[-74.077299,40.681989],[-74.078955,40.68238],[-74.078954,40.682517],[-74.078594,40.682488],[-74.078593,40.682571],[-74.079567,40.682547],[-74.080251,40.682769],[-74.079996,40.683152],[-74.0805,40.683264],[-74.080208,40.683812],[-74.080602,40.684252],[-74.079878,40.684689],[-74.079517,40.68466],[-74.07872,40.685398],[-74.079077,40.685976],[-74.080297,40.686804],[-74.080978,40.687603],[-74.081984,40.688155],[-74.081982,40.68843],[-74.081586,40.688346],[-74.080177,40.688725],[-74.080211,40.689055],[-74.079705,40.68919],[-74.079522,40.689656],[-74.080461,40.68944],[-74.081252,40.6898],[-74.081938,40.689775],[-74.082845,40.688845],[-74.085195,40.687947],[-74.083784,40.688574],[-74.084035,40.688904]],[[-74.0772,40.697581],[-74.077164,40.697636],[-74.0772,40.697636],[-74.0772,40.697581]],[[-74.077164,40.697636],[-74.077091,40.697663],[-74.077164,40.697663],[-74.077164,40.697636]],[[-74.077091,40.697663],[-74.077055,40.69769],[-74.077091,40.69769],[-74.077091,40.697663]],[[-74.077055,40.69769],[-74.077019,40.697717],[-74.077055,40.697717],[-74.077055,40.69769]],[[-74.082198,40.69425],[-74.082162,40.694277],[-74.082198,40.694277],[-74.082198,40.69425]],[[-74.082162,40.694277],[-74.082126,40.694305],[-74.082162,40.694305],[-74.082162,40.694277]],[[-74.082342,40.694278],[-74.08227,40.694333],[-74.082306,40.694333],[-74.082342,40.694278]],[[-74.081725,40.694989],[-74.081689,40.694962],[-74.081689,40.694989],[-74.081725,40.694989]],[[-74.080636,40.696138],[-74.0806,40.696111],[-74.080599,40.696138],[-74.080636,40.696138]],[[-74.080599,40.696138],[-74.080563,40.696166],[-74.080599,40.696166],[-74.080599,40.696138]],[[-74.079327,40.697753],[-74.079183,40.69778],[-74.079327,40.697781],[-74.079327,40.697753]],[[-74.08099,40.6971],[-74.080954,40.697128],[-74.08099,40.697128],[-74.08099,40.6971]],[[-74.078018,40.699395],[-74.078054,40.699368],[-74.078018,40.699368],[-74.078018,40.699395]],[[-74.078054,40.699368],[-74.078091,40.699341],[-74.078055,40.699341],[-74.078054,40.699368]],[[-74.078091,40.699341],[-74.078127,40.699313],[-74.078091,40.699313],[-74.078091,40.699341]],[[-74.078127,40.699313],[-74.078163,40.699286],[-74.078127,40.699286],[-74.078127,40.699313]],[[-74.078163,40.699286],[-74.078199,40.699259],[-74.078163,40.699259],[-74.078163,40.699286]],[[-74.078199,40.699259],[-74.078236,40.699232],[-74.0782,40.699231],[-74.078199,40.699259]],[[-74.078236,40.699232],[-74.078272,40.699204],[-74.078236,40.699204],[-74.078236,40.699232]],[[-74.078272,40.699204],[-74.078308,40.699177],[-74.078272,40.699177],[-74.078272,40.699204]],[[-74.078308,40.699177],[-74.078344,40.69915],[-74.078308,40.699149],[-74.078308,40.699177]],[[-74.078344,40.69915],[-74.078381,40.699122],[-74.078345,40.699122],[-74.078344,40.69915]],[[-74.078381,40.699122],[-74.078417,40.699095],[-74.078381,40.699095],[-74.078381,40.699122]],[[-74.074834,40.701031],[-74.074798,40.701003],[-74.074798,40.701031],[-74.074834,40.701031]],[[-74.074142,40.701989],[-74.07407,40.702016],[-74.074142,40.702016],[-74.074142,40.701989]],[[-74.07407,40.702016],[-74.074034,40.702043],[-74.07407,40.702044],[-74.07407,40.702016]],[[-74.074034,40.702071],[-74.073817,40.702098],[-74.073781,40.702152],[-74.074034,40.702071]],[[-74.073781,40.70218],[-74.073672,40.702179],[-74.073672,40.702207],[-74.073781,40.70218]],[[-74.073672,40.702207],[-74.073636,40.702234],[-74.073672,40.702234],[-74.073672,40.702207]],[[-74.070769,40.705023],[-74.070805,40.704996],[-74.070769,40.704996],[-74.070769,40.705023]],[[-74.070805,40.704996],[-74.070913,40.704942],[-74.070805,40.704969],[-74.070805,40.704996]],[[-74.063532,40.7084],[-74.063641,40.708373],[-74.063497,40.70829],[-74.063532,40.7084]],[[-74.063497,40.708345],[-74.063424,40.708372],[-74.063496,40.7084],[-74.063497,40.708345]],[[-74.063425,40.708345],[-74.063353,40.70829],[-74.063388,40.708345],[-74.063425,40.708345]],[[-74.06335,40.708647],[-74.063315,40.708619],[-74.063314,40.708646],[-74.06335,40.708647]],[[-74.063278,40.708701],[-74.063242,40.708674],[-74.063242,40.708701],[-74.063278,40.708701]],[[-74.06163,40.70702],[-74.061702,40.706993],[-74.06163,40.706993],[-74.06163,40.70702]],[[-74.061702,40.706993],[-74.061738,40.706966],[-74.061702,40.706966],[-74.061702,40.706993]],[[-74.061738,40.706966],[-74.061883,40.706912],[-74.061738,40.706939],[-74.061738,40.706966]],[[-74.061883,40.706912],[-74.061991,40.706857],[-74.061883,40.706884],[-74.061883,40.706912]],[[-74.061991,40.706857],[-74.062028,40.70683],[-74.061992,40.70683],[-74.061991,40.706857]],[[-74.062028,40.70683],[-74.0621,40.706803],[-74.062028,40.706802],[-74.062028,40.70683]],[[-74.0621,40.706803],[-74.062136,40.706775],[-74.0621,40.706775],[-74.0621,40.706803]],[[-74.065544,40.704153],[-74.06558,40.704181],[-74.06558,40.704153],[-74.065544,40.704153]],[[-74.07626,40.697989],[-74.076296,40.697962],[-74.07626,40.697962],[-74.07626,40.697989]],[[-74.076296,40.697989],[-74.076332,40.698017],[-74.076332,40.697989],[-74.076296,40.697989]],[[-74.076332,40.697989],[-74.076404,40.697962],[-74.076332,40.697962],[-74.076332,40.697989]],[[-74.076404,40.697962],[-74.076477,40.697935],[-74.076404,40.697935],[-74.076404,40.697962]],[[-74.076477,40.697935],[-74.076549,40.697908],[-74.076477,40.697907],[-74.076477,40.697935]],[[-74.076549,40.697908],[-74.076585,40.69788],[-74.076549,40.69788],[-74.076549,40.697908]],[[-74.076549,40.69788],[-74.076513,40.697853],[-74.076513,40.69788],[-74.076549,40.69788]],[[-74.076667,40.696371],[-74.076594,40.696398],[-74.076667,40.696398],[-74.076667,40.696371]],[[-74.077137,40.696098],[-74.077174,40.696071],[-74.077138,40.696071],[-74.077137,40.696098]],[[-74.077174,40.696071],[-74.077282,40.696016],[-74.077174,40.696043],[-74.077174,40.696071]],[[-74.077319,40.695934],[-74.077535,40.69599],[-74.077571,40.695935],[-74.077319,40.695934]],[[-74.075774,40.689286],[-74.07581,40.689258],[-74.075774,40.689258],[-74.075774,40.689286]],[[-74.072014,40.690781],[-74.071834,40.690726],[-74.071798,40.690781],[-74.072014,40.690781]],[[-74.074124,40.693507],[-74.074088,40.693479],[-74.074088,40.693507],[-74.074124,40.693507]],[[-74.067647,40.696832],[-74.067611,40.696804],[-74.067611,40.696832],[-74.067647,40.696832]],[[-74.067611,40.696804],[-74.067576,40.696776],[-74.067575,40.696804],[-74.067611,40.696804]],[[-74.051302,40.730204],[-74.051339,40.730094],[-74.051267,40.730066],[-74.051302,40.730204]],[[-74.045165,40.730591],[-74.045129,40.730564],[-74.045129,40.730591],[-74.045165,40.730591]],[[-74.047697,40.735048],[-74.04766,40.735076],[-74.047696,40.735076],[-74.047697,40.735048]],[[-74.04545,40.736412],[-74.045414,40.736384],[-74.045414,40.736412],[-74.04545,40.736412]],[[-74.045092,40.735971],[-74.045128,40.735999],[-74.045128,40.735971],[-74.045092,40.735971]],[[-74.03785,40.734268],[-74.037922,40.734296],[-74.037922,40.734268],[-74.03785,40.734268]],[[-74.03608,40.734508],[-74.036045,40.73448],[-74.036044,40.734508],[-74.03608,40.734508]],[[-74.036798,40.735142],[-74.036761,40.73517],[-74.036798,40.73517],[-74.036798,40.735142]],[[-74.036761,40.73517],[-74.036725,40.735224],[-74.036761,40.735224],[-74.036761,40.73517]],[[-74.034958,40.734998],[-74.034994,40.735025],[-74.034994,40.734998],[-74.034958,40.734998]],[[-74.034275,40.734638],[-74.034203,40.734665],[-74.034275,40.734665],[-74.034275,40.734638]],[[-74.077525,40.680398],[-74.077561,40.680453],[-74.077561,40.680398],[-74.077525,40.680398]],[[-74.077561,40.680453],[-74.077597,40.680481],[-74.077597,40.680453],[-74.077561,40.680453]],[[-74.077777,40.680536],[-74.07774,40.680564],[-74.077776,40.680564],[-74.077777,40.680536]],[[-74.077956,40.680729],[-74.077848,40.680701],[-74.077848,40.680729],[-74.077956,40.680729]],[[-74.07666,40.680395],[-74.076624,40.680367],[-74.076624,40.680395],[-74.07666,40.680395]],[[-74.076516,40.680367],[-74.076552,40.68034],[-74.076444,40.680284],[-74.076516,40.680367]],[[-74.083963,40.688849],[-74.083927,40.688876],[-74.083963,40.688876],[-74.083963,40.688849]]],[[[-74.060507,40.707702],[-74.060471,40.70773],[-74.060471,40.707702],[-74.060507,40.707702]]],[[[-74.060579,40.70773],[-74.060615,40.707758],[-74.060579,40.707758],[-74.060579,40.70773]]],[[[-74.060435,40.70773],[-74.06047,40.707757],[-74.060434,40.707757],[-74.060435,40.70773]]],[[[-74.060398,40.707784],[-74.060362,40.707757],[-74.060398,40.707757],[-74.060398,40.707784]]],[[[-74.060578,40.70784],[-74.060614,40.707868],[-74.060578,40.707867],[-74.060578,40.70784]]],[[[-74.060578,40.707867],[-74.060506,40.707895],[-74.060506,40.707867],[-74.060578,40.707867]]],[[[-74.060578,40.707922],[-74.06065,40.707895],[-74.06065,40.707923],[-74.060578,40.707922]]],[[[-74.060506,40.707895],[-74.060469,40.707922],[-74.06047,40.707894],[-74.060506,40.707895]]],[[[-74.059925,40.708386],[-74.060105,40.708415],[-74.059889,40.708441],[-74.059925,40.708386]]],[[[-74.06382,40.708484],[-74.063857,40.708456],[-74.063857,40.708484],[-74.06382,40.708484]]],[[[-74.063352,40.708482],[-74.063387,40.708509],[-74.063351,40.708509],[-74.063352,40.708482]]],[[[-74.059708,40.708441],[-74.05978,40.708496],[-74.059672,40.708495],[-74.059708,40.708441]]],[[[-74.056563,40.709499],[-74.058084,40.708599],[-74.059023,40.70841],[-74.057213,40.709419],[-74.056563,40.709499]]],[[[-74.070375,40.710073],[-74.069294,40.709959],[-74.0689,40.709491],[-74.067817,40.709624],[-74.067386,40.709293],[-74.067748,40.709157],[-74.068108,40.709323],[-74.068221,40.708555],[-74.069018,40.707954],[-74.069125,40.708174],[-74.068799,40.70842],[-74.069304,40.708339],[-74.069162,40.707982],[-74.07028,40.708151],[-74.07057,40.707932],[-74.071073,40.708181],[-74.070891,40.708483],[-74.071322,40.708759],[-74.071212,40.708923],[-74.070708,40.708866],[-74.070669,40.70925],[-74.070309,40.709139],[-74.069981,40.709715],[-74.070737,40.709937],[-74.070807,40.710212],[-74.070374,40.71032],[-74.070375,40.710073]]],[[[-74.056746,40.709143],[-74.05671,40.70917],[-74.05671,40.709143],[-74.056746,40.709143]]],[[[-74.0566,40.709335],[-74.056456,40.709279],[-74.05671,40.70917],[-74.0566,40.709335]]],[[[-74.070951,40.710267],[-74.072116,40.708679],[-74.072009,40.708487],[-74.07237,40.708488],[-74.072294,40.709037],[-74.071675,40.709886],[-74.070951,40.710267]]],[[[-74.056235,40.710074],[-74.056162,40.710156],[-74.056162,40.710101],[-74.056235,40.710074]]],[[[-74.067123,40.710939],[-74.066511,40.710717],[-74.066878,40.709785],[-74.067672,40.709816],[-74.068535,40.710176],[-74.068461,40.71045],[-74.066904,40.711432],[-74.067123,40.710939]]],[[[-74.05611,40.723469],[-74.054561,40.723052],[-74.056254,40.718007],[-74.056085,40.716332],[-74.054376,40.712949],[-74.05445,40.712593],[-74.05459,40.713307],[-74.054984,40.713748],[-74.054741,40.712319],[-74.05438,40.712263],[-74.054969,40.710591],[-74.05496,40.711826],[-74.057903,40.719688],[-74.057789,40.720429],[-74.057097,40.721414],[-74.057059,40.721799],[-74.056951,40.721688],[-74.057022,40.721881],[-74.056474,40.722922],[-74.056294,40.722921],[-74.05611,40.723469]],[[-74.054966,40.710975],[-74.05493,40.710948],[-74.05493,40.710975],[-74.054966,40.710975]],[[-74.054894,40.71103],[-74.054858,40.711002],[-74.054858,40.71103],[-74.054894,40.71103]],[[-74.056914,40.721826],[-74.056878,40.72188],[-74.056914,40.72188],[-74.056914,40.721826]]],[[[-74.060126,40.71632],[-74.060994,40.715994],[-74.061208,40.716242],[-74.061858,40.71619],[-74.061859,40.716025],[-74.062473,40.71589],[-74.062254,40.716301],[-74.062506,40.716467],[-74.062726,40.715918],[-74.063338,40.716058],[-74.063124,40.715755],[-74.063306,40.715372],[-74.063702,40.71562],[-74.063556,40.715784],[-74.06543,40.716066],[-74.06485,40.716558],[-74.064884,40.71686],[-74.0642,40.716693],[-74.064269,40.717077],[-74.064702,40.717106],[-74.064557,40.717298],[-74.064844,40.717546],[-74.064299,40.718093],[-74.064727,40.718863],[-74.064181,40.719547],[-74.06353,40.719847],[-74.063456,40.720066],[-74.064247,40.720454],[-74.063048,40.721739],[-74.063191,40.721959],[-74.06272,40.722342],[-74.062645,40.722808],[-74.062067,40.722779],[-74.060651,40.724146],[-74.059386,40.724525],[-74.056109,40.723552],[-74.056911,40.722347],[-74.057021,40.721991],[-74.05713,40.721964],[-74.057131,40.721799],[-74.057203,40.721827],[-74.057204,40.721662],[-74.057386,40.721498],[-74.057569,40.720977],[-74.057898,40.720402],[-74.05797,40.720375],[-74.057975,40.719661],[-74.05603,40.713779],[-74.056683,40.713178],[-74.056072,40.712874],[-74.056073,40.712654],[-74.056579,40.712546],[-74.056547,40.711887],[-74.057599,40.710985],[-74.058898,40.711045],[-74.059003,40.711485],[-74.059076,40.711293],[-74.05987,40.711351],[-74.059759,40.711762],[-74.060479,40.711902],[-74.06026,40.712286],[-74.061269,40.712482],[-74.061266,40.713003],[-74.061771,40.712923],[-74.062239,40.713117],[-74.062309,40.713501],[-74.062849,40.713613],[-74.06353,40.714247],[-74.063528,40.714576],[-74.063745,40.714522],[-74.063019,40.715151],[-74.063053,40.71559],[-74.062548,40.715533],[-74.062549,40.715341],[-74.061322,40.715474],[-74.06125,40.715336],[-74.060672,40.715471],[-74.060273,40.715909],[-74.059804,40.71577],[-74.059983,40.7161],[-74.060271,40.716129],[-74.060126,40.71632]],[[-74.057678,40.720868],[-74.057714,40.720895],[-74.057714,40.720868],[-74.057678,40.720868]],[[-74.057715,40.720786],[-74.057751,40.720813],[-74.057751,40.720786],[-74.057715,40.720786]],[[-74.057751,40.720731],[-74.057787,40.720758],[-74.057787,40.720731],[-74.057751,40.720731]],[[-74.057861,40.720512],[-74.057897,40.720567],[-74.057897,40.720512],[-74.057861,40.720512]],[[-74.060126,40.71632],[-74.060089,40.716348],[-74.060125,40.716348],[-74.060126,40.71632]]],[[[-74.057423,40.721251],[-74.057459,40.721279],[-74.057423,40.721278],[-74.057423,40.721251]]],[[[-74.057423,40.721333],[-74.057386,40.721361],[-74.057387,40.721333],[-74.057423,40.721333]]],[[[-74.05735,40.72147],[-74.057313,40.721498],[-74.057314,40.72147],[-74.05735,40.72147]]],[[[-74.057169,40.721525],[-74.057205,40.721497],[-74.057205,40.721525],[-74.057169,40.721525]]],[[[-74.056073,40.723579],[-74.056109,40.723607],[-74.056073,40.723607],[-74.056073,40.723579]]],[[[-74.056108,40.723689],[-74.056,40.723634],[-74.056109,40.723634],[-74.056108,40.723689]]],[[[-74.067447,40.744484],[-74.06752,40.74432],[-74.067556,40.744457],[-74.067447,40.744484]]],[[[-74.067051,40.744428],[-74.067086,40.744456],[-74.06705,40.744455],[-74.067051,40.744428]]],[[[-74.067519,40.74454],[-74.067483,40.744512],[-74.067519,40.744512],[-74.067519,40.74454]]],[[[-74.067483,40.744539],[-74.067446,40.744622],[-74.067447,40.744539],[-74.067483,40.744539]]],[[[-74.06759,40.74465],[-74.067555,40.744622],[-74.067591,40.744622],[-74.06759,40.74465]]],[[[-74.067554,40.744649],[-74.067482,40.744704],[-74.067482,40.744622],[-74.067554,40.744649]]],[[[-74.06759,40.744732],[-74.067626,40.744705],[-74.067626,40.744732],[-74.06759,40.744732]]],[[[-74.067625,40.744814],[-74.067662,40.744787],[-74.067662,40.744815],[-74.067625,40.744814]]],[[[-74.064829,40.747412],[-74.064793,40.747521],[-74.064793,40.747412],[-74.064829,40.747412]]],[[[-74.068176,40.748989],[-74.068212,40.749016],[-74.068176,40.749016],[-74.068176,40.748989]]],[[[-74.068212,40.749016],[-74.068248,40.749044],[-74.068212,40.749044],[-74.068212,40.749016]]],[[[-74.068961,40.750392],[-74.069284,40.75064],[-74.068996,40.750612],[-74.068961,40.750392]]],[[[-74.061013,40.751432],[-74.060977,40.751405],[-74.061013,40.751405],[-74.061013,40.751432]]],[[[-74.069704,40.752645],[-74.068198,40.751212],[-74.068165,40.750691],[-74.0686,40.75039],[-74.068889,40.750364],[-74.069704,40.752645]]],[[[-74.069847,40.752893],[-74.069884,40.752756],[-74.069919,40.752921],[-74.069847,40.752893]]],[[[-74.071028,40.75449],[-74.071064,40.754517],[-74.071028,40.754517],[-74.071028,40.75449]]],[[[-74.073316,40.757984],[-74.071562,40.755644],[-74.0711,40.75449],[-74.071028,40.754462],[-74.070921,40.754242],[-74.069861,40.750752],[-74.070614,40.751551],[-74.073394,40.757024],[-74.074396,40.758427],[-74.073709,40.758632],[-74.073316,40.757984]],[[-74.071064,40.754462],[-74.071101,40.754435],[-74.071065,40.754435],[-74.071064,40.754462]]],[[[-74.055713,40.755941],[-74.055677,40.755914],[-74.055713,40.755914],[-74.055713,40.755941]]],[[[-74.069977,40.760744],[-74.070155,40.761203],[-74.066427,40.76275],[-74.064687,40.763812],[-74.063801,40.763669],[-74.062501,40.762673],[-74.061794,40.76242],[-74.060022,40.76255],[-74.060002,40.76341],[-74.05963,40.764001],[-74.059993,40.765701],[-74.058474,40.766757],[-74.056954,40.769011],[-74.052044,40.760841],[-74.05225,40.760951],[-74.052396,40.760705],[-74.051856,40.760526],[-74.053168,40.758677],[-74.054877,40.756871],[-74.054806,40.756706],[-74.055023,40.756652],[-74.055313,40.756434],[-74.055531,40.756188],[-74.055533,40.755968],[-74.055713,40.755969],[-74.055931,40.755805],[-74.05575,40.755859],[-74.056803,40.754875],[-74.057174,40.753339],[-74.05834,40.751752],[-74.059211,40.751096],[-74.060147,40.751429],[-74.061055,40.750499],[-74.060913,40.750252],[-74.06131,40.750253],[-74.060987,40.749895],[-74.061245,40.749182],[-74.061822,40.74913],[-74.062506,40.749517],[-74.061778,40.750475],[-74.06138,40.75061],[-74.05978,40.752306],[-74.059743,40.752498],[-74.060868,40.751487],[-74.060941,40.751487],[-74.061086,40.751405],[-74.061232,40.751159],[-74.061377,40.751049],[-74.061594,40.750995],[-74.061777,40.750584],[-74.062138,40.750476],[-74.06381,40.748753],[-74.06399,40.748781],[-74.064029,40.748342],[-74.064282,40.748288],[-74.064349,40.749084],[-74.064493,40.749167],[-74.064749,40.748702],[-74.064997,40.749389],[-74.065069,40.749389],[-74.064787,40.748427],[-74.065085,40.746946],[-74.066103,40.745879],[-74.066246,40.74599],[-74.066428,40.745798],[-74.066427,40.745935],[-74.066535,40.745963],[-74.066465,40.745634],[-74.067047,40.74495],[-74.067123,40.744428],[-74.066979,40.744373],[-74.067015,40.744291],[-74.066512,40.743959],[-74.066585,40.743822],[-74.067017,40.743989],[-74.067302,40.744594],[-74.067481,40.744759],[-74.06759,40.744732],[-74.067552,40.744951],[-74.067733,40.74498],[-74.069184,40.749404],[-74.069251,40.750146],[-74.068963,40.750117],[-74.068642,40.74943],[-74.06832,40.749017],[-74.068212,40.748962],[-74.068104,40.748989],[-74.068674,40.750116],[-74.067877,40.750552],[-74.067837,40.751211],[-74.06963,40.752975],[-74.070802,40.755916],[-74.070238,40.7538],[-74.070383,40.753719],[-74.071772,40.756661],[-74.073485,40.758726],[-74.072568,40.758994],[-74.072247,40.760108],[-74.070191,40.761185],[-74.069977,40.760744]],[[-74.069612,40.761347],[-74.069576,40.761374],[-74.069612,40.761374],[-74.069612,40.761347]],[[-74.055568,40.756051],[-74.055604,40.756023],[-74.055568,40.756023],[-74.055568,40.756051]],[[-74.055931,40.75575],[-74.055967,40.755723],[-74.055931,40.755723],[-74.055931,40.75575]],[[-74.059671,40.75247],[-74.059271,40.752826],[-74.059271,40.752881],[-74.059634,40.752635],[-74.059671,40.75247]],[[-74.059307,40.752881],[-74.059343,40.752908],[-74.059343,40.752881],[-74.059307,40.752881]],[[-74.061013,40.75146],[-74.061049,40.751515],[-74.061085,40.75146],[-74.061013,40.75146]],[[-74.061376,40.751077],[-74.06134,40.751187],[-74.061449,40.751077],[-74.061376,40.751077]],[[-74.064028,40.748616],[-74.064063,40.748671],[-74.064064,40.748617],[-74.064028,40.748616]],[[-74.06512,40.747083],[-74.065157,40.747029],[-74.065121,40.747028],[-74.06512,40.747083]],[[-74.067015,40.744373],[-74.067051,40.744346],[-74.067015,40.744345],[-74.067015,40.744373]],[[-74.067518,40.744759],[-74.067553,40.744814],[-74.067554,40.744759],[-74.067518,40.744759]],[[-74.067732,40.745089],[-74.067696,40.745117],[-74.067732,40.745117],[-74.067732,40.745089]],[[-74.069041,40.749239],[-74.068968,40.749266],[-74.06904,40.749267],[-74.069041,40.749239]],[[-74.068932,40.749266],[-74.068896,40.749211],[-74.068896,40.749266],[-74.068932,40.749266]],[[-74.068896,40.749211],[-74.06886,40.749184],[-74.06886,40.749211],[-74.068896,40.749211]],[[-74.06814,40.748961],[-74.068104,40.748934],[-74.068104,40.748961],[-74.06814,40.748961]],[[-74.069977,40.760744],[-74.069729,40.760084],[-74.069657,40.760029],[-74.069941,40.760744],[-74.069977,40.760744]]],[[[-74.056162,40.710156],[-74.055908,40.71043],[-74.055835,40.71043],[-74.05609,40.710156],[-74.056162,40.710156]]],[[[-74.055835,40.710484],[-74.055581,40.710731],[-74.055834,40.710649],[-74.05576,40.710868],[-74.055182,40.711086],[-74.055184,40.710784],[-74.055475,40.710346],[-74.056236,40.7098],[-74.056235,40.709992],[-74.0558,40.710375],[-74.055835,40.710484]],[[-74.055617,40.710758],[-74.055545,40.710785],[-74.055617,40.710786],[-74.055617,40.710758]],[[-74.055545,40.710785],[-74.055508,40.710813],[-74.055544,40.710813],[-74.055545,40.710785]],[[-74.055219,40.710866],[-74.055363,40.710922],[-74.055472,40.710812],[-74.055219,40.710866]],[[-74.055799,40.710429],[-74.055763,40.710457],[-74.055799,40.710457],[-74.055799,40.710429]],[[-74.055763,40.710457],[-74.055727,40.710484],[-74.055763,40.710484],[-74.055763,40.710457]],[[-74.055727,40.710484],[-74.055691,40.710511],[-74.055727,40.710512],[-74.055727,40.710484]],[[-74.055691,40.710511],[-74.055654,40.710539],[-74.05569,40.710539],[-74.055691,40.710511]]],[[[-74.05587,40.710649],[-74.055834,40.710594],[-74.05587,40.710594],[-74.05587,40.710649]]],[[[-74.055123,40.725305],[-74.055159,40.725278],[-74.055159,40.725305],[-74.055123,40.725305]]],[[[-74.054686,40.725962],[-74.054722,40.725935],[-74.054722,40.725962],[-74.054686,40.725962]]],[[[-74.054503,40.726291],[-74.05454,40.726263],[-74.054539,40.726291],[-74.054503,40.726291]]],[[[-74.054283,40.726784],[-74.054319,40.726811],[-74.054283,40.726811],[-74.054283,40.726784]]],[[[-74.054247,40.726866],[-74.054283,40.726894],[-74.054247,40.726894],[-74.054247,40.726866]]],[[[-74.05421,40.726976],[-74.054246,40.726948],[-74.054246,40.726976],[-74.05421,40.726976]]],[[[-74.054173,40.727058],[-74.05421,40.727031],[-74.054209,40.727058],[-74.054173,40.727058]]],[[[-74.054137,40.72714],[-74.054173,40.727113],[-74.054173,40.72714],[-74.054137,40.72714]]],[[[-74.055123,40.725387],[-74.054432,40.726126],[-74.054503,40.726263],[-74.054356,40.726757],[-74.054284,40.726729],[-74.054283,40.726784],[-74.054211,40.726811],[-74.054247,40.726866],[-74.054101,40.727113],[-74.054136,40.727305],[-74.053846,40.727468],[-74.053987,40.728018],[-74.053224,40.728756],[-74.052573,40.729028],[-74.052569,40.729577],[-74.05195,40.730371],[-74.051842,40.73037],[-74.053164,40.726972],[-74.053665,40.727495],[-74.053811,40.727359],[-74.053848,40.727112],[-74.053274,40.726615],[-74.054231,40.723901],[-74.054624,40.724479],[-74.054618,40.72533],[-74.054801,40.724919],[-74.055306,40.724921],[-74.055087,40.725277],[-74.055123,40.725387]],[[-74.055087,40.725387],[-74.055051,40.725359],[-74.055051,40.725387],[-74.055087,40.725387]]],[[[-74.052358,40.72878],[-74.052394,40.728753],[-74.052394,40.72878],[-74.052358,40.72878]]],[[[-74.052358,40.728808],[-74.052321,40.728917],[-74.052321,40.728808],[-74.052358,40.728808]]],[[[-74.052321,40.728917],[-74.051844,40.730123],[-74.051552,40.730534],[-74.051445,40.730341],[-74.052321,40.728917]]],[[[-74.05184,40.730672],[-74.05184,40.730645],[-74.051876,40.730645],[-74.051876,40.730672],[-74.05184,40.730672]]],[[[-74.050829,40.730751],[-74.051337,40.730396],[-74.051552,40.730561],[-74.051297,40.730917],[-74.050829,40.730751]]],[[[-74.051912,40.7307],[-74.051876,40.730672],[-74.051912,40.730673],[-74.051912,40.7307]]],[[[-74.05227,40.731168],[-74.051477,40.730945],[-74.051769,40.730507],[-74.051803,40.730837],[-74.05202,40.730728],[-74.052055,40.730948],[-74.052485,40.731279],[-74.052413,40.731278],[-74.05227,40.731168]]],[[[-74.049276,40.730909],[-74.050322,40.730996],[-74.049276,40.730937],[-74.049276,40.730909]]],[[[-74.052235,40.730948],[-74.052199,40.730976],[-74.052199,40.730948],[-74.052235,40.730948]]],[[[-74.052271,40.730976],[-74.052235,40.731003],[-74.052235,40.730976],[-74.052271,40.730976]]],[[[-74.052307,40.731004],[-74.05227,40.731031],[-74.052271,40.731003],[-74.052307,40.731004]]],[[[-74.052343,40.731031],[-74.052306,40.731058],[-74.052307,40.731031],[-74.052343,40.731031]]],[[[-74.052342,40.731086],[-74.052379,40.731059],[-74.052378,40.731086],[-74.052342,40.731086]]],[[[-74.052414,40.731169],[-74.052414,40.731141],[-74.05245,40.731141],[-74.05245,40.731169],[-74.052414,40.731169]]],[[[-74.052486,40.731196],[-74.05245,40.731169],[-74.052486,40.731169],[-74.052486,40.731196]]],[[[-74.052197,40.731195],[-74.052233,40.731168],[-74.052233,40.731195],[-74.052197,40.731195]]],[[[-74.052233,40.731195],[-74.052269,40.731223],[-74.052233,40.731223],[-74.052233,40.731195]]],[[[-74.052521,40.731306],[-74.052485,40.731279],[-74.052521,40.731279],[-74.052521,40.731306]]],[[[-74.055532,40.756078],[-74.055496,40.756105],[-74.055496,40.756078],[-74.055532,40.756078]]],[[[-74.05535,40.756269],[-74.055314,40.756297],[-74.055314,40.756269],[-74.05535,40.756269]]],[[[-74.055168,40.756461],[-74.055132,40.756488],[-74.055132,40.756461],[-74.055168,40.756461]]],[[[-74.055095,40.75657],[-74.055059,40.756543],[-74.055096,40.756543],[-74.055095,40.75657]]],[[[-74.055059,40.75657],[-74.055023,40.756597],[-74.055023,40.75657],[-74.055059,40.75657]]],[[[-74.055023,40.756597],[-74.054987,40.756625],[-74.054987,40.756597],[-74.055023,40.756597]]],[[[-74.054732,40.756926],[-74.054696,40.756953],[-74.054696,40.756926],[-74.054732,40.756926]]],[[[-74.054659,40.757008],[-74.054623,40.757035],[-74.054623,40.757008],[-74.054659,40.757008]]],[[[-74.05455,40.757117],[-74.054514,40.757145],[-74.054514,40.757117],[-74.05455,40.757117]]],[[[-74.054477,40.757199],[-74.054441,40.757227],[-74.054441,40.757199],[-74.054477,40.757199]]],[[[-74.054368,40.757309],[-74.054332,40.757336],[-74.054332,40.757309],[-74.054368,40.757309]]],[[[-74.054224,40.757363],[-74.054259,40.757418],[-74.054223,40.757473],[-74.054224,40.757363]]],[[[-74.054223,40.757473],[-74.054187,40.7575],[-74.054187,40.757473],[-74.054223,40.757473]]],[[[-74.054186,40.757555],[-74.054114,40.7575],[-74.054187,40.7575],[-74.054186,40.757555]]],[[[-74.054114,40.75761],[-74.054077,40.757637],[-74.054078,40.757609],[-74.054114,40.75761]]],[[[-74.054041,40.757692],[-74.054005,40.757719],[-74.054005,40.757692],[-74.054041,40.757692]]],[[[-74.054005,40.757746],[-74.053968,40.757774],[-74.053968,40.757746],[-74.054005,40.757746]]],[[[-74.053932,40.757829],[-74.053896,40.757856],[-74.053896,40.757828],[-74.053932,40.757829]]],[[[-74.052035,40.760813],[-74.052035,40.760824],[-74.052028,40.760813],[-74.052035,40.760813]]],[[[-74.041062,40.704933],[-74.041156,40.704882],[-74.040946,40.704991],[-74.041062,40.704933]]],[[[-74.040938,40.704995],[-74.040794,40.705073],[-74.040622,40.705155],[-74.040938,40.704995]]],[[[-74.040595,40.705168],[-74.040576,40.705209],[-74.04051,40.705209],[-74.040595,40.705168]]],[[[-74.040143,40.705387],[-74.040431,40.705291],[-74.039999,40.705454],[-74.040143,40.705387]]],[[[-74.039889,40.705508],[-74.039708,40.70559],[-74.039997,40.705455],[-74.039889,40.705508]]],[[[-74.049168,40.730909],[-74.04906,40.730881],[-74.049168,40.730882],[-74.049168,40.730909]]],[[[-74.047321,40.731917],[-74.050139,40.731379],[-74.050789,40.731382],[-74.050425,40.731792],[-74.049702,40.731982],[-74.047321,40.731917]]],[[[-74.038417,40.735808],[-74.040511,40.735679],[-74.041916,40.736079],[-74.039624,40.73643],[-74.037447,40.735886],[-74.038417,40.735808]]],[[[-74.042889,40.736182],[-74.042817,40.736209],[-74.042817,40.736182],[-74.042889,40.736182]]],[[[-74.045125,40.736493],[-74.045269,40.736466],[-74.045269,40.736494],[-74.045125,40.736493]]],[[[-74.042997,40.73621],[-74.044294,40.736627],[-74.045123,40.736658],[-74.045519,40.736824],[-74.045446,40.736988],[-74.045915,40.737045],[-74.045767,40.737539],[-74.045041,40.738222],[-74.045183,40.738552],[-74.044786,40.738495],[-74.04464,40.738824],[-74.045001,40.738798],[-74.045104,40.739485],[-74.044635,40.739538],[-74.044559,40.740004],[-74.043582,40.740495],[-74.04237,40.743564],[-74.042298,40.743536],[-74.042188,40.743728],[-74.042262,40.743481],[-74.042154,40.743481],[-74.041423,40.744768],[-74.041531,40.744824],[-74.040985,40.745508],[-74.04102,40.74559],[-74.040947,40.7457],[-74.040803,40.745699],[-74.040838,40.745836],[-74.040621,40.74589],[-74.040148,40.746438],[-74.039968,40.746382],[-74.039317,40.747368],[-74.039603,40.746747],[-74.041067,40.745107],[-74.041619,40.744285],[-74.041521,40.743999],[-74.042208,40.742804],[-74.042169,40.741354],[-74.042277,40.741206],[-74.043516,40.740349],[-74.043782,40.739857],[-74.043922,40.739012],[-74.04352,40.738505],[-74.043911,40.73754],[-74.042815,40.736237],[-74.042997,40.73621]],[[-74.042518,40.743043],[-74.042482,40.743016],[-74.042481,40.743043],[-74.042518,40.743043]],[[-74.042407,40.7434],[-74.042371,40.743372],[-74.042371,40.743399],[-74.042407,40.7434]],[[-74.042226,40.743454],[-74.042262,40.743426],[-74.042226,40.743426],[-74.042226,40.743454]],[[-74.040984,40.74559],[-74.040948,40.745562],[-74.040948,40.74559],[-74.040984,40.74559]],[[-74.042277,40.741231],[-74.042313,40.741258],[-74.042313,40.741231],[-74.042277,40.741231]],[[-74.042889,40.736237],[-74.042961,40.736265],[-74.042961,40.736237],[-74.042889,40.736237]]],[[[-74.042297,40.743619],[-74.042333,40.743646],[-74.042297,40.743646],[-74.042297,40.743619]]],[[[-74.042261,40.743674],[-74.042296,40.743701],[-74.04226,40.743701],[-74.042261,40.743674]]],[[[-74.042224,40.743811],[-74.042115,40.743865],[-74.042152,40.743755],[-74.042224,40.743811]]],[[[-74.042078,40.743947],[-74.042115,40.743893],[-74.042114,40.743947],[-74.042078,40.743947]]],[[[-74.042041,40.744084],[-74.042005,40.744112],[-74.042005,40.744084],[-74.042041,40.744084]]],[[[-74.042041,40.744139],[-74.042077,40.744112],[-74.042077,40.744139],[-74.042041,40.744139]]],[[[-74.042005,40.744112],[-74.041969,40.744139],[-74.041969,40.744112],[-74.042005,40.744112]]],[[[-74.041968,40.744221],[-74.041932,40.744166],[-74.041968,40.744166],[-74.041968,40.744221]]],[[[-74.041896,40.744221],[-74.041932,40.744276],[-74.041896,40.744276],[-74.041896,40.744221]]],[[[-74.041859,40.744386],[-74.041823,40.744358],[-74.041859,40.744358],[-74.041859,40.744386]]],[[[-74.041786,40.74444],[-74.041822,40.744413],[-74.041822,40.74444],[-74.041786,40.74444]]],[[[-74.04175,40.744495],[-74.041786,40.744468],[-74.041786,40.744495],[-74.04175,40.744495]]],[[[-74.041713,40.74455],[-74.041749,40.744522],[-74.041749,40.74455],[-74.041713,40.74455]]],[[[-74.041713,40.744605],[-74.041677,40.744577],[-74.041713,40.744577],[-74.041713,40.744605]]],[[[-74.041641,40.744604],[-74.041677,40.744632],[-74.04164,40.744632],[-74.041641,40.744604]]],[[[-74.04164,40.744687],[-74.041604,40.744659],[-74.04164,40.744659],[-74.04164,40.744687]]],[[[-74.041604,40.744741],[-74.041568,40.744714],[-74.041604,40.744714],[-74.041604,40.744741]]],[[[-74.041275,40.745234],[-74.041312,40.745207],[-74.041311,40.745234],[-74.041275,40.745234]]],[[[-74.041239,40.745234],[-74.041275,40.745262],[-74.041239,40.745262],[-74.041239,40.745234]]],[[[-74.041203,40.745289],[-74.041239,40.745316],[-74.041203,40.745316],[-74.041203,40.745289]]],[[[-74.041203,40.745316],[-74.041166,40.745344],[-74.041167,40.745316],[-74.041203,40.745316]]],[[[-74.04113,40.745398],[-74.041166,40.745371],[-74.041166,40.745399],[-74.04113,40.745398]]],[[[-74.041093,40.745453],[-74.04113,40.745426],[-74.041129,40.745453],[-74.041093,40.745453]]],[[[-74.041021,40.745508],[-74.041057,40.745535],[-74.041021,40.745535],[-74.041021,40.745508]]],[[[-74.040693,40.745891],[-74.040729,40.745918],[-74.040693,40.745918],[-74.040693,40.745891]]],[[[-74.04062,40.746],[-74.040657,40.745973],[-74.040657,40.746],[-74.04062,40.746]]],[[[-74.039969,40.7463],[-74.039943,40.7463],[-74.039969,40.746266],[-74.039969,40.7463]]],[[[-74.039933,40.746314],[-74.039932,40.746354],[-74.039902,40.746354],[-74.039933,40.746314]]],[[[-74.040112,40.746437],[-74.040039,40.74652],[-74.040076,40.746437],[-74.040112,40.746437]]],[[[-74.040039,40.74652],[-74.040003,40.746574],[-74.040003,40.746519],[-74.040039,40.74652]]],[[[-74.040039,40.746602],[-74.040075,40.746575],[-74.040075,40.746602],[-74.040039,40.746602]]],[[[-74.039967,40.746574],[-74.040003,40.746629],[-74.039966,40.746629],[-74.039967,40.746574]]],[[[-74.040002,40.746657],[-74.040039,40.746629],[-74.040038,40.746657],[-74.040002,40.746657]]],[[[-74.039966,40.746656],[-74.039966,40.746711],[-74.03993,40.746629],[-74.039966,40.746656]]],[[[-74.039857,40.746766],[-74.03993,40.746684],[-74.039929,40.746794],[-74.039857,40.746766]]],[[[-74.039311,40.747422],[-74.03929,40.747422],[-74.039312,40.74738],[-74.039311,40.747422]]],[[[-74.039275,40.747449],[-74.039275,40.747505],[-74.039244,40.747505],[-74.039275,40.747449]]],[[[-74.039893,40.746793],[-74.039272,40.747944],[-74.039019,40.747943],[-74.039162,40.748163],[-74.038799,40.748436],[-74.038772,40.748354],[-74.039165,40.747646],[-74.039237,40.747779],[-74.039566,40.747149],[-74.039893,40.746793]],[[-74.039089,40.74819],[-74.039054,40.748163],[-74.039053,40.74819],[-74.039089,40.74819]]],[[[-74.039708,40.705618],[-74.039687,40.7056],[-74.039708,40.70559],[-74.039708,40.705618]]],[[[-74.03953,40.705672],[-74.039636,40.705623],[-74.039599,40.705672],[-74.03953,40.705672]]],[[[-74.039527,40.705673],[-74.039491,40.705726],[-74.03941,40.705726],[-74.039527,40.705673]]],[[[-74.039382,40.705753],[-74.03935,40.705753],[-74.039382,40.705739],[-74.039382,40.705753]]],[[[-74.039332,40.705762],[-74.039346,40.705781],[-74.039289,40.705781],[-74.039332,40.705762]]],[[[-74.039103,40.705862],[-74.039274,40.705787],[-74.039237,40.705835],[-74.039103,40.705862]]],[[[-74.039093,40.70589],[-74.039041,40.705889],[-74.039093,40.705867],[-74.039093,40.70589]]],[[[-74.038963,40.705924],[-74.03902,40.705898],[-74.038913,40.705944],[-74.038963,40.705924]]],[[[-74.038875,40.705998],[-74.038651,40.706052],[-74.038912,40.705944],[-74.038875,40.705998]]],[[[-74.038103,40.734269],[-74.038175,40.734242],[-74.038175,40.734269],[-74.038103,40.734269]]],[[[-74.038247,40.734297],[-74.038211,40.734269],[-74.038247,40.73427],[-74.038247,40.734297]]],[[[-74.033338,40.734552],[-74.033337,40.734662],[-74.032962,40.73455],[-74.033338,40.734552]]],[[[-74.035501,40.73478],[-74.035429,40.734752],[-74.035501,40.734753],[-74.035501,40.73478]]],[[[-74.03615,40.734947],[-74.036258,40.73492],[-74.036258,40.734948],[-74.03615,40.734947]]],[[[-74.038495,40.735012],[-74.038567,40.734985],[-74.038567,40.735012],[-74.038495,40.735012]]],[[[-74.036618,40.735032],[-74.036582,40.734977],[-74.036618,40.734977],[-74.036618,40.735032]]],[[[-74.03669,40.735032],[-74.036763,40.735005],[-74.036762,40.735032],[-74.03669,40.735032]]],[[[-74.036726,40.735087],[-74.036762,40.73506],[-74.036762,40.735087],[-74.036726,40.735087]]],[[[-74.038781,40.735342],[-74.038817,40.735315],[-74.038817,40.735342],[-74.038781,40.735342]]],[[[-74.038889,40.73537],[-74.038925,40.735343],[-74.038925,40.73537],[-74.038889,40.73537]]],[[[-74.038563,40.735561],[-74.038599,40.735534],[-74.038599,40.735561],[-74.038563,40.735561]]],[[[-74.038707,40.735589],[-74.038852,40.735562],[-74.038852,40.73559],[-74.038707,40.735589]]],[[[-74.038022,40.735559],[-74.038491,40.735616],[-74.037769,40.73564],[-74.038022,40.735559]]],[[[-74.038345,40.73578],[-74.038273,40.735752],[-74.038345,40.735752],[-74.038345,40.73578]]],[[[-74.039238,40.747515],[-74.039238,40.747559],[-74.039214,40.747559],[-74.039238,40.747515]]],[[[-74.039202,40.747581],[-74.039201,40.747642],[-74.039168,40.747641],[-74.039202,40.747581]]],[[[-74.039163,40.747971],[-74.039199,40.747998],[-74.039163,40.747998],[-74.039163,40.747971]]],[[[-74.038742,40.748408],[-74.038763,40.74837],[-74.038763,40.748408],[-74.038742,40.748408]]],[[[-74.038726,40.748491],[-74.038696,40.748491],[-74.038727,40.748436],[-74.038726,40.748491]]],[[[-74.038943,40.748546],[-74.038871,40.748519],[-74.038871,40.748491],[-74.038943,40.748546]]],[[[-74.038726,40.748491],[-74.038762,40.748601],[-74.038726,40.7486],[-74.038726,40.748491]]],[[[-74.038654,40.748567],[-74.038654,40.748573],[-74.038651,40.748573],[-74.038654,40.748567]]],[[[-74.038617,40.748655],[-74.038605,40.748655],[-74.038617,40.748633],[-74.038617,40.748655]]],[[[-74.038581,40.74871],[-74.038575,40.74871],[-74.038581,40.748699],[-74.038581,40.74871]]],[[[-74.038726,40.7486],[-74.038579,40.748984],[-74.038506,40.749039],[-74.038726,40.7486]]],[[[-74.038507,40.74883],[-74.038507,40.748847],[-74.038498,40.748847],[-74.038507,40.74883]]],[[[-74.038471,40.748929],[-74.038453,40.748929],[-74.038471,40.748896],[-74.038471,40.748929]]],[[[-74.038422,40.748984],[-74.038434,40.748962],[-74.038434,40.748984],[-74.038422,40.748984]]],[[[-74.038398,40.749038],[-74.038392,40.749038],[-74.038398,40.749028],[-74.038398,40.749038]]],[[[-74.038361,40.749148],[-74.038331,40.749148],[-74.038361,40.749093],[-74.038361,40.749148]]],[[[-74.038324,40.74923],[-74.038288,40.749225],[-74.038325,40.749159],[-74.038324,40.74923]]],[[[-74.038431,40.749395],[-74.038469,40.749148],[-74.038542,40.749121],[-74.038431,40.749395]]],[[[-74.038269,40.74926],[-74.038288,40.749312],[-74.038187,40.749422],[-74.038269,40.74926]]],[[[-74.038214,40.749449],[-74.03816,40.749477],[-74.038178,40.749439],[-74.038214,40.749449]]],[[[-74.038142,40.749512],[-74.038142,40.749559],[-74.038118,40.749559],[-74.038142,40.749512]]],[[[-74.038105,40.749584],[-74.038105,40.749614],[-74.03809,40.749614],[-74.038105,40.749584]]],[[[-74.038212,40.749861],[-74.037992,40.750245],[-74.03792,40.750244],[-74.037847,40.750359],[-74.038069,40.749657],[-74.038359,40.749422],[-74.038212,40.749861]],[[-74.038066,40.75008],[-74.03803,40.750053],[-74.03803,40.75008],[-74.038066,40.75008]],[[-74.038104,40.749751],[-74.038068,40.749778],[-74.038104,40.749778],[-74.038104,40.749751]]],[[[-74.037884,40.750326],[-74.037919,40.750354],[-74.037883,40.750354],[-74.037884,40.750326]]]]}}]}