{"type":"FeatureCollection","features":[{"type":"Feature","properties":{"level_ft":19},"geometry":{"type":"MultiPolygon","coordinates":[[[[-74.096356,40.68483],[-74.09632,40.684857],[-74.09632,40.68483],[-74.096356,40.68483]]],[[[-74.090078,40.685549],[-74.090113,40.685577],[-74.090077,40.685577],[-74.090078,40.685549]]],[[[-74.090222,40.685577],[-74.090113,40.685604],[-74.090113,40.685577],[-74.090222,40.685577]]],[[[-74.096206,40.685763],[-74.095737,40.685844],[-74.095737,40.685816],[-74.096206,40.685763]]],[[[-74.094831,40.686664],[-74.0944,40.686305],[-74.09469,40.686059],[-74.096132,40.686147],[-74.096058,40.686503],[-74.095627,40.6862],[-74.095373,40.686446],[-74.095447,40.686144],[-74.094831,40.686664]]],[[[-74.094182,40.686579],[-74.094218,40.686607],[-74.094182,40.686607],[-74.094182,40.686579]]],[[[-74.094326,40.686662],[-74.094218,40.686689],[-74.094218,40.686607],[-74.094326,40.686662]]],[[[-74.094434,40.686745],[-74.094397,40.686772],[-74.094398,40.686745],[-74.094434,40.686745]]],[[[-74.094433,40.686772],[-74.094469,40.6868],[-74.094433,40.6868],[-74.094433,40.686772]]],[[[-74.098725,40.68676],[-74.098976,40.686953],[-74.098724,40.686815],[-74.098725,40.68676]]],[[[-74.094073,40.686798],[-74.094,40.686881],[-74.093964,40.686826],[-74.094073,40.686798]]],[[[-74.094288,40.686964],[-74.094288,40.686909],[-74.094396,40.687019],[-74.094288,40.686964]]],[[[-74.093711,40.686989],[-74.093675,40.687017],[-74.093675,40.686989],[-74.093711,40.686989]]],[[[-74.093639,40.687017],[-74.093674,40.687044],[-74.093638,40.687044],[-74.093639,40.687017]]],[[[-74.093602,40.687044],[-74.093638,40.687071],[-74.093602,40.687071],[-74.093602,40.687044]]],[[[-74.099043,40.687886],[-74.097853,40.6878],[-74.098507,40.687006],[-74.099296,40.687668],[-74.099043,40.687886]]],[[[-74.092841,40.687727],[-74.09266,40.687864],[-74.092479,40.688001],[-74.09266,40.687782],[-74.092841,40.687727]]],[[[-74.098033,40.68791],[-74.098104,40.687993],[-74.097744,40.687909],[-74.098033,40.68791]]],[[[-74.09778,40.688019],[-74.097707,40.688019],[-74.097708,40.687992],[-74.09778,40.687992],[-74.09778,40.688019]]],[[[-74.097995,40.688102],[-74.09778,40.688019],[-74.097996,40.688047],[-74.097995,40.688102]]],[[[-74.100408,40.68866],[-74.100444,40.688687],[-74.100408,40.688687],[-74.100408,40.68866]]],[[[-74.100696,40.688825],[-74.10066,40.688798],[-74.100696,40.688798],[-74.100696,40.688825]]],[[[-74.100839,40.689046],[-74.100442,40.689099],[-74.099688,40.688493],[-74.100408,40.688742],[-74.100552,40.688688],[-74.100659,40.688935],[-74.100839,40.689046]],[[-74.100408,40.688742],[-74.100371,40.688769],[-74.100408,40.68877],[-74.100408,40.688742]],[[-74.100371,40.688769],[-74.100335,40.688797],[-74.100371,40.688797],[-74.100371,40.688769]],[[-74.100659,40.688935],[-74.100623,40.688962],[-74.100659,40.688963],[-74.100659,40.688935]]],[[[-74.100618,40.689841],[-74.099646,40.689535],[-74.09936,40.689013],[-74.100009,40.689125],[-74.100798,40.689787],[-74.100618,40.689841]],[[-74.100654,40.689704],[-74.100618,40.689731],[-74.100654,40.689731],[-74.100654,40.689704]],[[-74.100618,40.689813],[-74.100654,40.689786],[-74.100618,40.689786],[-74.100618,40.689813]]],[[[-74.090341,40.689613],[-74.090377,40.68964],[-74.090341,40.68964],[-74.090341,40.689613]]],[[[-74.090305,40.689695],[-74.090268,40.689722],[-74.090269,40.689695],[-74.090305,40.689695]]],[[[-74.090918,40.68967],[-74.0907,40.689861],[-74.090701,40.689779],[-74.090918,40.68967]]],[[[-74.09932,40.689699],[-74.099897,40.689756],[-74.100075,40.690113],[-74.099354,40.690001],[-74.09932,40.689699]]],[[[-74.090664,40.689861],[-74.0907,40.689888],[-74.090664,40.689888],[-74.090664,40.689861]]],[[[-74.090483,40.689997],[-74.090519,40.689943],[-74.090592,40.689943],[-74.090483,40.689997]]],[[[-74.090447,40.689997],[-74.090483,40.690025],[-74.090447,40.690025],[-74.090447,40.689997]]],[[[-74.090338,40.690134],[-74.090266,40.690161],[-74.090447,40.690025],[-74.090338,40.690134]]],[[[-74.090194,40.690161],[-74.090229,40.690189],[-74.090193,40.690216],[-74.090194,40.690161]]],[[[-74.090157,40.690216],[-74.090193,40.690243],[-74.090157,40.690243],[-74.090157,40.690216]]],[[[-74.090121,40.690243],[-74.090157,40.690271],[-74.090121,40.690271],[-74.090121,40.690243]]],[[[-74.090048,40.690298],[-74.090084,40.690325],[-74.090048,40.690325],[-74.090048,40.690298]]],[[[-74.090012,40.690325],[-74.090048,40.690353],[-74.090012,40.690353],[-74.090012,40.690325]]],[[[-74.101495,40.693934],[-74.102456,40.694596],[-74.102852,40.695432],[-74.114232,40.700952],[-74.114309,40.704609],[-74.116408,40.709735],[-74.113869,40.712314],[-74.110167,40.715375],[-74.10747,40.717075],[-74.102976,40.71933],[-74.10177,40.720231],[-74.100089,40.722867],[-74.099011,40.727277],[-74.095278,40.725892],[-74.095277,40.726111],[-74.096068,40.726526],[-74.098962,40.727552],[-74.097897,40.73072],[-74.095303,40.735005],[-74.090421,40.735455],[-74.089449,40.735122],[-74.089193,40.73556],[-74.088507,40.73575],[-74.086592,40.73599],[-74.0858,40.735713],[-74.085798,40.735987],[-74.086194,40.736153],[-74.075789,40.738119],[-74.072582,40.737284],[-74.072986,40.736243],[-74.07331,40.736326],[-74.073239,40.736106],[-74.073564,40.736162],[-74.074144,40.735698],[-74.074541,40.735754],[-74.074323,40.736],[-74.074575,40.736111],[-74.074974,40.735673],[-74.07595,40.735457],[-74.076353,40.734498],[-74.075094,40.73389],[-74.074696,40.73397],[-74.074517,40.733833],[-74.074917,40.733395],[-74.074558,40.733009],[-74.074778,40.732571],[-74.075501,40.732299],[-74.076583,40.73233],[-74.077013,40.732799],[-74.077519,40.732718],[-74.078023,40.732912],[-74.077986,40.733132],[-74.078563,40.733161],[-74.078565,40.732887],[-74.078962,40.732778],[-74.079545,40.731957],[-74.080087,40.731767],[-74.080601,40.730451],[-74.079917,40.730147],[-74.080208,40.729818],[-74.080251,40.728611],[-74.079893,40.728225],[-74.080758,40.728365],[-74.081158,40.727873],[-74.08141,40.727901],[-74.081336,40.72823],[-74.081625,40.728231],[-74.081556,40.727764],[-74.081339,40.727736],[-74.081559,40.727215],[-74.081236,40.726995],[-74.081308,40.72694],[-74.081596,40.727023],[-74.081705,40.726996],[-74.080991,40.725786],[-74.081101,40.725402],[-74.081789,40.724993],[-74.082048,40.724033],[-74.08263,40.723266],[-74.083752,40.722749],[-74.083753,40.722502],[-74.083249,40.722335],[-74.083182,40.721567],[-74.083472,40.721348],[-74.083294,40.72099],[-74.083909,40.720663],[-74.084522,40.720748],[-74.084488,40.720446],[-74.085101,40.720503],[-74.084636,40.719788],[-74.085358,40.71968],[-74.085361,40.719269],[-74.085793,40.719407],[-74.086047,40.719189],[-74.086051,40.718557],[-74.086449,40.718422],[-74.086306,40.718092],[-74.086992,40.718012],[-74.087496,40.718288],[-74.087606,40.717932],[-74.088435,40.718044],[-74.08833,40.71755],[-74.088871,40.717607],[-74.089089,40.717305],[-74.08855,40.716892],[-74.088878,40.716509],[-74.088628,40.716096],[-74.088847,40.715603],[-74.088307,40.715436],[-74.088237,40.715106],[-74.087662,40.714775],[-74.087986,40.714749],[-74.087701,40.714171],[-74.088206,40.714283],[-74.088533,40.713927],[-74.088893,40.713928],[-74.088891,40.714258],[-74.089143,40.714369],[-74.089219,40.713737],[-74.089652,40.713766],[-74.089221,40.713435],[-74.089476,40.712997],[-74.08962,40.713053],[-74.089801,40.712998],[-74.089513,40.71297],[-74.089336,40.712338],[-74.088941,40.712117],[-74.089125,40.711514],[-74.089413,40.711542],[-74.089776,40.711187],[-74.08924,40.710361],[-74.089781,40.710336],[-74.090542,40.709817],[-74.090974,40.709928],[-74.091085,40.709544],[-74.091373,40.709682],[-74.091954,40.709053],[-74.092206,40.709081],[-74.092096,40.709383],[-74.09289,40.709276],[-74.092245,40.708642],[-74.092752,40.708205],[-74.092756,40.707656],[-74.094062,40.706398],[-74.094749,40.706126],[-74.094427,40.705658],[-74.094861,40.705467],[-74.095262,40.704837],[-74.095374,40.704124],[-74.095844,40.704043],[-74.095812,40.703357],[-74.096245,40.703194],[-74.096358,40.702563],[-74.096791,40.702482],[-74.097011,40.701824],[-74.09748,40.701798],[-74.097519,40.701359],[-74.098172,40.700758],[-74.098532,40.700786],[-74.098861,40.700074],[-74.098611,40.699716],[-74.098758,40.699305],[-74.099263,40.699169],[-74.099338,40.69873],[-74.099663,40.698649],[-74.099738,40.69821],[-74.100173,40.697827],[-74.100031,40.697525],[-74.100718,40.697198],[-74.100938,40.696512],[-74.101664,40.695856],[-74.101382,40.694675],[-74.100521,40.693985],[-74.100595,40.693684],[-74.101065,40.693383],[-74.10157,40.693413],[-74.101495,40.693934]],[[-74.074697,40.733861],[-74.074806,40.733834],[-74.074697,40.733806],[-74.074697,40.733861]],[[-74.094861,40.705467],[-74.094897,40.705495],[-74.094897,40.705468],[-74.094861,40.705467]],[[-74.100773,40.694041],[-74.100809,40.694014],[-74.100773,40.694014],[-74.100773,40.694041]],[[-74.100773,40.694014],[-74.100737,40.693959],[-74.100737,40.694014],[-74.100773,40.694014]],[[-74.101173,40.693411],[-74.101137,40.693439],[-74.101173,40.693439],[-74.101173,40.693411]],[[-74.101566,40.694071],[-74.101494,40.694099],[-74.101566,40.694099],[-74.101566,40.694071]],[[-74.101494,40.694099],[-74.101458,40.694126],[-74.101494,40.694126],[-74.101494,40.694099]],[[-74.101458,40.694126],[-74.101349,40.69418],[-74.101457,40.694153],[-74.101458,40.694126]],[[-74.101349,40.69418],[-74.101313,40.694208],[-74.101349,40.694208],[-74.101349,40.69418]]],[[[-74.08943,40.685355],[-74.089393,40.685382],[-74.089394,40.685354],[-74.08943,40.685355]]],[[[-74.088703,40.68623],[-74.088739,40.686258],[-74.088703,40.686258],[-74.088703,40.68623]]],[[[-74.088631,40.686285],[-74.088703,40.686258],[-74.088703,40.686285],[-74.088631,40.686285]]],[[[-74.090286,40.686867],[-74.089779,40.68714],[-74.089635,40.687112],[-74.089744,40.686948],[-74.090286,40.686867]]],[[[-74.090087,40.689941],[-74.089942,40.689941],[-74.090087,40.689886],[-74.090087,40.689941]]],[[[-74.089724,40.690214],[-74.089688,40.690242],[-74.089688,40.690214],[-74.089724,40.690214]]],[[[-74.089975,40.690435],[-74.089758,40.690571],[-74.089976,40.69038],[-74.089975,40.690435]]],[[[-74.089688,40.690242],[-74.089362,40.690542],[-74.089036,40.690761],[-74.089182,40.690514],[-74.089688,40.690242]]],[[[-74.089614,40.690653],[-74.089686,40.690571],[-74.089758,40.690571],[-74.089614,40.690653]]],[[[-74.089613,40.690708],[-74.089469,40.690735],[-74.089614,40.690653],[-74.089613,40.690708]]],[[[-74.089432,40.69079],[-74.089468,40.690817],[-74.089432,40.690817],[-74.089432,40.69079]]],[[[-74.089396,40.690817],[-74.089432,40.690845],[-74.089396,40.690845],[-74.089396,40.690817]]],[[[-74.08936,40.690872],[-74.089396,40.690845],[-74.089396,40.690872],[-74.08936,40.690872]]],[[[-74.089324,40.690872],[-74.08936,40.690899],[-74.089323,40.690899],[-74.089324,40.690872]]],[[[-74.089287,40.690899],[-74.089323,40.690927],[-74.089287,40.690927],[-74.089287,40.690899]]],[[[-74.089251,40.690954],[-74.089287,40.690927],[-74.089287,40.690954],[-74.089251,40.690954]]],[[[-74.089215,40.690954],[-74.089251,40.690981],[-74.089215,40.690981],[-74.089215,40.690954]]],[[[-74.089143,40.691008],[-74.089214,40.691036],[-74.089142,40.691063],[-74.089143,40.691008]]],[[[-74.089106,40.691091],[-74.089142,40.691063],[-74.089142,40.691091],[-74.089106,40.691091]]],[[[-74.08907,40.69109],[-74.089106,40.691118],[-74.08907,40.691118],[-74.08907,40.69109]]],[[[-74.089034,40.691118],[-74.08907,40.691145],[-74.089033,40.691145],[-74.089034,40.691118]]],[[[-74.088997,40.691173],[-74.089033,40.691145],[-74.089033,40.691173],[-74.088997,40.691173]]],[[[-74.088961,40.691172],[-74.088997,40.6912],[-74.088961,40.6912],[-74.088961,40.691172]]],[[[-74.088925,40.691227],[-74.088889,40.691254],[-74.088889,40.691227],[-74.088925,40.691227]]],[[[-74.088852,40.691282],[-74.088889,40.691254],[-74.088888,40.691282],[-74.088852,40.691282]]],[[[-74.088708,40.691281],[-74.088744,40.691309],[-74.088708,40.691309],[-74.088708,40.691281]]],[[[-74.08878,40.691309],[-74.088852,40.691337],[-74.08878,40.691364],[-74.08878,40.691309]]],[[[-74.088672,40.691336],[-74.088708,40.691309],[-74.088708,40.691336],[-74.088672,40.691336]]],[[[-74.088744,40.691364],[-74.08878,40.691391],[-74.088743,40.691391],[-74.088744,40.691364]]],[[[-74.088635,40.691363],[-74.088599,40.691391],[-74.088599,40.691363],[-74.088635,40.691363]]],[[[-74.088707,40.691419],[-74.088743,40.691391],[-74.088743,40.691419],[-74.088707,40.691419]]],[[[-74.088563,40.691391],[-74.088599,40.691418],[-74.088563,40.691418],[-74.088563,40.691391]]],[[[-74.088671,40.691418],[-74.088707,40.691446],[-74.088671,40.691446],[-74.088671,40.691418]]],[[[-74.088527,40.691445],[-74.088563,40.691418],[-74.088563,40.691445],[-74.088527,40.691445]]],[[[-74.088599,40.691473],[-74.088635,40.691501],[-74.088599,40.691501],[-74.088599,40.691473]]],[[[-74.088562,40.6915],[-74.088598,40.691528],[-74.088562,40.691528],[-74.088562,40.6915]]],[[[-74.088417,40.691637],[-74.088381,40.691664],[-74.088381,40.691637],[-74.088417,40.691637]]],[[[-74.087241,40.736157],[-74.088867,40.735806],[-74.089118,40.736054],[-74.088647,40.736354],[-74.08807,40.736242],[-74.087961,40.736462],[-74.087241,40.736157]]],[[[-74.084394,40.683223],[-74.084214,40.683222],[-74.084214,40.683195],[-74.084394,40.683223]]],[[[-74.084466,40.683278],[-74.08443,40.683305],[-74.08443,40.683278],[-74.084466,40.683278]]],[[[-74.08443,40.683333],[-74.084394,40.683305],[-74.08443,40.683305],[-74.08443,40.683333]]],[[[-74.085402,40.683611],[-74.085329,40.683665],[-74.08533,40.683611],[-74.085402,40.683611]]],[[[-74.087272,40.684386],[-74.087236,40.684413],[-74.087236,40.684386],[-74.087272,40.684386]]],[[[-74.087919,40.684718],[-74.087883,40.68469],[-74.087919,40.68469],[-74.087919,40.684718]]],[[[-74.087991,40.684718],[-74.087955,40.684745],[-74.087955,40.684718],[-74.087991,40.684718]]],[[[-74.088027,40.684746],[-74.087991,40.684773],[-74.087991,40.684746],[-74.088027,40.684746]]],[[[-74.088099,40.684773],[-74.088063,40.684801],[-74.088063,40.684773],[-74.088099,40.684773]]],[[[-74.088279,40.684856],[-74.088243,40.684884],[-74.088243,40.684856],[-74.088279,40.684856]]],[[[-74.088351,40.684912],[-74.088386,40.684939],[-74.08835,40.684939],[-74.088351,40.684912]]],[[[-74.088422,40.684967],[-74.088386,40.684939],[-74.088423,40.684939],[-74.088422,40.684967]]],[[[-74.086951,40.68971],[-74.086915,40.689683],[-74.086951,40.689683],[-74.086951,40.68971]]],[[[-74.086153,40.690394],[-74.086117,40.690421],[-74.086117,40.690394],[-74.086153,40.690394]]],[[[-74.086117,40.690449],[-74.086081,40.690421],[-74.086117,40.690421],[-74.086117,40.690449]]],[[[-74.088345,40.691637],[-74.08831,40.691582],[-74.088382,40.691582],[-74.088345,40.691637]]],[[[-74.088381,40.691664],[-74.088345,40.691692],[-74.088345,40.691664],[-74.088381,40.691664]]],[[[-74.08385,40.695327],[-74.083887,40.695299],[-74.083886,40.695327],[-74.08385,40.695327]]],[[[-74.083814,40.695354],[-74.08385,40.695327],[-74.08385,40.695354],[-74.083814,40.695354]]],[[[-74.083017,40.695982],[-74.082981,40.69601],[-74.082981,40.695982],[-74.083017,40.695982]]],[[[-74.068918,40.701146],[-74.068954,40.701119],[-74.068954,40.701146],[-74.068918,40.701146]]],[[[-74.068156,40.701884],[-74.068809,40.701228],[-74.069419,40.701724],[-74.069345,40.702026],[-74.068585,40.702462],[-74.06808,40.702406],[-74.068156,40.701884]]],[[[-74.071632,40.733575],[-74.071453,40.7333],[-74.072037,40.732204],[-74.072471,40.732068],[-74.072438,40.731629],[-74.073233,40.73144],[-74.073265,40.732153],[-74.074091,40.732788],[-74.073223,40.733004],[-74.072575,40.732837],[-74.073112,40.733388],[-74.072786,40.733607],[-74.072065,40.733494],[-74.071881,40.734152],[-74.071266,40.734287],[-74.071632,40.733575]]],[[[-74.072292,40.737448],[-74.071968,40.737447],[-74.071968,40.737364],[-74.072113,40.737337],[-74.072292,40.737448]]],[[[-74.083643,40.740234],[-74.076113,40.738203],[-74.086519,40.736237],[-74.08785,40.736873],[-74.088284,40.736737],[-74.088968,40.736932],[-74.090671,40.735895],[-74.090492,40.735565],[-74.095174,40.73517],[-74.093398,40.737015],[-74.090175,40.738579],[-74.08703,40.739535],[-74.083643,40.740234]]],[[[-74.074202,40.737894],[-74.07413,40.737894],[-74.07413,40.737866],[-74.074202,40.737867],[-74.074202,40.737894]]],[[[-74.07431,40.737922],[-74.074202,40.737894],[-74.074311,40.737894],[-74.07431,40.737922]]],[[[-74.072937,40.738191],[-74.072145,40.737969],[-74.072184,40.73753],[-74.074886,40.738253],[-74.073007,40.738603],[-74.072937,40.738191]]],[[[-74.078238,40.738952],[-74.078165,40.738979],[-74.078165,40.738952],[-74.078238,40.738952]]],[[[-74.073003,40.739235],[-74.072643,40.739069],[-74.073942,40.739073],[-74.073869,40.739155],[-74.073003,40.739235]],[[-74.072931,40.739179],[-74.072967,40.739152],[-74.072931,40.739152],[-74.072931,40.739179]]],[[[-74.08065,40.739867],[-74.077876,40.739006],[-74.079679,40.739232],[-74.083641,40.740344],[-74.082233,40.740668],[-74.08065,40.739867]],[[-74.080866,40.73995],[-74.080902,40.739922],[-74.080866,40.739922],[-74.080866,40.73995]]],[[[-74.077094,40.743148],[-74.070495,40.741915],[-74.070573,40.74101],[-74.070935,40.740847],[-74.071084,40.740161],[-74.071555,40.739861],[-74.071232,40.739612],[-74.073688,40.739347],[-74.075347,40.739463],[-74.075706,40.739794],[-74.075775,40.740315],[-74.075448,40.740699],[-74.074508,40.740887],[-74.07368,40.74061],[-74.074327,40.740969],[-74.075266,40.74089],[-74.076137,40.740097],[-74.076105,40.739493],[-74.075924,40.73963],[-74.075781,40.739382],[-74.074773,40.739022],[-74.072716,40.739014],[-74.072681,40.738794],[-74.075426,40.738338],[-74.076759,40.738754],[-74.07683,40.739029],[-74.080073,40.73981],[-74.081865,40.740777],[-74.07943,40.741797],[-74.077094,40.743148]]],[[[-74.068478,40.741304],[-74.068117,40.741412],[-74.068046,40.74122],[-74.068446,40.740673],[-74.068555,40.740673],[-74.068408,40.740947],[-74.068626,40.740838],[-74.068661,40.74103],[-74.068588,40.741057],[-74.068588,40.74114],[-74.068552,40.74114],[-74.068551,40.741194],[-74.068515,40.741194],[-74.068515,40.741249],[-74.068479,40.741249],[-74.068478,40.741304]]],[[[-74.068624,40.74114],[-74.068587,40.741167],[-74.068588,40.74114],[-74.068624,40.74114]]],[[[-74.068551,40.741222],[-74.068587,40.741195],[-74.068587,40.741222],[-74.068551,40.741222]]],[[[-74.068515,40.741277],[-74.068551,40.741249],[-74.068551,40.741277],[-74.068515,40.741277]]],[[[-74.068514,40.741332],[-74.068478,40.741304],[-74.068514,40.741304],[-74.068514,40.741332]]],[[[-74.068656,40.741716],[-74.0688,40.741772],[-74.068619,40.741799],[-74.068656,40.741716]]],[[[-74.100449,40.687864],[-74.098797,40.686705],[-74.097974,40.685742],[-74.097513,40.684312],[-74.097404,40.684504],[-74.097116,40.684476],[-74.096606,40.685243],[-74.096499,40.68505],[-74.096171,40.685653],[-74.095738,40.685706],[-74.09828,40.682696],[-74.096394,40.684638],[-74.095594,40.685706],[-74.095161,40.685704],[-74.095309,40.685046],[-74.095887,40.684883],[-74.096904,40.683679],[-74.097234,40.682774],[-74.097669,40.682446],[-74.097671,40.682035],[-74.098215,40.681515],[-74.096773,40.681565],[-74.097027,40.681319],[-74.096812,40.681016],[-74.095803,40.680958],[-74.096017,40.681315],[-74.09587,40.681781],[-74.094562,40.683396],[-74.093662,40.683174],[-74.093444,40.683502],[-74.093121,40.683144],[-74.091252,40.682259],[-74.091141,40.682643],[-74.09222,40.683114],[-74.092252,40.683718],[-74.091925,40.684183],[-74.091205,40.684016],[-74.091131,40.684208],[-74.090807,40.684234],[-74.088004,40.682632],[-74.087031,40.682546],[-74.086781,40.682161],[-74.084158,40.680724],[-74.083509,40.680584],[-74.083075,40.680857],[-74.082058,40.682007],[-74.08202,40.682391],[-74.082955,40.682724],[-74.082918,40.682861],[-74.083135,40.682779],[-74.084143,40.68314],[-74.084322,40.68336],[-74.08461,40.683306],[-74.084898,40.683417],[-74.084861,40.683554],[-74.085042,40.683472],[-74.08533,40.683583],[-74.085257,40.683693],[-74.085474,40.683639],[-74.086661,40.684055],[-74.087236,40.684359],[-74.0872,40.684413],[-74.087487,40.684579],[-74.088063,40.684828],[-74.088243,40.684829],[-74.088207,40.684856],[-74.088242,40.684911],[-74.088351,40.684884],[-74.088351,40.684912],[-74.088315,40.684911],[-74.088314,40.684939],[-74.088422,40.685077],[-74.089969,40.685576],[-74.089247,40.685656],[-74.088811,40.686231],[-74.088667,40.686203],[-74.088522,40.686285],[-74.088558,40.686367],[-74.087617,40.686858],[-74.085809,40.687647],[-74.088412,40.686641],[-74.086134,40.687704],[-74.086132,40.688006],[-74.087179,40.687707],[-74.088008,40.687902],[-74.081659,40.693974],[-74.07952,40.695695],[-74.079084,40.69627],[-74.079154,40.696572],[-74.081583,40.69455],[-74.086664,40.689407],[-74.089125,40.687934],[-74.089344,40.687605],[-74.090862,40.687034],[-74.089956,40.687745],[-74.087677,40.688862],[-74.086081,40.690366],[-74.084665,40.691981],[-74.087096,40.689601],[-74.087854,40.689357],[-74.087667,40.690482],[-74.087014,40.691138],[-74.086974,40.691769],[-74.087297,40.692072],[-74.08871,40.690897],[-74.089144,40.690816],[-74.090195,40.689942],[-74.090413,40.68964],[-74.09009,40.689337],[-74.090273,40.688981],[-74.091573,40.688684],[-74.092334,40.688028],[-74.092587,40.688028],[-74.092949,40.687755],[-74.092877,40.687673],[-74.092914,40.687536],[-74.093458,40.687098],[-74.093638,40.687099],[-74.093855,40.686935],[-74.094251,40.687101],[-74.09099,40.68967],[-74.091136,40.689396],[-74.088491,40.691418],[-74.088238,40.691417],[-74.08831,40.691582],[-74.088201,40.691636],[-74.088345,40.691719],[-74.084829,40.694507],[-74.084032,40.69508],[-74.0836,40.694969],[-74.083851,40.695299],[-74.082945,40.695927],[-74.082979,40.696202],[-74.082723,40.696777],[-74.082108,40.697132],[-74.082322,40.697544],[-74.079714,40.699374],[-74.07874,40.699288],[-74.07577,40.701309],[-74.075405,40.701966],[-74.075654,40.702544],[-74.074857,40.70309],[-74.074524,40.704433],[-74.073398,40.705665],[-74.073791,40.706133],[-74.073317,40.707009],[-74.073568,40.70723],[-74.072583,40.708901],[-74.072361,40.709806],[-74.072001,40.709695],[-74.071383,40.710433],[-74.070626,40.710431],[-74.068897,40.709985],[-74.068898,40.70982],[-74.068357,40.709873],[-74.070625,40.710486],[-74.071272,40.710927],[-74.070873,40.71131],[-74.070694,40.71098],[-74.070115,40.711252],[-74.069969,40.711609],[-74.069608,40.71158],[-74.067563,40.715497],[-74.067054,40.716072],[-74.06662,40.71618],[-74.066508,40.716839],[-74.066108,40.717276],[-74.066285,40.717744],[-74.065519,40.719058],[-74.064976,40.719441],[-74.063663,40.721494],[-74.063339,40.721411],[-74.063121,40.721657],[-74.063153,40.722289],[-74.061444,40.724368],[-74.061011,40.724284],[-74.06072,40.724722],[-74.05996,40.724994],[-74.057334,40.723858],[-74.056181,40.723552],[-74.056,40.723689],[-74.056073,40.723552],[-74.054525,40.723079],[-74.056254,40.718007],[-74.056085,40.716332],[-74.054376,40.712949],[-74.054786,40.710892],[-74.055114,40.710427],[-74.054997,40.711717],[-74.057585,40.718616],[-74.055143,40.71147],[-74.05544,40.710236],[-74.056165,40.709635],[-74.057795,40.708708],[-74.058048,40.708654],[-74.058048,40.708571],[-74.058338,40.708463],[-74.058882,40.708026],[-74.059785,40.707837],[-74.063694,40.705711],[-74.066269,40.703607],[-74.067822,40.703311],[-74.069956,40.702385],[-74.07032,40.701838],[-74.069063,40.701092],[-74.068846,40.701091],[-74.068919,40.700954],[-74.070078,40.700217],[-74.073404,40.698994],[-74.073334,40.698719],[-74.07037,40.699669],[-74.068668,40.700761],[-74.068058,40.700292],[-74.068235,40.700842],[-74.067981,40.701005],[-74.065994,40.701437],[-74.065486,40.701984],[-74.065949,40.702864],[-74.065692,40.703522],[-74.065003,40.704206],[-74.062106,40.705842],[-74.061673,40.70584],[-74.060731,40.70655],[-74.059973,40.706575],[-74.059032,40.707148],[-74.05921,40.707478],[-74.058992,40.707669],[-74.055843,40.709277],[-74.05479,40.710261],[-74.054132,40.711686],[-74.054051,40.713003],[-74.055579,40.71644],[-74.055784,40.718198],[-74.055597,40.71924],[-74.054273,40.722996],[-74.051536,40.722134],[-74.051319,40.722216],[-74.052544,40.722577],[-74.054089,40.723462],[-74.051592,40.730013],[-74.050975,40.730532],[-74.050143,40.730776],[-74.046174,40.730705],[-74.050213,40.731188],[-74.046058,40.731858],[-74.045876,40.732104],[-74.049737,40.732092],[-74.05046,40.731902],[-74.051258,40.731411],[-74.049006,40.733516],[-74.049112,40.733791],[-74.048342,40.735627],[-74.047616,40.736311],[-74.047327,40.736282],[-74.047288,40.736721],[-74.042603,40.735879],[-74.042025,40.735932],[-74.042171,40.73574],[-74.044372,40.735666],[-74.041162,40.735489],[-74.041268,40.735764],[-74.040944,40.73568],[-74.0408,40.735707],[-74.042277,40.736024],[-74.039624,40.73643],[-74.038781,40.736295],[-74.036434,40.735584],[-74.036832,40.735362],[-74.035389,40.735273],[-74.033373,40.734673],[-74.033374,40.734497],[-74.033337,40.734662],[-74.032436,40.734394],[-74.032439,40.734082],[-74.0324,40.734383],[-74.031747,40.734189],[-74.031934,40.734052],[-74.030091,40.733695],[-74.030566,40.733735],[-74.030967,40.731276],[-74.027997,40.731011],[-74.028094,40.730228],[-74.026851,40.72951],[-74.027419,40.729492],[-74.029127,40.730468],[-74.031254,40.730755],[-74.029758,40.729759],[-74.030478,40.729769],[-74.031141,40.730229],[-74.031232,40.729473],[-74.027341,40.729073],[-74.030966,40.729341],[-74.031006,40.728998],[-74.026548,40.728601],[-74.026604,40.72819],[-74.031034,40.728575],[-74.031086,40.728036],[-74.027374,40.727716],[-74.027376,40.727515],[-74.030342,40.727781],[-74.030405,40.727036],[-74.030021,40.726476],[-74.030287,40.726135],[-74.034452,40.726238],[-74.034525,40.725771],[-74.032072,40.725567],[-74.03211,40.725235],[-74.034559,40.725585],[-74.034614,40.725286],[-74.033817,40.725209],[-74.03384,40.725007],[-74.029447,40.724567],[-74.029605,40.723812],[-74.033812,40.724127],[-74.03423,40.722149],[-74.031422,40.721896],[-74.031476,40.720258],[-74.032552,40.720129],[-74.032062,40.719669],[-74.029269,40.719356],[-74.029375,40.718921],[-74.032487,40.719279],[-74.03275,40.717386],[-74.02993,40.717066],[-74.029999,40.716713],[-74.032075,40.716919],[-74.032169,40.71639],[-74.031289,40.716292],[-74.0315,40.715724],[-74.031699,40.716164],[-74.032624,40.716228],[-74.03315,40.714155],[-74.032997,40.713831],[-74.031663,40.713565],[-74.03302,40.713729],[-74.033733,40.711677],[-74.034832,40.711793],[-74.035525,40.711406],[-74.037113,40.711659],[-74.038075,40.711106],[-74.0395,40.711082],[-74.039514,40.71038],[-74.038623,40.710148],[-74.038499,40.709581],[-74.035384,40.70908],[-74.034716,40.709167],[-74.034344,40.70887],[-74.034501,40.707679],[-74.034081,40.707627],[-74.034058,40.707141],[-74.034162,40.706652],[-74.034692,40.706696],[-74.034873,40.705751],[-74.038567,40.70609],[-74.041336,40.704785],[-74.045227,40.702193],[-74.048464,40.699254],[-74.051378,40.696016],[-74.054851,40.69064],[-74.057814,40.691965],[-74.057479,40.69281],[-74.058322,40.693287],[-74.058756,40.692501],[-74.058952,40.692563],[-74.058686,40.693452],[-74.059387,40.693881],[-74.059784,40.693079],[-74.059994,40.693121],[-74.0597,40.694059],[-74.060237,40.694409],[-74.060745,40.693614],[-74.06137,40.693886],[-74.06103,40.695033],[-74.064731,40.697091],[-74.06515,40.697088],[-74.06524,40.697678],[-74.065774,40.698034],[-74.066106,40.698135],[-74.066563,40.696832],[-74.067029,40.696369],[-74.068257,40.696866],[-74.069577,40.695732],[-74.070581,40.694436],[-74.070378,40.693824],[-74.069619,40.694049],[-74.069813,40.694365],[-74.069068,40.695173],[-74.0678,40.695391],[-74.067688,40.695217],[-74.067452,40.695555],[-74.065882,40.694626],[-74.06693,40.694008],[-74.068929,40.691697],[-74.069459,40.690723],[-74.069929,40.688696],[-74.069624,40.685822],[-74.07021,40.684684],[-74.069889,40.68445],[-74.070546,40.683946],[-74.073359,40.686049],[-74.073182,40.686206],[-74.07347,40.686778],[-74.074685,40.687589],[-74.07484,40.687935],[-74.075758,40.68829],[-74.075897,40.688661],[-74.078013,40.688601],[-74.078733,40.688949],[-74.079993,40.688906],[-74.079582,40.688726],[-74.080285,40.687995],[-74.07463,40.683866],[-74.074457,40.683971],[-74.071101,40.681665],[-74.070662,40.680639],[-74.071797,40.679744],[-74.070641,40.679209],[-74.071889,40.679629],[-74.07372,40.679817],[-74.074828,40.678352],[-74.072516,40.677158],[-74.072814,40.676909],[-74.075007,40.678078],[-74.075638,40.677405],[-74.072611,40.675807],[-74.073022,40.675347],[-74.07579,40.676812],[-74.076735,40.676002],[-74.075979,40.67691],[-74.077223,40.675599],[-74.080985,40.677371],[-74.081291,40.677066],[-74.0813,40.676473],[-74.080935,40.676073],[-74.077279,40.674274],[-74.069296,40.670879],[-74.068149,40.670712],[-74.064988,40.669224],[-74.06492,40.66853],[-74.065716,40.66704],[-74.09813,40.680694],[-74.098242,40.680994],[-74.097895,40.680828],[-74.097678,40.680882],[-74.098283,40.681103],[-74.098837,40.682588],[-74.098458,40.683108],[-74.098878,40.682698],[-74.099268,40.683742],[-74.099823,40.685914],[-74.100595,40.687617],[-74.100449,40.687864]],[[-74.097728,40.684615],[-74.097764,40.684588],[-74.097728,40.684588],[-74.097728,40.684615]],[[-74.097296,40.684449],[-74.097332,40.684422],[-74.097296,40.684422],[-74.097296,40.684449]],[[-74.097027,40.681291],[-74.097063,40.681236],[-74.097027,40.681236],[-74.097027,40.681291]],[[-74.09638,40.68096],[-74.096344,40.680932],[-74.096344,40.680959],[-74.09638,40.68096]],[[-74.090988,40.684152],[-74.090952,40.684125],[-74.090952,40.684152],[-74.090988,40.684152]],[[-74.082883,40.682723],[-74.082847,40.682751],[-74.082883,40.682751],[-74.082883,40.682723]],[[-74.083351,40.68289],[-74.083315,40.682917],[-74.083351,40.682917],[-74.083351,40.68289]],[[-74.083423,40.682917],[-74.083387,40.682945],[-74.083423,40.682945],[-74.083423,40.682917]],[[-74.083495,40.682945],[-74.083459,40.682972],[-74.083495,40.682973],[-74.083495,40.682945]],[[-74.083567,40.682973],[-74.08353,40.683],[-74.083567,40.683],[-74.083567,40.682973]],[[-74.083962,40.683112],[-74.083926,40.683139],[-74.083962,40.683139],[-74.083962,40.683112]],[[-74.084754,40.683389],[-74.084718,40.683416],[-74.084754,40.683416],[-74.084754,40.683389]],[[-74.084826,40.683417],[-74.08479,40.683444],[-74.084826,40.683444],[-74.084826,40.683417]],[[-74.085042,40.6835],[-74.085006,40.683527],[-74.085042,40.683527],[-74.085042,40.6835]],[[-74.085114,40.683527],[-74.085078,40.683555],[-74.085114,40.683555],[-74.085114,40.683527]],[[-74.085186,40.683555],[-74.085149,40.683582],[-74.085186,40.683583],[-74.085186,40.683555]],[[-74.085258,40.683583],[-74.085221,40.68361],[-74.085257,40.68361],[-74.085258,40.683583]],[[-74.085474,40.683666],[-74.085437,40.683693],[-74.085473,40.683693],[-74.085474,40.683666]],[[-74.085545,40.683694],[-74.085509,40.683721],[-74.085545,40.683721],[-74.085545,40.683694]],[[-74.085617,40.683721],[-74.085581,40.683749],[-74.085617,40.683749],[-74.085617,40.683721]],[[-74.086984,40.684275],[-74.086948,40.684303],[-74.086984,40.684303],[-74.086984,40.684275]],[[-74.087164,40.684358],[-74.087128,40.684386],[-74.087164,40.684386],[-74.087164,40.684358]],[[-74.088171,40.684829],[-74.088135,40.684856],[-74.088171,40.684856],[-74.088171,40.684829]],[[-74.089067,40.685765],[-74.089031,40.685737],[-74.08903,40.685765],[-74.089067,40.685765]],[[-74.08903,40.68582],[-74.088994,40.685792],[-74.088994,40.68582],[-74.08903,40.68582]],[[-74.088233,40.686503],[-74.088197,40.686448],[-74.088197,40.686503],[-74.088233,40.686503]],[[-74.088233,40.686448],[-74.088269,40.686421],[-74.088233,40.686421],[-74.088233,40.686448]],[[-74.088124,40.686558],[-74.088052,40.68653],[-74.088052,40.686558],[-74.088124,40.686558]],[[-74.088016,40.686612],[-74.087944,40.686585],[-74.087943,40.686612],[-74.088016,40.686612]],[[-74.086097,40.687868],[-74.08606,40.687895],[-74.086096,40.687896],[-74.086097,40.687868]],[[-74.086132,40.688006],[-74.086059,40.688033],[-74.086132,40.688033],[-74.086132,40.688006]],[[-74.086059,40.688033],[-74.085987,40.68806],[-74.086059,40.68806],[-74.086059,40.688033]],[[-74.085987,40.68806],[-74.085951,40.688087],[-74.085987,40.688087],[-74.085987,40.68806]],[[-74.084665,40.691981],[-74.084628,40.692008],[-74.084664,40.692008],[-74.084665,40.691981]],[[-74.084628,40.692063],[-74.084556,40.692035],[-74.084556,40.69209],[-74.084628,40.692063]],[[-74.084555,40.692145],[-74.084447,40.692144],[-74.084447,40.692199],[-74.084555,40.692145]],[[-74.084447,40.692254],[-74.084338,40.692254],[-74.084338,40.692309],[-74.084447,40.692254]],[[-74.084338,40.692309],[-74.084302,40.692336],[-74.084338,40.692336],[-74.084338,40.692309]],[[-74.084301,40.692391],[-74.08423,40.692363],[-74.084229,40.692418],[-74.084301,40.692391]],[[-74.084229,40.692418],[-74.084193,40.692445],[-74.084229,40.692446],[-74.084229,40.692418]],[[-74.084193,40.6925],[-74.084121,40.692473],[-74.08412,40.692528],[-74.084193,40.6925]],[[-74.08412,40.692528],[-74.084084,40.692555],[-74.08412,40.692555],[-74.08412,40.692528]],[[-74.084084,40.69261],[-74.083976,40.692609],[-74.083975,40.692664],[-74.084084,40.69261]],[[-74.083975,40.692664],[-74.083939,40.692692],[-74.083975,40.692692],[-74.083975,40.692664]],[[-74.083939,40.692747],[-74.083867,40.692719],[-74.083866,40.692774],[-74.083939,40.692747]],[[-74.083866,40.692774],[-74.08383,40.692801],[-74.083866,40.692801],[-74.083866,40.692774]],[[-74.08383,40.692856],[-74.083758,40.692828],[-74.083757,40.692883],[-74.08383,40.692856]],[[-74.083757,40.692883],[-74.083721,40.69291],[-74.083757,40.692911],[-74.083757,40.692883]],[[-74.083721,40.692965],[-74.083649,40.692938],[-74.083649,40.692993],[-74.083721,40.692965]],[[-74.083649,40.692993],[-74.083612,40.69302],[-74.083648,40.69302],[-74.083649,40.692993]],[[-74.083612,40.693075],[-74.08354,40.693047],[-74.08354,40.693102],[-74.083612,40.693075]],[[-74.08354,40.693102],[-74.083503,40.693129],[-74.08354,40.693129],[-74.08354,40.693102]],[[-74.083503,40.693129],[-74.083467,40.693157],[-74.083503,40.693157],[-74.083503,40.693129]],[[-74.083467,40.693157],[-74.083431,40.693211],[-74.083467,40.693211],[-74.083467,40.693157]],[[-74.083431,40.693211],[-74.083395,40.693239],[-74.083431,40.693239],[-74.083431,40.693211]],[[-74.083395,40.693239],[-74.083358,40.693266],[-74.083394,40.693266],[-74.083395,40.693239]],[[-74.083358,40.693266],[-74.083322,40.693321],[-74.083358,40.693321],[-74.083358,40.693266]],[[-74.083322,40.693321],[-74.083286,40.693348],[-74.083322,40.693348],[-74.083322,40.693321]],[[-74.083286,40.693348],[-74.083249,40.693375],[-74.083286,40.693376],[-74.083286,40.693348]],[[-74.083249,40.69343],[-74.083177,40.693403],[-74.083177,40.69343],[-74.083249,40.69343]],[[-74.090413,40.689613],[-74.090449,40.689586],[-74.090413,40.689585],[-74.090413,40.689613]],[[-74.092116,40.688301],[-74.092152,40.688329],[-74.092152,40.688301],[-74.092116,40.688301]],[[-74.092152,40.688301],[-74.092188,40.688274],[-74.092152,40.688274],[-74.092152,40.688301]],[[-74.092188,40.688274],[-74.092225,40.688247],[-74.092189,40.688247],[-74.092188,40.688274]],[[-74.092225,40.688247],[-74.092261,40.688219],[-74.092225,40.688219],[-74.092225,40.688247]],[[-74.092986,40.687591],[-74.092985,40.6877],[-74.093094,40.687618],[-74.092986,40.687591]],[[-74.092476,40.68844],[-74.09244,40.688412],[-74.09244,40.68844],[-74.092476,40.68844]],[[-74.09244,40.688412],[-74.092404,40.688385],[-74.092404,40.688412],[-74.09244,40.688412]],[[-74.091751,40.689014],[-74.091715,40.688986],[-74.091715,40.689014],[-74.091751,40.689014]],[[-74.091715,40.688986],[-74.091679,40.688959],[-74.091679,40.688986],[-74.091715,40.688986]],[[-74.091136,40.689396],[-74.091208,40.689341],[-74.091136,40.689341],[-74.091136,40.689396]],[[-74.088636,40.691254],[-74.088673,40.691089],[-74.088528,40.691253],[-74.088636,40.691254]],[[-74.088673,40.691062],[-74.08889,40.691035],[-74.088891,40.690925],[-74.088673,40.691062]],[[-74.088238,40.691444],[-74.088202,40.691472],[-74.088238,40.691472],[-74.088238,40.691444]],[[-74.088201,40.691636],[-74.088165,40.691664],[-74.088201,40.691664],[-74.088201,40.691636]],[[-74.087077,40.692648],[-74.087548,40.692238],[-74.087005,40.69262],[-74.087077,40.692648]],[[-74.082945,40.69601],[-74.082836,40.696091],[-74.082944,40.696037],[-74.082945,40.69601]],[[-74.070661,40.710595],[-74.070589,40.710568],[-74.070589,40.710595],[-74.070661,40.710595]],[[-74.057585,40.718644],[-74.0579,40.7201],[-74.05673,40.722484],[-74.05797,40.720347],[-74.057585,40.718644]],[[-74.05673,40.722484],[-74.056693,40.722566],[-74.056729,40.722566],[-74.05673,40.722484]],[[-74.057386,40.721416],[-74.057422,40.721388],[-74.057386,40.721388],[-74.057386,40.721416]],[[-74.057795,40.708735],[-74.057831,40.708763],[-74.057831,40.708735],[-74.057795,40.708735]],[[-74.05812,40.708572],[-74.058156,40.708599],[-74.058156,40.708572],[-74.05812,40.708572]],[[-74.059568,40.707891],[-74.059532,40.707918],[-74.059568,40.707918],[-74.059568,40.707891]],[[-74.069026,40.701092],[-74.068991,40.701064],[-74.06899,40.701091],[-74.069026,40.701092]],[[-74.042242,40.735905],[-74.042206,40.735877],[-74.042206,40.735905],[-74.042242,40.735905]],[[-74.041053,40.735544],[-74.041017,40.735571],[-74.041053,40.735571],[-74.041053,40.735544]],[[-74.0408,40.73568],[-74.040728,40.735652],[-74.040728,40.735679],[-74.0408,40.73568]],[[-74.042096,40.736042],[-74.04206,40.736014],[-74.04206,40.736042],[-74.042096,40.736042]],[[-74.10045,40.687699],[-74.100378,40.687644],[-74.100378,40.687699],[-74.10045,40.687699]]],[[[-74.058447,40.708298],[-74.058519,40.708271],[-74.058519,40.708299],[-74.058447,40.708298]]],[[[-74.058447,40.708298],[-74.058411,40.708326],[-74.058411,40.708298],[-74.058447,40.708298]]],[[[-74.056963,40.709034],[-74.056927,40.709061],[-74.056927,40.709034],[-74.056963,40.709034]]],[[[-74.056927,40.709061],[-74.056564,40.709362],[-74.056311,40.709388],[-74.056927,40.709061]]],[[[-74.056275,40.709388],[-74.056311,40.709416],[-74.056275,40.709416],[-74.056275,40.709388]]],[[[-74.05613,40.709497],[-74.056203,40.709415],[-74.056275,40.709416],[-74.05613,40.709497]]],[[[-74.056094,40.709525],[-74.05613,40.709497],[-74.05613,40.709525],[-74.056094,40.709525]]],[[[-74.056058,40.709525],[-74.056094,40.709552],[-74.056058,40.709552],[-74.056058,40.709525]]],[[[-74.05515,40.710427],[-74.055114,40.710399],[-74.05515,40.710399],[-74.05515,40.710427]]],[[[-74.054504,40.726153],[-74.054679,40.726978],[-74.054207,40.727497],[-74.053919,40.727304],[-74.053808,40.727688],[-74.05431,40.728156],[-74.053623,40.728483],[-74.052966,40.729551],[-74.052826,40.728892],[-74.052532,40.729769],[-74.051877,40.73059],[-74.052129,40.730619],[-74.052199,40.730866],[-74.052163,40.730976],[-74.052234,40.731031],[-74.052379,40.731031],[-74.052378,40.731086],[-74.052342,40.731113],[-74.052485,40.731279],[-74.052413,40.731306],[-74.05227,40.731168],[-74.051729,40.731001],[-74.051404,40.731055],[-74.052648,40.728589],[-74.054267,40.723819],[-74.054982,40.724893],[-74.055306,40.724921],[-74.055447,40.725471],[-74.055264,40.725827],[-74.054504,40.726153]],[[-74.053991,40.727332],[-74.054027,40.727304],[-74.053991,40.727304],[-74.053991,40.727332]],[[-74.052163,40.730948],[-74.052127,40.730921],[-74.052127,40.730948],[-74.052163,40.730948]],[[-74.052127,40.730921],[-74.052091,40.730893],[-74.052091,40.73092],[-74.052127,40.730921]],[[-74.052091,40.730893],[-74.052055,40.730865],[-74.052055,40.730893],[-74.052091,40.730893]],[[-74.05465,40.725989],[-74.054686,40.725962],[-74.05465,40.725962],[-74.05465,40.725989]]],[[[-74.052394,40.728753],[-74.052358,40.72878],[-74.052358,40.728753],[-74.052394,40.728753]]],[[[-74.052321,40.728808],[-74.052357,40.728918],[-74.052321,40.728917],[-74.052321,40.728808]]],[[[-74.052235,40.730976],[-74.052271,40.731003],[-74.052235,40.731003],[-74.052235,40.730976]]],[[[-74.052414,40.731114],[-74.052378,40.731086],[-74.052414,40.731086],[-74.052414,40.731114]]],[[[-74.05245,40.731141],[-74.052414,40.731169],[-74.052414,40.731141],[-74.05245,40.731141]]],[[[-74.05245,40.731169],[-74.052486,40.731196],[-74.05245,40.731196],[-74.05245,40.731169]]],[[[-74.052522,40.731224],[-74.052486,40.731196],[-74.052522,40.731197],[-74.052522,40.731224]]],[[[-74.052233,40.731278],[-74.052269,40.731196],[-74.052341,40.731278],[-74.052233,40.731278]]],[[[-74.052521,40.731306],[-74.052485,40.731279],[-74.052521,40.731279],[-74.052521,40.731306]]],[[[-74.052341,40.731278],[-74.052377,40.731306],[-74.052341,40.731306],[-74.052341,40.731278]]],[[[-74.052449,40.731334],[-74.052485,40.731306],[-74.052485,40.731334],[-74.052449,40.731334]]],[[[-74.052377,40.731333],[-74.052413,40.731306],[-74.052413,40.731333],[-74.052377,40.731333]]],[[[-74.062643,40.739635],[-74.062607,40.739635],[-74.062607,40.739607],[-74.062643,40.739608],[-74.062643,40.739635]]],[[[-74.062679,40.739663],[-74.062643,40.739635],[-74.062679,40.739635],[-74.062679,40.739663]]],[[[-74.062714,40.73969],[-74.062678,40.739718],[-74.062678,40.73969],[-74.062714,40.73969]]],[[[-74.063072,40.740241],[-74.062424,40.739909],[-74.062426,40.739579],[-74.063072,40.740241]],[[-74.062533,40.739799],[-74.062569,40.739854],[-74.062569,40.739799],[-74.062533,40.739799]]],[[[-74.062929,40.739966],[-74.062893,40.739938],[-74.062929,40.739938],[-74.062929,40.739966]]],[[[-74.063001,40.740021],[-74.062965,40.740048],[-74.062965,40.740021],[-74.063001,40.740021]]],[[[-74.06318,40.740214],[-74.063144,40.740241],[-74.063144,40.740213],[-74.06318,40.740214]]],[[[-74.063072,40.740241],[-74.063144,40.740268],[-74.063072,40.740268],[-74.063072,40.740241]]],[[[-74.062891,40.740322],[-74.062927,40.74035],[-74.062891,40.74035],[-74.062891,40.740322]]],[[[-74.063354,40.741175],[-74.062962,40.74046],[-74.06343,40.740654],[-74.063354,40.741175]]],[[[-74.063352,40.741559],[-74.063499,40.741148],[-74.063644,40.741066],[-74.063643,40.741176],[-74.063352,40.741559]]],[[[-74.06826,40.741578],[-74.068113,40.741989],[-74.067459,40.742645],[-74.06739,40.742096],[-74.067755,40.741603],[-74.06826,40.741578]],[[-74.067498,40.742261],[-74.067534,40.742234],[-74.067498,40.742234],[-74.067498,40.742261]],[[-74.067899,40.741604],[-74.067863,40.741631],[-74.067899,40.741631],[-74.067899,40.741604]]],[[[-74.067168,40.743083],[-74.067204,40.743056],[-74.067204,40.743084],[-74.067168,40.743083]]],[[[-74.070989,40.754901],[-74.069825,40.750724],[-74.070471,40.751331],[-74.07222,40.754412],[-74.072402,40.75422],[-74.070903,40.75147],[-74.069683,40.75034],[-74.069436,40.74957],[-74.069225,40.748691],[-74.070157,40.749655],[-74.070589,40.749876],[-74.069048,40.748031],[-74.067812,40.743854],[-74.067784,40.742619],[-74.068655,40.741854],[-74.076947,40.743257],[-74.075151,40.745534],[-74.074869,40.746946],[-74.075017,40.747986],[-74.075707,40.748974],[-74.076586,40.749638],[-74.077145,40.749931],[-74.078852,40.750223],[-74.077279,40.752171],[-74.075578,40.75246],[-74.075231,40.752756],[-74.075238,40.753133],[-74.076523,40.754816],[-74.0763,40.755143],[-74.075215,40.755339],[-74.074867,40.755671],[-74.075146,40.757157],[-74.074732,40.75823],[-74.072666,40.758911],[-74.072224,40.760123],[-74.068594,40.761976],[-74.06629,40.762818],[-74.064931,40.763763],[-74.063801,40.763669],[-74.062501,40.762673],[-74.061794,40.76242],[-74.060022,40.76255],[-74.060002,40.76341],[-74.05963,40.764001],[-74.059993,40.765701],[-74.058474,40.766757],[-74.056954,40.769011],[-74.052044,40.760841],[-74.05225,40.760951],[-74.052396,40.760705],[-74.051856,40.760526],[-74.052622,40.759333],[-74.052191,40.759084],[-74.051936,40.759385],[-74.05183,40.758973],[-74.053031,40.757551],[-74.054592,40.756294],[-74.054779,40.755306],[-74.055216,40.754649],[-74.057399,40.75216],[-74.057724,40.752051],[-74.057618,40.751776],[-74.058563,40.750792],[-74.059505,40.750274],[-74.06071,40.748165],[-74.061036,40.747891],[-74.061289,40.747975],[-74.061725,40.747427],[-74.062557,40.747156],[-74.062958,40.746526],[-74.063608,40.746611],[-74.063753,40.746447],[-74.063865,40.745898],[-74.06344,40.744607],[-74.063739,40.743125],[-74.063601,40.742137],[-74.063785,40.741506],[-74.064609,40.742442],[-74.06601,40.743408],[-74.067206,40.742672],[-74.067058,40.743303],[-74.067127,40.743715],[-74.067664,40.744485],[-74.069324,40.750091],[-74.068927,40.75009],[-74.068248,40.749017],[-74.068854,40.750117],[-74.068023,40.750388],[-74.067801,40.751101],[-74.06902,40.752368],[-74.069632,40.752618],[-74.068127,40.751047],[-74.068455,40.750445],[-74.06943,40.750476],[-74.070989,40.754901]],[[-74.070516,40.749876],[-74.07048,40.749903],[-74.070516,40.749903],[-74.070516,40.749876]],[[-74.070589,40.749876],[-74.070624,40.749904],[-74.070625,40.749876],[-74.070589,40.749876]],[[-74.069684,40.761402],[-74.069649,40.761319],[-74.069648,40.761402],[-74.069684,40.761402]],[[-74.063747,40.741863],[-74.063711,40.74189],[-74.063747,40.74189],[-74.063747,40.741863]],[[-74.069632,40.752618],[-74.069704,40.752728],[-74.069669,40.752618],[-74.069632,40.752618]],[[-74.069704,40.752728],[-74.06974,40.752755],[-74.06974,40.752728],[-74.069704,40.752728]],[[-74.071098,40.754819],[-74.071135,40.754792],[-74.071098,40.754792],[-74.071098,40.754819]]],[[[-74.052028,40.760813],[-74.052035,40.760813],[-74.052035,40.760824],[-74.052028,40.760813]]],[[[-74.052321,40.728917],[-74.05188,40.730096],[-74.051552,40.730561],[-74.051445,40.730314],[-74.052321,40.728917]]],[[[-74.051552,40.730561],[-74.05126,40.731027],[-74.049276,40.730937],[-74.050576,40.730805],[-74.051337,40.730396],[-74.051552,40.730561]]],[[[-74.049168,40.730882],[-74.04906,40.730909],[-74.04906,40.730881],[-74.049168,40.730882]]],[[[-74.052235,40.730976],[-74.052199,40.730976],[-74.052199,40.730948],[-74.052235,40.730948],[-74.052235,40.730976]]],[[[-74.051223,40.731246],[-74.051042,40.731273],[-74.051042,40.731246],[-74.051223,40.731246]]],[[[-74.051331,40.731274],[-74.051258,40.731301],[-74.051258,40.731274],[-74.051331,40.731274]]],[[[-74.047321,40.731917],[-74.050139,40.731379],[-74.050969,40.731383],[-74.050425,40.731792],[-74.049558,40.732009],[-74.047321,40.731917]]],[[[-74.036002,40.735359],[-74.036038,40.735466],[-74.035606,40.735302],[-74.036002,40.735359]]],[[[-74.042062,40.73574],[-74.042098,40.735767],[-74.042062,40.735767],[-74.042062,40.73574]]],[[[-74.041341,40.735682],[-74.042026,40.73574],[-74.041989,40.735904],[-74.041341,40.735682]]],[[[-74.042422,40.735933],[-74.042494,40.735906],[-74.042494,40.735934],[-74.042422,40.735933]]],[[[-74.042241,40.735987],[-74.042277,40.73596],[-74.042349,40.735988],[-74.042241,40.735987]]],[[[-74.043467,40.736102],[-74.043323,40.736129],[-74.043323,40.736102],[-74.043467,40.736102]]],[[[-74.043251,40.736129],[-74.043215,40.736101],[-74.043251,40.736101],[-74.043251,40.736129]]],[[[-74.043467,40.73613],[-74.043539,40.736157],[-74.043467,40.736157],[-74.043467,40.73613]]],[[[-74.043106,40.736183],[-74.043178,40.736128],[-74.043214,40.736183],[-74.043106,40.736183]]],[[[-74.043755,40.736186],[-74.043647,40.736158],[-74.043756,40.736158],[-74.043755,40.736186]]],[[[-74.042998,40.736155],[-74.04307,40.736183],[-74.042998,40.736183],[-74.042998,40.736155]]],[[[-74.043863,40.736213],[-74.043828,40.736186],[-74.043864,40.736186],[-74.043863,40.736213]]],[[[-74.043935,40.736241],[-74.0439,40.736214],[-74.043936,40.736214],[-74.043935,40.736241]]],[[[-74.043358,40.736211],[-74.043394,40.736239],[-74.043358,40.736239],[-74.043358,40.736211]]],[[[-74.043466,40.736267],[-74.043538,40.736295],[-74.043466,40.736294],[-74.043466,40.736267]]],[[[-74.04379,40.736405],[-74.043754,40.736378],[-74.04379,40.736378],[-74.04379,40.736405]]],[[[-74.045305,40.736521],[-74.045089,40.736438],[-74.045305,40.736466],[-74.045305,40.736521]]],[[[-74.044078,40.736461],[-74.044114,40.736489],[-74.044078,40.736489],[-74.044078,40.736461]]],[[[-74.045088,40.736575],[-74.045052,40.736548],[-74.045088,40.736548],[-74.045088,40.736575]]],[[[-74.045232,40.736576],[-74.04516,40.736603],[-74.04516,40.736575],[-74.045232,40.736576]]],[[[-74.044186,40.736544],[-74.046096,40.736936],[-74.045584,40.73795],[-74.045834,40.738253],[-74.045326,40.738717],[-74.045176,40.739513],[-74.044342,40.740196],[-74.044264,40.740909],[-74.043829,40.741292],[-74.043252,40.741152],[-74.042478,40.743592],[-74.041896,40.744276],[-74.041859,40.744358],[-74.041894,40.744468],[-74.041785,40.74466],[-74.041675,40.744797],[-74.041567,40.744769],[-74.041603,40.744879],[-74.041201,40.745591],[-74.040547,40.746192],[-74.040439,40.746109],[-74.04033,40.746301],[-74.040185,40.746355],[-74.039015,40.748519],[-74.038869,40.748683],[-74.038725,40.748683],[-74.038688,40.74882],[-74.038759,40.74893],[-74.038613,40.749259],[-74.038395,40.749395],[-74.038429,40.749752],[-74.037991,40.750443],[-74.037956,40.750272],[-74.037729,40.75029],[-74.03858,40.748819],[-74.039603,40.746747],[-74.041619,40.744285],[-74.041521,40.743999],[-74.042208,40.742804],[-74.042169,40.741354],[-74.043516,40.740349],[-74.043782,40.739857],[-74.043922,40.739012],[-74.04352,40.738505],[-74.043911,40.73754],[-74.042837,40.736505],[-74.042811,40.736182],[-74.043682,40.736432],[-74.043934,40.736406],[-74.043934,40.736488],[-74.044186,40.736544]],[[-74.041858,40.744468],[-74.041822,40.74444],[-74.041822,40.744468],[-74.041858,40.744468]],[[-74.041785,40.744577],[-74.041749,40.74455],[-74.041749,40.744577],[-74.041785,40.744577]],[[-74.041712,40.744687],[-74.041676,40.744659],[-74.041676,40.744687],[-74.041712,40.744687]],[[-74.041676,40.744742],[-74.04164,40.744714],[-74.04164,40.744742],[-74.041676,40.744742]],[[-74.041567,40.744879],[-74.041531,40.744851],[-74.04153,40.744878],[-74.041567,40.744879]],[[-74.04153,40.744933],[-74.041494,40.744906],[-74.041494,40.744933],[-74.04153,40.744933]],[[-74.041494,40.744933],[-74.041458,40.74496],[-74.041494,40.744961],[-74.041494,40.744933]],[[-74.041458,40.74496],[-74.041385,40.745043],[-74.041421,40.745043],[-74.041458,40.74496]],[[-74.040511,40.74611],[-74.040548,40.746082],[-74.040512,40.746082],[-74.040511,40.74611]],[[-74.038943,40.748437],[-74.038907,40.748464],[-74.038943,40.748464],[-74.038943,40.748437]],[[-74.03887,40.748628],[-74.038834,40.748601],[-74.038834,40.748628],[-74.03887,40.748628]],[[-74.038723,40.74893],[-74.038687,40.748902],[-74.038687,40.74893],[-74.038723,40.74893]],[[-74.038687,40.749012],[-74.038651,40.748984],[-74.038651,40.749012],[-74.038687,40.749012]],[[-74.043826,40.736433],[-74.043862,40.736461],[-74.043862,40.736433],[-74.043826,40.736433]]],[[[-74.041895,40.744358],[-74.041967,40.744414],[-74.041895,40.744413],[-74.041895,40.744358]]],[[[-74.040438,40.746219],[-74.040475,40.746192],[-74.040475,40.746219],[-74.040438,40.746219]]],[[[-74.040402,40.746219],[-74.040438,40.746247],[-74.040402,40.746246],[-74.040402,40.746219]]],[[[-74.040366,40.746246],[-74.040402,40.746274],[-74.040366,40.746274],[-74.040366,40.746246]]],[[[-74.040366,40.746329],[-74.04033,40.746301],[-74.040366,40.746301],[-74.040366,40.746329]]],[[[-74.040257,40.746383],[-74.040293,40.746356],[-74.040293,40.746383],[-74.040257,40.746383]]],[[[-74.038724,40.748793],[-74.038761,40.748765],[-74.03876,40.748793],[-74.038724,40.748793]]],[[[-74.038514,40.748819],[-74.038544,40.748765],[-74.038544,40.748819],[-74.038514,40.748819]]],[[[-74.03876,40.74882],[-74.038797,40.748793],[-74.038796,40.74882],[-74.03876,40.74882]]],[[[-74.037883,40.750354],[-74.03792,40.750327],[-74.037919,40.750354],[-74.037883,40.750354]]]]}}]}