{"type":"FeatureCollection","features":[{"type":"Feature","properties":{"level_ft":3},"geometry":{"type":"MultiPolygon","coordinates":[[[[-74.069526,40.67098],[-74.074255,40.67292],[-74.077131,40.674219],[-74.071237,40.671833],[-74.069526,40.67098]]],[[[-74.077204,40.674221],[-74.077142,40.674222],[-74.077135,40.67422],[-74.077204,40.674221]]],[[[-74.07721,40.674248],[-74.077275,40.674248],[-74.077275,40.674273],[-74.07721,40.674248]]],[[[-74.077311,40.674276],[-74.077311,40.67429],[-74.077282,40.674276],[-74.077311,40.674276]]],[[[-74.077383,40.674304],[-74.077383,40.674325],[-74.077339,40.674303],[-74.077383,40.674304]]],[[[-74.077455,40.674331],[-74.077491,40.674377],[-74.077397,40.674331],[-74.077455,40.674331]]],[[[-74.077563,40.674387],[-74.077563,40.674412],[-74.077511,40.674386],[-74.077563,40.674387]]],[[[-74.075221,40.679813],[-74.075293,40.679868],[-74.075221,40.679868],[-74.075221,40.679813]]],[[[-74.077568,40.674414],[-74.081876,40.676516],[-74.081293,40.677447],[-74.080969,40.677446],[-74.077231,40.675648],[-74.076032,40.676961],[-74.07305,40.675441],[-74.072759,40.675824],[-74.075669,40.677344],[-74.075669,40.677454],[-74.075341,40.677919],[-74.074652,40.678576],[-74.074794,40.678961],[-74.074505,40.678987],[-74.075331,40.679594],[-74.074934,40.679538],[-74.075221,40.679786],[-74.075221,40.679813],[-74.075149,40.67984],[-74.074933,40.679757],[-74.07522,40.680005],[-74.074896,40.679922],[-74.075183,40.680115],[-74.075036,40.680581],[-74.076903,40.681851],[-74.078918,40.682517],[-74.076902,40.681988],[-74.073706,40.67989],[-74.072841,40.679832],[-74.077223,40.682511],[-74.07733,40.682813],[-74.077039,40.683086],[-74.073628,40.680905],[-74.073877,40.681455],[-74.073229,40.681288],[-74.072252,40.681751],[-74.071534,40.681254],[-74.071207,40.681665],[-74.072213,40.682218],[-74.074402,40.683873],[-74.074691,40.683819],[-74.076342,40.685033],[-74.076595,40.684951],[-74.076556,40.685363],[-74.077167,40.685777],[-74.077636,40.685751],[-74.077633,40.686108],[-74.080219,40.687847],[-74.080326,40.688067],[-74.079781,40.688614],[-74.079924,40.688887],[-74.079582,40.688726],[-74.080285,40.687995],[-74.076469,40.68537],[-74.07463,40.683866],[-74.074457,40.683971],[-74.071101,40.681665],[-74.070658,40.680662],[-74.071797,40.679744],[-74.070641,40.679209],[-74.071889,40.679629],[-74.07372,40.679817],[-74.073764,40.679542],[-74.074832,40.678372],[-74.072516,40.677158],[-74.072659,40.676993],[-74.075007,40.678078],[-74.075638,40.677405],[-74.072611,40.675807],[-74.073022,40.675347],[-74.07579,40.676812],[-74.076735,40.676002],[-74.075979,40.67691],[-74.077246,40.675601],[-74.080985,40.677371],[-74.081337,40.676877],[-74.080995,40.676126],[-74.077568,40.674414]],[[-74.074934,40.679538],[-74.074899,40.67951],[-74.074898,40.679537],[-74.074934,40.679538]],[[-74.074861,40.679757],[-74.074897,40.679702],[-74.074825,40.679702],[-74.074861,40.679757]],[[-74.074645,40.679674],[-74.074681,40.679646],[-74.074682,40.679592],[-74.07461,40.679591],[-74.074645,40.679674]],[[-74.075039,40.680169],[-74.075003,40.680142],[-74.075003,40.680169],[-74.075039,40.680169]]],[[[-74.079049,40.684576],[-74.077613,40.683638],[-74.077796,40.683226],[-74.077328,40.682978],[-74.077511,40.682676],[-74.078265,40.683063],[-74.077902,40.683584],[-74.079302,40.684495],[-74.079049,40.684576]]],[[[-74.075623,40.688296],[-74.075906,40.688665],[-74.078013,40.688601],[-74.078733,40.688949],[-74.080032,40.688889],[-74.079922,40.689109],[-74.078841,40.689077],[-74.078802,40.689544],[-74.079738,40.689739],[-74.080208,40.689521],[-74.081036,40.689826],[-74.080099,40.689658],[-74.079444,40.690589],[-74.078758,40.690751],[-74.078616,40.690421],[-74.079122,40.690204],[-74.079123,40.689984],[-74.077539,40.689649],[-74.077901,40.689348],[-74.078695,40.689324],[-74.078588,40.689049],[-74.07585,40.688709],[-74.075491,40.688379],[-74.075239,40.688295],[-74.074737,40.687909],[-74.074737,40.687863],[-74.075623,40.688296]]],[[[-74.071115,40.690366],[-74.073136,40.690072],[-74.07328,40.690155],[-74.073279,40.690374],[-74.072555,40.690729],[-74.071871,40.690589],[-74.071293,40.690751],[-74.071115,40.690366]]],[[[-74.073376,40.692132],[-74.071828,40.691741],[-74.071506,40.691246],[-74.072875,40.691498],[-74.073376,40.692132]]],[[[-74.0738,40.693533],[-74.072471,40.692677],[-74.072438,40.692101],[-74.073554,40.692516],[-74.074162,40.693287],[-74.0738,40.693533]]],[[[-74.101349,40.712325],[-74.099911,40.711497],[-74.099624,40.711194],[-74.100383,40.711032],[-74.100669,40.711417],[-74.101712,40.711887],[-74.101349,40.712325]]],[[[-74.096078,40.724879],[-74.096703,40.722987],[-74.096274,40.722327],[-74.096889,40.722054],[-74.096565,40.721943],[-74.09664,40.721532],[-74.098209,40.718545],[-74.098825,40.718081],[-74.10153,40.7182],[-74.101101,40.717622],[-74.10175,40.717624],[-74.103707,40.716204],[-74.103492,40.715928],[-74.103999,40.715601],[-74.10411,40.715189],[-74.104471,40.715108],[-74.104365,40.714724],[-74.105373,40.715029],[-74.106352,40.714291],[-74.103369,40.712414],[-74.103876,40.712004],[-74.106219,40.712342],[-74.107376,40.711907],[-74.107236,40.711247],[-74.107713,40.709794],[-74.106381,40.709405],[-74.106305,40.703915],[-74.10186,40.7053],[-74.104319,40.704292],[-74.103532,40.703164],[-74.10274,40.70286],[-74.10191,40.702939],[-74.101731,40.702719],[-74.105073,40.698777],[-74.105833,40.698286],[-74.107456,40.698209],[-74.107844,40.697854],[-74.114232,40.700952],[-74.114309,40.704609],[-74.116408,40.709735],[-74.113869,40.712314],[-74.110167,40.715375],[-74.10747,40.717075],[-74.102976,40.71933],[-74.10177,40.720231],[-74.100089,40.722867],[-74.099011,40.727277],[-74.096826,40.726556],[-74.096756,40.726226],[-74.096036,40.725949],[-74.096362,40.725703],[-74.095713,40.725564],[-74.094707,40.724874],[-74.094454,40.725011],[-74.093267,40.724457],[-74.092833,40.724511],[-74.092943,40.724209],[-74.093269,40.724018],[-74.092586,40.723604],[-74.094349,40.724489],[-74.094927,40.724271],[-74.095755,40.724631],[-74.095573,40.72496],[-74.095718,40.724795],[-74.096078,40.724879]],[[-74.093088,40.724182],[-74.093124,40.72421],[-74.093124,40.724182],[-74.093088,40.724182]],[[-74.095645,40.72496],[-74.095681,40.724987],[-74.095681,40.72496],[-74.095645,40.72496]]],[[[-74.085606,40.726242],[-74.083553,40.725685],[-74.083881,40.72522],[-74.084491,40.725771],[-74.08496,40.725745],[-74.084746,40.725333],[-74.084206,40.725084],[-74.084137,40.724589],[-74.083308,40.724532],[-74.083274,40.72412],[-74.084934,40.724098],[-74.085579,40.724787],[-74.085576,40.725363],[-74.086801,40.725615],[-74.085493,40.72712],[-74.085606,40.726242]]],[[[-74.088125,40.727459],[-74.088491,40.726472],[-74.088817,40.726281],[-74.088857,40.725704],[-74.08958,40.725542],[-74.089758,40.725955],[-74.089176,40.726584],[-74.089894,40.727245],[-74.088844,40.727845],[-74.088303,40.727734],[-74.088125,40.727459]]],[[[-74.095303,40.735005],[-74.091504,40.735321],[-74.09364,40.734231],[-74.09485,40.731078],[-74.094275,40.730665],[-74.093518,40.730552],[-74.093415,40.729728],[-74.092085,40.728873],[-74.090569,40.728895],[-74.090705,40.730377],[-74.088794,40.730124],[-74.088653,40.729464],[-74.089699,40.729605],[-74.08952,40.729303],[-74.088727,40.7293],[-74.088912,40.72845],[-74.090182,40.727329],[-74.091048,40.727359],[-74.09141,40.727086],[-74.091554,40.727196],[-74.091843,40.727197],[-74.091627,40.727032],[-74.091953,40.726923],[-74.093321,40.727422],[-74.094259,40.727343],[-74.094619,40.727509],[-74.096175,40.726883],[-74.096534,40.727077],[-74.096645,40.726693],[-74.098949,40.727524],[-74.098495,40.729323],[-74.09737,40.731748],[-74.095303,40.735005]]],[[[-74.085544,40.736288],[-74.08162,40.734709],[-74.081333,40.734461],[-74.081947,40.734491],[-74.083639,40.735129],[-74.085006,40.735765],[-74.085544,40.736288]]],[[[-74.079469,40.73827],[-74.078385,40.738431],[-74.078352,40.737992],[-74.07864,40.738048],[-74.078858,40.737801],[-74.079508,40.737776],[-74.079758,40.738216],[-74.080156,40.738053],[-74.080082,40.738355],[-74.080732,40.73822],[-74.080589,40.738],[-74.081024,40.737809],[-74.081416,40.738497],[-74.082031,40.738334],[-74.081847,40.738883],[-74.082351,40.738994],[-74.084086,40.738589],[-74.083511,40.738175],[-74.083767,40.737709],[-74.084092,40.737656],[-74.08492,40.737961],[-74.084845,40.738482],[-74.084266,40.738754],[-74.084662,40.738893],[-74.08788,40.737834],[-74.085829,40.736811],[-74.085652,40.736398],[-74.088604,40.737534],[-74.091393,40.735897],[-74.091467,40.735458],[-74.095174,40.73517],[-74.093398,40.737015],[-74.090175,40.738579],[-74.083859,40.740291],[-74.080761,40.739455],[-74.080762,40.739236],[-74.079825,40.738958],[-74.080044,40.738574],[-74.079469,40.73827]],[[-74.079252,40.738242],[-74.079217,40.738214],[-74.079216,40.738242],[-74.079252,40.738242]]],[[[-74.081012,40.739621],[-74.081048,40.739676],[-74.08094,40.739593],[-74.081012,40.739621]]],[[[-74.080976,40.739703],[-74.081913,40.739871],[-74.083641,40.740344],[-74.082233,40.740668],[-74.080938,40.739923],[-74.080832,40.73962],[-74.080615,40.739729],[-74.080616,40.73951],[-74.08094,40.739566],[-74.080904,40.739648],[-74.080976,40.739703]]],[[[-74.081865,40.740777],[-74.077094,40.743148],[-74.075218,40.742756],[-74.07576,40.742676],[-74.076668,40.741719],[-74.077101,40.741693],[-74.07703,40.7415],[-74.077463,40.741612],[-74.077789,40.741421],[-74.076995,40.741473],[-74.076997,40.741143],[-74.077392,40.741419],[-74.077574,40.741173],[-74.078658,40.740985],[-74.079023,40.740272],[-74.078448,40.739859],[-74.080433,40.739948],[-74.081865,40.740777]]],[[[-74.077954,40.750119],[-74.078852,40.750223],[-74.07768,40.751787],[-74.076995,40.752271],[-74.075374,40.75231],[-74.075268,40.751843],[-74.073397,40.750902],[-74.073332,40.749914],[-74.073657,40.74986],[-74.073796,40.750712],[-74.075559,40.751624],[-74.076713,40.751683],[-74.076571,40.751326],[-74.07438,40.749588],[-74.074347,40.749149],[-74.073774,40.748433],[-74.073643,40.746401],[-74.074264,40.745141],[-74.074014,40.744838],[-74.074267,40.744784],[-74.07456,40.743989],[-74.075214,40.743333],[-74.074963,40.743085],[-74.07583,40.743006],[-74.076947,40.743257],[-74.075151,40.745534],[-74.074869,40.746946],[-74.075017,40.747986],[-74.076141,40.749364],[-74.077954,40.750119]]],[[[-74.072354,40.750377],[-74.070303,40.749381],[-74.069766,40.748665],[-74.069486,40.747319],[-74.069054,40.747153],[-74.068808,40.746136],[-74.069244,40.745644],[-74.070253,40.745977],[-74.070394,40.746389],[-74.069997,40.746498],[-74.070428,40.746719],[-74.070317,40.747158],[-74.07075,40.747159],[-74.070677,40.747351],[-74.070425,40.74724],[-74.069665,40.74754],[-74.070054,40.748776],[-74.0707,40.74941],[-74.072354,40.750377]]],[[[-74.07253,40.751119],[-74.072134,40.750925],[-74.071342,40.750565],[-74.071341,40.75073],[-74.071664,40.750978],[-74.071301,40.751306],[-74.071479,40.751746],[-74.071188,40.75202],[-74.070617,40.751057],[-74.069971,40.750533],[-74.069439,40.749076],[-74.07253,40.751119]],[[-74.07127,40.750565],[-74.071306,40.75051],[-74.071234,40.75051],[-74.07127,40.750565]],[[-74.071234,40.75051],[-74.071162,40.750455],[-74.071162,40.75051],[-74.071234,40.75051]]],[[[-74.071378,40.75062],[-74.071666,40.750731],[-74.071774,40.750814],[-74.071378,40.75062]]],[[[-74.071918,40.750869],[-74.071845,40.750924],[-74.071846,40.750869],[-74.071918,40.750869]]],[[[-74.075271,40.751403],[-74.074552,40.750934],[-74.074917,40.750386],[-74.075167,40.750689],[-74.075529,40.750636],[-74.076497,40.7516],[-74.075271,40.751403]]],[[[-74.07253,40.751064],[-74.07253,40.751036],[-74.072566,40.751037],[-74.072566,40.751064],[-74.07253,40.751064]]],[[[-74.072566,40.751091],[-74.072566,40.751064],[-74.072602,40.751064],[-74.072602,40.751092],[-74.072566,40.751091]]],[[[-74.072638,40.751119],[-74.072602,40.751092],[-74.072638,40.751092],[-74.072638,40.751119]]],[[[-74.072782,40.751175],[-74.072638,40.751119],[-74.072782,40.751147],[-74.072782,40.751175]]],[[[-74.072349,40.751118],[-74.072673,40.751257],[-74.072781,40.751367],[-74.071953,40.750924],[-74.072349,40.751118]]],[[[-74.073933,40.751783],[-74.073537,40.751617],[-74.072493,40.751146],[-74.072962,40.75123],[-74.073322,40.751424],[-74.073249,40.751478],[-74.073933,40.751783]],[[-74.072962,40.751258],[-74.072854,40.751285],[-74.072962,40.751313],[-74.072962,40.751258]],[[-74.072854,40.751257],[-74.072818,40.75123],[-74.072818,40.751257],[-74.072854,40.751257]],[[-74.073178,40.751396],[-74.073141,40.751423],[-74.073178,40.751423],[-74.073178,40.751396]]],[[[-74.072997,40.751422],[-74.072925,40.751477],[-74.072925,40.751422],[-74.072997,40.751422]]],[[[-74.073358,40.751451],[-74.07343,40.751506],[-74.073357,40.751506],[-74.073358,40.751451]]],[[[-74.073429,40.751534],[-74.073466,40.751507],[-74.073466,40.751534],[-74.073429,40.751534]]],[[[-74.073429,40.751616],[-74.073393,40.751644],[-74.073393,40.751616],[-74.073429,40.751616]]],[[[-74.074474,40.751895],[-74.074366,40.751839],[-74.074474,40.75184],[-74.074474,40.751895]]],[[[-74.074365,40.751976],[-74.07397,40.751755],[-74.074473,40.751977],[-74.074365,40.751976]]],[[[-74.074511,40.751757],[-74.074944,40.751841],[-74.074979,40.751979],[-74.074582,40.75195],[-74.074511,40.751757]]],[[[-74.074473,40.752004],[-74.074473,40.751977],[-74.07451,40.751977],[-74.074509,40.752004],[-74.074473,40.752004]]],[[[-74.07469,40.752033],[-74.074726,40.752005],[-74.074726,40.752033],[-74.07469,40.752033]]],[[[-74.074581,40.752032],[-74.074509,40.752004],[-74.074582,40.752005],[-74.074581,40.752032]]],[[[-74.074617,40.75206],[-74.074617,40.752032],[-74.07469,40.752033],[-74.074689,40.75206],[-74.074617,40.75206]]],[[[-74.074689,40.752087],[-74.074689,40.75206],[-74.074762,40.75206],[-74.074761,40.752088],[-74.074689,40.752087]]],[[[-74.074797,40.752115],[-74.074761,40.752088],[-74.074798,40.752088],[-74.074797,40.752115]]],[[[-74.07121,40.754243],[-74.071174,40.754216],[-74.07121,40.754216],[-74.07121,40.754243]]],[[[-74.07418,40.758372],[-74.073531,40.758177],[-74.072923,40.757406],[-74.071457,40.755095],[-74.071247,40.754188],[-74.070783,40.753391],[-74.070681,40.752402],[-74.070464,40.752484],[-74.070076,40.750945],[-74.072327,40.754604],[-74.073394,40.757024],[-74.074254,40.758152],[-74.07418,40.758372]],[[-74.074217,40.758235],[-74.074145,40.758262],[-74.074217,40.758262],[-74.074217,40.758235]]],[[[-74.075228,40.752584],[-74.076523,40.754816],[-74.0763,40.755143],[-74.075215,40.755339],[-74.074894,40.75562],[-74.075146,40.757157],[-74.07465,40.758294],[-74.074045,40.756971],[-74.074335,40.75678],[-74.073977,40.756175],[-74.07358,40.756228],[-74.073293,40.75587],[-74.07233,40.754083],[-74.073159,40.75425],[-74.073562,40.753346],[-74.074106,40.753019],[-74.074328,40.752169],[-74.074761,40.752225],[-74.07465,40.752527],[-74.075119,40.752583],[-74.074977,40.752308],[-74.075589,40.752448],[-74.075228,40.752584]]],[[[-74.070549,40.755998],[-74.070477,40.755942],[-74.07055,40.755915],[-74.070549,40.755998]]],[[[-74.070548,40.75619],[-74.070585,40.755998],[-74.07062,40.756217],[-74.070548,40.75619]]],[[[-74.070654,40.756547],[-74.070543,40.756903],[-74.070582,40.756547],[-74.070654,40.756547]]],[[[-74.070503,40.757507],[-74.070575,40.757562],[-74.070503,40.757562],[-74.070503,40.757507]]],[[[-74.073456,40.758726],[-74.072505,40.759089],[-74.072183,40.760144],[-74.070947,40.755944],[-74.071343,40.756028],[-74.073456,40.758726]],[[-74.073132,40.758505],[-74.073096,40.758477],[-74.073096,40.758505],[-74.073132,40.758505]]],[[[-74.071073,40.758744],[-74.07043,40.757726],[-74.071008,40.757619],[-74.07054,40.757452],[-74.070726,40.756575],[-74.071683,40.759378],[-74.07132,40.759624],[-74.071068,40.759486],[-74.071073,40.758744]]],[[[-74.074325,40.758317],[-74.074289,40.75829],[-74.074325,40.75829],[-74.074325,40.758317]]],[[[-74.073783,40.758343],[-74.073747,40.758315],[-74.073783,40.758315],[-74.073783,40.758343]]],[[[-74.073999,40.758514],[-74.074072,40.758371],[-74.074396,40.7584],[-74.074319,40.758458],[-74.073999,40.758514]]],[[[-74.071717,40.759598],[-74.071681,40.759625],[-74.071681,40.759598],[-74.071717,40.759598]]],[[[-74.071788,40.759818],[-74.071716,40.75979],[-74.071788,40.75979],[-74.071788,40.759818]]],[[[-74.071752,40.759872],[-74.071788,40.759845],[-74.071788,40.759873],[-74.071752,40.759872]]],[[[-74.071388,40.760255],[-74.071424,40.76031],[-74.071388,40.76031],[-74.071388,40.760255]]],[[[-74.070336,40.761114],[-74.071315,40.76042],[-74.07193,40.760202],[-74.070336,40.761114]]],[[[-74.069437,40.670925],[-74.069437,40.670938],[-74.069407,40.670925],[-74.069437,40.670925]]],[[[-74.069469,40.670953],[-74.069509,40.670953],[-74.069509,40.670972],[-74.069469,40.670953]]],[[[-74.074306,40.687661],[-74.074377,40.68788],[-74.073398,40.6887],[-74.072099,40.688833],[-74.069841,40.686573],[-74.070223,40.688936],[-74.070206,40.691461],[-74.071,40.691491],[-74.071599,40.69358],[-74.073431,40.694794],[-74.071346,40.693689],[-74.070783,40.6916],[-74.070275,40.692038],[-74.071238,40.693661],[-74.07062,40.694427],[-74.070378,40.693824],[-74.070139,40.693807],[-74.069619,40.694049],[-74.069813,40.694365],[-74.069068,40.695173],[-74.0678,40.695391],[-74.067688,40.695217],[-74.067438,40.695557],[-74.06641,40.695042],[-74.065897,40.694597],[-74.06693,40.694008],[-74.068929,40.691697],[-74.069459,40.690723],[-74.069929,40.688696],[-74.069624,40.685822],[-74.07021,40.684684],[-74.069889,40.68445],[-74.070537,40.68395],[-74.073359,40.686049],[-74.073182,40.686206],[-74.073387,40.686674],[-74.074685,40.687589],[-74.074728,40.687854],[-74.074306,40.687661]]],[[[-74.070584,40.694431],[-74.070147,40.695139],[-74.069644,40.695631],[-74.070584,40.694431]]],[[[-74.069638,40.695714],[-74.069532,40.695768],[-74.069639,40.695639],[-74.069638,40.695714]]],[[[-74.06953,40.69577],[-74.06942,40.695932],[-74.069283,40.696014],[-74.06953,40.69577]]],[[[-74.069275,40.696069],[-74.069175,40.696124],[-74.069276,40.696022],[-74.069275,40.696069]]],[[[-74.069141,40.696151],[-74.069167,40.696132],[-74.069166,40.696151],[-74.069141,40.696151]]],[[[-74.069104,40.696178],[-74.06913,40.696159],[-74.06913,40.696178],[-74.069104,40.696178]]],[[[-74.069094,40.696186],[-74.069094,40.696206],[-74.069068,40.696206],[-74.069094,40.696186]]],[[[-74.069058,40.696213],[-74.069058,40.696233],[-74.069031,40.696233],[-74.069058,40.696213]]],[[[-74.068995,40.69626],[-74.069022,40.69624],[-74.069022,40.69626],[-74.068995,40.69626]]],[[[-74.068985,40.696315],[-74.068306,40.696834],[-74.068985,40.696267],[-74.068985,40.696315]]],[[[-74.068296,40.696862],[-74.068263,40.696861],[-74.068296,40.69684],[-74.068296,40.696862]]],[[[-74.068793,40.703671],[-74.068758,40.703643],[-74.068794,40.703644],[-74.068793,40.703671]]],[[[-74.068505,40.70927],[-74.069302,40.708641],[-74.069305,40.70823],[-74.069593,40.708395],[-74.069811,40.708149],[-74.070026,40.708315],[-74.070496,40.708097],[-74.070928,40.708236],[-74.070491,40.708865],[-74.070133,40.708562],[-74.069914,40.708836],[-74.069265,40.708861],[-74.068864,40.709463],[-74.068505,40.70927]]],[[[-74.068287,40.748632],[-74.067788,40.74756],[-74.06787,40.746023],[-74.068368,40.74726],[-74.068113,40.747616],[-74.068438,40.74759],[-74.068862,40.749019],[-74.068287,40.748632]]],[[[-74.067603,40.748355],[-74.067566,40.748383],[-74.067566,40.748355],[-74.067603,40.748355]]],[[[-74.067602,40.748438],[-74.067674,40.748465],[-74.067602,40.748465],[-74.067602,40.748438]]],[[[-74.068212,40.748989],[-74.068176,40.749016],[-74.068176,40.748989],[-74.068212,40.748989]]],[[[-74.069088,40.753027],[-74.069089,40.752945],[-74.068945,40.75289],[-74.068946,40.752752],[-74.068873,40.752862],[-74.068838,40.752615],[-74.068694,40.752614],[-74.068767,40.752532],[-74.067295,40.751291],[-74.067225,40.750989],[-74.06683,40.750549],[-74.06665,40.750465],[-74.066656,40.749615],[-74.066443,40.74912],[-74.065975,40.748898],[-74.06641,40.748543],[-74.067529,40.74852],[-74.067457,40.748465],[-74.06753,40.748437],[-74.069148,40.749322],[-74.068893,40.749733],[-74.068787,40.749403],[-74.068356,40.749127],[-74.068284,40.748989],[-74.068104,40.748934],[-74.068529,40.750143],[-74.067877,40.750552],[-74.067801,40.751101],[-74.069523,40.752837],[-74.06995,40.753717],[-74.069839,40.754211],[-74.069088,40.753027]],[[-74.068874,40.752697],[-74.06891,40.752725],[-74.06891,40.752697],[-74.068874,40.752697]],[[-74.068408,40.752201],[-74.068444,40.752174],[-74.068408,40.752174],[-74.068408,40.752201]],[[-74.067762,40.751623],[-74.067798,40.751595],[-74.067762,40.751595],[-74.067762,40.751623]],[[-74.067798,40.751623],[-74.067834,40.75165],[-74.067834,40.751623],[-74.067798,40.751623]],[[-74.067834,40.75165],[-74.06787,40.751678],[-74.06787,40.75165],[-74.067834,40.75165]],[[-74.06726,40.751072],[-74.067296,40.751044],[-74.06726,40.751044],[-74.06726,40.751072]],[[-74.066555,40.748544],[-74.066591,40.748571],[-74.066591,40.748544],[-74.066555,40.748544]],[[-74.067529,40.74852],[-74.067565,40.748547],[-74.067565,40.74852],[-74.067529,40.74852]],[[-74.068573,40.749018],[-74.068537,40.749045],[-74.068573,40.749045],[-74.068573,40.749018]],[[-74.068537,40.749018],[-74.068501,40.74899],[-74.068501,40.749018],[-74.068537,40.749018]],[[-74.068825,40.749156],[-74.068788,40.749211],[-74.068824,40.749211],[-74.068825,40.749156]],[[-74.068356,40.749072],[-74.068392,40.749045],[-74.068356,40.749044],[-74.068356,40.749072]],[[-74.069267,40.753248],[-74.069304,40.75322],[-74.069268,40.75322],[-74.069267,40.753248]]],[[[-74.069561,40.75248],[-74.068127,40.751047],[-74.068201,40.750636],[-74.068636,40.750391],[-74.069561,40.75248]]],[[[-74.068802,40.75267],[-74.068838,40.752697],[-74.068802,40.752697],[-74.068802,40.75267]]],[[[-74.068981,40.752917],[-74.068944,40.752945],[-74.068945,40.752917],[-74.068981,40.752917]]],[[[-74.069053,40.752945],[-74.069017,40.752972],[-74.069017,40.752945],[-74.069053,40.752945]]],[[[-74.069017,40.752972],[-74.06898,40.753],[-74.06898,40.752972],[-74.069017,40.752972]]],[[[-74.067493,40.754065],[-74.067457,40.754037],[-74.067494,40.754037],[-74.067493,40.754065]]],[[[-74.067706,40.754642],[-74.067385,40.754037],[-74.067529,40.754092],[-74.067706,40.754642]],[[-74.067529,40.754202],[-74.067492,40.754229],[-74.067528,40.754229],[-74.067529,40.754202]]],[[[-74.069946,40.754321],[-74.069874,40.754403],[-74.069874,40.754348],[-74.069946,40.754321]]],[[[-74.069945,40.754486],[-74.070017,40.754541],[-74.069945,40.75454],[-74.069945,40.754486]]],[[[-74.070053,40.754568],[-74.06998,40.754623],[-74.069981,40.754595],[-74.070053,40.754568]]],[[[-74.067634,40.754669],[-74.067598,40.754587],[-74.067634,40.754587],[-74.067634,40.754669]]],[[[-74.070016,40.754678],[-74.06998,40.75465],[-74.070016,40.75465],[-74.070016,40.754678]]],[[[-74.070016,40.754678],[-74.070088,40.754733],[-74.070016,40.75476],[-74.070016,40.754678]]],[[[-74.067706,40.754752],[-74.067742,40.754697],[-74.067742,40.754752],[-74.067706,40.754752]]],[[[-74.067633,40.754751],[-74.067634,40.754696],[-74.06767,40.754697],[-74.067669,40.754752],[-74.067633,40.754751]]],[[[-74.067669,40.754834],[-74.067669,40.754752],[-74.067706,40.754752],[-74.067705,40.754834],[-74.067669,40.754834]]],[[[-74.067741,40.754834],[-74.067778,40.754779],[-74.067777,40.754834],[-74.067741,40.754834]]],[[[-74.070051,40.754843],[-74.070015,40.754815],[-74.070051,40.754815],[-74.070051,40.754843]]],[[[-74.067777,40.754834],[-74.067813,40.754862],[-74.067777,40.754862],[-74.067777,40.754834]]],[[[-74.070087,40.75487],[-74.070159,40.754898],[-74.070087,40.754898],[-74.070087,40.75487]]],[[[-74.067741,40.754916],[-74.067705,40.754834],[-74.067741,40.754834],[-74.067741,40.754916]]],[[[-74.067813,40.754889],[-74.067777,40.754917],[-74.067777,40.754889],[-74.067813,40.754889]]],[[[-74.067777,40.754917],[-74.06774,40.754944],[-74.067741,40.754916],[-74.067777,40.754917]]],[[[-74.070158,40.75509],[-74.070231,40.754953],[-74.07023,40.75509],[-74.070158,40.75509]]],[[[-74.06774,40.755026],[-74.06774,40.754999],[-74.067776,40.754999],[-74.067776,40.755026],[-74.06774,40.755026]]],[[[-74.067848,40.755054],[-74.067776,40.755026],[-74.067848,40.755027],[-74.067848,40.755054]]],[[[-74.067884,40.755054],[-74.067848,40.755082],[-74.067848,40.755054],[-74.067884,40.755054]]],[[[-74.067811,40.755109],[-74.067776,40.755081],[-74.067812,40.755081],[-74.067811,40.755109]]],[[[-74.070194,40.755145],[-74.070158,40.755118],[-74.070194,40.755118],[-74.070194,40.755145]]],[[[-74.067919,40.755164],[-74.067884,40.755109],[-74.06792,40.755109],[-74.067919,40.755164]]],[[[-74.070302,40.755173],[-74.070193,40.7552],[-74.07023,40.755118],[-74.070302,40.755173]]],[[[-74.067883,40.755219],[-74.067883,40.755192],[-74.067919,40.755192],[-74.067919,40.755219],[-74.067883,40.755219]]],[[[-74.067919,40.755301],[-74.067919,40.755219],[-74.067955,40.755219],[-74.067955,40.755302],[-74.067919,40.755301]]],[[[-74.06799,40.755357],[-74.067955,40.755302],[-74.067991,40.755302],[-74.06799,40.755357]]],[[[-74.070228,40.755365],[-74.070229,40.755338],[-74.070265,40.755338],[-74.070264,40.755365],[-74.070228,40.755365]]],[[[-74.070264,40.755475],[-74.070264,40.755365],[-74.070337,40.755338],[-74.0703,40.755475],[-74.070264,40.755475]]],[[[-74.070372,40.755503],[-74.0703,40.755475],[-74.070372,40.755448],[-74.070372,40.755503]]],[[[-74.070514,40.755888],[-74.070335,40.75564],[-74.070372,40.755503],[-74.070514,40.755888]]],[[[-74.070478,40.755887],[-74.070441,40.755915],[-74.070442,40.755887],[-74.070478,40.755887]]],[[[-74.067469,40.757798],[-74.067505,40.75777],[-74.067505,40.757798],[-74.067469,40.757798]]],[[[-74.067576,40.757963],[-74.06754,40.757935],[-74.067577,40.757935],[-74.067576,40.757963]]],[[[-74.067396,40.757907],[-74.067504,40.758017],[-74.067431,40.758072],[-74.067396,40.757907]]],[[[-74.067576,40.758018],[-74.067612,40.75799],[-74.067612,40.758018],[-74.067576,40.758018]]],[[[-74.067612,40.7581],[-74.067648,40.758073],[-74.067648,40.7581],[-74.067612,40.7581]]],[[[-74.068857,40.760877],[-74.068821,40.760905],[-74.068821,40.760877],[-74.068857,40.760877]]],[[[-74.067167,40.698669],[-74.06685,40.69746],[-74.0675,40.69727],[-74.067894,40.697793],[-74.067599,40.698698],[-74.067167,40.698669]]],[[[-74.068866,40.703671],[-74.070422,40.702771],[-74.071034,40.703075],[-74.069224,40.704057],[-74.064957,40.705606],[-74.06619,40.704704],[-74.068866,40.703671]]],[[[-74.06728,40.747997],[-74.067244,40.74797],[-74.06728,40.74797],[-74.06728,40.747997]]],[[[-74.067244,40.747997],[-74.067208,40.748025],[-74.067208,40.747997],[-74.067244,40.747997]]],[[[-74.067316,40.748052],[-74.067243,40.74808],[-74.067316,40.747997],[-74.067316,40.748052]]],[[[-74.067352,40.748107],[-74.067279,40.748135],[-74.067352,40.748053],[-74.067352,40.748107]]],[[[-74.067387,40.748162],[-74.067315,40.74819],[-74.067388,40.748108],[-74.067387,40.748162]]],[[[-74.067387,40.74819],[-74.067387,40.748162],[-74.067423,40.748163],[-74.067423,40.74819],[-74.067387,40.74819]]],[[[-74.067423,40.748217],[-74.067423,40.74819],[-74.067459,40.74819],[-74.067459,40.748218],[-74.067423,40.748217]]],[[[-74.067351,40.74819],[-74.067387,40.748217],[-74.067351,40.748217],[-74.067351,40.74819]]],[[[-74.067387,40.748272],[-74.067495,40.748218],[-74.067495,40.748273],[-74.067459,40.7483],[-74.067387,40.748272]]],[[[-74.067495,40.7483],[-74.067495,40.748273],[-74.067531,40.748273],[-74.067531,40.7483],[-74.067495,40.7483]]],[[[-74.067459,40.7483],[-74.067494,40.748328],[-74.067458,40.748327],[-74.067459,40.7483]]],[[[-74.067494,40.748328],[-74.067566,40.748355],[-74.067494,40.748355],[-74.067494,40.748328]]],[[[-74.067566,40.748383],[-74.06753,40.74841],[-74.06753,40.748383],[-74.067566,40.748383]]],[[[-74.067458,40.74841],[-74.067349,40.748437],[-74.06735,40.748382],[-74.067458,40.74841]]],[[[-74.066509,40.749943],[-74.066618,40.749889],[-74.066581,40.749999],[-74.066509,40.749943]]],[[[-74.066509,40.749943],[-74.066473,40.749971],[-74.066473,40.749943],[-74.066509,40.749943]]],[[[-74.066545,40.749998],[-74.066509,40.750026],[-74.066509,40.749998],[-74.066545,40.749998]]],[[[-74.066544,40.750108],[-74.066509,40.750053],[-74.066545,40.750053],[-74.066544,40.750108]]],[[[-74.066581,40.750108],[-74.066544,40.750163],[-74.066544,40.750108],[-74.066581,40.750108]]],[[[-74.066938,40.750714],[-74.066901,40.750741],[-74.066901,40.750713],[-74.066938,40.750714]]],[[[-74.066973,40.750741],[-74.066937,40.750769],[-74.066937,40.750741],[-74.066973,40.750741]]],[[[-74.067009,40.750769],[-74.066973,40.750796],[-74.066973,40.750769],[-74.067009,40.750769]]],[[[-74.06657,40.7517],[-74.066535,40.751618],[-74.066571,40.751618],[-74.06657,40.7517]]],[[[-74.066499,40.751618],[-74.066462,40.7517],[-74.066462,40.751618],[-74.066499,40.751618]]],[[[-74.06657,40.751755],[-74.066606,40.751701],[-74.066606,40.751755],[-74.06657,40.751755]]],[[[-74.06657,40.751755],[-74.066497,40.75181],[-74.066498,40.751728],[-74.066534,40.751755],[-74.06657,40.751755]]],[[[-74.066677,40.751975],[-74.066713,40.751948],[-74.066713,40.751975],[-74.066677,40.751975]]],[[[-74.06689,40.752553],[-74.066569,40.751893],[-74.066748,40.752058],[-74.06689,40.752553]],[[-74.066677,40.752003],[-74.06664,40.75203],[-74.066676,40.75203],[-74.066677,40.752003]]],[[[-74.06689,40.752498],[-74.066926,40.752525],[-74.06689,40.752525],[-74.06689,40.752498]]],[[[-74.066889,40.752607],[-74.066926,40.752553],[-74.066925,40.752608],[-74.066889,40.752607]]],[[[-74.066853,40.752635],[-74.066817,40.752607],[-74.066853,40.752607],[-74.066853,40.752635]]],[[[-74.066961,40.752663],[-74.066853,40.752635],[-74.066961,40.752608],[-74.066961,40.752663]]],[[[-74.067385,40.754037],[-74.066923,40.752937],[-74.066888,40.752717],[-74.06721,40.753267],[-74.067243,40.753652],[-74.067422,40.753872],[-74.067385,40.754037]],[[-74.067067,40.753047],[-74.067031,40.753075],[-74.067067,40.753075],[-74.067067,40.753047]]],[[[-74.067244,40.753487],[-74.067281,40.75346],[-74.067281,40.753487],[-74.067244,40.753487]]],[[[-74.067316,40.753515],[-74.06728,40.753542],[-74.06728,40.753515],[-74.067316,40.753515]]],[[[-74.067387,40.753707],[-74.067351,40.753762],[-74.067351,40.753707],[-74.067387,40.753707]]],[[[-74.067494,40.75401],[-74.067458,40.753982],[-74.067494,40.753982],[-74.067494,40.75401]]],[[[-74.066971,40.756725],[-74.066935,40.756698],[-74.066971,40.756698],[-74.066971,40.756725]]],[[[-74.067041,40.756973],[-74.067006,40.756835],[-74.067042,40.756835],[-74.067041,40.756973]]],[[[-74.067077,40.757028],[-74.067041,40.757055],[-74.067041,40.757027],[-74.067077,40.757028]]],[[[-74.067077,40.75711],[-74.067041,40.757082],[-74.067077,40.757083],[-74.067077,40.75711]]],[[[-74.067112,40.757192],[-74.067076,40.757137],[-74.067112,40.757138],[-74.067112,40.757192]]],[[[-74.067112,40.757192],[-74.067292,40.757358],[-74.067147,40.757385],[-74.067112,40.757192]]],[[[-74.067327,40.757468],[-74.067219,40.757385],[-74.067328,40.757358],[-74.067327,40.757468]]],[[[-74.067219,40.757412],[-74.067183,40.757467],[-74.067183,40.757412],[-74.067219,40.757412]]],[[[-74.067291,40.757468],[-74.067255,40.757495],[-74.067255,40.757468],[-74.067291,40.757468]]],[[[-74.06729,40.75766],[-74.067218,40.757495],[-74.06729,40.75755],[-74.067363,40.757468],[-74.06729,40.75766]]],[[[-74.067362,40.757688],[-74.067398,40.757578],[-74.067434,40.757688],[-74.067362,40.757688]]],[[[-74.067325,40.757715],[-74.067289,40.757742],[-74.067289,40.757715],[-74.067325,40.757715]]],[[[-74.067433,40.757743],[-74.067397,40.75777],[-74.067397,40.757743],[-74.067433,40.757743]]],[[[-74.067361,40.757797],[-74.067469,40.757798],[-74.067505,40.757908],[-74.067397,40.757852],[-74.067396,40.757907],[-74.06736,40.757907],[-74.067361,40.757797]]],[[[-74.066891,40.757878],[-74.066855,40.75785],[-74.066891,40.75785],[-74.066891,40.757878]]],[[[-74.066891,40.75796],[-74.066891,40.757933],[-74.066927,40.757933],[-74.066927,40.75796],[-74.066891,40.75796]]],[[[-74.066963,40.757988],[-74.066927,40.75796],[-74.066963,40.757961],[-74.066963,40.757988]]],[[[-74.066962,40.758043],[-74.066926,40.758015],[-74.066962,40.758015],[-74.066962,40.758043]]],[[[-74.066998,40.758098],[-74.066962,40.758125],[-74.066962,40.758098],[-74.066998,40.758098]]],[[[-74.067033,40.758208],[-74.066998,40.758153],[-74.067034,40.758153],[-74.067033,40.758208]]],[[[-74.067033,40.758208],[-74.067105,40.758345],[-74.06714,40.758428],[-74.067033,40.758208]]],[[[-74.067137,40.758867],[-74.067066,40.758784],[-74.067102,40.758785],[-74.067137,40.758867]]],[[[-74.067208,40.759032],[-74.067173,40.758977],[-74.067209,40.758977],[-74.067208,40.759032]]],[[[-74.067244,40.75906],[-74.06728,40.759087],[-74.067244,40.759087],[-74.067244,40.759114],[-74.067208,40.759114],[-74.067244,40.75906]]],[[[-74.06728,40.759169],[-74.067244,40.759114],[-74.06728,40.759115],[-74.06728,40.759169]]],[[[-74.068785,40.760932],[-74.069249,40.761647],[-74.068055,40.762164],[-74.064917,40.756141],[-74.065992,40.757326],[-74.066215,40.756311],[-74.066464,40.756998],[-74.066238,40.758424],[-74.066743,40.758426],[-74.067206,40.759389],[-74.067352,40.759142],[-74.06714,40.758428],[-74.067354,40.75884],[-74.067498,40.758896],[-74.067286,40.758236],[-74.067894,40.759062],[-74.067467,40.758072],[-74.067684,40.758128],[-74.06811,40.759145],[-74.068002,40.7592],[-74.068146,40.759228],[-74.068429,40.760135],[-74.068501,40.76008],[-74.068464,40.76019],[-74.068573,40.760217],[-74.068785,40.760932]],[[-74.067858,40.759089],[-74.067893,40.759172],[-74.067894,40.759089],[-74.067858,40.759089]],[[-74.067893,40.759172],[-74.067929,40.759227],[-74.06793,40.759172],[-74.067893,40.759172]],[[-74.067647,40.758155],[-74.067611,40.758265],[-74.067683,40.758265],[-74.067647,40.758155]],[[-74.067896,40.758788],[-74.06786,40.758815],[-74.067896,40.758815],[-74.067896,40.758788]],[[-74.068608,40.760382],[-74.068571,40.760437],[-74.068607,40.760437],[-74.068608,40.760382]],[[-74.068572,40.760382],[-74.068536,40.760327],[-74.068535,40.760382],[-74.068572,40.760382]]],[[[-74.067207,40.759306],[-74.067171,40.759279],[-74.067207,40.759279],[-74.067207,40.759306]]],[[[-74.065716,40.66704],[-74.065123,40.66907],[-74.065338,40.669181],[-74.06527,40.668659],[-74.065559,40.668495],[-74.065949,40.669567],[-74.067853,40.670508],[-74.069113,40.670864],[-74.068149,40.670712],[-74.064865,40.669133],[-74.065154,40.667885],[-74.065716,40.66704]],[[-74.065338,40.669181],[-74.065374,40.669208],[-74.065374,40.669181],[-74.065338,40.669181]],[[-74.065518,40.669236],[-74.065481,40.669373],[-74.06559,40.669346],[-74.065518,40.669236]]],[[[-74.059191,40.69389],[-74.057395,40.692867],[-74.057653,40.691963],[-74.054885,40.690689],[-74.054191,40.691949],[-74.054818,40.690657],[-74.057814,40.691965],[-74.057479,40.69281],[-74.058322,40.693287],[-74.058756,40.692501],[-74.058952,40.692563],[-74.058686,40.693452],[-74.059387,40.693881],[-74.059784,40.693079],[-74.059994,40.693121],[-74.0597,40.694059],[-74.060237,40.694409],[-74.060745,40.693614],[-74.06137,40.693886],[-74.06103,40.695033],[-74.064731,40.697091],[-74.06515,40.697088],[-74.06524,40.697678],[-74.065774,40.698034],[-74.066106,40.698135],[-74.066563,40.696832],[-74.067029,40.696369],[-74.06826,40.696889],[-74.067037,40.696418],[-74.066601,40.696855],[-74.066124,40.698144],[-74.065872,40.698143],[-74.063751,40.696954],[-74.063968,40.696845],[-74.064867,40.697343],[-74.065083,40.697344],[-74.065049,40.697124],[-74.064724,40.697178],[-74.063753,40.696735],[-74.060878,40.695104],[-74.061173,40.694172],[-74.061031,40.69387],[-74.060706,40.693841],[-74.060414,40.694471],[-74.060161,40.69447],[-74.059586,40.694111],[-74.059624,40.693809],[-74.059551,40.693946],[-74.059191,40.69389]],[[-74.059624,40.693809],[-74.059661,40.693754],[-74.059625,40.693754],[-74.059624,40.693809]]],[[[-74.064957,40.705606],[-74.064921,40.705633],[-74.064921,40.705605],[-74.064957,40.705606]]],[[[-74.064921,40.705633],[-74.064885,40.70566],[-74.064885,40.705633],[-74.064921,40.705633]]],[[[-74.064812,40.705715],[-74.064777,40.705687],[-74.064813,40.705687],[-74.064812,40.705715]]],[[[-74.058173,40.706074],[-74.059367,40.70553],[-74.059762,40.70586],[-74.059724,40.706107],[-74.058674,40.706625],[-74.058173,40.706074]]],[[[-74.065867,40.748816],[-74.065294,40.7481],[-74.065764,40.747964],[-74.065333,40.747743],[-74.065263,40.747358],[-74.065772,40.746756],[-74.067386,40.748355],[-74.066412,40.748241],[-74.066483,40.748461],[-74.065867,40.748816]]],[[[-74.065754,40.749584],[-74.065718,40.749529],[-74.065754,40.749529],[-74.065754,40.749584]]],[[[-74.06579,40.749611],[-74.065753,40.749639],[-74.065754,40.749611],[-74.06579,40.749611]]],[[[-74.065825,40.749721],[-74.065789,40.749694],[-74.065825,40.749694],[-74.065825,40.749721]]],[[[-74.065861,40.749804],[-74.065825,40.749776],[-74.065861,40.749776],[-74.065861,40.749804]]],[[[-74.065931,40.750024],[-74.065895,40.749996],[-74.065932,40.749996],[-74.065931,40.750024]]],[[[-74.065967,40.750106],[-74.065931,40.750051],[-74.065967,40.750051],[-74.065967,40.750106]]],[[[-74.066003,40.750161],[-74.065966,40.750188],[-74.065967,40.750161],[-74.066003,40.750161]]],[[[-74.066002,40.750326],[-74.066002,40.750243],[-74.066038,40.750244],[-74.066038,40.750326],[-74.066002,40.750326]]],[[[-74.066037,40.750408],[-74.066038,40.750326],[-74.066074,40.750326],[-74.066073,40.750408],[-74.066037,40.750408]]],[[[-74.066109,40.750491],[-74.066073,40.750408],[-74.066109,40.750409],[-74.066109,40.750491]]],[[[-74.066037,40.750491],[-74.066,40.750518],[-74.066001,40.75049],[-74.066037,40.750491]]],[[[-74.06618,40.750574],[-74.066108,40.750601],[-74.066109,40.750491],[-74.06618,40.750574]]],[[[-74.066072,40.750601],[-74.066036,40.750573],[-74.066072,40.750573],[-74.066072,40.750601]]],[[[-74.066108,40.750683],[-74.066072,40.750628],[-74.066108,40.750628],[-74.066108,40.750683]]],[[[-74.066179,40.750766],[-74.066216,40.750656],[-74.066251,40.750766],[-74.066179,40.750766]]],[[[-74.066143,40.750738],[-74.066107,40.75071],[-74.066143,40.750711],[-74.066143,40.750738]]],[[[-74.066251,40.750821],[-74.066215,40.750793],[-74.066251,40.750793],[-74.066251,40.750821]]],[[[-74.066179,40.750793],[-74.066142,40.750875],[-74.066143,40.750793],[-74.066179,40.750793]]],[[[-74.066286,40.750931],[-74.066251,40.750903],[-74.066287,40.750903],[-74.066286,40.750931]]],[[[-74.066214,40.750985],[-74.066178,40.750903],[-74.066214,40.750903],[-74.066214,40.750985]]],[[[-74.06625,40.750986],[-74.066213,40.751068],[-74.066214,40.750985],[-74.06625,40.750986]]],[[[-74.066357,40.751233],[-74.066393,40.751206],[-74.066393,40.751233],[-74.066357,40.751233]]],[[[-74.066249,40.751178],[-74.066358,40.751068],[-74.066321,40.751233],[-74.066392,40.751425],[-74.066249,40.751178]]],[[[-74.066393,40.751261],[-74.066428,40.751288],[-74.066392,40.751288],[-74.066393,40.751261]]],[[[-74.066428,40.751425],[-74.066426,40.751618],[-74.066392,40.751425],[-74.066428,40.751425]]],[[[-74.064945,40.751832],[-74.064909,40.751886],[-74.064909,40.751831],[-74.064945,40.751832]]],[[[-74.059887,40.752526],[-74.059851,40.752553],[-74.059851,40.752526],[-74.059887,40.752526]]],[[[-74.059815,40.752553],[-74.059778,40.752581],[-74.059779,40.752553],[-74.059815,40.752553]]],[[[-74.059597,40.75269],[-74.059633,40.7528],[-74.059596,40.752799],[-74.059597,40.75269]]],[[[-74.059524,40.752799],[-74.059488,40.752827],[-74.059488,40.752799],[-74.059524,40.752799]]],[[[-74.059488,40.752827],[-74.059452,40.752854],[-74.059452,40.752826],[-74.059488,40.752827]]],[[[-74.059415,40.752909],[-74.059452,40.752881],[-74.059451,40.752909],[-74.059415,40.752909]]],[[[-74.059415,40.752909],[-74.059306,40.752991],[-74.059379,40.752908],[-74.059415,40.752909]]],[[[-74.065153,40.753123],[-74.065189,40.75315],[-74.065153,40.75315],[-74.065153,40.753123]]],[[[-74.065153,40.753177],[-74.065189,40.753205],[-74.065153,40.753205],[-74.065153,40.753177]]],[[[-74.065152,40.753232],[-74.065116,40.75326],[-74.065116,40.753232],[-74.065152,40.753232]]],[[[-74.058979,40.753319],[-74.059015,40.753401],[-74.058907,40.753373],[-74.058979,40.753319]]],[[[-74.058797,40.753565],[-74.058834,40.753538],[-74.058833,40.753565],[-74.058797,40.753565]]],[[[-74.058797,40.753592],[-74.058725,40.753565],[-74.058797,40.753565],[-74.058797,40.753592]]],[[[-74.058652,40.753674],[-74.058616,40.753702],[-74.058616,40.753674],[-74.058652,40.753674]]],[[[-74.058289,40.753975],[-74.058253,40.753947],[-74.058289,40.753947],[-74.058289,40.753975]]],[[[-74.058217,40.754029],[-74.058181,40.754002],[-74.058217,40.754002],[-74.058217,40.754029]]],[[[-74.058325,40.754057],[-74.058253,40.75403],[-74.058325,40.754002],[-74.058325,40.754057]]],[[[-74.05818,40.754112],[-74.058144,40.754084],[-74.05818,40.754084],[-74.05818,40.754112]]],[[[-74.058108,40.754111],[-74.058072,40.754139],[-74.058072,40.754111],[-74.058108,40.754111]]],[[[-74.058034,40.754331],[-74.057781,40.754357],[-74.058071,40.754166],[-74.058034,40.754331]]],[[[-74.057745,40.754439],[-74.057708,40.754467],[-74.057709,40.754439],[-74.057745,40.754439]]],[[[-74.057708,40.754549],[-74.0576,40.754521],[-74.057672,40.754494],[-74.057708,40.754549]]],[[[-74.057599,40.754576],[-74.057563,40.754603],[-74.057563,40.754576],[-74.057599,40.754576]]],[[[-74.057563,40.754603],[-74.057527,40.754631],[-74.057527,40.754603],[-74.057563,40.754603]]],[[[-74.057527,40.754631],[-74.05749,40.754685],[-74.057491,40.754631],[-74.057527,40.754631]]],[[[-74.05749,40.754685],[-74.057454,40.754713],[-74.057454,40.754685],[-74.05749,40.754685]]],[[[-74.057454,40.754713],[-74.057418,40.75474],[-74.057418,40.754713],[-74.057454,40.754713]]],[[[-74.057417,40.754795],[-74.057382,40.754767],[-74.057418,40.754768],[-74.057417,40.754795]]],[[[-74.057345,40.75485],[-74.057309,40.754822],[-74.057345,40.754822],[-74.057345,40.75485]]],[[[-74.057236,40.754932],[-74.057272,40.754904],[-74.057272,40.754932],[-74.057236,40.754932]]],[[[-74.056801,40.755177],[-74.056838,40.75515],[-74.056837,40.755177],[-74.056801,40.755177]]],[[[-74.056692,40.755314],[-74.056656,40.755286],[-74.056692,40.755286],[-74.056692,40.755314]]],[[[-74.065025,40.756142],[-74.06431,40.755178],[-74.06602,40.758643],[-74.065374,40.757955],[-74.062737,40.758219],[-74.062556,40.758438],[-74.063161,40.759676],[-74.062471,40.760332],[-74.062864,40.760882],[-74.063297,40.760911],[-74.06362,40.761297],[-74.065347,40.762099],[-74.067261,40.762107],[-74.067553,40.761586],[-74.067982,40.762164],[-74.066427,40.76275],[-74.065077,40.763703],[-74.064545,40.763828],[-74.063724,40.76363],[-74.061996,40.762475],[-74.061325,40.762351],[-74.060022,40.76255],[-74.060002,40.76341],[-74.05963,40.764001],[-74.059993,40.765701],[-74.058474,40.766757],[-74.056962,40.768957],[-74.054572,40.764666],[-74.054825,40.76464],[-74.056538,40.767556],[-74.057261,40.767449],[-74.059149,40.765919],[-74.058256,40.764406],[-74.058805,40.763337],[-74.057581,40.762866],[-74.057907,40.762593],[-74.059095,40.763091],[-74.062514,40.759234],[-74.060138,40.758264],[-74.059517,40.759442],[-74.058791,40.759906],[-74.056899,40.762177],[-74.057727,40.762565],[-74.057653,40.762784],[-74.055961,40.762173],[-74.055088,40.763131],[-74.054072,40.763813],[-74.055525,40.762474],[-74.055347,40.762199],[-74.055599,40.762309],[-74.055744,40.762145],[-74.053763,40.761424],[-74.052932,40.761613],[-74.05318,40.762218],[-74.053035,40.762327],[-74.052607,40.761557],[-74.053006,40.761284],[-74.053373,40.760489],[-74.053009,40.76079],[-74.052577,40.760678],[-74.052614,40.760514],[-74.053816,40.758954],[-74.053999,40.758597],[-74.053892,40.758405],[-74.054181,40.758406],[-74.054145,40.758269],[-74.054363,40.75816],[-74.054545,40.757858],[-74.054691,40.757722],[-74.054799,40.757695],[-74.0548,40.757585],[-74.054981,40.757531],[-74.054982,40.757366],[-74.055272,40.757202],[-74.055309,40.756983],[-74.055453,40.757011],[-74.055346,40.756928],[-74.055526,40.756929],[-74.06163,40.750913],[-74.061628,40.751188],[-74.061991,40.750915],[-74.063381,40.753637],[-74.062528,40.75163],[-74.063497,40.752512],[-74.063498,40.75232],[-74.064219,40.752405],[-74.064402,40.752049],[-74.064079,40.751856],[-74.063867,40.751086],[-74.064156,40.75106],[-74.064695,40.751474],[-74.064907,40.752188],[-74.065159,40.752299],[-74.065047,40.752738],[-74.065154,40.752985],[-74.065153,40.753123],[-74.065081,40.75315],[-74.065153,40.753177],[-74.0649,40.753259],[-74.065004,40.753808],[-74.064605,40.754136],[-74.065025,40.756142]],[[-74.06431,40.755096],[-74.06374,40.753941],[-74.063525,40.75372],[-74.063416,40.75383],[-74.06431,40.755096]],[[-74.054581,40.757858],[-74.054617,40.757886],[-74.054617,40.757859],[-74.054581,40.757858]],[[-74.05469,40.757749],[-74.054726,40.757777],[-74.054727,40.757749],[-74.05469,40.757749]]],[[[-74.054482,40.713279],[-74.054947,40.71383],[-74.055132,40.713144],[-74.055237,40.713666],[-74.05491,40.714049],[-74.054482,40.713279]]],[[[-74.055443,40.71515],[-74.054981,40.714132],[-74.055587,40.715178],[-74.055443,40.71515]]],[[[-74.055659,40.715205],[-74.055693,40.715535],[-74.055515,40.715205],[-74.055659,40.715205]]],[[[-74.056435,40.717898],[-74.056256,40.717788],[-74.056258,40.717431],[-74.056474,40.717432],[-74.056435,40.717898]]],[[[-74.05647,40.718036],[-74.056103,40.718968],[-74.056254,40.71798],[-74.05647,40.718036]]],[[[-74.05534,40.719843],[-74.054837,40.719484],[-74.055127,40.719348],[-74.054803,40.719155],[-74.054986,40.718826],[-74.054264,40.718823],[-74.05405,40.71852],[-74.054627,40.718495],[-74.054631,40.718001],[-74.055281,40.717894],[-74.055139,40.717591],[-74.055645,40.717346],[-74.05556,40.719267],[-74.05534,40.719843]],[[-74.055453,40.71913],[-74.055417,40.719157],[-74.055453,40.719157],[-74.055453,40.71913]]],[[[-74.055995,40.718995],[-74.055959,40.718967],[-74.055995,40.718967],[-74.055995,40.718995]]],[[[-74.056041,40.72292],[-74.054997,40.722559],[-74.054814,40.722998],[-74.054561,40.722997],[-74.05504,40.721571],[-74.055293,40.721545],[-74.05507,40.72245],[-74.055827,40.722508],[-74.056474,40.722867],[-74.056041,40.72292]],[[-74.056366,40.722839],[-74.05633,40.722866],[-74.056366,40.722867],[-74.056366,40.722839]]],[[[-74.056619,40.722868],[-74.05687,40.723116],[-74.056473,40.723032],[-74.056619,40.722868]]],[[[-74.05662,40.755341],[-74.056583,40.755368],[-74.056584,40.755341],[-74.05662,40.755341]]],[[[-74.056474,40.755478],[-74.056438,40.755505],[-74.056438,40.755477],[-74.056474,40.755478]]],[[[-74.057236,40.754932],[-74.056436,40.755862],[-74.056037,40.756107],[-74.057236,40.754932]]],[[[-74.056438,40.755505],[-74.056365,40.755587],[-74.056402,40.755505],[-74.056438,40.755505]]],[[[-74.056365,40.755587],[-74.056329,40.755614],[-74.056329,40.755587],[-74.056365,40.755587]]],[[[-74.056329,40.755669],[-74.056293,40.755614],[-74.056329,40.755614],[-74.056329,40.755669]]],[[[-74.056257,40.755669],[-74.05622,40.755696],[-74.05622,40.755669],[-74.056257,40.755669]]],[[[-74.056184,40.755696],[-74.056184,40.755778],[-74.056147,40.755778],[-74.056184,40.755696]]],[[[-74.055964,40.756162],[-74.056037,40.756107],[-74.056037,40.756162],[-74.055964,40.756162]]],[[[-74.055928,40.756162],[-74.055928,40.756244],[-74.055892,40.756244],[-74.055928,40.756162]]],[[[-74.055747,40.756216],[-74.055783,40.756244],[-74.055747,40.756243],[-74.055747,40.756216]]],[[[-74.055892,40.756244],[-74.055819,40.756326],[-74.055819,40.756271],[-74.055892,40.756244]]],[[[-74.055819,40.756326],[-74.055783,40.756353],[-74.055783,40.756326],[-74.055819,40.756326]]],[[[-74.055747,40.756353],[-74.055746,40.756408],[-74.05571,40.756435],[-74.055747,40.756353]]],[[[-74.05571,40.756435],[-74.055674,40.756463],[-74.055674,40.756435],[-74.05571,40.756435]]],[[[-74.056147,40.755778],[-74.05582,40.756161],[-74.055784,40.756161],[-74.055747,40.756216],[-74.055711,40.756216],[-74.055747,40.756271],[-74.054912,40.757009],[-74.054839,40.757146],[-74.05473,40.757173],[-74.055639,40.756188],[-74.056147,40.755778]]],[[[-74.055673,40.756518],[-74.055456,40.756627],[-74.055674,40.756463],[-74.055673,40.756518]]],[[[-74.055383,40.756681],[-74.055419,40.756791],[-74.055347,40.756791],[-74.055383,40.756681]]],[[[-74.055599,40.756764],[-74.055564,40.756737],[-74.0556,40.756737],[-74.055599,40.756764]]],[[[-74.055347,40.756791],[-74.05531,40.756818],[-74.05531,40.756791],[-74.055347,40.756791]]],[[[-74.05531,40.756818],[-74.055274,40.756846],[-74.055274,40.756818],[-74.05531,40.756818]]],[[[-74.055274,40.756846],[-74.055201,40.756928],[-74.055238,40.756845],[-74.055274,40.756846]]],[[[-74.055166,40.756873],[-74.055129,40.7569],[-74.055129,40.756872],[-74.055166,40.756873]]],[[[-74.055165,40.756927],[-74.055165,40.756982],[-74.055129,40.75701],[-74.055165,40.756927]]],[[[-74.055129,40.75701],[-74.055092,40.757037],[-74.055092,40.75701],[-74.055129,40.75701]]],[[[-74.055092,40.757037],[-74.05502,40.757119],[-74.05502,40.757064],[-74.055092,40.757037]]],[[[-74.05502,40.757119],[-74.054983,40.757146],[-74.054983,40.757119],[-74.05502,40.757119]]],[[[-74.055236,40.757175],[-74.0552,40.757147],[-74.055236,40.757147],[-74.055236,40.757175]]],[[[-74.054947,40.757146],[-74.055019,40.757229],[-74.05491,40.757228],[-74.054947,40.757146]]],[[[-74.05473,40.757173],[-74.054694,40.7572],[-74.054694,40.757173],[-74.05473,40.757173]]],[[[-74.054694,40.7572],[-74.054658,40.757227],[-74.054658,40.7572],[-74.054694,40.7572]]],[[[-74.05491,40.757228],[-74.054874,40.757283],[-74.054874,40.757228],[-74.05491,40.757228]]],[[[-74.054658,40.757255],[-74.054621,40.757282],[-74.054622,40.757255],[-74.054658,40.757255]]],[[[-74.054874,40.757283],[-74.054838,40.75731],[-74.054838,40.757283],[-74.054874,40.757283]]],[[[-74.054621,40.757282],[-74.054585,40.757309],[-74.054585,40.757282],[-74.054621,40.757282]]],[[[-74.054838,40.75731],[-74.054801,40.757365],[-74.054802,40.75731],[-74.054838,40.75731]]],[[[-74.054585,40.757364],[-74.054549,40.757337],[-74.054585,40.757337],[-74.054585,40.757364]]],[[[-74.054801,40.757365],[-74.054729,40.757447],[-74.054729,40.757392],[-74.054801,40.757365]]],[[[-74.054729,40.757447],[-74.054692,40.757475],[-74.054692,40.757447],[-74.054729,40.757447]]],[[[-74.054692,40.757475],[-74.054656,40.757529],[-74.054656,40.757474],[-74.054692,40.757475]]],[[[-74.054656,40.757529],[-74.054619,40.757557],[-74.05462,40.757529],[-74.054656,40.757529]]],[[[-74.054619,40.757557],[-74.054583,40.757611],[-74.054583,40.757557],[-74.054619,40.757557]]],[[[-74.054366,40.757611],[-74.054331,40.757583],[-74.054367,40.757583],[-74.054366,40.757611]]],[[[-74.054583,40.757611],[-74.054547,40.757639],[-74.054547,40.757611],[-74.054583,40.757611]]],[[[-74.054763,40.757694],[-74.054691,40.757667],[-74.054763,40.757667],[-74.054763,40.757694]]],[[[-74.054474,40.757721],[-74.054547,40.757666],[-74.054546,40.757721],[-74.054474,40.757721]]],[[[-74.054474,40.757721],[-74.054438,40.757776],[-74.054438,40.757721],[-74.054474,40.757721]]],[[[-74.054438,40.757776],[-74.054401,40.757803],[-74.054401,40.757775],[-74.054438,40.757776]]],[[[-74.054401,40.757858],[-74.054365,40.75783],[-74.054401,40.75783],[-74.054401,40.757858]]],[[[-74.054148,40.757884],[-74.054112,40.757857],[-74.054148,40.757857],[-74.054148,40.757884]]],[[[-74.054292,40.757967],[-74.054256,40.757994],[-74.054256,40.757967],[-74.054292,40.757967]]],[[[-74.054219,40.758077],[-74.054183,40.758049],[-74.054219,40.758049],[-74.054219,40.758077]]],[[[-74.053966,40.758103],[-74.05393,40.758076],[-74.053966,40.758076],[-74.053966,40.758103]]],[[[-74.05393,40.758158],[-74.053894,40.75813],[-74.05393,40.75813],[-74.05393,40.758158]]],[[[-74.05411,40.758131],[-74.054146,40.758186],[-74.05411,40.758186],[-74.05411,40.758131]]],[[[-74.054074,40.758186],[-74.054036,40.758378],[-74.053964,40.758378],[-74.054074,40.758186]]],[[[-74.053963,40.758597],[-74.053927,40.75857],[-74.053963,40.75857],[-74.053963,40.758597]]],[[[-74.054155,40.692031],[-74.054049,40.692141],[-74.054155,40.691963],[-74.054155,40.692031]]],[[[-74.054046,40.692146],[-74.054045,40.692196],[-74.054016,40.692196],[-74.054046,40.692146]]],[[[-74.054009,40.692207],[-74.054009,40.69225],[-74.053984,40.69225],[-74.054009,40.692207]]],[[[-74.053902,40.692387],[-74.053973,40.692269],[-74.053972,40.692333],[-74.053902,40.692387]]],[[[-74.053899,40.692442],[-74.053869,40.692442],[-74.0539,40.692391],[-74.053899,40.692442]]],[[[-74.053835,40.692497],[-74.053863,40.692452],[-74.053863,40.692497],[-74.053835,40.692497]]],[[[-74.053827,40.69251],[-74.053826,40.692552],[-74.0538,40.692552],[-74.053827,40.69251]]],[[[-74.05379,40.692568],[-74.053754,40.692634],[-74.053645,40.692798],[-74.05379,40.692568]]],[[[-74.053644,40.692799],[-74.053644,40.692853],[-74.05361,40.692853],[-74.053644,40.692799]]],[[[-74.053608,40.692908],[-74.053576,40.692908],[-74.053608,40.692856],[-74.053608,40.692908]]],[[[-74.053572,40.692914],[-74.053571,40.692962],[-74.053541,40.692962],[-74.053572,40.692914]]],[[[-74.053506,40.693017],[-74.053535,40.692972],[-74.053535,40.693017],[-74.053506,40.693017]]],[[[-74.053498,40.693072],[-74.053472,40.693072],[-74.053499,40.693029],[-74.053498,40.693072]]],[[[-74.053462,40.693087],[-74.053462,40.693127],[-74.053437,40.693127],[-74.053462,40.693087]]],[[[-74.053752,40.7253],[-74.054118,40.724505],[-74.054512,40.724918],[-74.054221,40.725356],[-74.053752,40.7253]]],[[[-74.053716,40.725354],[-74.053788,40.725409],[-74.053715,40.725409],[-74.053716,40.725354]]],[[[-74.053821,40.758212],[-74.053893,40.75824],[-74.053821,40.758267],[-74.053821,40.758212]]],[[[-74.053784,40.758267],[-74.053784,40.758322],[-74.053748,40.758349],[-74.053784,40.758267]]],[[[-74.053748,40.758349],[-74.053711,40.758404],[-74.053712,40.758349],[-74.053748,40.758349]]],[[[-74.053711,40.758404],[-74.053675,40.758431],[-74.053675,40.758404],[-74.053711,40.758404]]],[[[-74.053891,40.75846],[-74.053855,40.758514],[-74.053855,40.75846],[-74.053891,40.75846]]],[[[-74.053675,40.758459],[-74.053638,40.758514],[-74.053639,40.758459],[-74.053675,40.758459]]],[[[-74.053855,40.758514],[-74.053819,40.758569],[-74.053819,40.758514],[-74.053855,40.758514]]],[[[-74.053638,40.758514],[-74.053602,40.758568],[-74.053602,40.758514],[-74.053638,40.758514]]],[[[-74.053819,40.758569],[-74.053782,40.758597],[-74.053782,40.758569],[-74.053819,40.758569]]],[[[-74.053602,40.758568],[-74.053566,40.758596],[-74.053566,40.758568],[-74.053602,40.758568]]],[[[-74.053782,40.758597],[-74.053746,40.758651],[-74.053746,40.758596],[-74.053782,40.758597]]],[[[-74.053566,40.758596],[-74.053529,40.75865],[-74.05353,40.758596],[-74.053566,40.758596]]],[[[-74.053529,40.75865],[-74.053493,40.758678],[-74.053493,40.75865],[-74.053529,40.75865]]],[[[-74.053745,40.758706],[-74.05371,40.758651],[-74.053746,40.758651],[-74.053745,40.758706]]],[[[-74.053709,40.758734],[-74.053673,40.758706],[-74.053709,40.758706],[-74.053709,40.758734]]],[[[-74.053493,40.758733],[-74.053457,40.758705],[-74.053493,40.758705],[-74.053493,40.758733]]],[[[-74.053673,40.758761],[-74.053637,40.758788],[-74.053637,40.758761],[-74.053673,40.758761]]],[[[-74.053456,40.758787],[-74.05342,40.75876],[-74.053456,40.75876],[-74.053456,40.758787]]],[[[-74.053637,40.758788],[-74.0536,40.758843],[-74.0536,40.758788],[-74.053637,40.758788]]],[[[-74.053384,40.758842],[-74.05342,40.758815],[-74.05342,40.758842],[-74.053384,40.758842]]],[[[-74.0536,40.758843],[-74.053564,40.758898],[-74.053564,40.758843],[-74.0536,40.758843]]],[[[-74.053384,40.758842],[-74.053347,40.758924],[-74.053347,40.758842],[-74.053384,40.758842]]],[[[-74.053564,40.758898],[-74.053527,40.758952],[-74.053528,40.758898],[-74.053564,40.758898]]],[[[-74.053347,40.758924],[-74.05331,40.758979],[-74.053311,40.758924],[-74.053347,40.758924]]],[[[-74.053527,40.758952],[-74.053491,40.759007],[-74.053491,40.758952],[-74.053527,40.758952]]],[[[-74.05331,40.758979],[-74.053274,40.759034],[-74.053274,40.758979],[-74.05331,40.758979]]],[[[-74.053491,40.759007],[-74.053454,40.759034],[-74.053455,40.759007],[-74.053491,40.759007]]],[[[-74.053454,40.759034],[-74.053418,40.759089],[-74.053418,40.759034],[-74.053454,40.759034]]],[[[-74.053238,40.759034],[-74.053237,40.759116],[-74.053201,40.759116],[-74.053238,40.759034]]],[[[-74.053418,40.759089],[-74.053382,40.759144],[-74.053382,40.759089],[-74.053418,40.759089]]],[[[-74.053598,40.759117],[-74.053562,40.759145],[-74.053562,40.759117],[-74.053598,40.759117]]],[[[-74.053201,40.759116],[-74.053165,40.759171],[-74.053165,40.759116],[-74.053201,40.759116]]],[[[-74.053562,40.759145],[-74.053525,40.759227],[-74.053526,40.759145],[-74.053562,40.759145]]],[[[-74.053165,40.759171],[-74.053128,40.759225],[-74.053129,40.75917],[-74.053165,40.759171]]],[[[-74.053272,40.759253],[-74.053382,40.759144],[-74.053272,40.759308],[-74.053272,40.759253]]],[[[-74.053128,40.759225],[-74.053092,40.75928],[-74.053092,40.759225],[-74.053128,40.759225]]],[[[-74.053489,40.759282],[-74.053453,40.759254],[-74.053489,40.759254],[-74.053489,40.759282]]],[[[-74.053092,40.75928],[-74.053055,40.759335],[-74.053056,40.75928],[-74.053092,40.75928]]],[[[-74.053272,40.759308],[-74.053236,40.759363],[-74.053236,40.759308],[-74.053272,40.759308]]],[[[-74.053055,40.759335],[-74.053019,40.75939],[-74.053019,40.759335],[-74.053055,40.759335]]],[[[-74.053236,40.759363],[-74.053199,40.759418],[-74.0532,40.759363],[-74.053236,40.759363]]],[[[-74.053019,40.75939],[-74.052982,40.759444],[-74.052983,40.75939],[-74.053019,40.75939]]],[[[-74.053199,40.759418],[-74.053163,40.759473],[-74.053163,40.759418],[-74.053199,40.759418]]],[[[-74.052982,40.759444],[-74.052946,40.759472],[-74.052946,40.759444],[-74.052982,40.759444]]],[[[-74.053162,40.759527],[-74.053126,40.7595],[-74.053163,40.7595],[-74.053162,40.759527]]],[[[-74.052946,40.759527],[-74.05291,40.759499],[-74.052946,40.759499],[-74.052946,40.759527]]],[[[-74.053307,40.759555],[-74.053271,40.759528],[-74.053307,40.759528],[-74.053307,40.759555]]],[[[-74.052873,40.759581],[-74.052909,40.759554],[-74.052909,40.759581],[-74.052873,40.759581]]],[[[-74.052873,40.759636],[-74.052837,40.759609],[-74.052873,40.759609],[-74.052873,40.759636]]],[[[-74.052837,40.759663],[-74.0528,40.759691],[-74.0528,40.759663],[-74.052837,40.759663]]],[[[-74.053426,40.693143],[-74.053426,40.693182],[-74.053401,40.693181],[-74.053426,40.693143]]],[[[-74.053389,40.693264],[-74.053208,40.693483],[-74.053389,40.6932],[-74.053389,40.693264]]],[[[-74.053173,40.693537],[-74.053207,40.693484],[-74.053207,40.693538],[-74.053173,40.693537]]],[[[-74.053171,40.693541],[-74.05317,40.693592],[-74.053138,40.693592],[-74.053171,40.693541]]],[[[-74.053132,40.693602],[-74.053134,40.693647],[-74.053101,40.693647],[-74.053132,40.693602]]],[[[-74.053098,40.693651],[-74.053097,40.693702],[-74.053063,40.693702],[-74.053098,40.693651]]],[[[-74.053061,40.693757],[-74.053026,40.693756],[-74.053061,40.693704],[-74.053061,40.693757]]],[[[-74.052952,40.693921],[-74.052819,40.694058],[-74.053025,40.693757],[-74.052952,40.693921]]],[[[-74.052806,40.694077],[-74.052806,40.694112],[-74.052782,40.694112],[-74.052806,40.694077]]],[[[-74.05277,40.694167],[-74.052744,40.694167],[-74.05277,40.69413],[-74.05277,40.694167]]],[[[-74.052733,40.694222],[-74.052707,40.694222],[-74.052734,40.694183],[-74.052733,40.694222]]],[[[-74.052683,40.694257],[-74.052697,40.694277],[-74.052669,40.694277],[-74.052683,40.694257]]],[[[-74.052661,40.694288],[-74.052661,40.694331],[-74.05263,40.694331],[-74.052661,40.694288]]],[[[-74.052624,40.694339],[-74.052624,40.694386],[-74.052591,40.694386],[-74.052624,40.694339]]],[[[-74.052552,40.694441],[-74.052588,40.69439],[-74.052588,40.694441],[-74.052552,40.694441]]],[[[-74.052442,40.69466],[-74.052376,40.694687],[-74.052552,40.694441],[-74.052442,40.69466]]],[[[-74.05237,40.694697],[-74.052369,40.694742],[-74.052337,40.694742],[-74.05237,40.694697]]],[[[-74.052298,40.694797],[-74.052333,40.694748],[-74.052333,40.694797],[-74.052298,40.694797]]],[[[-74.052297,40.694799],[-74.05226,40.694851],[-74.052162,40.694988],[-74.052297,40.694799]]],[[[-74.052151,40.695071],[-74.052083,40.695098],[-74.052151,40.695004],[-74.052151,40.695071]]],[[[-74.052042,40.695153],[-74.05198,40.695235],[-74.052078,40.695104],[-74.052042,40.695153]]],[[[-74.051969,40.695249],[-74.051969,40.69529],[-74.051939,40.695289],[-74.051969,40.695249]]],[[[-74.051897,40.695344],[-74.051933,40.695297],[-74.051932,40.695344],[-74.051897,40.695344]]],[[[-74.051896,40.695345],[-74.051823,40.695509],[-74.051753,40.695536],[-74.051896,40.695345]]],[[[-74.051678,40.6957],[-74.051608,40.695727],[-74.051751,40.695539],[-74.051678,40.6957]]],[[[-74.051532,40.695892],[-74.05139,40.696001],[-74.051605,40.69573],[-74.051532,40.695892]]],[[[-74.052931,40.69705],[-74.053934,40.698015],[-74.053679,40.698398],[-74.053893,40.698811],[-74.053457,40.699248],[-74.05227,40.698749],[-74.052416,40.698585],[-74.051842,40.698034],[-74.051917,40.69765],[-74.051412,40.69773],[-74.050764,40.697508],[-74.050294,40.697699],[-74.051203,40.696549],[-74.052572,40.696829],[-74.052426,40.697021],[-74.052931,40.69705]]],[[[-74.051282,40.700969],[-74.050313,40.700197],[-74.051039,40.699568],[-74.052296,40.700314],[-74.052076,40.700835],[-74.051282,40.700969]]],[[[-74.054227,40.691949],[-74.056094,40.693164],[-74.058718,40.694492],[-74.058034,40.69438],[-74.058175,40.694792],[-74.057883,40.695422],[-74.057558,40.695476],[-74.057555,40.695888],[-74.055675,40.696539],[-74.055026,40.696482],[-74.054589,40.697139],[-74.053543,40.697135],[-74.053793,40.697493],[-74.051278,40.696055],[-74.050078,40.697615],[-74.048443,40.699393],[-74.046628,40.701143],[-74.045068,40.702372],[-74.045247,40.702565],[-74.044815,40.702536],[-74.043618,40.70341],[-74.041409,40.704718],[-74.043243,40.705604],[-74.043128,40.70651],[-74.041145,40.706474],[-74.034945,40.705791],[-74.034311,40.708753],[-74.034742,40.709111],[-74.035608,40.709032],[-74.037987,40.709316],[-74.038563,40.709511],[-74.038739,40.710143],[-74.039351,40.710283],[-74.039753,40.709571],[-74.047791,40.710398],[-74.05125,40.710988],[-74.050171,40.710627],[-74.050032,40.709831],[-74.044372,40.709205],[-74.043905,40.709038],[-74.051727,40.709892],[-74.050644,40.709998],[-74.051725,40.710112],[-74.051823,40.711649],[-74.052724,40.711872],[-74.053297,40.712424],[-74.053909,40.712618],[-74.054512,40.714185],[-74.053681,40.714347],[-74.052493,40.714013],[-74.051557,40.71368],[-74.052206,40.713682],[-74.052208,40.71338],[-74.051416,40.713185],[-74.051307,40.713349],[-74.050334,40.713181],[-74.049719,40.713343],[-74.049535,40.713919],[-74.049138,40.713972],[-74.048708,40.713559],[-74.047627,40.713335],[-74.047991,40.712897],[-74.048965,40.712901],[-74.048246,40.712459],[-74.048214,40.711965],[-74.043672,40.711425],[-74.042841,40.711532],[-74.042807,40.711367],[-74.042302,40.711337],[-74.042514,40.711915],[-74.043415,40.712001],[-74.043044,40.713619],[-74.042574,40.713754],[-74.042462,40.714303],[-74.041676,40.713092],[-74.041863,40.712187],[-74.041536,40.71246],[-74.040924,40.71232],[-74.041075,40.711305],[-74.041365,40.711169],[-74.039779,40.710971],[-74.039526,40.711107],[-74.037974,40.711156],[-74.037611,40.711511],[-74.037249,40.711702],[-74.03541,40.711502],[-74.035373,40.711694],[-74.038184,40.712035],[-74.038145,40.712501],[-74.03472,40.712158],[-74.034759,40.711801],[-74.034435,40.711773],[-74.034254,40.711728],[-74.034832,40.711793],[-74.035525,40.711406],[-74.037212,40.711648],[-74.038007,40.711122],[-74.0395,40.711082],[-74.039516,40.710917],[-74.039514,40.71038],[-74.038623,40.710148],[-74.038499,40.709581],[-74.035384,40.70908],[-74.034716,40.709167],[-74.034344,40.70887],[-74.034282,40.708769],[-74.034288,40.708557],[-74.034501,40.707679],[-74.034081,40.707627],[-74.034058,40.707141],[-74.034162,40.706652],[-74.034692,40.706696],[-74.034873,40.705751],[-74.038839,40.706108],[-74.041372,40.70491],[-74.041351,40.70469],[-74.044924,40.702427],[-74.04756,40.700159],[-74.05124,40.69601],[-74.051495,40.696056],[-74.051604,40.695947],[-74.053533,40.693237],[-74.054227,40.691949]],[[-74.034464,40.707491],[-74.034428,40.707518],[-74.034464,40.707518],[-74.034464,40.707491]]],[[[-74.041256,40.704828],[-74.0413,40.704804],[-74.0413,40.704828],[-74.041256,40.704828]]],[[[-74.041228,40.704855],[-74.041206,40.704855],[-74.041228,40.704843],[-74.041228,40.704855]]],[[[-74.041192,40.704882],[-74.041156,40.704882],[-74.041192,40.704863],[-74.041192,40.704882]]],[[[-74.041119,40.704909],[-74.041105,40.704909],[-74.041119,40.704902],[-74.041119,40.704909]]],[[[-74.043195,40.707251],[-74.040708,40.706994],[-74.040565,40.706774],[-74.041288,40.706612],[-74.042838,40.706755],[-74.043195,40.707251]]],[[[-74.047154,40.708639],[-74.044673,40.707394],[-74.044169,40.707365],[-74.046017,40.706027],[-74.044926,40.707422],[-74.047154,40.708639]]],[[[-74.043508,40.709064],[-74.039397,40.7088],[-74.038571,40.708303],[-74.041562,40.708672],[-74.042612,40.708237],[-74.042427,40.708813],[-74.043508,40.709064]]],[[[-74.052369,40.716263],[-74.052517,40.715715],[-74.053564,40.715636],[-74.052555,40.715495],[-74.052228,40.715796],[-74.051147,40.715572],[-74.050645,40.715241],[-74.051334,40.714722],[-74.051295,40.715079],[-74.052161,40.715054],[-74.052527,40.714287],[-74.051772,40.7139],[-74.053536,40.714456],[-74.054583,40.714295],[-74.055296,40.71567],[-74.055152,40.715505],[-74.053889,40.715583],[-74.053923,40.71594],[-74.052768,40.715963],[-74.052766,40.716347],[-74.053884,40.716434],[-74.053628,40.716872],[-74.053017,40.716595],[-74.05269,40.716868],[-74.052369,40.716263]]],[[[-74.042476,40.717432],[-74.04222,40.718008],[-74.042941,40.71812],[-74.042939,40.718312],[-74.041638,40.718664],[-74.041459,40.718554],[-74.04193,40.718226],[-74.042115,40.717513],[-74.041647,40.717429],[-74.041681,40.717703],[-74.041357,40.717592],[-74.040887,40.717783],[-74.040528,40.717424],[-74.041178,40.717399],[-74.040168,40.717286],[-74.040315,40.716984],[-74.041036,40.717042],[-74.041107,40.717235],[-74.04219,40.717156],[-74.042229,40.716663],[-74.040932,40.716383],[-74.041044,40.715917],[-74.041513,40.715809],[-74.041764,40.716139],[-74.042053,40.716003],[-74.04216,40.71625],[-74.042449,40.716224],[-74.041838,40.715837],[-74.042635,40.715347],[-74.042993,40.71576],[-74.043425,40.715844],[-74.043207,40.716062],[-74.043422,40.71631],[-74.044071,40.716313],[-74.044182,40.715957],[-74.045121,40.715768],[-74.045299,40.716126],[-74.045119,40.716152],[-74.045658,40.716429],[-74.04544,40.716675],[-74.0445,40.716891],[-74.044394,40.716671],[-74.043276,40.716612],[-74.044139,40.716972],[-74.043345,40.717106],[-74.042947,40.717269],[-74.043017,40.717462],[-74.042476,40.717432]],[[-74.042434,40.71842],[-74.042362,40.718365],[-74.042361,40.71842],[-74.042434,40.71842]],[[-74.042947,40.717269],[-74.042875,40.717242],[-74.042874,40.717269],[-74.042947,40.717269]]],[[[-74.052889,40.72483],[-74.052382,40.725102],[-74.052453,40.725267],[-74.051876,40.725237],[-74.05206,40.724717],[-74.052493,40.724773],[-74.053146,40.724199],[-74.053221,40.723733],[-74.05387,40.72379],[-74.053354,40.725518],[-74.05325,40.724913],[-74.052889,40.72483]]],[[[-74.048271,40.724866],[-74.048776,40.724841],[-74.048416,40.724647],[-74.04849,40.724456],[-74.048886,40.724649],[-74.049284,40.724486],[-74.049246,40.72476],[-74.049642,40.724872],[-74.050257,40.724545],[-74.0504,40.724792],[-74.050362,40.725067],[-74.050003,40.724873],[-74.049531,40.725228],[-74.048592,40.725307],[-74.048232,40.725278],[-74.048486,40.725087],[-74.048271,40.724866]]],[[[-74.049796,40.728825],[-74.051491,40.728887],[-74.051526,40.729052],[-74.05102,40.729214],[-74.050985,40.729022],[-74.050083,40.728991],[-74.050552,40.72902],[-74.050731,40.729296],[-74.050369,40.729459],[-74.050334,40.729267],[-74.049754,40.729649],[-74.049796,40.728825]]],[[[-74.048553,40.731154],[-74.048695,40.731511],[-74.047828,40.731617],[-74.047865,40.731453],[-74.048298,40.731509],[-74.048553,40.731154]]],[[[-74.047862,40.731947],[-74.04938,40.731569],[-74.048909,40.731869],[-74.04963,40.731954],[-74.047862,40.731947]]],[[[-74.049449,40.732118],[-74.049556,40.732173],[-74.049448,40.732173],[-74.049449,40.732118]]],[[[-74.048113,40.732195],[-74.047897,40.732084],[-74.048114,40.732085],[-74.048113,40.732195]]],[[[-74.048835,40.73217],[-74.048222,40.732086],[-74.04934,40.732117],[-74.048684,40.733076],[-74.048835,40.73217]]],[[[-74.045461,40.734737],[-74.045103,40.734297],[-74.044201,40.734293],[-74.044239,40.733991],[-74.045503,40.733969],[-74.045757,40.733696],[-74.046334,40.733698],[-74.046296,40.734109],[-74.046583,40.734275],[-74.045897,40.734327],[-74.045567,40.73515],[-74.045098,40.735148],[-74.045137,40.734736],[-74.045461,40.734737]]],[[[-74.040549,40.735377],[-74.040482,40.73469],[-74.040803,40.735268],[-74.041633,40.735216],[-74.042028,40.735492],[-74.040549,40.735377]]],[[[-74.042714,40.735385],[-74.043688,40.735417],[-74.043978,40.735253],[-74.044017,40.734814],[-74.044341,40.73498],[-74.044087,40.735199],[-74.04412,40.735665],[-74.043109,40.735661],[-74.042714,40.735385]]],[[[-74.044445,40.735667],[-74.044193,40.735556],[-74.044445,40.735557],[-74.044445,40.735667]]],[[[-74.044769,40.735668],[-74.044661,40.735613],[-74.04477,40.735613],[-74.044769,40.735668]]],[[[-74.044841,40.735751],[-74.044805,40.735723],[-74.044841,40.735723],[-74.044841,40.735751]]],[[[-74.044913,40.735724],[-74.044877,40.735778],[-74.044877,40.735723],[-74.044913,40.735724]]],[[[-74.043432,40.73602],[-74.044011,40.735747],[-74.043864,40.736104],[-74.043432,40.73602]]],[[[-74.04502,40.735971],[-74.044225,40.736187],[-74.044155,40.735858],[-74.044516,40.735749],[-74.04502,40.735971]]],[[[-74.045414,40.736412],[-74.045381,40.736],[-74.044985,40.735779],[-74.045525,40.736028],[-74.045347,40.73567],[-74.046068,40.735756],[-74.046029,40.736195],[-74.045776,40.736166],[-74.045522,40.736385],[-74.04545,40.736357],[-74.045414,40.736412]]],[[[-74.043357,40.736321],[-74.043322,40.736294],[-74.043358,40.736294],[-74.043357,40.736321]]],[[[-74.045486,40.736385],[-74.04545,40.736412],[-74.04545,40.736384],[-74.045486,40.736385]]],[[[-74.04545,40.736412],[-74.045414,40.736439],[-74.045414,40.736412],[-74.04545,40.736412]]],[[[-74.043285,40.736321],[-74.042958,40.736623],[-74.042815,40.736237],[-74.043069,40.736238],[-74.043285,40.736321]],[[-74.043069,40.736265],[-74.043033,40.736293],[-74.043069,40.736293],[-74.043069,40.736265]]],[[[-74.044904,40.737041],[-74.044796,40.736986],[-74.044869,40.736959],[-74.044904,40.737041]]],[[[-74.044832,40.737123],[-74.044467,40.737616],[-74.044359,40.73767],[-74.044506,40.737314],[-74.044796,40.737041],[-74.044832,40.737123]],[[-74.044759,40.73715],[-74.044723,40.737123],[-74.044723,40.73715],[-74.044759,40.73715]],[[-74.044687,40.737232],[-74.044651,40.737205],[-74.04465,40.737232],[-74.044687,40.737232]]],[[[-74.044905,40.736986],[-74.044833,40.736904],[-74.044796,40.736986],[-74.044688,40.736985],[-74.043816,40.737805],[-74.043658,40.738628],[-74.04352,40.738505],[-74.043911,40.73754],[-74.043248,40.736431],[-74.045015,40.736657],[-74.045159,40.736768],[-74.044905,40.736986]],[[-74.044869,40.736904],[-74.044942,40.736849],[-74.04487,40.736849],[-74.044869,40.736904]],[[-74.04487,40.736849],[-74.044834,40.736821],[-74.044833,40.736849],[-74.04487,40.736849]],[[-74.04487,40.736821],[-74.044906,40.736794],[-74.04487,40.736794],[-74.04487,40.736821]],[[-74.044833,40.736849],[-74.044797,40.736876],[-74.044833,40.736876],[-74.044833,40.736849]],[[-74.044797,40.736958],[-74.044761,40.736931],[-74.044761,40.736958],[-74.044797,40.736958]],[[-74.04382,40.737229],[-74.043856,40.737311],[-74.043857,40.737229],[-74.04382,40.737229]],[[-74.045086,40.736795],[-74.045051,40.736767],[-74.04505,40.736795],[-74.045086,40.736795]],[[-74.045014,40.736877],[-74.044978,40.736849],[-74.044978,40.736877],[-74.045014,40.736877]]],[[[-74.042865,40.740841],[-74.042821,40.740903],[-74.042765,40.740903],[-74.042865,40.740841]]],[[[-74.042749,40.740913],[-74.042749,40.74093],[-74.042721,40.74093],[-74.042749,40.740913]]],[[[-74.042165,40.741422],[-74.042168,40.741365],[-74.042168,40.741422],[-74.042165,40.741422]]],[[[-74.041083,40.704937],[-74.041062,40.704933],[-74.041083,40.704921],[-74.041083,40.704937]]],[[[-74.041047,40.704964],[-74.041,40.704964],[-74.041047,40.70494],[-74.041047,40.704964]]],[[[-74.040974,40.704991],[-74.040946,40.704991],[-74.040975,40.704977],[-74.040974,40.704991]]],[[[-74.040902,40.705013],[-74.040902,40.705018],[-74.040892,40.705018],[-74.040902,40.705013]]],[[[-74.040866,40.705032],[-74.040866,40.705046],[-74.040838,40.705046],[-74.040866,40.705032]]],[[[-74.04083,40.70505],[-74.04083,40.705073],[-74.040784,40.705073],[-74.04083,40.70505]]],[[[-74.04073,40.7051],[-74.040757,40.705086],[-74.040757,40.7051],[-74.04073,40.7051]]],[[[-74.040721,40.705104],[-74.040721,40.705127],[-74.040676,40.705127],[-74.040721,40.705104]]],[[[-74.040649,40.705141],[-74.040649,40.705155],[-74.040622,40.705155],[-74.040649,40.705141]]],[[[-74.040595,40.705168],[-74.040612,40.705182],[-74.040567,40.705182],[-74.040595,40.705168]]],[[[-74.04054,40.705195],[-74.04054,40.705209],[-74.04051,40.705209],[-74.04054,40.705195]]],[[[-74.040504,40.705212],[-74.040504,40.705236],[-74.040454,40.705236],[-74.040504,40.705212]]],[[[-74.040432,40.705247],[-74.040432,40.705264],[-74.040398,40.705263],[-74.040432,40.705247]]],[[[-74.040395,40.705291],[-74.040341,40.705291],[-74.040395,40.705265],[-74.040395,40.705291]]],[[[-74.040323,40.705318],[-74.040285,40.705318],[-74.040323,40.7053],[-74.040323,40.705318]]],[[[-74.040251,40.705335],[-74.040251,40.705345],[-74.040229,40.705345],[-74.040251,40.705335]]],[[[-74.040214,40.705372],[-74.040173,40.705372],[-74.040215,40.705352],[-74.040214,40.705372]]],[[[-74.040142,40.7054],[-74.040115,40.7054],[-74.040142,40.705387],[-74.040142,40.7054]]],[[[-74.040106,40.705404],[-74.040106,40.705427],[-74.040057,40.705427],[-74.040106,40.705404]]],[[[-74.040033,40.705454],[-74.039999,40.705454],[-74.040034,40.705438],[-74.040033,40.705454]]],[[[-74.039997,40.705455],[-74.039997,40.705481],[-74.039941,40.705481],[-74.039997,40.705455]]],[[[-74.039883,40.705508],[-74.039925,40.705489],[-74.039925,40.705509],[-74.039883,40.705508]]],[[[-74.039853,40.705522],[-74.039853,40.705536],[-74.039824,40.705536],[-74.039853,40.705522]]],[[[-74.039816,40.705539],[-74.039816,40.705563],[-74.039766,40.705563],[-74.039816,40.705539]]],[[[-74.039708,40.70559],[-74.039744,40.705573],[-74.039744,40.70559],[-74.039708,40.70559]]],[[[-74.039687,40.7056],[-74.039708,40.705618],[-74.039649,40.705617],[-74.039687,40.7056]]],[[[-74.039589,40.705644],[-74.039636,40.705623],[-74.039635,40.705645],[-74.039589,40.705644]]],[[[-74.039563,40.705656],[-74.039563,40.705672],[-74.03953,40.705672],[-74.039563,40.705656]]],[[[-74.039491,40.705689],[-74.039491,40.705699],[-74.03947,40.705699],[-74.039491,40.705689]]],[[[-74.039454,40.705726],[-74.03941,40.705726],[-74.039455,40.705706],[-74.039454,40.705726]]],[[[-74.03935,40.705753],[-74.039382,40.705739],[-74.039382,40.705753],[-74.03935,40.705753]]],[[[-74.03931,40.705781],[-74.039289,40.705781],[-74.03931,40.705771],[-74.03931,40.705781]]],[[[-74.039274,40.705787],[-74.039274,40.705808],[-74.039227,40.705808],[-74.039274,40.705787]]],[[[-74.039201,40.705835],[-74.039165,40.705835],[-74.039201,40.705819],[-74.039201,40.705835]]],[[[-74.039129,40.705862],[-74.039103,40.705862],[-74.039129,40.705851],[-74.039129,40.705862]]],[[[-74.039057,40.705882],[-74.039057,40.705889],[-74.039041,40.705889],[-74.039057,40.705882]]],[[[-74.03902,40.705917],[-74.038979,40.705917],[-74.03902,40.705898],[-74.03902,40.705917]]],[[[-74.038948,40.705929],[-74.038948,40.705944],[-74.038913,40.705944],[-74.038948,40.705929]]],[[[-74.038846,40.705971],[-74.038876,40.705959],[-74.038876,40.705971],[-74.038846,40.705971]]],[[[-74.038803,40.705988],[-74.038803,40.705998],[-74.038779,40.705998],[-74.038803,40.705988]]],[[[-74.038767,40.706003],[-74.038767,40.706026],[-74.038712,40.706025],[-74.038767,40.706003]]],[[[-74.038651,40.706052],[-74.038695,40.706032],[-74.038695,40.706053],[-74.038651,40.706052]]],[[[-74.038622,40.706065],[-74.038622,40.70608],[-74.038591,40.70608],[-74.038622,40.706065]]],[[[-74.036989,40.707501],[-74.035801,40.707167],[-74.035983,40.70703],[-74.035265,40.706478],[-74.035448,40.706067],[-74.037899,40.706297],[-74.03833,40.706683],[-74.038655,40.706547],[-74.04222,40.707439],[-74.042219,40.707576],[-74.041571,40.707492],[-74.042038,40.70774],[-74.040416,40.707569],[-74.040197,40.707925],[-74.039875,40.707485],[-74.03883,40.707371],[-74.038867,40.707234],[-74.038469,40.707424],[-74.038429,40.707946],[-74.037059,40.70783],[-74.036989,40.707501]]],[[[-74.033157,40.713881],[-74.033451,40.713114],[-74.034102,40.712869],[-74.034495,40.713475],[-74.034382,40.714133],[-74.034094,40.714105],[-74.034059,40.713857],[-74.033985,40.714104],[-74.033157,40.713881]]],[[[-74.038191,40.721533],[-74.037292,40.721035],[-74.037509,40.721036],[-74.037583,40.720707],[-74.03679,40.720676],[-74.036829,40.720264],[-74.037945,40.720543],[-74.03787,40.72101],[-74.038339,40.721066],[-74.038589,40.721369],[-74.038191,40.721533]]],[[[-74.038698,40.721233],[-74.038881,40.720822],[-74.039242,40.720878],[-74.038992,40.720548],[-74.039244,40.720549],[-74.039463,40.720193],[-74.039713,40.72055],[-74.039457,40.721071],[-74.039855,40.720908],[-74.039961,40.721265],[-74.040466,40.721295],[-74.0405,40.721542],[-74.039562,40.721538],[-74.039235,40.721866],[-74.038698,40.721233]]],[[[-74.031141,40.730229],[-74.031232,40.729473],[-74.027341,40.729073],[-74.030966,40.729341],[-74.031006,40.728998],[-74.026548,40.728601],[-74.026604,40.72819],[-74.031034,40.728575],[-74.031086,40.728036],[-74.027374,40.727716],[-74.027376,40.727515],[-74.030342,40.727781],[-74.030405,40.727036],[-74.030021,40.726476],[-74.030287,40.726135],[-74.032455,40.726062],[-74.034452,40.726238],[-74.034525,40.725771],[-74.032064,40.725559],[-74.03211,40.725235],[-74.033782,40.725386],[-74.033765,40.725532],[-74.034559,40.725585],[-74.034614,40.725286],[-74.033817,40.725209],[-74.03384,40.725007],[-74.02978,40.724657],[-74.029447,40.724567],[-74.029605,40.723812],[-74.033812,40.724127],[-74.033883,40.724023],[-74.033838,40.723809],[-74.033893,40.723483],[-74.033968,40.723486],[-74.034032,40.723033],[-74.03398,40.722865],[-74.03423,40.722142],[-74.031422,40.721896],[-74.031522,40.721173],[-74.031354,40.721164],[-74.03133,40.720629],[-74.031476,40.720258],[-74.031741,40.720177],[-74.032375,40.720226],[-74.032552,40.720129],[-74.032062,40.719669],[-74.029283,40.719364],[-74.029258,40.719333],[-74.029375,40.718921],[-74.032487,40.719279],[-74.032469,40.718886],[-74.032825,40.717531],[-74.03275,40.717386],[-74.02993,40.717066],[-74.029999,40.716713],[-74.032075,40.716919],[-74.032169,40.71639],[-74.031289,40.716292],[-74.0315,40.715724],[-74.031699,40.716164],[-74.032624,40.716228],[-74.03315,40.714155],[-74.032975,40.714108],[-74.032997,40.713831],[-74.031663,40.713565],[-74.03302,40.713729],[-74.03325,40.712592],[-74.033428,40.712527],[-74.033439,40.71215],[-74.033733,40.711677],[-74.033954,40.711677],[-74.034201,40.711717],[-74.033821,40.71177],[-74.033491,40.712647],[-74.033274,40.712646],[-74.033013,40.713881],[-74.033227,40.714266],[-74.033037,40.715583],[-74.032784,40.715636],[-74.032672,40.716267],[-74.032202,40.716403],[-74.03209,40.716951],[-74.029998,40.716751],[-74.029961,40.716943],[-74.031655,40.717224],[-74.031836,40.717033],[-74.032665,40.717173],[-74.032879,40.717586],[-74.032542,40.719314],[-74.02955,40.718972],[-74.029295,40.719273],[-74.031169,40.719555],[-74.03182,40.719393],[-74.032573,40.720083],[-74.032572,40.720192],[-74.032391,40.720274],[-74.031452,40.720352],[-74.031341,40.720846],[-74.031555,40.721149],[-74.031478,40.721862],[-74.034254,40.722093],[-74.033992,40.72352],[-74.033883,40.723574],[-74.034023,40.724178],[-74.03186,40.724032],[-74.031497,40.724278],[-74.030234,40.7243],[-74.031207,40.724442],[-74.031314,40.724689],[-74.029871,40.724546],[-74.032143,40.72483],[-74.033513,40.724863],[-74.033874,40.724946],[-74.033872,40.725166],[-74.034629,40.725224],[-74.034591,40.725636],[-74.032103,40.725379],[-74.034554,40.72569],[-74.034514,40.726212],[-74.034405,40.726349],[-74.032061,40.726147],[-74.030329,40.726195],[-74.030111,40.726386],[-74.030433,40.726854],[-74.030427,40.727705],[-74.03039,40.727815],[-74.030029,40.727813],[-74.029848,40.727895],[-74.031146,40.72801],[-74.030995,40.728943],[-74.031318,40.729163],[-74.030992,40.729409],[-74.031244,40.729438],[-74.031166,40.730261],[-74.030376,40.729791],[-74.029907,40.729762],[-74.029907,40.729789],[-74.030986,40.730315],[-74.03138,40.730619],[-74.031343,40.730756],[-74.029758,40.729759],[-74.030478,40.729769],[-74.031141,40.730229]]],[[[-74.030839,40.730621],[-74.030924,40.730644],[-74.030839,40.730644],[-74.030839,40.730621]]],[[[-74.029324,40.730555],[-74.028244,40.730167],[-74.028058,40.730934],[-74.031015,40.731248],[-74.030676,40.733251],[-74.030967,40.731276],[-74.027997,40.731011],[-74.028094,40.730228],[-74.026853,40.729505],[-74.027419,40.729492],[-74.029127,40.730468],[-74.030823,40.730616],[-74.029324,40.730555]]],[[[-74.030638,40.733525],[-74.030609,40.733525],[-74.03064,40.73331],[-74.030638,40.733525]]],[[[-74.030602,40.733557],[-74.030601,40.733635],[-74.030586,40.733635],[-74.030602,40.733557]]],[[[-74.030711,40.733498],[-74.03154,40.733556],[-74.03154,40.733584],[-74.030709,40.733718],[-74.030711,40.733498]]],[[[-74.030204,40.733716],[-74.030168,40.733702],[-74.030204,40.733705],[-74.030204,40.733716]]],[[[-74.037345,40.734321],[-74.031177,40.733829],[-74.031142,40.733774],[-74.032153,40.733586],[-74.036084,40.733932],[-74.037022,40.734018],[-74.037345,40.734321]]],[[[-74.038967,40.734602],[-74.039076,40.73441],[-74.039075,40.734657],[-74.038967,40.734602]]],[[[-74.038858,40.734711],[-74.038999,40.735096],[-74.038819,40.735095],[-74.038858,40.734711]]],[[[-74.038311,40.73556],[-74.038491,40.735616],[-74.03813,40.735614],[-74.038311,40.73556]]],[[[-74.038707,40.735699],[-74.03867,40.735726],[-74.03867,40.735699],[-74.038707,40.735699]]],[[[-74.038707,40.735644],[-74.040583,40.735706],[-74.040507,40.736228],[-74.040254,40.736334],[-74.040113,40.735842],[-74.039356,40.735756],[-74.039318,40.735976],[-74.038849,40.735946],[-74.038847,40.736301],[-74.038595,40.736228],[-74.038525,40.735863],[-74.038778,40.735727],[-74.038707,40.735644]]],[[[-74.040411,40.73631],[-74.040398,40.736311],[-74.040398,40.73631],[-74.040411,40.73631]]],[[[-74.03928,40.736333],[-74.039161,40.736333],[-74.039156,40.736332],[-74.03928,40.736333]]],[[[-74.039315,40.736365],[-74.03929,40.73636],[-74.039315,40.73636],[-74.039315,40.736365]]],[[[-74.039557,40.736416],[-74.039712,40.736417],[-74.039624,40.73643],[-74.039557,40.736416]]]]}}]}