{"type":"FeatureCollection","features":[{"type":"Feature","properties":{"level_ft":0},"geometry":{"type":"MultiPolygon","coordinates":[[[[-74.074009,40.672891],[-74.075406,40.673445],[-74.075945,40.673744],[-74.074009,40.672891]]],[[[-74.076017,40.673773],[-74.075959,40.673749],[-74.076017,40.67375],[-74.076017,40.673773]]],[[[-74.076089,40.673802],[-74.076027,40.673777],[-74.076089,40.673777],[-74.076089,40.673802]]],[[[-74.076161,40.673805],[-74.07616,40.673831],[-74.076095,40.673805],[-74.076161,40.673805]]],[[[-74.076196,40.673846],[-74.076163,40.673832],[-74.076196,40.673833],[-74.076196,40.673846]]],[[[-74.076304,40.67386],[-74.076484,40.673963],[-74.076232,40.67386],[-74.076304,40.67386]]],[[[-74.076556,40.673971],[-74.076556,40.673993],[-74.076502,40.673971],[-74.076556,40.673971]]],[[[-74.076569,40.673999],[-74.076628,40.673999],[-74.076628,40.674023],[-74.076569,40.673999]]],[[[-74.076635,40.674026],[-74.076664,40.674026],[-74.076664,40.674038],[-74.076635,40.674026]]],[[[-74.076736,40.674054],[-74.076736,40.674068],[-74.076702,40.674054],[-74.076736,40.674054]]],[[[-74.076808,40.674082],[-74.076808,40.674097],[-74.076769,40.674082],[-74.076808,40.674082]]],[[[-74.07688,40.674126],[-74.076838,40.674109],[-74.07688,40.67411],[-74.07688,40.674126]]],[[[-74.076952,40.674154],[-74.076908,40.674137],[-74.076952,40.674137],[-74.076952,40.674154]]],[[[-74.07698,40.674165],[-74.076988,40.674165],[-74.076988,40.674168],[-74.07698,40.674165]]],[[[-74.077059,40.674193],[-74.077058,40.674193],[-74.077059,40.674193],[-74.077059,40.674193]]],[[[-74.077455,40.674359],[-74.077455,40.674359],[-74.077454,40.674359],[-74.077455,40.674359]]],[[[-74.077635,40.674446],[-74.077625,40.674442],[-74.077635,40.674442],[-74.077635,40.674446]]],[[[-74.077682,40.674469],[-74.077707,40.674469],[-74.077707,40.674481],[-74.077682,40.674469]]],[[[-74.077743,40.674499],[-74.077739,40.674497],[-74.077743,40.674497],[-74.077743,40.674499]]],[[[-74.07785,40.674551],[-74.077797,40.674525],[-74.077851,40.674525],[-74.07785,40.674551]]],[[[-74.077923,40.674553],[-74.077958,40.674603],[-74.077854,40.674552],[-74.077923,40.674553]]],[[[-74.077994,40.674608],[-74.077994,40.67462],[-74.077968,40.674608],[-74.077994,40.674608]]],[[[-74.078025,40.674635],[-74.080942,40.676018],[-74.081659,40.67668],[-74.081149,40.677447],[-74.080969,40.677446],[-74.077231,40.675648],[-74.076177,40.676852],[-74.075924,40.676961],[-74.072977,40.67544],[-74.072794,40.675879],[-74.075669,40.677372],[-74.074579,40.678768],[-74.074321,40.678904],[-74.074828,40.678352],[-74.072516,40.677158],[-74.072659,40.676993],[-74.075007,40.678078],[-74.075638,40.677398],[-74.072611,40.675807],[-74.073002,40.675357],[-74.07579,40.676812],[-74.076735,40.676002],[-74.075979,40.67691],[-74.077246,40.675601],[-74.080985,40.677371],[-74.081337,40.676877],[-74.080995,40.676126],[-74.078025,40.674635]]],[[[-74.074249,40.678986],[-74.074253,40.678982],[-74.074253,40.678986],[-74.074249,40.678986]]],[[[-74.074201,40.679041],[-74.074217,40.679024],[-74.074216,40.679041],[-74.074201,40.679041]]],[[[-74.070662,40.680689],[-74.071797,40.679744],[-74.070671,40.6792],[-74.072032,40.679656],[-74.073664,40.67982],[-74.07378,40.679671],[-74.076112,40.681436],[-74.078486,40.682433],[-74.077585,40.682292],[-74.076147,40.681601],[-74.073994,40.679973],[-74.071797,40.679663],[-74.071832,40.679718],[-74.071795,40.679883],[-74.070781,40.680675],[-74.071903,40.679938],[-74.073416,40.680163],[-74.077115,40.682455],[-74.07733,40.682813],[-74.076859,40.683058],[-74.073556,40.68085],[-74.073805,40.6814],[-74.073265,40.681261],[-74.072469,40.681697],[-74.07157,40.681227],[-74.071208,40.681445],[-74.071171,40.681665],[-74.072428,40.682468],[-74.071101,40.681665],[-74.070662,40.680689]]],[[[-74.072386,40.682517],[-74.07433,40.683845],[-74.074655,40.683819],[-74.075445,40.684343],[-74.076486,40.685116],[-74.077095,40.685749],[-74.077563,40.685806],[-74.077633,40.686108],[-74.080003,40.687709],[-74.08029,40.68793],[-74.08029,40.688001],[-74.076469,40.68537],[-74.07463,40.683866],[-74.074457,40.683971],[-74.072386,40.682517]]],[[[-74.074702,40.687799],[-74.074702,40.687789],[-74.074704,40.687799],[-74.074702,40.687799]]],[[[-74.074845,40.687937],[-74.074845,40.687937],[-74.074845,40.687937],[-74.074845,40.687937]]],[[[-74.074881,40.687965],[-74.074897,40.687963],[-74.074902,40.687965],[-74.074881,40.687965]]],[[[-74.08029,40.688011],[-74.079828,40.688504],[-74.079902,40.688366],[-74.08029,40.688011]]],[[[-74.075701,40.688304],[-74.075906,40.688665],[-74.078013,40.688601],[-74.078115,40.688663],[-74.075814,40.688682],[-74.075708,40.688352],[-74.075239,40.688295],[-74.074917,40.687969],[-74.075701,40.688304]]],[[[-74.079818,40.688532],[-74.079809,40.688528],[-74.079818,40.68852],[-74.079818,40.688532]]],[[[-74.078122,40.688676],[-74.078129,40.68869],[-74.078122,40.68869],[-74.078122,40.688676]]],[[[-74.079886,40.688886],[-74.079585,40.688808],[-74.079602,40.688695],[-74.079782,40.688555],[-74.079886,40.688886]]],[[[-74.078625,40.688912],[-74.078625,40.688909],[-74.078629,40.688912],[-74.078625,40.688912]]],[[[-74.078661,40.688925],[-74.080032,40.688917],[-74.079778,40.689081],[-74.078877,40.688967],[-74.078624,40.689159],[-74.078661,40.688925]]],[[[-74.101313,40.712325],[-74.100199,40.711662],[-74.100164,40.71147],[-74.100921,40.711473],[-74.101676,40.711887],[-74.101313,40.712325]]],[[[-74.097145,40.721589],[-74.096929,40.721423],[-74.097079,40.72049],[-74.098608,40.718245],[-74.099547,40.718056],[-74.10153,40.718228],[-74.101137,40.717622],[-74.101714,40.717652],[-74.102221,40.717351],[-74.106352,40.714291],[-74.103405,40.712415],[-74.10402,40.712005],[-74.106111,40.712369],[-74.107376,40.711934],[-74.107235,40.71133],[-74.107713,40.709794],[-74.106416,40.709433],[-74.106305,40.703915],[-74.104426,40.70443],[-74.103999,40.703523],[-74.10346,40.703109],[-74.102668,40.702832],[-74.101946,40.702912],[-74.101767,40.702691],[-74.105109,40.69875],[-74.105905,40.698286],[-74.107456,40.698237],[-74.107855,40.697859],[-74.114232,40.700952],[-74.114309,40.704609],[-74.116408,40.709735],[-74.113869,40.712314],[-74.110167,40.715375],[-74.10747,40.717075],[-74.102976,40.71933],[-74.10177,40.720231],[-74.100089,40.722867],[-74.099011,40.727277],[-74.096826,40.726556],[-74.096792,40.726254],[-74.096181,40.725868],[-74.096435,40.725621],[-74.095714,40.725536],[-74.094096,40.724488],[-74.09593,40.725482],[-74.096544,40.725375],[-74.096301,40.723837],[-74.096664,40.723481],[-74.096704,40.72285],[-74.097287,40.721973],[-74.097398,40.721425],[-74.097145,40.721589]],[[-74.097398,40.721425],[-74.097435,40.721343],[-74.097399,40.721342],[-74.097398,40.721425]]],[[[-74.085319,40.725994],[-74.084282,40.724453],[-74.083921,40.724479],[-74.083491,40.724121],[-74.085006,40.724208],[-74.085575,40.725418],[-74.086404,40.725586],[-74.08586,40.726133],[-74.085319,40.725994]]],[[[-74.088271,40.727157],[-74.088852,40.726446],[-74.08911,40.725596],[-74.089507,40.725597],[-74.089578,40.725817],[-74.089034,40.726336],[-74.089714,40.727245],[-74.088665,40.727653],[-74.088271,40.727157]]],[[[-74.095577,40.730257],[-74.095287,40.730421],[-74.095175,40.731025],[-74.094922,40.731051],[-74.094528,40.730638],[-74.093663,40.730553],[-74.093524,40.729591],[-74.092912,40.729425],[-74.09241,40.728846],[-74.091147,40.728787],[-74.092449,40.728297],[-74.092417,40.727639],[-74.092165,40.727638],[-74.09198,40.728378],[-74.090716,40.728538],[-74.090389,40.728839],[-74.090561,40.73024],[-74.088722,40.730014],[-74.088689,40.729492],[-74.089806,40.729798],[-74.089593,40.729248],[-74.088763,40.729245],[-74.088912,40.72845],[-74.089165,40.728423],[-74.089639,40.727711],[-74.090217,40.727466],[-74.092744,40.727283],[-74.093356,40.727532],[-74.094691,40.727564],[-74.095559,40.727155],[-74.096498,40.727104],[-74.096609,40.726693],[-74.098962,40.727552],[-74.097897,40.73072],[-74.095303,40.735005],[-74.091829,40.735295],[-74.091867,40.735103],[-74.093676,40.734231],[-74.094264,40.732504],[-74.094735,40.732176],[-74.094595,40.731462],[-74.095247,40.73108],[-74.095577,40.730257]],[[-74.092449,40.728297],[-74.092521,40.72838],[-74.092485,40.728298],[-74.092449,40.728297]],[[-74.095577,40.730257],[-74.095613,40.73023],[-74.095577,40.73023],[-74.095577,40.730257]],[[-74.095613,40.73023],[-74.095722,40.730176],[-74.095613,40.730203],[-74.095613,40.73023]]],[[[-74.09154,40.735321],[-74.091686,40.735157],[-74.091649,40.735322],[-74.09154,40.735321]]],[[[-74.085508,40.736288],[-74.081333,40.734571],[-74.081333,40.734461],[-74.083638,40.735156],[-74.084934,40.735765],[-74.085508,40.736288]]],[[[-74.083643,40.740262],[-74.081446,40.739568],[-74.084011,40.73911],[-74.087192,40.738216],[-74.087953,40.737807],[-74.085974,40.736839],[-74.085579,40.736426],[-74.088604,40.737562],[-74.091501,40.73587],[-74.091504,40.735459],[-74.095174,40.73517],[-74.093398,40.737015],[-74.090175,40.738579],[-74.08703,40.739535],[-74.083643,40.740262]]],[[[-74.082305,40.74067],[-74.08083,40.73984],[-74.080832,40.739565],[-74.083641,40.740344],[-74.082305,40.74067]]],[[[-74.079709,40.740193],[-74.079673,40.740165],[-74.07971,40.740165],[-74.079709,40.740193]]],[[[-74.080469,40.739976],[-74.081865,40.740777],[-74.081366,40.740802],[-74.077094,40.743148],[-74.075867,40.742896],[-74.075833,40.742539],[-74.076737,40.742268],[-74.076811,40.741911],[-74.077861,40.741366],[-74.07779,40.741174],[-74.078766,40.740958],[-74.0796,40.740384],[-74.07888,40.740052],[-74.079673,40.740247],[-74.080036,40.739974],[-74.080469,40.739976]]],[[[-74.077463,40.750011],[-74.078852,40.750223],[-74.07768,40.751787],[-74.076995,40.752271],[-74.075698,40.752338],[-74.075772,40.752146],[-74.076928,40.752041],[-74.075268,40.75187],[-74.073433,40.75093],[-74.073368,40.749914],[-74.073657,40.74986],[-74.073796,40.750739],[-74.075486,40.751624],[-74.076749,40.751683],[-74.074381,40.749533],[-74.074383,40.749177],[-74.07381,40.748461],[-74.073713,40.746759],[-74.074409,40.745059],[-74.074266,40.744839],[-74.074778,40.743798],[-74.075067,40.743799],[-74.075287,40.743223],[-74.075758,40.743005],[-74.076947,40.743257],[-74.075151,40.745534],[-74.074869,40.746946],[-74.075017,40.747986],[-74.076141,40.749364],[-74.077463,40.750011]]],[[[-74.07521,40.752812],[-74.076523,40.754816],[-74.0763,40.755143],[-74.075215,40.755339],[-74.074894,40.75562],[-74.075146,40.757157],[-74.07465,40.758294],[-74.074982,40.757167],[-74.074593,40.75593],[-74.074739,40.755574],[-74.074486,40.755683],[-74.0748,40.757331],[-74.074436,40.757879],[-74.074045,40.756971],[-74.07437,40.756863],[-74.074263,40.756615],[-74.073978,40.756147],[-74.073508,40.756146],[-74.072759,40.754853],[-74.074203,40.754693],[-74.074313,40.754474],[-74.074709,40.754613],[-74.075216,40.754395],[-74.075472,40.753957],[-74.075831,40.75415],[-74.074972,40.752994],[-74.075156,40.752528],[-74.075589,40.752448],[-74.07521,40.752812]]],[[[-74.073639,40.75826],[-74.072851,40.757296],[-74.07264,40.756499],[-74.072173,40.756168],[-74.072246,40.755976],[-74.072535,40.756005],[-74.072605,40.756335],[-74.072931,40.756116],[-74.074217,40.758207],[-74.073639,40.75826]]],[[[-74.073999,40.758453],[-74.074396,40.758427],[-74.073962,40.758508],[-74.073999,40.758453]]],[[[-74.069653,40.671042],[-74.06964,40.671036],[-74.069653,40.671036],[-74.069653,40.671042]]],[[[-74.069724,40.671077],[-74.069696,40.671063],[-74.069725,40.671064],[-74.069724,40.671077]]],[[[-74.06976,40.671095],[-74.069753,40.671091],[-74.06976,40.671091],[-74.06976,40.671095]]],[[[-74.069832,40.671119],[-74.069832,40.67113],[-74.06981,40.671119],[-74.069832,40.671119]]],[[[-74.069867,40.671146],[-74.069868,40.671146],[-74.069868,40.671147],[-74.069867,40.671146]]],[[[-74.069924,40.671174],[-74.06994,40.671174],[-74.06994,40.671182],[-74.069924,40.671174]]],[[[-74.070012,40.671202],[-74.070012,40.671217],[-74.069981,40.671202],[-74.070012,40.671202]]],[[[-74.070084,40.67123],[-74.070084,40.671251],[-74.070038,40.671229],[-74.070084,40.67123]]],[[[-74.07012,40.671268],[-74.070097,40.671257],[-74.07012,40.671257],[-74.07012,40.671268]]],[[[-74.070155,40.671285],[-74.07235,40.672144],[-74.072996,40.672474],[-74.071237,40.671833],[-74.070155,40.671285]]],[[[-74.073104,40.672476],[-74.073212,40.672547],[-74.073003,40.672476],[-74.073104,40.672476]]],[[[-74.073284,40.672572],[-74.073247,40.672559],[-74.073284,40.672559],[-74.073284,40.672572]]],[[[-74.073356,40.672596],[-74.073329,40.672587],[-74.073356,40.672587],[-74.073356,40.672596]]],[[[-74.073428,40.672615],[-74.073428,40.672629],[-74.073397,40.672614],[-74.073428,40.672615]]],[[[-74.073458,40.672642],[-74.0735,40.672642],[-74.0735,40.672661],[-74.073458,40.672642]]],[[[-74.073519,40.67267],[-74.073572,40.67267],[-74.073572,40.672694],[-74.073519,40.67267]]],[[[-74.073608,40.672698],[-74.073608,40.67271],[-74.07358,40.672697],[-74.073608,40.672698]]],[[[-74.073716,40.672725],[-74.073823,40.672807],[-74.073642,40.672725],[-74.073716,40.672725]]],[[[-74.073895,40.672836],[-74.074003,40.672889],[-74.073825,40.672808],[-74.073895,40.672836]]],[[[-74.07418,40.679065],[-74.07418,40.679068],[-74.074177,40.679068],[-74.07418,40.679065]]],[[[-74.07392,40.679369],[-74.073926,40.679362],[-74.073926,40.679369],[-74.07392,40.679369]]],[[[-74.073889,40.679424],[-74.073875,40.679424],[-74.07389,40.679406],[-74.073889,40.679424]]],[[[-74.07383,40.679479],[-74.073853,40.67945],[-74.073853,40.679479],[-74.07383,40.679479]]],[[[-74.07381,40.679503],[-74.073817,40.679506],[-74.073806,40.679506],[-74.07381,40.679503]]],[[[-74.07373,40.679615],[-74.073744,40.679616],[-74.073744,40.679667],[-74.07373,40.679615]]],[[[-74.074698,40.687772],[-74.074233,40.687715],[-74.074377,40.68788],[-74.073362,40.6887],[-74.072099,40.688833],[-74.069841,40.686573],[-74.070177,40.690473],[-74.069556,40.691596],[-74.067604,40.693153],[-74.068929,40.691697],[-74.069664,40.690114],[-74.069948,40.687888],[-74.069624,40.685822],[-74.07021,40.684684],[-74.069889,40.68445],[-74.070537,40.68395],[-74.073359,40.686049],[-74.073182,40.686206],[-74.07343,40.686729],[-74.074685,40.687589],[-74.074698,40.687772]]],[[[-74.070584,40.694454],[-74.070572,40.694447],[-74.070584,40.694431],[-74.070584,40.694454]]],[[[-74.070548,40.694461],[-74.070122,40.695084],[-74.070359,40.694629],[-74.070477,40.694497],[-74.070548,40.694461]]],[[[-74.070111,40.695139],[-74.070088,40.695133],[-74.070111,40.695109],[-74.070111,40.695139]]],[[[-74.070075,40.695141],[-74.070002,40.695221],[-74.069895,40.695275],[-74.069941,40.695235],[-74.070042,40.695161],[-74.070075,40.695141]]],[[[-74.069838,40.695346],[-74.069857,40.695385],[-74.069793,40.695412],[-74.069838,40.695346]]],[[[-74.069756,40.695467],[-74.069784,40.695425],[-74.069784,40.695467],[-74.069756,40.695467]]],[[[-74.069748,40.695522],[-74.069718,40.695522],[-74.069748,40.695478],[-74.069748,40.695522]]],[[[-74.069711,40.695532],[-74.069711,40.695549],[-74.0697,40.695549],[-74.069711,40.695532]]],[[[-74.069675,40.695586],[-74.069675,40.695604],[-74.069663,40.695604],[-74.069675,40.695586]]],[[[-74.069638,40.695686],[-74.06961,40.695686],[-74.069639,40.695639],[-74.069638,40.695686]]],[[[-74.069602,40.695713],[-74.069591,40.695713],[-74.069602,40.695698],[-74.069602,40.695713]]],[[[-74.069566,40.695741],[-74.069566,40.695741],[-74.069566,40.695741],[-74.069566,40.695741]]],[[[-74.069529,40.695796],[-74.069499,40.695795],[-74.06953,40.69577],[-74.069529,40.695796]]],[[[-74.069493,40.695801],[-74.069493,40.695823],[-74.069472,40.695823],[-74.069493,40.695801]]],[[[-74.069445,40.69585],[-74.069457,40.695838],[-74.069457,40.69585],[-74.069445,40.69585]]],[[[-74.069421,40.695905],[-74.069391,40.695905],[-74.069421,40.695875],[-74.069421,40.695905]]],[[[-74.069364,40.695932],[-74.069384,40.695912],[-74.069384,40.695932],[-74.069364,40.695932]]],[[[-74.069348,40.695948],[-74.069348,40.69596],[-74.069337,40.69596],[-74.069348,40.695948]]],[[[-74.06931,40.695987],[-74.069312,40.695985],[-74.069312,40.695987],[-74.06931,40.695987]]],[[[-74.069256,40.696042],[-74.069276,40.696022],[-74.069275,40.696042],[-74.069256,40.696042]]],[[[-74.069229,40.696069],[-74.069239,40.696059],[-74.069239,40.696069],[-74.069229,40.696069]]],[[[-74.068541,40.709188],[-74.069304,40.708477],[-74.070025,40.708452],[-74.070532,40.708152],[-74.070928,40.708263],[-74.0706,40.708729],[-74.070133,40.708535],[-74.069915,40.708808],[-74.069193,40.708861],[-74.069046,40.709327],[-74.068648,40.70938],[-74.068541,40.709188]]],[[[-74.07342,40.758671],[-74.072568,40.758994],[-74.072183,40.760144],[-74.07226,40.759463],[-74.072006,40.759571],[-74.071407,40.757401],[-74.072273,40.757431],[-74.073061,40.758395],[-74.072951,40.758614],[-74.07342,40.758671]],[[-74.07226,40.759463],[-74.072296,40.759435],[-74.07226,40.759435],[-74.07226,40.759463]],[[-74.072951,40.758614],[-74.072843,40.758641],[-74.072951,40.758642],[-74.072951,40.758614]]],[[[-74.070408,40.76109],[-74.07146,40.760365],[-74.07193,40.760202],[-74.070408,40.76109]]],[[[-74.068381,40.761864],[-74.068417,40.761891],[-74.068381,40.761891],[-74.068381,40.761864]]],[[[-74.068092,40.761972],[-74.068594,40.761976],[-74.068055,40.762164],[-74.068092,40.761972]]],[[[-74.065716,40.66704],[-74.064979,40.669069],[-74.067853,40.670535],[-74.069041,40.670865],[-74.068149,40.670712],[-74.064865,40.669133],[-74.065154,40.667885],[-74.065716,40.66704]]],[[[-74.067599,40.693158],[-74.067599,40.693181],[-74.067578,40.693181],[-74.067599,40.693158]]],[[[-74.067514,40.693248],[-74.067562,40.693235],[-74.0675,40.693263],[-74.067514,40.693248]]],[[[-74.06749,40.69329],[-74.067475,40.69329],[-74.06749,40.693273],[-74.06749,40.69329]]],[[[-74.067449,40.693317],[-74.067454,40.693313],[-74.067454,40.693317],[-74.067449,40.693317]]],[[[-74.070251,40.693795],[-74.069619,40.694049],[-74.069813,40.694365],[-74.06929,40.695033],[-74.068603,40.695273],[-74.06779,40.695391],[-74.067688,40.695217],[-74.067296,40.69543],[-74.066399,40.694604],[-74.066796,40.694605],[-74.066762,40.694248],[-74.067088,40.694167],[-74.067802,40.695185],[-74.068668,40.695134],[-74.069284,40.694752],[-74.069398,40.693874],[-74.070156,40.693739],[-74.069978,40.693299],[-74.070449,40.693054],[-74.070771,40.693412],[-74.07048,40.693823],[-74.070659,40.694043],[-74.070621,40.694372],[-74.070251,40.693795]]],[[[-74.057814,40.691965],[-74.057479,40.69281],[-74.058446,40.69329],[-74.058838,40.692484],[-74.058996,40.69266],[-74.058686,40.693452],[-74.059421,40.693886],[-74.059784,40.693079],[-74.059994,40.693121],[-74.0597,40.694059],[-74.060237,40.694409],[-74.060745,40.693614],[-74.06137,40.693886],[-74.06103,40.695033],[-74.064731,40.697091],[-74.06515,40.697088],[-74.06524,40.697678],[-74.065616,40.697949],[-74.065189,40.697701],[-74.065049,40.697096],[-74.06476,40.697178],[-74.063753,40.696735],[-74.060914,40.695104],[-74.061209,40.694172],[-74.060995,40.69376],[-74.06067,40.693813],[-74.06045,40.694416],[-74.060161,40.694443],[-74.059622,40.694111],[-74.059771,40.693453],[-74.059516,40.693919],[-74.059299,40.693918],[-74.058617,40.693503],[-74.058691,40.693147],[-74.058474,40.693338],[-74.058257,40.693337],[-74.057467,40.692895],[-74.057432,40.692703],[-74.057725,40.692018],[-74.057653,40.691935],[-74.054957,40.690689],[-74.054179,40.691909],[-74.054877,40.690638],[-74.057814,40.691965]]],[[[-74.06616,40.694877],[-74.066181,40.694877],[-74.066181,40.694891],[-74.06616,40.694877]]],[[[-74.066289,40.694905],[-74.066684,40.695187],[-74.066202,40.694905],[-74.066289,40.694905]]],[[[-74.067044,40.695384],[-74.067024,40.695374],[-74.067044,40.695375],[-74.067044,40.695384]]],[[[-74.067548,40.695404],[-74.06756,40.695404],[-74.067548,40.695416],[-74.067548,40.695404]]],[[[-74.067076,40.695402],[-74.067116,40.695402],[-74.067115,40.695425],[-74.067076,40.695402]]],[[[-74.067533,40.695431],[-74.067252,40.695502],[-74.067124,40.69543],[-74.067533,40.695431]]],[[[-74.069203,40.696096],[-74.069202,40.696096],[-74.069203,40.696095],[-74.069203,40.696096]]],[[[-74.068995,40.69626],[-74.069022,40.69624],[-74.069022,40.69626],[-74.068995,40.69626]]],[[[-74.068959,40.696288],[-74.068985,40.696267],[-74.068985,40.696288],[-74.068959,40.696288]]],[[[-74.068949,40.696315],[-74.068922,40.696315],[-74.068949,40.696295],[-74.068949,40.696315]]],[[[-74.068886,40.696342],[-74.068913,40.696322],[-74.068913,40.696342],[-74.068886,40.696342]]],[[[-74.068849,40.696369],[-74.068877,40.696349],[-74.068877,40.69637],[-74.068849,40.696369]]],[[[-74.06884,40.696376],[-74.068768,40.696479],[-74.068664,40.696534],[-74.06884,40.696376]]],[[[-74.068659,40.696538],[-74.068586,40.696616],[-74.068442,40.696725],[-74.068659,40.696538]]],[[[-74.068441,40.696725],[-74.068441,40.696752],[-74.068409,40.696752],[-74.068441,40.696725]]],[[[-74.068376,40.696779],[-74.068405,40.696755],[-74.068405,40.69678],[-74.068376,40.696779]]],[[[-74.067972,40.69686],[-74.067791,40.69686],[-74.067037,40.696418],[-74.066601,40.696855],[-74.06616,40.698089],[-74.066124,40.698144],[-74.066016,40.698143],[-74.066563,40.696832],[-74.067029,40.696369],[-74.067972,40.69686]]],[[[-74.0658,40.698087],[-74.06562,40.697952],[-74.066002,40.698116],[-74.0658,40.698087]]],[[[-74.058896,40.705802],[-74.059511,40.705558],[-74.059724,40.706025],[-74.05853,40.706597],[-74.058173,40.706074],[-74.058858,40.706104],[-74.058896,40.705802]],[[-74.058461,40.706103],[-74.058425,40.706185],[-74.058497,40.706185],[-74.058461,40.706103]]],[[[-74.055126,40.757366],[-74.05589,40.756491],[-74.055999,40.756437],[-74.055126,40.757366]]],[[[-74.054981,40.757531],[-74.055017,40.757421],[-74.055126,40.757366],[-74.054981,40.757531]]],[[[-74.054836,40.75764],[-74.054944,40.757585],[-74.054908,40.757668],[-74.054836,40.75764]]],[[[-74.054871,40.757667],[-74.054799,40.757695],[-74.054799,40.757667],[-74.054871,40.757667]]],[[[-74.054799,40.757695],[-74.054763,40.757722],[-74.054763,40.757694],[-74.054799,40.757695]]],[[[-74.054835,40.757722],[-74.054799,40.75775],[-74.054799,40.757722],[-74.054835,40.757722]]],[[[-74.054763,40.757749],[-74.054799,40.757777],[-74.054762,40.757777],[-74.054763,40.757749]]],[[[-74.054762,40.757832],[-74.054726,40.757804],[-74.054762,40.757804],[-74.054762,40.757832]]],[[[-74.067634,40.760159],[-74.067598,40.760214],[-74.067598,40.760159],[-74.067634,40.760159]]],[[[-74.067634,40.760214],[-74.06767,40.760296],[-74.067633,40.760296],[-74.067634,40.760214]]],[[[-74.067705,40.760379],[-74.067669,40.760324],[-74.067706,40.760324],[-74.067705,40.760379]]],[[[-74.068455,40.761617],[-74.068165,40.76189],[-74.068094,40.761698],[-74.067913,40.761725],[-74.067915,40.761423],[-74.067701,40.761065],[-74.067413,40.760954],[-74.066451,40.759002],[-74.067205,40.759608],[-74.067775,40.760709],[-74.067705,40.760379],[-74.068029,40.760572],[-74.068171,40.76093],[-74.068171,40.760985],[-74.068134,40.760984],[-74.068099,40.760957],[-74.068098,40.761012],[-74.06817,40.761039],[-74.068025,40.761176],[-74.06835,40.761205],[-74.06842,40.76148],[-74.068276,40.761397],[-74.06824,40.761479],[-74.068455,40.761617]],[[-74.068169,40.761259],[-74.068132,40.761286],[-74.068169,40.761286],[-74.068169,40.761259]],[[-74.068276,40.761369],[-74.068277,40.761287],[-74.068205,40.761287],[-74.068204,40.761396],[-74.068276,40.761369]],[[-74.068204,40.761396],[-74.068168,40.761424],[-74.068204,40.761424],[-74.068204,40.761396]]],[[[-74.067993,40.760517],[-74.067957,40.76049],[-74.067993,40.76049],[-74.067993,40.760517]]],[[[-74.068206,40.761012],[-74.068171,40.760985],[-74.068207,40.760985],[-74.068206,40.761012]]],[[[-74.068278,40.76104],[-74.068242,40.761095],[-74.068242,40.76104],[-74.068278,40.76104]]],[[[-74.067664,40.761147],[-74.067628,40.76112],[-74.067664,40.76112],[-74.067664,40.761147]]],[[[-74.068278,40.761122],[-74.06835,40.761177],[-74.068278,40.761177],[-74.068278,40.761122]]],[[[-74.068276,40.761369],[-74.06824,40.761369],[-74.06824,40.761342],[-74.068277,40.761342],[-74.068276,40.761369]]],[[[-74.067771,40.761395],[-74.067807,40.761422],[-74.067771,40.761422],[-74.067771,40.761395]]],[[[-74.068312,40.761424],[-74.068276,40.761452],[-74.068276,40.761424],[-74.068312,40.761424]]],[[[-74.067879,40.761423],[-74.067843,40.76145],[-74.067843,40.761422],[-74.067879,40.761423]]],[[[-74.067879,40.761478],[-74.067806,40.76156],[-74.067807,40.76145],[-74.067879,40.761478]]],[[[-74.068093,40.761753],[-74.068057,40.76178],[-74.068057,40.761753],[-74.068093,40.761753]]],[[[-74.068057,40.76178],[-74.067985,40.761835],[-74.067985,40.76178],[-74.068057,40.76178]]],[[[-74.06802,40.761945],[-74.068092,40.761972],[-74.068056,40.761972],[-74.06802,40.761945]]],[[[-74.065077,40.763703],[-74.063897,40.763709],[-74.062501,40.762673],[-74.061794,40.76242],[-74.060022,40.76255],[-74.060002,40.76341],[-74.05963,40.764001],[-74.059993,40.765701],[-74.058474,40.766757],[-74.056999,40.768958],[-74.054608,40.764694],[-74.056574,40.767666],[-74.057225,40.767531],[-74.057879,40.766792],[-74.059257,40.765892],[-74.058293,40.764351],[-74.058877,40.763338],[-74.057725,40.762784],[-74.057943,40.762675],[-74.059131,40.763091],[-74.062694,40.759289],[-74.06248,40.759014],[-74.061974,40.759012],[-74.061219,40.758515],[-74.060174,40.758237],[-74.060356,40.758018],[-74.061293,40.758241],[-74.061403,40.758022],[-74.061079,40.757856],[-74.062417,40.757504],[-74.0635,40.757536],[-74.063569,40.758058],[-74.06252,40.758383],[-74.063126,40.759483],[-74.062072,40.76066],[-74.063225,40.760911],[-74.063584,40.761297],[-74.065563,40.762292],[-74.067332,40.762189],[-74.067658,40.762081],[-74.067516,40.761723],[-74.067696,40.761724],[-74.067946,40.762207],[-74.06629,40.762818],[-74.065077,40.763703]]],[[[-74.054155,40.692004],[-74.05413,40.692004],[-74.054155,40.691963],[-74.054155,40.692004]]],[[[-74.054118,40.692086],[-74.054049,40.692141],[-74.054118,40.692024],[-74.054118,40.692086]]],[[[-74.054016,40.692196],[-74.054046,40.692146],[-74.054045,40.692196],[-74.054016,40.692196]]],[[[-74.054009,40.69225],[-74.053984,40.69225],[-74.054009,40.692207],[-74.054009,40.69225]]],[[[-74.053951,40.692305],[-74.053973,40.692269],[-74.053972,40.692305],[-74.053951,40.692305]]],[[[-74.053918,40.69236],[-74.053936,40.69233],[-74.053936,40.69236],[-74.053918,40.69236]]],[[[-74.053899,40.692442],[-74.053869,40.692442],[-74.0539,40.692391],[-74.053899,40.692442]]],[[[-74.053863,40.692452],[-74.053863,40.692497],[-74.053835,40.692497],[-74.053863,40.692452]]],[[[-74.053827,40.69251],[-74.053826,40.692552],[-74.0538,40.692552],[-74.053827,40.69251]]],[[[-74.05379,40.692606],[-74.053766,40.692606],[-74.05379,40.692568],[-74.05379,40.692606]]],[[[-74.053731,40.692661],[-74.053754,40.692625],[-74.053754,40.692661],[-74.053731,40.692661]]],[[[-74.053697,40.692716],[-74.053717,40.692683],[-74.053717,40.692716],[-74.053697,40.692716]]],[[[-74.053645,40.692798],[-74.053681,40.692741],[-74.053681,40.692798],[-74.053645,40.692798]]],[[[-74.053644,40.692799],[-74.053644,40.692853],[-74.05361,40.692853],[-74.053644,40.692799]]],[[[-74.053576,40.692908],[-74.053608,40.692856],[-74.053608,40.692908],[-74.053576,40.692908]]],[[[-74.053571,40.692962],[-74.053541,40.692962],[-74.053572,40.692914],[-74.053571,40.692962]]],[[[-74.053506,40.693017],[-74.053535,40.692972],[-74.053535,40.693017],[-74.053506,40.693017]]],[[[-74.053498,40.693072],[-74.053483,40.693055],[-74.053499,40.693029],[-74.053498,40.693072]]],[[[-74.053437,40.693127],[-74.053462,40.693087],[-74.053462,40.693127],[-74.053437,40.693127]]],[[[-74.053401,40.693181],[-74.053426,40.693143],[-74.053426,40.693182],[-74.053401,40.693181]]],[[[-74.053366,40.693236],[-74.053389,40.6932],[-74.053389,40.693236],[-74.053366,40.693236]]],[[[-74.053353,40.693291],[-74.053331,40.693291],[-74.053353,40.693257],[-74.053353,40.693291]]],[[[-74.053316,40.693314],[-74.053316,40.693346],[-74.053296,40.693346],[-74.053316,40.693314]]],[[[-74.05328,40.693371],[-74.05328,40.693401],[-74.053261,40.693401],[-74.05328,40.693371]]],[[[-74.053243,40.693455],[-74.053226,40.693455],[-74.053244,40.693427],[-74.053243,40.693455]]],[[[-74.053173,40.693537],[-74.053207,40.693484],[-74.053207,40.693538],[-74.053173,40.693537]]],[[[-74.053155,40.693565],[-74.053171,40.693541],[-74.053171,40.693565],[-74.053155,40.693565]]],[[[-74.053134,40.69362],[-74.053119,40.69362],[-74.053134,40.693598],[-74.053134,40.69362]]],[[[-74.053098,40.693651],[-74.053098,40.693674],[-74.053082,40.693674],[-74.053098,40.693651]]],[[[-74.053026,40.693756],[-74.053061,40.693704],[-74.053061,40.693757],[-74.053026,40.693756]]],[[[-74.053025,40.693784],[-74.053007,40.693784],[-74.053025,40.693757],[-74.053025,40.693784]]],[[[-74.052969,40.693839],[-74.052989,40.693811],[-74.052988,40.693839],[-74.052969,40.693839]]],[[[-74.052952,40.693921],[-74.052894,40.693948],[-74.052952,40.693864],[-74.052952,40.693921]]],[[[-74.052857,40.694003],[-74.052879,40.69397],[-74.052879,40.694003],[-74.052857,40.694003]]],[[[-74.05289,40.697709],[-74.052389,40.69724],[-74.053862,40.698042],[-74.053569,40.698645],[-74.053172,40.698753],[-74.053495,40.699056],[-74.052596,40.698613],[-74.052491,40.698092],[-74.052059,40.698035],[-74.052206,40.697624],[-74.05289,40.697709]],[[-74.05289,40.697709],[-74.052926,40.697736],[-74.052926,40.697709],[-74.05289,40.697709]]],[[[-74.054763,40.757749],[-74.054727,40.757749],[-74.054727,40.757722],[-74.054763,40.757722],[-74.054763,40.757749]]],[[[-74.054726,40.757777],[-74.05469,40.757804],[-74.05469,40.757777],[-74.054726,40.757777]]],[[[-74.05469,40.757859],[-74.054726,40.757832],[-74.054726,40.757886],[-74.05469,40.757859]]],[[[-74.054654,40.757859],[-74.054617,40.757886],[-74.054617,40.757859],[-74.054654,40.757859]]],[[[-74.054653,40.757886],[-74.054689,40.757914],[-74.054653,40.757914],[-74.054653,40.757886]]],[[[-74.054472,40.758023],[-74.054545,40.757941],[-74.054617,40.757968],[-74.054544,40.758105],[-74.054472,40.758023]],[[-74.054544,40.75805],[-74.054508,40.758023],[-74.054508,40.75805],[-74.054544,40.75805]]],[[[-74.054471,40.758133],[-74.054508,40.758105],[-74.054507,40.758133],[-74.054471,40.758133]]],[[[-74.054399,40.758105],[-74.054435,40.758132],[-74.054399,40.758132],[-74.054399,40.758105]]],[[[-74.054435,40.758132],[-74.054471,40.75816],[-74.054435,40.75816],[-74.054435,40.758132]]],[[[-74.054399,40.758187],[-74.054435,40.758215],[-74.054399,40.758215],[-74.054399,40.758187]]],[[[-74.054398,40.75827],[-74.054181,40.758351],[-74.054327,40.758159],[-74.054399,40.75816],[-74.054399,40.758187],[-74.054363,40.758187],[-74.054362,40.758214],[-74.054398,40.75827]],[[-74.054362,40.758269],[-74.054326,40.758242],[-74.054326,40.758269],[-74.054362,40.758269]]],[[[-74.054217,40.758406],[-74.054253,40.758434],[-74.054217,40.758434],[-74.054217,40.758406]]],[[[-74.054107,40.75857],[-74.054035,40.758598],[-74.054034,40.758735],[-74.053926,40.758734],[-74.054181,40.758406],[-74.054216,40.758488],[-74.054107,40.75857]],[[-74.054034,40.75868],[-74.053998,40.758652],[-74.053998,40.75868],[-74.054034,40.75868]],[[-74.05418,40.758488],[-74.054144,40.758461],[-74.054144,40.758488],[-74.05418,40.758488]],[[-74.054144,40.758543],[-74.054108,40.758515],[-74.054108,40.758543],[-74.054144,40.758543]]],[[[-74.054071,40.758598],[-74.054107,40.758625],[-74.054071,40.758625],[-74.054071,40.758598]]],[[[-74.053962,40.758734],[-74.053998,40.758762],[-74.053962,40.758762],[-74.053962,40.758734]]],[[[-74.052613,40.760678],[-74.053708,40.758981],[-74.053961,40.758789],[-74.052941,40.760295],[-74.05283,40.760624],[-74.053412,40.759968],[-74.053737,40.760024],[-74.052973,40.760789],[-74.052613,40.760678]]],[[[-74.053802,40.760985],[-74.053516,40.760627],[-74.053841,40.760601],[-74.055854,40.761953],[-74.053944,40.76137],[-74.053148,40.761614],[-74.0538,40.761287],[-74.053153,40.760982],[-74.053227,40.760681],[-74.055661,40.758412],[-74.053298,40.760791],[-74.053802,40.760985]],[[-74.053946,40.76104],[-74.053981,40.761233],[-74.054053,40.761233],[-74.053946,40.76104]]],[[[-74.052843,40.694023],[-74.052843,40.694058],[-74.052819,40.694058],[-74.052843,40.694023]]],[[[-74.052782,40.694112],[-74.052806,40.694077],[-74.052806,40.694112],[-74.052782,40.694112]]],[[[-74.05277,40.694167],[-74.052744,40.694167],[-74.05277,40.69413],[-74.05277,40.694167]]],[[[-74.052707,40.694222],[-74.052734,40.694183],[-74.052733,40.694222],[-74.052707,40.694222]]],[[[-74.052697,40.694277],[-74.052683,40.694257],[-74.052697,40.694236],[-74.052697,40.694277]]],[[[-74.05263,40.694331],[-74.052661,40.694288],[-74.052661,40.694331],[-74.05263,40.694331]]],[[[-74.052591,40.694386],[-74.052624,40.694339],[-74.052624,40.694386],[-74.052591,40.694386]]],[[[-74.052552,40.694441],[-74.052588,40.69439],[-74.052588,40.694441],[-74.052552,40.694441]]],[[[-74.052551,40.694496],[-74.052493,40.694523],[-74.052552,40.694441],[-74.052551,40.694496]]],[[[-74.052479,40.694544],[-74.052479,40.694578],[-74.052454,40.694578],[-74.052479,40.694544]]],[[[-74.052442,40.694595],[-74.052442,40.694633],[-74.052415,40.694632],[-74.052442,40.694595]]],[[[-74.052406,40.694687],[-74.052376,40.694687],[-74.052406,40.694646],[-74.052406,40.694687]]],[[[-74.052337,40.694742],[-74.05237,40.694697],[-74.052369,40.694742],[-74.052337,40.694742]]],[[[-74.052298,40.694797],[-74.052333,40.694748],[-74.052333,40.694797],[-74.052298,40.694797]]],[[[-74.05226,40.694851],[-74.052201,40.694934],[-74.052297,40.694799],[-74.05226,40.694851]]],[[[-74.052188,40.694953],[-74.052187,40.694988],[-74.052162,40.694988],[-74.052188,40.694953]]],[[[-74.052123,40.695043],[-74.052151,40.695004],[-74.052151,40.695043],[-74.052123,40.695043]]],[[[-74.052114,40.695098],[-74.052083,40.695098],[-74.052115,40.695055],[-74.052114,40.695098]]],[[[-74.052042,40.695153],[-74.05198,40.695235],[-74.052078,40.695104],[-74.052042,40.695153]]],[[[-74.051969,40.695249],[-74.051969,40.69529],[-74.051939,40.695289],[-74.051969,40.695249]]],[[[-74.051933,40.695297],[-74.051932,40.695344],[-74.051897,40.695344],[-74.051933,40.695297]]],[[[-74.051896,40.695399],[-74.051835,40.695426],[-74.051896,40.695345],[-74.051896,40.695399]]],[[[-74.051794,40.695481],[-74.051824,40.695442],[-74.051823,40.695481],[-74.051794,40.695481]]],[[[-74.051753,40.695536],[-74.051787,40.69549],[-74.051787,40.695536],[-74.051753,40.695536]]],[[[-74.051714,40.695591],[-74.05165,40.695673],[-74.051751,40.695539],[-74.051714,40.695591]]],[[[-74.051641,40.695727],[-74.051621,40.695711],[-74.051642,40.695683],[-74.051641,40.695727]]],[[[-74.051605,40.695782],[-74.051542,40.695809],[-74.051605,40.69573],[-74.051605,40.695782]]],[[[-74.051532,40.695864],[-74.051499,40.695864],[-74.051533,40.695822],[-74.051532,40.695864]]],[[[-74.05146,40.695919],[-74.05139,40.696001],[-74.051496,40.695867],[-74.05146,40.695919]]],[[[-74.056008,40.695388],[-74.05485,40.69596],[-74.055069,40.695466],[-74.054783,40.695191],[-74.054891,40.695136],[-74.055071,40.695247],[-74.055179,40.695192],[-74.054892,40.695081],[-74.05453,40.695162],[-74.052824,40.696775],[-74.051242,40.696055],[-74.051023,40.696439],[-74.048988,40.698819],[-74.046954,40.700842],[-74.045032,40.702372],[-74.045031,40.702537],[-74.044851,40.702509],[-74.043691,40.703355],[-74.043619,40.703355],[-74.04293,40.703846],[-74.042858,40.703846],[-74.042314,40.704228],[-74.041518,40.704637],[-74.041518,40.704664],[-74.041482,40.704664],[-74.041482,40.704691],[-74.041445,40.704691],[-74.041445,40.704719],[-74.041409,40.704718],[-74.041409,40.704746],[-74.041306,40.7048],[-74.041351,40.70469],[-74.044887,40.702454],[-74.04756,40.700159],[-74.05124,40.69601],[-74.051495,40.696056],[-74.051604,40.695947],[-74.054263,40.691977],[-74.055915,40.693026],[-74.055909,40.69396],[-74.057064,40.693772],[-74.057926,40.694269],[-74.057959,40.694764],[-74.057375,40.695859],[-74.056688,40.696049],[-74.056581,40.695856],[-74.056363,40.696185],[-74.056002,40.696184],[-74.055788,40.695826],[-74.056185,40.695855],[-74.05579,40.695579],[-74.056008,40.695388]],[[-74.055981,40.69396],[-74.056017,40.694015],[-74.056017,40.69396],[-74.055981,40.69396]],[[-74.056008,40.695388],[-74.056044,40.69536],[-74.056008,40.69536],[-74.056008,40.695388]],[[-74.056044,40.69536],[-74.056189,40.695251],[-74.056081,40.695251],[-74.056044,40.69536]]],[[[-74.0413,40.704828],[-74.041256,40.704828],[-74.0413,40.704804],[-74.0413,40.704828]]],[[[-74.041206,40.704855],[-74.041228,40.704843],[-74.041228,40.704855],[-74.041206,40.704855]]],[[[-74.041156,40.704882],[-74.041192,40.704863],[-74.041192,40.704882],[-74.041156,40.704882]]],[[[-74.041105,40.704909],[-74.041119,40.704902],[-74.041119,40.704909],[-74.041105,40.704909]]],[[[-74.041083,40.704937],[-74.041062,40.704933],[-74.041083,40.704921],[-74.041083,40.704937]]],[[[-74.041,40.704964],[-74.041011,40.704959],[-74.041011,40.704964],[-74.041,40.704964]]],[[[-74.040974,40.704991],[-74.040946,40.704991],[-74.040975,40.704977],[-74.040974,40.704991]]],[[[-74.040892,40.705018],[-74.040902,40.705013],[-74.040902,40.705018],[-74.040892,40.705018]]],[[[-74.040866,40.705032],[-74.040866,40.705046],[-74.040838,40.705046],[-74.040866,40.705032]]],[[[-74.040784,40.705073],[-74.040794,40.705068],[-74.040794,40.705073],[-74.040784,40.705073]]],[[[-74.04073,40.7051],[-74.040757,40.705086],[-74.040757,40.7051],[-74.04073,40.7051]]],[[[-74.040676,40.705127],[-74.040721,40.705104],[-74.040721,40.705127],[-74.040676,40.705127]]],[[[-74.040649,40.705155],[-74.040622,40.705155],[-74.040649,40.705141],[-74.040649,40.705155]]],[[[-74.040612,40.705182],[-74.040595,40.705168],[-74.040613,40.705159],[-74.040612,40.705182]]],[[[-74.04054,40.705195],[-74.04054,40.705209],[-74.04051,40.705209],[-74.04054,40.705195]]],[[[-74.040468,40.705236],[-74.040454,40.705236],[-74.040468,40.70523],[-74.040468,40.705236]]],[[[-74.040398,40.705263],[-74.040432,40.705247],[-74.040432,40.705264],[-74.040398,40.705263]]],[[[-74.040341,40.705291],[-74.040359,40.705282],[-74.040359,40.705291],[-74.040341,40.705291]]],[[[-74.040285,40.705318],[-74.040323,40.7053],[-74.040323,40.705318],[-74.040285,40.705318]]],[[[-74.040251,40.705335],[-74.040251,40.705345],[-74.040229,40.705345],[-74.040251,40.705335]]],[[[-74.041145,40.706474],[-74.038694,40.706108],[-74.041408,40.704828],[-74.042596,40.70519],[-74.043314,40.705769],[-74.042949,40.706399],[-74.041145,40.706474]]],[[[-74.039304,40.710355],[-74.038623,40.710148],[-74.03854,40.709625],[-74.038164,40.709567],[-74.037985,40.709385],[-74.034716,40.709167],[-74.034344,40.70887],[-74.034282,40.708769],[-74.034288,40.708557],[-74.034501,40.707679],[-74.034081,40.707627],[-74.034058,40.707141],[-74.034162,40.706652],[-74.034692,40.706696],[-74.034873,40.705751],[-74.035315,40.705738],[-74.038586,40.706082],[-74.038586,40.706135],[-74.034873,40.705845],[-74.034312,40.70867],[-74.034705,40.709139],[-74.037987,40.709344],[-74.038562,40.709593],[-74.038703,40.710143],[-74.039279,40.710227],[-74.039351,40.71031],[-74.039753,40.709571],[-74.05125,40.710988],[-74.051248,40.7114],[-74.050778,40.711535],[-74.051496,40.712005],[-74.051642,40.711786],[-74.052614,40.712009],[-74.053619,40.712754],[-74.053402,40.712863],[-74.05254,40.712393],[-74.051277,40.712333],[-74.050882,40.712112],[-74.042302,40.711337],[-74.042585,40.712052],[-74.043343,40.71211],[-74.043044,40.713564],[-74.042682,40.7137],[-74.041926,40.713532],[-74.041929,40.71312],[-74.041676,40.713092],[-74.041863,40.712187],[-74.041536,40.71246],[-74.04096,40.71232],[-74.041075,40.711305],[-74.041364,40.711334],[-74.041365,40.711169],[-74.039779,40.710971],[-74.039526,40.711107],[-74.038098,40.711101],[-74.0395,40.711082],[-74.039514,40.71038],[-74.039304,40.710355]]],[[[-74.040173,40.705372],[-74.040215,40.705352],[-74.040214,40.705372],[-74.040173,40.705372]]],[[[-74.040115,40.7054],[-74.040142,40.705387],[-74.040142,40.7054],[-74.040115,40.7054]]],[[[-74.04007,40.705421],[-74.04007,40.705427],[-74.040057,40.705427],[-74.04007,40.705421]]],[[[-74.039999,40.705454],[-74.040034,40.705438],[-74.040033,40.705454],[-74.039999,40.705454]]],[[[-74.039961,40.705481],[-74.039941,40.705481],[-74.039961,40.705472],[-74.039961,40.705481]]],[[[-74.039883,40.705508],[-74.039925,40.705489],[-74.039925,40.705509],[-74.039883,40.705508]]],[[[-74.039853,40.705522],[-74.039853,40.705536],[-74.039824,40.705536],[-74.039853,40.705522]]],[[[-74.039766,40.705563],[-74.03978,40.705556],[-74.03978,40.705563],[-74.039766,40.705563]]],[[[-74.039708,40.70559],[-74.039744,40.705573],[-74.039744,40.70559],[-74.039708,40.70559]]],[[[-74.039649,40.705617],[-74.039672,40.705607],[-74.039672,40.705617],[-74.039649,40.705617]]],[[[-74.039635,40.705645],[-74.039589,40.705644],[-74.039636,40.705623],[-74.039635,40.705645]]],[[[-74.039563,40.705656],[-74.039563,40.705672],[-74.03953,40.705672],[-74.039563,40.705656]]],[[[-74.03947,40.705699],[-74.039491,40.705689],[-74.039491,40.705699],[-74.03947,40.705699]]],[[[-74.039454,40.705726],[-74.03941,40.705726],[-74.039455,40.705706],[-74.039454,40.705726]]],[[[-74.03935,40.705753],[-74.039382,40.705739],[-74.039382,40.705753],[-74.03935,40.705753]]],[[[-74.039289,40.705781],[-74.03931,40.705771],[-74.03931,40.705781],[-74.039289,40.705781]]],[[[-74.039274,40.705808],[-74.039227,40.705808],[-74.039274,40.705787],[-74.039274,40.705808]]],[[[-74.039165,40.705835],[-74.039201,40.705819],[-74.039201,40.705835],[-74.039165,40.705835]]],[[[-74.039103,40.705862],[-74.039129,40.705851],[-74.039129,40.705862],[-74.039103,40.705862]]],[[[-74.039057,40.705889],[-74.039041,40.705889],[-74.039057,40.705882],[-74.039057,40.705889]]],[[[-74.03902,40.705898],[-74.03902,40.705917],[-74.038979,40.705917],[-74.03902,40.705898]]],[[[-74.038948,40.705929],[-74.038948,40.705944],[-74.038913,40.705944],[-74.038948,40.705929]]],[[[-74.038876,40.705971],[-74.038846,40.705971],[-74.038876,40.705959],[-74.038876,40.705971]]],[[[-74.038779,40.705998],[-74.038803,40.705988],[-74.038803,40.705998],[-74.038779,40.705998]]],[[[-74.038712,40.706025],[-74.038731,40.706018],[-74.038731,40.706025],[-74.038712,40.706025]]],[[[-74.038651,40.706052],[-74.038695,40.706032],[-74.038695,40.706053],[-74.038651,40.706052]]],[[[-74.038622,40.706065],[-74.038622,40.70608],[-74.038591,40.70608],[-74.038622,40.706065]]],[[[-74.038082,40.711129],[-74.038007,40.711122],[-74.038083,40.711104],[-74.038082,40.711129]]],[[[-74.037974,40.711156],[-74.037944,40.711155],[-74.037974,40.711139],[-74.037974,40.711156]]],[[[-74.037938,40.711183],[-74.0379,40.711183],[-74.037938,40.711159],[-74.037938,40.711183]]],[[[-74.037866,40.711206],[-74.037865,40.71121],[-74.03786,40.71121],[-74.037866,40.711206]]],[[[-74.03782,40.711237],[-74.037829,40.711231],[-74.037829,40.711237],[-74.03782,40.711237]]],[[[-74.03778,40.711265],[-74.037793,40.711256],[-74.037793,40.711265],[-74.03778,40.711265]]],[[[-74.037748,40.711292],[-74.037757,40.711283],[-74.037757,40.711292],[-74.037748,40.711292]]],[[[-74.03772,40.711347],[-74.037703,40.711347],[-74.03772,40.711321],[-74.03772,40.711347]]],[[[-74.037684,40.711373],[-74.037684,40.711374],[-74.037683,40.711374],[-74.037684,40.711373]]],[[[-74.037575,40.711469],[-74.037575,40.711483],[-74.037558,40.711483],[-74.037575,40.711469]]],[[[-74.036515,40.711616],[-74.036311,40.711616],[-74.036131,40.71156],[-74.036515,40.711616]]],[[[-74.036564,40.711644],[-74.036564,40.711622],[-74.036821,40.711645],[-74.036564,40.711644]]],[[[-74.03722,40.711647],[-74.037285,40.711633],[-74.037285,40.711647],[-74.03722,40.711647]]],[[[-74.036888,40.711673],[-74.037213,40.711648],[-74.037213,40.711674],[-74.036888,40.711673]]],[[[-74.035356,40.711432],[-74.035475,40.711407],[-74.035633,40.711421],[-74.036128,40.71156],[-74.035447,40.71142],[-74.035409,40.711722],[-74.038148,40.712035],[-74.038145,40.712501],[-74.034937,40.712214],[-74.03472,40.712158],[-74.034759,40.711801],[-74.034254,40.711744],[-74.034832,40.711793],[-74.035356,40.711432]]],[[[-74.033228,40.714019],[-74.033269,40.713388],[-74.033885,40.713033],[-74.034495,40.713475],[-74.034274,40.714105],[-74.034059,40.71383],[-74.033986,40.714077],[-74.033228,40.714019]]],[[[-74.031155,40.730102],[-74.031232,40.729473],[-74.027341,40.729073],[-74.030966,40.729341],[-74.031006,40.728998],[-74.026548,40.728601],[-74.026604,40.72819],[-74.031034,40.728575],[-74.031086,40.728036],[-74.027374,40.727716],[-74.027376,40.727515],[-74.030342,40.727781],[-74.030405,40.727036],[-74.030021,40.726476],[-74.03016,40.726236],[-74.030287,40.726135],[-74.032455,40.726062],[-74.034452,40.726238],[-74.034525,40.725771],[-74.032064,40.725559],[-74.03211,40.725235],[-74.033782,40.725386],[-74.033765,40.725532],[-74.034559,40.725585],[-74.034614,40.725286],[-74.033817,40.725209],[-74.03384,40.725007],[-74.02978,40.724657],[-74.029497,40.724607],[-74.029447,40.724567],[-74.029536,40.723854],[-74.029605,40.723812],[-74.033812,40.724127],[-74.033883,40.724023],[-74.033838,40.723809],[-74.033893,40.723483],[-74.033968,40.723486],[-74.034032,40.723033],[-74.03398,40.722865],[-74.03423,40.722142],[-74.031422,40.721896],[-74.031438,40.721706],[-74.031522,40.721173],[-74.031354,40.721164],[-74.031327,40.720875],[-74.03133,40.720629],[-74.031398,40.720412],[-74.031476,40.720258],[-74.031741,40.720177],[-74.032375,40.720226],[-74.032552,40.720129],[-74.032062,40.719669],[-74.029283,40.719364],[-74.029258,40.719333],[-74.029349,40.718935],[-74.029375,40.718921],[-74.032487,40.719279],[-74.032469,40.718886],[-74.032825,40.717531],[-74.03275,40.717386],[-74.02993,40.717066],[-74.029999,40.716713],[-74.032075,40.716919],[-74.032169,40.71639],[-74.031289,40.716292],[-74.0315,40.715724],[-74.031699,40.716164],[-74.032624,40.716228],[-74.03315,40.714155],[-74.032975,40.714108],[-74.032956,40.714046],[-74.032997,40.713831],[-74.031663,40.713565],[-74.03302,40.713729],[-74.033104,40.713206],[-74.033197,40.71299],[-74.03325,40.712592],[-74.033428,40.712527],[-74.033439,40.71215],[-74.033733,40.711677],[-74.033954,40.711677],[-74.034201,40.711717],[-74.033785,40.71177],[-74.033491,40.712647],[-74.033274,40.712646],[-74.032976,40.714045],[-74.033192,40.714128],[-74.033189,40.714485],[-74.032635,40.716295],[-74.032238,40.716348],[-74.03209,40.716951],[-74.029998,40.716751],[-74.029961,40.716943],[-74.031583,40.717224],[-74.032449,40.717145],[-74.032808,40.717366],[-74.032843,40.717476],[-74.032842,40.71775],[-74.032654,40.71871],[-74.032509,40.718874],[-74.032542,40.719286],[-74.02955,40.718972],[-74.029295,40.719246],[-74.031386,40.719584],[-74.031639,40.719447],[-74.032143,40.719642],[-74.032573,40.720083],[-74.032572,40.720192],[-74.032391,40.720274],[-74.031706,40.720216],[-74.031416,40.720407],[-74.031375,40.721148],[-74.031555,40.721149],[-74.031442,40.721862],[-74.034254,40.722093],[-74.033879,40.724178],[-74.029587,40.723886],[-74.029546,40.7246],[-74.033838,40.724946],[-74.033944,40.725194],[-74.034629,40.725251],[-74.034591,40.725636],[-74.032103,40.725351],[-74.03221,40.725516],[-74.034554,40.72569],[-74.034552,40.72602],[-74.034478,40.726294],[-74.034405,40.726321],[-74.031989,40.726119],[-74.030111,40.726359],[-74.030432,40.726991],[-74.03039,40.727787],[-74.029415,40.727838],[-74.031146,40.72801],[-74.030992,40.729409],[-74.031244,40.729465],[-74.031166,40.730261],[-74.030376,40.729791],[-74.029907,40.729762],[-74.029907,40.729789],[-74.030949,40.730315],[-74.03138,40.730619],[-74.031343,40.730756],[-74.029758,40.729759],[-74.030478,40.729769],[-74.031155,40.730102]]],[[[-74.030875,40.730644],[-74.030875,40.730631],[-74.030924,40.730644],[-74.030875,40.730644]]],[[[-74.028928,40.730444],[-74.02731,40.729669],[-74.028172,40.730166],[-74.028022,40.730962],[-74.031015,40.731248],[-74.030676,40.733251],[-74.030967,40.731276],[-74.027997,40.731011],[-74.028094,40.730228],[-74.026853,40.729505],[-74.027419,40.729492],[-74.029127,40.730468],[-74.030823,40.730616],[-74.029432,40.730556],[-74.028928,40.730444]]],[[[-74.030638,40.733498],[-74.030621,40.733358],[-74.03064,40.73331],[-74.030638,40.733498]]],[[[-74.030586,40.733635],[-74.030602,40.733557],[-74.030601,40.733635],[-74.030586,40.733635]]],[[[-74.030817,40.733718],[-74.030711,40.733498],[-74.03154,40.733556],[-74.031432,40.733611],[-74.030817,40.733718]]],[[[-74.030168,40.733702],[-74.030204,40.733716],[-74.030168,40.733715],[-74.030168,40.733702]]],[[[-74.037092,40.73432],[-74.034387,40.734062],[-74.031142,40.733774],[-74.032009,40.733586],[-74.035291,40.733873],[-74.037058,40.734045],[-74.037092,40.73432]]],[[[-74.037309,40.734293],[-74.037236,40.73432],[-74.037237,40.734293],[-74.037309,40.734293]]]]}}]}