{"type":"FeatureCollection","features":[{"type":"Feature","properties":{"level_ft":16},"geometry":{"type":"MultiPolygon","coordinates":[[[[-74.097245,40.68099],[-74.097209,40.680962],[-74.097245,40.680963],[-74.097245,40.68099]]],[[[-74.098837,40.682588],[-74.098096,40.683326],[-74.098168,40.683409],[-74.09806,40.683436],[-74.098095,40.683464],[-74.098095,40.683491],[-74.098059,40.683491],[-74.098059,40.683518],[-74.098095,40.683546],[-74.097987,40.683573],[-74.097914,40.683683],[-74.097734,40.683682],[-74.097189,40.684284],[-74.097042,40.684668],[-74.096646,40.684666],[-74.098716,40.682262],[-74.098837,40.682588]]],[[[-74.098131,40.683519],[-74.098095,40.683491],[-74.098131,40.683491],[-74.098131,40.683519]]],[[[-74.098167,40.683574],[-74.098131,40.683546],[-74.098167,40.683546],[-74.098167,40.683574]]],[[[-74.098022,40.683601],[-74.098059,40.683573],[-74.098059,40.683601],[-74.098022,40.683601]]],[[[-74.09712,40.683844],[-74.097155,40.683872],[-74.097119,40.683872],[-74.09712,40.683844]]],[[[-74.08702,40.684275],[-74.086984,40.684303],[-74.086984,40.684275],[-74.08702,40.684275]]],[[[-74.087128,40.684331],[-74.087092,40.684358],[-74.087092,40.684331],[-74.087128,40.684331]]],[[[-74.0872,40.684386],[-74.087164,40.684358],[-74.0872,40.684358],[-74.0872,40.684386]]],[[[-74.098457,40.683218],[-74.098878,40.682698],[-74.099973,40.686188],[-74.099049,40.686843],[-74.098797,40.686705],[-74.09898,40.686239],[-74.098476,40.686182],[-74.097867,40.685467],[-74.098159,40.684809],[-74.09798,40.684698],[-74.098561,40.684014],[-74.09838,40.684068],[-74.098383,40.683657],[-74.098707,40.683658],[-74.098889,40.683384],[-74.098457,40.683218]],[[-74.098854,40.683247],[-74.09889,40.683219],[-74.098854,40.683219],[-74.098854,40.683247]],[[-74.09889,40.683219],[-74.098927,40.683165],[-74.098891,40.683164],[-74.09889,40.683219]],[[-74.098927,40.683165],[-74.098963,40.683137],[-74.098927,40.683137],[-74.098927,40.683165]],[[-74.098963,40.683137],[-74.098999,40.68311],[-74.098963,40.68311],[-74.098963,40.683137]]],[[[-74.096356,40.684857],[-74.09632,40.68483],[-74.096356,40.68483],[-74.096356,40.684857]]],[[[-74.088135,40.684828],[-74.088099,40.684801],[-74.088135,40.684801],[-74.088135,40.684828]]],[[[-74.096354,40.685187],[-74.096427,40.685105],[-74.096426,40.685187],[-74.096354,40.685187]]],[[[-74.096282,40.685187],[-74.09621,40.685214],[-74.09621,40.685186],[-74.096282,40.685187]]],[[[-74.096354,40.685187],[-74.096282,40.685269],[-74.096318,40.685187],[-74.096354,40.685187]]],[[[-74.096209,40.685269],[-74.096174,40.685241],[-74.09621,40.685241],[-74.096209,40.685269]]],[[[-74.096136,40.685433],[-74.096209,40.685296],[-74.096282,40.685269],[-74.096136,40.685433]]],[[[-74.089213,40.685381],[-74.089286,40.685327],[-74.089357,40.685382],[-74.089213,40.685381]]],[[[-74.095993,40.685268],[-74.095522,40.685678],[-74.095958,40.685185],[-74.095993,40.685268]]],[[[-74.089357,40.685409],[-74.089393,40.685382],[-74.089393,40.685409],[-74.089357,40.685409]]],[[[-74.096136,40.685516],[-74.095738,40.685706],[-74.096173,40.685269],[-74.096064,40.685405],[-74.096136,40.685516]],[[-74.096064,40.68546],[-74.096028,40.685488],[-74.096064,40.685488],[-74.096064,40.68546]],[[-74.096028,40.685488],[-74.095992,40.685515],[-74.096028,40.685515],[-74.096028,40.685488]]],[[[-74.089212,40.685628],[-74.089248,40.685601],[-74.089248,40.685628],[-74.089212,40.685628]]],[[[-74.095737,40.685844],[-74.096062,40.68579],[-74.096062,40.685872],[-74.095737,40.685844]]],[[[-74.095483,40.686172],[-74.095916,40.686119],[-74.095916,40.686174],[-74.095483,40.686172]]],[[[-74.088233,40.686476],[-74.088269,40.686448],[-74.088269,40.686476],[-74.088233,40.686476]]],[[[-74.088124,40.68653],[-74.08816,40.686503],[-74.08816,40.68653],[-74.088124,40.68653]]],[[[-74.098725,40.68676],[-74.098869,40.686815],[-74.098868,40.68687],[-74.098724,40.686815],[-74.098725,40.68676]]],[[[-74.089671,40.68714],[-74.08978,40.686948],[-74.090214,40.686867],[-74.090141,40.686977],[-74.089671,40.68714]]],[[[-74.087931,40.688671],[-74.090609,40.687116],[-74.090318,40.687526],[-74.087931,40.688671]]],[[[-74.086951,40.68971],[-74.086915,40.689683],[-74.086951,40.689683],[-74.086951,40.68971]]],[[[-74.086332,40.690641],[-74.087023,40.689683],[-74.08767,40.68996],[-74.087307,40.69048],[-74.086332,40.690641]]],[[[-74.086317,40.693057],[-74.086426,40.692865],[-74.087223,40.692347],[-74.086317,40.693057]]],[[[-74.086823,40.692867],[-74.086859,40.692894],[-74.086823,40.692894],[-74.086823,40.692867]]],[[[-74.086787,40.692894],[-74.086823,40.692922],[-74.086787,40.692921],[-74.086787,40.692894]]],[[[-74.086751,40.692921],[-74.086786,40.692949],[-74.08675,40.692949],[-74.086751,40.692921]]],[[[-74.086714,40.692976],[-74.08675,40.692949],[-74.08675,40.692976],[-74.086714,40.692976]]],[[[-74.086678,40.692976],[-74.086714,40.693004],[-74.086678,40.693003],[-74.086678,40.692976]]],[[[-74.086642,40.693003],[-74.086678,40.693031],[-74.086642,40.693031],[-74.086642,40.693003]]],[[[-74.086641,40.693086],[-74.086606,40.693031],[-74.086642,40.693031],[-74.086641,40.693086]]],[[[-74.086461,40.69314],[-74.086533,40.693168],[-74.08646,40.693167],[-74.086461,40.69314]]],[[[-74.086424,40.693167],[-74.08646,40.693195],[-74.086424,40.693195],[-74.086424,40.693167]]],[[[-74.086316,40.693249],[-74.086424,40.693195],[-74.086316,40.693277],[-74.086316,40.693249]]],[[[-74.094846,40.725835],[-74.096248,40.726636],[-74.098962,40.727552],[-74.097897,40.73072],[-74.095303,40.735005],[-74.090421,40.735455],[-74.08898,40.73501],[-74.088507,40.73575],[-74.086701,40.73599],[-74.08346,40.734798],[-74.085905,40.736207],[-74.075789,40.738119],[-74.072978,40.737395],[-74.073232,40.737287],[-74.07309,40.736874],[-74.073417,40.736464],[-74.075009,40.735948],[-74.075332,40.736114],[-74.075877,40.735622],[-74.076462,40.734389],[-74.075814,40.734084],[-74.076141,40.733729],[-74.075243,40.733204],[-74.075825,40.732355],[-74.076655,40.732358],[-74.076905,40.732826],[-74.077519,40.732718],[-74.077879,40.732884],[-74.077805,40.733158],[-74.07896,40.733163],[-74.078925,40.732888],[-74.07958,40.732012],[-74.080231,40.731795],[-74.080742,40.730891],[-74.08078,40.730534],[-74.080025,40.730202],[-74.080825,40.729271],[-74.080541,40.728502],[-74.080939,40.728311],[-74.082416,40.728646],[-74.083285,40.72821],[-74.082783,40.727604],[-74.081917,40.727656],[-74.081994,40.726915],[-74.081245,40.725567],[-74.082005,40.725131],[-74.082265,40.723979],[-74.083136,40.723076],[-74.084109,40.723272],[-74.084978,40.722918],[-74.084727,40.72256],[-74.083967,40.722887],[-74.084224,40.722284],[-74.083684,40.722008],[-74.084156,40.721625],[-74.083724,40.721404],[-74.083943,40.720993],[-74.084954,40.720914],[-74.084991,40.720667],[-74.085533,40.720614],[-74.085032,40.719981],[-74.085934,40.719929],[-74.0859,40.719627],[-74.086805,40.719164],[-74.086699,40.718807],[-74.087023,40.718835],[-74.086953,40.718451],[-74.087675,40.718398],[-74.088215,40.718647],[-74.088397,40.718319],[-74.088721,40.71843],[-74.089014,40.717827],[-74.089375,40.717801],[-74.089126,40.717141],[-74.089813,40.716979],[-74.089275,40.716373],[-74.089853,40.716347],[-74.089528,40.716291],[-74.089531,40.715907],[-74.088778,40.715163],[-74.090218,40.71558],[-74.090868,40.715418],[-74.090403,40.714812],[-74.090043,40.714756],[-74.089794,40.714069],[-74.090373,40.713906],[-74.09016,40.713356],[-74.090846,40.713194],[-74.09092,40.71281],[-74.09139,40.712784],[-74.091355,40.71262],[-74.091066,40.712646],[-74.090887,40.712371],[-74.091541,40.711632],[-74.091544,40.711193],[-74.090929,40.711438],[-74.091149,40.710917],[-74.090898,40.710559],[-74.091764,40.710507],[-74.091839,40.710096],[-74.092452,40.710043],[-74.093142,40.709414],[-74.092856,40.708919],[-74.092966,40.708672],[-74.093327,40.708619],[-74.092897,40.708178],[-74.093114,40.708069],[-74.092899,40.707739],[-74.093405,40.707631],[-74.093372,40.707164],[-74.094459,40.706317],[-74.094855,40.706483],[-74.094965,40.706209],[-74.094571,40.705768],[-74.094967,40.70577],[-74.094897,40.70544],[-74.095405,40.705003],[-74.095553,40.704344],[-74.096168,40.704099],[-74.095845,40.703824],[-74.096567,40.703662],[-74.096644,40.702893],[-74.097078,40.702675],[-74.097191,40.701989],[-74.098168,40.701471],[-74.098206,40.701032],[-74.098567,40.701033],[-74.099075,40.700486],[-74.098865,40.699497],[-74.099082,40.699333],[-74.09955,40.699445],[-74.099444,40.699087],[-74.100025,40.698431],[-74.100494,40.69846],[-74.100568,40.698103],[-74.10028,40.698047],[-74.10021,40.697663],[-74.100462,40.697718],[-74.100572,40.697444],[-74.101004,40.697528],[-74.100898,40.697198],[-74.101222,40.697254],[-74.101044,40.69687],[-74.101477,40.696844],[-74.101407,40.696569],[-74.101696,40.696433],[-74.101481,40.696267],[-74.101879,40.696076],[-74.101488,40.695142],[-74.101599,40.694648],[-74.101887,40.694622],[-74.101601,40.694319],[-74.10189,40.694237],[-74.102456,40.694596],[-74.102852,40.695432],[-74.114232,40.700952],[-74.114309,40.704609],[-74.116408,40.709735],[-74.113869,40.712314],[-74.110167,40.715375],[-74.10747,40.717075],[-74.102976,40.71933],[-74.10177,40.720231],[-74.100089,40.722867],[-74.099011,40.727277],[-74.097078,40.726667],[-74.094991,40.725671],[-74.094846,40.72578],[-74.094846,40.725835]],[[-74.079033,40.733026],[-74.079069,40.732998],[-74.079033,40.732998],[-74.079033,40.733026]],[[-74.086842,40.719027],[-74.086878,40.719],[-74.086842,40.718999],[-74.086842,40.719027]],[[-74.086878,40.719],[-74.086914,40.718945],[-74.086878,40.718945],[-74.086878,40.719]],[[-74.090995,40.712481],[-74.091031,40.712454],[-74.090995,40.712454],[-74.090995,40.712481]],[[-74.094919,40.725698],[-74.094883,40.725671],[-74.094883,40.725698],[-74.094919,40.725698]]],[[[-74.094882,40.725808],[-74.094918,40.725781],[-74.094918,40.725808],[-74.094882,40.725808]]],[[[-74.088758,40.735943],[-74.088578,40.73586],[-74.088759,40.735833],[-74.088758,40.735943]]],[[[-74.087602,40.736186],[-74.087277,40.736102],[-74.087602,40.736076],[-74.087602,40.736186]]],[[[-74.08184,40.682363],[-74.081804,40.682335],[-74.08184,40.682335],[-74.08184,40.682363]]],[[[-74.082919,40.682751],[-74.082883,40.682723],[-74.082919,40.682723],[-74.082919,40.682751]]],[[[-74.083279,40.682889],[-74.083243,40.682862],[-74.083279,40.682862],[-74.083279,40.682889]]],[[[-74.083387,40.682917],[-74.083351,40.68289],[-74.083387,40.68289],[-74.083387,40.682917]]],[[[-74.083243,40.682889],[-74.083206,40.682917],[-74.083207,40.682889],[-74.083243,40.682889]]],[[[-74.083459,40.682945],[-74.083423,40.682917],[-74.083459,40.682918],[-74.083459,40.682945]]],[[[-74.083531,40.682973],[-74.083495,40.682945],[-74.083531,40.682945],[-74.083531,40.682973]]],[[[-74.083603,40.683],[-74.083567,40.682973],[-74.083603,40.682973],[-74.083603,40.683]]],[[[-74.083926,40.683111],[-74.083891,40.683084],[-74.083927,40.683084],[-74.083926,40.683111]]],[[[-74.083998,40.683139],[-74.083962,40.683112],[-74.083999,40.683112],[-74.083998,40.683139]]],[[[-74.084142,40.683195],[-74.084106,40.683167],[-74.084142,40.683167],[-74.084142,40.683195]]],[[[-74.084286,40.683223],[-74.08425,40.68325],[-74.08425,40.683222],[-74.084286,40.683223]]],[[[-74.08425,40.683277],[-74.084214,40.68325],[-74.08425,40.68325],[-74.08425,40.683277]]],[[[-74.085294,40.68361],[-74.085258,40.683583],[-74.085294,40.683583],[-74.085294,40.68361]]],[[[-74.085509,40.683694],[-74.085474,40.683666],[-74.08551,40.683666],[-74.085509,40.683694]]],[[[-74.085581,40.683721],[-74.085545,40.683694],[-74.085582,40.683694],[-74.085581,40.683721]]],[[[-74.085653,40.683749],[-74.085617,40.683721],[-74.085653,40.683722],[-74.085653,40.683749]]],[[[-74.085427,40.691132],[-74.085391,40.691105],[-74.085427,40.691105],[-74.085427,40.691132]]],[[[-74.085173,40.691488],[-74.085244,40.691543],[-74.085172,40.691543],[-74.085173,40.691488]]],[[[-74.085063,40.691653],[-74.085136,40.69157],[-74.085136,40.691653],[-74.085063,40.691653]]],[[[-74.084955,40.691707],[-74.085063,40.691735],[-74.084955,40.691762],[-74.084955,40.691707]]],[[[-74.084846,40.691816],[-74.084918,40.691872],[-74.084846,40.691871],[-74.084846,40.691816]]],[[[-74.086207,40.693331],[-74.086279,40.693304],[-74.086207,40.693359],[-74.086207,40.693331]]],[[[-74.086063,40.693358],[-74.086026,40.693385],[-74.086027,40.693358],[-74.086063,40.693358]]],[[[-74.085954,40.693467],[-74.085917,40.693495],[-74.085918,40.693467],[-74.085954,40.693467]]],[[[-74.085845,40.693522],[-74.085881,40.69355],[-74.085845,40.693549],[-74.085845,40.693522]]],[[[-74.085845,40.693577],[-74.085773,40.693522],[-74.085809,40.693522],[-74.085845,40.693577]]],[[[-74.083814,40.695354],[-74.08385,40.695327],[-74.08385,40.695354],[-74.083814,40.695354]]],[[[-74.082727,40.696256],[-74.082691,40.696228],[-74.082727,40.696228],[-74.082727,40.696256]]],[[[-74.083571,40.740234],[-74.076185,40.738176],[-74.086121,40.736318],[-74.08756,40.737037],[-74.088968,40.736987],[-74.090671,40.73595],[-74.090492,40.735565],[-74.095174,40.73517],[-74.093398,40.737015],[-74.090175,40.738579],[-74.08703,40.739535],[-74.083571,40.740234]]],[[[-74.074202,40.737894],[-74.07413,40.737894],[-74.07413,40.737866],[-74.074202,40.737867],[-74.074202,40.737894]]],[[[-74.074274,40.737922],[-74.074202,40.737894],[-74.074274,40.737894],[-74.074274,40.737922]]],[[[-74.072974,40.738109],[-74.07229,40.737887],[-74.072328,40.73753],[-74.074814,40.738253],[-74.07326,40.738549],[-74.072974,40.738109]]],[[[-74.079534,40.739314],[-74.079535,40.739204],[-74.079643,40.739259],[-74.079534,40.739314]]],[[[-74.080184,40.739371],[-74.079679,40.739341],[-74.079643,40.739259],[-74.080184,40.739371]]],[[[-74.080722,40.739867],[-74.080686,40.739894],[-74.080686,40.739867],[-74.080722,40.739867]]],[[[-74.080794,40.739895],[-74.080758,40.739922],[-74.080758,40.739894],[-74.080794,40.739895]]],[[[-74.080866,40.739922],[-74.080794,40.739949],[-74.080794,40.739922],[-74.080866,40.739922]]],[[[-74.080902,40.73995],[-74.080866,40.739977],[-74.080866,40.73995],[-74.080902,40.73995]]],[[[-74.08101,40.740005],[-74.080973,40.740032],[-74.080974,40.740005],[-74.08101,40.740005]]],[[[-74.082305,40.74067],[-74.080183,40.739508],[-74.080183,40.739453],[-74.083641,40.740344],[-74.082305,40.74067]]],[[[-74.081081,40.740088],[-74.081045,40.74006],[-74.081082,40.74006],[-74.081081,40.740088]]],[[[-74.075557,40.740452],[-74.075521,40.740479],[-74.075521,40.740452],[-74.075557,40.740452]]],[[[-74.075593,40.740479],[-74.075557,40.740507],[-74.075557,40.740479],[-74.075593,40.740479]]],[[[-74.075521,40.740479],[-74.075485,40.740507],[-74.075485,40.740479],[-74.075521,40.740479]]],[[[-74.075485,40.740534],[-74.07552,40.740644],[-74.07523,40.740808],[-74.074508,40.740887],[-74.073536,40.740472],[-74.074327,40.740969],[-74.075519,40.740781],[-74.076174,40.740042],[-74.076034,40.739218],[-74.075888,40.73952],[-74.074917,40.73905],[-74.072788,40.738987],[-74.072753,40.738795],[-74.075462,40.738365],[-74.076435,40.738671],[-74.076793,40.739056],[-74.080073,40.73981],[-74.081865,40.740777],[-74.07943,40.741797],[-74.077094,40.743148],[-74.070857,40.74178],[-74.070424,40.74186],[-74.071153,40.74071],[-74.071587,40.740492],[-74.071408,40.740244],[-74.071629,40.739559],[-74.075095,40.739407],[-74.075705,40.739876],[-74.075413,40.740479],[-74.075485,40.740534]],[[-74.071588,40.740355],[-74.071624,40.740382],[-74.071661,40.740328],[-74.071588,40.740355]]],[[[-74.069286,40.700049],[-74.070589,40.699313],[-74.072215,40.69888],[-74.072214,40.699045],[-74.070045,40.699805],[-74.069573,40.700215],[-74.069286,40.700049]]],[[[-74.068189,40.702269],[-74.068772,40.701338],[-74.069311,40.701669],[-74.069273,40.701998],[-74.068549,40.702407],[-74.068189,40.702269]]],[[[-74.07286,40.739069],[-74.073906,40.739073],[-74.073039,40.739207],[-74.07286,40.739069]]],[[[-74.06848,40.741084],[-74.068443,40.741139],[-74.068444,40.741084],[-74.06848,40.741084]]],[[[-74.068407,40.741139],[-74.068443,40.741194],[-74.068407,40.741194],[-74.068407,40.741139]]],[[[-74.06837,40.741359],[-74.068045,40.74133],[-74.068264,40.740946],[-74.068225,40.741331],[-74.068407,40.741194],[-74.06837,40.741359]]],[[[-74.068116,40.74155],[-74.068078,40.741879],[-74.067459,40.74259],[-74.067534,40.742206],[-74.06739,40.742123],[-74.067791,40.741576],[-74.068116,40.74155]],[[-74.067498,40.742151],[-74.067535,40.742097],[-74.067499,40.742096],[-74.067498,40.742151]],[[-74.067535,40.742097],[-74.067571,40.742042],[-74.067535,40.742042],[-74.067535,40.742097]],[[-74.067571,40.742042],[-74.067608,40.742014],[-74.067571,40.742014],[-74.067571,40.742042]],[[-74.067899,40.741604],[-74.067862,40.741659],[-74.067899,40.741659],[-74.067899,40.741604]],[[-74.067862,40.741659],[-74.067826,40.741686],[-74.067862,40.741686],[-74.067862,40.741659]],[[-74.067935,40.741604],[-74.068007,40.741632],[-74.068007,40.741604],[-74.067935,40.741604]]],[[[-74.067462,40.742234],[-74.067498,40.742206],[-74.067498,40.742234],[-74.067462,40.742234]]],[[[-74.067423,40.74259],[-74.067459,40.742618],[-74.067423,40.742618],[-74.067423,40.74259]]],[[[-74.06717,40.742699],[-74.067134,40.742644],[-74.06717,40.742644],[-74.06717,40.742699]]],[[[-74.067134,40.742726],[-74.067098,40.742699],[-74.067134,40.742699],[-74.067134,40.742726]]],[[[-74.06688,40.742945],[-74.066699,40.743054],[-74.067098,40.742726],[-74.06688,40.742945]]],[[[-74.066952,40.743],[-74.066915,40.743028],[-74.066915,40.743],[-74.066952,40.743]]],[[[-74.066879,40.743027],[-74.066915,40.743055],[-74.066879,40.743055],[-74.066879,40.743027]]],[[[-74.067168,40.743083],[-74.067204,40.743056],[-74.067204,40.743084],[-74.067168,40.743083]]],[[[-74.066843,40.743055],[-74.066879,40.743082],[-74.066843,40.743082],[-74.066843,40.743055]]],[[[-74.067059,40.743083],[-74.06695,40.743247],[-74.066732,40.743439],[-74.066697,40.743274],[-74.066842,40.743192],[-74.066987,40.743028],[-74.066952,40.742945],[-74.067206,40.742727],[-74.067276,40.742974],[-74.067059,40.743083]],[[-74.066841,40.743302],[-74.066805,40.743274],[-74.066805,40.743302],[-74.066841,40.743302]],[[-74.067024,40.742918],[-74.06706,40.742946],[-74.06706,40.742918],[-74.067024,40.742918]],[[-74.067205,40.742836],[-74.067169,40.742864],[-74.067205,40.742864],[-74.067205,40.742836]],[[-74.06724,40.742974],[-74.067204,40.742946],[-74.067204,40.742974],[-74.06724,40.742974]]],[[[-74.064714,40.743047],[-74.064677,40.743101],[-74.064677,40.743047],[-74.064714,40.743047]]],[[[-74.066662,40.743081],[-74.066626,40.743136],[-74.066626,40.743081],[-74.066662,40.743081]]],[[[-74.064785,40.743157],[-74.064713,40.743129],[-74.064713,40.743102],[-74.064785,40.743157]]],[[[-74.06659,40.743136],[-74.066626,40.743164],[-74.06659,40.743164],[-74.06659,40.743136]]],[[[-74.066553,40.743163],[-74.066589,40.743191],[-74.066553,40.743191],[-74.066553,40.743163]]],[[[-74.066481,40.743163],[-74.066445,40.74319],[-74.066445,40.743163],[-74.066481,40.743163]]],[[[-74.065001,40.743295],[-74.064965,40.743267],[-74.065001,40.743267],[-74.065001,40.743295]]],[[[-74.065037,40.743322],[-74.065,40.74335],[-74.065,40.743322],[-74.065037,40.743322]]],[[[-74.066624,40.743356],[-74.06666,40.743383],[-74.066624,40.743383],[-74.066624,40.743356]]],[[[-74.066696,40.743438],[-74.066732,40.743466],[-74.066696,40.743466],[-74.066696,40.743438]]],[[[-74.06666,40.743466],[-74.066695,40.743521],[-74.066659,40.743521],[-74.06666,40.743466]]],[[[-74.066624,40.743466],[-74.066405,40.743849],[-74.06608,40.743875],[-74.066588,40.743383],[-74.066696,40.743411],[-74.066696,40.743438],[-74.06666,40.743438],[-74.06666,40.743466],[-74.066624,40.743466]],[[-74.066406,40.74363],[-74.066334,40.743657],[-74.066334,40.743684],[-74.066406,40.74363]]],[[[-74.066043,40.743903],[-74.06608,40.743875],[-74.066079,40.743903],[-74.066043,40.743903]]],[[[-74.066007,40.743903],[-74.066043,40.74393],[-74.066007,40.74393],[-74.066007,40.743903]]],[[[-74.065971,40.74393],[-74.066007,40.743957],[-74.065971,40.743957],[-74.065971,40.74393]]],[[[-74.065971,40.743985],[-74.065934,40.744012],[-74.065935,40.743985],[-74.065971,40.743985]]],[[[-74.065898,40.744012],[-74.065934,40.744039],[-74.065898,40.744039],[-74.065898,40.744012]]],[[[-74.065862,40.744094],[-74.065825,40.744121],[-74.065826,40.744094],[-74.065862,40.744094]]],[[[-74.065789,40.744121],[-74.065825,40.744176],[-74.065789,40.744176],[-74.065789,40.744121]]],[[[-74.065753,40.744204],[-74.065789,40.744176],[-74.065789,40.744204],[-74.065753,40.744204]]],[[[-74.065752,40.744231],[-74.065716,40.744258],[-74.065716,40.744231],[-74.065752,40.744231]]],[[[-74.065534,40.744587],[-74.065498,40.744559],[-74.065534,40.74456],[-74.065534,40.744587]]],[[[-74.065497,40.744642],[-74.065461,40.744614],[-74.065497,40.744614],[-74.065497,40.744642]]],[[[-74.065461,40.744724],[-74.065425,40.744696],[-74.065461,40.744697],[-74.065461,40.744724]]],[[[-74.068212,40.749016],[-74.068248,40.749044],[-74.068212,40.749044],[-74.068212,40.749016]]],[[[-74.071344,40.750263],[-74.071308,40.750236],[-74.071344,40.750236],[-74.071344,40.750263]]],[[[-74.071954,40.756442],[-74.070921,40.754379],[-74.069825,40.750724],[-74.070614,40.751551],[-74.072327,40.754659],[-74.07258,40.754578],[-74.070724,40.751194],[-74.069683,40.75034],[-74.06926,40.748746],[-74.07048,40.749903],[-74.071308,40.750318],[-74.071416,40.750236],[-74.07005,40.74938],[-74.069191,40.748279],[-74.067848,40.743937],[-74.067888,40.743333],[-74.068103,40.743471],[-74.068106,40.743087],[-74.068431,40.743061],[-74.068469,40.742676],[-74.069011,40.742569],[-74.069413,40.741884],[-74.073161,40.742721],[-74.074423,40.742918],[-74.074279,40.742808],[-74.074352,40.742726],[-74.076947,40.743257],[-74.075151,40.745534],[-74.074869,40.746946],[-74.075017,40.747986],[-74.075707,40.748974],[-74.076586,40.749638],[-74.077145,40.749931],[-74.078852,40.750223],[-74.077279,40.752171],[-74.075578,40.75246],[-74.075231,40.752756],[-74.075238,40.753133],[-74.076523,40.754816],[-74.0763,40.755143],[-74.075215,40.755339],[-74.074867,40.755671],[-74.075146,40.757157],[-74.074732,40.75823],[-74.072666,40.758911],[-74.072224,40.760123],[-74.068594,40.761976],[-74.06629,40.762818],[-74.064931,40.763763],[-74.063801,40.763669],[-74.062501,40.762673],[-74.061794,40.76242],[-74.060022,40.76255],[-74.060002,40.76341],[-74.05963,40.764001],[-74.059993,40.765701],[-74.058474,40.766757],[-74.056954,40.769011],[-74.052044,40.760841],[-74.05225,40.760951],[-74.052396,40.760705],[-74.052073,40.760484],[-74.051896,40.760593],[-74.051894,40.760291],[-74.053132,40.758676],[-74.052989,40.758429],[-74.052663,40.75862],[-74.052375,40.758454],[-74.053648,40.757086],[-74.054301,40.75665],[-74.054697,40.756816],[-74.055278,40.756269],[-74.055497,40.755913],[-74.054956,40.755829],[-74.055253,40.754622],[-74.057724,40.752079],[-74.057726,40.751777],[-74.059105,40.750711],[-74.059356,40.750987],[-74.059718,40.750851],[-74.059828,40.750604],[-74.059432,40.750411],[-74.060014,40.749672],[-74.059871,40.749479],[-74.060743,40.748659],[-74.061031,40.748715],[-74.061833,40.747538],[-74.06241,40.747567],[-74.062772,40.747376],[-74.062811,40.74702],[-74.063279,40.747131],[-74.063679,40.746666],[-74.063968,40.746695],[-74.064045,40.746009],[-74.063685,40.745815],[-74.063905,40.745295],[-74.063727,40.744827],[-74.06398,40.744828],[-74.063985,40.744087],[-74.063699,40.743729],[-74.06388,40.743593],[-74.063638,40.742],[-74.063785,40.741506],[-74.064717,40.742553],[-74.065938,40.743408],[-74.066337,40.74319],[-74.066517,40.743191],[-74.066517,40.743246],[-74.065319,40.744284],[-74.065321,40.743927],[-74.065829,40.743627],[-74.065397,40.743406],[-74.065143,40.743542],[-74.064928,40.743377],[-74.064785,40.743157],[-74.065,40.743377],[-74.065217,40.743323],[-74.065145,40.74324],[-74.064355,40.742743],[-74.064497,40.743018],[-74.064101,40.742825],[-74.064277,40.743649],[-74.064927,40.743487],[-74.065176,40.744092],[-74.064621,40.746231],[-74.064656,40.746368],[-74.065021,40.745765],[-74.064724,40.747054],[-74.063594,40.748752],[-74.063631,40.748533],[-74.060943,40.751103],[-74.060651,40.751568],[-74.061049,40.751433],[-74.061377,40.750995],[-74.061594,40.750995],[-74.061813,40.75053],[-74.062066,40.750531],[-74.063919,40.748726],[-74.064759,40.747109],[-74.065011,40.747193],[-74.065306,40.746288],[-74.065851,40.745769],[-74.066037,40.744863],[-74.066655,40.744179],[-74.06644,40.743959],[-74.067059,40.743193],[-74.069289,40.749954],[-74.069287,40.750173],[-74.068927,40.75009],[-74.068463,40.74921],[-74.068356,40.749072],[-74.068212,40.748989],[-74.068212,40.749016],[-74.068176,40.749016],[-74.068175,40.749071],[-74.068603,40.749896],[-74.068818,40.750117],[-74.068023,40.750388],[-74.067801,40.751101],[-74.069883,40.752948],[-74.068127,40.751047],[-74.068455,40.750445],[-74.06943,40.750476],[-74.069498,40.750998],[-74.069209,40.751161],[-74.069421,40.751876],[-74.069782,40.751795],[-74.07088,40.755011],[-74.071559,40.756193],[-74.071954,40.756442]],[[-74.069684,40.761402],[-74.069649,40.761319],[-74.069648,40.761402],[-74.069684,40.761402]],[[-74.063747,40.741863],[-74.063711,40.74189],[-74.063747,40.74189],[-74.063747,40.741863]],[[-74.066445,40.743218],[-74.066409,40.743245],[-74.066445,40.743245],[-74.066445,40.743218]],[[-74.066409,40.743245],[-74.066372,40.743273],[-74.066408,40.743273],[-74.066409,40.743245]],[[-74.066372,40.743273],[-74.066336,40.7433],[-74.066372,40.7433],[-74.066372,40.743273]],[[-74.066154,40.743519],[-74.066118,40.743491],[-74.066118,40.743519],[-74.066154,40.743519]],[[-74.064655,40.746423],[-74.06451,40.746587],[-74.064509,40.746724],[-74.064655,40.746423]],[[-74.060687,40.751623],[-74.060506,40.75165],[-74.060506,40.751705],[-74.060687,40.751623]],[[-74.060542,40.75176],[-74.060361,40.751787],[-74.060361,40.751842],[-74.060542,40.75176]],[[-74.069883,40.752948],[-74.069919,40.752976],[-74.069919,40.752948],[-74.069883,40.752948]],[[-74.06921,40.750997],[-74.069174,40.750969],[-74.069174,40.750996],[-74.06921,40.750997]]],[[[-74.071631,40.756166],[-74.071595,40.756139],[-74.071631,40.756139],[-74.071631,40.756166]]],[[[-74.071775,40.756222],[-74.071739,40.756276],[-74.071739,40.756222],[-74.071775,40.756222]]],[[[-74.097389,40.681073],[-74.097245,40.680935],[-74.095587,40.68082],[-74.095943,40.681589],[-74.09449,40.683396],[-74.093483,40.683008],[-74.093085,40.683144],[-74.091,40.682066],[-74.090891,40.68223],[-74.089737,40.682281],[-74.090094,40.682941],[-74.091569,40.683441],[-74.091385,40.683962],[-74.08714,40.682354],[-74.084229,40.680779],[-74.0838,40.680256],[-74.083762,40.680558],[-74.083221,40.680611],[-74.082095,40.681952],[-74.081517,40.68206],[-74.081803,40.68239],[-74.081984,40.682363],[-74.082847,40.682696],[-74.082954,40.682888],[-74.083171,40.682807],[-74.083206,40.682944],[-74.083351,40.682917],[-74.083566,40.683028],[-74.083711,40.683001],[-74.083855,40.683056],[-74.083818,40.683111],[-74.083962,40.683166],[-74.084107,40.68314],[-74.08407,40.683194],[-74.084106,40.683304],[-74.084646,40.683334],[-74.084825,40.683554],[-74.085006,40.683527],[-74.085329,40.68372],[-74.085473,40.683693],[-74.085617,40.683776],[-74.085761,40.683749],[-74.086481,40.683999],[-74.086984,40.684248],[-74.086948,40.684303],[-74.086984,40.68433],[-74.087092,40.684303],[-74.087056,40.684358],[-74.087379,40.684551],[-74.089429,40.685519],[-74.089032,40.685573],[-74.088994,40.685875],[-74.08849,40.685736],[-74.088308,40.686037],[-74.088703,40.686203],[-74.087256,40.686939],[-74.086717,40.686635],[-74.086212,40.686716],[-74.085495,40.686027],[-74.084269,40.685995],[-74.084556,40.686325],[-74.086714,40.687157],[-74.085485,40.687674],[-74.085017,40.687562],[-74.083223,40.686101],[-74.081592,40.687358],[-74.082094,40.687826],[-74.083321,40.687748],[-74.083968,40.688053],[-74.084185,40.687999],[-74.084006,40.687696],[-74.08498,40.687617],[-74.084762,40.687946],[-74.084942,40.688001],[-74.086857,40.687322],[-74.085591,40.687949],[-74.085987,40.688087],[-74.087251,40.687845],[-74.087212,40.688229],[-74.087537,40.688258],[-74.081659,40.693974],[-74.07923,40.695914],[-74.078757,40.696681],[-74.080495,40.695589],[-74.085939,40.690091],[-74.087098,40.689189],[-74.086951,40.689655],[-74.086771,40.689682],[-74.085355,40.691105],[-74.085391,40.691215],[-74.084084,40.692555],[-74.084846,40.691871],[-74.084663,40.692173],[-74.082849,40.693978],[-74.083168,40.694803],[-74.083492,40.694941],[-74.085884,40.69311],[-74.085417,40.692834],[-74.084183,40.694038],[-74.083424,40.694337],[-74.083644,40.693761],[-74.086183,40.691355],[-74.086581,40.691219],[-74.086541,40.691877],[-74.086034,40.692095],[-74.086211,40.6927],[-74.087261,40.692072],[-74.087369,40.692127],[-74.086173,40.693002],[-74.086317,40.693084],[-74.086063,40.693303],[-74.085846,40.69333],[-74.085156,40.694096],[-74.086135,40.693358],[-74.086207,40.693386],[-74.084938,40.694397],[-74.084032,40.69508],[-74.0836,40.694969],[-74.083851,40.695272],[-74.0828,40.696009],[-74.082655,40.696228],[-74.082652,40.696722],[-74.082402,40.69631],[-74.081894,40.696747],[-74.081785,40.696911],[-74.082322,40.697517],[-74.079895,40.699238],[-74.078777,40.699234],[-74.075734,40.701336],[-74.075369,40.701939],[-74.075618,40.702516],[-74.075148,40.702734],[-74.074675,40.703391],[-74.074524,40.704406],[-74.073944,40.704871],[-74.07391,40.704541],[-74.073512,40.704704],[-74.073253,40.705719],[-74.073575,40.706187],[-74.073281,40.706954],[-74.073532,40.707257],[-74.072329,40.709229],[-74.072325,40.709751],[-74.071929,40.709667],[-74.071311,40.710406],[-74.070626,40.710431],[-74.068933,40.709958],[-74.069007,40.709711],[-74.067024,40.709539],[-74.066918,40.709182],[-74.066521,40.70918],[-74.066595,40.708988],[-74.066124,40.709206],[-74.066665,40.709345],[-74.066591,40.709565],[-74.065907,40.709397],[-74.065545,40.709588],[-74.065471,40.709862],[-74.065759,40.709891],[-74.067024,40.709594],[-74.070589,40.710485],[-74.070912,40.710789],[-74.070007,40.711224],[-74.069933,40.711581],[-74.069573,40.711497],[-74.068002,40.714456],[-74.067312,40.715195],[-74.067454,40.715552],[-74.066732,40.715604],[-74.066874,40.715962],[-74.066512,40.716125],[-74.066327,40.716838],[-74.065894,40.716864],[-74.065891,40.71744],[-74.065638,40.717384],[-74.065456,40.717658],[-74.065705,40.718208],[-74.06509,40.718425],[-74.064984,40.718205],[-74.064874,40.71837],[-74.065557,40.718784],[-74.065375,40.719003],[-74.065087,40.718947],[-74.064687,40.719467],[-74.0645,40.720482],[-74.06392,40.720837],[-74.063664,40.72144],[-74.063339,40.721411],[-74.063048,40.721739],[-74.0633,40.72196],[-74.062789,40.722754],[-74.062028,40.723218],[-74.061374,40.723984],[-74.061408,40.724368],[-74.060903,40.724256],[-74.06072,40.724667],[-74.060033,40.724967],[-74.057334,40.723831],[-74.056289,40.723553],[-74.056,40.723689],[-74.056001,40.723496],[-74.054525,40.723052],[-74.056254,40.718007],[-74.056085,40.716332],[-74.054376,40.712949],[-74.054419,40.711906],[-74.054859,40.710755],[-74.055041,40.710536],[-74.054962,40.711524],[-74.055244,40.712541],[-74.057903,40.719633],[-74.057826,40.720402],[-74.056621,40.722593],[-74.056511,40.722812],[-74.056546,40.722895],[-74.057314,40.721443],[-74.057459,40.721361],[-74.057423,40.721251],[-74.057898,40.720347],[-74.05797,40.720347],[-74.057975,40.719661],[-74.055179,40.711525],[-74.055367,40.710345],[-74.056781,40.70928],[-74.059241,40.708219],[-74.059531,40.708028],[-74.05917,40.708082],[-74.05917,40.708027],[-74.063694,40.705738],[-74.065398,40.704427],[-74.065327,40.704317],[-74.066269,40.703607],[-74.067786,40.703338],[-74.069956,40.702413],[-74.07032,40.701838],[-74.069098,40.701147],[-74.0691,40.700817],[-74.071452,40.699646],[-74.074127,40.698805],[-74.07384,40.698557],[-74.072539,40.698854],[-74.072614,40.698525],[-74.074204,40.698064],[-74.074241,40.697844],[-74.075579,40.697218],[-74.076777,40.696015],[-74.076383,40.695601],[-74.076023,40.695545],[-74.076202,40.695793],[-74.07569,40.696834],[-74.074643,40.69705],[-74.075551,40.696092],[-74.075045,40.696145],[-74.074935,40.696529],[-74.074466,40.696555],[-74.073999,40.696196],[-74.074469,40.696006],[-74.07393,40.695784],[-74.073713,40.695756],[-74.073639,40.69603],[-74.073137,40.695617],[-74.072703,40.695862],[-74.072994,40.695424],[-74.072815,40.695259],[-74.072093,40.695311],[-74.071485,40.694568],[-74.071559,40.694184],[-74.071093,40.693852],[-74.071015,40.694758],[-74.068476,40.697027],[-74.066854,40.696884],[-74.066886,40.697405],[-74.067789,40.697299],[-74.068322,40.698399],[-74.069221,40.698924],[-74.068533,40.699278],[-74.067958,40.699001],[-74.067704,40.699193],[-74.068747,40.699663],[-74.068456,40.700129],[-74.069105,40.700076],[-74.069465,40.70027],[-74.068632,40.700761],[-74.06795,40.700209],[-74.068054,40.700951],[-74.065958,40.701437],[-74.065486,40.701902],[-74.065913,40.702892],[-74.065549,40.703357],[-74.065692,40.703522],[-74.065003,40.704206],[-74.06207,40.705842],[-74.061638,40.705813],[-74.060804,40.706441],[-74.060517,40.706193],[-74.059429,40.707012],[-74.05831,40.707227],[-74.058596,40.707558],[-74.058921,40.707504],[-74.058811,40.707778],[-74.056205,40.709058],[-74.055118,40.709878],[-74.054352,40.711028],[-74.054018,40.712564],[-74.054475,40.71424],[-74.055544,40.716303],[-74.055745,40.718582],[-74.054273,40.722968],[-74.05132,40.722188],[-74.054089,40.723462],[-74.052066,40.729191],[-74.051337,40.730286],[-74.050432,40.730722],[-74.04585,40.730621],[-74.046174,40.730815],[-74.050213,40.731188],[-74.045589,40.731911],[-74.045587,40.73213],[-74.049521,40.732118],[-74.050823,40.731684],[-74.049006,40.733489],[-74.048306,40.735654],[-74.047799,40.735872],[-74.047725,40.736201],[-74.047328,40.736255],[-74.047289,40.736694],[-74.042206,40.735768],[-74.044625,40.735667],[-74.042099,40.735657],[-74.040441,40.735376],[-74.039361,40.734933],[-74.038321,40.734078],[-74.036916,40.733743],[-74.036929,40.731821],[-74.035606,40.730114],[-74.035908,40.728139],[-74.035498,40.730114],[-74.03682,40.731958],[-74.036701,40.733467],[-74.036447,40.733713],[-74.034896,40.733597],[-74.034571,40.733651],[-74.037708,40.733938],[-74.0385,40.734298],[-74.038606,40.734573],[-74.038822,40.734656],[-74.03893,40.734629],[-74.039002,40.734684],[-74.039002,40.734739],[-74.038966,40.734767],[-74.039073,40.734932],[-74.039324,40.73507],[-74.03896,40.735618],[-74.040366,40.735705],[-74.040512,40.735514],[-74.040655,40.735734],[-74.041983,40.736069],[-74.039624,40.73643],[-74.038781,40.736295],[-74.036434,40.735584],[-74.036832,40.735362],[-74.035389,40.735273],[-74.033373,40.734673],[-74.033374,40.734497],[-74.033337,40.734662],[-74.032436,40.734394],[-74.032439,40.734082],[-74.0324,40.734383],[-74.031747,40.734189],[-74.031934,40.734052],[-74.030091,40.733695],[-74.030566,40.733735],[-74.030967,40.731276],[-74.027997,40.731011],[-74.028094,40.730228],[-74.026851,40.72951],[-74.027419,40.729492],[-74.029127,40.730468],[-74.031254,40.730755],[-74.029758,40.729759],[-74.030478,40.729769],[-74.031141,40.730229],[-74.031232,40.729473],[-74.027341,40.729073],[-74.030966,40.729341],[-74.031006,40.728998],[-74.026548,40.728601],[-74.026604,40.72819],[-74.031034,40.728575],[-74.031086,40.728036],[-74.027374,40.727716],[-74.027376,40.727515],[-74.030342,40.727781],[-74.030405,40.727036],[-74.030021,40.726476],[-74.030287,40.726135],[-74.034452,40.726238],[-74.034525,40.725771],[-74.032072,40.725567],[-74.03211,40.725235],[-74.034559,40.725585],[-74.034614,40.725286],[-74.033817,40.725209],[-74.03384,40.725007],[-74.029447,40.724567],[-74.029605,40.723812],[-74.033812,40.724127],[-74.03423,40.722149],[-74.031422,40.721896],[-74.031476,40.720258],[-74.032552,40.720129],[-74.032062,40.719669],[-74.029269,40.719356],[-74.029375,40.718921],[-74.032487,40.719279],[-74.03275,40.717386],[-74.02993,40.717066],[-74.029999,40.716713],[-74.032075,40.716919],[-74.032169,40.71639],[-74.031289,40.716292],[-74.0315,40.715724],[-74.031699,40.716164],[-74.032624,40.716228],[-74.03315,40.714155],[-74.032997,40.713831],[-74.031663,40.713565],[-74.03302,40.713729],[-74.033733,40.711677],[-74.034832,40.711793],[-74.035525,40.711406],[-74.037113,40.711659],[-74.038075,40.711106],[-74.0395,40.711082],[-74.039514,40.71038],[-74.038623,40.710148],[-74.038499,40.709581],[-74.035384,40.70908],[-74.034716,40.709167],[-74.034344,40.70887],[-74.034501,40.707679],[-74.034081,40.707627],[-74.034058,40.707141],[-74.034162,40.706652],[-74.034692,40.706696],[-74.034873,40.705751],[-74.038658,40.70608],[-74.041336,40.704785],[-74.045227,40.702193],[-74.048464,40.699254],[-74.051378,40.696016],[-74.054851,40.69064],[-74.057814,40.691965],[-74.057479,40.69281],[-74.058322,40.693287],[-74.058756,40.692501],[-74.058952,40.692563],[-74.058686,40.693452],[-74.059387,40.693881],[-74.059784,40.693079],[-74.059994,40.693121],[-74.0597,40.694059],[-74.060237,40.694409],[-74.060745,40.693614],[-74.06137,40.693886],[-74.06103,40.695033],[-74.064731,40.697091],[-74.06515,40.697088],[-74.06524,40.697678],[-74.065774,40.698034],[-74.066106,40.698135],[-74.066563,40.696832],[-74.067029,40.696369],[-74.068257,40.696866],[-74.069577,40.695732],[-74.070581,40.694436],[-74.070378,40.693824],[-74.069619,40.694049],[-74.069813,40.694365],[-74.069068,40.695173],[-74.0678,40.695391],[-74.067688,40.695217],[-74.067452,40.695555],[-74.065882,40.694626],[-74.06693,40.694008],[-74.068929,40.691697],[-74.069459,40.690723],[-74.069929,40.688696],[-74.069624,40.685822],[-74.07021,40.684684],[-74.069889,40.68445],[-74.070546,40.683946],[-74.073359,40.686049],[-74.073182,40.686206],[-74.07347,40.686778],[-74.074685,40.687589],[-74.07484,40.687935],[-74.075758,40.68829],[-74.075897,40.688661],[-74.078013,40.688601],[-74.078733,40.688949],[-74.079993,40.688906],[-74.079582,40.688726],[-74.080285,40.687995],[-74.07463,40.683866],[-74.074457,40.683971],[-74.071101,40.681665],[-74.070662,40.680639],[-74.071797,40.679744],[-74.070641,40.679209],[-74.071889,40.679629],[-74.07372,40.679817],[-74.074828,40.678352],[-74.072516,40.677158],[-74.072814,40.676909],[-74.075007,40.678078],[-74.075638,40.677405],[-74.072611,40.675807],[-74.073022,40.675347],[-74.07579,40.676812],[-74.076735,40.676002],[-74.075979,40.67691],[-74.077223,40.675599],[-74.080985,40.677371],[-74.081291,40.677066],[-74.0813,40.676473],[-74.080935,40.676073],[-74.077279,40.674274],[-74.069296,40.670879],[-74.068149,40.670712],[-74.064988,40.669224],[-74.06492,40.66853],[-74.065716,40.66704],[-74.09813,40.680694],[-74.098242,40.680994],[-74.097895,40.680828],[-74.097678,40.680882],[-74.098283,40.681103],[-74.098663,40.68212],[-74.097228,40.683845],[-74.097084,40.683762],[-74.096719,40.684447],[-74.096248,40.684802],[-74.096102,40.685159],[-74.096067,40.684911],[-74.096431,40.684446],[-74.095161,40.685704],[-74.098067,40.682146],[-74.098215,40.681515],[-74.097062,40.681429],[-74.097389,40.681073]],[[-74.081552,40.682279],[-74.081443,40.682389],[-74.081191,40.682305],[-74.081154,40.682388],[-74.081622,40.682554],[-74.081552,40.682279]],[[-74.081731,40.6825],[-74.081803,40.682527],[-74.081803,40.6825],[-74.081731,40.6825]],[[-74.081876,40.68239],[-74.081911,40.682418],[-74.081912,40.68239],[-74.081876,40.68239]],[[-74.082559,40.682612],[-74.082523,40.68264],[-74.082559,40.68264],[-74.082559,40.682612]],[[-74.082631,40.68264],[-74.082595,40.682667],[-74.082631,40.682668],[-74.082631,40.68264]],[[-74.082703,40.682668],[-74.082667,40.682695],[-74.082703,40.682695],[-74.082703,40.682668]],[[-74.082775,40.682696],[-74.082739,40.682723],[-74.082775,40.682723],[-74.082775,40.682696]],[[-74.083171,40.682834],[-74.083135,40.682862],[-74.083171,40.682862],[-74.083171,40.682834]],[[-74.083135,40.682862],[-74.083098,40.682889],[-74.083135,40.682889],[-74.083135,40.682862]],[[-74.083711,40.683028],[-74.083674,40.683056],[-74.08371,40.683056],[-74.083711,40.683028]],[[-74.083783,40.683056],[-74.083746,40.683083],[-74.083782,40.683083],[-74.083783,40.683056]],[[-74.084646,40.683361],[-74.08461,40.683388],[-74.084646,40.683389],[-74.084646,40.683361]],[[-74.085761,40.683777],[-74.085725,40.683804],[-74.085761,40.683804],[-74.085761,40.683777]],[[-74.085833,40.683805],[-74.085797,40.683832],[-74.085833,40.683832],[-74.085833,40.683805]],[[-74.085905,40.683832],[-74.085869,40.68386],[-74.085905,40.68386],[-74.085905,40.683832]],[[-74.086912,40.684248],[-74.086876,40.684275],[-74.086912,40.684275],[-74.086912,40.684248]],[[-74.084834,40.688001],[-74.084797,40.688028],[-74.084833,40.688028],[-74.084834,40.688001]],[[-74.085771,40.688059],[-74.085699,40.688086],[-74.085771,40.688087],[-74.085771,40.688059]],[[-74.085699,40.688086],[-74.085662,40.688114],[-74.085698,40.688114],[-74.085699,40.688086]],[[-74.085915,40.688087],[-74.085879,40.688114],[-74.085915,40.688115],[-74.085915,40.688087]],[[-74.087212,40.688229],[-74.087176,40.688256],[-74.087212,40.688256],[-74.087212,40.688229]],[[-74.078828,40.696736],[-74.078792,40.696763],[-74.078828,40.696763],[-74.078828,40.696736]],[[-74.08521,40.691296],[-74.085246,40.691241],[-74.08521,40.691241],[-74.08521,40.691296]],[[-74.084084,40.69261],[-74.083976,40.692609],[-74.083975,40.692664],[-74.084084,40.69261]],[[-74.083975,40.692719],[-74.083867,40.692719],[-74.083866,40.692774],[-74.083975,40.692719]],[[-74.083866,40.692829],[-74.083504,40.693074],[-74.083503,40.693129],[-74.083866,40.692829]],[[-74.083503,40.693184],[-74.083395,40.693184],[-74.083395,40.693239],[-74.083503,40.693184]],[[-74.083394,40.693294],[-74.083322,40.693266],[-74.083322,40.693321],[-74.083394,40.693294]],[[-74.083322,40.693348],[-74.083177,40.693403],[-74.083177,40.693457],[-74.083322,40.693348]],[[-74.083177,40.693457],[-74.083141,40.693485],[-74.083177,40.693485],[-74.083177,40.693457]],[[-74.08314,40.69354],[-74.083068,40.693512],[-74.083068,40.693567],[-74.08314,40.69354]],[[-74.083068,40.693567],[-74.083032,40.693594],[-74.083068,40.693594],[-74.083068,40.693567]],[[-74.083031,40.693649],[-74.082923,40.693649],[-74.082923,40.693704],[-74.083031,40.693649]],[[-74.082923,40.693704],[-74.082887,40.693731],[-74.082923,40.693731],[-74.082923,40.693704]],[[-74.082887,40.693731],[-74.08285,40.693786],[-74.082886,40.693786],[-74.082887,40.693731]],[[-74.0861,40.693221],[-74.086028,40.693193],[-74.086027,40.693221],[-74.0861,40.693221]],[[-74.085156,40.694096],[-74.085084,40.694123],[-74.085156,40.694123],[-74.085156,40.694096]],[[-74.08251,40.696282],[-74.082655,40.696146],[-74.082583,40.696145],[-74.08251,40.696282]],[[-74.05651,40.722895],[-74.056474,40.722922],[-74.05651,40.722922],[-74.05651,40.722895]],[[-74.056875,40.722319],[-74.056911,40.722347],[-74.056911,40.72232],[-74.056875,40.722319]],[[-74.057131,40.721854],[-74.057166,40.721881],[-74.057167,40.721854],[-74.057131,40.721854]],[[-74.057569,40.721087],[-74.057605,40.72106],[-74.057569,40.721059],[-74.057569,40.721087]],[[-74.057898,40.720429],[-74.057933,40.720484],[-74.057934,40.720429],[-74.057898,40.720429]],[[-74.065435,40.70429],[-74.065722,40.704456],[-74.065795,40.704428],[-74.065723,40.704318],[-74.065435,40.70429]],[[-74.074019,40.698667],[-74.074092,40.69864],[-74.07402,40.69864],[-74.074019,40.698667]],[[-74.060697,40.706166],[-74.060734,40.706139],[-74.060698,40.706139],[-74.060697,40.706166]],[[-74.038966,40.734739],[-74.03893,40.734712],[-74.03893,40.734739],[-74.038966,40.734739]],[[-74.038924,40.73559],[-74.038779,40.735617],[-74.038924,40.735617],[-74.038924,40.73559]],[[-74.040511,40.735651],[-74.040475,40.735678],[-74.040511,40.735679],[-74.040511,40.735651]],[[-74.097156,40.68379],[-74.097192,40.683735],[-74.097156,40.683735],[-74.097156,40.68379]],[[-74.097156,40.683735],[-74.09712,40.683707],[-74.09712,40.683735],[-74.097156,40.683735]],[[-74.096431,40.684446],[-74.096467,40.684419],[-74.096431,40.684419],[-74.096431,40.684446]],[[-74.096431,40.684391],[-74.096503,40.684364],[-74.096431,40.684364],[-74.096431,40.684391]],[[-74.096503,40.684364],[-74.09654,40.684337],[-74.096504,40.684336],[-74.096503,40.684364]],[[-74.097496,40.681128],[-74.097533,40.681101],[-74.097497,40.681101],[-74.097496,40.681128]]],[[[-74.056891,40.709061],[-74.056854,40.709088],[-74.056855,40.709061],[-74.056891,40.709061]]],[[[-74.056818,40.709088],[-74.056854,40.709116],[-74.056818,40.709116],[-74.056818,40.709088]]],[[[-74.056781,40.709225],[-74.05642,40.709334],[-74.056818,40.709116],[-74.056781,40.709225]],[[-74.056745,40.709225],[-74.056709,40.709198],[-74.056709,40.709225],[-74.056745,40.709225]]],[[[-74.056348,40.709334],[-74.056384,40.709361],[-74.056348,40.709361],[-74.056348,40.709334]]],[[[-74.056312,40.709361],[-74.056347,40.709388],[-74.056311,40.709388],[-74.056312,40.709361]]],[[[-74.056275,40.709388],[-74.056311,40.709416],[-74.056275,40.709416],[-74.056275,40.709388]]],[[[-74.056239,40.709415],[-74.056203,40.709443],[-74.056203,40.709415],[-74.056239,40.709415]]],[[[-74.056167,40.709443],[-74.056203,40.70947],[-74.056167,40.70947],[-74.056167,40.709443]]],[[[-74.05613,40.70947],[-74.056166,40.709498],[-74.05613,40.709497],[-74.05613,40.70947]]],[[[-74.055114,40.710454],[-74.055078,40.710427],[-74.055114,40.710427],[-74.055114,40.710454]]],[[[-74.055078,40.710482],[-74.055041,40.710536],[-74.055042,40.710481],[-74.055078,40.710482]]],[[[-74.057387,40.721306],[-74.057422,40.721361],[-74.057386,40.721361],[-74.057387,40.721306]]],[[[-74.05735,40.721361],[-74.057386,40.721388],[-74.05735,40.721388],[-74.05735,40.721361]]],[[[-74.053955,40.727332],[-74.053991,40.727304],[-74.053991,40.727332],[-74.053955,40.727332]]],[[[-74.054576,40.726181],[-74.054246,40.727003],[-74.054174,40.726976],[-74.054352,40.727388],[-74.054098,40.727497],[-74.054027,40.727442],[-74.054027,40.727304],[-74.053956,40.727249],[-74.053808,40.727688],[-74.054202,40.728156],[-74.053841,40.728237],[-74.052968,40.729222],[-74.05279,40.728892],[-74.052568,40.72966],[-74.051877,40.730563],[-74.052128,40.730701],[-74.052127,40.730948],[-74.052485,40.731279],[-74.052413,40.731306],[-74.05227,40.731168],[-74.051657,40.730974],[-74.051404,40.731055],[-74.052648,40.728589],[-74.054267,40.723819],[-74.054659,40.724589],[-74.055377,40.725169],[-74.055264,40.725799],[-74.054614,40.725989],[-74.05454,40.726154],[-74.054396,40.726208],[-74.054576,40.726181]],[[-74.05432,40.726784],[-74.054284,40.726756],[-74.054283,40.726784],[-74.05432,40.726784]],[[-74.054174,40.727031],[-74.054137,40.727085],[-74.054173,40.727085],[-74.054174,40.727031]],[[-74.052127,40.730921],[-74.052091,40.730893],[-74.052091,40.73092],[-74.052127,40.730921]],[[-74.052091,40.730893],[-74.052055,40.730865],[-74.052055,40.730893],[-74.052091,40.730893]],[[-74.054468,40.726153],[-74.054432,40.726126],[-74.054432,40.726153],[-74.054468,40.726153]],[[-74.05454,40.726263],[-74.054504,40.726236],[-74.054503,40.726263],[-74.05454,40.726263]],[[-74.054467,40.726345],[-74.054431,40.726373],[-74.054467,40.726373],[-74.054467,40.726345]]],[[[-74.052394,40.72878],[-74.052358,40.728753],[-74.052394,40.728753],[-74.052394,40.72878]]],[[[-74.052321,40.728808],[-74.052357,40.728918],[-74.052321,40.728917],[-74.052321,40.728808]]],[[[-74.052414,40.731086],[-74.052378,40.731114],[-74.052378,40.731086],[-74.052414,40.731086]]],[[[-74.05245,40.731141],[-74.052414,40.731169],[-74.052414,40.731141],[-74.05245,40.731141]]],[[[-74.052486,40.731196],[-74.05245,40.731196],[-74.05245,40.731169],[-74.052486,40.731169],[-74.052486,40.731196]]],[[[-74.052522,40.731224],[-74.052486,40.731196],[-74.052522,40.731197],[-74.052522,40.731224]]],[[[-74.052269,40.731223],[-74.052305,40.731251],[-74.052269,40.73125],[-74.052269,40.731223]]],[[[-74.052485,40.731306],[-74.052521,40.731279],[-74.052521,40.731306],[-74.052485,40.731306]]],[[[-74.052341,40.731278],[-74.052377,40.731306],[-74.052341,40.731306],[-74.052341,40.731278]]],[[[-74.052449,40.731334],[-74.052485,40.731306],[-74.052485,40.731334],[-74.052449,40.731334]]],[[[-74.052377,40.731306],[-74.052413,40.731333],[-74.052377,40.731333],[-74.052377,40.731306]]],[[[-74.062675,40.740157],[-74.062425,40.739854],[-74.062856,40.740185],[-74.062783,40.740185],[-74.062784,40.740157],[-74.062675,40.740157]]],[[[-74.062928,40.740213],[-74.062856,40.740185],[-74.062928,40.740185],[-74.062928,40.740213]]],[[[-74.062998,40.74046],[-74.062962,40.740487],[-74.062962,40.74046],[-74.062998,40.74046]]],[[[-74.063322,40.740543],[-74.063282,40.741147],[-74.062998,40.740487],[-74.063322,40.740543]]],[[[-74.063461,40.741477],[-74.063499,40.741148],[-74.063571,40.741121],[-74.063461,40.741477]]],[[[-74.064389,40.743073],[-74.064461,40.743018],[-74.064461,40.743073],[-74.064389,40.743073]]],[[[-74.064605,40.743074],[-74.064533,40.743073],[-74.064497,40.743073],[-74.064497,40.743018],[-74.064605,40.743074]]],[[[-74.064461,40.743073],[-74.064497,40.743101],[-74.064461,40.743101],[-74.064461,40.743073]]],[[[-74.064497,40.743101],[-74.064533,40.743128],[-74.064496,40.743128],[-74.064497,40.743101]]],[[[-74.064605,40.743156],[-74.064641,40.743129],[-74.064641,40.743156],[-74.064605,40.743156]]],[[[-74.064533,40.743128],[-74.064568,40.743156],[-74.064532,40.743156],[-74.064533,40.743128]]],[[[-74.06464,40.743184],[-74.064677,40.743156],[-74.064677,40.743184],[-74.06464,40.743184]]],[[[-74.063449,40.748806],[-74.063485,40.748834],[-74.063449,40.748834],[-74.063449,40.748806]]],[[[-74.063485,40.748861],[-74.063448,40.748889],[-74.063448,40.748861],[-74.063485,40.748861]]],[[[-74.061451,40.750693],[-74.061415,40.75072],[-74.061415,40.750693],[-74.061451,40.750693]]],[[[-74.06127,40.750857],[-74.061306,40.75083],[-74.061306,40.750857],[-74.06127,40.750857]]],[[[-74.060977,40.751405],[-74.060941,40.751377],[-74.060977,40.751377],[-74.060977,40.751405]]],[[[-74.060977,40.751432],[-74.061013,40.751405],[-74.061013,40.751432],[-74.060977,40.751432]]],[[[-74.052035,40.760813],[-74.052035,40.760824],[-74.052028,40.760813],[-74.052035,40.760813]]],[[[-74.052321,40.728917],[-74.051917,40.729986],[-74.051552,40.730561],[-74.051445,40.730341],[-74.052321,40.728917]]],[[[-74.051337,40.730396],[-74.05126,40.731027],[-74.049276,40.730937],[-74.050576,40.730805],[-74.051337,40.730396]]],[[[-74.049168,40.730909],[-74.04906,40.730881],[-74.049168,40.730882],[-74.049168,40.730909]]],[[[-74.052199,40.730921],[-74.052163,40.730948],[-74.052163,40.730921],[-74.052199,40.730921]]],[[[-74.052235,40.730948],[-74.052199,40.730976],[-74.052199,40.730948],[-74.052235,40.730948]]],[[[-74.052271,40.730976],[-74.052235,40.731003],[-74.052235,40.730976],[-74.052271,40.730976]]],[[[-74.052233,40.731223],[-74.052269,40.731196],[-74.052269,40.731223],[-74.052233,40.731223]]],[[[-74.051222,40.731274],[-74.051042,40.731246],[-74.051223,40.731246],[-74.051222,40.731274]]],[[[-74.051258,40.731274],[-74.05133,40.731302],[-74.051258,40.731301],[-74.051258,40.731274]]],[[[-74.051004,40.731493],[-74.051148,40.731548],[-74.050968,40.731575],[-74.051004,40.731493]]],[[[-74.050859,40.731629],[-74.050967,40.731657],[-74.050823,40.731684],[-74.050859,40.731629]]],[[[-74.047321,40.731917],[-74.050139,40.731379],[-74.050969,40.731383],[-74.049738,40.731982],[-74.047321,40.731917]]],[[[-74.038895,40.734602],[-74.038858,40.734629],[-74.038858,40.734601],[-74.038895,40.734602]]],[[[-74.039038,40.734767],[-74.039002,40.734739],[-74.039038,40.734739],[-74.039038,40.734767]]],[[[-74.039431,40.735235],[-74.039396,40.735208],[-74.039432,40.735208],[-74.039431,40.735235]]],[[[-74.039431,40.735263],[-74.039359,40.73529],[-74.039359,40.735262],[-74.039431,40.735263]]],[[[-74.039503,40.735318],[-74.039467,40.73529],[-74.039503,40.73529],[-74.039503,40.735318]]],[[[-74.039719,40.735428],[-74.039683,40.735428],[-74.039683,40.735401],[-74.039719,40.735401],[-74.039719,40.735428]]],[[[-74.036002,40.735359],[-74.035606,40.735338],[-74.035606,40.735302],[-74.036002,40.735359]]],[[[-74.039754,40.735511],[-74.03943,40.73551],[-74.039322,40.735344],[-74.039683,40.735373],[-74.039574,40.735455],[-74.039754,40.735511]],[[-74.039574,40.735428],[-74.039502,40.7354],[-74.039502,40.735428],[-74.039574,40.735428]]],[[[-74.039827,40.735456],[-74.039791,40.735429],[-74.039827,40.735429],[-74.039827,40.735456]]],[[[-74.039755,40.735456],[-74.039719,40.735428],[-74.039755,40.735429],[-74.039755,40.735456]]],[[[-74.039898,40.735539],[-74.039862,40.735594],[-74.039862,40.735539],[-74.039898,40.735539]]],[[[-74.043431,40.736129],[-74.043359,40.736102],[-74.043431,40.736102],[-74.043431,40.736129]]],[[[-74.043142,40.736156],[-74.043106,40.736128],[-74.043142,40.736128],[-74.043142,40.736156]]],[[[-74.043538,40.736295],[-74.043502,40.736267],[-74.043538,40.736267],[-74.043538,40.736295]]],[[[-74.045089,40.736493],[-74.045305,40.736466],[-74.045305,40.736521],[-74.045089,40.736493]]],[[[-74.042441,40.743619],[-74.041748,40.744687],[-74.041676,40.744659],[-74.04164,40.744742],[-74.041567,40.744769],[-74.041567,40.744824],[-74.041531,40.744824],[-74.041494,40.744933],[-74.041386,40.74496],[-74.041019,40.745755],[-74.04062,40.74611],[-74.040512,40.746055],[-74.040185,40.746355],[-74.040184,40.746438],[-74.040148,40.746438],[-74.040184,40.74652],[-74.039307,40.747999],[-74.038907,40.748409],[-74.039015,40.748492],[-74.038689,40.748738],[-74.038358,40.749505],[-74.038429,40.749697],[-74.037981,40.750437],[-74.037992,40.750272],[-74.037729,40.75029],[-74.03858,40.748847],[-74.039603,40.746747],[-74.041619,40.744285],[-74.041521,40.743999],[-74.042208,40.742804],[-74.042169,40.741354],[-74.043516,40.740349],[-74.043782,40.739857],[-74.043922,40.739012],[-74.04352,40.738505],[-74.043911,40.73754],[-74.042837,40.736505],[-74.042925,40.736182],[-74.046023,40.736991],[-74.045584,40.737867],[-74.045762,40.738335],[-74.04529,40.738662],[-74.045176,40.739513],[-74.044742,40.739621],[-74.043977,40.740743],[-74.043399,40.740878],[-74.042441,40.743619]],[[-74.041858,40.744468],[-74.041822,40.74444],[-74.041822,40.744468],[-74.041858,40.744468]],[[-74.041822,40.744523],[-74.041786,40.744495],[-74.041786,40.744523],[-74.041822,40.744523]],[[-74.041785,40.744577],[-74.041749,40.74455],[-74.041749,40.744577],[-74.041785,40.744577]],[[-74.041749,40.744632],[-74.041713,40.744605],[-74.041713,40.744632],[-74.041749,40.744632]],[[-74.040548,40.746055],[-74.040584,40.746],[-74.040548,40.746],[-74.040548,40.746055]],[[-74.040148,40.74652],[-74.040112,40.746492],[-74.040112,40.74652],[-74.040148,40.74652]],[[-74.038138,40.750108],[-74.038102,40.75008],[-74.038102,40.750108],[-74.038138,40.750108]],[[-74.042004,40.744249],[-74.041968,40.744221],[-74.041968,40.744249],[-74.042004,40.744249]]],[[[-74.041676,40.744714],[-74.041712,40.744687],[-74.041712,40.744714],[-74.041676,40.744714]]],[[[-74.041676,40.744769],[-74.04164,40.744742],[-74.041676,40.744742],[-74.041676,40.744769]]],[[[-74.041567,40.744851],[-74.041603,40.744824],[-74.041603,40.744851],[-74.041567,40.744851]]],[[[-74.04153,40.744906],[-74.041567,40.744879],[-74.041566,40.744906],[-74.04153,40.744906]]],[[[-74.041494,40.744961],[-74.04153,40.744933],[-74.04153,40.744961],[-74.041494,40.744961]]],[[[-74.040511,40.746137],[-74.040547,40.74611],[-74.040547,40.746137],[-74.040511,40.746137]]],[[[-74.040402,40.746246],[-74.040438,40.746219],[-74.040438,40.746247],[-74.040402,40.746246]]],[[[-74.040366,40.746274],[-74.040402,40.746246],[-74.040402,40.746274],[-74.040366,40.746274]]],[[[-74.040257,40.746383],[-74.040293,40.746356],[-74.040293,40.746383],[-74.040257,40.746383]]],[[[-74.04022,40.746465],[-74.040184,40.746438],[-74.04022,40.746438],[-74.04022,40.746465]]],[[[-74.038544,40.748765],[-74.038544,40.748819],[-74.038514,40.748819],[-74.038544,40.748765]]],[[[-74.03865,40.749039],[-74.038687,40.749012],[-74.038687,40.74904],[-74.03865,40.749039]]],[[[-74.038614,40.749122],[-74.03865,40.749094],[-74.03865,40.749122],[-74.038614,40.749122]]],[[[-74.038541,40.749259],[-74.038577,40.749231],[-74.038577,40.749259],[-74.038541,40.749259]]],[[[-74.038504,40.749341],[-74.03854,40.749313],[-74.03854,40.749341],[-74.038504,40.749341]]],[[[-74.037883,40.750354],[-74.03792,40.750327],[-74.037919,40.750354],[-74.037883,40.750354]]]]}}]}