{"type":"FeatureCollection","features":[{"type":"Feature","properties":{"level_ft":11},"geometry":{"type":"MultiPolygon","coordinates":[[[[-74.095055,40.67939],[-74.095055,40.67939],[-74.095055,40.67939],[-74.095055,40.67939]]],[[[-74.095733,40.680491],[-74.095769,40.680518],[-74.095733,40.680518],[-74.095733,40.680491]]],[[[-74.098356,40.682092],[-74.098175,40.682174],[-74.098287,40.681515],[-74.097386,40.681457],[-74.097675,40.681403],[-74.097496,40.681265],[-74.098283,40.681103],[-74.098356,40.682092]]],[[[-74.098751,40.68245],[-74.098715,40.682423],[-74.098751,40.682423],[-74.098751,40.68245]]],[[[-74.098786,40.68245],[-74.09875,40.682505],[-74.098751,40.68245],[-74.098786,40.68245]]],[[[-74.098817,40.682533],[-74.098676,40.682807],[-74.098568,40.682861],[-74.098817,40.682533]]],[[[-74.09875,40.682587],[-74.098243,40.682888],[-74.098714,40.68245],[-74.09875,40.682587]]],[[[-74.098532,40.682861],[-74.098567,40.682916],[-74.098531,40.682916],[-74.098532,40.682861]]],[[[-74.098999,40.683082],[-74.098675,40.682944],[-74.098889,40.682725],[-74.098999,40.683082]]],[[[-74.098495,40.682916],[-74.098531,40.682971],[-74.098495,40.682971],[-74.098495,40.682916]]],[[[-74.09896,40.683604],[-74.099022,40.683082],[-74.099176,40.683659],[-74.09896,40.683604]]],[[[-74.08567,40.686823],[-74.086497,40.687321],[-74.085305,40.687618],[-74.083475,40.686129],[-74.084519,40.686408],[-74.085417,40.68696],[-74.08567,40.686823]],[[-74.085525,40.68696],[-74.085597,40.686988],[-74.085597,40.68696],[-74.085525,40.68696]]],[[[-74.082633,40.688103],[-74.082669,40.688158],[-74.082633,40.688158],[-74.082633,40.688103]]],[[[-74.082597,40.688157],[-74.082561,40.68813],[-74.082597,40.68813],[-74.082597,40.688157]]],[[[-74.082777,40.688186],[-74.082741,40.688158],[-74.082777,40.688158],[-74.082777,40.688186]]],[[[-74.085192,40.688332],[-74.085156,40.688304],[-74.085192,40.688304],[-74.085192,40.688332]]],[[[-74.085156,40.688386],[-74.085192,40.688359],[-74.085192,40.688386],[-74.085156,40.688386]]],[[[-74.083641,40.688408],[-74.083677,40.688354],[-74.083713,40.688409],[-74.083641,40.688408]]],[[[-74.085083,40.688413],[-74.08512,40.688386],[-74.08512,40.688414],[-74.085083,40.688413]]],[[[-74.085011,40.688441],[-74.085047,40.688413],[-74.085047,40.688441],[-74.085011,40.688441]]],[[[-74.086591,40.689489],[-74.086952,40.689546],[-74.086734,40.689682],[-74.086591,40.689489]]],[[[-74.087059,40.689738],[-74.087346,40.689959],[-74.087273,40.690151],[-74.086804,40.690067],[-74.087059,40.689738]]],[[[-74.083541,40.692965],[-74.083576,40.692992],[-74.08354,40.692992],[-74.083541,40.692965]]],[[[-74.083468,40.693019],[-74.08354,40.693047],[-74.083468,40.693074],[-74.083468,40.693019]]],[[[-74.085012,40.694041],[-74.084976,40.694068],[-74.084976,40.69404],[-74.085012,40.694041]]],[[[-74.08494,40.694068],[-74.084976,40.694095],[-74.08494,40.694095],[-74.08494,40.694068]]],[[[-74.084904,40.694095],[-74.08494,40.694123],[-74.084904,40.694123],[-74.084904,40.694095]]],[[[-74.084868,40.694122],[-74.084904,40.69415],[-74.084868,40.69415],[-74.084868,40.694122]]],[[[-74.084831,40.69415],[-74.084867,40.694177],[-74.084831,40.694177],[-74.084831,40.69415]]],[[[-74.084686,40.694341],[-74.084251,40.694642],[-74.084686,40.694286],[-74.084686,40.694341]]],[[[-74.084215,40.694669],[-74.084143,40.694751],[-74.08407,40.694751],[-74.084215,40.694669]]],[[[-74.083416,40.695517],[-74.08338,40.695544],[-74.08338,40.695517],[-74.083416,40.695517]]],[[[-74.08338,40.695572],[-74.083344,40.695544],[-74.08338,40.695544],[-74.08338,40.695572]]],[[[-74.083344,40.695599],[-74.083308,40.695572],[-74.083344,40.695572],[-74.083344,40.695599]]],[[[-74.083308,40.695627],[-74.083272,40.695599],[-74.083308,40.695599],[-74.083308,40.695627]]],[[[-74.083019,40.695598],[-74.083055,40.695626],[-74.083019,40.695625],[-74.083019,40.695598]]],[[[-74.083271,40.695654],[-74.083235,40.695626],[-74.083272,40.695626],[-74.083271,40.695654]]],[[[-74.082983,40.695625],[-74.083019,40.695653],[-74.082983,40.695653],[-74.082983,40.695625]]],[[[-74.083235,40.695681],[-74.083199,40.695654],[-74.083235,40.695654],[-74.083235,40.695681]]],[[[-74.083199,40.695708],[-74.083163,40.695681],[-74.083199,40.695681],[-74.083199,40.695708]]],[[[-74.083163,40.695736],[-74.083127,40.695708],[-74.083163,40.695708],[-74.083163,40.695736]]],[[[-74.082766,40.695789],[-74.082801,40.695817],[-74.082765,40.695817],[-74.082766,40.695789]]],[[[-74.082764,40.696009],[-74.083018,40.69579],[-74.083127,40.695736],[-74.082764,40.696009]]],[[[-74.082439,40.696063],[-74.082476,40.696035],[-74.082475,40.696063],[-74.082439,40.696063]]],[[[-74.082619,40.696091],[-74.0828,40.696064],[-74.082583,40.696145],[-74.082619,40.696091]]],[[[-74.082583,40.696173],[-74.082547,40.696145],[-74.082583,40.696145],[-74.082583,40.696173]]],[[[-74.082547,40.6962],[-74.082511,40.696173],[-74.082547,40.696173],[-74.082547,40.6962]]],[[[-74.107277,40.698016],[-74.107675,40.697772],[-74.114232,40.700952],[-74.114309,40.704609],[-74.116408,40.709735],[-74.113869,40.712314],[-74.110167,40.715375],[-74.10747,40.717075],[-74.102976,40.71933],[-74.10177,40.720231],[-74.100089,40.722867],[-74.099011,40.727277],[-74.094235,40.725476],[-74.096212,40.726636],[-74.098962,40.727552],[-74.097897,40.73072],[-74.095303,40.735005],[-74.091107,40.735375],[-74.089989,40.735234],[-74.089162,40.734791],[-74.089166,40.734105],[-74.088408,40.734185],[-74.087256,40.733796],[-74.086711,40.734316],[-74.086752,40.73352],[-74.086534,40.733821],[-74.086356,40.733382],[-74.085777,40.733681],[-74.085888,40.733133],[-74.085204,40.732938],[-74.084878,40.733074],[-74.084918,40.732525],[-74.084199,40.732056],[-74.082711,40.733423],[-74.08325,40.733755],[-74.083391,40.734386],[-74.084362,40.734802],[-74.084577,40.735132],[-74.082705,40.734384],[-74.082595,40.734631],[-74.085114,40.735738],[-74.085725,40.736261],[-74.085111,40.736342],[-74.083312,40.735347],[-74.081908,40.73493],[-74.081146,40.735586],[-74.082335,40.73592],[-74.081973,40.735973],[-74.081936,40.73622],[-74.08255,40.73603],[-74.082691,40.73658],[-74.083304,40.736665],[-74.075969,40.738093],[-74.073951,40.737673],[-74.074315,40.737126],[-74.074749,40.7371],[-74.076019,40.735897],[-74.076567,40.734856],[-74.076784,40.734884],[-74.076743,40.735625],[-74.077501,40.735545],[-74.077683,40.735272],[-74.077898,40.735547],[-74.078044,40.735328],[-74.077325,40.734886],[-74.077615,40.734722],[-74.076682,40.733813],[-74.076579,40.732934],[-74.076904,40.732908],[-74.077514,40.733459],[-74.07885,40.733327],[-74.07957,40.733631],[-74.079538,40.732945],[-74.080409,40.732152],[-74.080158,40.731959],[-74.080879,40.732126],[-74.081168,40.73199],[-74.080737,40.731687],[-74.080777,40.731165],[-74.081211,40.730975],[-74.081065,40.731221],[-74.081568,40.73147],[-74.081931,40.731142],[-74.082904,40.731393],[-74.082365,40.731034],[-74.082691,40.730925],[-74.082115,40.730676],[-74.082009,40.730264],[-74.081502,40.730564],[-74.081831,40.729906],[-74.081616,40.729631],[-74.081832,40.729742],[-74.081689,40.729494],[-74.082014,40.72944],[-74.081727,40.729165],[-74.081837,40.728946],[-74.083066,40.728511],[-74.083503,40.727881],[-74.081675,40.725953],[-74.081569,40.725568],[-74.082114,40.725104],[-74.082263,40.724226],[-74.082625,40.724145],[-74.083243,40.723351],[-74.083893,40.723271],[-74.084721,40.723603],[-74.085301,40.723194],[-74.085914,40.723141],[-74.085988,40.722867],[-74.085448,40.722673],[-74.085558,40.722481],[-74.085954,40.722537],[-74.085992,40.722263],[-74.085594,40.722454],[-74.085705,40.721932],[-74.085417,40.721822],[-74.085743,40.721603],[-74.085675,40.721054],[-74.086181,40.720864],[-74.085752,40.720258],[-74.086365,40.720343],[-74.087017,40.719796],[-74.087486,40.719798],[-74.087957,40.71947],[-74.088354,40.719499],[-74.088603,40.720104],[-74.089253,40.719969],[-74.088752,40.71939],[-74.089471,40.719722],[-74.090265,40.71967],[-74.090123,40.719258],[-74.090555,40.719397],[-74.09117,40.719179],[-74.090918,40.719041],[-74.091318,40.718549],[-74.091105,40.718026],[-74.091789,40.718193],[-74.091178,40.717944],[-74.091071,40.717669],[-74.091324,40.71756],[-74.090821,40.717284],[-74.091434,40.717369],[-74.091363,40.717121],[-74.091687,40.71726],[-74.091724,40.717068],[-74.092049,40.717124],[-74.091295,40.716517],[-74.092086,40.716822],[-74.09227,40.716274],[-74.092738,40.716413],[-74.093786,40.716142],[-74.094181,40.716527],[-74.094615,40.716337],[-74.093391,40.715948],[-74.093141,40.715398],[-74.092853,40.715315],[-74.092598,40.715726],[-74.09195,40.715614],[-74.091731,40.715915],[-74.09191,40.71619],[-74.091658,40.716079],[-74.091259,40.716407],[-74.090935,40.716351],[-74.090756,40.716104],[-74.091591,40.715228],[-74.090874,40.714539],[-74.091989,40.715037],[-74.092243,40.714764],[-74.091595,40.714569],[-74.091455,40.713965],[-74.09214,40.71394],[-74.092463,40.714243],[-74.093006,40.713998],[-74.093943,40.714111],[-74.09416,40.71392],[-74.095097,40.714142],[-74.095318,40.713484],[-74.095534,40.713513],[-74.095316,40.713814],[-74.096179,40.714256],[-74.09676,40.713599],[-74.096185,40.713131],[-74.096223,40.712911],[-74.096906,40.713243],[-74.097198,40.71275],[-74.096803,40.712392],[-74.097307,40.712668],[-74.097272,40.712448],[-74.097597,40.712422],[-74.098581,40.710723],[-74.098404,40.710146],[-74.097326,40.709456],[-74.096564,40.71014],[-74.096276,40.710057],[-74.095625,40.710356],[-74.095847,40.709451],[-74.0961,40.709397],[-74.095056,40.709064],[-74.09513,40.70879],[-74.094554,40.708596],[-74.0947,40.708157],[-74.094268,40.708018],[-74.094127,40.707578],[-74.094848,40.707691],[-74.094455,40.707003],[-74.094926,40.706675],[-74.095717,40.707145],[-74.096437,40.707257],[-74.095181,40.706292],[-74.09547,40.706211],[-74.095183,40.70588],[-74.09533,40.705387],[-74.096266,40.705692],[-74.096091,40.70484],[-74.097206,40.705338],[-74.096955,40.705145],[-74.097032,40.70435],[-74.096781,40.704102],[-74.097142,40.704075],[-74.097289,40.703664],[-74.097649,40.703693],[-74.097795,40.703391],[-74.097369,40.702264],[-74.097586,40.70221],[-74.098052,40.702624],[-74.098093,40.701883],[-74.098489,40.701966],[-74.098709,40.701473],[-74.099723,40.700735],[-74.099331,40.699856],[-74.099978,40.700215],[-74.099803,40.699391],[-74.100199,40.699502],[-74.100239,40.698926],[-74.100636,40.698845],[-74.101332,40.69698],[-74.10213,40.696214],[-74.101881,40.695747],[-74.102675,40.69553],[-74.102283,40.694733],[-74.102536,40.694734],[-74.102852,40.695432],[-74.107496,40.697685],[-74.107277,40.698016]],[[-74.094379,40.725477],[-74.094343,40.725449],[-74.094343,40.725477],[-74.094379,40.725477]],[[-74.089094,40.734105],[-74.089058,40.734077],[-74.089058,40.734105],[-74.089094,40.734105]],[[-74.086821,40.734042],[-74.086857,40.734015],[-74.086821,40.734015],[-74.086821,40.734042]],[[-74.086103,40.733435],[-74.086139,40.733408],[-74.086103,40.733408],[-74.086103,40.733435]],[[-74.08269,40.730953],[-74.082726,40.731008],[-74.082763,40.730953],[-74.08269,40.730953]],[[-74.091179,40.71767],[-74.091215,40.717697],[-74.091215,40.71767],[-74.091179,40.71767]],[[-74.091079,40.716324],[-74.091116,40.716297],[-74.09108,40.716297],[-74.091079,40.716324]],[[-74.092139,40.714132],[-74.092067,40.714159],[-74.092139,40.71416],[-74.092139,40.714132]],[[-74.095236,40.709092],[-74.095272,40.709065],[-74.095236,40.709065],[-74.095236,40.709092]],[[-74.096041,40.707256],[-74.096077,40.707283],[-74.096077,40.707256],[-74.096041,40.707256]],[[-74.096077,40.707283],[-74.096112,40.707311],[-74.096113,40.707283],[-74.096077,40.707283]],[[-74.096148,40.707311],[-74.096148,40.707421],[-74.096256,40.707421],[-74.096148,40.707311]],[[-74.096256,40.707421],[-74.096292,40.707449],[-74.096292,40.707421],[-74.096256,40.707421]],[[-74.107277,40.698016],[-74.107205,40.698044],[-74.107277,40.698044],[-74.107277,40.698016]]],[[[-74.083571,40.740234],[-74.077086,40.738454],[-74.076583,40.738095],[-74.085832,40.736372],[-74.088568,40.737425],[-74.091104,40.735924],[-74.090926,40.735511],[-74.095174,40.73517],[-74.093398,40.737015],[-74.090175,40.738579],[-74.08703,40.739535],[-74.083571,40.740234]]],[[[-74.082305,40.74067],[-74.080578,40.739729],[-74.080328,40.739426],[-74.083641,40.740344],[-74.082305,40.74067]]],[[[-74.078212,40.680126],[-74.078176,40.680098],[-74.078212,40.680099],[-74.078212,40.680126]]],[[[-74.077775,40.680838],[-74.077702,40.68092],[-74.07763,40.680838],[-74.077775,40.680838]]],[[[-74.077882,40.680948],[-74.077918,40.680976],[-74.077882,40.680976],[-74.077882,40.680948]]],[[[-74.078026,40.680976],[-74.07799,40.681004],[-74.07799,40.680976],[-74.078026,40.680976]]],[[[-74.078278,40.68106],[-74.07835,40.681087],[-74.078278,40.681087],[-74.078278,40.68106]]],[[[-74.078386,40.681087],[-74.078458,40.681115],[-74.078386,40.681115],[-74.078386,40.681087]]],[[[-74.078494,40.681115],[-74.078566,40.681143],[-74.078494,40.681143],[-74.078494,40.681115]]],[[[-74.078602,40.681143],[-74.078674,40.681171],[-74.078602,40.681171],[-74.078602,40.681143]]],[[[-74.078746,40.681199],[-74.078674,40.681171],[-74.078746,40.681171],[-74.078746,40.681199]]],[[[-74.07889,40.681199],[-74.078818,40.681226],[-74.078818,40.681199],[-74.07889,40.681199]]],[[[-74.082201,40.688046],[-74.082273,40.687964],[-74.082381,40.688047],[-74.082201,40.688046]]],[[[-74.082165,40.688046],[-74.082129,40.688073],[-74.082129,40.688046],[-74.082165,40.688046]]],[[[-74.082237,40.688074],[-74.082164,40.688101],[-74.082165,40.688074],[-74.082237,40.688074]]],[[[-74.082597,40.688075],[-74.082453,40.68813],[-74.082453,40.688102],[-74.082597,40.688075]]],[[[-74.082308,40.688129],[-74.082273,40.688101],[-74.082309,40.688102],[-74.082308,40.688129]]],[[[-74.08238,40.688157],[-74.082345,40.688129],[-74.082381,40.688129],[-74.08238,40.688157]]],[[[-74.082488,40.688185],[-74.082453,40.688157],[-74.082489,40.688157],[-74.082488,40.688185]]],[[[-74.082561,40.688185],[-74.082524,40.688212],[-74.082525,40.688185],[-74.082561,40.688185]]],[[[-74.074939,40.695871],[-74.074685,40.696034],[-74.074109,40.69584],[-74.074039,40.69562],[-74.073463,40.695453],[-74.073573,40.695124],[-74.073322,40.694986],[-74.073683,40.694823],[-74.075161,40.694965],[-74.075482,40.695461],[-74.076058,40.695655],[-74.076021,40.695847],[-74.075661,40.695791],[-74.075875,40.696176],[-74.074939,40.695871]]],[[[-74.082293,40.696337],[-74.082511,40.6962],[-74.082293,40.696391],[-74.082293,40.696337]]],[[[-74.079465,40.698714],[-74.079537,40.69877],[-74.079465,40.698769],[-74.079465,40.698714]]],[[[-74.079032,40.698823],[-74.079068,40.69885],[-74.079032,40.69885],[-74.079032,40.698823]]],[[[-74.078995,40.69885],[-74.079031,40.698878],[-74.078995,40.698877],[-74.078995,40.69885]]],[[[-74.078959,40.698877],[-74.078995,40.698905],[-74.078959,40.698905],[-74.078959,40.698877]]],[[[-74.079212,40.698878],[-74.079031,40.698987],[-74.079212,40.698823],[-74.079212,40.698878]]],[[[-74.07606,40.70109],[-74.075988,40.701035],[-74.07606,40.701035],[-74.07606,40.70109]]],[[[-74.075951,40.701145],[-74.075879,40.70109],[-74.075952,40.70109],[-74.075951,40.701145]]],[[[-74.075807,40.701144],[-74.07577,40.701254],[-74.075626,40.701281],[-74.07559,40.701253],[-74.075807,40.701144]],[[-74.075698,40.701254],[-74.075662,40.701226],[-74.075662,40.701253],[-74.075698,40.701254]]],[[[-74.074166,40.737894],[-74.07413,40.737866],[-74.074166,40.737866],[-74.074166,40.737894]]],[[[-74.074274,40.737922],[-74.074238,40.737894],[-74.074274,40.737894],[-74.074274,40.737922]]],[[[-74.07344,40.738523],[-74.073085,40.73767],[-74.074741,40.73828],[-74.07344,40.738523]]],[[[-74.07618,40.738972],[-74.075961,40.739355],[-74.0756,40.739354],[-74.074809,40.739022],[-74.073149,40.738988],[-74.073078,40.738713],[-74.075354,40.738365],[-74.075966,40.738587],[-74.07618,40.738972]],[[-74.073438,40.738962],[-74.07351,40.738907],[-74.073438,40.738879],[-74.073438,40.738962]],[[-74.073692,40.738633],[-74.073656,40.738661],[-74.073692,40.738661],[-74.073692,40.738633]],[[-74.075459,40.738832],[-74.075784,40.738915],[-74.076073,40.738862],[-74.076073,40.738834],[-74.075459,40.738832]]],[[[-74.073869,40.739155],[-74.073834,40.739128],[-74.07387,40.739128],[-74.073869,40.739155]]],[[[-74.073256,40.739208],[-74.073509,40.739072],[-74.073834,40.739128],[-74.073256,40.739208]]],[[[-74.079607,40.739259],[-74.079571,40.739231],[-74.079607,40.739231],[-74.079607,40.739259]]],[[[-74.079679,40.739314],[-74.079751,40.739259],[-74.079787,40.739314],[-74.079679,40.739314]]],[[[-74.080075,40.73937],[-74.08004,40.739343],[-74.080076,40.739343],[-74.080075,40.73937]]],[[[-74.080184,40.739398],[-74.080148,40.739371],[-74.080184,40.739371],[-74.080184,40.739398]]],[[[-74.080255,40.739481],[-74.080219,40.739453],[-74.080255,40.739453],[-74.080255,40.739481]]],[[[-74.08083,40.73995],[-74.080794,40.739922],[-74.08083,40.739922],[-74.08083,40.73995]]],[[[-74.080902,40.73995],[-74.080866,40.739977],[-74.080866,40.73995],[-74.080902,40.73995]]],[[[-74.081081,40.740088],[-74.081045,40.74006],[-74.081082,40.74006],[-74.081081,40.740088]]],[[[-74.074149,40.740529],[-74.074185,40.740557],[-74.074149,40.740556],[-74.074149,40.740529]]],[[[-74.074221,40.740584],[-74.074257,40.740557],[-74.074257,40.740584],[-74.074221,40.740584]]],[[[-74.074401,40.740722],[-74.074654,40.740641],[-74.075303,40.74078],[-74.074508,40.740887],[-74.074401,40.740722]],[[-74.074437,40.740722],[-74.074473,40.74075],[-74.074473,40.740722],[-74.074437,40.740722]]],[[[-74.081437,40.740913],[-74.081256,40.740995],[-74.081437,40.740885],[-74.081437,40.740913]]],[[[-74.081329,40.740885],[-74.077094,40.743148],[-74.072551,40.742198],[-74.071076,40.741451],[-74.072345,40.740495],[-74.072387,40.739617],[-74.07311,40.7394],[-74.074842,40.739406],[-74.074047,40.739595],[-74.075309,40.739765],[-74.075058,40.739489],[-74.075383,40.739545],[-74.075668,40.740041],[-74.075196,40.74056],[-74.074546,40.740613],[-74.073466,40.740197],[-74.073393,40.740279],[-74.073679,40.740692],[-74.074327,40.740969],[-74.075519,40.740781],[-74.076174,40.740042],[-74.076143,40.739136],[-74.076361,40.738973],[-74.080073,40.73981],[-74.081865,40.740777],[-74.081329,40.740885]],[[-74.07343,40.740197],[-74.073394,40.740142],[-74.073394,40.740197],[-74.07343,40.740197]]],[[[-74.072315,40.750843],[-74.070625,40.749822],[-74.069513,40.748747],[-74.068096,40.744651],[-74.068246,40.743774],[-74.068607,40.74372],[-74.068854,40.744572],[-74.069535,40.745343],[-74.070473,40.745429],[-74.071341,40.745185],[-74.070552,40.744304],[-74.068825,40.743474],[-74.069879,40.742407],[-74.069591,40.742241],[-74.070458,40.742053],[-74.071178,40.742385],[-74.074314,40.742945],[-74.074532,40.742754],[-74.075289,40.742921],[-74.074784,40.742892],[-74.074999,40.743058],[-74.075685,40.743088],[-74.075397,40.743004],[-74.075542,40.74295],[-74.076947,40.743257],[-74.075151,40.745534],[-74.074869,40.746946],[-74.075017,40.747986],[-74.075707,40.748974],[-74.076586,40.749638],[-74.077145,40.749931],[-74.078852,40.750223],[-74.077279,40.752171],[-74.075578,40.75246],[-74.075231,40.752756],[-74.075238,40.753133],[-74.076388,40.754383],[-74.076519,40.754856],[-74.0763,40.755143],[-74.075215,40.755339],[-74.074894,40.75562],[-74.075146,40.757157],[-74.07465,40.758294],[-74.074044,40.756999],[-74.074298,40.756807],[-74.074013,40.756257],[-74.073616,40.756256],[-74.073293,40.75587],[-74.070724,40.751194],[-74.069683,40.75034],[-74.069296,40.748828],[-74.07048,40.749903],[-74.072315,40.750843]],[[-74.072315,40.750843],[-74.072351,40.750871],[-74.072351,40.750844],[-74.072315,40.750843]]],[[[-74.073099,40.757983],[-74.073063,40.758011],[-74.073063,40.757983],[-74.073099,40.757983]]],[[[-74.073135,40.758011],[-74.073099,40.758066],[-74.073099,40.758011],[-74.073135,40.758011]]],[[[-74.069323,40.699912],[-74.071239,40.699123],[-74.072179,40.69888],[-74.069537,40.700188],[-74.069323,40.699912]]],[[[-74.095734,40.680436],[-74.095336,40.680572],[-74.094905,40.680405],[-74.095335,40.680874],[-74.094793,40.680981],[-74.09526,40.681258],[-74.094968,40.681778],[-74.095506,40.682274],[-74.094966,40.682108],[-74.094458,40.682737],[-74.093342,40.682486],[-74.093307,40.682184],[-74.093996,40.68161],[-74.093131,40.681497],[-74.092296,40.682455],[-74.090102,40.681624],[-74.090644,40.681434],[-74.090858,40.681736],[-74.091183,40.68171],[-74.09126,40.680859],[-74.091983,40.680587],[-74.090186,40.679648],[-74.089968,40.679866],[-74.090473,40.679896],[-74.090795,40.680309],[-74.09072,40.680693],[-74.089606,40.680167],[-74.089027,40.680522],[-74.090001,40.680443],[-74.090251,40.680828],[-74.090067,40.681322],[-74.089708,40.681183],[-74.089598,40.681375],[-74.088519,40.680987],[-74.088448,40.680767],[-74.087761,40.681094],[-74.087474,40.680873],[-74.087251,40.682025],[-74.086998,40.681997],[-74.084337,40.680807],[-74.083766,40.679954],[-74.083442,40.679898],[-74.082331,40.678741],[-74.081392,40.679012],[-74.081358,40.678738],[-74.080026,40.678348],[-74.080204,40.678733],[-74.080022,40.678952],[-74.079409,40.678895],[-74.079733,40.679061],[-74.079731,40.67939],[-74.079406,40.679526],[-74.078974,40.679305],[-74.078829,40.679497],[-74.07802,40.676282],[-74.077373,40.676005],[-74.077119,40.676142],[-74.076791,40.67669],[-74.077494,40.679629],[-74.07814,40.680071],[-74.077705,40.680399],[-74.079322,40.681283],[-74.07889,40.681281],[-74.079249,40.68153],[-74.079208,40.682326],[-74.080718,40.68299],[-74.080353,40.683757],[-74.080824,40.68332],[-74.081726,40.683213],[-74.082121,40.683489],[-74.082154,40.683929],[-74.082694,40.68415],[-74.082727,40.684562],[-74.082042,40.684614],[-74.082939,40.685386],[-74.082793,40.68566],[-74.081894,40.685245],[-74.080998,40.684364],[-74.080782,40.684335],[-74.080852,40.684583],[-74.080421,40.684389],[-74.080526,40.684883],[-74.080921,40.68505],[-74.080594,40.68557],[-74.080956,40.685324],[-74.081099,40.685544],[-74.080448,40.685734],[-74.079912,40.684991],[-74.079154,40.685071],[-74.079656,40.685649],[-74.079471,40.686252],[-74.082451,40.688349],[-74.083425,40.68838],[-74.083533,40.688435],[-74.083388,40.68849],[-74.083424,40.688572],[-74.085556,40.687811],[-74.084543,40.688302],[-74.085156,40.688359],[-74.084975,40.688413],[-74.084866,40.688577],[-74.084288,40.68874],[-74.084251,40.688932],[-74.085836,40.689102],[-74.086849,40.688639],[-74.086377,40.689132],[-74.086484,40.689297],[-74.082423,40.692906],[-74.081586,40.694028],[-74.079194,40.695941],[-74.07858,40.696158],[-74.078361,40.696487],[-74.078541,40.696597],[-74.077998,40.696952],[-74.078067,40.697364],[-74.080567,40.695562],[-74.086372,40.6899],[-74.086081,40.690421],[-74.083613,40.692965],[-74.083541,40.692937],[-74.083541,40.692965],[-74.083468,40.692992],[-74.083468,40.693019],[-74.083432,40.693019],[-74.083431,40.693156],[-74.082669,40.693895],[-74.082669,40.693977],[-74.083902,40.692774],[-74.083938,40.692911],[-74.082594,40.694416],[-74.082414,40.694333],[-74.08216,40.694662],[-74.081906,40.694853],[-74.081798,40.694825],[-74.081506,40.695428],[-74.080526,40.696275],[-74.080488,40.696714],[-74.079835,40.697234],[-74.080813,40.696606],[-74.082664,40.694773],[-74.083456,40.694996],[-74.084942,40.693821],[-74.08505,40.693876],[-74.083962,40.694723],[-74.08407,40.694806],[-74.083853,40.694942],[-74.083564,40.694996],[-74.083526,40.695243],[-74.08244,40.69598],[-74.082366,40.696172],[-74.080808,40.697347],[-74.080735,40.697511],[-74.082293,40.696391],[-74.081785,40.696801],[-74.081928,40.697131],[-74.081019,40.698199],[-74.080298,40.698169],[-74.079609,40.698715],[-74.079465,40.698687],[-74.079465,40.698714],[-74.079393,40.698742],[-74.079393,40.698769],[-74.079357,40.698769],[-74.079356,40.698796],[-74.07932,40.698796],[-74.07932,40.698824],[-74.079176,40.698768],[-74.079068,40.698823],[-74.079177,40.698713],[-74.079105,40.698686],[-74.077183,40.700216],[-74.074867,40.70147],[-74.075518,40.701253],[-74.075733,40.701391],[-74.075115,40.702185],[-74.075438,40.702515],[-74.074639,40.703363],[-74.074306,40.70457],[-74.0742,40.704213],[-74.073551,40.70432],[-74.07275,40.705388],[-74.072966,40.705553],[-74.072783,40.705909],[-74.072386,40.70599],[-74.072167,40.706374],[-74.071554,40.706262],[-74.071047,40.706644],[-74.07108,40.707029],[-74.070756,40.706972],[-74.070466,40.707246],[-74.071005,40.707467],[-74.07104,40.707742],[-74.071621,40.70714],[-74.072159,40.707499],[-74.072121,40.707828],[-74.072445,40.707912],[-74.072592,40.707583],[-74.072843,40.707749],[-74.072474,40.70901],[-74.071204,40.710323],[-74.070662,40.710431],[-74.07005,40.710236],[-74.070123,40.710044],[-74.06951,40.710097],[-74.06908,40.709574],[-74.0676,40.709678],[-74.066988,40.709511],[-74.067568,40.709129],[-74.068036,40.709241],[-74.067823,40.708746],[-74.068837,40.708036],[-74.068947,40.707762],[-74.068696,40.707651],[-74.068299,40.707677],[-74.068007,40.708115],[-74.067574,40.708196],[-74.065482,40.708133],[-74.065517,40.708353],[-74.06501,40.708625],[-74.063998,40.708841],[-74.064538,40.709063],[-74.063852,40.709197],[-74.063884,40.709747],[-74.064171,40.709967],[-74.063483,40.710376],[-74.063159,40.71032],[-74.063125,40.709991],[-74.062474,40.710208],[-74.061936,40.709876],[-74.061903,40.709355],[-74.061508,40.709134],[-74.061296,40.708419],[-74.060178,40.708387],[-74.059346,40.708659],[-74.05913,40.70863],[-74.060142,40.708332],[-74.05989,40.708277],[-74.059963,40.70814],[-74.060143,40.70814],[-74.060433,40.708004],[-74.060433,40.707922],[-74.060397,40.707977],[-74.060289,40.707949],[-74.060289,40.707976],[-74.060253,40.707976],[-74.060109,40.707866],[-74.060905,40.707512],[-74.060871,40.707265],[-74.063802,40.705848],[-74.065541,40.704537],[-74.065399,40.704262],[-74.065795,40.704428],[-74.065471,40.704208],[-74.066088,40.703716],[-74.067785,40.703365],[-74.070064,40.702358],[-74.07032,40.701838],[-74.069314,40.701257],[-74.069136,40.700818],[-74.06939,40.700626],[-74.071886,40.69951],[-74.073258,40.699241],[-74.075392,40.69837],[-74.074852,40.698231],[-74.073551,40.698528],[-74.075577,40.697575],[-74.07547,40.697355],[-74.076886,40.695987],[-74.076525,40.695904],[-74.0766,40.69552],[-74.076277,40.695299],[-74.076387,40.695052],[-74.076603,40.695108],[-74.076387,40.694997],[-74.076536,40.694229],[-74.077112,40.694396],[-74.077582,40.694233],[-74.077558,40.692284],[-74.077991,40.692231],[-74.078573,40.691547],[-74.078861,40.691575],[-74.077354,40.69028],[-74.076738,40.690881],[-74.076917,40.691074],[-74.076592,40.6911],[-74.07688,40.691156],[-74.076731,40.691869],[-74.076298,40.692032],[-74.076301,40.691456],[-74.075467,40.692249],[-74.074673,40.692328],[-74.075388,40.693319],[-74.074741,40.693015],[-74.074667,40.693207],[-74.075817,40.69387],[-74.076243,40.694942],[-74.075919,40.694831],[-74.075774,40.695023],[-74.074987,40.693949],[-74.074591,40.69381],[-74.074228,40.694193],[-74.073293,40.693723],[-74.074083,40.694275],[-74.073722,40.694356],[-74.073322,40.694959],[-74.072277,40.69479],[-74.071093,40.693852],[-74.0704,40.695085],[-74.068476,40.696999],[-74.066854,40.696801],[-74.066886,40.697405],[-74.067789,40.697299],[-74.068466,40.698482],[-74.067596,40.699165],[-74.068639,40.699663],[-74.068455,40.700156],[-74.069465,40.70027],[-74.068777,40.700651],[-74.067735,40.700016],[-74.067661,40.700345],[-74.066609,40.701192],[-74.065523,40.701765],[-74.065449,40.702149],[-74.065877,40.702864],[-74.065478,40.703274],[-74.065692,40.703522],[-74.065003,40.704206],[-74.063301,40.705133],[-74.063665,40.704613],[-74.062148,40.704991],[-74.061893,40.70532],[-74.061208,40.705372],[-74.059321,40.707012],[-74.058527,40.707091],[-74.058637,40.706872],[-74.058312,40.706843],[-74.058491,40.707091],[-74.057659,40.707362],[-74.057692,40.707911],[-74.057945,40.707857],[-74.058015,40.70816],[-74.055843,40.709277],[-74.0549,40.710124],[-74.054132,40.711686],[-74.054051,40.713003],[-74.055544,40.716303],[-74.055708,40.718719],[-74.054273,40.722968],[-74.051428,40.722106],[-74.051283,40.722243],[-74.052508,40.722577],[-74.054089,40.723489],[-74.052066,40.729191],[-74.051337,40.730286],[-74.050432,40.730722],[-74.045309,40.730564],[-74.045344,40.730729],[-74.045561,40.730758],[-74.050213,40.731188],[-74.045155,40.731964],[-74.04501,40.732155],[-74.049521,40.732118],[-74.050605,40.73182],[-74.048281,40.734062],[-74.048459,40.734392],[-74.048133,40.734528],[-74.048059,40.734885],[-74.048382,40.735106],[-74.047292,40.736172],[-74.047289,40.736666],[-74.042387,40.735823],[-74.04502,40.735889],[-74.044733,40.73575],[-74.04495,40.735669],[-74.042099,40.735657],[-74.040441,40.735376],[-74.039361,40.734933],[-74.038321,40.734078],[-74.03688,40.733715],[-74.036929,40.731821],[-74.035606,40.730114],[-74.036019,40.727782],[-74.035497,40.730169],[-74.03682,40.731986],[-74.036664,40.733577],[-74.03421,40.733595],[-74.03778,40.733966],[-74.038104,40.734159],[-74.037527,40.734047],[-74.037526,40.734239],[-74.037995,40.734241],[-74.03803,40.734433],[-74.038283,40.734297],[-74.038354,40.734545],[-74.038894,40.734684],[-74.039144,40.735097],[-74.037378,40.734678],[-74.036331,40.734729],[-74.036333,40.734536],[-74.036259,40.734811],[-74.035537,40.734808],[-74.036799,40.734895],[-74.037015,40.735006],[-74.037808,40.735119],[-74.037914,40.735558],[-74.038527,40.735533],[-74.037334,40.735852],[-74.036434,40.735584],[-74.037336,40.735611],[-74.036868,40.735362],[-74.035353,40.735263],[-74.034345,40.734962],[-74.034422,40.734227],[-74.034309,40.734952],[-74.033373,40.734673],[-74.033554,40.734553],[-74.033377,40.734085],[-74.033338,40.734524],[-74.032941,40.734544],[-74.032436,40.734394],[-74.032439,40.734082],[-74.0324,40.734383],[-74.031747,40.734189],[-74.03197,40.734052],[-74.03128,40.734049],[-74.030091,40.733695],[-74.030566,40.733735],[-74.030967,40.731276],[-74.027997,40.731011],[-74.028094,40.730228],[-74.026851,40.72951],[-74.027419,40.729492],[-74.029127,40.730468],[-74.031254,40.730755],[-74.029758,40.729759],[-74.030478,40.729769],[-74.031141,40.730229],[-74.031232,40.729473],[-74.027341,40.729073],[-74.030966,40.729341],[-74.031006,40.728998],[-74.026548,40.728601],[-74.026604,40.72819],[-74.031034,40.728575],[-74.031086,40.728036],[-74.027374,40.727716],[-74.027376,40.727515],[-74.030342,40.727781],[-74.030405,40.727036],[-74.030021,40.726476],[-74.030287,40.726135],[-74.034452,40.726238],[-74.034525,40.725771],[-74.032072,40.725567],[-74.03211,40.725235],[-74.034559,40.725585],[-74.034614,40.725286],[-74.033817,40.725209],[-74.03384,40.725007],[-74.029447,40.724567],[-74.029605,40.723812],[-74.033812,40.724127],[-74.03423,40.722149],[-74.031422,40.721896],[-74.031476,40.720258],[-74.032552,40.720129],[-74.032062,40.719669],[-74.029269,40.719356],[-74.029375,40.718921],[-74.032487,40.719279],[-74.03275,40.717386],[-74.02993,40.717066],[-74.029999,40.716713],[-74.032075,40.716919],[-74.032169,40.71639],[-74.031289,40.716292],[-74.0315,40.715724],[-74.031699,40.716164],[-74.032624,40.716228],[-74.03315,40.714155],[-74.032997,40.713831],[-74.031663,40.713565],[-74.03302,40.713729],[-74.033733,40.711677],[-74.034832,40.711793],[-74.035525,40.711406],[-74.037113,40.711659],[-74.038075,40.711106],[-74.0395,40.711082],[-74.039514,40.71038],[-74.038623,40.710148],[-74.038499,40.709581],[-74.035384,40.70908],[-74.034716,40.709167],[-74.034344,40.70887],[-74.034501,40.707679],[-74.034081,40.707627],[-74.034058,40.707141],[-74.034162,40.706652],[-74.034692,40.706696],[-74.034873,40.705751],[-74.038658,40.70608],[-74.041336,40.704785],[-74.045227,40.702193],[-74.048464,40.699254],[-74.051378,40.696016],[-74.054851,40.69064],[-74.057814,40.691965],[-74.057479,40.69281],[-74.058322,40.693287],[-74.058756,40.692501],[-74.058952,40.692563],[-74.058686,40.693452],[-74.059387,40.693881],[-74.059784,40.693079],[-74.059994,40.693121],[-74.0597,40.694059],[-74.060237,40.694409],[-74.060745,40.693614],[-74.06137,40.693886],[-74.06103,40.695033],[-74.064731,40.697091],[-74.06515,40.697088],[-74.06524,40.697678],[-74.065774,40.698034],[-74.066106,40.698135],[-74.066563,40.696832],[-74.067029,40.696369],[-74.068257,40.696866],[-74.069577,40.695732],[-74.070581,40.694436],[-74.070378,40.693824],[-74.069619,40.694049],[-74.069813,40.694365],[-74.069068,40.695173],[-74.0678,40.695391],[-74.067688,40.695217],[-74.067452,40.695555],[-74.065882,40.694626],[-74.06693,40.694008],[-74.068929,40.691697],[-74.069459,40.690723],[-74.069929,40.688696],[-74.069624,40.685822],[-74.07021,40.684684],[-74.069889,40.68445],[-74.070546,40.683946],[-74.073359,40.686049],[-74.073182,40.686206],[-74.07347,40.686778],[-74.074685,40.687589],[-74.07484,40.687935],[-74.075758,40.68829],[-74.075897,40.688661],[-74.078013,40.688601],[-74.078733,40.688949],[-74.079993,40.688906],[-74.079582,40.688726],[-74.080285,40.687995],[-74.07463,40.683866],[-74.074457,40.683971],[-74.071101,40.681665],[-74.070662,40.680639],[-74.071797,40.679744],[-74.070641,40.679209],[-74.071889,40.679629],[-74.07372,40.679817],[-74.074828,40.678352],[-74.072516,40.677158],[-74.072814,40.676909],[-74.075007,40.678078],[-74.075638,40.677405],[-74.072611,40.675807],[-74.073022,40.675347],[-74.07579,40.676812],[-74.076735,40.676002],[-74.075979,40.67691],[-74.077223,40.675599],[-74.080985,40.677371],[-74.081291,40.677066],[-74.0813,40.676473],[-74.080935,40.676073],[-74.077279,40.674274],[-74.069296,40.670879],[-74.068149,40.670712],[-74.064988,40.669224],[-74.06492,40.66853],[-74.065716,40.66704],[-74.098148,40.680774],[-74.096452,40.680932],[-74.095734,40.680436]],[[-74.094905,40.680405],[-74.094869,40.680378],[-74.094869,40.680405],[-74.094905,40.680405]],[[-74.078854,40.681281],[-74.078926,40.681172],[-74.077846,40.680921],[-74.078315,40.680977],[-74.078207,40.680895],[-74.078135,40.680922],[-74.077307,40.680672],[-74.077702,40.680975],[-74.078854,40.681281]],[[-74.078207,40.680867],[-74.078387,40.68095],[-74.078603,40.680978],[-74.078603,40.680924],[-74.078207,40.680867]],[[-74.078207,40.680867],[-74.078099,40.680839],[-74.078099,40.680867],[-74.078207,40.680867]],[[-74.078099,40.680839],[-74.078027,40.680812],[-74.078027,40.680839],[-74.078099,40.680839]],[[-74.077631,40.680755],[-74.077775,40.680728],[-74.077631,40.680728],[-74.077631,40.680755]],[[-74.077307,40.680672],[-74.077235,40.680644],[-74.077235,40.680671],[-74.077307,40.680672]],[[-74.077163,40.680644],[-74.077055,40.680534],[-74.076983,40.680533],[-74.077163,40.680644]],[[-74.076983,40.680533],[-74.076911,40.680506],[-74.076911,40.680533],[-74.076983,40.680533]],[[-74.076911,40.680506],[-74.076839,40.680478],[-74.076839,40.680505],[-74.076911,40.680506]],[[-74.076839,40.680478],[-74.076804,40.68045],[-74.076803,40.680478],[-74.076839,40.680478]],[[-74.078961,40.681391],[-74.078889,40.681364],[-74.078889,40.681391],[-74.078961,40.681391]],[[-74.078745,40.681363],[-74.078709,40.681281],[-74.078637,40.681308],[-74.078745,40.681363]],[[-74.07914,40.681639],[-74.079104,40.681612],[-74.079104,40.681639],[-74.07914,40.681639]],[[-74.079032,40.681666],[-74.07896,40.681501],[-74.078456,40.681472],[-74.078779,40.681693],[-74.079032,40.681666]],[[-74.079912,40.684991],[-74.079948,40.684964],[-74.079912,40.684964],[-74.079912,40.684991]],[[-74.08346,40.688463],[-74.083424,40.688435],[-74.083424,40.688462],[-74.08346,40.688463]],[[-74.077996,40.697199],[-74.07796,40.697227],[-74.077996,40.697227],[-74.077996,40.697199]],[[-74.07796,40.697227],[-74.077924,40.697254],[-74.07796,40.697254],[-74.07796,40.697227]],[[-74.077924,40.697254],[-74.077887,40.697281],[-74.077923,40.697281],[-74.077924,40.697254]],[[-74.083758,40.692773],[-74.083722,40.692746],[-74.083722,40.692773],[-74.083758,40.692773]],[[-74.083395,40.693101],[-74.083359,40.693129],[-74.083395,40.693129],[-74.083395,40.693101]],[[-74.081906,40.694798],[-74.08187,40.69477],[-74.08187,40.694798],[-74.081906,40.694798]],[[-74.080199,40.696796],[-74.080163,40.696741],[-74.080163,40.696795],[-74.080199,40.696796]],[[-74.079763,40.697233],[-74.079328,40.697616],[-74.079363,40.697726],[-74.079905,40.697536],[-74.079763,40.697233]],[[-74.083925,40.69486],[-74.08389,40.694833],[-74.083889,40.69486],[-74.083925,40.69486]],[[-74.081968,40.696445],[-74.081932,40.696418],[-74.081932,40.696445],[-74.081968,40.696445]],[[-74.080735,40.697511],[-74.080663,40.697538],[-74.080735,40.697539],[-74.080735,40.697511]],[[-74.081712,40.697021],[-74.081568,40.697048],[-74.081567,40.697103],[-74.081712,40.697021]],[[-74.081567,40.69713],[-74.081386,40.697184],[-74.081386,40.697239],[-74.081567,40.69713]],[[-74.081386,40.697239],[-74.08135,40.697266],[-74.081386,40.697267],[-74.081386,40.697239]],[[-74.079212,40.698768],[-74.079249,40.698741],[-74.079213,40.698741],[-74.079212,40.698768]],[[-74.070195,40.7101],[-74.070267,40.710127],[-74.070267,40.7101],[-74.070195,40.7101]],[[-74.063998,40.708841],[-74.063927,40.708813],[-74.063926,40.708841],[-74.063998,40.708841]],[[-74.059346,40.708631],[-74.059311,40.708604],[-74.05931,40.708631],[-74.059346,40.708631]],[[-74.060034,40.70825],[-74.060143,40.708223],[-74.060035,40.708222],[-74.060034,40.70825]],[[-74.060978,40.70743],[-74.061014,40.707457],[-74.061014,40.70743],[-74.060978,40.70743]],[[-74.060978,40.70732],[-74.061051,40.707293],[-74.060979,40.707292],[-74.060978,40.70732]],[[-74.061051,40.707293],[-74.061087,40.707265],[-74.061051,40.707265],[-74.061051,40.707293]],[[-74.065544,40.704153],[-74.06558,40.704181],[-74.06558,40.704153],[-74.065544,40.704153]],[[-74.075284,40.698287],[-74.07532,40.69826],[-74.075284,40.69826],[-74.075284,40.698287]],[[-74.076886,40.695933],[-74.076995,40.695878],[-74.076886,40.695905],[-74.076886,40.695933]],[[-74.067683,40.696859],[-74.067647,40.696832],[-74.067647,40.696859],[-74.067683,40.696859]],[[-74.037015,40.735006],[-74.036979,40.735033],[-74.037015,40.735033],[-74.037015,40.735006]],[[-74.037015,40.735033],[-74.036979,40.735088],[-74.037087,40.735034],[-74.037015,40.735033]],[[-74.031176,40.733994],[-74.031213,40.733967],[-74.031176,40.733967],[-74.031176,40.733994]],[[-74.03096,40.733938],[-74.031285,40.733885],[-74.03096,40.733911],[-74.03096,40.733938]]],[[[-74.065471,40.704263],[-74.065435,40.704235],[-74.065471,40.704235],[-74.065471,40.704263]]],[[[-74.060833,40.707429],[-74.060761,40.707401],[-74.060762,40.707374],[-74.060834,40.707374],[-74.060833,40.707429]]],[[[-74.060869,40.707512],[-74.060797,40.707484],[-74.060869,40.707484],[-74.060869,40.707512]]],[[[-74.060073,40.707893],[-74.060109,40.707921],[-74.060073,40.70792],[-74.060073,40.707893]]],[[[-74.06,40.70792],[-74.060072,40.707948],[-74.06,40.707948],[-74.06,40.70792]]],[[[-74.060325,40.708004],[-74.060289,40.707976],[-74.060325,40.707976],[-74.060325,40.708004]]],[[[-74.060288,40.708031],[-74.060216,40.708003],[-74.060288,40.708004],[-74.060288,40.708031]]],[[[-74.060216,40.708058],[-74.06018,40.708031],[-74.060216,40.708031],[-74.060216,40.708058]]],[[[-74.059819,40.708057],[-74.059783,40.708029],[-74.059819,40.708029],[-74.059819,40.708057]]],[[[-74.06018,40.708058],[-74.060108,40.708085],[-74.060108,40.708058],[-74.06018,40.708058]]],[[[-74.060071,40.70814],[-74.060035,40.708112],[-74.060071,40.708113],[-74.060071,40.70814]]],[[[-74.05989,40.708194],[-74.059854,40.708222],[-74.059854,40.708194],[-74.05989,40.708194]]],[[[-74.059782,40.708221],[-74.059854,40.708249],[-74.059782,40.708249],[-74.059782,40.708221]]],[[[-74.059746,40.708249],[-74.059782,40.708276],[-74.059746,40.708276],[-74.059746,40.708249]]],[[[-74.059782,40.708304],[-74.059854,40.708276],[-74.059854,40.708304],[-74.059782,40.708304]]],[[[-74.059745,40.708303],[-74.059781,40.708331],[-74.059637,40.70833],[-74.05971,40.708276],[-74.059745,40.708303]]],[[[-74.059058,40.708658],[-74.05913,40.708685],[-74.059058,40.708685],[-74.059058,40.708658]]],[[[-74.058985,40.708685],[-74.059057,40.708713],[-74.058985,40.708712],[-74.058985,40.708685]]],[[[-74.058805,40.708739],[-74.058913,40.708767],[-74.058768,40.708794],[-74.058805,40.708739]]],[[[-74.058732,40.708794],[-74.058696,40.708821],[-74.058696,40.708794],[-74.058732,40.708794]]],[[[-74.058624,40.708821],[-74.058696,40.708848],[-74.058624,40.708848],[-74.058624,40.708821]]],[[[-74.058587,40.708875],[-74.058551,40.708848],[-74.058588,40.708848],[-74.058587,40.708875]]],[[[-74.057861,40.709669],[-74.057534,40.709942],[-74.0575,40.709722],[-74.057861,40.709669]]],[[[-74.066614,40.711651],[-74.066189,40.710441],[-74.066622,40.710333],[-74.066807,40.709675],[-74.068608,40.710121],[-74.068097,40.710915],[-74.067011,40.711597],[-74.066614,40.711651]]],[[[-74.068449,40.712371],[-74.069578,40.710701],[-74.070229,40.710429],[-74.070625,40.710513],[-74.069973,40.71095],[-74.068555,40.712674],[-74.068449,40.712371]]],[[[-74.066554,40.715219],[-74.065974,40.715739],[-74.066369,40.716042],[-74.066295,40.716344],[-74.064994,40.716586],[-74.065316,40.716999],[-74.064811,40.717024],[-74.064774,40.717216],[-74.065134,40.717328],[-74.065131,40.717794],[-74.064914,40.717821],[-74.064729,40.718506],[-74.065122,40.719112],[-74.064976,40.719303],[-74.064581,40.719137],[-74.064144,40.719685],[-74.064464,40.720509],[-74.063957,40.720727],[-74.063048,40.721739],[-74.063227,40.721959],[-74.062681,40.722808],[-74.062392,40.722752],[-74.062282,40.723026],[-74.061777,40.723107],[-74.061521,40.723627],[-74.060904,40.724201],[-74.060615,40.7242],[-74.060467,40.724776],[-74.059745,40.724746],[-74.056218,40.72347],[-74.056109,40.723579],[-74.056108,40.723689],[-74.056,40.723689],[-74.056001,40.723469],[-74.054525,40.723052],[-74.056254,40.718007],[-74.056085,40.716332],[-74.054376,40.712949],[-74.054419,40.711906],[-74.054969,40.710591],[-74.054961,40.711771],[-74.057903,40.719661],[-74.057753,40.720539],[-74.056291,40.723251],[-74.056911,40.722347],[-74.057095,40.721854],[-74.057314,40.72147],[-74.057386,40.721498],[-74.057569,40.720977],[-74.057898,40.720374],[-74.05797,40.720375],[-74.057975,40.719661],[-74.056027,40.714136],[-74.056249,40.713313],[-74.055817,40.713284],[-74.055711,40.712817],[-74.056291,40.712435],[-74.056151,40.711803],[-74.056621,40.71164],[-74.056731,40.711421],[-74.05637,40.711475],[-74.056227,40.711172],[-74.055759,40.711143],[-74.055579,40.71106],[-74.055543,40.711005],[-74.055434,40.711197],[-74.055146,40.711113],[-74.055549,40.710181],[-74.056598,40.709609],[-74.056636,40.709362],[-74.059711,40.708029],[-74.057249,40.709502],[-74.057429,40.70953],[-74.057247,40.709776],[-74.057426,40.709969],[-74.057138,40.709831],[-74.05692,40.710022],[-74.057353,40.710051],[-74.057243,40.710353],[-74.057568,40.710272],[-74.057748,40.7103],[-74.057601,40.710821],[-74.057276,40.710765],[-74.057419,40.710985],[-74.057093,40.711148],[-74.057274,40.711149],[-74.057636,40.710848],[-74.058141,40.71096],[-74.058432,40.710604],[-74.059188,40.710854],[-74.059257,40.711239],[-74.060232,40.711078],[-74.060374,40.71149],[-74.06095,40.711657],[-74.061091,40.712069],[-74.061668,40.712181],[-74.061773,40.712593],[-74.062674,40.712762],[-74.062347,40.71309],[-74.062853,40.712954],[-74.062958,40.713421],[-74.063499,40.713588],[-74.063424,40.71389],[-74.0631,40.713779],[-74.063315,40.714054],[-74.064181,40.714085],[-74.064213,40.714689],[-74.06468,40.71491],[-74.064316,40.715403],[-74.065112,40.715049],[-74.064251,40.71436],[-74.064721,40.714197],[-74.065079,40.714665],[-74.065116,40.714473],[-74.066018,40.714503],[-74.065697,40.713926],[-74.066381,40.714066],[-74.066458,40.71338],[-74.067,40.713272],[-74.066967,40.712778],[-74.067472,40.712807],[-74.067577,40.713274],[-74.06663,40.714616],[-74.066414,40.714587],[-74.06652,40.714917],[-74.066988,40.715138],[-74.066698,40.715384],[-74.066554,40.715219]],[[-74.056073,40.723552],[-74.05611,40.723469],[-74.056074,40.723469],[-74.056073,40.723552]],[[-74.05611,40.723469],[-74.056146,40.723415],[-74.05611,40.723415],[-74.05611,40.723469]],[[-74.054966,40.710975],[-74.05493,40.710948],[-74.05493,40.710975],[-74.054966,40.710975]],[[-74.056914,40.721826],[-74.057023,40.721716],[-74.056951,40.721688],[-74.056914,40.721826]],[[-74.056987,40.721689],[-74.057024,40.721661],[-74.056988,40.721661],[-74.056987,40.721689]],[[-74.056914,40.721826],[-74.056878,40.72188],[-74.056914,40.72188],[-74.056914,40.721826]],[[-74.057131,40.721854],[-74.057166,40.721881],[-74.057167,40.721854],[-74.057131,40.721854]],[[-74.057313,40.721525],[-74.057349,40.721553],[-74.057349,40.721525],[-74.057313,40.721525]],[[-74.057715,40.720786],[-74.057751,40.720813],[-74.057751,40.720786],[-74.057715,40.720786]],[[-74.057861,40.720512],[-74.057897,40.720567],[-74.057897,40.720512],[-74.057861,40.720512]],[[-74.057898,40.720429],[-74.057933,40.720484],[-74.057934,40.720429],[-74.057898,40.720429]],[[-74.056249,40.713313],[-74.056285,40.713286],[-74.056249,40.713286],[-74.056249,40.713313]],[[-74.055579,40.711032],[-74.055615,40.710978],[-74.055579,40.710978],[-74.055579,40.711032]],[[-74.055615,40.710978],[-74.055652,40.71095],[-74.055616,40.71095],[-74.055615,40.710978]],[[-74.057284,40.709557],[-74.057248,40.709584],[-74.057284,40.709584],[-74.057284,40.709557]],[[-74.057317,40.710051],[-74.057281,40.710078],[-74.057317,40.710078],[-74.057317,40.710051]],[[-74.057276,40.710765],[-74.05724,40.710737],[-74.05724,40.710764],[-74.057276,40.710765]],[[-74.05724,40.710737],[-74.057204,40.710709],[-74.057204,40.710737],[-74.05724,40.710737]],[[-74.057165,40.711176],[-74.057093,40.711203],[-74.057165,40.711203],[-74.057165,40.711176]],[[-74.061523,40.712208],[-74.061487,40.712235],[-74.061523,40.712236],[-74.061523,40.712208]],[[-74.0631,40.713779],[-74.063065,40.713751],[-74.063064,40.713779],[-74.0631,40.713779]],[[-74.065151,40.714665],[-74.065187,40.714693],[-74.065187,40.714665],[-74.065151,40.714665]],[[-74.06659,40.715219],[-74.066627,40.715192],[-74.066591,40.715192],[-74.06659,40.715219]]],[[[-74.070712,40.741916],[-74.070533,40.741723],[-74.070785,40.741779],[-74.070712,40.741916]]],[[[-74.066947,40.743686],[-74.066874,40.743851],[-74.066875,40.743686],[-74.066947,40.743686]]],[[[-74.067233,40.744044],[-74.067161,40.744099],[-74.067197,40.744044],[-74.067233,40.744044]]],[[[-74.067662,40.744815],[-74.067626,40.744787],[-74.067662,40.744787],[-74.067662,40.744815]]],[[[-74.065923,40.745686],[-74.065995,40.745742],[-74.065923,40.745769],[-74.065923,40.745686]]],[[[-74.066031,40.745742],[-74.066067,40.745769],[-74.066031,40.745769],[-74.066031,40.745742]]],[[[-74.065886,40.745933],[-74.065922,40.745906],[-74.065922,40.745933],[-74.065886,40.745933]]],[[[-74.064287,40.747574],[-74.064286,40.747766],[-74.064214,40.747766],[-74.064287,40.747574]]],[[[-74.064177,40.747794],[-74.064213,40.747903],[-74.064177,40.747903],[-74.064177,40.747794]]],[[[-74.064682,40.747905],[-74.064646,40.747878],[-74.064682,40.747878],[-74.064682,40.747905]]],[[[-74.064068,40.747985],[-74.06403,40.748205],[-74.063958,40.748232],[-74.064068,40.747985]]],[[[-74.068212,40.749016],[-74.068248,40.749044],[-74.068212,40.749044],[-74.068212,40.749016]]],[[[-74.062139,40.750394],[-74.062103,40.750366],[-74.062139,40.750366],[-74.062139,40.750394]]],[[[-74.062103,40.750393],[-74.062066,40.750448],[-74.062067,40.750393],[-74.062103,40.750393]]],[[[-74.060689,40.751404],[-74.060725,40.751376],[-74.060725,40.751404],[-74.060689,40.751404]]],[[[-74.061013,40.751405],[-74.060977,40.751432],[-74.060977,40.751405],[-74.061013,40.751405]]],[[[-74.068995,40.750666],[-74.069491,40.752178],[-74.069955,40.752948],[-74.068198,40.751212],[-74.068128,40.750773],[-74.068455,40.750445],[-74.069357,40.750476],[-74.06932,40.750723],[-74.068995,40.750666]],[[-74.068995,40.750666],[-74.06896,40.750584],[-74.068924,40.750474],[-74.068959,40.750666],[-74.068995,40.750666]]],[[[-74.073386,40.758259],[-74.072241,40.7568],[-74.071277,40.755122],[-74.069861,40.750752],[-74.070614,40.751551],[-74.073394,40.757024],[-74.074396,40.758427],[-74.072666,40.758911],[-74.072224,40.760123],[-74.070191,40.761185],[-74.069977,40.760744],[-74.070155,40.761203],[-74.066427,40.76275],[-74.064931,40.763763],[-74.063801,40.763669],[-74.062501,40.762673],[-74.061794,40.76242],[-74.060022,40.76255],[-74.060002,40.76341],[-74.05963,40.764001],[-74.059993,40.765701],[-74.058474,40.766757],[-74.056954,40.769011],[-74.052044,40.760841],[-74.05225,40.760951],[-74.052396,40.760705],[-74.052073,40.760484],[-74.051896,40.760593],[-74.051894,40.760319],[-74.054186,40.75761],[-74.054224,40.757281],[-74.054441,40.757309],[-74.054804,40.756926],[-74.054769,40.756761],[-74.054878,40.756624],[-74.055531,40.756188],[-74.055496,40.755995],[-74.055713,40.755969],[-74.055931,40.755805],[-74.055714,40.755886],[-74.055752,40.755612],[-74.056404,40.755175],[-74.056555,40.75416],[-74.056046,40.754735],[-74.055794,40.754624],[-74.056232,40.753967],[-74.056737,40.753914],[-74.056956,40.753613],[-74.056741,40.753365],[-74.057252,40.752571],[-74.05776,40.752106],[-74.058085,40.752135],[-74.059139,40.751041],[-74.059787,40.75129],[-74.060438,40.751073],[-74.060368,40.750716],[-74.061059,40.750005],[-74.060992,40.749209],[-74.061788,40.7488],[-74.061248,40.748716],[-74.061649,40.748031],[-74.062336,40.747869],[-74.062369,40.748391],[-74.062586,40.748227],[-74.062439,40.74861],[-74.061787,40.74902],[-74.062326,40.749406],[-74.062834,40.749051],[-74.06305,40.749134],[-74.062506,40.749489],[-74.061814,40.750447],[-74.061488,40.750528],[-74.060653,40.751376],[-74.059707,40.752471],[-74.061594,40.750995],[-74.06185,40.750502],[-74.062066,40.750531],[-74.063955,40.748726],[-74.064394,40.747739],[-74.064681,40.748042],[-74.064686,40.747246],[-74.065047,40.74722],[-74.065012,40.747056],[-74.065378,40.746261],[-74.065958,40.745934],[-74.066103,40.745797],[-74.066177,40.745605],[-74.066356,40.745743],[-74.066974,40.745032],[-74.067086,40.744483],[-74.066512,40.743987],[-74.066585,40.743795],[-74.067556,40.744348],[-74.067553,40.744897],[-74.069184,40.749404],[-74.069251,40.750146],[-74.068963,40.750117],[-74.068535,40.749292],[-74.06814,40.749016],[-74.06871,40.750116],[-74.067877,40.750552],[-74.067837,40.751211],[-74.069523,40.752809],[-74.070377,40.754762],[-74.070132,40.753471],[-74.070277,40.753389],[-74.071665,40.756468],[-74.072524,40.757707],[-74.073026,40.75823],[-74.073171,40.758066],[-74.073386,40.758259]],[[-74.072563,40.757158],[-74.0726,40.757103],[-74.072564,40.757103],[-74.072563,40.757158]],[[-74.069941,40.760744],[-74.069942,40.760579],[-74.069906,40.760579],[-74.069941,40.760744]],[[-74.06987,40.760579],[-74.06987,40.760497],[-74.069764,40.760277],[-74.06987,40.760579]],[[-74.069764,40.760277],[-74.069728,40.760194],[-74.069727,40.760277],[-74.069764,40.760277]],[[-74.069728,40.760194],[-74.069692,40.760112],[-74.069692,40.760194],[-74.069728,40.760194]],[[-74.069692,40.760112],[-74.069657,40.760057],[-74.069656,40.760112],[-74.069692,40.760112]],[[-74.070083,40.761074],[-74.070047,40.761101],[-74.070083,40.761101],[-74.070083,40.761074]],[[-74.070047,40.761101],[-74.069939,40.761128],[-74.070047,40.761129],[-74.070047,40.761101]],[[-74.069939,40.761128],[-74.069902,40.761156],[-74.069938,40.761156],[-74.069939,40.761128]],[[-74.069612,40.761347],[-74.069576,40.761374],[-74.069612,40.761374],[-74.069612,40.761347]],[[-74.054805,40.756871],[-74.054877,40.756789],[-74.054841,40.756789],[-74.054805,40.756871]],[[-74.055168,40.756488],[-74.055132,40.756516],[-74.055168,40.756516],[-74.055168,40.756488]],[[-74.055132,40.756516],[-74.055096,40.756543],[-74.055132,40.756543],[-74.055132,40.756516]],[[-74.055532,40.756105],[-74.055568,40.756051],[-74.055532,40.75605],[-74.055532,40.756105]],[[-74.056956,40.753558],[-74.056993,40.753531],[-74.056957,40.753531],[-74.056956,40.753558]],[[-74.059707,40.752525],[-74.059562,40.752552],[-74.059562,40.752607],[-74.059707,40.752525]],[[-74.061013,40.75146],[-74.061049,40.751515],[-74.061085,40.75146],[-74.061013,40.75146]],[[-74.064028,40.748616],[-74.064063,40.748644],[-74.064064,40.748617],[-74.064028,40.748616]],[[-74.064754,40.747851],[-74.064791,40.747823],[-74.064755,40.747823],[-74.064754,40.747851]],[[-74.064791,40.747851],[-74.064826,40.747878],[-74.064827,40.747851],[-74.064791,40.747851]],[[-74.065084,40.747111],[-74.06512,40.747083],[-74.065084,40.747083],[-74.065084,40.747111]],[[-74.066356,40.745743],[-74.066392,40.745771],[-74.066392,40.745743],[-74.066356,40.745743]],[[-74.067518,40.744649],[-74.067519,40.744594],[-74.067483,40.744539],[-74.067518,40.744649]],[[-74.067483,40.744539],[-74.067447,40.744512],[-74.067447,40.744539],[-74.067483,40.744539]],[[-74.067447,40.744512],[-74.067375,40.744457],[-74.067375,40.744484],[-74.067447,40.744512]],[[-74.073098,40.75823],[-74.073134,40.758258],[-74.073134,40.758231],[-74.073098,40.75823]],[[-74.07317,40.758176],[-74.073206,40.758203],[-74.073207,40.758176],[-74.07317,40.758176]],[[-74.073386,40.758259],[-74.073422,40.758314],[-74.073423,40.758259],[-74.073386,40.758259]]],[[[-74.07256,40.757652],[-74.072524,40.757624],[-74.07256,40.757625],[-74.07256,40.757652]]],[[[-74.072956,40.757846],[-74.07292,40.757818],[-74.072956,40.757818],[-74.072956,40.757846]]],[[[-74.073028,40.757928],[-74.072992,40.757901],[-74.073028,40.757901],[-74.073028,40.757928]]],[[[-74.073064,40.757956],[-74.073027,40.757983],[-74.073027,40.757956],[-74.073064,40.757956]]],[[[-74.056782,40.709116],[-74.056746,40.709143],[-74.056746,40.709115],[-74.056782,40.709116]]],[[[-74.05671,40.709143],[-74.056746,40.70917],[-74.05671,40.70917],[-74.05671,40.709143]]],[[[-74.056709,40.709253],[-74.056456,40.709279],[-74.05671,40.70917],[-74.056709,40.709253]]],[[[-74.057101,40.709913],[-74.057138,40.709886],[-74.057138,40.709913],[-74.057101,40.709913]]],[[[-74.057637,40.710821],[-74.0576,40.710848],[-74.057601,40.710821],[-74.057637,40.710821]]],[[[-74.057423,40.721278],[-74.057459,40.721251],[-74.057459,40.721279],[-74.057423,40.721278]]],[[[-74.057423,40.721333],[-74.057386,40.721361],[-74.057387,40.721333],[-74.057423,40.721333]]],[[[-74.056839,40.722319],[-74.056875,40.722347],[-74.056839,40.722347],[-74.056839,40.722319]]],[[[-74.056181,40.723552],[-74.056217,40.723525],[-74.056217,40.723552],[-74.056181,40.723552]]],[[[-74.055198,40.724893],[-74.055162,40.724921],[-74.055162,40.724893],[-74.055198,40.724893]]],[[[-74.054576,40.726263],[-74.05454,40.726181],[-74.054576,40.726181],[-74.054576,40.726263]]],[[[-74.054503,40.726291],[-74.05454,40.726263],[-74.054539,40.726291],[-74.054503,40.726291]]],[[[-74.054283,40.726811],[-74.05432,40.726784],[-74.054319,40.726811],[-74.054283,40.726811]]],[[[-74.054247,40.726894],[-74.054283,40.726866],[-74.054283,40.726894],[-74.054247,40.726894]]],[[[-74.05421,40.726976],[-74.054246,40.726948],[-74.054246,40.726976],[-74.05421,40.726976]]],[[[-74.054173,40.727058],[-74.05421,40.727031],[-74.054209,40.727058],[-74.054173,40.727058]]],[[[-74.055159,40.725415],[-74.055192,40.725799],[-74.054432,40.726126],[-74.054503,40.726263],[-74.054356,40.726784],[-74.054284,40.726756],[-74.054247,40.726784],[-74.054138,40.72703],[-74.054172,40.727278],[-74.053846,40.727468],[-74.054094,40.728101],[-74.053842,40.7281],[-74.053224,40.728811],[-74.052754,40.728892],[-74.052569,40.729605],[-74.051841,40.730535],[-74.052128,40.730811],[-74.052055,40.73092],[-74.05227,40.731058],[-74.052379,40.731031],[-74.052378,40.731086],[-74.052342,40.731113],[-74.052485,40.731279],[-74.052377,40.731278],[-74.05227,40.731168],[-74.051478,40.730891],[-74.052648,40.728589],[-74.054231,40.723874],[-74.054658,40.724699],[-74.054981,40.724947],[-74.055306,40.724921],[-74.055159,40.725415]],[[-74.054356,40.726702],[-74.05432,40.726674],[-74.05432,40.726702],[-74.054356,40.726702]],[[-74.054137,40.727113],[-74.054101,40.727167],[-74.054137,40.727168],[-74.054137,40.727113]],[[-74.051876,40.730672],[-74.05184,40.7307],[-74.051876,40.7307],[-74.051876,40.730672]],[[-74.051912,40.7307],[-74.051803,40.730809],[-74.051839,40.730864],[-74.051912,40.7307]],[[-74.055196,40.725223],[-74.05516,40.725195],[-74.05516,40.725223],[-74.055196,40.725223]]],[[[-74.052394,40.72878],[-74.052358,40.728753],[-74.052394,40.728753],[-74.052394,40.72878]]],[[[-74.052358,40.728808],[-74.052321,40.728917],[-74.052321,40.728808],[-74.052358,40.728808]]],[[[-74.052321,40.728917],[-74.051844,40.730123],[-74.051552,40.730534],[-74.051445,40.730341],[-74.052321,40.728917]]],[[[-74.050612,40.730805],[-74.051337,40.730396],[-74.051552,40.730561],[-74.05126,40.731027],[-74.049276,40.730937],[-74.050612,40.730805]]],[[[-74.052163,40.730893],[-74.052127,40.730921],[-74.052127,40.730893],[-74.052163,40.730893]]],[[[-74.052199,40.730921],[-74.052163,40.730948],[-74.052163,40.730921],[-74.052199,40.730921]]],[[[-74.052235,40.730948],[-74.052199,40.730976],[-74.052199,40.730948],[-74.052235,40.730948]]],[[[-74.052271,40.730976],[-74.052235,40.731003],[-74.052235,40.730976],[-74.052271,40.730976]]],[[[-74.052307,40.731004],[-74.05227,40.731031],[-74.052271,40.731003],[-74.052307,40.731004]]],[[[-74.052414,40.731114],[-74.052378,40.731086],[-74.052414,40.731086],[-74.052414,40.731114]]],[[[-74.05245,40.731141],[-74.052414,40.731169],[-74.052414,40.731141],[-74.05245,40.731141]]],[[[-74.052486,40.731196],[-74.05245,40.731196],[-74.05245,40.731169],[-74.052486,40.731169],[-74.052486,40.731196]]],[[[-74.052522,40.731224],[-74.052486,40.731196],[-74.052522,40.731197],[-74.052522,40.731224]]],[[[-74.052233,40.731223],[-74.052269,40.731196],[-74.052269,40.731223],[-74.052233,40.731223]]],[[[-74.052269,40.731223],[-74.052305,40.731251],[-74.052269,40.73125],[-74.052269,40.731223]]],[[[-74.051114,40.731273],[-74.051042,40.731246],[-74.051114,40.731246],[-74.051114,40.731273]]],[[[-74.052485,40.731306],[-74.052521,40.731279],[-74.052521,40.731306],[-74.052485,40.731306]]],[[[-74.052341,40.731278],[-74.052377,40.731306],[-74.052341,40.731306],[-74.052341,40.731278]]],[[[-74.055713,40.755941],[-74.055677,40.755914],[-74.055713,40.755914],[-74.055713,40.755941]]],[[[-74.05535,40.756214],[-74.055386,40.756242],[-74.05535,40.756242],[-74.05535,40.756214]]],[[[-74.05535,40.756297],[-74.055314,40.756269],[-74.05535,40.756269],[-74.05535,40.756297]]],[[[-74.055314,40.756297],[-74.055277,40.756324],[-74.055278,40.756297],[-74.055314,40.756297]]],[[[-74.054732,40.756953],[-74.054696,40.756926],[-74.054732,40.756926],[-74.054732,40.756953]]],[[[-74.054696,40.756953],[-74.054659,40.75698],[-74.05466,40.756953],[-74.054696,40.756953]]],[[[-74.054659,40.757035],[-74.054623,40.757008],[-74.054659,40.757008],[-74.054659,40.757035]]],[[[-74.054623,40.757035],[-74.054587,40.757062],[-74.054587,40.757035],[-74.054623,40.757035]]],[[[-74.05455,40.75709],[-74.054478,40.757172],[-74.054478,40.757089],[-74.05455,40.75709]]],[[[-74.054477,40.757227],[-74.054441,40.757199],[-74.054477,40.757199],[-74.054477,40.757227]]],[[[-74.054441,40.757227],[-74.054405,40.757254],[-74.054405,40.757226],[-74.054441,40.757227]]],[[[-74.054042,40.757582],[-74.054114,40.757637],[-74.054041,40.757664],[-74.054042,40.757582]]],[[[-74.053969,40.757664],[-74.054004,40.757774],[-74.053896,40.757856],[-74.053969,40.757664]]],[[[-74.053896,40.757856],[-74.053859,40.757883],[-74.053859,40.757856],[-74.053896,40.757856]]],[[[-74.052035,40.760813],[-74.052035,40.760824],[-74.052028,40.760813],[-74.052035,40.760813]]],[[[-74.045381,40.73062],[-74.045345,40.730592],[-74.045381,40.730592],[-74.045381,40.73062]]],[[[-74.049168,40.730909],[-74.04906,40.730881],[-74.049168,40.730882],[-74.049168,40.730909]]],[[[-74.047321,40.731917],[-74.050139,40.731379],[-74.050933,40.731383],[-74.050425,40.731792],[-74.049521,40.732008],[-74.047321,40.731917]]],[[[-74.038175,40.734242],[-74.038067,40.734269],[-74.038067,40.734241],[-74.038175,40.734242]]],[[[-74.038247,40.73427],[-74.038175,40.734297],[-74.038175,40.734269],[-74.038247,40.73427]]],[[[-74.038354,40.734435],[-74.038427,40.734408],[-74.038427,40.734435],[-74.038354,40.734435]]],[[[-74.038462,40.734518],[-74.038426,40.73449],[-74.038462,40.73449],[-74.038462,40.734518]]],[[[-74.033338,40.734552],[-74.033337,40.734662],[-74.032962,40.73455],[-74.033338,40.734552]]],[[[-74.037088,40.734979],[-74.037016,40.734951],[-74.037088,40.734951],[-74.037088,40.734979]]],[[[-74.038817,40.735342],[-74.038745,40.735315],[-74.038817,40.735315],[-74.038817,40.735342]]],[[[-74.035642,40.73533],[-74.035606,40.735302],[-74.035642,40.735302],[-74.035642,40.73533]]],[[[-74.038962,40.735343],[-74.038853,40.73537],[-74.038853,40.735343],[-74.038962,40.735343]]],[[[-74.035786,40.735358],[-74.03575,40.73533],[-74.035786,40.73533],[-74.035786,40.735358]]],[[[-74.035678,40.735357],[-74.035678,40.735359],[-74.035671,40.735357],[-74.035678,40.735357]]],[[[-74.03593,40.735386],[-74.035894,40.735358],[-74.03593,40.735358],[-74.03593,40.735386]]],[[[-74.035822,40.735385],[-74.035822,40.735402],[-74.035765,40.735385],[-74.035822,40.735385]]],[[[-74.036002,40.735414],[-74.035952,40.735441],[-74.035858,40.735413],[-74.036002,40.735414]]],[[[-74.036002,40.735441],[-74.036038,40.735466],[-74.036002,40.735456],[-74.036002,40.735441]]],[[[-74.037012,40.7355],[-74.037047,40.735555],[-74.037011,40.735555],[-74.037012,40.7355]]],[[[-74.038599,40.735561],[-74.038563,40.735534],[-74.038599,40.735534],[-74.038599,40.735561]]],[[[-74.038888,40.73559],[-74.038707,40.735562],[-74.038888,40.735562],[-74.038888,40.73559]]],[[[-74.03737,40.735863],[-74.040511,40.735679],[-74.041916,40.736079],[-74.039624,40.73643],[-74.03737,40.735863]]],[[[-74.045269,40.736494],[-74.045125,40.736493],[-74.045125,40.736465],[-74.045269,40.736466],[-74.045269,40.736494]]],[[[-74.045305,40.736521],[-74.045269,40.736494],[-74.045305,40.736494],[-74.045305,40.736521]]],[[[-74.045771,40.73699],[-74.045914,40.737182],[-74.04544,40.737812],[-74.045104,40.739512],[-74.044671,40.739566],[-74.044559,40.740059],[-74.043545,40.740577],[-74.042369,40.743647],[-74.042224,40.743673],[-74.042223,40.743893],[-74.042115,40.743893],[-74.041749,40.744577],[-74.041276,40.745207],[-74.041203,40.745234],[-74.041203,40.745289],[-74.04113,40.745316],[-74.041166,40.745453],[-74.04102,40.745672],[-74.040621,40.74589],[-74.040075,40.746629],[-74.040003,40.746602],[-74.040003,40.746629],[-74.039966,40.746629],[-74.038943,40.748546],[-74.038652,40.748792],[-74.03832,40.749807],[-74.037847,40.750359],[-74.037729,40.75029],[-74.038471,40.748896],[-74.038543,40.748902],[-74.038616,40.748792],[-74.039603,40.746747],[-74.041067,40.745107],[-74.041619,40.744285],[-74.041521,40.743999],[-74.042208,40.742804],[-74.042169,40.741354],[-74.043516,40.740349],[-74.043782,40.739857],[-74.043922,40.739012],[-74.04352,40.738505],[-74.043911,40.73754],[-74.042837,40.736505],[-74.042817,40.736182],[-74.045123,40.736658],[-74.045771,40.73699]],[[-74.04113,40.745371],[-74.041094,40.745398],[-74.04113,40.745398],[-74.04113,40.745371]],[[-74.038906,40.748546],[-74.038871,40.748519],[-74.03887,40.748546],[-74.038906,40.748546]],[[-74.038102,40.750025],[-74.038066,40.749998],[-74.038066,40.750025],[-74.038102,40.750025]],[[-74.038434,40.749038],[-74.03847,40.749011],[-74.038434,40.749011],[-74.038434,40.749038]],[[-74.038471,40.748956],[-74.038507,40.748929],[-74.038471,40.748929],[-74.038471,40.748956]],[[-74.045555,40.736906],[-74.045446,40.736961],[-74.045554,40.736989],[-74.045555,40.736906]]],[[[-74.04226,40.743701],[-74.042297,40.743674],[-74.042296,40.743701],[-74.04226,40.743701]]],[[[-74.042151,40.74392],[-74.042187,40.743893],[-74.042187,40.74392],[-74.042151,40.74392]]],[[[-74.042077,40.744057],[-74.042114,40.74403],[-74.042114,40.744057],[-74.042077,40.744057]]],[[[-74.042041,40.744139],[-74.042077,40.744112],[-74.042077,40.744139],[-74.042041,40.744139]]],[[[-74.042004,40.744194],[-74.042041,40.744167],[-74.04204,40.744194],[-74.042004,40.744194]]],[[[-74.041858,40.744441],[-74.041895,40.744413],[-74.041894,40.744441],[-74.041858,40.744441]]],[[[-74.041822,40.744495],[-74.041858,40.744468],[-74.041858,40.744495],[-74.041822,40.744495]]],[[[-74.041785,40.74455],[-74.041822,40.744523],[-74.041821,40.74455],[-74.041785,40.74455]]],[[[-74.041749,40.744605],[-74.041785,40.744577],[-74.041785,40.744605],[-74.041749,40.744605]]],[[[-74.041385,40.745097],[-74.041421,40.74507],[-74.041421,40.745098],[-74.041385,40.745097]]],[[[-74.041275,40.745234],[-74.041312,40.745207],[-74.041311,40.745234],[-74.041275,40.745234]]],[[[-74.041239,40.745262],[-74.041275,40.745234],[-74.041275,40.745262],[-74.041239,40.745262]]],[[[-74.041167,40.745316],[-74.041238,40.745371],[-74.041166,40.745371],[-74.041167,40.745316]]],[[[-74.04062,40.746],[-74.040657,40.745973],[-74.040657,40.746],[-74.04062,40.746]]],[[[-74.039969,40.746266],[-74.039969,40.7463],[-74.039943,40.7463],[-74.039969,40.746266]]],[[[-74.039933,40.746314],[-74.039932,40.746354],[-74.039902,40.746354],[-74.039933,40.746314]]],[[[-74.040111,40.746575],[-74.040075,40.746547],[-74.040111,40.746547],[-74.040111,40.746575]]],[[[-74.040038,40.746657],[-74.040003,40.746629],[-74.040039,40.746629],[-74.040038,40.746657]]],[[[-74.038544,40.748765],[-74.038544,40.748819],[-74.038514,40.748819],[-74.038544,40.748765]]],[[[-74.038507,40.74883],[-74.038507,40.748874],[-74.038483,40.748874],[-74.038507,40.74883]]],[[[-74.038028,40.750245],[-74.038065,40.750217],[-74.038065,40.750245],[-74.038028,40.750245]]],[[[-74.037992,40.750299],[-74.038028,40.750272],[-74.038028,40.7503],[-74.037992,40.750299]]],[[[-74.037883,40.750354],[-74.03792,40.750327],[-74.037919,40.750354],[-74.037883,40.750354]]]]}}]}