{"type":"FeatureCollection","features":[{"type":"Feature","properties":{"level_ft":10},"geometry":{"type":"MultiPolygon","coordinates":[[[[-74.095163,40.679446],[-74.095163,40.679434],[-74.09519,40.679446],[-74.095163,40.679446]]],[[[-74.094622,40.679471],[-74.094586,40.679444],[-74.094622,40.679444],[-74.094622,40.679471]]],[[[-74.09577,40.680408],[-74.095157,40.680489],[-74.094546,40.680102],[-74.094514,40.679471],[-74.095486,40.679721],[-74.095199,40.679449],[-74.09815,40.680746],[-74.09674,40.680961],[-74.096416,40.680905],[-74.09577,40.680408]],[[-74.094585,40.679526],[-74.094549,40.679553],[-74.094585,40.679553],[-74.094585,40.679526]]],[[[-74.095733,40.680491],[-74.095769,40.680518],[-74.095733,40.680518],[-74.095733,40.680491]]],[[[-74.085485,40.687564],[-74.083582,40.686349],[-74.083475,40.686157],[-74.084555,40.686435],[-74.085453,40.686987],[-74.085742,40.686879],[-74.086534,40.687183],[-74.085485,40.687564]]],[[[-74.084722,40.688522],[-74.084686,40.688494],[-74.084722,40.688495],[-74.084722,40.688522]]],[[[-74.084722,40.688549],[-74.084758,40.688522],[-74.084758,40.68855],[-74.084722,40.688549]]],[[[-74.084324,40.688685],[-74.08436,40.688713],[-74.084324,40.688713],[-74.084324,40.688685]]],[[[-74.083214,40.693293],[-74.08325,40.693266],[-74.08325,40.693293],[-74.083214,40.693293]]],[[[-74.083178,40.693348],[-74.083214,40.69332],[-74.083214,40.693348],[-74.083178,40.693348]]],[[[-74.083177,40.693403],[-74.083141,40.693375],[-74.083177,40.693375],[-74.083177,40.693403]]],[[[-74.084614,40.694369],[-74.084578,40.694396],[-74.084578,40.694368],[-74.084614,40.694369]]],[[[-74.084541,40.694396],[-74.084577,40.694423],[-74.084541,40.694423],[-74.084541,40.694396]]],[[[-74.084505,40.694423],[-74.084541,40.694451],[-74.084505,40.69445],[-74.084505,40.694423]]],[[[-74.084469,40.694505],[-74.084433,40.694478],[-74.084469,40.694478],[-74.084469,40.694505]]],[[[-74.08436,40.69456],[-74.084396,40.694532],[-74.084396,40.69456],[-74.08436,40.69456]]],[[[-74.084324,40.694615],[-74.084288,40.694587],[-74.084324,40.694587],[-74.084324,40.694615]]],[[[-74.084252,40.694614],[-74.084287,40.694642],[-74.084251,40.694642],[-74.084252,40.694614]]],[[[-74.084179,40.694696],[-74.084143,40.694724],[-74.084143,40.694696],[-74.084179,40.694696]]],[[[-74.084107,40.694724],[-74.084143,40.694751],[-74.084106,40.694751],[-74.084107,40.694724]]],[[[-74.08407,40.694806],[-74.084034,40.694778],[-74.08407,40.694778],[-74.08407,40.694806]]],[[[-74.08349,40.695215],[-74.083454,40.695243],[-74.083454,40.695215],[-74.08349,40.695215]]],[[[-74.083418,40.695243],[-74.083454,40.69527],[-74.083418,40.69527],[-74.083418,40.695243]]],[[[-74.083382,40.69527],[-74.083418,40.695298],[-74.083382,40.695297],[-74.083382,40.69527]]],[[[-74.083382,40.695297],[-74.083346,40.695325],[-74.083346,40.695297],[-74.083382,40.695297]]],[[[-74.083237,40.695297],[-74.083273,40.695324],[-74.083237,40.695324],[-74.083237,40.695297]]],[[[-74.083309,40.695352],[-74.083236,40.695462],[-74.0832,40.695461],[-74.083309,40.695352]]],[[[-74.083092,40.695461],[-74.083092,40.695571],[-74.082947,40.69557],[-74.083092,40.695461]]],[[[-74.082839,40.695652],[-74.082802,40.69568],[-74.082802,40.695652],[-74.082839,40.695652]]],[[[-74.082802,40.695707],[-74.082947,40.695625],[-74.082802,40.695762],[-74.082802,40.695707]]],[[[-74.08273,40.695734],[-74.082766,40.695707],[-74.082766,40.695734],[-74.08273,40.695734]]],[[[-74.082694,40.695734],[-74.08273,40.695762],[-74.082694,40.695762],[-74.082694,40.695734]]],[[[-74.08309,40.695763],[-74.083054,40.69579],[-74.083054,40.695763],[-74.08309,40.695763]]],[[[-74.083054,40.69579],[-74.083018,40.695818],[-74.083018,40.69579],[-74.083054,40.69579]]],[[[-74.082621,40.695789],[-74.082657,40.695816],[-74.082621,40.695816],[-74.082621,40.695789]]],[[[-74.082585,40.695816],[-74.082621,40.695844],[-74.082585,40.695844],[-74.082585,40.695816]]],[[[-74.082982,40.695818],[-74.083018,40.695873],[-74.082981,40.695872],[-74.082982,40.695818]]],[[[-74.082585,40.695844],[-74.082549,40.695871],[-74.082549,40.695843],[-74.082585,40.695844]]],[[[-74.082945,40.695872],[-74.082981,40.6959],[-74.082945,40.6959],[-74.082945,40.695872]]],[[[-74.082909,40.6959],[-74.082945,40.695927],[-74.082909,40.695927],[-74.082909,40.6959]]],[[[-74.082873,40.695927],[-74.082909,40.695954],[-74.082873,40.695954],[-74.082873,40.695927]]],[[[-74.082837,40.695954],[-74.082873,40.695982],[-74.082837,40.695982],[-74.082837,40.695954]]],[[[-74.082837,40.695982],[-74.082764,40.696009],[-74.082764,40.695981],[-74.082837,40.695982]]],[[[-74.082619,40.696146],[-74.082728,40.696009],[-74.082764,40.696009],[-74.082619,40.696146]]],[[[-74.08251,40.696228],[-74.082474,40.696255],[-74.082474,40.696227],[-74.08251,40.696228]]],[[[-74.096753,40.708686],[-74.095633,40.708984],[-74.094808,40.708212],[-74.095061,40.708131],[-74.094847,40.707801],[-74.095172,40.707665],[-74.094958,40.707334],[-74.095715,40.707419],[-74.094926,40.70673],[-74.096184,40.707448],[-74.096545,40.707312],[-74.09554,40.706595],[-74.09522,40.705798],[-74.095475,40.705415],[-74.096302,40.705774],[-74.096234,40.705033],[-74.097061,40.705503],[-74.097278,40.705366],[-74.097137,40.704954],[-74.09739,40.704817],[-74.096995,40.704487],[-74.097247,40.704515],[-74.097432,40.703802],[-74.097865,40.703803],[-74.097759,40.703501],[-74.098013,40.703255],[-74.097656,40.702513],[-74.098482,40.703147],[-74.098089,40.702487],[-74.098201,40.701911],[-74.098669,40.702049],[-74.09878,40.701583],[-74.099723,40.700763],[-74.099438,40.700103],[-74.100051,40.700215],[-74.099911,40.699446],[-74.100199,40.699529],[-74.100238,40.699008],[-74.100636,40.698845],[-74.101369,40.696953],[-74.10213,40.696214],[-74.101952,40.695857],[-74.102602,40.695777],[-74.102786,40.695174],[-74.102852,40.695432],[-74.107496,40.697685],[-74.107096,40.698071],[-74.107675,40.697772],[-74.114232,40.700952],[-74.114309,40.704609],[-74.116408,40.709735],[-74.113869,40.712314],[-74.110167,40.715375],[-74.10747,40.717075],[-74.102976,40.71933],[-74.10177,40.720231],[-74.100089,40.722867],[-74.099011,40.727277],[-74.097078,40.726667],[-74.094488,40.725422],[-74.094162,40.725531],[-74.09614,40.726609],[-74.098962,40.727552],[-74.097897,40.73072],[-74.095303,40.735005],[-74.090999,40.735374],[-74.089343,40.734737],[-74.089058,40.73405],[-74.088734,40.733939],[-74.088481,40.734103],[-74.088302,40.733855],[-74.086645,40.733355],[-74.084163,40.732056],[-74.082711,40.733396],[-74.08271,40.733643],[-74.084325,40.735021],[-74.082489,40.734273],[-74.082415,40.734603],[-74.085042,40.73571],[-74.085689,40.736261],[-74.085147,40.736342],[-74.083456,40.735402],[-74.081872,40.734875],[-74.081146,40.735559],[-74.080712,40.735694],[-74.080424,40.735556],[-74.080278,40.735775],[-74.079596,40.735251],[-74.077901,40.73508],[-74.077867,40.734723],[-74.076969,40.734061],[-74.077476,40.733871],[-74.077043,40.733814],[-74.076829,40.733347],[-74.077839,40.733543],[-74.078742,40.733354],[-74.079931,40.73366],[-74.079683,40.732973],[-74.080444,40.732345],[-74.080338,40.731987],[-74.081059,40.732209],[-74.081531,40.731662],[-74.081099,40.731523],[-74.080957,40.731111],[-74.082108,40.731802],[-74.082399,40.731363],[-74.08312,40.731531],[-74.08319,40.731833],[-74.083372,40.731532],[-74.083121,40.731311],[-74.08377,40.731423],[-74.08305,40.731091],[-74.083016,40.730872],[-74.082583,40.730815],[-74.0832,40.730158],[-74.082805,40.729992],[-74.082478,40.730238],[-74.082803,40.730294],[-74.082729,40.730514],[-74.08244,40.730622],[-74.082116,40.730457],[-74.082264,40.729881],[-74.081866,40.730071],[-74.082126,40.728892],[-74.083683,40.728074],[-74.083004,40.726974],[-74.081963,40.726146],[-74.082109,40.725845],[-74.082361,40.725873],[-74.082291,40.725626],[-74.081822,40.725514],[-74.082263,40.724253],[-74.082697,40.724145],[-74.083206,40.723433],[-74.083962,40.723738],[-74.086022,40.723251],[-74.086204,40.723005],[-74.085917,40.722729],[-74.08617,40.722565],[-74.085885,40.721961],[-74.086249,40.72144],[-74.085924,40.721604],[-74.085816,40.721494],[-74.08629,40.720644],[-74.08604,40.720342],[-74.086653,40.720399],[-74.087089,40.719879],[-74.087305,40.719989],[-74.087739,40.719771],[-74.088097,40.720212],[-74.087879,40.72054],[-74.088058,40.720651],[-74.088458,40.72024],[-74.088927,40.72027],[-74.089036,40.72005],[-74.089469,40.719997],[-74.089291,40.719667],[-74.090011,40.719889],[-74.090447,40.719506],[-74.091385,40.719372],[-74.091171,40.71907],[-74.09146,40.719016],[-74.09139,40.718631],[-74.091679,40.718632],[-74.0915,40.718385],[-74.09197,40.718194],[-74.091251,40.717725],[-74.091576,40.717726],[-74.091469,40.717451],[-74.092117,40.717728],[-74.092444,40.717317],[-74.092014,40.716877],[-74.092446,40.717043],[-74.092736,40.716742],[-74.09245,40.716439],[-74.092846,40.716468],[-74.092992,40.716249],[-74.093749,40.716279],[-74.094145,40.716527],[-74.094687,40.716365],[-74.093391,40.715948],[-74.093249,40.715563],[-74.093358,40.715427],[-74.092603,40.715012],[-74.092313,40.715203],[-74.092456,40.715423],[-74.091696,40.71586],[-74.091263,40.715831],[-74.091879,40.715284],[-74.091521,40.714898],[-74.092025,40.715065],[-74.092279,40.714819],[-74.091886,40.714186],[-74.092534,40.714463],[-74.093149,40.714218],[-74.093398,40.714658],[-74.093688,40.714549],[-74.093617,40.714247],[-74.094049,40.714386],[-74.094267,40.714222],[-74.094338,40.714469],[-74.094483,40.714195],[-74.095061,40.714225],[-74.095171,40.713786],[-74.096034,40.714256],[-74.096541,40.713955],[-74.096796,40.713517],[-74.096365,40.713269],[-74.096367,40.712994],[-74.096942,40.713243],[-74.097234,40.71275],[-74.096839,40.712419],[-74.097379,40.712696],[-74.098581,40.710778],[-74.098548,40.710229],[-74.097434,40.709457],[-74.096493,40.709975],[-74.096748,40.709564],[-74.09657,40.709179],[-74.097076,40.709016],[-74.096753,40.708686]],[[-74.095239,40.708598],[-74.095275,40.708543],[-74.095239,40.708543],[-74.095239,40.708598]],[[-74.096364,40.707477],[-74.0964,40.707504],[-74.0964,40.707477],[-74.096364,40.707477]],[[-74.0964,40.707504],[-74.096436,40.707532],[-74.096436,40.707504],[-74.0964,40.707504]],[[-74.096436,40.707532],[-74.096472,40.707559],[-74.096472,40.707532],[-74.096436,40.707532]],[[-74.094198,40.725504],[-74.094162,40.725476],[-74.094162,40.725504],[-74.094198,40.725504]],[[-74.079092,40.735139],[-74.07902,40.735112],[-74.079019,40.735139],[-74.079092,40.735139]],[[-74.077476,40.733898],[-74.07762,40.733926],[-74.07762,40.733899],[-74.077476,40.733898]],[[-74.083016,40.730872],[-74.083052,40.730844],[-74.083016,40.730844],[-74.083016,40.730872]],[[-74.08617,40.722648],[-74.086206,40.722675],[-74.086206,40.722648],[-74.08617,40.722648]],[[-74.087774,40.719909],[-74.087738,40.719936],[-74.087774,40.719936],[-74.087774,40.719909]],[[-74.087738,40.719936],[-74.087702,40.719991],[-74.087738,40.719991],[-74.087738,40.719936]],[[-74.09146,40.719016],[-74.091496,40.719043],[-74.091496,40.719016],[-74.09146,40.719016]],[[-74.091678,40.71866],[-74.091713,40.718879],[-74.091929,40.718935],[-74.092038,40.718826],[-74.091678,40.71866]],[[-74.093357,40.715454],[-74.093393,40.715482],[-74.093394,40.715454],[-74.093357,40.715454]],[[-74.097076,40.708989],[-74.097185,40.708934],[-74.097076,40.708961],[-74.097076,40.708989]]],[[[-74.083571,40.740234],[-74.077086,40.738426],[-74.076691,40.738095],[-74.085832,40.736372],[-74.088568,40.737452],[-74.091103,40.735979],[-74.091179,40.735485],[-74.095174,40.73517],[-74.093398,40.737015],[-74.090175,40.738579],[-74.08703,40.739535],[-74.083571,40.740234]]],[[[-74.082305,40.74067],[-74.080578,40.739729],[-74.080328,40.739426],[-74.083641,40.740344],[-74.082305,40.74067]]],[[[-74.077955,40.680866],[-74.077919,40.680839],[-74.077955,40.680839],[-74.077955,40.680866]]],[[[-74.078351,40.68095],[-74.078315,40.680922],[-74.078351,40.680923],[-74.078351,40.68095]]],[[[-74.077954,40.680949],[-74.078063,40.680922],[-74.078062,40.680949],[-74.077954,40.680949]]],[[[-74.078062,40.680949],[-74.07817,40.681004],[-74.078062,40.680976],[-74.078062,40.680949]]],[[[-74.078459,40.68095],[-74.078458,40.681088],[-74.078207,40.680977],[-74.078459,40.68095]]],[[[-74.07853,40.681088],[-74.078567,40.681061],[-74.078566,40.681088],[-74.07853,40.681088]]],[[[-74.078422,40.681115],[-74.078386,40.681087],[-74.078422,40.681088],[-74.078422,40.681115]]],[[[-74.07853,40.681143],[-74.078494,40.681115],[-74.07853,40.681115],[-74.07853,40.681143]]],[[[-74.078638,40.681171],[-74.078602,40.681143],[-74.078638,40.681143],[-74.078638,40.681171]]],[[[-74.078238,40.681636],[-74.078203,40.681608],[-74.078239,40.681608],[-74.078238,40.681636]]],[[[-74.078886,40.68194],[-74.078849,40.681968],[-74.078849,40.68194],[-74.078886,40.68194]]],[[[-74.082015,40.694661],[-74.082051,40.694689],[-74.082015,40.694689],[-74.082015,40.694661]]],[[[-74.082015,40.694689],[-74.081979,40.694716],[-74.081979,40.694688],[-74.082015,40.694689]]],[[[-74.081906,40.694798],[-74.08187,40.694825],[-74.08187,40.694798],[-74.081906,40.694798]]],[[[-74.081834,40.694825],[-74.08187,40.694853],[-74.081834,40.694853],[-74.081834,40.694825]]],[[[-74.082439,40.696063],[-74.082476,40.696035],[-74.082475,40.696063],[-74.082439,40.696063]]],[[[-74.082438,40.696255],[-74.082474,40.696282],[-74.082438,40.696282],[-74.082438,40.696255]]],[[[-74.082402,40.696282],[-74.082438,40.69631],[-74.082402,40.69631],[-74.082402,40.696282]]],[[[-74.082366,40.696309],[-74.082402,40.696337],[-74.082365,40.696337],[-74.082366,40.696309]]],[[[-74.082329,40.696337],[-74.082365,40.696364],[-74.082329,40.696364],[-74.082329,40.696337]]],[[[-74.082293,40.696364],[-74.082329,40.696392],[-74.082293,40.696391],[-74.082293,40.696364]]],[[[-74.082293,40.696391],[-74.082257,40.696419],[-74.082257,40.696391],[-74.082293,40.696391]]],[[[-74.082257,40.696419],[-74.08222,40.696446],[-74.082221,40.696419],[-74.082257,40.696419]]],[[[-74.082184,40.696446],[-74.08222,40.696474],[-74.082184,40.696473],[-74.082184,40.696446]]],[[[-74.082148,40.696473],[-74.082184,40.696501],[-74.082148,40.696501],[-74.082148,40.696473]]],[[[-74.082112,40.696501],[-74.082148,40.696528],[-74.082112,40.696528],[-74.082112,40.696501]]],[[[-74.082076,40.696528],[-74.082112,40.696556],[-74.082076,40.696555],[-74.082076,40.696528]]],[[[-74.082039,40.696555],[-74.082075,40.696583],[-74.082039,40.696583],[-74.082039,40.696555]]],[[[-74.082003,40.696583],[-74.082039,40.69661],[-74.082003,40.69661],[-74.082003,40.696583]]],[[[-74.082003,40.69661],[-74.080949,40.697979],[-74.080262,40.698113],[-74.080191,40.697976],[-74.082003,40.69661]],[[-74.081386,40.697239],[-74.08135,40.697266],[-74.081386,40.697267],[-74.081386,40.697239]],[[-74.08135,40.697294],[-74.081169,40.697293],[-74.081169,40.697403],[-74.08135,40.697294]],[[-74.081169,40.697403],[-74.081132,40.69743],[-74.081168,40.697431],[-74.081169,40.697403]],[[-74.080336,40.697949],[-74.080371,40.698004],[-74.080697,40.697758],[-74.080336,40.697949]],[[-74.080697,40.697758],[-74.080734,40.697731],[-74.080698,40.697731],[-74.080697,40.697758]]],[[[-74.079938,40.698112],[-74.079974,40.69814],[-74.079938,40.69814],[-74.079938,40.698112]]],[[[-74.079757,40.698249],[-74.079793,40.698276],[-74.079757,40.698276],[-74.079757,40.698249]]],[[[-74.079684,40.698358],[-74.079648,40.698331],[-74.079684,40.698331],[-74.079684,40.698358]]],[[[-74.079611,40.698413],[-74.079575,40.698385],[-74.079612,40.698386],[-74.079611,40.698413]]],[[[-74.079974,40.69814],[-74.079502,40.69866],[-74.079393,40.698687],[-74.079974,40.69814]]],[[[-74.079357,40.698687],[-74.079393,40.698714],[-74.079357,40.698714],[-74.079357,40.698687]]],[[[-74.079321,40.698714],[-74.079357,40.698742],[-74.079321,40.698741],[-74.079321,40.698714]]],[[[-74.079285,40.698741],[-74.079321,40.698769],[-74.079285,40.698769],[-74.079285,40.698741]]],[[[-74.079248,40.698823],[-74.079212,40.698796],[-74.079248,40.698796],[-74.079248,40.698823]]],[[[-74.079139,40.698905],[-74.079104,40.698878],[-74.07914,40.698878],[-74.079139,40.698905]]],[[[-74.079103,40.698905],[-74.079067,40.698933],[-74.079067,40.698905],[-74.079103,40.698905]]],[[[-74.074853,40.737677],[-74.074275,40.737784],[-74.073952,40.737536],[-74.075364,40.736773],[-74.07533,40.736471],[-74.07591,40.736144],[-74.076348,40.735322],[-74.076528,40.735377],[-74.076378,40.736228],[-74.076742,40.735762],[-74.077247,40.735764],[-74.077282,40.735929],[-74.0775,40.735792],[-74.077715,40.73604],[-74.077968,40.735904],[-74.078291,40.73618],[-74.078252,40.736674],[-74.079337,40.736211],[-74.079515,40.736733],[-74.079913,40.736515],[-74.081608,40.736686],[-74.081971,40.736275],[-74.082441,40.736277],[-74.08269,40.736745],[-74.076258,40.738039],[-74.075501,40.738036],[-74.074853,40.737677]]],[[[-74.079751,40.739287],[-74.079679,40.739259],[-74.079751,40.739259],[-74.079751,40.739287]]],[[[-74.080184,40.739398],[-74.080148,40.739371],[-74.080184,40.739371],[-74.080184,40.739398]]],[[[-74.08083,40.73995],[-74.080794,40.739922],[-74.08083,40.739922],[-74.08083,40.73995]]],[[[-74.080902,40.739977],[-74.080866,40.73995],[-74.080902,40.73995],[-74.080902,40.739977]]],[[[-74.081081,40.740088],[-74.081045,40.74006],[-74.081082,40.74006],[-74.081081,40.740088]]],[[[-74.081437,40.740913],[-74.081256,40.740995],[-74.081437,40.740885],[-74.081437,40.740913]]],[[[-74.077417,40.680315],[-74.077454,40.680288],[-74.077453,40.680315],[-74.077417,40.680315]]],[[[-74.077919,40.680839],[-74.077847,40.680811],[-74.077919,40.680811],[-74.077919,40.680839]]],[[[-74.077702,40.68092],[-74.07763,40.680838],[-74.077846,40.680893],[-74.077702,40.68092]]],[[[-74.077846,40.680921],[-74.077955,40.680894],[-74.077954,40.680921],[-74.077846,40.680921]]],[[[-74.075883,40.694913],[-74.074735,40.693866],[-74.074809,40.693674],[-74.075817,40.69387],[-74.075883,40.694913]]],[[[-74.075766,40.696176],[-74.075119,40.695816],[-74.074685,40.696007],[-74.07411,40.695813],[-74.073788,40.695427],[-74.073499,40.695426],[-74.073394,40.694986],[-74.073719,40.694823],[-74.074655,40.695156],[-74.075125,40.694993],[-74.075912,40.696039],[-74.075766,40.696176]],[[-74.07541,40.695543],[-74.075374,40.69557],[-74.07541,40.69557],[-74.07541,40.695543]]],[[[-74.075465,40.698233],[-74.075501,40.698261],[-74.075465,40.698261],[-74.075465,40.698233]]],[[[-74.075645,40.698289],[-74.075681,40.698261],[-74.075681,40.698289],[-74.075645,40.698289]]],[[[-74.069322,40.700022],[-74.071095,40.699178],[-74.072178,40.698907],[-74.070298,40.699641],[-74.069609,40.700188],[-74.069322,40.700022]]],[[[-74.075481,40.701308],[-74.075518,40.70128],[-74.075517,40.701308],[-74.075481,40.701308]]],[[[-74.075409,40.701335],[-74.075445,40.701308],[-74.075445,40.701335],[-74.075409,40.701335]]],[[[-74.075337,40.701389],[-74.075301,40.701362],[-74.075337,40.701362],[-74.075337,40.701389]]],[[[-74.075264,40.701417],[-74.075228,40.701389],[-74.075264,40.701389],[-74.075264,40.701417]]],[[[-74.075192,40.701444],[-74.075156,40.701416],[-74.075192,40.701416],[-74.075192,40.701444]]],[[[-74.075083,40.701498],[-74.075047,40.701471],[-74.075084,40.701471],[-74.075083,40.701498]]],[[[-74.074975,40.701498],[-74.075011,40.701526],[-74.074975,40.701525],[-74.074975,40.701498]]],[[[-74.074939,40.701525],[-74.074975,40.701553],[-74.074939,40.701553],[-74.074939,40.701525]]],[[[-74.074903,40.70158],[-74.074867,40.701552],[-74.074903,40.701553],[-74.074903,40.70158]]],[[[-74.074794,40.701607],[-74.074866,40.70158],[-74.074866,40.701607],[-74.074794,40.701607]]],[[[-74.074758,40.701662],[-74.074722,40.701607],[-74.074794,40.701607],[-74.074758,40.701662]]],[[[-74.074685,40.701689],[-74.074613,40.701661],[-74.074686,40.701662],[-74.074685,40.701689]]],[[[-74.074166,40.737894],[-74.07413,40.737866],[-74.074166,40.737866],[-74.074166,40.737894]]],[[[-74.074274,40.737922],[-74.074238,40.737894],[-74.074274,40.737894],[-74.074274,40.737922]]],[[[-74.073084,40.737808],[-74.074238,40.737977],[-74.074741,40.73828],[-74.073513,40.738523],[-74.073084,40.737808]]],[[[-74.075174,40.738392],[-74.075966,40.738669],[-74.076001,40.738806],[-74.075459,40.738832],[-74.075459,40.738887],[-74.076253,40.738835],[-74.075925,40.739328],[-74.074809,40.739022],[-74.073293,40.738989],[-74.07315,40.738796],[-74.073331,40.738659],[-74.075174,40.738392]],[[-74.073692,40.738633],[-74.073656,40.738661],[-74.073692,40.738661],[-74.073692,40.738633]]],[[[-74.073364,40.739181],[-74.073834,40.7391],[-74.073834,40.739128],[-74.073364,40.739181]]],[[[-74.073869,40.739155],[-74.073834,40.739128],[-74.07387,40.739128],[-74.073869,40.739155]]],[[[-74.073574,40.740225],[-74.073502,40.740197],[-74.073502,40.74017],[-74.073574,40.740225]]],[[[-74.075231,40.74078],[-74.074833,40.740888],[-74.0744,40.740859],[-74.074618,40.740668],[-74.075231,40.74078]]],[[[-74.081329,40.740885],[-74.077094,40.743148],[-74.072587,40.742198],[-74.0714,40.741562],[-74.071982,40.740796],[-74.072524,40.740715],[-74.072458,40.739754],[-74.073289,40.739593],[-74.073291,40.739373],[-74.074626,40.739405],[-74.074047,40.739595],[-74.075201,40.739764],[-74.07549,40.739628],[-74.075631,40.74015],[-74.075124,40.74056],[-74.074042,40.740446],[-74.073431,40.740005],[-74.073358,40.740197],[-74.074111,40.740913],[-74.074977,40.740971],[-74.075519,40.740781],[-74.076174,40.740042],[-74.076143,40.739164],[-74.076397,40.738973],[-74.077227,40.739031],[-74.080433,40.739948],[-74.081865,40.740777],[-74.081329,40.740885]]],[[[-74.070496,40.741806],[-74.070604,40.741888],[-74.07046,40.741888],[-74.070496,40.741806]]],[[[-74.075253,40.742894],[-74.075,40.74292],[-74.075001,40.742865],[-74.075253,40.742894]]],[[[-74.06759,40.74465],[-74.067555,40.744622],[-74.067591,40.744622],[-74.06759,40.74465]]],[[[-74.067626,40.744732],[-74.06759,40.744705],[-74.067626,40.744705],[-74.067626,40.744732]]],[[[-74.067662,40.744815],[-74.067626,40.744787],[-74.067662,40.744787],[-74.067662,40.744815]]],[[[-74.068176,40.748989],[-74.068212,40.749016],[-74.068176,40.749016],[-74.068176,40.748989]]],[[[-74.068248,40.749017],[-74.068212,40.749044],[-74.068212,40.749016],[-74.068248,40.749017]]],[[[-74.072244,40.750679],[-74.070625,40.749822],[-74.069477,40.748692],[-74.068096,40.744651],[-74.068426,40.743774],[-74.069535,40.745343],[-74.070473,40.745429],[-74.071377,40.745158],[-74.070516,40.744276],[-74.068969,40.743557],[-74.069261,40.743091],[-74.069694,40.743093],[-74.069988,40.742216],[-74.070422,40.74208],[-74.072728,40.742692],[-74.074278,40.742945],[-74.074532,40.742754],[-74.074999,40.743058],[-74.075685,40.743088],[-74.075397,40.743004],[-74.075542,40.74295],[-74.076947,40.743257],[-74.075151,40.745534],[-74.074869,40.746946],[-74.075017,40.747986],[-74.075707,40.748974],[-74.076586,40.749638],[-74.077145,40.749931],[-74.078852,40.750223],[-74.077279,40.752171],[-74.075228,40.752584],[-74.075238,40.753133],[-74.076523,40.754816],[-74.0763,40.755143],[-74.075215,40.755339],[-74.074894,40.75562],[-74.075146,40.757157],[-74.07465,40.758294],[-74.074044,40.756999],[-74.074298,40.75678],[-74.074013,40.756257],[-74.073616,40.756256],[-74.073293,40.75587],[-74.070724,40.751194],[-74.069683,40.750312],[-74.069296,40.748828],[-74.07048,40.749903],[-74.072531,40.750954],[-74.07246,40.750789],[-74.072351,40.750844],[-74.072244,40.750679]],[[-74.072387,40.750789],[-74.072352,40.750761],[-74.072351,40.750789],[-74.072387,40.750789]]],[[[-74.069322,40.750448],[-74.068995,40.750639],[-74.068961,40.750392],[-74.069322,40.750448]]],[[[-74.072171,40.750706],[-74.072136,40.750678],[-74.072172,40.750678],[-74.072171,40.750706]]],[[[-74.072208,40.750706],[-74.072243,40.750733],[-74.072207,40.750733],[-74.072208,40.750706]]],[[[-74.069955,40.752921],[-74.068198,40.751212],[-74.068165,40.750691],[-74.0686,40.75039],[-74.068889,40.750364],[-74.069491,40.752178],[-74.069955,40.752921]]],[[[-74.070518,40.755201],[-74.070482,40.755174],[-74.070518,40.755174],[-74.070518,40.755201]]],[[[-74.073279,40.758176],[-74.073242,40.758231],[-74.073243,40.758176],[-74.073279,40.758176]]],[[[-74.073242,40.758341],[-74.073205,40.758368],[-74.073205,40.758341],[-74.073242,40.758341]]],[[[-74.073241,40.758396],[-74.073277,40.758368],[-74.073277,40.758396],[-74.073241,40.758396]]],[[[-74.07335,40.758396],[-74.073313,40.758423],[-74.073313,40.758396],[-74.07335,40.758396]]],[[[-74.073313,40.758423],[-74.073277,40.758451],[-74.073277,40.758423],[-74.073313,40.758423]]],[[[-74.091289,40.681985],[-74.091549,40.680805],[-74.092127,40.680533],[-74.090078,40.67962],[-74.089896,40.679894],[-74.0904,40.679923],[-74.090721,40.6805],[-74.089426,40.680057],[-74.089135,40.680412],[-74.088848,40.680302],[-74.088449,40.680712],[-74.08816,40.680684],[-74.087978,40.680985],[-74.087438,40.680846],[-74.087039,40.681256],[-74.087143,40.68197],[-74.086962,40.681969],[-74.085273,40.681085],[-74.086173,40.68139],[-74.087186,40.680762],[-74.085892,40.680126],[-74.086002,40.67988],[-74.08528,40.67996],[-74.085132,40.680535],[-74.08409,40.680038],[-74.084879,40.680754],[-74.084517,40.68089],[-74.082476,40.678659],[-74.081646,40.678766],[-74.081756,40.678492],[-74.081145,40.67816],[-74.080713,40.678076],[-74.080387,40.678267],[-74.080172,40.678074],[-74.07927,40.678071],[-74.079629,40.678457],[-74.079411,40.678648],[-74.078835,40.678564],[-74.079193,40.678977],[-74.078759,40.679195],[-74.078092,40.67631],[-74.0773,40.676005],[-74.076829,40.67647],[-74.077494,40.679684],[-74.077997,40.679961],[-74.076878,40.680066],[-74.078496,40.680813],[-74.077235,40.680644],[-74.077522,40.680892],[-74.078349,40.681197],[-74.07806,40.681333],[-74.078021,40.681772],[-74.078237,40.681883],[-74.078128,40.681992],[-74.078488,40.682158],[-74.078343,40.682185],[-74.077515,40.68199],[-74.077407,40.682017],[-74.078667,40.682324],[-74.078921,40.681968],[-74.079026,40.682517],[-74.080215,40.682686],[-74.080681,40.683182],[-74.080352,40.683895],[-74.080787,40.683429],[-74.081868,40.683653],[-74.08244,40.684396],[-74.081502,40.684393],[-74.082723,40.685331],[-74.082469,40.685494],[-74.081858,40.68519],[-74.080747,40.68417],[-74.080058,40.684772],[-74.079082,40.68507],[-74.079259,40.685565],[-74.079007,40.685592],[-74.079473,40.685978],[-74.079364,40.686169],[-74.0808,40.687135],[-74.081014,40.687603],[-74.082163,40.688266],[-74.08328,40.688489],[-74.082667,40.688487],[-74.08263,40.688652],[-74.081586,40.688373],[-74.080177,40.688725],[-74.080283,40.689055],[-74.079814,40.68919],[-74.079956,40.689438],[-74.079522,40.689656],[-74.080894,40.689414],[-74.081252,40.689772],[-74.081902,40.689747],[-74.082882,40.688735],[-74.085195,40.687892],[-74.085339,40.687975],[-74.084001,40.688519],[-74.084037,40.688574],[-74.084289,40.68852],[-74.084686,40.688522],[-74.084686,40.688549],[-74.084722,40.688549],[-74.084143,40.688877],[-74.085223,40.6891],[-74.084862,40.689236],[-74.085186,40.689375],[-74.085728,40.689157],[-74.086196,40.689268],[-74.084417,40.691211],[-74.082314,40.693015],[-74.081586,40.694028],[-74.081334,40.694027],[-74.079049,40.696023],[-74.078508,40.696158],[-74.078578,40.696433],[-74.078,40.696595],[-74.077963,40.69676],[-74.078252,40.696596],[-74.07836,40.696679],[-74.077707,40.697226],[-74.077814,40.697528],[-74.078067,40.697447],[-74.078102,40.697611],[-74.078212,40.697255],[-74.080422,40.695698],[-74.0863,40.689955],[-74.083069,40.693375],[-74.083141,40.693457],[-74.082633,40.693977],[-74.083213,40.69343],[-74.083248,40.69354],[-74.082776,40.69406],[-74.082488,40.694004],[-74.082595,40.694197],[-74.082087,40.694661],[-74.082015,40.694634],[-74.082015,40.694661],[-74.081979,40.694661],[-74.081979,40.694688],[-74.081943,40.694688],[-74.081978,40.694798],[-74.08187,40.69477],[-74.081834,40.694825],[-74.081798,40.694825],[-74.079327,40.697753],[-74.079905,40.697563],[-74.079835,40.697234],[-74.080414,40.696961],[-74.082555,40.694883],[-74.083132,40.694802],[-74.083383,40.695078],[-74.084652,40.694067],[-74.08476,40.694095],[-74.083564,40.694996],[-74.083564,40.695051],[-74.083528,40.695051],[-74.083237,40.695297],[-74.083165,40.695324],[-74.083165,40.695379],[-74.083093,40.695379],[-74.083092,40.695434],[-74.082658,40.695707],[-74.082658,40.695761],[-74.082621,40.695789],[-74.082585,40.695789],[-74.082585,40.695816],[-74.082513,40.695816],[-74.082549,40.695898],[-74.082693,40.695844],[-74.082657,40.695926],[-74.082367,40.696035],[-74.082403,40.696117],[-74.079938,40.698112],[-74.079829,40.698139],[-74.079793,40.698222],[-74.079757,40.698249],[-74.079685,40.698249],[-74.079612,40.698331],[-74.07954,40.69833],[-74.078779,40.698904],[-74.077183,40.700216],[-74.076967,40.700297],[-74.077837,40.699559],[-74.075375,40.700978],[-74.075627,40.701116],[-74.074361,40.701715],[-74.074937,40.701827],[-74.075192,40.701499],[-74.07566,40.7015],[-74.075079,40.702239],[-74.075329,40.702542],[-74.074712,40.703117],[-74.074416,40.704351],[-74.073551,40.704293],[-74.072714,40.705415],[-74.072674,40.705991],[-74.072386,40.705963],[-74.072095,40.706346],[-74.071699,40.70618],[-74.070867,40.706589],[-74.071118,40.706727],[-74.071008,40.707028],[-74.070649,40.706862],[-74.070322,40.707218],[-74.070895,40.707879],[-74.070534,40.707823],[-74.070104,40.707354],[-74.069235,40.707873],[-74.070208,40.708123],[-74.07057,40.707932],[-74.071145,40.708264],[-74.071248,40.708951],[-74.070924,40.708867],[-74.070233,40.709715],[-74.070809,40.71002],[-74.07208,40.708679],[-74.071901,40.708404],[-74.07219,40.708378],[-74.071939,40.708102],[-74.072193,40.707884],[-74.072553,40.70794],[-74.072402,40.70901],[-74.071675,40.70994],[-74.070698,40.710431],[-74.070123,40.710017],[-74.069762,40.710153],[-74.069294,40.709959],[-74.0689,40.709491],[-74.068647,40.709655],[-74.067132,40.709567],[-74.067025,40.709402],[-74.067568,40.709157],[-74.068072,40.709296],[-74.068112,40.70861],[-74.069201,40.707653],[-74.068227,40.707622],[-74.067466,40.708086],[-74.067217,40.707536],[-74.067035,40.707782],[-74.06725,40.708002],[-74.066601,40.708],[-74.066711,40.707698],[-74.065808,40.707942],[-74.065376,40.707803],[-74.065372,40.708435],[-74.06454,40.708733],[-74.064108,40.708622],[-74.064107,40.708814],[-74.063638,40.70873],[-74.064214,40.708979],[-74.063564,40.709032],[-74.063778,40.709472],[-74.063274,40.70925],[-74.063272,40.709634],[-74.062583,40.710098],[-74.062044,40.709794],[-74.061332,40.708419],[-74.05978,40.708468],[-74.060395,40.708306],[-74.059999,40.708195],[-74.060578,40.707922],[-74.060326,40.707784],[-74.061086,40.70743],[-74.061159,40.707321],[-74.061484,40.707185],[-74.06134,40.707129],[-74.061123,40.707238],[-74.061269,40.707074],[-74.063729,40.705903],[-74.065541,40.704565],[-74.065399,40.704262],[-74.065795,40.704428],[-74.065471,40.704208],[-74.066088,40.703716],[-74.067641,40.70342],[-74.0701,40.702413],[-74.07032,40.701838],[-74.069529,40.701395],[-74.069136,40.700845],[-74.069752,40.700408],[-74.069968,40.700574],[-74.069933,40.700299],[-74.076006,40.698263],[-74.076834,40.698458],[-74.076728,40.698101],[-74.076042,40.69818],[-74.075828,40.697905],[-74.075934,40.698207],[-74.075789,40.698262],[-74.075105,40.69815],[-74.074057,40.698448],[-74.073769,40.698364],[-74.075504,40.697684],[-74.075904,40.697274],[-74.07587,40.69689],[-74.076994,40.695906],[-74.076526,40.695876],[-74.076636,40.69552],[-74.076313,40.695272],[-74.076602,40.695135],[-74.076461,40.694696],[-74.076643,40.694422],[-74.077509,40.69437],[-74.077809,40.692505],[-74.078427,40.691738],[-74.078933,40.691548],[-74.077355,40.690252],[-74.076994,40.690223],[-74.076669,40.690332],[-74.076885,40.690443],[-74.076737,40.690909],[-74.075539,40.692194],[-74.074637,40.692301],[-74.073345,40.691226],[-74.073347,40.691006],[-74.073997,40.690844],[-74.073751,40.6898],[-74.07303,40.68977],[-74.073501,40.689524],[-74.072961,40.689358],[-74.073467,40.689112],[-74.073035,40.689001],[-74.073361,40.68881],[-74.072026,40.688942],[-74.071848,40.688557],[-74.070736,40.687647],[-74.070447,40.687756],[-74.070449,40.687399],[-74.06991,40.687068],[-74.070576,40.690035],[-74.070178,40.690308],[-74.070606,40.691023],[-74.070604,40.691325],[-74.070388,40.691215],[-74.070243,40.691461],[-74.070784,40.691353],[-74.07093,40.691052],[-74.070611,40.6902],[-74.070618,40.689129],[-74.071231,40.689186],[-74.070904,40.689515],[-74.071879,40.689381],[-74.071519,40.689215],[-74.071736,40.689106],[-74.071558,40.688831],[-74.070732,40.688251],[-74.070874,40.688636],[-74.070512,40.688772],[-74.070336,40.688195],[-74.070483,40.687784],[-74.071953,40.688997],[-74.072711,40.688972],[-74.072132,40.689245],[-74.072853,40.689302],[-74.072419,40.68952],[-74.072418,40.689685],[-74.072922,40.689714],[-74.072669,40.689905],[-74.071587,40.689956],[-74.071949,40.689628],[-74.071047,40.689707],[-74.070974,40.689872],[-74.071298,40.689928],[-74.070937,40.690064],[-74.071043,40.690311],[-74.073714,40.689964],[-74.073205,40.690703],[-74.072772,40.69062],[-74.072663,40.690839],[-74.072122,40.690809],[-74.072085,40.690919],[-74.073023,40.690977],[-74.073451,40.691583],[-74.073812,40.691666],[-74.073737,40.691996],[-74.074456,40.692355],[-74.074309,40.692849],[-74.074523,40.693206],[-74.075026,40.693538],[-74.074124,40.693507],[-74.074483,40.69381],[-74.074337,40.694139],[-74.073258,40.693668],[-74.074083,40.694358],[-74.073723,40.694274],[-74.073214,40.694931],[-74.072313,40.694763],[-74.071129,40.693825],[-74.0704,40.695085],[-74.068476,40.696999],[-74.067538,40.696941],[-74.067071,40.696692],[-74.066746,40.696828],[-74.067033,40.696994],[-74.066886,40.697433],[-74.0675,40.697243],[-74.067896,40.697382],[-74.068394,40.698427],[-74.067596,40.699165],[-74.068603,40.699663],[-74.068455,40.700184],[-74.069465,40.70027],[-74.068777,40.700651],[-74.067699,40.699989],[-74.067262,40.700673],[-74.065669,40.701601],[-74.065449,40.702176],[-74.065878,40.702699],[-74.065478,40.703274],[-74.065692,40.703522],[-74.064785,40.70437],[-74.063699,40.704915],[-74.063629,40.704585],[-74.062185,40.704909],[-74.061785,40.705264],[-74.060955,40.705343],[-74.060771,40.705864],[-74.059321,40.706984],[-74.058708,40.706954],[-74.058854,40.706763],[-74.058565,40.706734],[-74.058208,40.706211],[-74.057846,40.706375],[-74.057627,40.706758],[-74.057986,40.707116],[-74.057226,40.707443],[-74.057549,40.707636],[-74.057725,40.708323],[-74.055843,40.709277],[-74.054535,40.710644],[-74.054094,40.71185],[-74.054051,40.713003],[-74.055544,40.716303],[-74.055671,40.718884],[-74.054273,40.722968],[-74.051428,40.722106],[-74.051283,40.722243],[-74.052508,40.722577],[-74.054053,40.723489],[-74.052066,40.729191],[-74.051337,40.730286],[-74.050432,40.730722],[-74.045201,40.730564],[-74.045272,40.730729],[-74.050177,40.731187],[-74.045047,40.731963],[-74.044938,40.732155],[-74.049521,40.732118],[-74.050569,40.731848],[-74.048208,40.734117],[-74.048315,40.734309],[-74.047951,40.734747],[-74.048237,40.735215],[-74.047292,40.736172],[-74.047253,40.736666],[-74.042423,40.735823],[-74.044552,40.73575],[-74.045056,40.735916],[-74.044733,40.73575],[-74.044986,40.735669],[-74.042099,40.735657],[-74.040441,40.735376],[-74.039361,40.734933],[-74.038321,40.734078],[-74.03688,40.733715],[-74.036929,40.731821],[-74.035606,40.730114],[-74.036056,40.7277],[-74.035875,40.7277],[-74.035497,40.730169],[-74.03682,40.731986],[-74.036701,40.73344],[-74.036411,40.733713],[-74.034247,40.73354],[-74.034138,40.733594],[-74.037852,40.733994],[-74.037996,40.734131],[-74.037491,40.734047],[-74.037526,40.734239],[-74.038174,40.734461],[-74.038283,40.734297],[-74.038354,40.734545],[-74.038894,40.734684],[-74.039108,40.735069],[-74.038783,40.735095],[-74.037378,40.734678],[-74.036332,40.734701],[-74.036333,40.734536],[-74.035537,40.734808],[-74.036547,40.734867],[-74.036979,40.734978],[-74.036942,40.735143],[-74.037086,40.735171],[-74.037375,40.735145],[-74.037483,40.7352],[-74.037664,40.735146],[-74.037843,40.735256],[-74.037661,40.73553],[-74.037336,40.735584],[-74.034363,40.734968],[-74.034387,40.734199],[-74.034309,40.734952],[-74.033373,40.734673],[-74.033554,40.734553],[-74.033377,40.734085],[-74.033338,40.734524],[-74.032941,40.734544],[-74.032436,40.734394],[-74.032439,40.734082],[-74.0324,40.734383],[-74.031747,40.734189],[-74.03197,40.734052],[-74.03128,40.734049],[-74.030091,40.733695],[-74.030566,40.733735],[-74.030967,40.731276],[-74.027997,40.731011],[-74.028094,40.730228],[-74.026851,40.72951],[-74.027419,40.729492],[-74.029127,40.730468],[-74.031254,40.730755],[-74.029758,40.729759],[-74.030478,40.729769],[-74.031141,40.730229],[-74.031232,40.729473],[-74.027341,40.729073],[-74.030966,40.729341],[-74.031006,40.728998],[-74.026548,40.728601],[-74.026604,40.72819],[-74.031034,40.728575],[-74.031086,40.728036],[-74.027374,40.727716],[-74.027376,40.727515],[-74.030342,40.727781],[-74.030405,40.727036],[-74.030021,40.726476],[-74.030287,40.726135],[-74.034452,40.726238],[-74.034525,40.725771],[-74.032072,40.725567],[-74.03211,40.725235],[-74.034559,40.725585],[-74.034614,40.725286],[-74.033817,40.725209],[-74.03384,40.725007],[-74.029447,40.724567],[-74.029605,40.723812],[-74.033812,40.724127],[-74.03423,40.722149],[-74.031422,40.721896],[-74.031476,40.720258],[-74.032552,40.720129],[-74.032062,40.719669],[-74.029269,40.719356],[-74.029375,40.718921],[-74.032487,40.719279],[-74.03275,40.717386],[-74.02993,40.717066],[-74.029999,40.716713],[-74.032075,40.716919],[-74.032169,40.71639],[-74.031289,40.716292],[-74.0315,40.715724],[-74.031699,40.716164],[-74.032624,40.716228],[-74.03315,40.714155],[-74.032997,40.713831],[-74.031663,40.713565],[-74.03302,40.713729],[-74.033733,40.711677],[-74.034832,40.711793],[-74.035525,40.711406],[-74.037113,40.711659],[-74.038075,40.711106],[-74.0395,40.711082],[-74.039514,40.71038],[-74.038623,40.710148],[-74.038499,40.709581],[-74.035384,40.70908],[-74.034716,40.709167],[-74.034344,40.70887],[-74.034501,40.707679],[-74.034081,40.707627],[-74.034058,40.707141],[-74.034162,40.706652],[-74.034692,40.706696],[-74.034873,40.705751],[-74.038658,40.70608],[-74.041336,40.704785],[-74.045227,40.702193],[-74.048464,40.699254],[-74.051378,40.696016],[-74.054851,40.69064],[-74.057814,40.691965],[-74.057479,40.69281],[-74.058322,40.693287],[-74.058756,40.692501],[-74.058952,40.692563],[-74.058686,40.693452],[-74.059387,40.693881],[-74.059784,40.693079],[-74.059994,40.693121],[-74.0597,40.694059],[-74.060237,40.694409],[-74.060745,40.693614],[-74.06137,40.693886],[-74.06103,40.695033],[-74.064731,40.697091],[-74.06515,40.697088],[-74.06524,40.697678],[-74.065774,40.698034],[-74.066106,40.698135],[-74.066563,40.696832],[-74.067029,40.696369],[-74.068257,40.696866],[-74.069577,40.695732],[-74.070581,40.694436],[-74.070378,40.693824],[-74.069619,40.694049],[-74.069813,40.694365],[-74.069068,40.695173],[-74.0678,40.695391],[-74.067688,40.695217],[-74.067452,40.695555],[-74.065882,40.694626],[-74.06693,40.694008],[-74.068929,40.691697],[-74.069459,40.690723],[-74.069929,40.688696],[-74.069624,40.685822],[-74.07021,40.684684],[-74.069889,40.68445],[-74.070546,40.683946],[-74.073359,40.686049],[-74.073182,40.686206],[-74.07347,40.686778],[-74.074685,40.687589],[-74.07484,40.687935],[-74.075758,40.68829],[-74.075897,40.688661],[-74.078013,40.688601],[-74.078733,40.688949],[-74.079993,40.688906],[-74.079582,40.688726],[-74.080285,40.687995],[-74.07463,40.683866],[-74.074457,40.683971],[-74.071101,40.681665],[-74.070662,40.680639],[-74.071797,40.679744],[-74.070641,40.679209],[-74.071889,40.679629],[-74.07372,40.679817],[-74.074828,40.678352],[-74.072516,40.677158],[-74.072814,40.676909],[-74.075007,40.678078],[-74.075638,40.677405],[-74.072611,40.675807],[-74.073022,40.675347],[-74.07579,40.676812],[-74.076735,40.676002],[-74.075979,40.67691],[-74.077223,40.675599],[-74.080985,40.677371],[-74.081291,40.677066],[-74.0813,40.676473],[-74.080935,40.676073],[-74.077279,40.674274],[-74.069296,40.670879],[-74.068149,40.670712],[-74.064988,40.669224],[-74.06492,40.66853],[-74.065716,40.66704],[-74.094784,40.67928],[-74.094191,40.67925],[-74.092884,40.6807],[-74.093388,40.680812],[-74.094437,40.680157],[-74.095155,40.680708],[-74.094758,40.680872],[-74.094647,40.681255],[-74.095079,40.681422],[-74.094932,40.681888],[-74.095362,40.682246],[-74.094931,40.68208],[-74.094569,40.682189],[-74.094278,40.682654],[-74.093449,40.682624],[-74.093488,40.682185],[-74.094032,40.68161],[-74.093384,40.681471],[-74.093313,40.681196],[-74.092988,40.68125],[-74.093026,40.68103],[-74.092199,40.680561],[-74.092158,40.681521],[-74.092408,40.681879],[-74.091289,40.681985]],[[-74.077525,40.680398],[-74.077561,40.680453],[-74.077561,40.680398],[-74.077525,40.680398]],[[-74.077163,40.680644],[-74.077128,40.680534],[-74.076911,40.680506],[-74.077163,40.680644]],[[-74.076839,40.680505],[-74.076876,40.680451],[-74.076804,40.68045],[-74.076839,40.680505]],[[-74.078093,40.681882],[-74.077985,40.681855],[-74.077984,40.681882],[-74.078093,40.681882]],[[-74.077407,40.68199],[-74.077335,40.681962],[-74.077335,40.681989],[-74.077407,40.68199]],[[-74.084217,40.688575],[-74.084181,40.68863],[-74.084217,40.68863],[-74.084217,40.688575]],[[-74.084253,40.688575],[-74.084289,40.688603],[-74.084289,40.688575],[-74.084253,40.688575]],[[-74.084397,40.688548],[-74.084325,40.688575],[-74.084397,40.688576],[-74.084397,40.688548]],[[-74.08465,40.688577],[-74.084614,40.688549],[-74.084614,40.688577],[-74.08465,40.688577]],[[-74.084577,40.688604],[-74.084542,40.688576],[-74.084541,40.688604],[-74.084577,40.688604]],[[-74.084505,40.688631],[-74.084469,40.688603],[-74.084469,40.688631],[-74.084505,40.688631]],[[-74.084252,40.68874],[-74.084216,40.688712],[-74.084216,40.68874],[-74.084252,40.68874]],[[-74.077707,40.697253],[-74.077671,40.697281],[-74.077707,40.697281],[-74.077707,40.697253]],[[-74.077743,40.697336],[-74.077706,40.697363],[-74.077743,40.697363],[-74.077743,40.697336]],[[-74.077706,40.697363],[-74.07767,40.69739],[-74.077706,40.69739],[-74.077706,40.697363]],[[-74.07767,40.69739],[-74.077634,40.697418],[-74.07767,40.697418],[-74.07767,40.69739]],[[-74.083069,40.693402],[-74.083033,40.69343],[-74.083069,40.69343],[-74.083069,40.693402]],[[-74.082851,40.693703],[-74.082779,40.693648],[-74.082779,40.693703],[-74.082851,40.693703]],[[-74.082779,40.693703],[-74.082742,40.69373],[-74.082778,40.693731],[-74.082779,40.693703]],[[-74.082742,40.69373],[-74.082706,40.693758],[-74.082742,40.693758],[-74.082742,40.69373]],[[-74.082706,40.693758],[-74.08267,40.693813],[-74.082706,40.693813],[-74.082706,40.693758]],[[-74.08267,40.693813],[-74.082633,40.69384],[-74.08267,40.69384],[-74.08267,40.693813]],[[-74.082633,40.69384],[-74.082597,40.693867],[-74.082633,40.693867],[-74.082633,40.69384]],[[-74.082597,40.693867],[-74.082524,40.693977],[-74.08256,40.693977],[-74.082597,40.693867]],[[-74.082632,40.694032],[-74.082669,40.694005],[-74.082632,40.694005],[-74.082632,40.694032]],[[-74.080636,40.696138],[-74.0806,40.696111],[-74.080599,40.696138],[-74.080636,40.696138]],[[-74.080599,40.696138],[-74.080563,40.696166],[-74.080599,40.696166],[-74.080599,40.696138]],[[-74.082367,40.696117],[-74.082331,40.69609],[-74.082331,40.696117],[-74.082367,40.696117]],[[-74.081715,40.696609],[-74.081679,40.696581],[-74.081678,40.696609],[-74.081715,40.696609]],[[-74.079902,40.698112],[-74.079866,40.698085],[-74.079866,40.698112],[-74.079902,40.698112]],[[-74.077837,40.699559],[-74.077873,40.699532],[-74.077837,40.699532],[-74.077837,40.699559]],[[-74.067469,40.707729],[-74.067505,40.707756],[-74.067505,40.707729],[-74.067469,40.707729]],[[-74.067505,40.707756],[-74.06754,40.707784],[-74.067541,40.707756],[-74.067505,40.707756]],[[-74.060578,40.707922],[-74.060722,40.70795],[-74.060722,40.707923],[-74.060578,40.707922]],[[-74.060578,40.707895],[-74.060686,40.70784],[-74.060578,40.707867],[-74.060578,40.707895]],[[-74.061159,40.707348],[-74.061194,40.707376],[-74.061195,40.707348],[-74.061159,40.707348]],[[-74.061412,40.707129],[-74.061521,40.707075],[-74.061413,40.707102],[-74.061412,40.707129]],[[-74.061521,40.707075],[-74.061557,40.707048],[-74.061521,40.707047],[-74.061521,40.707075]],[[-74.065544,40.704153],[-74.06558,40.704181],[-74.06558,40.704153],[-74.065544,40.704153]],[[-74.075862,40.698207],[-74.075826,40.69818],[-74.075826,40.698207],[-74.075862,40.698207]],[[-74.075789,40.698234],[-74.075754,40.698207],[-74.075753,40.698234],[-74.075789,40.698234]],[[-74.067683,40.696859],[-74.067647,40.696832],[-74.067647,40.696859],[-74.067683,40.696859]],[[-74.067647,40.696832],[-74.067611,40.696804],[-74.067611,40.696832],[-74.067647,40.696832]],[[-74.067611,40.696804],[-74.067576,40.696776],[-74.067575,40.696804],[-74.067611,40.696804]],[[-74.067596,40.699137],[-74.06756,40.69911],[-74.06756,40.699137],[-74.067596,40.699137]],[[-74.068563,40.700266],[-74.068383,40.700266],[-74.068562,40.700349],[-74.068563,40.700266]],[[-74.048171,40.734199],[-74.048135,40.734226],[-74.048171,40.734227],[-74.048171,40.734199]],[[-74.045056,40.735916],[-74.045092,40.735944],[-74.045092,40.735916],[-74.045056,40.735916]],[[-74.038495,40.734984],[-74.038639,40.734957],[-74.038459,40.734929],[-74.038495,40.734984]],[[-74.036801,40.734621],[-74.036838,40.734566],[-74.036802,40.734566],[-74.036801,40.734621]],[[-74.037375,40.735172],[-74.037266,40.735199],[-74.037375,40.735199],[-74.037375,40.735172]],[[-74.037661,40.735503],[-74.037626,40.735447],[-74.037625,40.735502],[-74.037661,40.735503]],[[-74.037372,40.735529],[-74.037337,40.735501],[-74.037336,40.735529],[-74.037372,40.735529]],[[-74.034387,40.734199],[-74.034423,40.734172],[-74.034387,40.734172],[-74.034387,40.734199]],[[-74.031176,40.733994],[-74.031213,40.733967],[-74.031176,40.733967],[-74.031176,40.733994]],[[-74.03096,40.733938],[-74.031285,40.733885],[-74.03096,40.733911],[-74.03096,40.733938]]],[[[-74.065471,40.704263],[-74.065435,40.704235],[-74.065471,40.704235],[-74.065471,40.704263]]],[[[-74.061412,40.707157],[-74.06134,40.707184],[-74.06134,40.707157],[-74.061412,40.707157]]],[[[-74.061304,40.707184],[-74.06134,40.707212],[-74.061304,40.707211],[-74.061304,40.707184]]],[[[-74.06029,40.707839],[-74.060254,40.707811],[-74.06029,40.707811],[-74.06029,40.707839]]],[[[-74.060506,40.707895],[-74.060433,40.707922],[-74.060434,40.707894],[-74.060506,40.707895]]],[[[-74.059962,40.708222],[-74.060034,40.70825],[-74.059962,40.708249],[-74.059962,40.708222]]],[[[-74.059926,40.708249],[-74.059962,40.708277],[-74.059926,40.708277],[-74.059926,40.708249]]],[[[-74.059563,40.708577],[-74.059311,40.708604],[-74.05978,40.708468],[-74.059563,40.708577]]],[[[-74.059311,40.708604],[-74.059274,40.708658],[-74.059238,40.708603],[-74.059311,40.708604]]],[[[-74.059202,40.708658],[-74.059166,40.708631],[-74.059202,40.708631],[-74.059202,40.708658]]],[[[-74.05913,40.708685],[-74.059094,40.708658],[-74.05913,40.708658],[-74.05913,40.708685]]],[[[-74.059057,40.708713],[-74.058985,40.708685],[-74.059058,40.708685],[-74.059057,40.708713]]],[[[-74.058913,40.708767],[-74.058841,40.708739],[-74.058913,40.708739],[-74.058913,40.708767]]],[[[-74.058768,40.708794],[-74.058804,40.708767],[-74.058804,40.708794],[-74.058768,40.708794]]],[[[-74.056782,40.709143],[-74.056746,40.709115],[-74.056782,40.709116],[-74.056782,40.709143]]],[[[-74.05671,40.709143],[-74.056746,40.70917],[-74.05671,40.70917],[-74.05671,40.709143]]],[[[-74.056709,40.709253],[-74.056456,40.709279],[-74.05671,40.70917],[-74.056709,40.709253]]],[[[-74.056778,40.709692],[-74.055835,40.710457],[-74.056378,40.71024],[-74.056341,40.710294],[-74.056305,40.710294],[-74.056341,40.710349],[-74.056269,40.710376],[-74.056268,40.710486],[-74.055834,40.710704],[-74.055833,40.710786],[-74.055797,40.710814],[-74.055905,40.710842],[-74.056374,40.710761],[-74.056341,40.710404],[-74.056666,40.710241],[-74.057419,40.710957],[-74.056732,40.711257],[-74.056517,40.711091],[-74.056805,40.711065],[-74.056771,40.710763],[-74.056446,40.710816],[-74.056445,40.711008],[-74.055616,40.710923],[-74.055146,40.711113],[-74.055548,40.710236],[-74.056635,40.709609],[-74.056636,40.709362],[-74.058084,40.708599],[-74.059277,40.708274],[-74.056634,40.709664],[-74.056778,40.709692]],[[-74.05667,40.709719],[-74.056634,40.709746],[-74.05667,40.709747],[-74.05667,40.709719]]],[[[-74.056377,40.710322],[-74.056341,40.710294],[-74.056377,40.710294],[-74.056377,40.710322]]],[[[-74.066761,40.711185],[-74.066331,40.710662],[-74.066803,40.710224],[-74.066807,40.709703],[-74.068535,40.710121],[-74.068497,40.71045],[-74.066939,40.71157],[-74.066722,40.711569],[-74.066761,40.711185]]],[[[-74.055869,40.710814],[-74.055833,40.710786],[-74.055869,40.710787],[-74.055869,40.710814]]],[[[-74.065949,40.713982],[-74.066417,40.714121],[-74.066638,40.713463],[-74.066963,40.713464],[-74.067327,40.712916],[-74.067579,40.712972],[-74.066523,40.714533],[-74.066018,40.714476],[-74.065949,40.713982]]],[[[-74.066264,40.715438],[-74.065793,40.715738],[-74.065828,40.715958],[-74.065576,40.715902],[-74.06529,40.715544],[-74.065869,40.715134],[-74.065762,40.715024],[-74.064386,40.715733],[-74.064316,40.715485],[-74.065184,40.715132],[-74.064432,40.714278],[-74.064721,40.714224],[-74.065114,40.714775],[-74.06526,40.714556],[-74.065909,40.714558],[-74.065871,40.71486],[-74.066089,40.714668],[-74.066377,40.714697],[-74.066264,40.715438]],[[-74.066088,40.714751],[-74.066124,40.714778],[-74.066124,40.714751],[-74.066088,40.714751]]],[[[-74.064882,40.717244],[-74.064514,40.718231],[-74.065013,40.719249],[-74.064436,40.719137],[-74.063782,40.719958],[-74.064321,40.720234],[-74.06421,40.720618],[-74.063048,40.721739],[-74.063227,40.721959],[-74.062681,40.722808],[-74.062356,40.722752],[-74.06221,40.723026],[-74.061813,40.723052],[-74.061521,40.723572],[-74.060216,40.724528],[-74.059277,40.72458],[-74.057262,40.723776],[-74.056218,40.72347],[-74.056073,40.723607],[-74.05611,40.723469],[-74.054525,40.723052],[-74.056254,40.718007],[-74.056085,40.716332],[-74.054376,40.712949],[-74.05445,40.712565],[-74.054984,40.713748],[-74.054741,40.712347],[-74.054525,40.712154],[-74.05438,40.712318],[-74.054969,40.710591],[-74.055102,40.712211],[-74.057903,40.719688],[-74.05768,40.720676],[-74.056474,40.722922],[-74.056257,40.722976],[-74.056183,40.723332],[-74.056437,40.723141],[-74.057203,40.721827],[-74.057277,40.721525],[-74.057459,40.721361],[-74.05746,40.721196],[-74.057605,40.721087],[-74.057642,40.72084],[-74.057898,40.720402],[-74.05797,40.720375],[-74.057975,40.719661],[-74.055992,40.713971],[-74.05603,40.713669],[-74.056647,40.713178],[-74.055782,40.713092],[-74.0564,40.712326],[-74.056476,40.711832],[-74.057093,40.711258],[-74.0576,40.71093],[-74.058285,40.711015],[-74.058395,40.710632],[-74.059079,40.710936],[-74.059221,40.711266],[-74.060159,40.71127],[-74.05994,40.711653],[-74.060299,40.711874],[-74.060661,40.711766],[-74.060622,40.712095],[-74.061522,40.712373],[-74.061231,40.712866],[-74.061482,40.713004],[-74.061556,40.712675],[-74.061989,40.712759],[-74.063243,40.714054],[-74.063999,40.714359],[-74.063273,40.714987],[-74.063489,40.715043],[-74.063486,40.715537],[-74.063774,40.715593],[-74.063592,40.715784],[-74.065864,40.71604],[-74.065573,40.716396],[-74.064922,40.716531],[-74.065172,40.716916],[-74.064342,40.716968],[-74.064882,40.717244]],[[-74.063891,40.719766],[-74.063855,40.719738],[-74.063855,40.719766],[-74.063891,40.719766]],[[-74.056074,40.723442],[-74.056146,40.723415],[-74.056074,40.723414],[-74.056074,40.723442]],[[-74.054966,40.710975],[-74.05493,40.710948],[-74.05493,40.710975],[-74.054966,40.710975]],[[-74.056914,40.721826],[-74.057023,40.721716],[-74.056951,40.721688],[-74.056914,40.721826]],[[-74.056987,40.721689],[-74.057024,40.721634],[-74.056988,40.721634],[-74.056987,40.721689]],[[-74.056914,40.721826],[-74.056878,40.72188],[-74.056914,40.72188],[-74.056914,40.721826]],[[-74.056183,40.723332],[-74.056146,40.723387],[-74.056182,40.723387],[-74.056183,40.723332]],[[-74.057313,40.721525],[-74.057349,40.721553],[-74.057349,40.721525],[-74.057313,40.721525]],[[-74.057715,40.720786],[-74.057751,40.720813],[-74.057751,40.720786],[-74.057715,40.720786]],[[-74.057751,40.720731],[-74.057787,40.720758],[-74.057787,40.720731],[-74.057751,40.720731]],[[-74.057861,40.720512],[-74.057897,40.720567],[-74.057897,40.720512],[-74.057861,40.720512]],[[-74.064737,40.717244],[-74.064665,40.717271],[-74.064737,40.717271],[-74.064737,40.717244]]],[[[-74.057423,40.721251],[-74.057459,40.721279],[-74.057423,40.721278],[-74.057423,40.721251]]],[[[-74.057423,40.721333],[-74.057386,40.721361],[-74.057387,40.721333],[-74.057423,40.721333]]],[[[-74.057205,40.721525],[-74.057169,40.721497],[-74.057205,40.721497],[-74.057205,40.721525]]],[[[-74.057095,40.721854],[-74.05713,40.721881],[-74.057094,40.721881],[-74.057095,40.721854]]],[[[-74.056839,40.722319],[-74.056875,40.722347],[-74.056839,40.722347],[-74.056839,40.722319]]],[[[-74.056181,40.723552],[-74.056217,40.723525],[-74.056217,40.723552],[-74.056181,40.723552]]],[[[-74.056073,40.723524],[-74.056037,40.723552],[-74.056037,40.723524],[-74.056073,40.723524]]],[[[-74.056,40.723689],[-74.056109,40.723634],[-74.056108,40.723689],[-74.056,40.723689]]],[[[-74.055198,40.724921],[-74.055162,40.724893],[-74.055198,40.724893],[-74.055198,40.724921]]],[[[-74.067232,40.744237],[-74.067305,40.744182],[-74.067304,40.744237],[-74.067232,40.744237]]],[[[-74.067304,40.744374],[-74.06752,40.74432],[-74.067519,40.74454],[-74.067447,40.744512],[-74.067304,40.744374]]],[[[-74.065668,40.746125],[-74.065813,40.745988],[-74.065776,40.746125],[-74.065668,40.746125]]],[[[-74.065559,40.746234],[-74.065523,40.746261],[-74.065523,40.746234],[-74.065559,40.746234]]],[[[-74.06403,40.748205],[-74.063994,40.748177],[-74.06403,40.748177],[-74.06403,40.748205]]],[[[-74.064644,40.748207],[-74.064608,40.748234],[-74.064608,40.748207],[-74.064644,40.748207]]],[[[-74.062103,40.750448],[-74.062067,40.750421],[-74.062103,40.750421],[-74.062103,40.750448]]],[[[-74.061013,40.751432],[-74.060977,40.751405],[-74.061013,40.751405],[-74.061013,40.751432]]],[[[-74.055713,40.755941],[-74.055677,40.755914],[-74.055713,40.755914],[-74.055713,40.755941]]],[[[-74.05535,40.756269],[-74.055314,40.756297],[-74.055314,40.756269],[-74.05535,40.756269]]],[[[-74.055278,40.756297],[-74.055314,40.756324],[-74.055277,40.756324],[-74.055278,40.756297]]],[[[-74.073458,40.758314],[-74.072348,40.756937],[-74.071277,40.755094],[-74.069861,40.750752],[-74.070614,40.751551],[-74.073394,40.757024],[-74.074396,40.758427],[-74.072666,40.758911],[-74.072224,40.760123],[-74.070191,40.761185],[-74.069977,40.760744],[-74.070155,40.761203],[-74.066427,40.76275],[-74.064931,40.763763],[-74.063801,40.763669],[-74.062501,40.762673],[-74.061794,40.76242],[-74.060022,40.76255],[-74.060002,40.76341],[-74.05963,40.764001],[-74.059993,40.765701],[-74.058474,40.766757],[-74.056954,40.769011],[-74.052044,40.760841],[-74.05225,40.760951],[-74.052396,40.760705],[-74.051856,40.760526],[-74.054186,40.75761],[-74.054151,40.757445],[-74.054296,40.757281],[-74.054441,40.757309],[-74.054877,40.756871],[-74.054806,40.756706],[-74.054951,40.75657],[-74.055095,40.756598],[-74.055313,40.756434],[-74.055496,40.755995],[-74.055713,40.755969],[-74.055931,40.755805],[-74.055714,40.755886],[-74.056586,40.755039],[-74.057178,40.752763],[-74.057721,40.7526],[-74.059139,40.751041],[-74.060184,40.751347],[-74.06113,40.750088],[-74.060952,40.74973],[-74.061281,40.7491],[-74.061895,40.749075],[-74.06229,40.749406],[-74.062797,40.749106],[-74.062977,40.749189],[-74.059707,40.752471],[-74.061594,40.750995],[-74.06185,40.750502],[-74.062138,40.750476],[-74.063954,40.748753],[-74.064358,40.747822],[-74.064319,40.748151],[-74.064679,40.748372],[-74.064722,40.747247],[-74.065083,40.74722],[-74.065049,40.747001],[-74.065378,40.746288],[-74.065631,40.746317],[-74.066103,40.745797],[-74.066392,40.745798],[-74.067011,40.744977],[-74.066975,40.744867],[-74.067086,40.744483],[-74.066549,40.743822],[-74.067017,40.743961],[-74.067552,40.744951],[-74.067733,40.74498],[-74.069184,40.749404],[-74.069251,40.750146],[-74.068963,40.750117],[-74.068535,40.749292],[-74.068212,40.748962],[-74.068104,40.748989],[-74.068674,40.750116],[-74.067877,40.750552],[-74.067837,40.751211],[-74.069523,40.752809],[-74.070303,40.754926],[-74.070554,40.755311],[-74.070203,40.753718],[-74.070348,40.753609],[-74.07188,40.756798],[-74.073205,40.75845],[-74.073313,40.758478],[-74.073385,40.758424],[-74.073278,40.758286],[-74.073314,40.758231],[-74.073529,40.758507],[-74.073637,40.758534],[-74.073458,40.758314]],[[-74.07328,40.758011],[-74.073316,40.757984],[-74.07328,40.757984],[-74.07328,40.758011]],[[-74.072563,40.757158],[-74.0726,40.757103],[-74.072564,40.757103],[-74.072563,40.757158]],[[-74.069941,40.760744],[-74.069764,40.760167],[-74.069692,40.760112],[-74.069941,40.760744]],[[-74.069692,40.760112],[-74.069657,40.760029],[-74.069656,40.760112],[-74.069692,40.760112]],[[-74.070083,40.761074],[-74.070047,40.761101],[-74.070083,40.761101],[-74.070083,40.761074]],[[-74.070047,40.761101],[-74.069939,40.761128],[-74.070047,40.761129],[-74.070047,40.761101]],[[-74.069939,40.761128],[-74.069902,40.761156],[-74.069938,40.761156],[-74.069939,40.761128]],[[-74.069612,40.761347],[-74.069576,40.761374],[-74.069612,40.761374],[-74.069612,40.761347]],[[-74.054186,40.757555],[-74.054223,40.7575],[-74.054187,40.7575],[-74.054186,40.757555]],[[-74.054223,40.7575],[-74.054259,40.757473],[-74.054223,40.757473],[-74.054223,40.7575]],[[-74.054259,40.757473],[-74.054296,40.757418],[-74.054259,40.757418],[-74.054259,40.757473]],[[-74.054296,40.757418],[-74.054332,40.757391],[-74.054296,40.757391],[-74.054296,40.757418]],[[-74.054368,40.757336],[-74.054332,40.757363],[-74.054368,40.757364],[-74.054368,40.757336]],[[-74.055532,40.756105],[-74.055568,40.756051],[-74.055532,40.75605],[-74.055532,40.756105]],[[-74.055931,40.75575],[-74.055967,40.755723],[-74.055931,40.755723],[-74.055931,40.75575]],[[-74.061461,40.749156],[-74.061425,40.749183],[-74.061461,40.749183],[-74.061461,40.749156]],[[-74.059707,40.752525],[-74.059562,40.752552],[-74.059562,40.752607],[-74.059707,40.752525]],[[-74.059561,40.752662],[-74.059417,40.752689],[-74.059416,40.752744],[-74.059561,40.752662]],[[-74.059598,40.752607],[-74.059634,40.752635],[-74.059634,40.752607],[-74.059598,40.752607]],[[-74.060069,40.752225],[-74.060105,40.752252],[-74.060106,40.752225],[-74.060069,40.752225]],[[-74.061013,40.75146],[-74.061049,40.751515],[-74.061085,40.75146],[-74.061013,40.75146]],[[-74.064028,40.748616],[-74.064063,40.748644],[-74.064064,40.748617],[-74.064028,40.748616]],[[-74.065084,40.747111],[-74.06512,40.747083],[-74.065084,40.747083],[-74.065084,40.747111]],[[-74.065522,40.746426],[-74.065449,40.746426],[-74.065413,40.746453],[-74.065522,40.746426]],[[-74.065522,40.746399],[-74.065558,40.746371],[-74.065522,40.746371],[-74.065522,40.746399]],[[-74.065558,40.746371],[-74.065594,40.746344],[-74.065558,40.746344],[-74.065558,40.746371]],[[-74.06632,40.745825],[-74.066283,40.745853],[-74.066319,40.745853],[-74.06632,40.745825]],[[-74.066283,40.745853],[-74.066247,40.74588],[-74.066283,40.74588],[-74.066283,40.745853]],[[-74.067011,40.744949],[-74.067047,40.744895],[-74.067011,40.744894],[-74.067011,40.744949]],[[-74.067732,40.745089],[-74.067696,40.745117],[-74.067732,40.745117],[-74.067732,40.745089]],[[-74.06814,40.748961],[-74.068104,40.748934],[-74.068104,40.748961],[-74.06814,40.748961]],[[-74.073602,40.758479],[-74.073638,40.758452],[-74.073602,40.758452],[-74.073602,40.758479]]],[[[-74.055168,40.756433],[-74.055096,40.756515],[-74.055096,40.756433],[-74.055168,40.756433]]],[[[-74.055096,40.756543],[-74.055059,40.75657],[-74.055059,40.756543],[-74.055096,40.756543]]],[[[-74.054451,40.712538],[-74.054379,40.712428],[-74.054451,40.712428],[-74.054451,40.712538]]],[[[-74.054503,40.726291],[-74.05454,40.726263],[-74.054539,40.726291],[-74.054503,40.726291]]],[[[-74.05432,40.726784],[-74.054283,40.726811],[-74.054283,40.726784],[-74.05432,40.726784]]],[[[-74.054247,40.726866],[-74.054283,40.726894],[-74.054247,40.726894],[-74.054247,40.726866]]],[[[-74.05421,40.726976],[-74.054246,40.726948],[-74.054246,40.726976],[-74.05421,40.726976]]],[[[-74.054173,40.727058],[-74.05421,40.727031],[-74.054209,40.727058],[-74.054173,40.727058]]],[[[-74.055306,40.724921],[-74.055159,40.72536],[-74.054977,40.725634],[-74.055156,40.725772],[-74.054432,40.726126],[-74.054503,40.726263],[-74.054356,40.726784],[-74.054284,40.726756],[-74.054247,40.726784],[-74.054247,40.726866],[-74.054211,40.726866],[-74.05421,40.726948],[-74.054174,40.726948],[-74.054174,40.727031],[-74.054138,40.72703],[-74.054135,40.72736],[-74.053956,40.727249],[-74.053846,40.727468],[-74.054095,40.728046],[-74.05326,40.728784],[-74.052609,40.729028],[-74.052605,40.729522],[-74.051841,40.730535],[-74.051803,40.730837],[-74.052056,40.730728],[-74.052055,40.73092],[-74.05227,40.731058],[-74.052379,40.731031],[-74.052342,40.731113],[-74.052486,40.731251],[-74.052413,40.731278],[-74.05227,40.731168],[-74.052161,40.731195],[-74.05191,40.731029],[-74.051477,40.730945],[-74.051478,40.730891],[-74.052207,40.729686],[-74.053237,40.726807],[-74.053665,40.727495],[-74.053811,40.727359],[-74.053848,40.727112],[-74.053237,40.726725],[-74.054231,40.723874],[-74.054694,40.724782],[-74.054981,40.724975],[-74.055306,40.724921]],[[-74.055159,40.725278],[-74.055124,40.72525],[-74.055123,40.725277],[-74.055159,40.725278]],[[-74.054356,40.726702],[-74.05432,40.726674],[-74.05432,40.726702],[-74.054356,40.726702]],[[-74.054137,40.727113],[-74.054101,40.727167],[-74.054137,40.727168],[-74.054137,40.727113]]],[[[-74.052394,40.72878],[-74.052358,40.728753],[-74.052394,40.728753],[-74.052394,40.72878]]],[[[-74.052358,40.728808],[-74.052321,40.728917],[-74.052321,40.728808],[-74.052358,40.728808]]],[[[-74.052321,40.728917],[-74.051844,40.730123],[-74.051552,40.730534],[-74.051445,40.730341],[-74.052321,40.728917]]],[[[-74.051876,40.7307],[-74.051912,40.730673],[-74.051912,40.7307],[-74.051876,40.7307]]],[[[-74.050755,40.73097],[-74.051337,40.730396],[-74.051552,40.730561],[-74.051224,40.731027],[-74.050755,40.73097]]],[[[-74.04906,40.730909],[-74.049168,40.730882],[-74.049168,40.730909],[-74.04906,40.730909]]],[[[-74.052199,40.730948],[-74.052163,40.730921],[-74.052199,40.730921],[-74.052199,40.730948]]],[[[-74.049889,40.730994],[-74.049276,40.730909],[-74.05043,40.730996],[-74.049889,40.730994]]],[[[-74.052199,40.730976],[-74.052235,40.730948],[-74.052235,40.730976],[-74.052199,40.730976]]],[[[-74.050719,40.730997],[-74.050539,40.730942],[-74.050719,40.730942],[-74.050719,40.730997]]],[[[-74.052235,40.731003],[-74.052271,40.730976],[-74.052271,40.731003],[-74.052235,40.731003]]],[[[-74.05227,40.731031],[-74.052307,40.731004],[-74.052307,40.731031],[-74.05227,40.731031]]],[[[-74.052378,40.731114],[-74.052414,40.731086],[-74.052414,40.731114],[-74.052378,40.731114]]],[[[-74.052414,40.731169],[-74.05245,40.731141],[-74.05245,40.731169],[-74.052414,40.731169]]],[[[-74.05245,40.731169],[-74.052486,40.731196],[-74.05245,40.731196],[-74.05245,40.731169]]],[[[-74.052233,40.731195],[-74.052269,40.731223],[-74.052233,40.731223],[-74.052233,40.731195]]],[[[-74.052269,40.731223],[-74.052305,40.731251],[-74.052269,40.73125],[-74.052269,40.731223]]],[[[-74.052485,40.731306],[-74.052521,40.731279],[-74.052521,40.731306],[-74.052485,40.731306]]],[[[-74.047321,40.731917],[-74.050139,40.731379],[-74.050933,40.731383],[-74.050425,40.731792],[-74.049521,40.732008],[-74.047321,40.731917]]],[[[-74.042889,40.736182],[-74.042817,40.736209],[-74.042817,40.736182],[-74.042889,40.736182]]],[[[-74.045269,40.736494],[-74.045125,40.736465],[-74.045269,40.736466],[-74.045269,40.736494]]],[[[-74.042997,40.73621],[-74.045123,40.736658],[-74.045519,40.736824],[-74.045446,40.736988],[-74.045915,40.737045],[-74.045221,40.738168],[-74.045104,40.739512],[-74.044635,40.739565],[-74.044559,40.740032],[-74.043545,40.740577],[-74.043033,40.741508],[-74.042372,40.74318],[-74.042479,40.743345],[-74.042333,40.743674],[-74.042261,40.743646],[-74.042188,40.743728],[-74.042223,40.743866],[-74.042151,40.743838],[-74.042042,40.743975],[-74.041858,40.744413],[-74.041276,40.745097],[-74.041276,40.745207],[-74.041203,40.745234],[-74.041094,40.745371],[-74.040947,40.745727],[-74.040621,40.74589],[-74.040003,40.746574],[-74.038943,40.748546],[-74.03847,40.749039],[-74.039603,40.746747],[-74.041067,40.745107],[-74.041619,40.744285],[-74.041521,40.743999],[-74.042208,40.742804],[-74.042169,40.741354],[-74.043516,40.740349],[-74.043782,40.739857],[-74.043922,40.739012],[-74.04352,40.738505],[-74.043911,40.73754],[-74.042815,40.736237],[-74.042997,40.73621]],[[-74.042407,40.7434],[-74.042371,40.743372],[-74.042371,40.743399],[-74.042407,40.7434]],[[-74.042333,40.743619],[-74.042297,40.743591],[-74.042297,40.743619],[-74.042333,40.743619]],[[-74.040984,40.74559],[-74.040948,40.745562],[-74.040948,40.74559],[-74.040984,40.74559]],[[-74.039199,40.747971],[-74.039163,40.747943],[-74.039163,40.747971],[-74.039199,40.747971]],[[-74.042889,40.736237],[-74.042961,40.736265],[-74.042961,40.736237],[-74.042889,40.736237]]],[[[-74.042297,40.743674],[-74.04226,40.743701],[-74.042261,40.743674],[-74.042297,40.743674]]],[[[-74.042151,40.743893],[-74.042187,40.74392],[-74.042151,40.74392],[-74.042151,40.743893]]],[[[-74.042077,40.744057],[-74.042114,40.74403],[-74.042114,40.744057],[-74.042077,40.744057]]],[[[-74.042041,40.744139],[-74.042077,40.744112],[-74.042077,40.744139],[-74.042041,40.744139]]],[[[-74.042004,40.744194],[-74.042041,40.744167],[-74.04204,40.744194],[-74.042004,40.744194]]],[[[-74.041858,40.744441],[-74.041895,40.744413],[-74.041894,40.744441],[-74.041858,40.744441]]],[[[-74.041822,40.744495],[-74.041858,40.744468],[-74.041858,40.744495],[-74.041822,40.744495]]],[[[-74.041275,40.745234],[-74.041312,40.745207],[-74.041311,40.745234],[-74.041275,40.745234]]],[[[-74.054732,40.756926],[-74.054696,40.756953],[-74.054696,40.756926],[-74.054732,40.756926]]],[[[-74.054659,40.757035],[-74.054623,40.757008],[-74.054659,40.757008],[-74.054659,40.757035]]],[[[-74.054623,40.757035],[-74.054587,40.757062],[-74.054587,40.757035],[-74.054623,40.757035]]],[[[-74.05455,40.75709],[-74.054478,40.757172],[-74.054478,40.757089],[-74.05455,40.75709]]],[[[-74.054477,40.757199],[-74.054441,40.757227],[-74.054441,40.757199],[-74.054477,40.757199]]],[[[-74.054405,40.757226],[-74.054441,40.757254],[-74.054405,40.757254],[-74.054405,40.757226]]],[[[-74.054114,40.75761],[-74.054077,40.757637],[-74.054078,40.757609],[-74.054114,40.75761]]],[[[-74.054041,40.757692],[-74.054005,40.757719],[-74.054005,40.757692],[-74.054041,40.757692]]],[[[-74.054005,40.757746],[-74.053968,40.757774],[-74.053968,40.757746],[-74.054005,40.757746]]],[[[-74.053932,40.757829],[-74.053896,40.757856],[-74.053896,40.757828],[-74.053932,40.757829]]],[[[-74.052035,40.760824],[-74.052028,40.760813],[-74.052035,40.760813],[-74.052035,40.760824]]],[[[-74.038175,40.734269],[-74.038067,40.734241],[-74.038175,40.734242],[-74.038175,40.734269]]],[[[-74.038247,40.73427],[-74.038175,40.734297],[-74.038175,40.734269],[-74.038247,40.73427]]],[[[-74.038354,40.734435],[-74.038391,40.734407],[-74.03839,40.734435],[-74.038354,40.734435]]],[[[-74.033338,40.734552],[-74.033337,40.734662],[-74.032962,40.73455],[-74.033338,40.734552]]],[[[-74.037087,40.735034],[-74.037015,40.735006],[-74.037087,40.735006],[-74.037087,40.735034]]],[[[-74.037195,40.735061],[-74.037123,40.735034],[-74.037195,40.735034],[-74.037195,40.735061]]],[[[-74.037123,40.735089],[-74.037087,40.735061],[-74.037123,40.735061],[-74.037123,40.735089]]],[[[-74.037267,40.735062],[-74.037484,40.73509],[-74.037592,40.735145],[-74.037303,40.735117],[-74.037267,40.735062]]],[[[-74.036979,40.735088],[-74.037087,40.735116],[-74.036978,40.735115],[-74.036979,40.735088]]],[[[-74.037231,40.735144],[-74.037123,40.735116],[-74.037231,40.735117],[-74.037231,40.735144]]],[[[-74.038817,40.735342],[-74.038781,40.735315],[-74.038817,40.735315],[-74.038817,40.735342]]],[[[-74.038961,40.73537],[-74.038853,40.735343],[-74.038962,40.735343],[-74.038961,40.73537]]],[[[-74.035822,40.735385],[-74.035822,40.735402],[-74.035765,40.735385],[-74.035822,40.735385]]],[[[-74.03593,40.735413],[-74.035894,40.735423],[-74.035894,40.735413],[-74.03593,40.735413]]],[[[-74.036651,40.735498],[-74.036542,40.735525],[-74.036543,40.735498],[-74.036651,40.735498]]],[[[-74.038599,40.735561],[-74.038563,40.735534],[-74.038599,40.735534],[-74.038599,40.735561]]],[[[-74.038852,40.73559],[-74.038707,40.735562],[-74.038852,40.735562],[-74.038852,40.73559]]],[[[-74.038491,40.735588],[-74.038057,40.735641],[-74.037661,40.735612],[-74.03777,40.735503],[-74.038491,40.735588]]],[[[-74.036831,40.735554],[-74.037119,40.73561],[-74.036794,40.735636],[-74.036831,40.735554]]],[[[-74.036758,40.735636],[-74.037516,40.735667],[-74.037515,40.735722],[-74.037118,40.735788],[-74.036542,40.735617],[-74.036506,40.735553],[-74.036795,40.735527],[-74.036758,40.735636]],[[-74.036651,40.735553],[-74.036686,40.735581],[-74.036687,40.735554],[-74.036651,40.735553]],[[-74.036614,40.735608],[-74.036578,40.735581],[-74.036578,40.735608],[-74.036614,40.735608]]],[[[-74.038743,40.735644],[-74.040511,40.735679],[-74.041916,40.736079],[-74.039624,40.73643],[-74.037447,40.735886],[-74.038743,40.735644]]],[[[-74.041239,40.745234],[-74.041275,40.745262],[-74.041239,40.745262],[-74.041239,40.745234]]],[[[-74.041203,40.745316],[-74.041239,40.745289],[-74.041239,40.745316],[-74.041203,40.745316]]],[[[-74.041167,40.745316],[-74.041202,40.745344],[-74.041166,40.745344],[-74.041167,40.745316]]],[[[-74.04113,40.745398],[-74.041166,40.745371],[-74.041166,40.745399],[-74.04113,40.745398]]],[[[-74.040693,40.745891],[-74.040729,40.745918],[-74.040693,40.745918],[-74.040693,40.745891]]],[[[-74.040621,40.745973],[-74.040657,40.746],[-74.04062,40.746],[-74.040621,40.745973]]],[[[-74.039969,40.7463],[-74.039943,40.7463],[-74.039969,40.746266],[-74.039969,40.7463]]],[[[-74.039933,40.746314],[-74.039932,40.746354],[-74.039902,40.746354],[-74.039933,40.746314]]],[[[-74.040075,40.746575],[-74.040111,40.746547],[-74.040111,40.746575],[-74.040075,40.746575]]],[[[-74.040039,40.746574],[-74.040075,40.746602],[-74.040039,40.746602],[-74.040039,40.746574]]],[[[-74.040002,40.746657],[-74.040039,40.746629],[-74.040038,40.746657],[-74.040002,40.746657]]],[[[-74.03869,40.748501],[-74.03869,40.748545],[-74.038666,40.748545],[-74.03869,40.748501]]],[[[-74.038654,40.748567],[-74.038653,40.748628],[-74.03862,40.748627],[-74.038654,40.748567]]],[[[-74.038617,40.748633],[-74.038617,40.748682],[-74.03859,40.748682],[-74.038617,40.748633]]],[[[-74.03858,40.748737],[-74.038559,40.748737],[-74.038581,40.748699],[-74.03858,40.748737]]],[[[-74.038544,40.748819],[-74.038514,40.748819],[-74.038544,40.748765],[-74.038544,40.748819]]],[[[-74.038507,40.74883],[-74.038507,40.748874],[-74.038483,40.748874],[-74.038507,40.74883]]],[[[-74.038471,40.748896],[-74.038471,40.748929],[-74.038453,40.748929],[-74.038471,40.748896]]],[[[-74.038615,40.748984],[-74.038651,40.748957],[-74.038651,40.748984],[-74.038615,40.748984]]],[[[-74.038412,40.749003],[-74.038434,40.748962],[-74.038377,40.749066],[-74.038412,40.749003]]],[[[-74.038434,40.749066],[-74.038029,40.750217],[-74.037847,40.750326],[-74.037847,40.750359],[-74.037729,40.75029],[-74.038434,40.749066]]],[[[-74.038284,40.749779],[-74.038321,40.749752],[-74.03832,40.749779],[-74.038284,40.749779]]],[[[-74.038028,40.750245],[-74.038065,40.750217],[-74.038065,40.750245],[-74.038028,40.750245]]],[[[-74.037992,40.750272],[-74.038028,40.7503],[-74.037992,40.750299],[-74.037992,40.750272]]],[[[-74.037884,40.750326],[-74.037919,40.750354],[-74.037883,40.750354],[-74.037884,40.750326]]]]}}]}