{"type":"FeatureCollection","features":[{"type":"Feature","properties":{"level_ft":15},"geometry":{"type":"MultiPolygon","coordinates":[[[[-74.096056,40.680904],[-74.09602,40.680876],[-74.096056,40.680876],[-74.096056,40.680904]]],[[[-74.09746,40.681128],[-74.097425,40.6811],[-74.097461,40.681101],[-74.09746,40.681128]]],[[[-74.098837,40.682588],[-74.098132,40.683326],[-74.097916,40.683353],[-74.098716,40.682262],[-74.098837,40.682588]]],[[[-74.098653,40.682093],[-74.097373,40.683653],[-74.097228,40.683735],[-74.097447,40.683352],[-74.097158,40.683515],[-74.096214,40.684555],[-74.09814,40.682091],[-74.098287,40.681598],[-74.097134,40.681429],[-74.097388,40.681183],[-74.098283,40.681103],[-74.098653,40.682093]],[[-74.097737,40.68316],[-74.097629,40.683105],[-74.097629,40.683133],[-74.097737,40.68316]],[[-74.097629,40.683133],[-74.097592,40.683187],[-74.097628,40.683187],[-74.097629,40.683133]],[[-74.097592,40.683187],[-74.097556,40.683215],[-74.097592,40.683215],[-74.097592,40.683187]],[[-74.097447,40.683352],[-74.09752,40.683269],[-74.097448,40.683269],[-74.097447,40.683352]],[[-74.09752,40.683269],[-74.097556,40.683242],[-74.09752,40.683242],[-74.09752,40.683269]]],[[[-74.09723,40.683543],[-74.097266,40.683516],[-74.097266,40.683543],[-74.09723,40.683543]]],[[[-74.097193,40.683598],[-74.097229,40.68357],[-74.097229,40.683598],[-74.097193,40.683598]]],[[[-74.097157,40.683652],[-74.097193,40.683598],[-74.097193,40.683653],[-74.097157,40.683652]]],[[[-74.098602,40.683218],[-74.098889,40.682725],[-74.09937,40.684044],[-74.098124,40.684644],[-74.098888,40.683576],[-74.098854,40.683247],[-74.098602,40.683218]],[[-74.098854,40.683247],[-74.09889,40.683219],[-74.098854,40.683219],[-74.098854,40.683247]],[[-74.098854,40.683192],[-74.098927,40.683165],[-74.098854,40.683164],[-74.098854,40.683192]],[[-74.098927,40.683165],[-74.098963,40.683137],[-74.098927,40.683137],[-74.098927,40.683165]],[[-74.098963,40.683137],[-74.098999,40.68311],[-74.098963,40.68311],[-74.098963,40.683137]]],[[[-74.097012,40.683734],[-74.097048,40.683707],[-74.097048,40.683734],[-74.097012,40.683734]]],[[[-74.097157,40.683652],[-74.09661,40.684556],[-74.096357,40.684638],[-74.097157,40.683652]]],[[[-74.096284,40.684802],[-74.096393,40.684665],[-74.096393,40.684775],[-74.096284,40.684802]]],[[[-74.096175,40.685049],[-74.096212,40.684857],[-74.096284,40.684857],[-74.096175,40.685049]]],[[[-74.096102,40.685131],[-74.096067,40.685021],[-74.096103,40.685021],[-74.096102,40.685131]]],[[[-74.095994,40.685131],[-74.096066,40.685158],[-74.095994,40.685158],[-74.095994,40.685131]]],[[[-74.09603,40.685186],[-74.095993,40.685213],[-74.095994,40.685186],[-74.09603,40.685186]]],[[[-74.095957,40.685213],[-74.095812,40.685405],[-74.095703,40.685514],[-74.095957,40.685213]]],[[[-74.099943,40.686133],[-74.099015,40.686514],[-74.09916,40.686267],[-74.098476,40.6861],[-74.098046,40.685714],[-74.098767,40.685662],[-74.099024,40.684977],[-74.098772,40.684866],[-74.099351,40.684593],[-74.099943,40.686133]]],[[[-74.095595,40.685569],[-74.095666,40.685624],[-74.095594,40.685623],[-74.095595,40.685569]]],[[[-74.09599,40.685707],[-74.095955,40.68557],[-74.096027,40.685543],[-74.09599,40.685707]]],[[[-74.095558,40.685623],[-74.095594,40.685651],[-74.095558,40.685651],[-74.095558,40.685623]]],[[[-74.095737,40.685844],[-74.096062,40.68579],[-74.096062,40.685872],[-74.095737,40.685844]]],[[[-74.095555,40.686145],[-74.095808,40.686091],[-74.095843,40.686173],[-74.095555,40.686145]]],[[[-74.086502,40.686525],[-74.085748,40.685973],[-74.085785,40.685781],[-74.086937,40.686059],[-74.087691,40.686693],[-74.087185,40.686856],[-74.08715,40.686554],[-74.086502,40.686525]]],[[[-74.089779,40.68714],[-74.089817,40.686948],[-74.090214,40.686895],[-74.089779,40.68714]]],[[[-74.088365,40.688453],[-74.090537,40.687088],[-74.090318,40.687526],[-74.088365,40.688453]]],[[[-74.086406,40.69034],[-74.087203,40.689684],[-74.087597,40.690152],[-74.087307,40.690398],[-74.086549,40.690505],[-74.086406,40.69034]]],[[[-74.086571,40.692838],[-74.086534,40.692866],[-74.086535,40.692838],[-74.086571,40.692838]]],[[[-74.086498,40.692866],[-74.086534,40.692893],[-74.086498,40.692893],[-74.086498,40.692866]]],[[[-74.086462,40.692893],[-74.086498,40.69292],[-74.086462,40.69292],[-74.086462,40.692893]]],[[[-74.08639,40.69292],[-74.086426,40.692948],[-74.08639,40.692975],[-74.08639,40.69292]]],[[[-74.086678,40.692976],[-74.086714,40.693004],[-74.086678,40.693003],[-74.086678,40.692976]]],[[[-74.086642,40.693003],[-74.086678,40.693031],[-74.086642,40.693031],[-74.086642,40.693003]]],[[[-74.086317,40.693002],[-74.086389,40.69303],[-74.086317,40.693057],[-74.086317,40.693002]]],[[[-74.086606,40.693031],[-74.086641,40.693058],[-74.086605,40.693058],[-74.086606,40.693031]]],[[[-74.086569,40.693058],[-74.086605,40.693086],[-74.086569,40.693085],[-74.086569,40.693058]]],[[[-74.086533,40.693085],[-74.086569,40.693113],[-74.086533,40.693113],[-74.086533,40.693085]]],[[[-74.086497,40.69314],[-74.086533,40.693113],[-74.086533,40.69314],[-74.086497,40.69314]]],[[[-74.086461,40.69314],[-74.086497,40.693167],[-74.08646,40.693167],[-74.086461,40.69314]]],[[[-74.086424,40.693167],[-74.08646,40.693195],[-74.086424,40.693195],[-74.086424,40.693167]]],[[[-74.086388,40.693195],[-74.086424,40.693222],[-74.086388,40.693222],[-74.086388,40.693195]]],[[[-74.086352,40.693222],[-74.086388,40.693249],[-74.086352,40.693249],[-74.086352,40.693222]]],[[[-74.086316,40.693249],[-74.086352,40.693277],[-74.086316,40.693277],[-74.086316,40.693249]]],[[[-74.086279,40.693331],[-74.086243,40.693304],[-74.086279,40.693304],[-74.086279,40.693331]]],[[[-74.086243,40.693331],[-74.086207,40.693359],[-74.086207,40.693331],[-74.086243,40.693331]]],[[[-74.094953,40.725946],[-74.096248,40.726636],[-74.098962,40.727552],[-74.097897,40.73072],[-74.095303,40.735005],[-74.090277,40.735454],[-74.088981,40.734818],[-74.088655,40.735009],[-74.088911,40.734461],[-74.088515,40.73435],[-74.088584,40.734872],[-74.088148,40.735364],[-74.087317,40.735526],[-74.08793,40.735638],[-74.088509,40.735421],[-74.088435,40.735722],[-74.087134,40.735992],[-74.08328,40.734688],[-74.085905,40.736207],[-74.075789,40.738119],[-74.073123,40.737423],[-74.073271,40.736875],[-74.073667,40.736876],[-74.073634,40.736519],[-74.073923,40.736383],[-74.074103,40.736521],[-74.074647,40.736084],[-74.075332,40.736141],[-74.075622,40.73595],[-74.076534,40.734471],[-74.076067,40.734058],[-74.07625,40.733729],[-74.075531,40.73326],[-74.075861,40.732355],[-74.076402,40.732522],[-74.076691,40.732386],[-74.077049,40.732881],[-74.077735,40.732801],[-74.077805,40.733158],[-74.079032,40.733218],[-74.078998,40.732861],[-74.07958,40.732122],[-74.080267,40.731822],[-74.080924,40.730617],[-74.08089,40.73037],[-74.080673,40.730479],[-74.080097,40.73023],[-74.080386,40.730121],[-74.080529,40.730286],[-74.080748,40.73004],[-74.080314,40.730066],[-74.080316,40.729874],[-74.080895,40.729491],[-74.080828,40.728695],[-74.080973,40.728531],[-74.08238,40.728673],[-74.083321,40.728183],[-74.08264,40.727466],[-74.082026,40.727546],[-74.082102,40.72697],[-74.08128,40.72565],[-74.082041,40.725103],[-74.082337,40.723952],[-74.083136,40.723158],[-74.084506,40.723328],[-74.084977,40.723028],[-74.084943,40.722589],[-74.08462,40.722395],[-74.084366,40.722559],[-74.084117,40.722064],[-74.084838,40.722176],[-74.08502,40.721957],[-74.084084,40.72157],[-74.08423,40.721268],[-74.084015,40.721103],[-74.084665,40.721023],[-74.084808,40.721216],[-74.085063,40.720777],[-74.085533,40.720642],[-74.085176,40.719982],[-74.085934,40.719984],[-74.086116,40.719656],[-74.08673,40.719521],[-74.087241,40.718589],[-74.088575,40.718704],[-74.089047,40.718321],[-74.089085,40.717964],[-74.089483,40.717801],[-74.089629,40.717554],[-74.089342,40.717251],[-74.089703,40.717253],[-74.089885,40.717006],[-74.089527,40.716511],[-74.089961,40.716265],[-74.089566,40.716099],[-74.089173,40.715467],[-74.09065,40.715664],[-74.090977,40.715418],[-74.090942,40.715144],[-74.090044,40.714591],[-74.089938,40.714124],[-74.090481,40.713907],[-74.090376,40.713385],[-74.091172,40.712948],[-74.09182,40.713198],[-74.092255,40.712925],[-74.09265,40.713173],[-74.093158,40.712736],[-74.093051,40.712433],[-74.093986,40.712931],[-74.094172,40.71208],[-74.094461,40.711999],[-74.09414,40.711339],[-74.091681,40.712291],[-74.091432,40.711796],[-74.091903,40.711414],[-74.091545,40.710946],[-74.092194,40.710948],[-74.091799,40.710672],[-74.092055,40.710234],[-74.093612,40.709251],[-74.093433,40.709003],[-74.093651,40.708702],[-74.09304,40.708288],[-74.093222,40.708069],[-74.093044,40.707767],[-74.093296,40.707795],[-74.09348,40.707192],[-74.094132,40.706728],[-74.095035,40.706566],[-74.095144,40.706374],[-74.094607,40.705768],[-74.095039,40.705797],[-74.094934,40.705413],[-74.095477,40.705058],[-74.095625,40.704427],[-74.096203,40.704319],[-74.096097,40.703852],[-74.096747,40.7038],[-74.096605,40.703387],[-74.097151,40.702648],[-74.097008,40.702318],[-74.097226,40.702044],[-74.097841,40.701827],[-74.099183,40.700487],[-74.098901,40.69947],[-74.09919,40.699361],[-74.099658,40.699582],[-74.099516,40.69917],[-74.099734,40.698869],[-74.100639,40.69835],[-74.100713,40.698021],[-74.100353,40.697828],[-74.1005,40.697526],[-74.101112,40.697611],[-74.101152,40.696952],[-74.101914,40.696241],[-74.101525,40.694977],[-74.102104,40.694512],[-74.102493,40.694651],[-74.102852,40.695432],[-74.114232,40.700952],[-74.114309,40.704609],[-74.116408,40.709735],[-74.113869,40.712314],[-74.110167,40.715375],[-74.10747,40.717075],[-74.102976,40.71933],[-74.10177,40.720231],[-74.100089,40.722867],[-74.099011,40.727277],[-74.097078,40.726667],[-74.094847,40.725616],[-74.094953,40.725946]],[[-74.093722,40.70895],[-74.093685,40.709032],[-74.093721,40.709032],[-74.093722,40.70895]],[[-74.094811,40.725643],[-74.094775,40.725616],[-74.094775,40.725643],[-74.094811,40.725643]]],[[[-74.087313,40.736185],[-74.087422,40.736075],[-74.087421,40.736185],[-74.087313,40.736185]]],[[[-74.083571,40.740234],[-74.076185,40.738176],[-74.085977,40.736345],[-74.087596,40.737064],[-74.088859,40.737096],[-74.090489,40.736196],[-74.090707,40.735922],[-74.090529,40.735565],[-74.095174,40.73517],[-74.093398,40.737015],[-74.090175,40.738579],[-74.08703,40.739535],[-74.083571,40.740234]]],[[[-74.080615,40.682111],[-74.080651,40.682084],[-74.080651,40.682111],[-74.080615,40.682111]]],[[[-74.088959,40.685737],[-74.08288,40.6833],[-74.0827,40.683107],[-74.082484,40.683079],[-74.082413,40.682969],[-74.086119,40.684245],[-74.089249,40.685436],[-74.089284,40.685546],[-74.088924,40.685518],[-74.089067,40.685655],[-74.088959,40.685737]]],[[[-74.085282,40.691242],[-74.085319,40.691214],[-74.085318,40.691242],[-74.085282,40.691242]]],[[[-74.084809,40.691981],[-74.084701,40.692008],[-74.084809,40.691899],[-74.084809,40.691981]]],[[[-74.086172,40.693139],[-74.086064,40.693166],[-74.086317,40.693057],[-74.086172,40.693139]]],[[[-74.085955,40.693303],[-74.086027,40.693221],[-74.086063,40.693276],[-74.085955,40.693303]]],[[[-74.085883,40.693275],[-74.085919,40.693248],[-74.085919,40.693275],[-74.085883,40.693275]]],[[[-74.085847,40.693302],[-74.085883,40.693275],[-74.085883,40.693303],[-74.085847,40.693302]]],[[[-74.085846,40.69333],[-74.08581,40.693302],[-74.085847,40.693302],[-74.085846,40.69333]]],[[[-74.086207,40.693386],[-74.086171,40.693358],[-74.086207,40.693359],[-74.086207,40.693386]]],[[[-74.08617,40.693413],[-74.086135,40.693386],[-74.086171,40.693386],[-74.08617,40.693413]]],[[[-74.086134,40.693413],[-74.086098,40.693441],[-74.086098,40.693413],[-74.086134,40.693413]]],[[[-74.086098,40.693468],[-74.086062,40.69344],[-74.086098,40.693441],[-74.086098,40.693468]]],[[[-74.085483,40.69374],[-74.085447,40.693713],[-74.085483,40.693713],[-74.085483,40.69374]]],[[[-74.082619,40.6962],[-74.082655,40.696228],[-74.082619,40.696228],[-74.082619,40.6962]]],[[[-74.069286,40.700049],[-74.071239,40.699096],[-74.072214,40.698907],[-74.070081,40.699778],[-74.069573,40.700215],[-74.069286,40.700049]]],[[[-74.068263,40.702077],[-74.068953,40.701366],[-74.069237,40.701971],[-74.068477,40.702352],[-74.068263,40.702077]]],[[[-74.074166,40.737894],[-74.07413,40.737866],[-74.074166,40.737866],[-74.074166,40.737894]]],[[[-74.074274,40.737894],[-74.074202,40.737921],[-74.074202,40.737894],[-74.074274,40.737894]]],[[[-74.073332,40.73855],[-74.07247,40.73786],[-74.072472,40.737558],[-74.074814,40.738253],[-74.073332,40.73855]]],[[[-74.072968,40.739097],[-74.072932,40.73907],[-74.073076,40.73907],[-74.072968,40.739097]]],[[[-74.073148,40.739098],[-74.073076,40.739125],[-74.073076,40.739098],[-74.073148,40.739098]]],[[[-74.073869,40.739155],[-74.073112,40.739153],[-74.073906,40.739073],[-74.073869,40.739155]]],[[[-74.079462,40.739286],[-74.079643,40.739232],[-74.079643,40.739259],[-74.079462,40.739286]]],[[[-74.080111,40.739425],[-74.079643,40.739259],[-74.080184,40.739371],[-74.080111,40.739425]]],[[[-74.080758,40.739894],[-74.080794,40.739922],[-74.080758,40.739922],[-74.080758,40.739894]]],[[[-74.080866,40.73995],[-74.080794,40.739949],[-74.080794,40.739922],[-74.080866,40.739922],[-74.080866,40.73995]]],[[[-74.080902,40.739977],[-74.080866,40.73995],[-74.080902,40.73995],[-74.080902,40.739977]]],[[[-74.08101,40.740033],[-74.080974,40.740005],[-74.08101,40.740005],[-74.08101,40.740033]]],[[[-74.082305,40.74067],[-74.080578,40.739729],[-74.080219,40.739426],[-74.083641,40.740344],[-74.082305,40.74067]]],[[[-74.081081,40.740088],[-74.081045,40.74006],[-74.081082,40.74006],[-74.081081,40.740088]]],[[[-74.075449,40.740534],[-74.075413,40.740506],[-74.075449,40.740506],[-74.075449,40.740534]]],[[[-74.075448,40.740699],[-74.074328,40.740859],[-74.073536,40.740444],[-74.074327,40.740969],[-74.075519,40.740781],[-74.076174,40.740042],[-74.076107,40.739164],[-74.075853,40.739437],[-74.074773,40.739022],[-74.07286,40.738987],[-74.072898,40.73874],[-74.075426,40.738365],[-74.076291,40.738615],[-74.076793,40.739056],[-74.080073,40.73981],[-74.081865,40.740777],[-74.07943,40.741797],[-74.077094,40.743148],[-74.072191,40.742032],[-74.070424,40.74186],[-74.070825,40.74123],[-74.071585,40.740794],[-74.071988,40.739945],[-74.071663,40.739998],[-74.071882,40.739505],[-74.075167,40.739435],[-74.075705,40.739931],[-74.075377,40.740506],[-74.075376,40.740534],[-74.075448,40.740561],[-74.075448,40.740699]],[[-74.073536,40.740444],[-74.073501,40.740417],[-74.0735,40.740444],[-74.073536,40.740444]],[[-74.075412,40.740561],[-74.075376,40.740588],[-74.075412,40.740589],[-74.075412,40.740561]]],[[[-74.068224,40.741578],[-74.068188,40.741605],[-74.068188,40.741577],[-74.068224,40.741578]]],[[[-74.068188,40.741605],[-74.067605,40.742454],[-74.067424,40.742535],[-74.06757,40.742179],[-74.06739,40.742123],[-74.067827,40.741549],[-74.068188,40.741605]],[[-74.06757,40.742179],[-74.067607,40.742124],[-74.067571,40.742124],[-74.06757,40.742179]],[[-74.067607,40.742124],[-74.067643,40.742069],[-74.067607,40.742069],[-74.067607,40.742124]],[[-74.067643,40.742069],[-74.06768,40.742015],[-74.067644,40.742015],[-74.067643,40.742069]],[[-74.067498,40.742151],[-74.067535,40.742097],[-74.067499,40.742096],[-74.067498,40.742151]],[[-74.067535,40.742097],[-74.067571,40.742042],[-74.067535,40.742042],[-74.067535,40.742097]],[[-74.067571,40.742042],[-74.067608,40.742014],[-74.067571,40.742014],[-74.067571,40.742042]],[[-74.067862,40.741659],[-74.067826,40.741686],[-74.067862,40.741686],[-74.067862,40.741659]]],[[[-74.067462,40.742206],[-74.067498,40.742234],[-74.067462,40.742234],[-74.067462,40.742206]]],[[[-74.067496,40.74259],[-74.06746,40.742563],[-74.067496,40.742563],[-74.067496,40.74259]]],[[[-74.067061,40.742781],[-74.067025,40.742753],[-74.067061,40.742754],[-74.067061,40.742781]]],[[[-74.066916,40.742835],[-74.066988,40.742863],[-74.066916,40.74289],[-74.066916,40.742835]]],[[[-74.06688,40.74289],[-74.066916,40.742918],[-74.06688,40.742918],[-74.06688,40.74289]]],[[[-74.066844,40.742945],[-74.06688,40.742918],[-74.06688,40.742945],[-74.066844,40.742945]]],[[[-74.066808,40.742945],[-74.066843,40.743],[-74.066807,40.743],[-74.066808,40.742945]]],[[[-74.067241,40.742837],[-74.066841,40.743274],[-74.066988,40.743],[-74.067241,40.742837]]],[[[-74.066805,40.743274],[-74.066769,40.743247],[-74.066806,40.743247],[-74.066805,40.743274]]],[[[-74.068212,40.749016],[-74.068248,40.749044],[-74.068212,40.749044],[-74.068212,40.749016]]],[[[-74.072025,40.756634],[-74.071989,40.756662],[-74.071989,40.756634],[-74.072025,40.756634]]],[[[-74.072097,40.75669],[-74.072025,40.756717],[-74.072025,40.756662],[-74.072097,40.75669]]],[[[-74.064175,40.742688],[-74.064211,40.742633],[-74.064211,40.742688],[-74.064175,40.742688]]],[[[-74.064319,40.742716],[-74.064355,40.742661],[-74.064355,40.742716],[-74.064319,40.742716]]],[[[-74.064138,40.742688],[-74.064174,40.742715],[-74.064138,40.742715],[-74.064138,40.742688]]],[[[-74.064355,40.742743],[-74.064391,40.742716],[-74.064391,40.742744],[-74.064355,40.742743]]],[[[-74.06421,40.742743],[-74.064283,40.742716],[-74.064282,40.742771],[-74.06421,40.742743]]],[[[-74.064174,40.742743],[-74.06421,40.74277],[-74.064174,40.74277],[-74.064174,40.742743]]],[[[-74.064427,40.742771],[-74.06439,40.742798],[-74.064391,40.742771],[-74.064427,40.742771]]],[[[-74.06421,40.74277],[-74.064246,40.742798],[-74.06421,40.742798],[-74.06421,40.74277]]],[[[-74.064426,40.742799],[-74.064462,40.742826],[-74.064426,40.742826],[-74.064426,40.742799]]],[[[-74.064282,40.742825],[-74.064354,40.742798],[-74.064354,40.742853],[-74.064282,40.742825]]],[[[-74.064246,40.742825],[-74.064282,40.742853],[-74.064246,40.742853],[-74.064246,40.742825]]],[[[-74.064498,40.742854],[-74.064462,40.742881],[-74.064462,40.742854],[-74.064498,40.742854]]],[[[-74.064354,40.742881],[-74.06439,40.742853],[-74.06439,40.742881],[-74.064354,40.742881]]],[[[-74.064282,40.742853],[-74.064318,40.74288],[-74.064282,40.74288],[-74.064282,40.742853]]],[[[-74.064534,40.742881],[-74.064498,40.742909],[-74.064498,40.742881],[-74.064534,40.742881]]],[[[-74.06457,40.742909],[-74.064534,40.742936],[-74.064534,40.742909],[-74.06457,40.742909]]],[[[-74.064426,40.742936],[-74.064389,40.742936],[-74.06439,40.742908],[-74.064426,40.742908],[-74.064426,40.742936]]],[[[-74.064461,40.742963],[-74.064426,40.742936],[-74.064462,40.742936],[-74.064461,40.742963]]],[[[-74.064353,40.742936],[-74.064389,40.742963],[-74.064353,40.742963],[-74.064353,40.742936]]],[[[-74.064642,40.742937],[-74.06457,40.742964],[-74.06457,40.742936],[-74.064642,40.742937]]],[[[-74.066771,40.743],[-74.066807,40.743027],[-74.066771,40.743027],[-74.066771,40.743]]],[[[-74.066517,40.743218],[-74.065319,40.744229],[-74.065865,40.743627],[-74.065,40.743432],[-74.065217,40.743268],[-74.064391,40.742634],[-74.064247,40.742633],[-74.063819,40.741808],[-74.065866,40.74338],[-74.066082,40.743436],[-74.066517,40.743218]],[[-74.064212,40.742523],[-74.064248,40.742496],[-74.064212,40.742496],[-74.064212,40.742523]],[[-74.064248,40.742523],[-74.064284,40.742551],[-74.064284,40.742524],[-74.064248,40.742523]],[[-74.064284,40.742551],[-74.06432,40.742579],[-74.06432,40.742551],[-74.064284,40.742551]]],[[[-74.066735,40.743027],[-74.066771,40.743054],[-74.066735,40.743054],[-74.066735,40.743027]]],[[[-74.066626,40.743109],[-74.066662,40.743136],[-74.066626,40.743136],[-74.066626,40.743109]]],[[[-74.06659,40.743136],[-74.066626,40.743164],[-74.06659,40.743164],[-74.06659,40.743136]]],[[[-74.066553,40.743163],[-74.066589,40.743191],[-74.066553,40.743191],[-74.066553,40.743163]]],[[[-74.064821,40.743184],[-74.064785,40.743184],[-74.064785,40.743157],[-74.064821,40.743157],[-74.064821,40.743184]]],[[[-74.066445,40.74319],[-74.066409,40.743218],[-74.066409,40.74319],[-74.066445,40.74319]]],[[[-74.064857,40.743212],[-74.064821,40.743184],[-74.064857,40.743184],[-74.064857,40.743212]]],[[[-74.066373,40.743218],[-74.066409,40.743245],[-74.066372,40.743245],[-74.066373,40.743218]]],[[[-74.066336,40.743245],[-74.066372,40.743273],[-74.066336,40.743272],[-74.066336,40.743245]]],[[[-74.064893,40.743267],[-74.064856,40.743267],[-74.064857,40.743239],[-74.064893,40.74324],[-74.064893,40.743267]]],[[[-74.064928,40.743295],[-74.064893,40.743267],[-74.064929,40.743267],[-74.064928,40.743295]]],[[[-74.066696,40.743384],[-74.066769,40.743301],[-74.066805,40.743357],[-74.066696,40.743384]]],[[[-74.064964,40.74335],[-74.064928,40.743322],[-74.064964,40.743322],[-74.064964,40.74335]]],[[[-74.06666,40.743438],[-74.066624,40.743411],[-74.06666,40.743411],[-74.06666,40.743438]]],[[[-74.066442,40.74363],[-74.066552,40.743438],[-74.066588,40.743438],[-74.066442,40.74363]]],[[[-74.066406,40.743657],[-74.066442,40.74363],[-74.066442,40.743657],[-74.066406,40.743657]]],[[[-74.066406,40.743684],[-74.066153,40.743766],[-74.066261,40.743684],[-74.066406,40.743684]]],[[[-74.066116,40.743821],[-74.066152,40.743848],[-74.066116,40.743848],[-74.066116,40.743821]]],[[[-74.06608,40.743848],[-74.066116,40.743875],[-74.06608,40.743875],[-74.06608,40.743848]]],[[[-74.066044,40.743875],[-74.066079,40.743903],[-74.066043,40.743903],[-74.066044,40.743875]]],[[[-74.066007,40.743903],[-74.066043,40.74393],[-74.066007,40.74393],[-74.066007,40.743903]]],[[[-74.065934,40.744012],[-74.065898,40.744039],[-74.065898,40.744012],[-74.065934,40.744012]]],[[[-74.064841,40.7456],[-74.064806,40.745518],[-74.064842,40.745518],[-74.064841,40.7456]]],[[[-74.064947,40.745985],[-74.064911,40.745957],[-74.064947,40.745957],[-74.064947,40.745985]]],[[[-74.072383,40.757047],[-74.070885,40.754269],[-74.069825,40.750724],[-74.070614,40.751551],[-74.07247,40.754852],[-74.072651,40.75466],[-74.070724,40.751194],[-74.069683,40.75034],[-74.069296,40.748801],[-74.07048,40.749903],[-74.071379,40.750373],[-74.071416,40.750236],[-74.070948,40.75007],[-74.07005,40.74938],[-74.069191,40.748252],[-74.067848,40.743855],[-74.068141,40.743224],[-74.068975,40.742651],[-74.069449,40.741884],[-74.073125,40.742721],[-74.074423,40.742918],[-74.074496,40.742836],[-74.074315,40.742808],[-74.074352,40.742726],[-74.076947,40.743257],[-74.075151,40.745534],[-74.074869,40.746946],[-74.075017,40.747986],[-74.075707,40.748974],[-74.076586,40.749638],[-74.077145,40.749931],[-74.078852,40.750223],[-74.077279,40.752171],[-74.075578,40.75246],[-74.075231,40.752756],[-74.075238,40.753133],[-74.076523,40.754816],[-74.0763,40.755143],[-74.075215,40.755339],[-74.074867,40.755671],[-74.075146,40.757157],[-74.074732,40.75823],[-74.072666,40.758911],[-74.072224,40.760123],[-74.068594,40.761976],[-74.06629,40.762818],[-74.064931,40.763763],[-74.063801,40.763669],[-74.062501,40.762673],[-74.061794,40.76242],[-74.060022,40.76255],[-74.060002,40.76341],[-74.05963,40.764001],[-74.059993,40.765701],[-74.058474,40.766757],[-74.056954,40.769011],[-74.052044,40.760841],[-74.05225,40.760951],[-74.052396,40.760705],[-74.052073,40.760484],[-74.051896,40.760593],[-74.051894,40.760291],[-74.053387,40.758321],[-74.053458,40.758513],[-74.053713,40.758102],[-74.053426,40.757964],[-74.052845,40.758456],[-74.052593,40.758235],[-74.053684,40.757059],[-74.054156,40.756759],[-74.054406,40.757034],[-74.055314,40.756269],[-74.055533,40.755886],[-74.055065,40.755664],[-74.055289,40.754595],[-74.056523,40.753529],[-74.057435,40.75216],[-74.057724,40.752106],[-74.05769,40.751859],[-74.058851,40.75093],[-74.059427,40.751069],[-74.059935,40.750797],[-74.059649,40.750329],[-74.06005,40.749672],[-74.059907,40.749452],[-74.060633,40.748823],[-74.060994,40.748852],[-74.061687,40.747729],[-74.062447,40.747458],[-74.062734,40.747706],[-74.062881,40.747322],[-74.063422,40.747351],[-74.063532,40.74705],[-74.063966,40.746997],[-74.064046,40.745817],[-74.063759,40.745541],[-74.063941,40.745212],[-74.06423,40.745213],[-74.064204,40.743676],[-74.064783,40.743486],[-74.064998,40.743652],[-74.064452,40.744363],[-74.06488,40.745188],[-74.064734,40.745462],[-74.064694,40.746039],[-74.064478,40.745928],[-74.064509,40.746724],[-74.064656,40.746313],[-74.064947,40.746012],[-74.064724,40.747054],[-74.063994,40.748259],[-74.063703,40.74856],[-74.063595,40.748532],[-74.063559,40.74856],[-74.062504,40.749709],[-74.061997,40.750036],[-74.060361,40.751842],[-74.061049,40.751433],[-74.061377,40.750995],[-74.061594,40.750995],[-74.06185,40.750502],[-74.062066,40.750531],[-74.063919,40.748726],[-74.064759,40.747109],[-74.064868,40.747028],[-74.065011,40.74722],[-74.065306,40.746315],[-74.065887,40.745714],[-74.066147,40.744672],[-74.066691,40.74418],[-74.066476,40.743904],[-74.066986,40.743275],[-74.067628,40.744485],[-74.069288,40.749981],[-74.069287,40.750173],[-74.068927,40.75009],[-74.068428,40.749155],[-74.068212,40.748989],[-74.068212,40.749016],[-74.068176,40.749016],[-74.068175,40.749071],[-74.068639,40.749979],[-74.068818,40.750117],[-74.068023,40.750388],[-74.067801,40.751101],[-74.06999,40.753168],[-74.068127,40.751047],[-74.068455,40.750445],[-74.06943,40.750476],[-74.069391,40.750942],[-74.069138,40.750941],[-74.069491,40.752096],[-74.069887,40.752289],[-74.07138,40.755946],[-74.071844,40.756661],[-74.07206,40.756827],[-74.072133,40.756772],[-74.072383,40.757047]],[[-74.071452,40.750374],[-74.07156,40.750429],[-74.07156,40.750374],[-74.071452,40.750374]],[[-74.070769,40.749904],[-74.070805,40.749877],[-74.070769,40.749877],[-74.070769,40.749904]],[[-74.069684,40.761402],[-74.069649,40.761319],[-74.069648,40.761402],[-74.069684,40.761402]],[[-74.053421,40.758595],[-74.053349,40.758567],[-74.053277,40.758649],[-74.053421,40.758595]],[[-74.053713,40.758102],[-74.05375,40.758075],[-74.053714,40.758075],[-74.053713,40.758102]],[[-74.06374,40.748451],[-74.063668,40.748423],[-74.063668,40.748478],[-74.06374,40.748451]],[[-74.06374,40.748368],[-74.063777,40.748341],[-74.063741,40.748341],[-74.06374,40.748368]],[[-74.060725,40.751376],[-74.060689,40.751349],[-74.060689,40.751376],[-74.060725,40.751376]],[[-74.060725,40.751349],[-74.060761,40.751322],[-74.060725,40.751321],[-74.060725,40.751349]],[[-74.060689,40.751376],[-74.060652,40.751404],[-74.060689,40.751404],[-74.060689,40.751376]],[[-74.061013,40.75146],[-74.061049,40.751515],[-74.061049,40.75146],[-74.061013,40.75146]],[[-74.063992,40.748589],[-74.064028,40.748616],[-74.064028,40.748589],[-74.063992,40.748589]],[[-74.064868,40.74711],[-74.064831,40.747137],[-74.064867,40.747137],[-74.064868,40.74711]],[[-74.067091,40.743687],[-74.067055,40.743714],[-74.067091,40.743714],[-74.067091,40.743687]],[[-74.06999,40.753168],[-74.070026,40.753223],[-74.070026,40.753168],[-74.06999,40.753168]],[[-74.070062,40.753223],[-74.070025,40.753333],[-74.070097,40.753333],[-74.070062,40.753223]],[[-74.072096,40.756827],[-74.072132,40.756854],[-74.072132,40.756827],[-74.072096,40.756827]],[[-74.072383,40.757047],[-74.072419,40.757075],[-74.07242,40.757048],[-74.072383,40.757047]]],[[[-74.096272,40.680932],[-74.095804,40.680765],[-74.095515,40.680764],[-74.095943,40.681562],[-74.094562,40.683369],[-74.093447,40.682926],[-74.092977,40.683089],[-74.090964,40.682039],[-74.089701,40.682281],[-74.089626,40.682748],[-74.087972,40.682055],[-74.087249,40.682272],[-74.084373,40.680862],[-74.083764,40.680174],[-74.082313,40.681678],[-74.081337,40.681949],[-74.081588,40.682279],[-74.080725,40.681837],[-74.080579,40.682139],[-74.080902,40.682359],[-74.080685,40.682413],[-74.081909,40.682775],[-74.083418,40.683741],[-74.083485,40.684537],[-74.085355,40.685285],[-74.085425,40.685725],[-74.084991,40.685888],[-74.08391,40.685692],[-74.084124,40.686077],[-74.086714,40.687184],[-74.08534,40.687673],[-74.083115,40.686073],[-74.08152,40.687275],[-74.081447,40.687549],[-74.08213,40.687881],[-74.083464,40.687914],[-74.083499,40.688023],[-74.083751,40.688162],[-74.084582,40.68789],[-74.084726,40.687891],[-74.084545,40.688027],[-74.084689,40.688083],[-74.086857,40.687322],[-74.085628,40.687866],[-74.085626,40.688113],[-74.08707,40.687844],[-74.087248,40.688202],[-74.087068,40.688283],[-74.087067,40.688338],[-74.087429,40.688147],[-74.087537,40.68823],[-74.082459,40.692961],[-74.081659,40.693974],[-74.079122,40.695996],[-74.078613,40.69657],[-74.078684,40.696845],[-74.080531,40.695562],[-74.086773,40.689325],[-74.086989,40.689354],[-74.086951,40.689655],[-74.08521,40.691241],[-74.085137,40.691461],[-74.083503,40.693129],[-74.084701,40.692008],[-74.084627,40.6922],[-74.082776,40.69406],[-74.083096,40.694775],[-74.083492,40.694941],[-74.085956,40.693056],[-74.085381,40.692807],[-74.084401,40.693819],[-74.083496,40.694255],[-74.083607,40.693816],[-74.085567,40.691901],[-74.086036,40.691766],[-74.085853,40.692287],[-74.08603,40.692864],[-74.086862,40.692345],[-74.08697,40.692428],[-74.085774,40.693302],[-74.08581,40.693357],[-74.085918,40.693385],[-74.085411,40.693685],[-74.085447,40.693768],[-74.08483,40.694314],[-74.085917,40.693522],[-74.086062,40.693523],[-74.084032,40.695053],[-74.0836,40.694969],[-74.083851,40.695244],[-74.082511,40.6962],[-74.082616,40.696667],[-74.082402,40.69631],[-74.081858,40.696774],[-74.082286,40.697517],[-74.079895,40.69921],[-74.078777,40.699234],[-74.077508,40.700245],[-74.075734,40.701336],[-74.075332,40.702131],[-74.075582,40.702516],[-74.074675,40.703391],[-74.074488,40.704433],[-74.073981,40.704733],[-74.074055,40.704459],[-74.073441,40.704484],[-74.073322,40.706158],[-74.073034,40.706075],[-74.072526,40.706567],[-74.07267,40.706705],[-74.073502,40.706296],[-74.073281,40.706982],[-74.073532,40.707257],[-74.073098,40.707448],[-74.072984,40.708298],[-74.072329,40.709147],[-74.07229,40.709723],[-74.071929,40.709639],[-74.071311,40.710378],[-74.070626,40.710431],[-74.068933,40.709958],[-74.069007,40.709683],[-74.066952,40.709511],[-74.067028,40.70899],[-74.067498,40.708772],[-74.067175,40.708524],[-74.066922,40.708633],[-74.066992,40.708852],[-74.066053,40.709151],[-74.0662,40.708685],[-74.065913,40.708437],[-74.06519,40.708736],[-74.065152,40.708983],[-74.065727,40.709314],[-74.065471,40.709862],[-74.066191,40.710085],[-74.066988,40.709594],[-74.070589,40.710485],[-74.070767,40.710815],[-74.070044,40.711142],[-74.069897,40.711553],[-74.069573,40.711497],[-74.068003,40.714401],[-74.067276,40.71514],[-74.067346,40.715524],[-74.066552,40.715631],[-74.06673,40.715988],[-74.066291,40.71681],[-74.06575,40.716863],[-74.065783,40.717275],[-74.065457,40.717466],[-74.065598,40.71807],[-74.064874,40.71837],[-74.065305,40.718756],[-74.064578,40.719521],[-74.064646,40.720208],[-74.064357,40.720234],[-74.0645,40.720482],[-74.06392,40.720809],[-74.0637,40.721385],[-74.063339,40.721411],[-74.063048,40.721739],[-74.0633,40.721877],[-74.063117,40.722316],[-74.061993,40.72319],[-74.061302,40.724011],[-74.061336,40.72434],[-74.060831,40.724229],[-74.06072,40.72464],[-74.060105,40.724885],[-74.057334,40.723831],[-74.056254,40.723525],[-74.056,40.723689],[-74.056001,40.723496],[-74.054525,40.723052],[-74.056254,40.718007],[-74.056085,40.716332],[-74.054376,40.712949],[-74.054419,40.711906],[-74.054859,40.710755],[-74.055041,40.710536],[-74.055032,40.711881],[-74.057903,40.719661],[-74.057789,40.720484],[-74.056474,40.722867],[-74.056438,40.722949],[-74.056474,40.723004],[-74.057314,40.721443],[-74.057386,40.721498],[-74.057459,40.721361],[-74.05746,40.721169],[-74.057568,40.721142],[-74.057533,40.721032],[-74.057862,40.720429],[-74.05797,40.720347],[-74.057975,40.719661],[-74.05585,40.713614],[-74.055611,40.711609],[-74.055179,40.71147],[-74.055367,40.710345],[-74.056781,40.70928],[-74.058193,40.708545],[-74.059892,40.708029],[-74.059929,40.707865],[-74.05964,40.707919],[-74.05964,40.707864],[-74.063839,40.705656],[-74.065689,40.703989],[-74.066269,40.703607],[-74.067713,40.703365],[-74.069919,40.70244],[-74.07032,40.701838],[-74.069098,40.701147],[-74.0691,40.700817],[-74.071525,40.699619],[-74.07438,40.698723],[-74.073984,40.698502],[-74.072828,40.698827],[-74.07265,40.698525],[-74.074565,40.697955],[-74.074603,40.697708],[-74.075579,40.697245],[-74.076777,40.696015],[-74.076489,40.695904],[-74.076527,40.695657],[-74.075915,40.695517],[-74.076166,40.695683],[-74.075944,40.69656],[-74.075618,40.696889],[-74.074679,40.697022],[-74.075586,40.69612],[-74.075082,40.696118],[-74.074719,40.696336],[-74.074862,40.696529],[-74.07407,40.696389],[-74.074035,40.696224],[-74.074577,40.696034],[-74.073786,40.695729],[-74.07346,40.695838],[-74.072815,40.695176],[-74.072129,40.695284],[-74.071699,40.69487],[-74.07156,40.694156],[-74.071093,40.693852],[-74.070543,40.695278],[-74.069819,40.695659],[-74.068476,40.697027],[-74.066818,40.696856],[-74.067033,40.696994],[-74.066886,40.697405],[-74.067789,40.697299],[-74.068322,40.698399],[-74.069221,40.698924],[-74.068714,40.699224],[-74.067958,40.699001],[-74.067704,40.699193],[-74.068711,40.699663],[-74.068491,40.700156],[-74.069105,40.700076],[-74.069465,40.70027],[-74.068632,40.700761],[-74.06849,40.700431],[-74.067842,40.700209],[-74.06809,40.700923],[-74.065995,40.70141],[-74.065487,40.701874],[-74.065914,40.702672],[-74.06555,40.703302],[-74.065692,40.703522],[-74.065003,40.704206],[-74.062106,40.705814],[-74.061601,40.705813],[-74.060804,40.706441],[-74.060624,40.706303],[-74.060951,40.706057],[-74.060951,40.70592],[-74.059357,40.707039],[-74.058237,40.707255],[-74.058525,40.707393],[-74.058451,40.70764],[-74.058849,40.707531],[-74.058811,40.707751],[-74.055843,40.709277],[-74.0549,40.710124],[-74.054132,40.711686],[-74.054051,40.713003],[-74.055579,40.71644],[-74.055597,40.719213],[-74.054273,40.722968],[-74.05132,40.722188],[-74.052508,40.722577],[-74.054089,40.723489],[-74.051592,40.730013],[-74.050975,40.730532],[-74.049927,40.730802],[-74.045705,40.730676],[-74.050213,40.731188],[-74.045589,40.731911],[-74.045479,40.73213],[-74.049521,40.732118],[-74.050678,40.731793],[-74.04897,40.733516],[-74.049076,40.733818],[-74.048458,40.73453],[-74.0486,40.734805],[-74.048234,40.735654],[-74.047799,40.735872],[-74.047725,40.736201],[-74.047328,40.736227],[-74.047289,40.736666],[-74.042242,40.735795],[-74.044769,40.735778],[-74.044661,40.735668],[-74.042099,40.735657],[-74.040441,40.735376],[-74.039361,40.734933],[-74.038321,40.734078],[-74.036916,40.733743],[-74.036929,40.731821],[-74.035606,40.730114],[-74.035944,40.728112],[-74.035498,40.730114],[-74.03682,40.731958],[-74.036701,40.733467],[-74.036447,40.733713],[-74.034896,40.733597],[-74.034499,40.733651],[-74.037708,40.733938],[-74.038536,40.734326],[-74.039324,40.735125],[-74.038459,40.735012],[-74.038962,40.735261],[-74.038924,40.735562],[-74.038743,40.735617],[-74.040475,40.735651],[-74.041983,40.736069],[-74.039624,40.73643],[-74.038781,40.736295],[-74.036434,40.735584],[-74.036832,40.735362],[-74.035389,40.735273],[-74.033373,40.734673],[-74.033374,40.734497],[-74.033337,40.734662],[-74.032436,40.734394],[-74.032439,40.734082],[-74.0324,40.734383],[-74.031747,40.734189],[-74.031934,40.734052],[-74.030091,40.733695],[-74.030566,40.733735],[-74.030967,40.731276],[-74.027997,40.731011],[-74.028094,40.730228],[-74.026851,40.72951],[-74.027419,40.729492],[-74.029127,40.730468],[-74.031254,40.730755],[-74.029758,40.729759],[-74.030478,40.729769],[-74.031141,40.730229],[-74.031232,40.729473],[-74.027341,40.729073],[-74.030966,40.729341],[-74.031006,40.728998],[-74.026548,40.728601],[-74.026604,40.72819],[-74.031034,40.728575],[-74.031086,40.728036],[-74.027374,40.727716],[-74.027376,40.727515],[-74.030342,40.727781],[-74.030405,40.727036],[-74.030021,40.726476],[-74.030287,40.726135],[-74.034452,40.726238],[-74.034525,40.725771],[-74.032072,40.725567],[-74.03211,40.725235],[-74.034559,40.725585],[-74.034614,40.725286],[-74.033817,40.725209],[-74.03384,40.725007],[-74.029447,40.724567],[-74.029605,40.723812],[-74.033812,40.724127],[-74.03423,40.722149],[-74.031422,40.721896],[-74.031476,40.720258],[-74.032552,40.720129],[-74.032062,40.719669],[-74.029269,40.719356],[-74.029375,40.718921],[-74.032487,40.719279],[-74.03275,40.717386],[-74.02993,40.717066],[-74.029999,40.716713],[-74.032075,40.716919],[-74.032169,40.71639],[-74.031289,40.716292],[-74.0315,40.715724],[-74.031699,40.716164],[-74.032624,40.716228],[-74.03315,40.714155],[-74.032997,40.713831],[-74.031663,40.713565],[-74.03302,40.713729],[-74.033733,40.711677],[-74.034832,40.711793],[-74.035525,40.711406],[-74.037113,40.711659],[-74.038075,40.711106],[-74.0395,40.711082],[-74.039514,40.71038],[-74.038623,40.710148],[-74.038499,40.709581],[-74.035384,40.70908],[-74.034716,40.709167],[-74.034344,40.70887],[-74.034501,40.707679],[-74.034081,40.707627],[-74.034058,40.707141],[-74.034162,40.706652],[-74.034692,40.706696],[-74.034873,40.705751],[-74.038658,40.70608],[-74.041336,40.704785],[-74.045227,40.702193],[-74.048464,40.699254],[-74.051378,40.696016],[-74.054851,40.69064],[-74.057814,40.691965],[-74.057479,40.69281],[-74.058322,40.693287],[-74.058756,40.692501],[-74.058952,40.692563],[-74.058686,40.693452],[-74.059387,40.693881],[-74.059784,40.693079],[-74.059994,40.693121],[-74.0597,40.694059],[-74.060237,40.694409],[-74.060745,40.693614],[-74.06137,40.693886],[-74.06103,40.695033],[-74.064731,40.697091],[-74.06515,40.697088],[-74.06524,40.697678],[-74.065774,40.698034],[-74.066106,40.698135],[-74.066563,40.696832],[-74.067029,40.696369],[-74.068257,40.696866],[-74.069577,40.695732],[-74.070581,40.694436],[-74.070378,40.693824],[-74.069619,40.694049],[-74.069813,40.694365],[-74.069068,40.695173],[-74.0678,40.695391],[-74.067688,40.695217],[-74.067452,40.695555],[-74.065882,40.694626],[-74.06693,40.694008],[-74.068929,40.691697],[-74.069459,40.690723],[-74.069929,40.688696],[-74.069624,40.685822],[-74.07021,40.684684],[-74.069889,40.68445],[-74.070546,40.683946],[-74.073359,40.686049],[-74.073182,40.686206],[-74.07347,40.686778],[-74.074685,40.687589],[-74.07484,40.687935],[-74.075758,40.68829],[-74.075897,40.688661],[-74.078013,40.688601],[-74.078733,40.688949],[-74.079993,40.688906],[-74.079582,40.688726],[-74.080285,40.687995],[-74.07463,40.683866],[-74.074457,40.683971],[-74.071101,40.681665],[-74.070662,40.680639],[-74.071797,40.679744],[-74.070641,40.679209],[-74.071889,40.679629],[-74.07372,40.679817],[-74.074828,40.678352],[-74.072516,40.677158],[-74.072814,40.676909],[-74.075007,40.678078],[-74.075638,40.677405],[-74.072611,40.675807],[-74.073022,40.675347],[-74.07579,40.676812],[-74.076735,40.676002],[-74.075979,40.67691],[-74.077223,40.675599],[-74.080985,40.677371],[-74.081291,40.677066],[-74.0813,40.676473],[-74.080935,40.676073],[-74.077279,40.674274],[-74.069296,40.670879],[-74.068149,40.670712],[-74.064988,40.669224],[-74.06492,40.66853],[-74.065716,40.66704],[-74.089871,40.677148],[-74.09813,40.680694],[-74.098242,40.680994],[-74.097895,40.680828],[-74.097678,40.680882],[-74.097966,40.68102],[-74.097569,40.681101],[-74.097498,40.680936],[-74.096272,40.680932]],[[-74.096272,40.680932],[-74.096308,40.680904],[-74.096272,40.680904],[-74.096272,40.680932]],[[-74.080725,40.681837],[-74.080689,40.68181],[-74.080689,40.681837],[-74.080725,40.681837]],[[-74.080037,40.682301],[-74.080579,40.682166],[-74.079823,40.682026],[-74.080037,40.682301]],[[-74.080686,40.682386],[-74.08065,40.682358],[-74.08065,40.682386],[-74.080686,40.682386]],[[-74.084582,40.687945],[-74.084617,40.687973],[-74.084618,40.687945],[-74.084582,40.687945]],[[-74.084545,40.688055],[-74.084472,40.688082],[-74.084545,40.688082],[-74.084545,40.688055]],[[-74.085843,40.688114],[-74.08577,40.688141],[-74.085842,40.688142],[-74.085843,40.688114]],[[-74.078648,40.696708],[-74.078612,40.696735],[-74.078648,40.696735],[-74.078648,40.696708]],[[-74.078612,40.696735],[-74.078576,40.696762],[-74.078612,40.696762],[-74.078612,40.696735]],[[-74.085173,40.691351],[-74.085138,40.691323],[-74.085137,40.691351],[-74.085173,40.691351]],[[-74.085137,40.691351],[-74.085101,40.691378],[-74.085137,40.691378],[-74.085137,40.691351]],[[-74.085064,40.691488],[-74.085029,40.69146],[-74.085028,40.691488],[-74.085064,40.691488]],[[-74.084883,40.691652],[-74.084847,40.691624],[-74.084847,40.691652],[-74.084883,40.691652]],[[-74.083503,40.693184],[-74.083395,40.693184],[-74.083395,40.693239],[-74.083503,40.693184]],[[-74.083394,40.693294],[-74.083322,40.693266],[-74.083322,40.693321],[-74.083394,40.693294]],[[-74.083322,40.693348],[-74.083177,40.693403],[-74.083177,40.693457],[-74.083322,40.693348]],[[-74.083177,40.693457],[-74.083141,40.693485],[-74.083177,40.693485],[-74.083177,40.693457]],[[-74.08314,40.69354],[-74.083068,40.693512],[-74.083068,40.693567],[-74.08314,40.69354]],[[-74.083068,40.693567],[-74.083032,40.693594],[-74.083068,40.693594],[-74.083068,40.693567]],[[-74.083031,40.693649],[-74.082923,40.693649],[-74.082923,40.693704],[-74.083031,40.693649]],[[-74.082923,40.693704],[-74.082887,40.693731],[-74.082923,40.693731],[-74.082923,40.693704]],[[-74.082887,40.693731],[-74.08285,40.693786],[-74.082886,40.693786],[-74.082887,40.693731]],[[-74.08581,40.69344],[-74.085774,40.693384],[-74.085774,40.693439],[-74.08581,40.69344]],[[-74.085774,40.693384],[-74.085738,40.693357],[-74.085738,40.693384],[-74.085774,40.693384]],[[-74.085375,40.693795],[-74.085303,40.69374],[-74.085303,40.693767],[-74.085375,40.693795]],[[-74.077327,40.700271],[-74.077292,40.700244],[-74.077291,40.700271],[-74.077327,40.700271]],[[-74.056217,40.723525],[-74.056182,40.723497],[-74.056181,40.723525],[-74.056217,40.723525]],[[-74.056875,40.722319],[-74.056911,40.722347],[-74.056911,40.72232],[-74.056875,40.722319]],[[-74.057131,40.721854],[-74.057166,40.721881],[-74.057167,40.721854],[-74.057131,40.721854]],[[-74.057167,40.721772],[-74.057203,40.721799],[-74.057203,40.721772],[-74.057167,40.721772]],[[-74.057569,40.721087],[-74.057605,40.72106],[-74.057569,40.721059],[-74.057569,40.721087]],[[-74.057898,40.720429],[-74.057933,40.720484],[-74.057934,40.720429],[-74.057898,40.720429]],[[-74.065435,40.70429],[-74.065722,40.704456],[-74.065795,40.704428],[-74.065723,40.704318],[-74.065435,40.70429]],[[-74.074308,40.698586],[-74.074381,40.698559],[-74.074309,40.698558],[-74.074308,40.698586]],[[-74.075915,40.695517],[-74.075879,40.69549],[-74.075879,40.695517],[-74.075915,40.695517]],[[-74.038707,40.735617],[-74.038816,40.735507],[-74.03831,40.73567],[-74.038707,40.735671],[-74.038707,40.735617]],[[-74.038852,40.735535],[-74.038888,40.735507],[-74.038852,40.735507],[-74.038852,40.735535]],[[-74.097317,40.680935],[-74.09739,40.680908],[-74.097317,40.680908],[-74.097317,40.680935]]],[[[-74.05982,40.707974],[-74.059784,40.707947],[-74.05982,40.707947],[-74.05982,40.707974]]],[[[-74.059784,40.707974],[-74.059747,40.708001],[-74.059748,40.707974],[-74.059784,40.707974]]],[[[-74.056891,40.709061],[-74.056854,40.709088],[-74.056855,40.709061],[-74.056891,40.709061]]],[[[-74.056818,40.709088],[-74.056854,40.709116],[-74.056818,40.709116],[-74.056818,40.709088]]],[[[-74.056781,40.709225],[-74.056564,40.709362],[-74.05642,40.709334],[-74.056818,40.709116],[-74.056781,40.709225]],[[-74.056745,40.709225],[-74.056709,40.709198],[-74.056709,40.709225],[-74.056745,40.709225]]],[[[-74.056384,40.709334],[-74.056348,40.709361],[-74.056348,40.709334],[-74.056384,40.709334]]],[[[-74.056312,40.709361],[-74.056347,40.709388],[-74.056311,40.709388],[-74.056312,40.709361]]],[[[-74.056275,40.709388],[-74.056311,40.709416],[-74.056275,40.709416],[-74.056275,40.709388]]],[[[-74.056203,40.709415],[-74.056239,40.709443],[-74.056203,40.709443],[-74.056203,40.709415]]],[[[-74.056167,40.709443],[-74.056203,40.70947],[-74.056167,40.70947],[-74.056167,40.709443]]],[[[-74.055077,40.710536],[-74.055042,40.710481],[-74.055078,40.710482],[-74.055077,40.710536]]],[[[-74.057387,40.721306],[-74.057422,40.721361],[-74.057386,40.721361],[-74.057387,40.721306]]],[[[-74.05735,40.721361],[-74.057386,40.721388],[-74.05735,40.721388],[-74.05735,40.721361]]],[[[-74.054576,40.726181],[-74.054246,40.727003],[-74.054174,40.726976],[-74.054352,40.727361],[-74.054098,40.727497],[-74.053956,40.727249],[-74.053808,40.727688],[-74.054203,40.728101],[-74.053805,40.728237],[-74.053005,40.729167],[-74.05279,40.728892],[-74.052568,40.72966],[-74.051877,40.730563],[-74.052092,40.730673],[-74.052164,40.730838],[-74.052127,40.730948],[-74.052234,40.731031],[-74.052379,40.731031],[-74.052378,40.731086],[-74.052342,40.731113],[-74.052485,40.731279],[-74.052413,40.731306],[-74.05227,40.731168],[-74.051657,40.730974],[-74.051404,40.731055],[-74.052648,40.728589],[-74.054267,40.723819],[-74.054659,40.724589],[-74.054981,40.72492],[-74.055306,40.724921],[-74.055228,40.725827],[-74.054614,40.725989],[-74.05454,40.726154],[-74.054396,40.726208],[-74.054576,40.726181]],[[-74.054356,40.726702],[-74.05432,40.726674],[-74.05432,40.726702],[-74.054356,40.726702]],[[-74.05432,40.726784],[-74.054284,40.726756],[-74.054283,40.726784],[-74.05432,40.726784]],[[-74.054174,40.727031],[-74.054137,40.727085],[-74.054173,40.727085],[-74.054174,40.727031]],[[-74.052127,40.730921],[-74.052091,40.730893],[-74.052091,40.73092],[-74.052127,40.730921]],[[-74.052091,40.730893],[-74.052055,40.730865],[-74.052055,40.730893],[-74.052091,40.730893]],[[-74.054468,40.726153],[-74.054432,40.726126],[-74.054432,40.726153],[-74.054468,40.726153]],[[-74.05454,40.726263],[-74.054504,40.726236],[-74.054503,40.726263],[-74.05454,40.726263]],[[-74.054467,40.726345],[-74.054431,40.726373],[-74.054467,40.726373],[-74.054467,40.726345]]],[[[-74.052394,40.728753],[-74.052358,40.72878],[-74.052358,40.728753],[-74.052394,40.728753]]],[[[-74.052414,40.731114],[-74.052378,40.731086],[-74.052414,40.731086],[-74.052414,40.731114]]],[[[-74.05245,40.731141],[-74.052414,40.731169],[-74.052414,40.731141],[-74.05245,40.731141]]],[[[-74.052486,40.731169],[-74.05245,40.731196],[-74.05245,40.731169],[-74.052486,40.731169]]],[[[-74.052522,40.731197],[-74.052486,40.731224],[-74.052486,40.731196],[-74.052522,40.731197]]],[[[-74.052485,40.731306],[-74.052521,40.731279],[-74.052521,40.731306],[-74.052485,40.731306]]],[[[-74.052341,40.731278],[-74.052377,40.731306],[-74.052341,40.731306],[-74.052341,40.731278]]],[[[-74.052449,40.731334],[-74.052485,40.731306],[-74.052485,40.731334],[-74.052449,40.731334]]],[[[-74.052377,40.731306],[-74.052413,40.731333],[-74.052377,40.731333],[-74.052377,40.731306]]],[[[-74.062497,40.739882],[-74.062748,40.740047],[-74.062856,40.740185],[-74.062532,40.740019],[-74.062497,40.739882]]],[[[-74.062998,40.74046],[-74.062962,40.740487],[-74.062962,40.74046],[-74.062998,40.74046]]],[[[-74.063214,40.740543],[-74.063355,40.74112],[-74.062998,40.740487],[-74.063214,40.740543]]],[[[-74.063499,40.741203],[-74.063607,40.741231],[-74.063498,40.741285],[-74.063499,40.741203]]],[[[-74.063426,40.741285],[-74.063497,40.741395],[-74.063389,40.741422],[-74.063426,40.741285]]],[[[-74.063712,40.741616],[-74.06382,40.741726],[-74.063784,40.741726],[-74.063712,40.741616]]],[[[-74.06382,40.741781],[-74.063783,40.741808],[-74.063783,40.74178],[-74.06382,40.741781]]],[[[-74.063711,40.741835],[-74.063747,40.741835],[-74.063747,40.741863],[-74.063711,40.741863],[-74.06371,40.741917],[-74.063638,40.741917],[-74.063711,40.741835]]],[[[-74.063818,40.742083],[-74.063783,40.741863],[-74.063854,40.742083],[-74.063818,40.742083]]],[[[-74.063853,40.74211],[-74.06389,40.742083],[-74.06389,40.74211],[-74.063853,40.74211]]],[[[-74.063924,40.742385],[-74.063888,40.742275],[-74.063961,40.74222],[-74.064032,40.74233],[-74.063996,40.74244],[-74.063924,40.742385]],[[-74.063924,40.74233],[-74.06396,40.742303],[-74.063924,40.742303],[-74.063924,40.74233]],[[-74.06396,40.742385],[-74.063996,40.742358],[-74.06396,40.742358],[-74.06396,40.742385]]],[[[-74.063996,40.74244],[-74.064068,40.742468],[-74.063995,40.742495],[-74.063996,40.74244]]],[[[-74.064031,40.742495],[-74.064103,40.742523],[-74.064031,40.74255],[-74.064031,40.742495]]],[[[-74.064103,40.742578],[-74.06414,40.742523],[-74.064139,40.742578],[-74.064103,40.742578]]],[[[-74.064067,40.742578],[-74.064103,40.742605],[-74.064067,40.742605],[-74.064067,40.742578]]],[[[-74.064139,40.742633],[-74.064175,40.742578],[-74.064175,40.742633],[-74.064139,40.742633]]],[[[-74.064103,40.742633],[-74.064139,40.74266],[-74.064103,40.74266],[-74.064103,40.742633]]],[[[-74.063631,40.748615],[-74.063667,40.74856],[-74.063667,40.748615],[-74.063631,40.748615]]],[[[-74.063594,40.748615],[-74.06363,40.748642],[-74.063594,40.748642],[-74.063594,40.748615]]],[[[-74.060977,40.751405],[-74.060941,40.751377],[-74.060977,40.751377],[-74.060977,40.751405]]],[[[-74.060977,40.751432],[-74.061013,40.751405],[-74.061013,40.751432],[-74.060977,40.751432]]],[[[-74.053604,40.758212],[-74.053568,40.758239],[-74.053568,40.758211],[-74.053604,40.758212]]],[[[-74.052035,40.760813],[-74.052035,40.760824],[-74.052028,40.760813],[-74.052035,40.760813]]],[[[-74.052358,40.728808],[-74.052321,40.728917],[-74.052321,40.728808],[-74.052358,40.728808]]],[[[-74.052321,40.728917],[-74.051844,40.730123],[-74.051552,40.730561],[-74.051445,40.730341],[-74.052321,40.728917]]],[[[-74.051552,40.730561],[-74.05126,40.731027],[-74.049276,40.730937],[-74.050576,40.730805],[-74.051337,40.730396],[-74.051552,40.730561]]],[[[-74.049168,40.730909],[-74.04906,40.730881],[-74.049168,40.730882],[-74.049168,40.730909]]],[[[-74.052199,40.730921],[-74.052163,40.730948],[-74.052163,40.730921],[-74.052199,40.730921]]],[[[-74.052235,40.730948],[-74.052199,40.730976],[-74.052199,40.730948],[-74.052235,40.730948]]],[[[-74.052271,40.730976],[-74.052235,40.731003],[-74.052235,40.730976],[-74.052271,40.730976]]],[[[-74.052233,40.731223],[-74.052269,40.731196],[-74.052269,40.731223],[-74.052233,40.731223]]],[[[-74.052269,40.731223],[-74.052305,40.731251],[-74.052269,40.73125],[-74.052269,40.731223]]],[[[-74.051223,40.731246],[-74.051042,40.731273],[-74.051042,40.731246],[-74.051223,40.731246]]],[[[-74.051113,40.731411],[-74.051112,40.731575],[-74.050968,40.731575],[-74.051113,40.731411]]],[[[-74.047321,40.731917],[-74.050139,40.731379],[-74.050969,40.731383],[-74.049738,40.731982],[-74.047321,40.731917]]],[[[-74.03893,40.734629],[-74.038894,40.734684],[-74.038894,40.734629],[-74.03893,40.734629]]],[[[-74.038966,40.734712],[-74.03893,40.734712],[-74.03893,40.734684],[-74.038966,40.734684],[-74.038966,40.734712]]],[[[-74.039002,40.734739],[-74.038966,40.734712],[-74.039002,40.734712],[-74.039002,40.734739]]],[[[-74.03889,40.735205],[-74.038854,40.735178],[-74.038891,40.735178],[-74.03889,40.735205]]],[[[-74.035606,40.735302],[-74.036038,40.735466],[-74.035606,40.735338],[-74.035606,40.735302]]],[[[-74.040512,40.735569],[-74.04044,40.735541],[-74.040512,40.735541],[-74.040512,40.735569]]],[[[-74.04062,40.735624],[-74.040548,40.735596],[-74.04062,40.735597],[-74.04062,40.735624]]],[[[-74.040511,40.735624],[-74.040475,40.735596],[-74.040512,40.735596],[-74.040511,40.735624]]],[[[-74.043431,40.736102],[-74.043395,40.736129],[-74.043395,40.736102],[-74.043431,40.736102]]],[[[-74.043142,40.736156],[-74.043106,40.736128],[-74.043142,40.736128],[-74.043142,40.736156]]],[[[-74.045269,40.736494],[-74.045125,40.736493],[-74.045089,40.736438],[-74.045269,40.736466],[-74.045269,40.736494]]],[[[-74.045305,40.736521],[-74.045269,40.736494],[-74.045305,40.736494],[-74.045305,40.736521]]],[[[-74.04516,40.736658],[-74.046023,40.736991],[-74.045584,40.737867],[-74.045762,40.738335],[-74.045254,40.738717],[-74.045176,40.739513],[-74.044743,40.739593],[-74.044595,40.740059],[-74.043435,40.740823],[-74.042442,40.743592],[-74.041785,40.744632],[-74.041713,40.744605],[-74.041677,40.744632],[-74.041386,40.74496],[-74.04142,40.745152],[-74.041056,40.7457],[-74.040656,40.746083],[-74.040512,40.746055],[-74.040511,40.74611],[-74.040257,40.746301],[-74.040257,40.746356],[-74.040185,40.746355],[-74.038689,40.748738],[-74.038322,40.74956],[-74.038429,40.749697],[-74.038248,40.749779],[-74.038103,40.749943],[-74.03821,40.750081],[-74.038064,40.7503],[-74.03792,40.750272],[-74.037847,40.750359],[-74.039603,40.746747],[-74.041619,40.744285],[-74.041521,40.743999],[-74.042208,40.742804],[-74.042169,40.741354],[-74.043516,40.740349],[-74.043782,40.739857],[-74.043922,40.739012],[-74.04352,40.738505],[-74.043911,40.73754],[-74.042837,40.736505],[-74.042817,40.736182],[-74.04516,40.736658]],[[-74.042078,40.74403],[-74.042041,40.744084],[-74.042077,40.744085],[-74.042078,40.74403]],[[-74.042004,40.744249],[-74.041968,40.744221],[-74.041968,40.744249],[-74.042004,40.744249]],[[-74.041858,40.744468],[-74.041822,40.74444],[-74.041822,40.744468],[-74.041858,40.744468]],[[-74.041822,40.744523],[-74.041786,40.744495],[-74.041786,40.744523],[-74.041822,40.744523]],[[-74.041785,40.744577],[-74.041749,40.74455],[-74.041749,40.744577],[-74.041785,40.744577]],[[-74.041348,40.745152],[-74.041312,40.745125],[-74.04124,40.745179],[-74.041348,40.745152]],[[-74.040548,40.746055],[-74.040584,40.746],[-74.040548,40.746],[-74.040548,40.746055]],[[-74.038138,40.750026],[-74.038102,40.750053],[-74.038138,40.750053],[-74.038138,40.750026]],[[-74.038138,40.750108],[-74.038102,40.75008],[-74.038102,40.750108],[-74.038138,40.750108]],[[-74.038101,40.750163],[-74.038065,40.750135],[-74.038065,40.750162],[-74.038101,40.750163]],[[-74.038065,40.750217],[-74.038029,40.75019],[-74.038029,40.750217],[-74.038065,40.750217]],[[-74.045267,40.736741],[-74.045231,40.736768],[-74.045267,40.736768],[-74.045267,40.736741]]],[[[-74.041712,40.74466],[-74.041749,40.744632],[-74.041749,40.74466],[-74.041712,40.74466]]],[[[-74.041676,40.744714],[-74.041712,40.744687],[-74.041712,40.744714],[-74.041676,40.744714]]],[[[-74.041639,40.744769],[-74.041676,40.744742],[-74.041676,40.744769],[-74.041639,40.744769]]],[[[-74.041567,40.744851],[-74.041603,40.744824],[-74.041603,40.744851],[-74.041567,40.744851]]],[[[-74.04153,40.744906],[-74.041567,40.744879],[-74.041566,40.744906],[-74.04153,40.744906]]],[[[-74.041494,40.744961],[-74.04153,40.744933],[-74.04153,40.744961],[-74.041494,40.744961]]],[[[-74.040547,40.746137],[-74.040511,40.74611],[-74.040547,40.74611],[-74.040547,40.746137]]],[[[-74.040366,40.746274],[-74.040402,40.746246],[-74.040402,40.746274],[-74.040366,40.746274]]],[[[-74.039969,40.746266],[-74.039969,40.7463],[-74.039943,40.7463],[-74.039969,40.746266]]],[[[-74.040257,40.746383],[-74.040293,40.746356],[-74.040293,40.746383],[-74.040257,40.746383]]],[[[-74.040184,40.746465],[-74.04022,40.746438],[-74.04022,40.746465],[-74.040184,40.746465]]],[[[-74.040148,40.746492],[-74.040184,40.746465],[-74.040184,40.746493],[-74.040148,40.746492]]],[[[-74.038544,40.748765],[-74.038544,40.748819],[-74.038514,40.748819],[-74.038544,40.748765]]],[[[-74.03865,40.749039],[-74.038687,40.749012],[-74.038687,40.74904],[-74.03865,40.749039]]],[[[-74.038577,40.749176],[-74.038614,40.749149],[-74.038613,40.749176],[-74.038577,40.749176]]],[[[-74.038541,40.749259],[-74.038577,40.749231],[-74.038577,40.749259],[-74.038541,40.749259]]],[[[-74.038504,40.749341],[-74.03854,40.749313],[-74.03854,40.749341],[-74.038504,40.749341]]],[[[-74.038248,40.749861],[-74.038284,40.749834],[-74.038284,40.749861],[-74.038248,40.749861]]],[[[-74.038211,40.749943],[-74.038247,40.749916],[-74.038247,40.749944],[-74.038211,40.749943]]],[[[-74.037883,40.750354],[-74.03792,40.750327],[-74.037919,40.750354],[-74.037883,40.750354]]],[[[-74.037919,40.750381],[-74.037991,40.750437],[-74.037981,40.750437],[-74.037919,40.750381]]]]}}]}