{
"type": "FeatureCollection",
"name": "assets",
"crs": { "type": "name", "properties": { "name": "urn:ogc:def:crs:OGC:1.3:CRS84" } },
"features": [
{ "type": "Feature", "properties": { "id": "w141207228", "name": "Newark Liberty International Airport", "category": "airport", "address": "", "ground_elev_ft": 7.32, "elev_source": "epqs", "ffo_ft": 1.0, "source": "OpenStreetMap" }, "geometry": { "type": "Point", "coordinates": [ -74.172685, 40.68914 ] } },
{ "type": "Feature", "properties": { "id": "w1185850700", "name": "Seamen's Church Institute", "category": "community", "address": "118 Export Street, Newark", "ground_elev_ft": 8.3, "elev_source": "epqs", "ffo_ft": 1.0, "source": "OpenStreetMap" }, "geometry": { "type": "Point", "coordinates": [ -74.143724, 40.688239 ] } },
{ "type": "Feature", "properties": { "id": "w1186992959", "name": "Temple of Hip Hop", "category": "community", "address": "55 Ludlow Street, Newark", "ground_elev_ft": 34.09, "elev_source": "epqs", "ffo_ft": 1.0, "source": "OpenStreetMap" }, "geometry": { "type": "Point", "coordinates": [ -74.205538, 40.691147 ] } },
{ "type": "Feature", "properties": { "id": "w1327454901", "name": "Sheriff Armando and Mary Fontoura Community Center", "category": "community", "address": "Newark", "ground_elev_ft": 10.53, "elev_source": "epqs", "ffo_ft": 1.0, "source": "OpenStreetMap" }, "geometry": { "type": "Point", "coordinates": [ -74.16082, 40.724481 ] } },
{ "type": "Feature", "properties": { "id": "w1434907765", "name": "Feldman Middleton Jr. Community Center", "category": "community", "address": "92 Thomas Carmichael Drive, Newark", "ground_elev_ft": 28.28, "elev_source": "epqs", "ffo_ft": 1.0, "source": "OpenStreetMap" }, "geometry": { "type": "Point", "coordinates": [ -74.1989, 40.701186 ] } },
{ "type": "Feature", "properties": { "id": "w441026479", "name": "Vince Lombardi Community Center", "category": "community", "address": "201 Bloomfield Avenue, Newark", "ground_elev_ft": 137.04, "elev_source": "epqs", "ffo_ft": 1.0, "source": "OpenStreetMap" }, "geometry": { "type": "Point", "coordinates": [ -74.176272, 40.760686 ] } },
{ "type": "Feature", "properties": { "id": "w259606423", "name": "Fraternal Order of Police", "category": "community", "address": "", "ground_elev_ft": 29.95, "elev_source": "epqs", "ffo_ft": 1.0, "source": "OpenStreetMap" }, "geometry": { "type": "Point", "coordinates": [ -74.16651, 40.741645 ] } },
{ "type": "Feature", "properties": { "id": "w259606425", "name": "YM/WCA of Newark & Vicinity", "category": "community", "address": "600 Broad Street, Newark", "ground_elev_ft": 35.37, "elev_source": "epqs", "ffo_ft": 1.0, "source": "OpenStreetMap" }, "geometry": { "type": "Point", "coordinates": [ -74.168156, 40.741214 ] } },
{ "type": "Feature", "properties": { "id": "w339445463", "name": "Senior Citizen's Center", "category": "community", "address": "18 Branch Brook Park Drive, Newark", "ground_elev_ft": 95.77, "elev_source": "epqs", "ffo_ft": 1.0, "source": "OpenStreetMap" }, "geometry": { "type": "Point", "coordinates": [ -74.17934, 40.763226 ] } },
{ "type": "Feature", "properties": { "id": "w424228647", "name": "Engine 18 BC 4", "category": "fire", "address": "395 Avon Avenue", "ground_elev_ft": 206.46, "elev_source": "epqs", "ffo_ft": 1.0, "source": "OpenStreetMap" }, "geometry": { "type": "Point", "coordinates": [ -74.208686, 40.727567 ] } },
{ "type": "Feature", "properties": { "id": "w445895369", "name": "Newark Fire Department Engine 28", "category": "fire", "address": "703 North 6th Street, Newark", "ground_elev_ft": 126.51, "elev_source": "epqs", "ffo_ft": 1.0, "source": "OpenStreetMap" }, "geometry": { "type": "Point", "coordinates": [ -74.179142, 40.773272 ] } },
{ "type": "Feature", "properties": { "id": "w444946216", "name": "Newark Fire Department-Engine 13", "category": "fire", "address": "Mount Prospect Avenue, Newark", "ground_elev_ft": 111.02, "elev_source": "epqs", "ffo_ft": 1.0, "source": "OpenStreetMap" }, "geometry": { "type": "Point", "coordinates": [ -74.165501, 40.7769 ] } },
{ "type": "Feature", "properties": { "id": "n5353584222", "name": "Engine 11 Ladder 11 Hazmat", "category": "fire", "address": "345 South 9th Street", "ground_elev_ft": 214.34, "elev_source": "epqs", "ffo_ft": 1.0, "source": "OpenStreetMap" }, "geometry": { "type": "Point", "coordinates": [ -74.20035, 40.738782 ] } },
{ "type": "Feature", "properties": { "id": "n5353584223", "name": "Engine 26 Ladder 12 BC6", "category": "fire", "address": "420 Sanford Avenue", "ground_elev_ft": 189.11, "elev_source": "epqs", "ffo_ft": 1.0, "source": "OpenStreetMap" }, "geometry": { "type": "Point", "coordinates": [ -74.231762, 40.747176 ] } },
{ "type": "Feature", "properties": { "id": "n5353584422", "name": "Engine 18 BC4 NFD", "category": "fire", "address": "395 Avon Avenue", "ground_elev_ft": 200.89, "elev_source": "epqs", "ffo_ft": 1.0, "source": "OpenStreetMap" }, "geometry": { "type": "Point", "coordinates": [ -74.207802, 40.727276 ] } },
{ "type": "Feature", "properties": { "id": "n5353598921", "name": "E10 L5 R1 Arson HQ", "category": "fire", "address": "360 Clinton Avenue", "ground_elev_ft": 87.3, "elev_source": "epqs", "ffo_ft": 1.0, "source": "OpenStreetMap" }, "geometry": { "type": "Point", "coordinates": [ -74.193195, 40.721395 ] } },
{ "type": "Feature", "properties": { "id": "w417258020", "name": "Engine 7 NFD", "category": "fire", "address": "241 West Market Street", "ground_elev_ft": 148.13, "elev_source": "epqs", "ffo_ft": 1.0, "source": "OpenStreetMap" }, "geometry": { "type": "Point", "coordinates": [ -74.18663, 40.743583 ] } },
{ "type": "Feature", "properties": { "id": "w436756077", "name": "Unnamed fire", "category": "fire", "address": "", "ground_elev_ft": 22.67, "elev_source": "epqs", "ffo_ft": 1.0, "source": "OpenStreetMap" }, "geometry": { "type": "Point", "coordinates": [ -74.161966, 40.730999 ] } },
{ "type": "Feature", "properties": { "id": "w435749959", "name": "Unnamed fire", "category": "fire", "address": "", "ground_elev_ft": 11.61, "elev_source": "epqs", "ffo_ft": 1.0, "source": "OpenStreetMap" }, "geometry": { "type": "Point", "coordinates": [ -74.156264, 40.720298 ] } },
{ "type": "Feature", "properties": { "id": "w415722290", "name": "Unnamed fire", "category": "fire", "address": "", "ground_elev_ft": 78.44, "elev_source": "epqs", "ffo_ft": 1.0, "source": "OpenStreetMap" }, "geometry": { "type": "Point", "coordinates": [ -74.176955, 40.748028 ] } },
{ "type": "Feature", "properties": { "id": "w427962364", "name": "Unnamed fire", "category": "fire", "address": "", "ground_elev_ft": 153.05, "elev_source": "epqs", "ffo_ft": 1.0, "source": "OpenStreetMap" }, "geometry": { "type": "Point", "coordinates": [ -74.230083, 40.73962 ] } },
{ "type": "Feature", "properties": { "id": "w431043330", "name": "Newark Beth Israel Medical Center", "category": "hospital", "address": "201 Lyons Avenue, Newark", "ground_elev_ft": 121.1, "elev_source": "epqs", "ffo_ft": 1.0, "source": "OpenStreetMap" }, "geometry": { "type": "Point", "coordinates": [ -74.212541, 40.710131 ] } },
{ "type": "Feature", "properties": { "id": "w446140444", "name": "Silver Lake Hospital", "category": "hospital", "address": "495 North 13th Street, Newark", "ground_elev_ft": 104.89, "elev_source": "epqs", "ffo_ft": 1.0, "source": "OpenStreetMap" }, "geometry": { "type": "Point", "coordinates": [ -74.186648, 40.772654 ] } },
{ "type": "Feature", "properties": { "id": "w591394791", "name": "University Hospital", "category": "hospital", "address": "150 Bergen Street, Newark", "ground_elev_ft": 157.97, "elev_source": "epqs", "ffo_ft": 1.0, "source": "OpenStreetMap" }, "geometry": { "type": "Point", "coordinates": [ -74.190434, 40.74036 ] } },
{ "type": "Feature", "properties": { "id": "w414494633", "name": "Saint Michael's Medical Center", "category": "hospital", "address": "111 Central Avenue, Newark", "ground_elev_ft": 39.11, "elev_source": "epqs", "ffo_ft": 1.0, "source": "OpenStreetMap" }, "geometry": { "type": "Point", "coordinates": [ -74.174248, 40.744025 ] } },
{ "type": "Feature", "properties": { "id": "w432300817", "name": "Weequahic Branch Newark Public Library", "category": "library", "address": "", "ground_elev_ft": 124.7, "elev_source": "epqs", "ffo_ft": 1.0, "source": "OpenStreetMap" }, "geometry": { "type": "Point", "coordinates": [ -74.211608, 40.711148 ] } },
{ "type": "Feature", "properties": { "id": "w430037647", "name": "Clinton Branch", "category": "library", "address": "", "ground_elev_ft": 111.22, "elev_source": "epqs", "ffo_ft": 1.0, "source": "OpenStreetMap" }, "geometry": { "type": "Point", "coordinates": [ -74.201668, 40.718631 ] } },
{ "type": "Feature", "properties": { "id": "w428765522", "name": "Vailsburg Branch Newark Public Library", "category": "library", "address": "", "ground_elev_ft": 177.72, "elev_source": "epqs", "ffo_ft": 1.0, "source": "OpenStreetMap" }, "geometry": { "type": "Point", "coordinates": [ -74.225558, 40.743074 ] } },
{ "type": "Feature", "properties": { "id": "w436948403", "name": "Van Buren Branch", "category": "library", "address": "", "ground_elev_ft": 12.07, "elev_source": "epqs", "ffo_ft": 1.0, "source": "OpenStreetMap" }, "geometry": { "type": "Point", "coordinates": [ -74.157369, 40.727774 ] } },
{ "type": "Feature", "properties": { "id": "w973895917", "name": "Smith Library of Health Sciences", "category": "library", "address": "", "ground_elev_ft": 150.23, "elev_source": "epqs", "ffo_ft": 1.0, "source": "OpenStreetMap" }, "geometry": { "type": "Point", "coordinates": [ -74.188033, 40.740524 ] } },
{ "type": "Feature", "properties": { "id": "w444756898", "name": "North End Branch Newark Public Library", "category": "library", "address": "", "ground_elev_ft": 85.27, "elev_source": "epqs", "ffo_ft": 1.0, "source": "OpenStreetMap" }, "geometry": { "type": "Point", "coordinates": [ -74.162924, 40.776645 ] } },
{ "type": "Feature", "properties": { "id": "w440967635", "name": "Branch Brook Branch Library", "category": "library", "address": "235 Clifton Avenue, Newark", "ground_elev_ft": 136.48, "elev_source": "epqs", "ffo_ft": 1.0, "source": "OpenStreetMap" }, "geometry": { "type": "Point", "coordinates": [ -74.176055, 40.757728 ] } },
{ "type": "Feature", "properties": { "id": "w200503808", "name": "Dana Library", "category": "library", "address": "", "ground_elev_ft": 45.05, "elev_source": "epqs", "ffo_ft": 1.0, "source": "OpenStreetMap" }, "geometry": { "type": "Point", "coordinates": [ -74.17493, 40.74178 ] } },
{ "type": "Feature", "properties": { "id": "w259617385", "name": "Newark Public Library", "category": "library", "address": "5 Washington Street", "ground_elev_ft": 39.86, "elev_source": "epqs", "ffo_ft": 1.0, "source": "OpenStreetMap" }, "geometry": { "type": "Point", "coordinates": [ -74.170721, 40.744579 ] } },
{ "type": "Feature", "properties": { "id": "n9017988884", "name": "Rutgers Law Library", "category": "library", "address": "", "ground_elev_ft": 26.28, "elev_source": "epqs", "ffo_ft": 1.0, "source": "OpenStreetMap" }, "geometry": { "type": "Point", "coordinates": [ -74.173102, 40.740656 ] } },
{ "type": "Feature", "properties": { "id": "n367693070", "name": "Madison Area Branch Newark Public Library", "category": "library", "address": "", "ground_elev_ft": 197.74, "elev_source": "epqs", "ffo_ft": 1.0, "source": "OpenStreetMap" }, "geometry": { "type": "Point", "coordinates": [ -74.213201, 40.723157 ] } },
{ "type": "Feature", "properties": { "id": "n5815085253", "name": "Essex County Law Library", "category": "library", "address": "512 West Market Street", "ground_elev_ft": 99.02, "elev_source": "epqs", "ffo_ft": 1.0, "source": "OpenStreetMap" }, "geometry": { "type": "Point", "coordinates": [ -74.181604, 40.73822 ] } },
{ "type": "Feature", "properties": { "id": "w387149988", "name": "Springfield Branch Newark Public Library", "category": "library", "address": "", "ground_elev_ft": 128.02, "elev_source": "epqs", "ffo_ft": 1.0, "source": "OpenStreetMap" }, "geometry": { "type": "Point", "coordinates": [ -74.188911, 40.735723 ] } },
{ "type": "Feature", "properties": { "id": "w419391743", "name": "Unnamed library", "category": "library", "address": "", "ground_elev_ft": 142.65, "elev_source": "epqs", "ffo_ft": 1.0, "source": "OpenStreetMap" }, "geometry": { "type": "Point", "coordinates": [ -74.189846, 40.751229 ] } },
{ "type": "Feature", "properties": { "id": "w429478258", "name": "New Jersey Motor Vehicle Commission - Newark", "category": "municipal", "address": "228 Frelinghuysen Avenue, Newark", "ground_elev_ft": 10.96, "elev_source": "epqs", "ffo_ft": 1.0, "source": "OpenStreetMap" }, "geometry": { "type": "Point", "coordinates": [ -74.187941, 40.713703 ] } },
{ "type": "Feature", "properties": { "id": "w439499833", "name": "Essex County Parks Adminstration Building", "category": "municipal", "address": "115 Clifton Avenue, Newark", "ground_elev_ft": 112.8, "elev_source": "epqs", "ffo_ft": 1.0, "source": "OpenStreetMap" }, "geometry": { "type": "Point", "coordinates": [ -74.177949, 40.753319 ] } },
{ "type": "Feature", "properties": { "id": "n11756963481", "name": "Internal Revenue Service (IRS) Taxpayer Assistance Center", "category": "municipal", "address": "", "ground_elev_ft": 38.98, "elev_source": "epqs", "ffo_ft": 1.0, "source": "OpenStreetMap" }, "geometry": { "type": "Point", "coordinates": [ -74.170731, 40.742463 ] } },
{ "type": "Feature", "properties": { "id": "n13070772717", "name": "Office of Newark North Ward Councilman - Anibal Ramos Jr", "category": "municipal", "address": "337 Bloomfield Avenue, Newark", "ground_elev_ft": 117.59, "elev_source": "epqs", "ffo_ft": 1.0, "source": "OpenStreetMap" }, "geometry": { "type": "Point", "coordinates": [ -74.180455, 40.766664 ] } },
{ "type": "Feature", "properties": { "id": "n13071167417", "name": "Office of State Senator Maria Teresa Ruiz", "category": "municipal", "address": "475 Bloomfield Avenue, Newark", "ground_elev_ft": 107.55, "elev_source": "epqs", "ffo_ft": 1.0, "source": "OpenStreetMap" }, "geometry": { "type": "Point", "coordinates": [ -74.183917, 40.771779 ] } },
{ "type": "Feature", "properties": { "id": "n10685112636", "name": "Federal Bureau of Investigation Newark Field Office", "category": "municipal", "address": "11 Centre Place, Newark", "ground_elev_ft": 17.98, "elev_source": "epqs", "ffo_ft": 1.0, "source": "OpenStreetMap" }, "geometry": { "type": "Point", "coordinates": [ -74.164632, 40.738397 ] } },
{ "type": "Feature", "properties": { "id": "n5815100653", "name": "New Jersey Courts - Essex County Courthouse", "category": "municipal", "address": "50 West Market Street", "ground_elev_ft": 92.91, "elev_source": "epqs", "ffo_ft": 1.0, "source": "OpenStreetMap" }, "geometry": { "type": "Point", "coordinates": [ -74.181476, 40.737986 ] } },
{ "type": "Feature", "properties": { "id": "w387208849", "name": "Newark City Hall", "category": "municipal", "address": "", "ground_elev_ft": 23.46, "elev_source": "epqs", "ffo_ft": 1.0, "source": "OpenStreetMap" }, "geometry": { "type": "Point", "coordinates": [ -74.173591, 40.731776 ] } },
{ "type": "Feature", "properties": { "id": "w387208916", "name": "City of Newark: Department of Engineering - Division of Traffic and Signals", "category": "municipal", "address": "255 Central Avenue, Newark", "ground_elev_ft": 107.68, "elev_source": "epqs", "ffo_ft": 1.0, "source": "OpenStreetMap" }, "geometry": { "type": "Point", "coordinates": [ -74.181513, 40.745624 ] } },
{ "type": "Feature", "properties": { "id": "w415935992", "name": "City of Newark: Department of Water & Sewer Utilities", "category": "municipal", "address": "239 Central Avenue, Newark", "ground_elev_ft": 100.82, "elev_source": "epqs", "ffo_ft": 1.0, "source": "OpenStreetMap" }, "geometry": { "type": "Point", "coordinates": [ -74.180117, 40.745608 ] } },
{ "type": "Feature", "properties": { "id": "w387208919", "name": "Unnamed municipal", "category": "municipal", "address": "970 Broad Street, Newark", "ground_elev_ft": 29.46, "elev_source": "epqs", "ffo_ft": 1.0, "source": "OpenStreetMap" }, "geometry": { "type": "Point", "coordinates": [ -74.174221, 40.730109 ] } },
{ "type": "Feature", "properties": { "id": "w446154725", "name": "Newark Police Division Roseville Section - 7th Precinct", "category": "police", "address": "159 North 10th Street, Newark", "ground_elev_ft": 109.38, "elev_source": "epqs", "ffo_ft": 1.0, "source": "OpenStreetMap" }, "geometry": { "type": "Point", "coordinates": [ -74.185364, 40.769773 ] } },
{ "type": "Feature", "properties": { "id": "w1341396019", "name": "Essex County Sheriff’s Patrol Division H.Q.", "category": "police", "address": "525 West Market Street, Newark", "ground_elev_ft": 169.29, "elev_source": "epqs", "ffo_ft": 1.0, "source": "OpenStreetMap" }, "geometry": { "type": "Point", "coordinates": [ -74.193758, 40.752452 ] } },
{ "type": "Feature", "properties": { "id": "w437556589", "name": "3rd Precinct - Newark Police Department", "category": "police", "address": "649 Market Street, Newark", "ground_elev_ft": 15.75, "elev_source": "epqs", "ffo_ft": 1.0, "source": "OpenStreetMap" }, "geometry": { "type": "Point", "coordinates": [ -74.149248, 40.730739 ] } },
{ "type": "Feature", "properties": { "id": "n12707824087", "name": "Newark Police - Office of Professional Standards", "category": "police", "address": "494 Broad Street, Newark", "ground_elev_ft": 36.94, "elev_source": "epqs", "ffo_ft": 1.0, "source": "OpenStreetMap" }, "geometry": { "type": "Point", "coordinates": [ -74.169731, 40.745401 ] } },
{ "type": "Feature", "properties": { "id": "n12736543648", "name": "Newark Police Department Sub-Precinct Community Resource Center", "category": "police", "address": "189 Market Street, Newark", "ground_elev_ft": 33.73, "elev_source": "epqs", "ffo_ft": 1.0, "source": "OpenStreetMap" }, "geometry": { "type": "Point", "coordinates": [ -74.17123, 40.735497 ] } },
{ "type": "Feature", "properties": { "id": "n11356338649", "name": "Police department: 1st precinct", "category": "police", "address": "17th Avenue", "ground_elev_ft": 119.85, "elev_source": "epqs", "ffo_ft": 1.0, "source": "OpenStreetMap" }, "geometry": { "type": "Point", "coordinates": [ -74.190747, 40.730426 ] } },
{ "type": "Feature", "properties": { "id": "n9017988885", "name": "Rutgers Public Safety and Security", "category": "police", "address": "", "ground_elev_ft": 30.58, "elev_source": "epqs", "ffo_ft": 1.0, "source": "OpenStreetMap" }, "geometry": { "type": "Point", "coordinates": [ -74.174212, 40.740319 ] } },
{ "type": "Feature", "properties": { "id": "n2084110613", "name": "NJIT Public Safety", "category": "police", "address": "", "ground_elev_ft": 95.08, "elev_source": "epqs", "ffo_ft": 1.0, "source": "OpenStreetMap" }, "geometry": { "type": "Point", "coordinates": [ -74.178889, 40.740295 ] } },
{ "type": "Feature", "properties": { "id": "n4224912812", "name": "Newark Police Complex", "category": "police", "address": "1 Lincoln Avenue", "ground_elev_ft": 62.07, "elev_source": "epqs", "ffo_ft": 1.0, "source": "OpenStreetMap" }, "geometry": { "type": "Point", "coordinates": [ -74.165888, 40.765618 ] } },
{ "type": "Feature", "properties": { "id": "w1186014896", "name": "Unnamed police", "category": "police", "address": "14 Port Street, Newark", "ground_elev_ft": 8.66, "elev_source": "epqs", "ffo_ft": 1.0, "source": "OpenStreetMap" }, "geometry": { "type": "Point", "coordinates": [ -74.156034, 40.707291 ] } },
{ "type": "Feature", "properties": { "id": "w423624198", "name": "Unnamed police", "category": "police", "address": "", "ground_elev_ft": 107.78, "elev_source": "epqs", "ffo_ft": 1.0, "source": "OpenStreetMap" }, "geometry": { "type": "Point", "coordinates": [ -74.199824, 40.721108 ] } },
{ "type": "Feature", "properties": { "id": "w1319129979", "name": "Red Hook Terminal", "category": "port", "address": "138 Marsh Street, Newark", "ground_elev_ft": 6.3, "elev_source": "epqs", "ffo_ft": 1.0, "source": "OpenStreetMap" }, "geometry": { "type": "Point", "coordinates": [ -74.150434, 40.696458 ] } },
{ "type": "Feature", "properties": { "id": "w1358680377", "name": "Port Newark Container Terminal", "category": "port", "address": "241 Calcutta Street, Newark", "ground_elev_ft": 8.86, "elev_source": "epqs", "ffo_ft": 1.0, "source": "OpenStreetMap" }, "geometry": { "type": "Point", "coordinates": [ -74.151426, 40.687216 ] } },
{ "type": "Feature", "properties": { "id": "r14484596", "name": "Port Newark-Elizabeth", "category": "port", "address": "", "ground_elev_ft": 9.45, "elev_source": "epqs", "ffo_ft": 1.0, "source": "OpenStreetMap" }, "geometry": { "type": "Point", "coordinates": [ -74.147348, 40.682402 ] } },
{ "type": "Feature", "properties": { "id": "n357719026", "name": "Bruce Street School", "category": "school", "address": "", "ground_elev_ft": 151.97, "elev_source": "epqs", "ffo_ft": 1.0, "source": "OpenStreetMap" }, "geometry": { "type": "Point", "coordinates": [ -74.188478, 40.743157 ] } },
{ "type": "Feature", "properties": { "id": "w430228635", "name": "Hawthorne Elementary School", "category": "school", "address": "", "ground_elev_ft": 187.04, "elev_source": "epqs", "ffo_ft": 1.0, "source": "OpenStreetMap" }, "geometry": { "type": "Point", "coordinates": [ -74.212554, 40.717909 ] } },
{ "type": "Feature", "properties": { "id": "w430549165", "name": "Bragaw Avenue Elementary School", "category": "school", "address": "", "ground_elev_ft": 188.25, "elev_source": "epqs", "ffo_ft": 1.0, "source": "OpenStreetMap" }, "geometry": { "type": "Point", "coordinates": [ -74.217138, 40.717748 ] } },
{ "type": "Feature", "properties": { "id": "w430875807", "name": "Weequahic High School", "category": "school", "address": "", "ground_elev_ft": 171.03, "elev_source": "epqs", "ffo_ft": 1.0, "source": "OpenStreetMap" }, "geometry": { "type": "Point", "coordinates": [ -74.220431, 40.70978 ] } },
{ "type": "Feature", "properties": { "id": "w431101421", "name": "New Jersey Regional Day School", "category": "school", "address": "", "ground_elev_ft": 173.33, "elev_source": "epqs", "ffo_ft": 1.0, "source": "OpenStreetMap" }, "geometry": { "type": "Point", "coordinates": [ -74.219132, 40.712276 ] } },
{ "type": "Feature", "properties": { "id": "w431267101", "name": "George Washington Carver Elementary School", "category": "school", "address": "", "ground_elev_ft": 167.52, "elev_source": "epqs", "ffo_ft": 1.0, "source": "OpenStreetMap" }, "geometry": { "type": "Point", "coordinates": [ -74.215891, 40.712353 ] } },
{ "type": "Feature", "properties": { "id": "w431430246", "name": "Chancellor Avenue School Annex", "category": "school", "address": "", "ground_elev_ft": 147.24, "elev_source": "epqs", "ffo_ft": 1.0, "source": "OpenStreetMap" }, "geometry": { "type": "Point", "coordinates": [ -74.218927, 40.708461 ] } },
{ "type": "Feature", "properties": { "id": "w431480975", "name": "Maple Avenue Elementary School", "category": "school", "address": "", "ground_elev_ft": 139.9, "elev_source": "epqs", "ffo_ft": 1.0, "source": "OpenStreetMap" }, "geometry": { "type": "Point", "coordinates": [ -74.215606, 40.708783 ] } },
{ "type": "Feature", "properties": { "id": "w430053371", "name": "William H Brown Academy", "category": "school", "address": "", "ground_elev_ft": 109.94, "elev_source": "epqs", "ffo_ft": 1.0, "source": "OpenStreetMap" }, "geometry": { "type": "Point", "coordinates": [ -74.201302, 40.720107 ] } },
{ "type": "Feature", "properties": { "id": "w431491577", "name": "Maple Avenue School Annex", "category": "school", "address": "", "ground_elev_ft": 134.06, "elev_source": "epqs", "ffo_ft": 1.0, "source": "OpenStreetMap" }, "geometry": { "type": "Point", "coordinates": [ -74.213835, 40.709638 ] } },
{ "type": "Feature", "properties": { "id": "w432737816", "name": "Saint Charles Borromen School", "category": "school", "address": "", "ground_elev_ft": 107.15, "elev_source": "epqs", "ffo_ft": 1.0, "source": "OpenStreetMap" }, "geometry": { "type": "Point", "coordinates": [ -74.202923, 40.711226 ] } },
{ "type": "Feature", "properties": { "id": "w432737818", "name": "Peshine Avenue Elementary School", "category": "school", "address": "", "ground_elev_ft": 103.84, "elev_source": "epqs", "ffo_ft": 1.0, "source": "OpenStreetMap" }, "geometry": { "type": "Point", "coordinates": [ -74.203045, 40.712376 ] } },
{ "type": "Feature", "properties": { "id": "w434928162", "name": "Dayton Street Elementary School", "category": "school", "address": "", "ground_elev_ft": 23.0, "elev_source": "epqs", "ffo_ft": 1.0, "source": "OpenStreetMap" }, "geometry": { "type": "Point", "coordinates": [ -74.202803, 40.69472 ] } },
{ "type": "Feature", "properties": { "id": "w435054569", "name": "South Street Elementary School", "category": "school", "address": "", "ground_elev_ft": 11.55, "elev_source": "epqs", "ffo_ft": 1.0, "source": "OpenStreetMap" }, "geometry": { "type": "Point", "coordinates": [ -74.172118, 40.721906 ] } },
{ "type": "Feature", "properties": { "id": "w435281264", "name": "Oliver Street Elementary School", "category": "school", "address": "", "ground_elev_ft": 11.29, "elev_source": "epqs", "ffo_ft": 1.0, "source": "OpenStreetMap" }, "geometry": { "type": "Point", "coordinates": [ -74.167932, 40.725549 ] } },
{ "type": "Feature", "properties": { "id": "w435690036", "name": "East Side High School", "category": "school", "address": "", "ground_elev_ft": 11.88, "elev_source": "epqs", "ffo_ft": 1.0, "source": "OpenStreetMap" }, "geometry": { "type": "Point", "coordinates": [ -74.158821, 40.724103 ] } },
{ "type": "Feature", "properties": { "id": "w435695664", "name": "Saint Casimir School", "category": "school", "address": "", "ground_elev_ft": 14.21, "elev_source": "epqs", "ffo_ft": 1.0, "source": "OpenStreetMap" }, "geometry": { "type": "Point", "coordinates": [ -74.159009, 40.723105 ] } },
{ "type": "Feature", "properties": { "id": "w435707893", "name": "Ann Street Elementary School", "category": "school", "address": "", "ground_elev_ft": 14.63, "elev_source": "epqs", "ffo_ft": 1.0, "source": "OpenStreetMap" }, "geometry": { "type": "Point", "coordinates": [ -74.156271, 40.7231 ] } },
{ "type": "Feature", "properties": { "id": "w429565605", "name": "Belmont Runyon Elementary School", "category": "school", "address": "", "ground_elev_ft": 79.95, "elev_source": "epqs", "ffo_ft": 1.0, "source": "OpenStreetMap" }, "geometry": { "type": "Point", "coordinates": [ -74.198869, 40.717794 ] } },
{ "type": "Feature", "properties": { "id": "w429487855", "name": "Belmont-Runyon Elementary School", "category": "school", "address": "", "ground_elev_ft": 41.63, "elev_source": "epqs", "ffo_ft": 1.0, "source": "OpenStreetMap" }, "geometry": { "type": "Point", "coordinates": [ -74.197025, 40.714895 ] } },
{ "type": "Feature", "properties": { "id": "w423410602", "name": "Malcolm X Shabazz High School", "category": "school", "address": "", "ground_elev_ft": 78.38, "elev_source": "epqs", "ffo_ft": 1.0, "source": "OpenStreetMap" }, "geometry": { "type": "Point", "coordinates": [ -74.191685, 40.718295 ] } },
{ "type": "Feature", "properties": { "id": "r6542659", "name": "Franklin Elementary School", "category": "school", "address": "42 Park Avenue, Newark", "ground_elev_ft": 89.07, "elev_source": "epqs", "ffo_ft": 1.0, "source": "OpenStreetMap" }, "geometry": { "type": "Point", "coordinates": [ -74.175188, 40.755187 ] } },
{ "type": "Feature", "properties": { "id": "w423728844", "name": "Avon Avenue Elementary School", "category": "school", "address": "", "ground_elev_ft": 153.15, "elev_source": "epqs", "ffo_ft": 1.0, "source": "OpenStreetMap" }, "geometry": { "type": "Point", "coordinates": [ -74.200244, 40.725943 ] } },
{ "type": "Feature", "properties": { "id": "w423863973", "name": "Clinton Avenue Elementary School", "category": "school", "address": "", "ground_elev_ft": 147.24, "elev_source": "epqs", "ffo_ft": 1.0, "source": "OpenStreetMap" }, "geometry": { "type": "Point", "coordinates": [ -74.203049, 40.721549 ] } },
{ "type": "Feature", "properties": { "id": "w424473361", "name": "University High School", "category": "school", "address": "", "ground_elev_ft": 191.67, "elev_source": "epqs", "ffo_ft": 1.0, "source": "OpenStreetMap" }, "geometry": { "type": "Point", "coordinates": [ -74.21141, 40.721146 ] } },
{ "type": "Feature", "properties": { "id": "w424506988", "name": "Madison Elementary School", "category": "school", "address": "", "ground_elev_ft": 206.23, "elev_source": "epqs", "ffo_ft": 1.0, "source": "OpenStreetMap" }, "geometry": { "type": "Point", "coordinates": [ -74.212321, 40.726525 ] } },
{ "type": "Feature", "properties": { "id": "w424920934", "name": "Speedway Avenue Elementary School", "category": "school", "address": "", "ground_elev_ft": 185.5, "elev_source": "epqs", "ffo_ft": 1.0, "source": "OpenStreetMap" }, "geometry": { "type": "Point", "coordinates": [ -74.213125, 40.743297 ] } },
{ "type": "Feature", "properties": { "id": "w425042852", "name": "Speedway School", "category": "school", "address": "", "ground_elev_ft": 160.7, "elev_source": "epqs", "ffo_ft": 1.0, "source": "OpenStreetMap" }, "geometry": { "type": "Point", "coordinates": [ -74.216423, 40.745578 ] } },
{ "type": "Feature", "properties": { "id": "w425753350", "name": "Sacred Heart School", "category": "school", "address": "", "ground_elev_ft": 190.88, "elev_source": "epqs", "ffo_ft": 1.0, "source": "OpenStreetMap" }, "geometry": { "type": "Point", "coordinates": [ -74.232648, 40.744885 ] } },
{ "type": "Feature", "properties": { "id": "w425753357", "name": "Lincoln Elementary School", "category": "school", "address": "", "ground_elev_ft": 216.5, "elev_source": "epqs", "ffo_ft": 1.0, "source": "OpenStreetMap" }, "geometry": { "type": "Point", "coordinates": [ -74.235366, 40.742631 ] } },
{ "type": "Feature", "properties": { "id": "w426051427", "name": "Mount Vernon Elementary School", "category": "school", "address": "", "ground_elev_ft": 254.89, "elev_source": "epqs", "ffo_ft": 1.0, "source": "OpenStreetMap" }, "geometry": { "type": "Point", "coordinates": [ -74.245269, 40.736577 ] } },
{ "type": "Feature", "properties": { "id": "w427117705", "name": "Vailsburg Middle School", "category": "school", "address": "", "ground_elev_ft": 211.35, "elev_source": "epqs", "ffo_ft": 1.0, "source": "OpenStreetMap" }, "geometry": { "type": "Point", "coordinates": [ -74.237914, 40.737907 ] } },
{ "type": "Feature", "properties": { "id": "w427712510", "name": "Saint Johns School", "category": "school", "address": "", "ground_elev_ft": 199.97, "elev_source": "epqs", "ffo_ft": 1.0, "source": "OpenStreetMap" }, "geometry": { "type": "Point", "coordinates": [ -74.236305, 40.736087 ] } },
{ "type": "Feature", "properties": { "id": "w428662719", "name": "Boylan Early Childhood Center", "category": "school", "address": "", "ground_elev_ft": 160.99, "elev_source": "epqs", "ffo_ft": 1.0, "source": "OpenStreetMap" }, "geometry": { "type": "Point", "coordinates": [ -74.226551, 40.744653 ] } },
{ "type": "Feature", "properties": { "id": "w428765002", "name": "Alexander Street Elementary School", "category": "school", "address": "", "ground_elev_ft": 175.03, "elev_source": "epqs", "ffo_ft": 1.0, "source": "OpenStreetMap" }, "geometry": { "type": "Point", "coordinates": [ -74.225075, 40.743888 ] } },
{ "type": "Feature", "properties": { "id": "w429407841", "name": "Miller Street Elementary School", "category": "school", "address": "", "ground_elev_ft": 18.27, "elev_source": "epqs", "ffo_ft": 1.0, "source": "OpenStreetMap" }, "geometry": { "type": "Point", "coordinates": [ -74.185648, 40.72024 ] } },
{ "type": "Feature", "properties": { "id": "w436043752", "name": "Wilson Avenue Elementary School", "category": "school", "address": "", "ground_elev_ft": 13.06, "elev_source": "epqs", "ffo_ft": 1.0, "source": "OpenStreetMap" }, "geometry": { "type": "Point", "coordinates": [ -74.154397, 40.72742 ] } },
{ "type": "Feature", "properties": { "id": "w436651218", "name": "Lafayette Street Elementary School", "category": "school", "address": "", "ground_elev_ft": 32.81, "elev_source": "epqs", "ffo_ft": 1.0, "source": "OpenStreetMap" }, "geometry": { "type": "Point", "coordinates": [ -74.163245, 40.729793 ] } },
{ "type": "Feature", "properties": { "id": "w436652101", "name": "Lafayette Street Annex School", "category": "school", "address": "212 Lafayette Street, Newark", "ground_elev_ft": 29.76, "elev_source": "epqs", "ffo_ft": 1.0, "source": "OpenStreetMap" }, "geometry": { "type": "Point", "coordinates": [ -74.163765, 40.729389 ] } },
{ "type": "Feature", "properties": { "id": "w446061318", "name": "Saint Francis Xavier School", "category": "school", "address": "", "ground_elev_ft": 122.51, "elev_source": "epqs", "ffo_ft": 1.0, "source": "OpenStreetMap" }, "geometry": { "type": "Point", "coordinates": [ -74.181951, 40.770866 ] } },
{ "type": "Feature", "properties": { "id": "w446061331", "name": "Abington Avenue Elementary School", "category": "school", "address": "", "ground_elev_ft": 131.89, "elev_source": "epqs", "ffo_ft": 1.0, "source": "OpenStreetMap" }, "geometry": { "type": "Point", "coordinates": [ -74.18142, 40.770414 ] } },
{ "type": "Feature", "properties": { "id": "w446158735", "name": "First Avenue Elementary School", "category": "school", "address": "", "ground_elev_ft": 124.08, "elev_source": "epqs", "ffo_ft": 1.0, "source": "OpenStreetMap" }, "geometry": { "type": "Point", "coordinates": [ -74.183189, 40.767043 ] } },
{ "type": "Feature", "properties": { "id": "w446203165", "name": "Elliot Street Annex", "category": "school", "address": "", "ground_elev_ft": 109.88, "elev_source": "epqs", "ffo_ft": 1.0, "source": "OpenStreetMap" }, "geometry": { "type": "Point", "coordinates": [ -74.186686, 40.768729 ] } },
{ "type": "Feature", "properties": { "id": "w446706643", "name": "Doctor William H Horton Elementary School", "category": "school", "address": "", "ground_elev_ft": 120.7, "elev_source": "epqs", "ffo_ft": 1.0, "source": "OpenStreetMap" }, "geometry": { "type": "Point", "coordinates": [ -74.186855, 40.760017 ] } },
{ "type": "Feature", "properties": { "id": "w973895906", "name": "KIPP Newark Collegiate Academy", "category": "school", "address": "129 Littleton Avenue, Newark", "ground_elev_ft": 204.79, "elev_source": "epqs", "ffo_ft": 1.0, "source": "OpenStreetMap" }, "geometry": { "type": "Point", "coordinates": [ -74.195227, 40.742207 ] } },
{ "type": "Feature", "properties": { "id": "w974425361", "name": "Isaac Newton Elementary", "category": "school", "address": "", "ground_elev_ft": 133.23, "elev_source": "epqs", "ffo_ft": 1.0, "source": "OpenStreetMap" }, "geometry": { "type": "Point", "coordinates": [ -74.189263, 40.737579 ] } },
{ "type": "Feature", "properties": { "id": "w445414469", "name": "Ridge Street Elementary School", "category": "school", "address": "", "ground_elev_ft": 143.01, "elev_source": "epqs", "ffo_ft": 1.0, "source": "OpenStreetMap" }, "geometry": { "type": "Point", "coordinates": [ -74.165896, 40.778843 ] } },
{ "type": "Feature", "properties": { "id": "w423266971", "name": "Louise A Spencer Elementary School", "category": "school", "address": "", "ground_elev_ft": 57.81, "elev_source": "epqs", "ffo_ft": 1.0, "source": "OpenStreetMap" }, "geometry": { "type": "Point", "coordinates": [ -74.187928, 40.725069 ] } },
{ "type": "Feature", "properties": { "id": "w445317987", "name": "Park Elementary School", "category": "school", "address": "", "ground_elev_ft": 117.88, "elev_source": "epqs", "ffo_ft": 1.0, "source": "OpenStreetMap" }, "geometry": { "type": "Point", "coordinates": [ -74.171176, 40.783621 ] } },
{ "type": "Feature", "properties": { "id": "w437967756", "name": "Academy of Saint Benedict", "category": "school", "address": "", "ground_elev_ft": 15.81, "elev_source": "epqs", "ffo_ft": 1.0, "source": "OpenStreetMap" }, "geometry": { "type": "Point", "coordinates": [ -74.148381, 40.724904 ] } },
{ "type": "Feature", "properties": { "id": "w438622500", "name": "Market Street School", "category": "school", "address": "", "ground_elev_ft": 22.54, "elev_source": "epqs", "ffo_ft": 1.0, "source": "OpenStreetMap" }, "geometry": { "type": "Point", "coordinates": [ -74.146172, 40.730321 ] } },
{ "type": "Feature", "properties": { "id": "w438819171", "name": "Hawkins Street Elementary School", "category": "school", "address": "", "ground_elev_ft": 19.85, "elev_source": "epqs", "ffo_ft": 1.0, "source": "OpenStreetMap" }, "geometry": { "type": "Point", "coordinates": [ -74.140131, 40.731079 ] } },
{ "type": "Feature", "properties": { "id": "w440503090", "name": "Technology High School", "category": "school", "address": "", "ground_elev_ft": 45.08, "elev_source": "epqs", "ffo_ft": 1.0, "source": "OpenStreetMap" }, "geometry": { "type": "Point", "coordinates": [ -74.169225, 40.757255 ] } },
{ "type": "Feature", "properties": { "id": "w440510936", "name": "State Teachers College", "category": "school", "address": "", "ground_elev_ft": 50.13, "elev_source": "epqs", "ffo_ft": 1.0, "source": "OpenStreetMap" }, "geometry": { "type": "Point", "coordinates": [ -74.169005, 40.757949 ] } },
{ "type": "Feature", "properties": { "id": "w440512556", "name": "Saint Michael's Grammar School", "category": "school", "address": "", "ground_elev_ft": 66.77, "elev_source": "epqs", "ffo_ft": 1.0, "source": "OpenStreetMap" }, "geometry": { "type": "Point", "coordinates": [ -74.17152, 40.756333 ] } },
{ "type": "Feature", "properties": { "id": "w441029832", "name": "Branch Brook School", "category": "school", "address": "", "ground_elev_ft": 142.03, "elev_source": "epqs", "ffo_ft": 1.0, "source": "OpenStreetMap" }, "geometry": { "type": "Point", "coordinates": [ -74.176181, 40.76107 ] } },
{ "type": "Feature", "properties": { "id": "w442631827", "name": "Roberto Clemente Elementary School", "category": "school", "address": "", "ground_elev_ft": 67.95, "elev_source": "epqs", "ffo_ft": 1.0, "source": "OpenStreetMap" }, "geometry": { "type": "Point", "coordinates": [ -74.17035, 40.760611 ] } },
{ "type": "Feature", "properties": { "id": "w442719943", "name": "Rafael Hernandez Elementary School", "category": "school", "address": "", "ground_elev_ft": 61.38, "elev_source": "epqs", "ffo_ft": 1.0, "source": "OpenStreetMap" }, "geometry": { "type": "Point", "coordinates": [ -74.1666, 40.761931 ] } },
{ "type": "Feature", "properties": { "id": "w442795662", "name": "Arlington Avenue School", "category": "school", "address": "", "ground_elev_ft": 61.48, "elev_source": "epqs", "ffo_ft": 1.0, "source": "OpenStreetMap" }, "geometry": { "type": "Point", "coordinates": [ -74.166485, 40.765207 ] } },
{ "type": "Feature", "properties": { "id": "w442990157", "name": "Robert Treat Academy", "category": "school", "address": "", "ground_elev_ft": 160.3, "elev_source": "epqs", "ffo_ft": 1.0, "source": "OpenStreetMap" }, "geometry": { "type": "Point", "coordinates": [ -74.171676, 40.765689 ] } },
{ "type": "Feature", "properties": { "id": "w444103427", "name": "Summer Place School", "category": "school", "address": "", "ground_elev_ft": 68.93, "elev_source": "epqs", "ffo_ft": 1.0, "source": "OpenStreetMap" }, "geometry": { "type": "Point", "coordinates": [ -74.166107, 40.768152 ] } },
{ "type": "Feature", "properties": { "id": "w444505849", "name": "Luis Munoz Marin Middle School", "category": "school", "address": "663 Broadway", "ground_elev_ft": 46.69, "elev_source": "epqs", "ffo_ft": 1.0, "source": "OpenStreetMap" }, "geometry": { "type": "Point", "coordinates": [ -74.160438, 40.772655 ] } },
{ "type": "Feature", "properties": { "id": "w444754398", "name": "Elliott Street Elementary School", "category": "school", "address": "", "ground_elev_ft": 74.18, "elev_source": "epqs", "ffo_ft": 1.0, "source": "OpenStreetMap" }, "geometry": { "type": "Point", "coordinates": [ -74.161833, 40.775936 ] } },
{ "type": "Feature", "properties": { "id": "w423218763", "name": "Eighteenth Avenue Elementary School", "category": "school", "address": "", "ground_elev_ft": 104.56, "elev_source": "epqs", "ffo_ft": 1.0, "source": "OpenStreetMap" }, "geometry": { "type": "Point", "coordinates": [ -74.192137, 40.728862 ] } },
{ "type": "Feature", "properties": { "id": "w423218751", "name": "Harold Wilson School", "category": "school", "address": "", "ground_elev_ft": 102.66, "elev_source": "epqs", "ffo_ft": 1.0, "source": "OpenStreetMap" }, "geometry": { "type": "Point", "coordinates": [ -74.195504, 40.727132 ] } },
{ "type": "Feature", "properties": { "id": "n11829927244", "name": "Bard High School Early College Newark", "category": "school", "address": "321 Bergen Street, Newark", "ground_elev_ft": 167.39, "elev_source": "epqs", "ffo_ft": 1.0, "source": "OpenStreetMap" }, "geometry": { "type": "Point", "coordinates": [ -74.195141, 40.734508 ] } },
{ "type": "Feature", "properties": { "id": "n11829927245", "name": "People's Preparatory Charter School", "category": "school", "address": "321 Bergen Street, Newark", "ground_elev_ft": 169.91, "elev_source": "epqs", "ffo_ft": 1.0, "source": "OpenStreetMap" }, "geometry": { "type": "Point", "coordinates": [ -74.194941, 40.735063 ] } },
{ "type": "Feature", "properties": { "id": "w423218762", "name": "Central High School", "category": "school", "address": "", "ground_elev_ft": 111.94, "elev_source": "epqs", "ffo_ft": 1.0, "source": "OpenStreetMap" }, "geometry": { "type": "Point", "coordinates": [ -74.193085, 40.730334 ] } },
{ "type": "Feature", "properties": { "id": "w259618445", "name": "North Star Academy Charter School of Newark", "category": "school", "address": "", "ground_elev_ft": 39.7, "elev_source": "epqs", "ffo_ft": 1.0, "source": "OpenStreetMap" }, "geometry": { "type": "Point", "coordinates": [ -74.170065, 40.742056 ] } },
{ "type": "Feature", "properties": { "id": "n357748857", "name": "Christ The King Preparatory High School", "category": "school", "address": "", "ground_elev_ft": 80.12, "elev_source": "epqs", "ffo_ft": 1.0, "source": "OpenStreetMap" }, "geometry": { "type": "Point", "coordinates": [ -74.164444, 40.774444 ] } },
{ "type": "Feature", "properties": { "id": "n5002391374", "name": "Express Newark", "category": "school", "address": "", "ground_elev_ft": 36.68, "elev_source": "epqs", "ffo_ft": 1.0, "source": "OpenStreetMap" }, "geometry": { "type": "Point", "coordinates": [ -74.17063, 40.740877 ] } },
{ "type": "Feature", "properties": { "id": "n5002391376", "name": "Great Oaks Legacy Downtown Middle School", "category": "school", "address": "", "ground_elev_ft": 27.49, "elev_source": "epqs", "ffo_ft": 1.0, "source": "OpenStreetMap" }, "geometry": { "type": "Point", "coordinates": [ -74.174955, 40.7344 ] } },
{ "type": "Feature", "properties": { "id": "n5002391377", "name": "KIPP Spark Academy", "category": "school", "address": "", "ground_elev_ft": 27.69, "elev_source": "epqs", "ffo_ft": 1.0, "source": "OpenStreetMap" }, "geometry": { "type": "Point", "coordinates": [ -74.174711, 40.733842 ] } },
{ "type": "Feature", "properties": { "id": "n5002391379", "name": "NJPAC Center for Arts Education", "category": "school", "address": "", "ground_elev_ft": 29.04, "elev_source": "epqs", "ffo_ft": 1.0, "source": "OpenStreetMap" }, "geometry": { "type": "Point", "coordinates": [ -74.167182, 40.740974 ] } },
{ "type": "Feature", "properties": { "id": "n5902125014", "name": "North Star Academy", "category": "school", "address": "", "ground_elev_ft": 28.87, "elev_source": "epqs", "ffo_ft": 1.0, "source": "OpenStreetMap" }, "geometry": { "type": "Point", "coordinates": [ -74.177951, 40.732352 ] } },
{ "type": "Feature", "properties": { "id": "w259656737", "name": "Burnet Street Elementary School", "category": "school", "address": "", "ground_elev_ft": 40.22, "elev_source": "epqs", "ffo_ft": 1.0, "source": "OpenStreetMap" }, "geometry": { "type": "Point", "coordinates": [ -74.173269, 40.745732 ] } },
{ "type": "Feature", "properties": { "id": "w310456441", "name": "Grey Charter School", "category": "school", "address": "55 Liberty Street, Newark", "ground_elev_ft": 20.64, "elev_source": "epqs", "ffo_ft": 1.0, "source": "OpenStreetMap" }, "geometry": { "type": "Point", "coordinates": [ -74.169236, 40.730738 ] } },
{ "type": "Feature", "properties": { "id": "w418203412", "name": "Newark Christian School", "category": "school", "address": "", "ground_elev_ft": 131.82, "elev_source": "epqs", "ffo_ft": 1.0, "source": "OpenStreetMap" }, "geometry": { "type": "Point", "coordinates": [ -74.187419, 40.749981 ] } },
{ "type": "Feature", "properties": { "id": "n357730312", "name": "Former Martin Luther King Junior Elementary School", "category": "school", "address": "", "ground_elev_ft": 187.99, "elev_source": "epqs", "ffo_ft": 1.0, "source": "OpenStreetMap" }, "geometry": { "type": "Point", "coordinates": [ -74.195415, 40.748122 ] } },
{ "type": "Feature", "properties": { "id": "n357728613", "name": "Saint James School", "category": "school", "address": "", "ground_elev_ft": 24.48, "elev_source": "epqs", "ffo_ft": 1.0, "source": "OpenStreetMap" }, "geometry": { "type": "Point", "coordinates": [ -74.162816, 40.727855 ] } },
{ "type": "Feature", "properties": { "id": "n357727755", "name": "Quitman Community School", "category": "school", "address": "", "ground_elev_ft": 95.28, "elev_source": "epqs", "ffo_ft": 1.0, "source": "OpenStreetMap" }, "geometry": { "type": "Point", "coordinates": [ -74.183478, 40.730935 ] } },
{ "type": "Feature", "properties": { "id": "n357726472", "name": "Newark Academy", "category": "school", "address": "", "ground_elev_ft": 120.73, "elev_source": "epqs", "ffo_ft": 1.0, "source": "OpenStreetMap" }, "geometry": { "type": "Point", "coordinates": [ -74.184769, 40.752794 ] } },
{ "type": "Feature", "properties": { "id": "n357726024", "name": "Mount Carmel School", "category": "school", "address": "", "ground_elev_ft": 10.04, "elev_source": "epqs", "ffo_ft": 1.0, "source": "OpenStreetMap" }, "geometry": { "type": "Point", "coordinates": [ -74.161533, 40.722324 ] } },
{ "type": "Feature", "properties": { "id": "w421285960", "name": "Saint Anns School", "category": "school", "address": "", "ground_elev_ft": 196.16, "elev_source": "epqs", "ffo_ft": 1.0, "source": "OpenStreetMap" }, "geometry": { "type": "Point", "coordinates": [ -74.198781, 40.736302 ] } },
{ "type": "Feature", "properties": { "id": "w418202123", "name": "Sussex Avenue Elementary School", "category": "school", "address": "", "ground_elev_ft": 136.91, "elev_source": "epqs", "ffo_ft": 1.0, "source": "OpenStreetMap" }, "geometry": { "type": "Point", "coordinates": [ -74.189043, 40.750643 ] } },
{ "type": "Feature", "properties": { "id": "w421294897", "name": "Fourteenth Avenue Elementary School", "category": "school", "address": "", "ground_elev_ft": 214.8, "elev_source": "epqs", "ffo_ft": 1.0, "source": "OpenStreetMap" }, "geometry": { "type": "Point", "coordinates": [ -74.199928, 40.738396 ] } },
{ "type": "Feature", "properties": { "id": "w421482795", "name": "Saint Antoninus School", "category": "school", "address": "", "ground_elev_ft": 218.73, "elev_source": "epqs", "ffo_ft": 1.0, "source": "OpenStreetMap" }, "geometry": { "type": "Point", "coordinates": [ -74.199066, 40.740686 ] } },
{ "type": "Feature", "properties": { "id": "w421527830", "name": "Harriet Tubman Elementary School", "category": "school", "address": "", "ground_elev_ft": 201.21, "elev_source": "epqs", "ffo_ft": 1.0, "source": "OpenStreetMap" }, "geometry": { "type": "Point", "coordinates": [ -74.202206, 40.734805 ] } },
{ "type": "Feature", "properties": { "id": "w421759358", "name": "John F. Kennedy School", "category": "school", "address": "", "ground_elev_ft": 210.53, "elev_source": "epqs", "ffo_ft": 1.0, "source": "OpenStreetMap" }, "geometry": { "type": "Point", "coordinates": [ -74.200281, 40.742195 ] } },
{ "type": "Feature", "properties": { "id": "w422390177", "name": "Saint Roccos School", "category": "school", "address": "", "ground_elev_ft": 211.52, "elev_source": "epqs", "ffo_ft": 1.0, "source": "OpenStreetMap" }, "geometry": { "type": "Point", "coordinates": [ -74.203639, 40.74071 ] } },
{ "type": "Feature", "properties": { "id": "w422548569", "name": "Fifteenth Avenue Elementary School", "category": "school", "address": "", "ground_elev_ft": 217.98, "elev_source": "epqs", "ffo_ft": 1.0, "source": "OpenStreetMap" }, "geometry": { "type": "Point", "coordinates": [ -74.205951, 40.738011 ] } },
{ "type": "Feature", "properties": { "id": "n357725859", "name": "Montgomery Street High School", "category": "school", "address": "", "ground_elev_ft": 87.73, "elev_source": "epqs", "ffo_ft": 1.0, "source": "OpenStreetMap" }, "geometry": { "type": "Point", "coordinates": [ -74.186328, 40.730427 ] } },
{ "type": "Feature", "properties": { "id": "w423051500", "name": "Cleveland Elementary School", "category": "school", "address": "", "ground_elev_ft": 166.5, "elev_source": "epqs", "ffo_ft": 1.0, "source": "OpenStreetMap" }, "geometry": { "type": "Point", "coordinates": [ -74.195686, 40.73126 ] } },
{ "type": "Feature", "properties": { "id": "w421436699", "name": "Thirteenth Avenue/MLK Elementary School", "category": "school", "address": "", "ground_elev_ft": 208.73, "elev_source": "epqs", "ffo_ft": 1.0, "source": "OpenStreetMap" }, "geometry": { "type": "Point", "coordinates": [ -74.197778, 40.74322 ] } },
{ "type": "Feature", "properties": { "id": "n357744615", "name": "Samuel L Berliner School", "category": "school", "address": "", "ground_elev_ft": 95.77, "elev_source": "epqs", "ffo_ft": 1.0, "source": "OpenStreetMap" }, "geometry": { "type": "Point", "coordinates": [ -74.184191, 40.730692 ] } },
{ "type": "Feature", "properties": { "id": "w417258023", "name": "Saint Vincent Academy", "category": "school", "address": "", "ground_elev_ft": 161.38, "elev_source": "epqs", "ffo_ft": 1.0, "source": "OpenStreetMap" }, "geometry": { "type": "Point", "coordinates": [ -74.187331, 40.743351 ] } },
{ "type": "Feature", "properties": { "id": "w416738176", "name": "Saint Columbus School", "category": "school", "address": "", "ground_elev_ft": 24.25, "elev_source": "epqs", "ffo_ft": 1.0, "source": "OpenStreetMap" }, "geometry": { "type": "Point", "coordinates": [ -74.180167, 40.724418 ] } },
{ "type": "Feature", "properties": { "id": "w387149987", "name": "Saint Peters School", "category": "school", "address": "", "ground_elev_ft": 136.35, "elev_source": "epqs", "ffo_ft": 1.0, "source": "OpenStreetMap" }, "geometry": { "type": "Point", "coordinates": [ -74.188835, 40.734002 ] } },
{ "type": "Feature", "properties": { "id": "w387208848", "name": "Essex County Technical Careers Center", "category": "school", "address": "", "ground_elev_ft": 94.95, "elev_source": "epqs", "ffo_ft": 1.0, "source": "OpenStreetMap" }, "geometry": { "type": "Point", "coordinates": [ -74.181727, 40.7404 ] } },
{ "type": "Feature", "properties": { "id": "n357731704", "name": "Weequahic High School", "category": "school", "address": "", "ground_elev_ft": 188.58, "elev_source": "epqs", "ffo_ft": 1.0, "source": "OpenStreetMap" }, "geometry": { "type": "Point", "coordinates": [ -74.212368, 40.718435 ] } },
{ "type": "Feature", "properties": { "id": "w412090769", "name": "West Side High School", "category": "school", "address": "", "ground_elev_ft": 212.86, "elev_source": "epqs", "ffo_ft": 1.0, "source": "OpenStreetMap" }, "geometry": { "type": "Point", "coordinates": [ -74.203048, 40.742031 ] } },
{ "type": "Feature", "properties": { "id": "w415270626", "name": "Science Park High School", "category": "school", "address": "", "ground_elev_ft": 124.38, "elev_source": "epqs", "ffo_ft": 1.0, "source": "OpenStreetMap" }, "geometry": { "type": "Point", "coordinates": [ -74.185441, 40.739849 ] } },
{ "type": "Feature", "properties": { "id": "w415774620", "name": "McKinley Elementary School", "category": "school", "address": "", "ground_elev_ft": 68.57, "elev_source": "epqs", "ffo_ft": 1.0, "source": "OpenStreetMap" }, "geometry": { "type": "Point", "coordinates": [ -74.177698, 40.749789 ] } },
{ "type": "Feature", "properties": { "id": "w415776891", "name": "Gladys Hillman-Jones Middle School", "category": "school", "address": "", "ground_elev_ft": 45.67, "elev_source": "epqs", "ffo_ft": 1.0, "source": "OpenStreetMap" }, "geometry": { "type": "Point", "coordinates": [ -74.172194, 40.751558 ] } },
{ "type": "Feature", "properties": { "id": "w416066127", "name": "St. Mary School", "category": "school", "address": "", "ground_elev_ft": 79.95, "elev_source": "epqs", "ffo_ft": 1.0, "source": "OpenStreetMap" }, "geometry": { "type": "Point", "coordinates": [ -74.180158, 40.735467 ] } },
{ "type": "Feature", "properties": { "id": "w416067168", "name": "Arts High School", "category": "school", "address": "", "ground_elev_ft": 86.02, "elev_source": "epqs", "ffo_ft": 1.0, "source": "OpenStreetMap" }, "geometry": { "type": "Point", "coordinates": [ -74.180105, 40.734159 ] } },
{ "type": "Feature", "properties": { "id": "w416147734", "name": "Morton Street Elementary School", "category": "school", "address": "", "ground_elev_ft": 95.7, "elev_source": "epqs", "ffo_ft": 1.0, "source": "OpenStreetMap" }, "geometry": { "type": "Point", "coordinates": [ -74.185177, 40.733193 ] } },
{ "type": "Feature", "properties": { "id": "n357744613", "name": "Roseville Avenue Elementary School", "category": "school", "address": "", "ground_elev_ft": 149.05, "elev_source": "epqs", "ffo_ft": 1.0, "source": "OpenStreetMap" }, "geometry": { "type": "Point", "coordinates": [ -74.191534, 40.753434 ] } },
{ "type": "Feature", "properties": { "id": "w1422209153", "name": "Unnamed school", "category": "school", "address": "", "ground_elev_ft": 7.45, "elev_source": "epqs", "ffo_ft": 1.0, "source": "OpenStreetMap" }, "geometry": { "type": "Point", "coordinates": [ -74.170539, 40.723537 ] } },
{ "type": "Feature", "properties": { "id": "w420454759", "name": "Unnamed school", "category": "school", "address": "", "ground_elev_ft": 178.22, "elev_source": "epqs", "ffo_ft": 1.0, "source": "OpenStreetMap" }, "geometry": { "type": "Point", "coordinates": [ -74.196085, 40.735369 ] } },
{ "type": "Feature", "properties": { "id": "w421285961", "name": "Unnamed school", "category": "school", "address": "", "ground_elev_ft": 193.18, "elev_source": "epqs", "ffo_ft": 1.0, "source": "OpenStreetMap" }, "geometry": { "type": "Point", "coordinates": [ -74.199031, 40.735664 ] } },
{ "type": "Feature", "properties": { "id": "w422802029", "name": "Unnamed school", "category": "school", "address": "", "ground_elev_ft": 217.82, "elev_source": "epqs", "ffo_ft": 1.0, "source": "OpenStreetMap" }, "geometry": { "type": "Point", "coordinates": [ -74.210267, 40.734374 ] } },
{ "type": "Feature", "properties": { "id": "w446988084", "name": "Unnamed school", "category": "school", "address": "", "ground_elev_ft": 125.43, "elev_source": "epqs", "ffo_ft": 1.0, "source": "OpenStreetMap" }, "geometry": { "type": "Point", "coordinates": [ -74.187367, 40.753213 ] } }
]
}
