{
"type": "FeatureCollection",
"name": "assets",
"crs": { "type": "name", "properties": { "name": "urn:ogc:def:crs:OGC:1.3:CRS84" } },
"features": [
{ "type": "Feature", "properties": { "id": "w606147457", "name": "Roller Rink Park", "category": "community", "address": "", "ground_elev_ft": 5.64, "elev_source": "epqs", "ffo_ft": 1.0, "source": "OpenStreetMap" }, "geometry": { "type": "Point", "coordinates": [ -74.0365436, 40.739402 ] } },
{ "type": "Feature", "properties": { "id": "w552178099", "name": "Bruce D. Walter Recreation Center", "category": "community", "address": "507 West Street, Union City", "ground_elev_ft": 169.98, "elev_source": "epqs", "ffo_ft": 1.0, "source": "OpenStreetMap" }, "geometry": { "type": "Point", "coordinates": [ -74.0423375, 40.7558048 ] } },
{ "type": "Feature", "properties": { "id": "w396126616", "name": "Pershing Field Community Center", "category": "community", "address": "", "ground_elev_ft": 124.15, "elev_source": "epqs", "ffo_ft": 1.0, "source": "OpenStreetMap" }, "geometry": { "type": "Point", "coordinates": [ -74.0537427, 40.7423781 ] } },
{ "type": "Feature", "properties": { "id": "n9064907525", "name": "SMT Center", "category": "community", "address": "731 Washington Street, Hoboken", "ground_elev_ft": 21.16, "elev_source": "epqs", "ffo_ft": 1.0, "source": "OpenStreetMap" }, "geometry": { "type": "Point", "coordinates": [ -74.0281322, 40.7458893 ] } },
{ "type": "Feature", "properties": { "id": "w449469925", "name": "Unnamed ems", "category": "ems", "address": "", "ground_elev_ft": 5.35, "elev_source": "epqs", "ffo_ft": 1.0, "source": "OpenStreetMap" }, "geometry": { "type": "Point", "coordinates": [ -74.032845, 40.7457881 ] } },
{ "type": "Feature", "properties": { "id": "n296377486", "name": "Hoboken Fire Dept Ladder 2 Engine 5", "category": "fire", "address": "", "ground_elev_ft": 4.89, "elev_source": "epqs", "ffo_ft": 1.0, "source": "OpenStreetMap" }, "geometry": { "type": "Point", "coordinates": [ -74.0396118, 40.7369253 ] } },
{ "type": "Feature", "properties": { "id": "w449045631", "name": "Hoboken Rescue Company Number 1", "category": "fire", "address": "", "ground_elev_ft": 6.1, "elev_source": "epqs", "ffo_ft": 1.0, "source": "OpenStreetMap" }, "geometry": { "type": "Point", "coordinates": [ -74.0324543, 40.746924 ] } },
{ "type": "Feature", "properties": { "id": "w450042837", "name": "Hoboken Fire Department Engine 3", "category": "fire", "address": "", "ground_elev_ft": 4.53, "elev_source": "epqs", "ffo_ft": 1.0, "source": "OpenStreetMap" }, "geometry": { "type": "Point", "coordinates": [ -74.0376011, 40.7401261 ] } },
{ "type": "Feature", "properties": { "id": "n367685099", "name": "Hoboken Ladder Company Number 2", "category": "fire", "address": "", "ground_elev_ft": 5.28, "elev_source": "epqs", "ffo_ft": 1.0, "source": "OpenStreetMap" }, "geometry": { "type": "Point", "coordinates": [ -74.0385841, 40.7381462 ] } },
{ "type": "Feature", "properties": { "id": "n367685163", "name": "Hoboken Ladder Company Number 1;Hoboken Engine Company Number 3", "category": "fire", "address": "", "ground_elev_ft": 13.68, "elev_source": "epqs", "ffo_ft": 1.0, "source": "OpenStreetMap" }, "geometry": { "type": "Point", "coordinates": [ -74.0259534, 40.7527622 ] } },
{ "type": "Feature", "properties": { "id": "w265560953", "name": "FDJC Palisade Ave. Firehouse", "category": "fire", "address": "", "ground_elev_ft": 135.63, "elev_source": "epqs", "ffo_ft": 1.0, "source": "OpenStreetMap" }, "geometry": { "type": "Point", "coordinates": [ -74.0415447, 40.7489039 ] } },
{ "type": "Feature", "properties": { "id": "n8401234126", "name": "Unnamed fire", "category": "fire", "address": "", "ground_elev_ft": 14.07, "elev_source": "epqs", "ffo_ft": 1.0, "source": "OpenStreetMap" }, "geometry": { "type": "Point", "coordinates": [ -74.0271482, 40.7604546 ] } },
{ "type": "Feature", "properties": { "id": "w484453822", "name": "Christ Hospital", "category": "hospital", "address": "176 Palisade Avenue, Jersey City", "ground_elev_ft": 105.97, "elev_source": "epqs", "ffo_ft": 1.0, "source": "OpenStreetMap" }, "geometry": { "type": "Point", "coordinates": [ -74.0499478, 40.7340193 ] } },
{ "type": "Feature", "properties": { "id": "w27080832", "name": "Hoboken University Medical Center", "category": "hospital", "address": "308 Willow Avenue, Hoboken", "ground_elev_ft": 6.0, "elev_source": "epqs", "ffo_ft": 1.0, "source": "OpenStreetMap" }, "geometry": { "type": "Point", "coordinates": [ -74.0340099, 40.7413556 ] } },
{ "type": "Feature", "properties": { "id": "w449685639", "name": "Hoboken Public Library", "category": "library", "address": "500 Park Avenue, Hoboken", "ground_elev_ft": 7.25, "elev_source": "epqs", "ffo_ft": 1.0, "source": "OpenStreetMap" }, "geometry": { "type": "Point", "coordinates": [ -74.0322909, 40.7429171 ] } },
{ "type": "Feature", "properties": { "id": "w469268752", "name": "Union City Public Library 18th Street Branch", "category": "library", "address": "1800 Summit Avenue, Union City", "ground_elev_ft": 231.2, "elev_source": "epqs", "ffo_ft": 1.0, "source": "OpenStreetMap" }, "geometry": { "type": "Point", "coordinates": [ -74.0384413, 40.7653933 ] } },
{ "type": "Feature", "properties": { "id": "w26974141", "name": "Samuel C. Williams Library", "category": "library", "address": "", "ground_elev_ft": 82.84, "elev_source": "epqs", "ffo_ft": 1.0, "source": "OpenStreetMap" }, "geometry": { "type": "Point", "coordinates": [ -74.0253311, 40.7447887 ] } },
{ "type": "Feature", "properties": { "id": "w449920113", "name": "Hoboken City Hall", "category": "municipal", "address": "94 Washington Street", "ground_elev_ft": 17.49, "elev_source": "epqs", "ffo_ft": 1.0, "source": "OpenStreetMap" }, "geometry": { "type": "Point", "coordinates": [ -74.0314042, 40.7372393 ] } },
{ "type": "Feature", "properties": { "id": "w450946403", "name": "Unnamed municipal", "category": "municipal", "address": "372 Park Avenue, Weehawken", "ground_elev_ft": 68.11, "elev_source": "epqs", "ffo_ft": 1.0, "source": "OpenStreetMap" }, "geometry": { "type": "Point", "coordinates": [ -74.0233755, 40.7666167 ] } },
{ "type": "Feature", "properties": { "id": "w449875246", "name": "Hoboken Police Station", "category": "police", "address": "106 Hudson Street, Hoboken", "ground_elev_ft": 22.7, "elev_source": "epqs", "ffo_ft": 1.0, "source": "OpenStreetMap" }, "geometry": { "type": "Point", "coordinates": [ -74.030017, 40.7377206 ] } },
{ "type": "Feature", "properties": { "id": "w555509857", "name": "Union City Police Department", "category": "police", "address": "", "ground_elev_ft": 177.23, "elev_source": "epqs", "ffo_ft": 1.0, "source": "OpenStreetMap" }, "geometry": { "type": "Point", "coordinates": [ -74.0397889, 40.7565932 ] } },
{ "type": "Feature", "properties": { "id": "n2636098702", "name": "JCPD North District", "category": "police", "address": "282 Central Avenue, Jersey City", "ground_elev_ft": 120.37, "elev_source": "epqs", "ffo_ft": 1.0, "source": "OpenStreetMap" }, "geometry": { "type": "Point", "coordinates": [ -74.0502412, 40.7444375 ] } },
{ "type": "Feature", "properties": { "id": "n6663013937", "name": "Stevens Campus Police", "category": "police", "address": "", "ground_elev_ft": 53.71, "elev_source": "epqs", "ffo_ft": 1.0, "source": "OpenStreetMap" }, "geometry": { "type": "Point", "coordinates": [ -74.0263837, 40.7435812 ] } },
{ "type": "Feature", "properties": { "id": "w449336714", "name": "All Saints Episcopal Day School", "category": "school", "address": "", "ground_elev_ft": 25.03, "elev_source": "epqs", "ffo_ft": 1.0, "source": "OpenStreetMap" }, "geometry": { "type": "Point", "coordinates": [ -74.0281805, 40.7450046 ] } },
{ "type": "Feature", "properties": { "id": "w449691671", "name": "Mustard Seed School", "category": "school", "address": "", "ground_elev_ft": 6.0, "elev_source": "epqs", "ffo_ft": 1.0, "source": "OpenStreetMap" }, "geometry": { "type": "Point", "coordinates": [ -74.0335714, 40.7427337 ] } },
{ "type": "Feature", "properties": { "id": "w449691672", "name": "Hoboken Childrens Academy", "category": "school", "address": "", "ground_elev_ft": 6.43, "elev_source": "epqs", "ffo_ft": 1.0, "source": "OpenStreetMap" }, "geometry": { "type": "Point", "coordinates": [ -74.0327526, 40.7429843 ] } },
{ "type": "Feature", "properties": { "id": "w449806368", "name": "Stevens Cooperative School", "category": "school", "address": "", "ground_elev_ft": 6.76, "elev_source": "epqs", "ffo_ft": 1.0, "source": "OpenStreetMap" }, "geometry": { "type": "Point", "coordinates": [ -74.0314699, 40.7406029 ] } },
{ "type": "Feature", "properties": { "id": "w453063151", "name": "Sara M Glimore Elementary School", "category": "school", "address": "", "ground_elev_ft": 216.77, "elev_source": "epqs", "ffo_ft": 1.0, "source": "OpenStreetMap" }, "geometry": { "type": "Point", "coordinates": [ -74.0404903, 40.7645561 ] } },
{ "type": "Feature", "properties": { "id": "w469268751", "name": "Jose Marti Freshman Academy", "category": "school", "address": "1800 Summit Avenue, Union City", "ground_elev_ft": 219.46, "elev_source": "epqs", "ffo_ft": 1.0, "source": "OpenStreetMap" }, "geometry": { "type": "Point", "coordinates": [ -74.0373283, 40.7661572 ] } },
{ "type": "Feature", "properties": { "id": "w556522242", "name": "Hudson Elementary School", "category": "school", "address": "", "ground_elev_ft": 199.02, "elev_source": "epqs", "ffo_ft": 1.0, "source": "OpenStreetMap" }, "geometry": { "type": "Point", "coordinates": [ -74.0306727, 40.7621029 ] } },
{ "type": "Feature", "properties": { "id": "w578676703", "name": "Veterans' Memorial School", "category": "school", "address": "1401 Central Avenue, Union City", "ground_elev_ft": 232.61, "elev_source": "epqs", "ffo_ft": 1.0, "source": "OpenStreetMap" }, "geometry": { "type": "Point", "coordinates": [ -74.0395553, 40.7624376 ] } },
{ "type": "Feature", "properties": { "id": "w578676728", "name": "Miftaahul Uloom Academy", "category": "school", "address": "501 15th Street, Union City", "ground_elev_ft": 238.42, "elev_source": "epqs", "ffo_ft": 1.0, "source": "OpenStreetMap" }, "geometry": { "type": "Point", "coordinates": [ -74.0368061, 40.7616062 ] } },
{ "type": "Feature", "properties": { "id": "w578676892", "name": "Colin Powell Elementary School", "category": "school", "address": "1500 New York Avenue, Union City", "ground_elev_ft": 225.92, "elev_source": "epqs", "ffo_ft": 1.0, "source": "OpenStreetMap" }, "geometry": { "type": "Point", "coordinates": [ -74.0342409, 40.7612182 ] } },
{ "type": "Feature", "properties": { "id": "w579063584", "name": "Emerson High School", "category": "school", "address": "", "ground_elev_ft": 214.76, "elev_source": "epqs", "ffo_ft": 1.0, "source": "OpenStreetMap" }, "geometry": { "type": "Point", "coordinates": [ -74.0335101, 40.7633625 ] } },
{ "type": "Feature", "properties": { "id": "w579066791", "name": "Mother Seton School", "category": "school", "address": "1501 15th Street, Union City", "ground_elev_ft": 228.05, "elev_source": "epqs", "ffo_ft": 1.0, "source": "OpenStreetMap" }, "geometry": { "type": "Point", "coordinates": [ -74.035286, 40.7615792 ] } },
{ "type": "Feature", "properties": { "id": "w581426168", "name": "Saint Francis Academy", "category": "school", "address": "", "ground_elev_ft": 251.48, "elev_source": "epqs", "ffo_ft": 1.0, "source": "OpenStreetMap" }, "geometry": { "type": "Point", "coordinates": [ -74.0387467, 40.7638522 ] } },
{ "type": "Feature", "properties": { "id": "w583487984", "name": "Thomas A Edision Elementary School", "category": "school", "address": "", "ground_elev_ft": 169.65, "elev_source": "epqs", "ffo_ft": 1.0, "source": "OpenStreetMap" }, "geometry": { "type": "Point", "coordinates": [ -74.0419624, 40.7561305 ] } },
{ "type": "Feature", "properties": { "id": "w601172646", "name": "Charles E. Trefurt School - PS 8", "category": "school", "address": "", "ground_elev_ft": 105.81, "elev_source": "epqs", "ffo_ft": 1.0, "source": "OpenStreetMap" }, "geometry": { "type": "Point", "coordinates": [ -74.0485884, 40.7428889 ] } },
{ "type": "Feature", "properties": { "id": "w469900698", "name": "Christa McAuliffe School - PS 28", "category": "school", "address": "", "ground_elev_ft": 141.31, "elev_source": "epqs", "ffo_ft": 1.0, "source": "OpenStreetMap" }, "geometry": { "type": "Point", "coordinates": [ -74.046307, 40.7480175 ] } },
{ "type": "Feature", "properties": { "id": "w406957187", "name": "Rafael de J. Cordero Elementary School - PS 37", "category": "school", "address": "", "ground_elev_ft": 14.53, "elev_source": "epqs", "ffo_ft": 1.0, "source": "OpenStreetMap" }, "geometry": { "type": "Point", "coordinates": [ -74.0429692, 40.7278304 ] } },
{ "type": "Feature", "properties": { "id": "n357724261", "name": "Kealy School", "category": "school", "address": "", "ground_elev_ft": 4.89, "elev_source": "epqs", "ffo_ft": 1.0, "source": "OpenStreetMap" }, "geometry": { "type": "Point", "coordinates": [ -74.0350708, 40.7428748 ] } },
{ "type": "Feature", "properties": { "id": "n357729866", "name": "Jotham W. Wakeman No. 6. Elementary School", "category": "school", "address": "", "ground_elev_ft": 101.21, "elev_source": "epqs", "ffo_ft": 1.0, "source": "OpenStreetMap" }, "geometry": { "type": "Point", "coordinates": [ -74.0549742, 40.7361513 ] } },
{ "type": "Feature", "properties": { "id": "n357732096", "name": "Yeshiva School", "category": "school", "address": "", "ground_elev_ft": 191.24, "elev_source": "epqs", "ffo_ft": 1.0, "source": "OpenStreetMap" }, "geometry": { "type": "Point", "coordinates": [ -74.0312514, 40.7678791 ] } },
{ "type": "Feature", "properties": { "id": "n357745002", "name": "Saint Paul of the Cross School", "category": "school", "address": "", "ground_elev_ft": 127.4, "elev_source": "epqs", "ffo_ft": 1.0, "source": "OpenStreetMap" }, "geometry": { "type": "Point", "coordinates": [ -74.044863, 40.7478794 ] } },
{ "type": "Feature", "properties": { "id": "n357746581", "name": "Hoboken Catholic Academy", "category": "school", "address": "", "ground_elev_ft": 33.43, "elev_source": "epqs", "ffo_ft": 1.0, "source": "OpenStreetMap" }, "geometry": { "type": "Point", "coordinates": [ -74.0286587, 40.7416006 ] } },
{ "type": "Feature", "properties": { "id": "n6793153516", "name": "Stevens Cooperative School", "category": "school", "address": "", "ground_elev_ft": 17.62, "elev_source": "epqs", "ffo_ft": 1.0, "source": "OpenStreetMap" }, "geometry": { "type": "Point", "coordinates": [ -74.0275376, 40.7406745 ] } },
{ "type": "Feature", "properties": { "id": "n11367696069", "name": "Cresthill Academy Day Care and Preschool", "category": "school", "address": "1300 Sinatra Drive North", "ground_elev_ft": 11.65, "elev_source": "epqs", "ffo_ft": 1.0, "source": "OpenStreetMap" }, "geometry": { "type": "Point", "coordinates": [ -74.0236937, 40.7525949 ] } },
{ "type": "Feature", "properties": { "id": "n11686006787", "name": "New Jersey Coffee School", "category": "school", "address": "720 Monroe Street, Hoboken", "ground_elev_ft": 5.05, "elev_source": "epqs", "ffo_ft": 1.0, "source": "OpenStreetMap" }, "geometry": { "type": "Point", "coordinates": [ -74.0377815, 40.7475399 ] } },
{ "type": "Feature", "properties": { "id": "w396843275", "name": "Saint Nicholas School", "category": "school", "address": "", "ground_elev_ft": 118.67, "elev_source": "epqs", "ffo_ft": 1.0, "source": "OpenStreetMap" }, "geometry": { "type": "Point", "coordinates": [ -74.0510202, 40.7419314 ] } },
{ "type": "Feature", "properties": { "id": "w26807513", "name": "Hoboken High School", "category": "school", "address": "800 Clinton Street, Hoboken", "ground_elev_ft": 7.45, "elev_source": "epqs", "ffo_ft": 1.0, "source": "OpenStreetMap" }, "geometry": { "type": "Point", "coordinates": [ -74.0330972, 40.7475428 ] } },
{ "type": "Feature", "properties": { "id": "w26807517", "name": "Thomas G. Connors Primary School", "category": "school", "address": "201 Monroe Street, Hoboken", "ground_elev_ft": 6.17, "elev_source": "epqs", "ffo_ft": 1.0, "source": "OpenStreetMap" }, "geometry": { "type": "Point", "coordinates": [ -74.03916, 40.7405396 ] } },
{ "type": "Feature", "properties": { "id": "w26809079", "name": "Hoboken Catholic Academy", "category": "school", "address": "555 7th Street, Hoboken", "ground_elev_ft": 5.38, "elev_source": "epqs", "ffo_ft": 1.0, "source": "OpenStreetMap" }, "geometry": { "type": "Point", "coordinates": [ -74.037493, 40.7460758 ] } },
{ "type": "Feature", "properties": { "id": "w26809080", "name": "Jubilee Center", "category": "school", "address": "601-603 Jackson Street, Hoboken", "ground_elev_ft": 4.17, "elev_source": "epqs", "ffo_ft": 1.0, "source": "OpenStreetMap" }, "geometry": { "type": "Point", "coordinates": [ -74.0388724, 40.7453495 ] } },
{ "type": "Feature", "properties": { "id": "w26807521", "name": "Calabro School", "category": "school", "address": "524 Park Avenue, Hoboken", "ground_elev_ft": 0.82, "elev_source": "epqs", "ffo_ft": 1.0, "source": "OpenStreetMap" }, "geometry": { "type": "Point", "coordinates": [ -74.0321793, 40.7437651 ] } },
{ "type": "Feature", "properties": { "id": "w26807519", "name": "Wallace School", "category": "school", "address": "1100 Willow Avenue, Hoboken", "ground_elev_ft": 9.19, "elev_source": "epqs", "ffo_ft": 1.0, "source": "OpenStreetMap" }, "geometry": { "type": "Point", "coordinates": [ -74.0310479, 40.7510431 ] } },
{ "type": "Feature", "properties": { "id": "w26807522", "name": "Joseph F. Brandt Middle School", "category": "school", "address": "215 9th Street, Hoboken", "ground_elev_ft": 8.14, "elev_source": "epqs", "ffo_ft": 1.0, "source": "OpenStreetMap" }, "geometry": { "type": "Point", "coordinates": [ -74.030177, 40.7474504 ] } },
{ "type": "Feature", "properties": { "id": "w26807523", "name": "Unnamed school", "category": "school", "address": "", "ground_elev_ft": 12.43, "elev_source": "epqs", "ffo_ft": 1.0, "source": "OpenStreetMap" }, "geometry": { "type": "Point", "coordinates": [ -74.0309331, 40.741817 ] } },
{ "type": "Feature", "properties": { "id": "w449512601", "name": "Unnamed school", "category": "school", "address": "", "ground_elev_ft": 6.5, "elev_source": "epqs", "ffo_ft": 1.0, "source": "OpenStreetMap" }, "geometry": { "type": "Point", "coordinates": [ -74.0334993, 40.7440225 ] } },
{ "type": "Feature", "properties": { "id": "w376010262", "name": "Unnamed school", "category": "school", "address": "", "ground_elev_ft": 7.38, "elev_source": "epqs", "ffo_ft": 1.0, "source": "OpenStreetMap" }, "geometry": { "type": "Point", "coordinates": [ -74.0314317, 40.7440905 ] } },
{ "type": "Feature", "properties": { "id": "w690615853", "name": "Unnamed school", "category": "school", "address": "", "ground_elev_ft": 16.6, "elev_source": "epqs", "ffo_ft": 1.0, "source": "OpenStreetMap" }, "geometry": { "type": "Point", "coordinates": [ -74.0406926, 40.728416 ] } },
{ "type": "Feature", "properties": { "id": "w409705888", "name": "St. Lucy's Emergency Shelter", "category": "shelter", "address": "612 Grove Street, Jersey City", "ground_elev_ft": 7.22, "elev_source": "epqs", "ffo_ft": 1.0, "source": "OpenStreetMap" }, "geometry": { "type": "Point", "coordinates": [ -74.040717, 40.7326237 ] } }
]
}
