{
"type": "FeatureCollection",
"name": "study_area",
"crs": { "type": "name", "properties": { "name": "urn:ogc:def:crs:OGC:1.3:CRS84" } },
"features": [
{ "type": "Feature", "properties": { "name": "Hoboken study area", "buffer_m": 1000, "muni_area_km2": 5.1, "clipped_to_nj": true }, "geometry": { "type": "Polygon", "coordinates": [ [ [ -74.05561679938728, 40.739105838171248 ], [ -74.055625874664514, 40.739488596554757 ], [ -74.055624914202085, 40.739715597666688 ], [ -74.055624853987283, 40.739727418814908 ], [ -74.055623883070723, 40.739890418846208 ], [ -74.055566929290237, 40.740732903818433 ], [ -74.055406603664224, 40.741567641577042 ], [ -74.05514430857275, 40.742387310664867 ], [ -74.054782340994493, 40.743184721530355 ], [ -74.0543238724823, 40.74395287960801 ], [ -74.054216890508826, 40.74411188927894 ], [ -74.054149709331227, 40.744199652372757 ], [ -74.053949521896925, 40.745001396416235 ], [ -74.053829582221965, 40.745374408816879 ], [ -74.053395677748171, 40.746435359986769 ], [ -74.053347043594187, 40.746532659950802 ], [ -74.05318939035979, 40.746850955637392 ], [ -74.052929236368072, 40.747333379532201 ], [ -74.052666294204329, 40.747783404888388 ], [ -74.052311772068876, 40.748338155992009 ], [ -74.052162352416104, 40.748552931656128 ], [ -74.05204092720976, 40.748727704539142 ], [ -74.051731143965839, 40.749146183168335 ], [ -74.05148629015882, 40.749457246602937 ], [ -74.05125142912091, 40.749756306592566 ], [ -74.051030244922785, 40.750026955823827 ], [ -74.050724275715908, 40.750386982592076 ], [ -74.050714321679848, 40.750398675351157 ], [ -74.050125375975199, 40.751089315191628 ], [ -74.050039885848847, 40.751190525743112 ], [ -74.050033095796323, 40.751203617357135 ], [ -74.049966843747825, 40.751332532091752 ], [ -74.049952595585154, 40.751360122438712 ], [ -74.049754722530849, 40.751741438966029 ], [ -74.049642636060042, 40.751959215733983 ], [ -74.049531628535036, 40.75218655728272 ], [ -74.049170541465614, 40.752926935979765 ], [ -74.049030320404171, 40.753200667433987 ], [ -74.048754738598703, 40.753713738371665 ], [ -74.048641085536502, 40.753926783951826 ], [ -74.048416501256412, 40.754320565926236 ], [ -74.048377402202036, 40.754384878503167 ], [ -74.048021339316264, 40.754974210335291 ], [ -74.047967393740109, 40.75506167455503 ], [ -74.047967444365099, 40.755061692588676 ], [ -74.047259585959793, 40.756210759571864 ], [ -74.047213085319214, 40.756285350903234 ], [ -74.047185324302234, 40.756329359949362 ], [ -74.047079804369503, 40.756500951772622 ], [ -74.045891374949363, 40.758518168155831 ], [ -74.04565196660937, 40.758958187976873 ], [ -74.045602710023942, 40.759047359957606 ], [ -74.045347303788162, 40.759502867302302 ], [ -74.04532482226729, 40.759543083397531 ], [ -74.045103024631004, 40.759999960120425 ], [ -74.044968150774395, 40.760264848511177 ], [ -74.044784197404667, 40.760609866382794 ], [ -74.044206436499707, 40.761537761435065 ], [ -74.043493554398381, 40.762409638565479 ], [ -74.043331567208398, 40.762584652177878 ], [ -74.042659241869558, 40.763243910512003 ], [ -74.042622242267214, 40.763276913472353 ], [ -74.042587293211909, 40.763307944529238 ], [ -74.042439323147576, 40.76343872436761 ], [ -74.042154040142137, 40.763747502583279 ], [ -74.041982547415472, 40.763933640003451 ], [ -74.041336600626124, 40.764571979294821 ], [ -74.040618231987537, 40.765163893263058 ], [ -74.039833184269682, 40.765704648571244 ], [ -74.038987733918844, 40.766189920879 ], [ -74.038088640868295, 40.766615829454139 ], [ -74.03757659848803, 40.76683485452407 ], [ -74.03647490929454, 40.767250406030449 ], [ -74.035322486022793, 40.767576879309182 ], [ -74.034131749783654, 40.767810755438958 ], [ -74.032915535119812, 40.76794951355398 ], [ -74.031686951514658, 40.767991658044934 ], [ -74.030459241920781, 40.767936734696868 ], [ -74.029245639841889, 40.767785335588201 ], [ -74.028511578108507, 40.767632980988708 ], [ -74.028503149826761, 40.767632202951539 ], [ -74.027350234037158, 40.767481537036275 ], [ -74.026222488303318, 40.767245151833457 ], [ -74.02513091090475, 40.766925352787482 ], [ -74.024585574204792, 40.766716517020264 ], [ -74.02425001671017, 40.766742704211438 ], [ -74.023107609972541, 40.766747754764708 ], [ -74.021969876640625, 40.76666911508736 ], [ -74.020847399479649, 40.76650751670406 ], [ -74.020512549265334, 40.766433312924349 ], [ -74.017140241581572, 40.766111877460204 ], [ -74.016787443065823, 40.766074139472792 ], [ -74.012421877443032, 40.765556064704278 ], [ -74.011263570492574, 40.765373122922988 ], [ -74.010135043487409, 40.765103251133674 ], [ -74.009047552936039, 40.764749141322127 ], [ -74.008836986641867, 40.764660733042241 ], [ -74.009525000430742, 40.763718999946946 ], [ -74.00988399955763, 40.763225999842597 ], [ -74.010045999939322, 40.763005999968534 ], [ -74.010136000351025, 40.762881999842321 ], [ -74.010235000085217, 40.762747000111347 ], [ -74.011104999573277, 40.761555999963512 ], [ -74.012009000294825, 40.760317999797657 ], [ -74.012951999577794, 40.759026000026644 ], [ -74.014028999653405, 40.757550999706794 ], [ -74.014248999761449, 40.756656000173244 ], [ -74.015012999842597, 40.753506000164087 ], [ -74.015504999937178, 40.751483000131515 ], [ -74.01601299992528, 40.749395999955219 ], [ -74.016606000302218, 40.746961999666134 ], [ -74.017283000344733, 40.744180000175099 ], [ -74.017344000444098, 40.743929000181076 ], [ -74.017397999972459, 40.743705999671022 ], [ -74.017886999693999, 40.741696000069084 ], [ -74.018136000114353, 40.740666999660462 ], [ -74.018398999880077, 40.739593999794927 ], [ -74.019183999877626, 40.736365999969287 ], [ -74.019321000144984, 40.735807000054884 ], [ -74.019426999551868, 40.735368999697918 ], [ -74.019607000375274, 40.734630000333645 ], [ -74.020061999761609, 40.732759000286606 ], [ -74.020387000349928, 40.731425000182284 ], [ -74.020639000245012, 40.730391000205223 ], [ -74.020968000132967, 40.729036999942814 ], [ -74.020999999920022, 40.728905000303612 ], [ -74.021020000011518, 40.728830000206266 ], [ -74.021311000264646, 40.727623999858977 ], [ -74.021332000181033, 40.727543000124328 ], [ -74.021352000272543, 40.727462000291077 ], [ -74.021831999773241, 40.725486999777203 ], [ -74.02186199991047, 40.725362999800794 ], [ -74.02189000039786, 40.725250999799208 ], [ -74.02200300037579, 40.724782999698384 ], [ -74.022288999707726, 40.723610000071261 ], [ -74.022698999786556, 40.721922999818361 ], [ -74.022793452599188, 40.721535749764861 ], [ -74.023859185996713, 40.721722618338049 ], [ -74.024956533906547, 40.722003295854257 ], [ -74.027208842626024, 40.722674266177634 ], [ -74.03382914921194, 40.72464801300886 ], [ -74.03499118089232, 40.725050662392135 ], [ -74.036089478466479, 40.725546159405781 ], [ -74.037111271651128, 40.726128743481354 ], [ -74.037580711745534, 40.726427779081781 ], [ -74.03763406961879, 40.726442892784824 ], [ -74.037983104089719, 40.726541488246738 ], [ -74.038009961715133, 40.726549103101036 ], [ -74.038635446430035, 40.726727098697964 ], [ -74.039371745678778, 40.726936226631665 ], [ -74.039818485172688, 40.727061424445722 ], [ -74.039845481080647, 40.727069018283522 ], [ -74.03993047232079, 40.727093015286279 ], [ -74.039952111074953, 40.727099143173795 ], [ -74.040173798571502, 40.727162109935051 ], [ -74.04045945830326, 40.727123964962743 ], [ -74.040635384449303, 40.727098832180261 ], [ -74.041806238223984, 40.72697720201441 ], [ -74.042987195618551, 40.726944951647646 ], [ -74.044166498670791, 40.727002402228791 ], [ -74.045332405855746, 40.727148981812611 ], [ -74.046473308848647, 40.727383231045472 ], [ -74.04757784796999, 40.727702817676189 ], [ -74.048635025170043, 40.728104559748587 ], [ -74.049634313434012, 40.728584457246065 ], [ -74.050565761523288, 40.729137731875255 ], [ -74.051420093014329, 40.729758874594417 ], [ -74.052188798651542, 40.730441700416051 ], [ -74.052864221096172, 40.731179409940395 ], [ -74.053439631227278, 40.731964657009897 ], [ -74.053909295233581, 40.732789621813495 ], [ -74.053946285813453, 40.732877813228271 ], [ -74.054120416553417, 40.733083514625172 ], [ -74.05463440899554, 40.733838852684968 ], [ -74.055052468528416, 40.734627697977601 ], [ -74.055370865140034, 40.735443018817385 ], [ -74.055586756868365, 40.736277547256122 ], [ -74.055698215258829, 40.73712384385022 ], [ -74.055704242689814, 40.737974363965677 ], [ -74.055604781407112, 40.738821525030801 ], [ -74.055602575345674, 40.738830565390984 ], [ -74.05561679938728, 40.739105838171248 ] ] ] } }
]
}
