{
"type": "FeatureCollection",
"name": "assets",
"crs": { "type": "name", "properties": { "name": "urn:ogc:def:crs:OGC:1.3:CRS84" } },
"features": [
{ "type": "Feature", "properties": { "id": "w882603020", "name": "Alexander F. Jankowski Community Center", "category": "community", "address": "", "ground_elev_ft": 34.71, "elev_source": "epqs", "ffo_ft": 1.0, "source": "OpenStreetMap" }, "geometry": { "type": "Point", "coordinates": [ -74.278658, 40.508993 ] } },
{ "type": "Feature", "properties": { "id": "w362694585", "name": "Brighton Avenue Community Center", "category": "community", "address": "56 Brighton Avenue, Perth Amboy", "ground_elev_ft": 15.09, "elev_source": "epqs", "ffo_ft": 1.0, "source": "OpenStreetMap" }, "geometry": { "type": "Point", "coordinates": [ -74.272846, 40.500598 ] } },
{ "type": "Feature", "properties": { "id": "w617511297", "name": "Unnamed community", "category": "community", "address": "", "ground_elev_ft": 42.49, "elev_source": "epqs", "ffo_ft": 1.0, "source": "OpenStreetMap" }, "geometry": { "type": "Point", "coordinates": [ -74.281145, 40.540369 ] } },
{ "type": "Feature", "properties": { "id": "w341258226", "name": "Perth Amboy Fire Department", "category": "fire", "address": "", "ground_elev_ft": 67.22, "elev_source": "epqs", "ffo_ft": 1.0, "source": "OpenStreetMap" }, "geometry": { "type": "Point", "coordinates": [ -74.279407, 40.515474 ] } },
{ "type": "Feature", "properties": { "id": "n367684460", "name": "McClellan Engine Company Number 3 (historical)", "category": "fire", "address": "", "ground_elev_ft": 32.05, "elev_source": "epqs", "ffo_ft": 1.0, "source": "OpenStreetMap" }, "geometry": { "type": "Point", "coordinates": [ -74.263905, 40.517039 ] } },
{ "type": "Feature", "properties": { "id": "n367684181", "name": "Garfield Engine Company Number 5", "category": "fire", "address": "", "ground_elev_ft": 108.3, "elev_source": "epqs", "ffo_ft": 1.0, "source": "OpenStreetMap" }, "geometry": { "type": "Point", "coordinates": [ -74.276257, 40.521494 ] } },
{ "type": "Feature", "properties": { "id": "n367684173", "name": "Liberty Truck Company Number 2", "category": "fire", "address": "", "ground_elev_ft": 33.92, "elev_source": "epqs", "ffo_ft": 1.0, "source": "OpenStreetMap" }, "geometry": { "type": "Point", "coordinates": [ -74.262923, 40.521772 ] } },
{ "type": "Feature", "properties": { "id": "n367681776", "name": "Eagle Hose and Chemical Company Number 4", "category": "fire", "address": "", "ground_elev_ft": 39.9, "elev_source": "epqs", "ffo_ft": 1.0, "source": "OpenStreetMap" }, "geometry": { "type": "Point", "coordinates": [ -74.278479, 40.510105 ] } },
{ "type": "Feature", "properties": { "id": "w484641349", "name": "Raritan Bay Medical Center", "category": "hospital", "address": "530 New Brunswick Avenue, Perth Amboy", "ground_elev_ft": 98.49, "elev_source": "epqs", "ffo_ft": 1.0, "source": "OpenStreetMap" }, "geometry": { "type": "Point", "coordinates": [ -74.281223, 40.519108 ] } },
{ "type": "Feature", "properties": { "id": "w262966544", "name": "Perth Amboy Public Library", "category": "library", "address": "196 Jefferson Street, Perth Amboy", "ground_elev_ft": 42.65, "elev_source": "epqs", "ffo_ft": 1.0, "source": "OpenStreetMap" }, "geometry": { "type": "Point", "coordinates": [ -74.270603, 40.510524 ] } },
{ "type": "Feature", "properties": { "id": "w1186240357", "name": "Perth Amboy Office of Recreation", "category": "municipal", "address": "215 Elm Street, Perth Amboy", "ground_elev_ft": 23.46, "elev_source": "epqs", "ffo_ft": 1.0, "source": "OpenStreetMap" }, "geometry": { "type": "Point", "coordinates": [ -74.276652, 40.504437 ] } },
{ "type": "Feature", "properties": { "id": "w370807442", "name": "Perth Amboy City Hall", "category": "municipal", "address": "260 High Street, Perth Amboy", "ground_elev_ft": 53.81, "elev_source": "epqs", "ffo_ft": 1.0, "source": "OpenStreetMap" }, "geometry": { "type": "Point", "coordinates": [ -74.265254, 40.506376 ] } },
{ "type": "Feature", "properties": { "id": "w204193631", "name": "Unnamed municipal", "category": "municipal", "address": "361 New Brunswick Avenue, Perth Amboy", "ground_elev_ft": 61.52, "elev_source": "epqs", "ffo_ft": 1.0, "source": "OpenStreetMap" }, "geometry": { "type": "Point", "coordinates": [ -74.276801, 40.514914 ] } },
{ "type": "Feature", "properties": { "id": "n1928470655", "name": "Perth Amboy Police Station", "category": "police", "address": "", "ground_elev_ft": 68.27, "elev_source": "epqs", "ffo_ft": 1.0, "source": "OpenStreetMap" }, "geometry": { "type": "Point", "coordinates": [ -74.276859, 40.514943 ] } },
{ "type": "Feature", "properties": { "id": "n357729044", "name": "Saint Marys Early Childhood Center School", "category": "school", "address": "", "ground_elev_ft": 39.86, "elev_source": "epqs", "ffo_ft": 1.0, "source": "OpenStreetMap" }, "geometry": { "type": "Point", "coordinates": [ -74.265634, 40.510429 ] } },
{ "type": "Feature", "properties": { "id": "r5396450", "name": "Robert N. Willentz Elementary School", "category": "school", "address": "51 First Street, Perth Amboy", "ground_elev_ft": 20.11, "elev_source": "epqs", "ffo_ft": 1.0, "source": "OpenStreetMap" }, "geometry": { "type": "Point", "coordinates": [ -74.275696, 40.502125 ] } },
{ "type": "Feature", "properties": { "id": "r4846680", "name": "Dr. Herbert N. Richardson 21st Century Elementary School", "category": "school", "address": "318 Stockton Street, Perth Amboy", "ground_elev_ft": 56.23, "elev_source": "epqs", "ffo_ft": 1.0, "source": "OpenStreetMap" }, "geometry": { "type": "Point", "coordinates": [ -74.277519, 40.512421 ] } },
{ "type": "Feature", "properties": { "id": "w1184521039", "name": "Woodbridge Vocational Technical High School", "category": "school", "address": "", "ground_elev_ft": 29.69, "elev_source": "epqs", "ffo_ft": 1.0, "source": "OpenStreetMap" }, "geometry": { "type": "Point", "coordinates": [ -74.278545, 40.540615 ] } },
{ "type": "Feature", "properties": { "id": "w980615291", "name": "Rose M. Lopez Elementary School", "category": "school", "address": "", "ground_elev_ft": 71.29, "elev_source": "epqs", "ffo_ft": 1.0, "source": "OpenStreetMap" }, "geometry": { "type": "Point", "coordinates": [ -74.279257, 40.51611 ] } },
{ "type": "Feature", "properties": { "id": "w980614380", "name": "James J. Flynn Elementary School", "category": "school", "address": "", "ground_elev_ft": 98.39, "elev_source": "epqs", "ffo_ft": 1.0, "source": "OpenStreetMap" }, "geometry": { "type": "Point", "coordinates": [ -74.284976, 40.533498 ] } },
{ "type": "Feature", "properties": { "id": "w459877243", "name": "Perth Amboy Adult High School", "category": "school", "address": "178 Barracks Street, Perth Amboy", "ground_elev_ft": 57.87, "elev_source": "epqs", "ffo_ft": 1.0, "source": "OpenStreetMap" }, "geometry": { "type": "Point", "coordinates": [ -74.268619, 40.512616 ] } },
{ "type": "Feature", "properties": { "id": "w445125867", "name": "Edward J. Patten Elementary School", "category": "school", "address": "500 Charles Street, Perth Amboy", "ground_elev_ft": 50.07, "elev_source": "epqs", "ffo_ft": 1.0, "source": "OpenStreetMap" }, "geometry": { "type": "Point", "coordinates": [ -74.266855, 40.517413 ] } },
{ "type": "Feature", "properties": { "id": "r5651466", "name": "Perth Amboy Technical High School", "category": "school", "address": "457 High Street, Perth Amboy", "ground_elev_ft": 34.12, "elev_source": "epqs", "ffo_ft": 1.0, "source": "OpenStreetMap" }, "geometry": { "type": "Point", "coordinates": [ -74.262762, 40.51415 ] } },
{ "type": "Feature", "properties": { "id": "r13899329", "name": "Ukrainian Catholic Church of the Assumption School", "category": "school", "address": "", "ground_elev_ft": 80.09, "elev_source": "epqs", "ffo_ft": 1.0, "source": "OpenStreetMap" }, "geometry": { "type": "Point", "coordinates": [ -74.273291, 40.522784 ] } },
{ "type": "Feature", "properties": { "id": "n357751087", "name": "Cathedral Preparatory Academy", "category": "school", "address": "", "ground_elev_ft": 41.6, "elev_source": "epqs", "ffo_ft": 1.0, "source": "OpenStreetMap" }, "geometry": { "type": "Point", "coordinates": [ -74.27174, 40.50942 ] } },
{ "type": "Feature", "properties": { "id": "n357748881", "name": "Perth Amboy Catholic Middle School", "category": "school", "address": "", "ground_elev_ft": 56.33, "elev_source": "epqs", "ffo_ft": 1.0, "source": "OpenStreetMap" }, "geometry": { "type": "Point", "coordinates": [ -74.26738, 40.52153 ] } },
{ "type": "Feature", "properties": { "id": "n357729623", "name": "Anthony V Ceres Elementary School", "category": "school", "address": "445 State Street, Perth Amboy", "ground_elev_ft": 47.97, "elev_source": "epqs", "ffo_ft": 1.0, "source": "OpenStreetMap" }, "geometry": { "type": "Point", "coordinates": [ -74.26583, 40.51431 ] } },
{ "type": "Feature", "properties": { "id": "n357729883", "name": "Number 7 Elementary School", "category": "school", "address": "", "ground_elev_ft": 32.41, "elev_source": "epqs", "ffo_ft": 1.0, "source": "OpenStreetMap" }, "geometry": { "type": "Point", "coordinates": [ -74.271535, 40.504272 ] } },
{ "type": "Feature", "properties": { "id": "n357737971", "name": "Most Holy Rosary School", "category": "school", "address": "", "ground_elev_ft": 64.34, "elev_source": "epqs", "ffo_ft": 1.0, "source": "OpenStreetMap" }, "geometry": { "type": "Point", "coordinates": [ -74.272368, 40.516216 ] } },
{ "type": "Feature", "properties": { "id": "n357737964", "name": "Perth Amboy Catholic Primary School", "category": "school", "address": "", "ground_elev_ft": 121.49, "elev_source": "epqs", "ffo_ft": 1.0, "source": "OpenStreetMap" }, "geometry": { "type": "Point", "coordinates": [ -74.287644, 40.524965 ] } },
{ "type": "Feature", "properties": { "id": "n357737804", "name": "Our Lady of Peace Elementary School", "category": "school", "address": "", "ground_elev_ft": 117.06, "elev_source": "epqs", "ffo_ft": 1.0, "source": "OpenStreetMap" }, "geometry": { "type": "Point", "coordinates": [ -74.275424, 40.521216 ] } },
{ "type": "Feature", "properties": { "id": "n357737757", "name": "Perth Amboy Catholic Intermediate School", "category": "school", "address": "", "ground_elev_ft": 33.1, "elev_source": "epqs", "ffo_ft": 1.0, "source": "OpenStreetMap" }, "geometry": { "type": "Point", "coordinates": [ -74.263887, 40.515559 ] } },
{ "type": "Feature", "properties": { "id": "n357737539", "name": "William C McGinnis Middle School", "category": "school", "address": "", "ground_elev_ft": 55.45, "elev_source": "epqs", "ffo_ft": 1.0, "source": "OpenStreetMap" }, "geometry": { "type": "Point", "coordinates": [ -74.26884, 40.50787 ] } },
{ "type": "Feature", "properties": { "id": "n357737981", "name": "Unnamed school", "category": "school", "address": "", "ground_elev_ft": 54.66, "elev_source": "epqs", "ffo_ft": 1.0, "source": "OpenStreetMap" }, "geometry": { "type": "Point", "coordinates": [ -74.267342, 40.512782 ] } }
]
}
