{
"type": "FeatureCollection",
"name": "boundary",
"crs": { "type": "name", "properties": { "name": "urn:ogc:def:crs:OGC:1.3:CRS84" } },
"features": [
{ "type": "Feature", "properties": { "name": "Jersey City", "geoid": "3401736000" }, "geometry": { "type": "Polygon", "coordinates": [ [ [ -74.11690400041374, 40.710477000053409 ], [ -74.117056999676308, 40.710381000189848 ], [ -74.116514000426406, 40.709454000131593 ], [ -74.115969999554963, 40.708527000106628 ], [ -74.114703000406891, 40.706368000097932 ], [ -74.113436000360494, 40.704207999848322 ], [ -74.112786999907073, 40.703102000003305 ], [ -74.113337999552897, 40.702476999719607 ], [ -74.114286999581978, 40.701402000195976 ], [ -74.11455899956853, 40.701071999807631 ], [ -74.114231000403791, 40.700944000269445 ], [ -74.113487000414125, 40.70058300018831 ], [ -74.112365000132684, 40.700039000034195 ], [ -74.111170999881224, 40.699459999734358 ], [ -74.109995000071407, 40.698889999992872 ], [ -74.108892999881462, 40.698354999848732 ], [ -74.10798499986025, 40.697914000150362 ], [ -74.107962000294037, 40.697903000268852 ], [ -74.107936000354769, 40.697890999900693 ], [ -74.1076569997972, 40.697754999890591 ], [ -74.107640999903666, 40.69774700008162 ], [ -74.107563999910781, 40.697709999760967 ], [ -74.106579999721589, 40.697231999974143 ], [ -74.106487999660104, 40.69718799998666 ], [ -74.106311000108079, 40.697102000236804 ], [ -74.105680999921233, 40.696796999935835 ], [ -74.105187000176826, 40.696558000260488 ], [ -74.103583999671443, 40.695779000191614 ], [ -74.10285099955243, 40.695423999770618 ], [ -74.102848999902605, 40.695359999714086 ], [ -74.102838999856857, 40.695283000277641 ], [ -74.102827000161312, 40.69523100025404 ], [ -74.102797000024069, 40.695130000301837 ], [ -74.102765000237014, 40.695056000138507 ], [ -74.102572999718092, 40.694766999661297 ], [ -74.102311999602165, 40.694373000135137 ], [ -74.102121999631379, 40.694084999961689 ], [ -74.101986000087265, 40.693877999834299 ], [ -74.101582999681128, 40.693277999740459 ], [ -74.101535999825444, 40.693190999836787 ], [ -74.101448999786825, 40.693058999953998 ], [ -74.101187999670913, 40.692636999750647 ], [ -74.101134000142551, 40.692523999980139 ], [ -74.101089999761626, 40.69240699979283 ], [ -74.101068000020305, 40.692327999893621 ], [ -74.101049999578649, 40.692236999876357 ], [ -74.101044999555768, 40.692135000263214 ], [ -74.101139999990338, 40.69190400004122 ], [ -74.101231000226946, 40.691709999967287 ], [ -74.101321999565215, 40.691595000190496 ], [ -74.101394000433558, 40.69151300031136 ], [ -74.101504999863323, 40.691383000312761 ], [ -74.101566999787579, 40.691311999782044 ], [ -74.101895999675577, 40.690975999688398 ], [ -74.101914000117233, 40.690957999988299 ], [ -74.101996000132999, 40.690874000188316 ], [ -74.102017999874306, 40.690772999761542 ], [ -74.102027999920054, 40.690713000332444 ], [ -74.102028999744959, 40.690701000031481 ], [ -74.102032000118015, 40.690669000126491 ], [ -74.102032999942907, 40.690659000323279 ], [ -74.102037000140868, 40.69059700028405 ], [ -74.102037000140868, 40.690584999962191 ], [ -74.102037000140868, 40.690531999763451 ], [ -74.102034999592732, 40.690479000203773 ], [ -74.102027999920054, 40.690415000165203 ], [ -74.102027000095134, 40.690403999726655 ], [ -74.102025000445309, 40.690391000134866 ], [ -74.102022999897173, 40.690373000276743 ], [ -74.102007999828558, 40.690292000173862 ], [ -74.101987999737077, 40.690210999972514 ], [ -74.101985000262346, 40.69019900026229 ], [ -74.101979000414559, 40.690179999751713 ], [ -74.101955999950022, 40.690112999664578 ], [ -74.10193800040669, 40.690068999743538 ], [ -74.101885999629815, 40.689979999891897 ], [ -74.101822000055719, 40.689870000155878 ], [ -74.1017290001693, 40.689707999991107 ], [ -74.101638999757611, 40.689554000226146 ], [ -74.10157099998554, 40.689418000226247 ], [ -74.101478999924041, 40.689227000208504 ], [ -74.101447999961906, 40.689163000329785 ], [ -74.101348000402808, 40.688956999834389 ], [ -74.101077000241148, 40.688400000127238 ], [ -74.101001999898088, 40.688219000087194 ], [ -74.100936999600748, 40.688057999947041 ], [ -74.100682000230933, 40.687557999938647 ], [ -74.100257000083502, 40.686722999810122 ], [ -74.099914999776743, 40.68607600022662 ], [ -74.099821000065404, 40.68590499984213 ], [ -74.099794000301216, 40.685771999845223 ], [ -74.099759999966039, 40.68562299977927 ], [ -74.099460000390394, 40.684407000060716 ], [ -74.099352000435346, 40.683972000079244 ], [ -74.099297000183768, 40.683816999986995 ], [ -74.09906700002999, 40.683199000149237 ], [ -74.099029000395149, 40.683097999670672 ], [ -74.098968000295784, 40.682934000017667 ], [ -74.098896000325752, 40.682739999716084 ], [ -74.098850000295002, 40.682616999864457 ], [ -74.098834000401496, 40.682573999796297 ], [ -74.098789000195637, 40.682452999709191 ], [ -74.098685000438579, 40.68217300010658 ], [ -74.098384000139689, 40.681368000147039 ], [ -74.098378000291902, 40.681350999947405 ], [ -74.098311000344751, 40.681174000056146 ], [ -74.098281000207535, 40.681092999672046 ], [ -74.098258999567904, 40.681034999815886 ], [ -74.09821400026037, 40.680913000282644 ], [ -74.098170999704365, 40.680798000266932 ], [ -74.098128999871577, 40.680685000176659 ], [ -74.097399000125591, 40.680376000079157 ], [ -74.095848000397069, 40.679716999958686 ], [ -74.095225999707836, 40.679454999849966 ], [ -74.094837000443718, 40.679294000338373 ], [ -74.094345000349136, 40.679082000159966 ], [ -74.093622000275843, 40.678767000262859 ], [ -74.091928000432191, 40.678032999812189 ], [ -74.089869999642133, 40.677139000301807 ], [ -74.089669999625613, 40.677068000265017 ], [ -74.089503999944256, 40.677009000196044 ], [ -74.089291000407229, 40.676934000229373 ], [ -74.089207999668247, 40.676898000051906 ], [ -74.089047000009771, 40.67683100023757 ], [ -74.088799000312648, 40.676726999965297 ], [ -74.0884150001731, 40.676565999996782 ], [ -74.087650000267033, 40.676244999703243 ], [ -74.085542999971494, 40.675362000258907 ], [ -74.081453999952217, 40.673647000057258 ], [ -74.078830000346045, 40.672546000024923 ], [ -74.076513999813145, 40.67157500026179 ], [ -74.065894999568201, 40.6671079998235 ], [ -74.065860000306415, 40.667089000225488 ], [ -74.065713999818243, 40.667032000036073 ], [ -74.065768000244915, 40.666949999917222 ], [ -74.065825999971224, 40.666880999788951 ], [ -74.049630999552591, 40.66163400021707 ], [ -74.048976000149707, 40.662718000337911 ], [ -74.048248000053547, 40.663922999745743 ], [ -74.047955999975514, 40.664406999749332 ], [ -74.047689000011815, 40.664849000029427 ], [ -74.047331999636427, 40.665439999964825 ], [ -74.045970999878719, 40.667694000260987 ], [ -74.045848999679976, 40.667894999792466 ], [ -74.043518999801677, 40.671754000140965 ], [ -74.04345100002962, 40.671866999699276 ], [ -74.042768999964238, 40.672996000242982 ], [ -74.037460999579139, 40.681783999913215 ], [ -74.035790000199995, 40.684550000097019 ], [ -74.035442999870384, 40.685124999884728 ], [ -74.03355300020813, 40.688257000177757 ], [ -74.026390000320887, 40.700102999681974 ], [ -74.026152999596093, 40.701649000221657 ], [ -74.02567599957014, 40.704763999816919 ], [ -74.025293999978715, 40.707261999763894 ], [ -74.025126999574127, 40.708342999965438 ], [ -74.024951999671956, 40.709474000222784 ], [ -74.024678999860484, 40.711269000116069 ], [ -74.02439699982817, 40.713110999767878 ], [ -74.024271000329804, 40.713939999998999 ], [ -74.02413099968939, 40.714843000173616 ], [ -74.023980999901568, 40.715839000010284 ], [ -74.023636999944983, 40.718069000016641 ], [ -74.023066000207677, 40.720414000139009 ], [ -74.023019000352008, 40.720611000108534 ], [ -74.022698999786556, 40.721922999818354 ], [ -74.022288999707726, 40.723610000071254 ], [ -74.02200300037579, 40.724782999698384 ], [ -74.02189000039786, 40.725250999799208 ], [ -74.02186199991047, 40.725362999800801 ], [ -74.021831999773241, 40.72548699977721 ], [ -74.021352000272543, 40.727462000291091 ], [ -74.021332000181033, 40.727543000124335 ], [ -74.021311000264646, 40.727623999858984 ], [ -74.021020000011518, 40.728830000206273 ], [ -74.020999999920022, 40.728905000303605 ], [ -74.020968000132967, 40.729036999942828 ], [ -74.020639000245012, 40.730391000205223 ], [ -74.02288799993245, 40.731060999970246 ], [ -74.029509000394697, 40.733034999832611 ], [ -74.030038000299214, 40.733372000083705 ], [ -74.03030400043798, 40.733562000175716 ], [ -74.030525000370929, 40.733683000008867 ], [ -74.030506999929258, 40.733721000029163 ], [ -74.029295000134439, 40.73362199980545 ], [ -74.029270000020091, 40.733677000326082 ], [ -74.030810999702879, 40.73411500025049 ], [ -74.031040000031737, 40.734189999836516 ], [ -74.031686000112103, 40.734366999776832 ], [ -74.031784000021403, 40.734395000043435 ], [ -74.032496000224015, 40.73459799975204 ], [ -74.033273999650547, 40.734820000236603 ], [ -74.033507000177366, 40.734885999667455 ], [ -74.033861000179712, 40.734985999979926 ], [ -74.034489999643341, 40.73516499969422 ], [ -74.035253999724489, 40.735382000040659 ], [ -74.035724999902683, 40.73551399976396 ], [ -74.035810000291505, 40.735537999871141 ], [ -74.03683100029059, 40.735828000311948 ], [ -74.036920999803968, 40.735854000134779 ], [ -74.03719399961544, 40.735931000309797 ], [ -74.037463000127261, 40.736006999802825 ], [ -74.038571999989912, 40.736321999973391 ], [ -74.038596000279355, 40.736321999973391 ], [ -74.038607000150023, 40.736245000250968 ], [ -74.038705999884215, 40.736261000147564 ], [ -74.038782000052208, 40.736271999819039 ], [ -74.039143999552138, 40.736306000091453 ], [ -74.039412000239054, 40.736364000155717 ], [ -74.039607000232721, 40.736404999724698 ], [ -74.039977999953493, 40.736350000097886 ], [ -74.040209999757082, 40.736315999847953 ], [ -74.040437000436114, 40.736290000205628 ], [ -74.040650999798032, 40.736261000147564 ], [ -74.041901999950923, 40.736076999742735 ], [ -74.042575999620382, 40.73598700019545 ], [ -74.04282099984276, 40.735951999846989 ], [ -74.042815999819894, 40.73603599997162 ], [ -74.042814999994988, 40.736064000216494 ], [ -74.042809000147201, 40.73617499980714 ], [ -74.042808000322282, 40.736189999811195 ], [ -74.042814999994988, 40.736219999809208 ], [ -74.042825000040722, 40.736265999689088 ], [ -74.042854000353046, 40.736401000099889 ], [ -74.042741000375131, 40.736603999813731 ], [ -74.042809000147201, 40.736663000201155 ], [ -74.042885000315181, 40.736729999747062 ], [ -74.043871999979103, 40.737596999721362 ], [ -74.043800999833991, 40.737717999703264 ], [ -74.043779999917589, 40.737753999689126 ], [ -74.043763000199149, 40.737796000328728 ], [ -74.043708999772477, 40.737911999850596 ], [ -74.043558000159749, 40.738170999807437 ], [ -74.043374999861626, 40.73847699970532 ], [ -74.043419000242565, 40.738501000104904 ], [ -74.043498999710195, 40.738556999869139 ], [ -74.043558000159749, 40.738599000001742 ], [ -74.043629000304847, 40.738694000138963 ], [ -74.043699999551635, 40.738788000270134 ], [ -74.043752000328482, 40.738857000137102 ], [ -74.043783000290645, 40.739458999737977 ], [ -74.043781999567415, 40.739686000301944 ], [ -74.043780999742509, 40.739848999911267 ], [ -74.043673999612395, 40.740007999713228 ], [ -74.043593000319845, 40.740068000335917 ], [ -74.043473999595832, 40.740156000107682 ], [ -74.043348000097453, 40.74047799996633 ], [ -74.043280000325382, 40.740560999977383 ], [ -74.043205999807242, 40.740639999834279 ], [ -74.043141000408227, 40.740700999728531 ], [ -74.04304099995079, 40.740789999864411 ], [ -74.04294999971421, 40.740858999696599 ], [ -74.042854000353046, 40.74092400010435 ], [ -74.042687999773364, 40.741026999698974 ], [ -74.042543999833327, 40.741116999914624 ], [ -74.04241199958885, 40.741199999808906 ], [ -74.042373999954023, 40.741219000057185 ], [ -74.042291999938243, 40.741271000243124 ], [ -74.042445000099136, 40.742861000256575 ], [ -74.042325000448542, 40.743234000160193 ], [ -74.04227000019695, 40.743344000235929 ], [ -74.042106000165418, 40.743674999849212 ], [ -74.04184300039968, 40.744125000170662 ], [ -74.041691999888627, 40.744341999874315 ], [ -74.041568999864992, 40.744519000027232 ], [ -74.041321000167869, 40.7448340000456 ], [ -74.041082999618169, 40.74513699991293 ], [ -74.040777000194737, 40.745497000258688 ], [ -74.040173999772065, 40.746204000281708 ], [ -74.039875000021325, 40.746545999967509 ], [ -74.039834000013457, 40.746600000258567 ], [ -74.039782000134906, 40.746667999756134 ], [ -74.039551000156237, 40.746968000192439 ], [ -74.039201000351866, 40.747538999822048 ], [ -74.039008000007996, 40.747911000298345 ], [ -74.038935000213073, 40.748052999693542 ], [ -74.038730999998577, 40.748445999692962 ], [ -74.038575000362968, 40.748749000117378 ], [ -74.038427000224956, 40.749051999841683 ], [ -74.038064999826716, 40.749794000069862 ], [ -74.037783999619322, 40.750317000201299 ], [ -74.038768999633405, 40.750888000337113 ], [ -74.038780000402369, 40.750921999943827 ], [ -74.038804999618421, 40.750993999894227 ], [ -74.03952699986678, 40.751250999903647 ], [ -74.039612000255602, 40.751282000277257 ], [ -74.04048799959142, 40.751606000067703 ], [ -74.040926999982574, 40.751768999726622 ], [ -74.041377000244353, 40.751939000097487 ], [ -74.042011999555783, 40.752177999691646 ], [ -74.042147000173287, 40.752248000307027 ], [ -74.042261999801042, 40.752328000239551 ], [ -74.042373000129103, 40.752416000122246 ], [ -74.042444000274216, 40.752501000215389 ], [ -74.042522000092035, 40.752618999956447 ], [ -74.042577000343599, 40.752743000173737 ], [ -74.042624000199268, 40.752901000115543 ], [ -74.0429299996227, 40.753980000228616 ], [ -74.042947000239465, 40.754039999814907 ], [ -74.043199999959441, 40.754936000170034 ], [ -74.043354999770159, 40.755496000214208 ], [ -74.043393000303297, 40.755637000126022 ], [ -74.043424000265446, 40.755750999922924 ], [ -74.043650000221248, 40.756586000116066 ], [ -74.044836999901705, 40.757021999699965 ], [ -74.045514999769125, 40.757274999814243 ], [ -74.045821000090882, 40.75738400020947 ], [ -74.048921999723021, 40.758441999778626 ], [ -74.049229999694603, 40.758601000038666 ], [ -74.049278000273489, 40.758634999783887 ], [ -74.049342999672518, 40.758761000168931 ], [ -74.04947300026717, 40.759026000026658 ], [ -74.049617000207206, 40.75924999975777 ], [ -74.049688000352319, 40.75935900031682 ], [ -74.049888000368853, 40.759591999707737 ], [ -74.050066999570674, 40.759692999855766 ], [ -74.050288000401935, 40.759818000042102 ], [ -74.050833000199958, 40.760046000070496 ], [ -74.051053000308002, 40.76014700020918 ], [ -74.051136000148688, 40.760185000080121 ], [ -74.051747999893863, 40.760477000333417 ], [ -74.051861999696683, 40.760529999973876 ], [ -74.051875999940378, 40.7605529996763 ], [ -74.051908999552353, 40.760607999701655 ], [ -74.051938999689568, 40.760657999932619 ], [ -74.052058000413595, 40.76085700026146 ], [ -74.052076999781832, 40.760889999995122 ], [ -74.052102999721114, 40.760932999850311 ], [ -74.053738999838444, 40.763667999800717 ], [ -74.054015000022972, 40.764129000047291 ], [ -74.054091000190965, 40.764247000241355 ], [ -74.05528700009225, 40.76623400016279 ], [ -74.056604000367358, 40.76839600019558 ], [ -74.056894999722175, 40.768866999926864 ], [ -74.056969000240329, 40.768987000065799 ], [ -74.057028999616463, 40.768911000161701 ], [ -74.057088999890937, 40.768835000170704 ], [ -74.05755599987117, 40.768058999835517 ], [ -74.05791900009433, 40.767445999965027 ], [ -74.058002999759907, 40.767323000080133 ], [ -74.058150000073013, 40.767127999879037 ], [ -74.058511999572929, 40.766707999962257 ], [ -74.058700999718809, 40.766607999720414 ], [ -74.058849999681726, 40.766544000058175 ], [ -74.058980000276392, 40.76649500030701 ], [ -74.059099999926985, 40.766435999850508 ], [ -74.059120000018495, 40.766423000134964 ], [ -74.059597000044462, 40.766112000215635 ], [ -74.059674000037361, 40.766049000216583 ], [ -74.059746000007365, 40.765982000270874 ], [ -74.059883000274723, 40.765845999888988 ], [ -74.059980000359104, 40.765722999764236 ], [ -74.060007000123292, 40.76564799967597 ], [ -74.060012999971065, 40.765610000206735 ], [ -74.060013999795956, 40.765541000201864 ], [ -74.060006000298372, 40.765405000278278 ], [ -74.059993999704488, 40.765274000158755 ], [ -74.059959000442703, 40.765086999951045 ], [ -74.059941000001032, 40.765007999879877 ], [ -74.059874000053881, 40.764813999849203 ], [ -74.059829999672957, 40.764702999748778 ], [ -74.059689999930868, 40.764374999846012 ], [ -74.059648999922985, 40.764246000073371 ], [ -74.059638000052345, 40.76417800018212 ], [ -74.059633999854384, 40.764137000044023 ], [ -74.059628000006597, 40.763991999783997 ], [ -74.059637000227426, 40.763933999999672 ], [ -74.059648000098079, 40.763885999858296 ], [ -74.059660999618572, 40.763857000266412 ], [ -74.059703000349671, 40.763791000326854 ], [ -74.059765000273941, 40.763720000122852 ], [ -74.059787999840168, 40.763698000331722 ], [ -74.059838999893799, 40.763647999666013 ], [ -74.059903000366205, 40.763594999790179 ], [ -74.059926999757337, 40.763566000071279 ], [ -74.0599519998717, 40.763528000092023 ], [ -74.059967999765206, 40.763491000270392 ], [ -74.060002000100411, 40.763400999717284 ], [ -74.060024999666624, 40.763273999780225 ], [ -74.060033000062546, 40.763196999962744 ], [ -74.06002700021476, 40.76316699988601 ], [ -74.060022000191893, 40.763139999669292 ], [ -74.059973999613007, 40.762997999835726 ], [ -74.059961000092542, 40.762967000162298 ], [ -74.059925999932418, 40.76289400006219 ], [ -74.059910000038897, 40.76284199977421 ], [ -74.059901999642975, 40.762779000077394 ], [ -74.059901999642975, 40.762722000105867 ], [ -74.059905000016016, 40.762705999770844 ], [ -74.059913000411953, 40.762676999664038 ], [ -74.059927999582243, 40.762638999856925 ], [ -74.059945000198994, 40.762615000003365 ], [ -74.059980000359104, 40.762575999967694 ], [ -74.060019999643771, 40.762542000197051 ], [ -74.060077000443499, 40.762507999728648 ], [ -74.060105000032578, 40.762494999925181 ], [ -74.060182999850383, 40.762468000115831 ], [ -74.060289999980498, 40.762443000005405 ], [ -74.06034500023209, 40.762434000289943 ], [ -74.060785000448135, 40.762395999663532 ], [ -74.060941000083758, 40.762377000022546 ], [ -74.061239999834484, 40.762346000059487 ], [ -74.061320000200439, 40.762343000150111 ], [ -74.061407000239072, 40.762344999862904 ], [ -74.061623999974046, 40.762374000114562 ], [ -74.061793000028459, 40.762412000073184 ], [ -74.061994999694804, 40.762466999921081 ], [ -74.062184999665618, 40.762532000301213 ], [ -74.062249000138024, 40.762556000184752 ], [ -74.062510000253937, 40.762666000277179 ], [ -74.062588000071742, 40.762726999699453 ], [ -74.062752999928193, 40.762859000265415 ], [ -74.06295799996758, 40.763027999988736 ], [ -74.062985999556687, 40.763051000187616 ], [ -74.06301099967105, 40.763072000007227 ], [ -74.063298999551137, 40.763310000220997 ], [ -74.063553999819263, 40.763517000165585 ], [ -74.063643000406032, 40.763575999811536 ], [ -74.063722000048742, 40.763621999822071 ], [ -74.063799000041641, 40.763660999924326 ], [ -74.063896000126022, 40.763701000179942 ], [ -74.064047999563684, 40.763748000279442 ], [ -74.064170999587319, 40.763782000113515 ], [ -74.064280000265583, 40.763803999876849 ], [ -74.06436399993116, 40.763817000104687 ], [ -74.064445000122021, 40.763822999790307 ], [ -74.064543999856213, 40.763818999773136 ], [ -74.064685000321532, 40.763803999876849 ], [ -74.064832999561233, 40.763778000093929 ], [ -74.064929999645599, 40.763755000146617 ], [ -74.065019000232382, 40.763722999970078 ], [ -74.065076000133786, 40.763694999802951 ], [ -74.065237999617182, 40.763589000083982 ], [ -74.065429000311212, 40.763414000023957 ], [ -74.065626999779596, 40.763228000209246 ], [ -74.065707999970471, 40.763164000013639 ], [ -74.065791999636048, 40.763103999816842 ], [ -74.065943999972006, 40.76300799966139 ], [ -74.06605299975196, 40.762941000051953 ], [ -74.06628899975351, 40.762809999838488 ], [ -74.066426000020854, 40.762741999838802 ], [ -74.066878999757378, 40.762538000102836 ], [ -74.067236000132752, 40.762407999971096 ], [ -74.0678160000909, 40.762237000316098 ], [ -74.068038999673661, 40.76216800021141 ], [ -74.068529000118431, 40.761995999737131 ], [ -74.068591999867621, 40.76196800020324 ], [ -74.068812999800571, 40.761861999771199 ], [ -74.069094999832856, 40.761719999928886 ], [ -74.069733000415638, 40.761404000082329 ], [ -74.070232000182912, 40.761155999744894 ], [ -74.070247000251527, 40.761149000284377 ], [ -74.070342999612677, 40.761101000172985 ], [ -74.070387999818536, 40.761089000309823 ], [ -74.070419999605591, 40.761076999764072 ], [ -74.0704489999179, 40.761060999713429 ], [ -74.070503000344573, 40.761028000064663 ], [ -74.070567999743588, 40.760985999807602 ], [ -74.070734000323242, 40.760879999850744 ], [ -74.07084200027829, 40.760814999896354 ], [ -74.070924000294056, 40.760770999744565 ], [ -74.071197000105514, 40.760623999861288 ], [ -74.071419999688288, 40.760501999822424 ], [ -74.071674000131495, 40.76037000001898 ], [ -74.07196000036177, 40.760236999725095 ], [ -74.071982999927997, 40.760225999934441 ], [ -74.072012000240292, 40.760212000136413 ], [ -74.072141000111742, 40.760155000004723 ], [ -74.072223000127494, 40.76011500033681 ], [ -74.072244999868815, 40.760100000284979 ], [ -74.072280000028911, 40.760064999697349 ], [ -74.072304000318354, 40.760029000220726 ], [ -74.072326000059647, 40.759985000229086 ], [ -74.072343999603021, 40.75994700024377 ], [ -74.072362000044663, 40.759869999974185 ], [ -74.072377000113292, 40.759781999751276 ], [ -74.072406000425602, 40.759486000249602 ], [ -74.072415999573025, 40.75941500020992 ], [ -74.072429999816734, 40.759310000031405 ], [ -74.072442000410618, 40.759244000339805 ], [ -74.072459999953949, 40.759182000198635 ], [ -74.07247800039562, 40.759135000272572 ], [ -74.072501999786752, 40.759082999765518 ], [ -74.072525000251289, 40.759041000320792 ], [ -74.072566000259187, 40.758985000112624 ], [ -74.072620999612454, 40.758930999672735 ], [ -74.072664999993378, 40.75890300020864 ], [ -74.072777999971294, 40.758857000334437 ], [ -74.072855999789098, 40.758834000045177 ], [ -74.072979999637639, 40.758805000290373 ], [ -74.07307800044525, 40.758788000123189 ], [ -74.073177000179456, 40.758775999842463 ], [ -74.073386000416818, 40.758748999883345 ], [ -74.073444000143141, 40.758734000203766 ], [ -74.073625999718018, 40.758656999889929 ], [ -74.073983999918312, 40.758508000266559 ], [ -74.074116000162775, 40.758483000027624 ], [ -74.074193999980594, 40.758475000030806 ], [ -74.074256999729784, 40.758465000203572 ], [ -74.074317000004228, 40.758449999779408 ], [ -74.074362000210087, 40.758433999776926 ], [ -74.074486999883547, 40.758375999905667 ], [ -74.074527000066524, 40.758356999796042 ], [ -74.074599000036557, 40.758319000240974 ], [ -74.074610999732101, 40.758311000224431 ], [ -74.074674000379616, 40.758269000291939 ], [ -74.07473100028102, 40.758221000142164 ], [ -74.074768000090941, 40.75818599992602 ], [ -74.07479900005309, 40.758148999852537 ], [ -74.074819000144572, 40.758114000278944 ], [ -74.074840000060959, 40.758072999802415 ], [ -74.074881000068856, 40.757979999972044 ], [ -74.074973999955262, 40.757705000085629 ], [ -74.075028000381948, 40.757575000027927 ], [ -74.075131000314101, 40.757211000010777 ], [ -74.07514399983458, 40.75714900001482 ], [ -74.07514399983458, 40.757095000124892 ], [ -74.075139999636619, 40.757012000334569 ], [ -74.07512799994106, 40.756889999790609 ], [ -74.075117000070406, 40.756802999985474 ], [ -74.075102000001792, 40.756740000008548 ], [ -74.074990999673716, 40.756457000196633 ], [ -74.074927999924512, 40.756331000207787 ], [ -74.074885000266818, 40.756241000166753 ], [ -74.074849000281802, 40.756123000049342 ], [ -74.074831999665051, 40.756055000013397 ], [ -74.074816999596436, 40.755960999789203 ], [ -74.074814999946611, 40.755902000188634 ], [ -74.074819000144572, 40.755840999946827 ], [ -74.074828000365414, 40.755773000302923 ], [ -74.07484500008384, 40.75571300023914 ], [ -74.074865000175322, 40.755662999691005 ], [ -74.074892999764415, 40.755610999870377 ], [ -74.075023000359067, 40.755451999944036 ], [ -74.075066999841695, 40.755412000168043 ], [ -74.075102000001792, 40.755385000203589 ], [ -74.07516099955302, 40.755353000080319 ], [ -74.075214000154787, 40.755329999939633 ], [ -74.075272999706016, 40.755313999866665 ], [ -74.075336000353531, 40.75529999971463 ], [ -74.075533999821928, 40.755270000156528 ], [ -74.075911000288798, 40.755234000124588 ], [ -74.076011999672801, 40.755219999955663 ], [ -74.076117000153104, 40.755198000073108 ], [ -74.076178000252469, 40.755183999896651 ], [ -74.076236999803712, 40.755163000306844 ], [ -74.076297999903076, 40.755134999936189 ], [ -74.076369999873108, 40.755089000176561 ], [ -74.076405999858125, 40.755062000080876 ], [ -74.076424000299767, 40.755045000317473 ], [ -74.076446000041088, 40.755018000203968 ], [ -74.076476000178303, 40.75496399994406 ], [ -74.076499999569435, 40.754903999830653 ], [ -74.076517000186186, 40.75484699991091 ], [ -74.076522000209067, 40.754806999770913 ], [ -74.076518000011106, 40.754725000157222 ], [ -74.076507000140452, 40.754668999715676 ], [ -74.076477000003223, 40.754547000315853 ], [ -74.076446000041088, 40.754469999915678 ], [ -74.076386999591534, 40.754374999855791 ], [ -74.076271000138902, 40.754250000322351 ], [ -74.07618300027535, 40.754160999825345 ], [ -74.075895000395249, 40.753893999661003 ], [ -74.075768000173653, 40.753770000229309 ], [ -74.075631999731215, 40.753643999911404 ], [ -74.075560999586102, 40.753568999803178 ], [ -74.075498999661832, 40.753498000248861 ], [ -74.075441999760415, 40.75342499995714 ], [ -74.07523599989608, 40.753125000070085 ], [ -74.075215999804612, 40.75307599995314 ], [ -74.075199999911064, 40.753024000150596 ], [ -74.07518999986533, 40.752964000327886 ], [ -74.075187000390613, 40.752909000102612 ], [ -74.075194999888211, 40.752849999835128 ], [ -74.075229000223402, 40.752747999837361 ], [ -74.075259000360617, 40.752693000113922 ], [ -74.075312000064073, 40.752624999972248 ], [ -74.075357000269918, 40.752576999830382 ], [ -74.075425000041974, 40.752527999990086 ], [ -74.075503999684699, 40.752481999787705 ], [ -74.075578000202853, 40.752450999973632 ], [ -74.075610999814828, 40.752442000266335 ], [ -74.075798000310883, 40.752393999992364 ], [ -74.075861000060073, 40.752377999893341 ], [ -74.076046000008006, 40.752347000030774 ], [ -74.076230999955925, 40.752326000225416 ], [ -74.076413000429113, 40.75231299979172 ], [ -74.076697999936172, 40.752298000020929 ], [ -74.076803000416461, 40.752287000277654 ], [ -74.076993000387247, 40.752263000089059 ], [ -74.077122000258683, 40.752226000121553 ], [ -74.077204000274435, 40.752197999874973 ], [ -74.077277999894307, 40.752162999890452 ], [ -74.077361999559884, 40.752102999971299 ], [ -74.077427999682129, 40.75204000030412 ], [ -74.077472000063068, 40.752014000002831 ], [ -74.078508999955673, 40.750806999662849 ], [ -74.078686000406009, 40.750600999981927 ], [ -74.075201999560917, 40.747394999847351 ], [ -74.077046999915609, 40.743248000130414 ], [ -74.080262000248879, 40.741406999856729 ], [ -74.080798999651009, 40.74112099993647 ], [ -74.081586000196694, 40.740700999728531 ], [ -74.081739000357572, 40.740630000047119 ], [ -74.081761999923785, 40.740620000258453 ], [ -74.081970000336241, 40.740525999993537 ], [ -74.083060999757237, 40.740148999797526 ], [ -74.089286000384377, 40.738401000311413 ], [ -74.09202100031861, 40.736579000187561 ], [ -74.093956000186694, 40.735198999851754 ], [ -74.094018000110964, 40.735137999676944 ], [ -74.09470000017636, 40.734469999994531 ], [ -74.098181999575019, 40.72794999992044 ], [ -74.098497000117604, 40.727361000201228 ], [ -74.098519999683816, 40.727316999696257 ], [ -74.098538999950406, 40.727282000233075 ], [ -74.098570999737433, 40.72721199988991 ], [ -74.099086000296566, 40.726100999912532 ], [ -74.100043999648165, 40.72459299972774 ], [ -74.103771999992418, 40.718721999725034 ], [ -74.103773999642229, 40.718693999671935 ], [ -74.103843999962436, 40.718665000115138 ], [ -74.105632000415753, 40.717543999911122 ], [ -74.108153999914663, 40.715963000027045 ], [ -74.11690400041374, 40.710477000053409 ] ], [ [ -74.047206999962981, 40.690843000275905 ], [ -74.047206999962981, 40.690892999819859 ], [ -74.047191999894352, 40.69092600020673 ], [ -74.047186999871471, 40.690936999877955 ], [ -74.047149000236644, 40.690985000217772 ], [ -74.047099000007933, 40.691017999877886 ], [ -74.047041000281624, 40.691040999775879 ], [ -74.04696500011363, 40.691051000202854 ], [ -74.046535999768224, 40.691075999901479 ], [ -74.046487000262758, 40.691077999713499 ], [ -74.046308999987517, 40.691089999946577 ], [ -74.046176999743039, 40.691091999758171 ], [ -74.046164000222561, 40.69109799987374 ], [ -74.046143000306159, 40.691123000235834 ], [ -74.04611300016893, 40.691125000046441 ], [ -74.045981999749358, 40.69110900019767 ], [ -74.045970000053799, 40.691103000083139 ], [ -74.045426999905587, 40.690895000318513 ], [ -74.045034000443508, 40.690731000098729 ], [ -74.04456999993802, 40.690559000165543 ], [ -74.043885000397893, 40.690185000029992 ], [ -74.043862999758261, 40.690166000196534 ], [ -74.043455000227581, 40.689630000225407 ], [ -74.043498999710195, 40.68917199974171 ], [ -74.043619000259113, 40.688760000213307 ], [ -74.04394200029931, 40.688568999671922 ], [ -74.043958000192816, 40.688566999784605 ], [ -74.044132000270096, 40.688538000049483 ], [ -74.044349000005084, 40.688507999676098 ], [ -74.044445000264531, 40.688526000037996 ], [ -74.044717000251097, 40.688575999958204 ], [ -74.04479199969586, 40.688589999847366 ], [ -74.04507399972816, 40.688735000326901 ], [ -74.045370000004169, 40.688877999931819 ], [ -74.046247999888152, 40.689319000181996 ], [ -74.046484999714608, 40.689588999770535 ], [ -74.046910999686972, 40.6900820000793 ], [ -74.046921999557597, 40.690096000333234 ], [ -74.047182999673524, 40.690410999820166 ], [ -74.047150000061563, 40.690426999836525 ], [ -74.047041000281624, 40.690482999863583 ], [ -74.04703100023589, 40.690560000079344 ], [ -74.047027000037914, 40.690589000296725 ], [ -74.047047999954302, 40.690626999716969 ], [ -74.047145999863602, 40.69071500015535 ], [ -74.047190000244541, 40.6907859999599 ], [ -74.047196000092313, 40.690794999833791 ], [ -74.047206999962981, 40.690843000275905 ] ], [ [ -74.040740000384815, 40.700131000061909 ], [ -74.040747000057522, 40.700166999949325 ], [ -74.040730000339082, 40.700193000082983 ], [ -74.040696999828796, 40.700214999768967 ], [ -74.040648000323316, 40.700214000000116 ], [ -74.040612000338299, 40.700201000279208 ], [ -74.040568999782266, 40.700187999874707 ], [ -74.040527999774397, 40.700175999918159 ], [ -74.040495999987343, 40.700161999739151 ], [ -74.040460000002327, 40.700149000008047 ], [ -74.040414999796496, 40.700125999848986 ], [ -74.040376000336749, 40.700112000340518 ], [ -74.040328999582769, 40.700101000140847 ], [ -74.040282999552019, 40.70011099988902 ], [ -74.040249000115139, 40.700116999873437 ], [ -74.040187000190869, 40.700113999881317 ], [ -74.040152999855678, 40.700102999681974 ], [ -74.040121000068623, 40.700101000140847 ], [ -74.040081999710566, 40.700092000161924 ], [ -74.040048000273686, 40.700074000200381 ], [ -74.040022000334417, 40.700060999771097 ], [ -74.039993999847013, 40.700041000258246 ], [ -74.03996600025792, 40.700018000061888 ], [ -74.039933999572554, 40.69999400008539 ], [ -74.039900000135674, 40.69998100032155 ], [ -74.039859000127805, 40.699966000328935 ], [ -74.039824999792614, 40.699955000105199 ], [ -74.039782999959812, 40.699952000105782 ], [ -74.039745000324984, 40.69994999987906 ], [ -74.039712999639619, 40.699928000105501 ], [ -74.039689000248487, 40.699898999866669 ], [ -74.03966499995903, 40.699873000299313 ], [ -74.03962200030135, 40.699856000052883 ], [ -74.039586000316334, 40.699853000049011 ], [ -74.039546999958276, 40.699843000262106 ], [ -74.03951099997326, 40.69981600021702 ], [ -74.039476999638069, 40.699781999690671 ], [ -74.039428000132574, 40.699762999869691 ], [ -74.039381000276919, 40.699750000060774 ], [ -74.039330000223288, 40.699726999763932 ], [ -74.039286999667254, 40.69970799992727 ], [ -74.039254999880228, 40.699686999850613 ], [ -74.039162999818714, 40.69967700003879 ], [ -74.039120999985926, 40.699671000014789 ], [ -74.039074999955176, 40.699668000002532 ], [ -74.039023999901531, 40.699661999977714 ], [ -74.038989999566354, 40.699661999977714 ], [ -74.038936000037992, 40.699655000175063 ], [ -74.038893000380284, 40.699625000039632 ], [ -74.03887999996148, 40.699601999699645 ], [ -74.038838000128706, 40.699561999711264 ], [ -74.038814999664154, 40.699532000215001 ], [ -74.03880200014369, 40.699486999923742 ], [ -74.038796000295918, 40.699439000260519 ], [ -74.038782999877114, 40.699406000003812 ], [ -74.038772000006446, 40.699397999712097 ], [ -74.038758999587657, 40.699368000141988 ], [ -74.038741999869231, 40.699334999850095 ], [ -74.038722999602641, 40.699302000222929 ], [ -74.038696999663401, 40.699278999771408 ], [ -74.038664000051412, 40.699262999837586 ], [ -74.038632000264371, 40.699239000270126 ], [ -74.038597999929195, 40.69920999973133 ], [ -74.038561000119273, 40.699192999996704 ], [ -74.038532999631855, 40.699171999757645 ], [ -74.038510000065642, 40.699146999691472 ], [ -74.038494000172108, 40.699114999756581 ], [ -74.038498000370083, 40.699073999689745 ], [ -74.038467000407934, 40.699017000285842 ], [ -74.038459000012011, 40.698980999776929 ], [ -74.038463000209973, 40.698924000293438 ], [ -74.038467000407934, 40.698870000128451 ], [ -74.03845499981405, 40.698825000070997 ], [ -74.038434999722568, 40.698792000191133 ], [ -74.038396000262821, 40.698728999756007 ], [ -74.038380000369287, 40.698714000162539 ], [ -74.038367999775417, 40.698686999659884 ], [ -74.038371999973378, 40.698668999999704 ], [ -74.03839200006486, 40.698665999942371 ], [ -74.038419999653954, 40.698665000150285 ], [ -74.038453000164239, 40.698681000227729 ], [ -74.038505000042761, 40.698701999940504 ], [ -74.038526999784082, 40.698711999898698 ], [ -74.038568999616871, 40.698730000228267 ], [ -74.038606000325103, 40.69871800000908 ], [ -74.038623000043543, 40.698698000093003 ], [ -74.038602999952062, 40.698676999697945 ], [ -74.038621000393718, 40.698671000264888 ], [ -74.038633999914211, 40.698666999734506 ], [ -74.038653000180773, 40.69866299988491 ], [ -74.038680999769852, 40.698659999827306 ], [ -74.038711999732016, 40.698653999711652 ], [ -74.038744000417353, 40.698636999835145 ], [ -74.038780000402369, 40.698636000042605 ], [ -74.038827000258053, 40.698623999806479 ], [ -74.038879000136575, 40.698610999775276 ], [ -74.038925000167339, 40.698606999922319 ], [ -74.038960000327421, 40.698594999681013 ], [ -74.039006000358185, 40.698593999887798 ], [ -74.039060999711467, 40.698596999948371 ], [ -74.039115000138139, 40.698592000301367 ], [ -74.039167999841581, 40.698594999681013 ], [ -74.039204999651517, 40.698603999862193 ], [ -74.03924499983448, 40.698613999835082 ], [ -74.039285000017443, 40.698632000191147 ], [ -74.039316999804498, 40.698665000150285 ], [ -74.039341000093941, 40.698684000284381 ], [ -74.039365000383384, 40.698708999843248 ], [ -74.039376000254038, 40.698731000019393 ], [ -74.039411000414134, 40.698737000128062 ], [ -74.039438000178336, 40.698738999710137 ], [ -74.039469000140471, 40.698751999716407 ], [ -74.039488000407047, 40.698776999930828 ], [ -74.039507999600204, 40.698779999983152 ], [ -74.039537999737448, 40.698786999877747 ], [ -74.039584999593089, 40.69878999992963 ], [ -74.039632000347083, 40.69878999992963 ], [ -74.039650999715334, 40.698795000242832 ], [ -74.039669999981911, 40.698774999668828 ], [ -74.039931000097823, 40.69859000003386 ], [ -74.040078000410929, 40.69871499995395 ], [ -74.040234000046524, 40.698832999750458 ], [ -74.040214999779948, 40.69885400009634 ], [ -74.040145000358081, 40.698896999875906 ], [ -74.040095999954261, 40.698934000218301 ], [ -74.040059000144353, 40.698906999804819 ], [ -74.040044000075724, 40.698902999969633 ], [ -74.04002800018219, 40.698897999664524 ], [ -74.039986000349401, 40.698886999945501 ], [ -74.039951000189305, 40.698882000320211 ], [ -74.039910000181436, 40.698883000109106 ], [ -74.039868000348633, 40.698893000040115 ], [ -74.039823999967709, 40.698911000320784 ], [ -74.039798000028441, 40.698937000263562 ], [ -74.039796000378601, 40.698976999946233 ], [ -74.039817000295002, 40.699008999947416 ], [ -74.039845999709001, 40.699031999811147 ], [ -74.039863000325752, 40.69904499976019 ], [ -74.039899000310768, 40.699068000292492 ], [ -74.039947999816249, 40.699097999997718 ], [ -74.039979999603304, 40.69912399986751 ], [ -74.040070000014993, 40.699171999757645 ], [ -74.040157999878545, 40.69919699981444 ], [ -74.040186000365949, 40.699215000012963 ], [ -74.0401899996656, 40.699245000333043 ], [ -74.0401899996656, 40.699277999988503 ], [ -74.040210999581987, 40.69931500011927 ], [ -74.040243000267367, 40.699333000285918 ], [ -74.040278000427463, 40.699350999766679 ], [ -74.04031600006229, 40.699365000116131 ], [ -74.040351000222387, 40.699374999974793 ], [ -74.040402000276018, 40.699393000125212 ], [ -74.04042599966715, 40.699412999832617 ], [ -74.04043800026102, 40.699437999798967 ], [ -74.040454999979474, 40.699467000238549 ], [ -74.040466999675019, 40.69949299996432 ], [ -74.040465999850127, 40.699527999736326 ], [ -74.040470000048074, 40.699557999915442 ], [ -74.040484000291769, 40.699594999890742 ], [ -74.040511999880877, 40.699627000276116 ], [ -74.040531000147453, 40.699656999729591 ], [ -74.04055299988876, 40.699680000050598 ], [ -74.040578000003109, 40.699710000161254 ], [ -74.04059999974443, 40.699738999801369 ], [ -74.040612000338299, 40.699765999877613 ], [ -74.040617000361181, 40.699802999737386 ], [ -74.04061499981303, 40.699828000238419 ], [ -74.040624000033858, 40.699859999830799 ], [ -74.040644000125354, 40.699883000081712 ], [ -74.04066300039193, 40.6999070000982 ], [ -74.04067400026257, 40.699934999879467 ], [ -74.04067400026257, 40.699961999876322 ], [ -74.040684000308332, 40.699982999866286 ], [ -74.040686999783048, 40.70000999984368 ], [ -74.04069099998101, 40.700050000244055 ], [ -74.040701999851677, 40.700071000206329 ], [ -74.040718999570103, 40.700095999925672 ], [ -74.040740000384815, 40.700131000061909 ] ] ] } }
]
}
