{
"type": "FeatureCollection",
"name": "assets",
"crs": { "type": "name", "properties": { "name": "urn:ogc:def:crs:OGC:1.3:CRS84" } },
"features": [
{ "type": "Feature", "properties": { "id": "w265808826", "name": "McGuire Community Center", "category": "community", "address": "114 Boyd Street, Camden", "ground_elev_ft": 12.31, "elev_source": "epqs", "ffo_ft": 1.0, "source": "OpenStreetMap" }, "geometry": { "type": "Point", "coordinates": [ -75.092343, 39.943622 ] } },
{ "type": "Feature", "properties": { "id": "w265319250", "name": "Cramer Hill Community Center", "category": "community", "address": "1035 Reeves Avenue, Camden", "ground_elev_ft": 8.9, "elev_source": "epqs", "ffo_ft": 1.0, "source": "OpenStreetMap" }, "geometry": { "type": "Point", "coordinates": [ -75.09099, 39.958929 ] } },
{ "type": "Feature", "properties": { "id": "w591855049", "name": "United Neighbors of Whitman Park Community Center", "category": "community", "address": "1298 Chase Street, Camden", "ground_elev_ft": 36.9, "elev_source": "epqs", "ffo_ft": 1.0, "source": "OpenStreetMap" }, "geometry": { "type": "Point", "coordinates": [ -75.101599, 39.925734 ] } },
{ "type": "Feature", "properties": { "id": "w266859389", "name": "Malandra Hall", "category": "community", "address": "1200 South Merrimac Road, Camden", "ground_elev_ft": 9.55, "elev_source": "epqs", "ffo_ft": 1.0, "source": "OpenStreetMap" }, "geometry": { "type": "Point", "coordinates": [ -75.10364, 39.902491 ] } },
{ "type": "Feature", "properties": { "id": "n5657612791", "name": "Charles \"Poppy\" Shapp Community Center", "category": "community", "address": "713 Broadway, Camden", "ground_elev_ft": 25.58, "elev_source": "epqs", "ffo_ft": 1.0, "source": "OpenStreetMap" }, "geometry": { "type": "Point", "coordinates": [ -75.119536, 39.936813 ] } },
{ "type": "Feature", "properties": { "id": "n5649851559", "name": "Hope Community Outreach Center", "category": "community", "address": "", "ground_elev_ft": 40.79, "elev_source": "epqs", "ffo_ft": 1.0, "source": "OpenStreetMap" }, "geometry": { "type": "Point", "coordinates": [ -75.101733, 39.926777 ] } },
{ "type": "Feature", "properties": { "id": "n2722655945", "name": "Martin Luther King Jr. Community Center", "category": "community", "address": "", "ground_elev_ft": 13.73, "elev_source": "epqs", "ffo_ft": 1.0, "source": "OpenStreetMap" }, "geometry": { "type": "Point", "coordinates": [ -75.104438, 39.932816 ] } },
{ "type": "Feature", "properties": { "id": "w265894579", "name": "Camden Fire Department Second Battalion Headquarters", "category": "fire", "address": "", "ground_elev_ft": 31.59, "elev_source": "epqs", "ffo_ft": 1.0, "source": "OpenStreetMap" }, "geometry": { "type": "Point", "coordinates": [ -75.087059, 39.946556 ] } },
{ "type": "Feature", "properties": { "id": "w265506146", "name": "Camden Fire Department Company 11", "category": "fire", "address": "909 North 27th Street, Camden", "ground_elev_ft": 46.49, "elev_source": "epqs", "ffo_ft": 1.0, "source": "OpenStreetMap" }, "geometry": { "type": "Point", "coordinates": [ -75.093349, 39.954656 ] } },
{ "type": "Feature", "properties": { "id": "w255448764", "name": "Camden Fire Department Company 10", "category": "fire", "address": "", "ground_elev_ft": 15.69, "elev_source": "epqs", "ffo_ft": 1.0, "source": "OpenStreetMap" }, "geometry": { "type": "Point", "coordinates": [ -75.110312, 39.912436 ] } },
{ "type": "Feature", "properties": { "id": "w266751084", "name": "Camden Fire Department Squad Company 7", "category": "fire", "address": "", "ground_elev_ft": 10.99, "elev_source": "epqs", "ffo_ft": 1.0, "source": "OpenStreetMap" }, "geometry": { "type": "Point", "coordinates": [ -75.108092, 39.931927 ] } },
{ "type": "Feature", "properties": { "id": "n367685261", "name": "Camden Company 3 Fire Station", "category": "fire", "address": "", "ground_elev_ft": 8.78, "elev_source": "epqs", "ffo_ft": 1.0, "source": "OpenStreetMap" }, "geometry": { "type": "Point", "coordinates": [ -75.1209, 39.9297 ] } },
{ "type": "Feature", "properties": { "id": "n367685286", "name": "Camden Fire Department First Battalion Headquarters", "category": "fire", "address": "", "ground_elev_ft": 10.67, "elev_source": "epqs", "ffo_ft": 1.0, "source": "OpenStreetMap" }, "geometry": { "type": "Point", "coordinates": [ -75.119804, 39.929628 ] } },
{ "type": "Feature", "properties": { "id": "n367685309", "name": "Camden Fire Department", "category": "fire", "address": "", "ground_elev_ft": 16.67, "elev_source": "epqs", "ffo_ft": 1.0, "source": "OpenStreetMap" }, "geometry": { "type": "Point", "coordinates": [ -75.123887, 39.944701 ] } },
{ "type": "Feature", "properties": { "id": "w266751133", "name": "Virtua Health & Wellness Center - Camden", "category": "hospital", "address": "1000 Atlantic Avenue, Camden", "ground_elev_ft": 27.87, "elev_source": "epqs", "ffo_ft": 1.0, "source": "OpenStreetMap" }, "geometry": { "type": "Point", "coordinates": [ -75.108239, 39.928402 ] } },
{ "type": "Feature", "properties": { "id": "w361974422", "name": "Cooper University Hospital", "category": "hospital", "address": "1 Cooper Plaza, Camden", "ground_elev_ft": 23.89, "elev_source": "epqs", "ffo_ft": 1.0, "source": "OpenStreetMap" }, "geometry": { "type": "Point", "coordinates": [ -75.116512, 39.940985 ] } },
{ "type": "Feature", "properties": { "id": "w30150655", "name": "Our Lady of Lourdes Medical Center", "category": "hospital", "address": "1600 Haddon Avenue, Camden", "ground_elev_ft": 33.9, "elev_source": "epqs", "ffo_ft": 1.0, "source": "OpenStreetMap" }, "geometry": { "type": "Point", "coordinates": [ -75.096134, 39.926833 ] } },
{ "type": "Feature", "properties": { "id": "w365033989", "name": "Ferry Avenue Branch Library", "category": "library", "address": "852 Ferry Avenue, Camden", "ground_elev_ft": 13.41, "elev_source": "epqs", "ffo_ft": 1.0, "source": "OpenStreetMap" }, "geometry": { "type": "Point", "coordinates": [ -75.110941, 39.919727 ] } },
{ "type": "Feature", "properties": { "id": "w268525682", "name": "Camden Free Public Library", "category": "library", "address": "", "ground_elev_ft": 17.27, "elev_source": "epqs", "ffo_ft": 1.0, "source": "OpenStreetMap" }, "geometry": { "type": "Point", "coordinates": [ -75.122308, 39.943852 ] } },
{ "type": "Feature", "properties": { "id": "w29661474", "name": "Rutgers Law School Complex", "category": "library", "address": "", "ground_elev_ft": 15.9, "elev_source": "epqs", "ffo_ft": 1.0, "source": "OpenStreetMap" }, "geometry": { "type": "Point", "coordinates": [ -75.120971, 39.94772 ] } },
{ "type": "Feature", "properties": { "id": "w29660445", "name": "Paul Robeson Library", "category": "library", "address": "", "ground_elev_ft": 17.53, "elev_source": "epqs", "ffo_ft": 1.0, "source": "OpenStreetMap" }, "geometry": { "type": "Point", "coordinates": [ -75.120985, 39.948294 ] } },
{ "type": "Feature", "properties": { "id": "w269391189", "name": "Camden Board of Education Administration Building", "category": "municipal", "address": "201 North Front Street, Camden", "ground_elev_ft": 9.0, "elev_source": "epqs", "ffo_ft": 1.0, "source": "OpenStreetMap" }, "geometry": { "type": "Point", "coordinates": [ -75.126405, 39.948223 ] } },
{ "type": "Feature", "properties": { "id": "w29876173", "name": "Camden City Hall", "category": "municipal", "address": "520 Market Street, Camden", "ground_elev_ft": 24.83, "elev_source": "epqs", "ffo_ft": 1.0, "source": "OpenStreetMap" }, "geometry": { "type": "Point", "coordinates": [ -75.12, 39.944849 ] } },
{ "type": "Feature", "properties": { "id": "n5661421922", "name": "The Parking Authority of the City of Camden", "category": "municipal", "address": "10 South Delaware Avenue, Camden", "ground_elev_ft": 6.7, "elev_source": "epqs", "ffo_ft": 1.0, "source": "OpenStreetMap" }, "geometry": { "type": "Point", "coordinates": [ -75.129004, 39.944051 ] } },
{ "type": "Feature", "properties": { "id": "n329192932", "name": "Camden Police", "category": "police", "address": "", "ground_elev_ft": 26.06, "elev_source": "epqs", "ffo_ft": 1.0, "source": "OpenStreetMap" }, "geometry": { "type": "Point", "coordinates": [ -75.116232, 39.943636 ] } },
{ "type": "Feature", "properties": { "id": "n5658950519", "name": "Camden County Police", "category": "police", "address": "", "ground_elev_ft": 16.21, "elev_source": "epqs", "ffo_ft": 1.0, "source": "OpenStreetMap" }, "geometry": { "type": "Point", "coordinates": [ -75.119124, 39.940733 ] } },
{ "type": "Feature", "properties": { "id": "n5659019022", "name": "New Jersey Transit Police Department", "category": "police", "address": "", "ground_elev_ft": 19.42, "elev_source": "epqs", "ffo_ft": 1.0, "source": "OpenStreetMap" }, "geometry": { "type": "Point", "coordinates": [ -75.119043, 39.943174 ] } },
{ "type": "Feature", "properties": { "id": "w29874880", "name": "Port of Camden", "category": "port", "address": "", "ground_elev_ft": 12.27, "elev_source": "epqs", "ffo_ft": 1.0, "source": "OpenStreetMap" }, "geometry": { "type": "Point", "coordinates": [ -75.122268, 39.912993 ] } },
{ "type": "Feature", "properties": { "id": "w266253703", "name": "Freedom Academy Charter School", "category": "school", "address": "", "ground_elev_ft": 11.12, "elev_source": "epqs", "ffo_ft": 1.0, "source": "OpenStreetMap" }, "geometry": { "type": "Point", "coordinates": [ -75.10102, 39.904947 ] } },
{ "type": "Feature", "properties": { "id": "w265948287", "name": "Acelero Learning Center", "category": "school", "address": "804 North 27th Street, Camden", "ground_elev_ft": 49.16, "elev_source": "epqs", "ffo_ft": 1.0, "source": "OpenStreetMap" }, "geometry": { "type": "Point", "coordinates": [ -75.092084, 39.953777 ] } },
{ "type": "Feature", "properties": { "id": "w265880835", "name": "Acelero Learning Center", "category": "school", "address": "331 Grand Avenue, Camden", "ground_elev_ft": 23.09, "elev_source": "epqs", "ffo_ft": 1.0, "source": "OpenStreetMap" }, "geometry": { "type": "Point", "coordinates": [ -75.085597, 39.942422 ] } },
{ "type": "Feature", "properties": { "id": "w265660244", "name": "Saint Joseph's Child Development Center", "category": "school", "address": "17 Church Street, Camden", "ground_elev_ft": 47.54, "elev_source": "epqs", "ffo_ft": 1.0, "source": "OpenStreetMap" }, "geometry": { "type": "Point", "coordinates": [ -75.08302, 39.947235 ] } },
{ "type": "Feature", "properties": { "id": "w265512741", "name": "Leap Charter School", "category": "school", "address": "", "ground_elev_ft": 24.22, "elev_source": "epqs", "ffo_ft": 1.0, "source": "OpenStreetMap" }, "geometry": { "type": "Point", "coordinates": [ -75.119346, 39.946956 ] } },
{ "type": "Feature", "properties": { "id": "w265464128", "name": "U S Wiggins Elementary School", "category": "school", "address": "", "ground_elev_ft": 20.8, "elev_source": "epqs", "ffo_ft": 1.0, "source": "OpenStreetMap" }, "geometry": { "type": "Point", "coordinates": [ -75.121414, 39.933245 ] } },
{ "type": "Feature", "properties": { "id": "w265451198", "name": "Saint Anthony of Padua School", "category": "school", "address": "", "ground_elev_ft": 13.81, "elev_source": "epqs", "ffo_ft": 1.0, "source": "OpenStreetMap" }, "geometry": { "type": "Point", "coordinates": [ -75.091376, 39.957008 ] } },
{ "type": "Feature", "properties": { "id": "w265319249", "name": "Harry C. Sharp Elementary School", "category": "school", "address": "928 North 32nd Street, Camden", "ground_elev_ft": 35.38, "elev_source": "epqs", "ffo_ft": 1.0, "source": "OpenStreetMap" }, "geometry": { "type": "Point", "coordinates": [ -75.085009, 39.959196 ] } },
{ "type": "Feature", "properties": { "id": "w265249582", "name": "Private Park", "category": "school", "address": "", "ground_elev_ft": 22.0, "elev_source": "epqs", "ffo_ft": 1.0, "source": "OpenStreetMap" }, "geometry": { "type": "Point", "coordinates": [ -75.119482, 39.946203 ] } },
{ "type": "Feature", "properties": { "id": "w265133838", "name": "Cooper's Poynt Elementary School", "category": "school", "address": "201 State Street, Camden", "ground_elev_ft": 13.46, "elev_source": "epqs", "ffo_ft": 1.0, "source": "OpenStreetMap" }, "geometry": { "type": "Point", "coordinates": [ -75.122035, 39.95398 ] } },
{ "type": "Feature", "properties": { "id": "w265007059", "name": "Veterans Memorial Middle School", "category": "school", "address": "", "ground_elev_ft": 47.3, "elev_source": "epqs", "ffo_ft": 1.0, "source": "OpenStreetMap" }, "geometry": { "type": "Point", "coordinates": [ -75.093672, 39.953176 ] } },
{ "type": "Feature", "properties": { "id": "w265007058", "name": "Washington Elementary School", "category": "school", "address": "", "ground_elev_ft": 32.23, "elev_source": "epqs", "ffo_ft": 1.0, "source": "OpenStreetMap" }, "geometry": { "type": "Point", "coordinates": [ -75.094921, 39.955905 ] } },
{ "type": "Feature", "properties": { "id": "w264772480", "name": "Kipp: Cooper Norcross Academy", "category": "school", "address": "", "ground_elev_ft": 19.4, "elev_source": "epqs", "ffo_ft": 1.0, "source": "OpenStreetMap" }, "geometry": { "type": "Point", "coordinates": [ -75.120162, 39.9389 ] } },
{ "type": "Feature", "properties": { "id": "r3420668", "name": "Morgan Village Junior High School", "category": "school", "address": "1000 Morgan Street, Camden", "ground_elev_ft": 12.59, "elev_source": "epqs", "ffo_ft": 1.0, "source": "OpenStreetMap" }, "geometry": { "type": "Point", "coordinates": [ -75.110005, 39.913256 ] } },
{ "type": "Feature", "properties": { "id": "w264162350", "name": "Lanning Elementary School;Lanning Elementary School Annex", "category": "school", "address": "", "ground_elev_ft": 23.08, "elev_source": "epqs", "ffo_ft": 1.0, "source": "OpenStreetMap" }, "geometry": { "type": "Point", "coordinates": [ -75.119054, 39.938304 ] } },
{ "type": "Feature", "properties": { "id": "w34580010", "name": "R C Molina Elementary School", "category": "school", "address": "", "ground_elev_ft": 29.53, "elev_source": "epqs", "ffo_ft": 1.0, "source": "OpenStreetMap" }, "geometry": { "type": "Point", "coordinates": [ -75.116724, 39.950984 ] } },
{ "type": "Feature", "properties": { "id": "w30150732", "name": "Cooper B Hatch Middle School", "category": "school", "address": "", "ground_elev_ft": 40.52, "elev_source": "epqs", "ffo_ft": 1.0, "source": "OpenStreetMap" }, "geometry": { "type": "Point", "coordinates": [ -75.095317, 39.931079 ] } },
{ "type": "Feature", "properties": { "id": "w267805462", "name": "Capital Academy", "category": "school", "address": "", "ground_elev_ft": 28.64, "elev_source": "epqs", "ffo_ft": 1.0, "source": "OpenStreetMap" }, "geometry": { "type": "Point", "coordinates": [ -75.103776, 39.922543 ] } },
{ "type": "Feature", "properties": { "id": "w1060257620", "name": "Camden High School", "category": "school", "address": "", "ground_elev_ft": 52.51, "elev_source": "epqs", "ffo_ft": 1.0, "source": "OpenStreetMap" }, "geometry": { "type": "Point", "coordinates": [ -75.097711, 39.935968 ] } },
{ "type": "Feature", "properties": { "id": "w365427913", "name": "MetEast High School", "category": "school", "address": "", "ground_elev_ft": 15.77, "elev_source": "epqs", "ffo_ft": 1.0, "source": "OpenStreetMap" }, "geometry": { "type": "Point", "coordinates": [ -75.09102, 39.932255 ] } },
{ "type": "Feature", "properties": { "id": "w365171334", "name": "R C Molina Annex", "category": "school", "address": "", "ground_elev_ft": 27.73, "elev_source": "epqs", "ffo_ft": 1.0, "source": "OpenStreetMap" }, "geometry": { "type": "Point", "coordinates": [ -75.115256, 39.951482 ] } },
{ "type": "Feature", "properties": { "id": "w365163780", "name": "Camden Community Charter School", "category": "school", "address": "", "ground_elev_ft": 26.93, "elev_source": "epqs", "ffo_ft": 1.0, "source": "OpenStreetMap" }, "geometry": { "type": "Point", "coordinates": [ -75.114445, 39.948407 ] } },
{ "type": "Feature", "properties": { "id": "w365081209", "name": "H.B. Wilson Family School", "category": "school", "address": "", "ground_elev_ft": 21.67, "elev_source": "epqs", "ffo_ft": 1.0, "source": "OpenStreetMap" }, "geometry": { "type": "Point", "coordinates": [ -75.11139, 39.916205 ] } },
{ "type": "Feature", "properties": { "id": "w365031362", "name": "Riletta T Cream Elementary School", "category": "school", "address": "", "ground_elev_ft": 14.38, "elev_source": "epqs", "ffo_ft": 1.0, "source": "OpenStreetMap" }, "geometry": { "type": "Point", "coordinates": [ -75.10717, 39.92031 ] } },
{ "type": "Feature", "properties": { "id": "w365025381", "name": "Brimm Medical Arts High School", "category": "school", "address": "", "ground_elev_ft": 20.31, "elev_source": "epqs", "ffo_ft": 1.0, "source": "OpenStreetMap" }, "geometry": { "type": "Point", "coordinates": [ -75.095386, 39.923787 ] } },
{ "type": "Feature", "properties": { "id": "w365019932", "name": "The Creative Arts Morgan Village Academy", "category": "school", "address": "", "ground_elev_ft": 12.46, "elev_source": "epqs", "ffo_ft": 1.0, "source": "OpenStreetMap" }, "geometry": { "type": "Point", "coordinates": [ -75.108823, 39.913307 ] } },
{ "type": "Feature", "properties": { "id": "w363987228", "name": "Camden Pride Charter School", "category": "school", "address": "", "ground_elev_ft": 21.86, "elev_source": "epqs", "ffo_ft": 1.0, "source": "OpenStreetMap" }, "geometry": { "type": "Point", "coordinates": [ -75.085702, 39.957157 ] } },
{ "type": "Feature", "properties": { "id": "w363982432", "name": "Parkside Elementary School", "category": "school", "address": "", "ground_elev_ft": 17.05, "elev_source": "epqs", "ffo_ft": 1.0, "source": "OpenStreetMap" }, "geometry": { "type": "Point", "coordinates": [ -75.102485, 39.933352 ] } },
{ "type": "Feature", "properties": { "id": "w363976835", "name": "Quba School", "category": "school", "address": "", "ground_elev_ft": 23.51, "elev_source": "epqs", "ffo_ft": 1.0, "source": "OpenStreetMap" }, "geometry": { "type": "Point", "coordinates": [ -75.101742, 39.931164 ] } },
{ "type": "Feature", "properties": { "id": "w362455832", "name": "Sumner Elementary School", "category": "school", "address": "", "ground_elev_ft": 12.98, "elev_source": "epqs", "ffo_ft": 1.0, "source": "OpenStreetMap" }, "geometry": { "type": "Point", "coordinates": [ -75.111549, 39.924271 ] } },
{ "type": "Feature", "properties": { "id": "w362299134", "name": "Dudley Elementary School", "category": "school", "address": "", "ground_elev_ft": 13.6, "elev_source": "epqs", "ffo_ft": 1.0, "source": "OpenStreetMap" }, "geometry": { "type": "Point", "coordinates": [ -75.093798, 39.944623 ] } },
{ "type": "Feature", "properties": { "id": "w362045651", "name": "Octavius V Catto Community School", "category": "school", "address": "", "ground_elev_ft": 61.48, "elev_source": "epqs", "ffo_ft": 1.0, "source": "OpenStreetMap" }, "geometry": { "type": "Point", "coordinates": [ -75.080208, 39.948493 ] } },
{ "type": "Feature", "properties": { "id": "w307629898", "name": "Sacred Heart Grade School", "category": "school", "address": "", "ground_elev_ft": 9.94, "elev_source": "epqs", "ffo_ft": 1.0, "source": "OpenStreetMap" }, "geometry": { "type": "Point", "coordinates": [ -75.121089, 39.922396 ] } },
{ "type": "Feature", "properties": { "id": "w267805465", "name": "Bonsall Elementary School", "category": "school", "address": "", "ground_elev_ft": 33.72, "elev_source": "epqs", "ffo_ft": 1.0, "source": "OpenStreetMap" }, "geometry": { "type": "Point", "coordinates": [ -75.106565, 39.925288 ] } },
{ "type": "Feature", "properties": { "id": "w264767712", "name": "City Invincable Charter School", "category": "school", "address": "", "ground_elev_ft": 12.52, "elev_source": "epqs", "ffo_ft": 1.0, "source": "OpenStreetMap" }, "geometry": { "type": "Point", "coordinates": [ -75.122252, 39.93507 ] } },
{ "type": "Feature", "properties": { "id": "n357749652", "name": "Distinctions in Urban Education Season Charter School", "category": "school", "address": "", "ground_elev_ft": 14.34, "elev_source": "epqs", "ffo_ft": 1.0, "source": "OpenStreetMap" }, "geometry": { "type": "Point", "coordinates": [ -75.109582, 39.929349 ] } },
{ "type": "Feature", "properties": { "id": "n357750744", "name": "LEAP Academy University Charter School", "category": "school", "address": "", "ground_elev_ft": 25.38, "elev_source": "epqs", "ffo_ft": 1.0, "source": "OpenStreetMap" }, "geometry": { "type": "Point", "coordinates": [ -75.11715, 39.946608 ] } },
{ "type": "Feature", "properties": { "id": "n357750499", "name": "Holy Name School", "category": "school", "address": "", "ground_elev_ft": 20.32, "elev_source": "epqs", "ffo_ft": 1.0, "source": "OpenStreetMap" }, "geometry": { "type": "Point", "coordinates": [ -75.118951, 39.952056 ] } },
{ "type": "Feature", "properties": { "id": "n357750425", "name": "Dudley Elementary School", "category": "school", "address": "", "ground_elev_ft": 18.52, "elev_source": "epqs", "ffo_ft": 1.0, "source": "OpenStreetMap" }, "geometry": { "type": "Point", "coordinates": [ -75.091475, 39.946348 ] } },
{ "type": "Feature", "properties": { "id": "n357720344", "name": "Cramer Elementary School", "category": "school", "address": "", "ground_elev_ft": 42.74, "elev_source": "epqs", "ffo_ft": 1.0, "source": "OpenStreetMap" }, "geometry": { "type": "Point", "coordinates": [ -75.083737, 39.945002 ] } },
{ "type": "Feature", "properties": { "id": "n357720545", "name": "Davis Elementary School", "category": "school", "address": "", "ground_elev_ft": 29.85, "elev_source": "epqs", "ffo_ft": 1.0, "source": "OpenStreetMap" }, "geometry": { "type": "Point", "coordinates": [ -75.07661, 39.952873 ] } },
{ "type": "Feature", "properties": { "id": "n357749648", "name": "Environment Community Opportunity Charter School", "category": "school", "address": "", "ground_elev_ft": 26.63, "elev_source": "epqs", "ffo_ft": 1.0, "source": "OpenStreetMap" }, "geometry": { "type": "Point", "coordinates": [ -75.115774, 39.945327 ] } },
{ "type": "Feature", "properties": { "id": "n357749309", "name": "Creative Arts High School", "category": "school", "address": "", "ground_elev_ft": 12.61, "elev_source": "epqs", "ffo_ft": 1.0, "source": "OpenStreetMap" }, "geometry": { "type": "Point", "coordinates": [ -75.118355, 39.923143 ] } },
{ "type": "Feature", "properties": { "id": "n357724572", "name": "Lanning Square Elementary School", "category": "school", "address": "", "ground_elev_ft": 9.42, "elev_source": "epqs", "ffo_ft": 1.0, "source": "OpenStreetMap" }, "geometry": { "type": "Point", "coordinates": [ -75.124351, 39.933096 ] } },
{ "type": "Feature", "properties": { "id": "n357749091", "name": "Yorkship Elementary School", "category": "school", "address": "", "ground_elev_ft": 9.52, "elev_source": "epqs", "ffo_ft": 1.0, "source": "OpenStreetMap" }, "geometry": { "type": "Point", "coordinates": [ -75.10502, 39.904509 ] } },
{ "type": "Feature", "properties": { "id": "n357749059", "name": "South Camden Alternative Middle School", "category": "school", "address": "", "ground_elev_ft": 22.28, "elev_source": "epqs", "ffo_ft": 1.0, "source": "OpenStreetMap" }, "geometry": { "type": "Point", "coordinates": [ -75.118974, 39.933156 ] } },
{ "type": "Feature", "properties": { "id": "n357727716", "name": "Mastery High School", "category": "school", "address": "800 Erie Street, Camden", "ground_elev_ft": 17.7, "elev_source": "epqs", "ffo_ft": 1.0, "source": "OpenStreetMap" }, "geometry": { "type": "Point", "coordinates": [ -75.113574, 39.95466 ] } },
{ "type": "Feature", "properties": { "id": "n357731873", "name": "J G Whittier Elementary School", "category": "school", "address": "", "ground_elev_ft": 18.23, "elev_source": "epqs", "ffo_ft": 1.0, "source": "OpenStreetMap" }, "geometry": { "type": "Point", "coordinates": [ -75.11392, 39.932456 ] } },
{ "type": "Feature", "properties": { "id": "n357729420", "name": "Saints Peter and Paul School", "category": "school", "address": "", "ground_elev_ft": 24.51, "elev_source": "epqs", "ffo_ft": 1.0, "source": "OpenStreetMap" }, "geometry": { "type": "Point", "coordinates": [ -75.119064, 39.93428 ] } },
{ "type": "Feature", "properties": { "id": "n357719420", "name": "Catto Elementary School", "category": "school", "address": "", "ground_elev_ft": 59.14, "elev_source": "epqs", "ffo_ft": 1.0, "source": "OpenStreetMap" }, "geometry": { "type": "Point", "coordinates": [ -75.084454, 39.950187 ] } },
{ "type": "Feature", "properties": { "id": "n357718543", "name": "Bergen Square School", "category": "school", "address": "", "ground_elev_ft": 11.0, "elev_source": "epqs", "ffo_ft": 1.0, "source": "OpenStreetMap" }, "geometry": { "type": "Point", "coordinates": [ -75.121842, 39.932057 ] } },
{ "type": "Feature", "properties": { "id": "w30086455", "name": "McGraw Middle School", "category": "school", "address": "", "ground_elev_ft": 30.9, "elev_source": "epqs", "ffo_ft": 1.0, "source": "OpenStreetMap" }, "geometry": { "type": "Point", "coordinates": [ -75.079265, 39.944027 ] } },
{ "type": "Feature", "properties": { "id": "w30086454", "name": "East Camden Middle School", "category": "school", "address": "", "ground_elev_ft": 32.91, "elev_source": "epqs", "ffo_ft": 1.0, "source": "OpenStreetMap" }, "geometry": { "type": "Point", "coordinates": [ -75.079082, 39.944586 ] } },
{ "type": "Feature", "properties": { "id": "w30086449", "name": "Woodrow Wilson High School", "category": "school", "address": "3100 Federal Street, Camden", "ground_elev_ft": 48.29, "elev_source": "epqs", "ffo_ft": 1.0, "source": "OpenStreetMap" }, "geometry": { "type": "Point", "coordinates": [ -75.07745, 39.946552 ] } },
{ "type": "Feature", "properties": { "id": "w29757103", "name": "Forest Hill Elementary School", "category": "school", "address": "", "ground_elev_ft": 21.5, "elev_source": "epqs", "ffo_ft": 1.0, "source": "OpenStreetMap" }, "geometry": { "type": "Point", "coordinates": [ -75.09889, 39.936919 ] } },
{ "type": "Feature", "properties": { "id": "n5665177810", "name": "YouthBuild", "category": "school", "address": "150 Boyd Street, Camden", "ground_elev_ft": 11.46, "elev_source": "epqs", "ffo_ft": 1.0, "source": "OpenStreetMap" }, "geometry": { "type": "Point", "coordinates": [ -75.091948, 39.943295 ] } },
{ "type": "Feature", "properties": { "id": "n357729040", "name": "Saint Marys School", "category": "school", "address": "", "ground_elev_ft": 26.28, "elev_source": "epqs", "ffo_ft": 1.0, "source": "OpenStreetMap" }, "geometry": { "type": "Point", "coordinates": [ -75.117398, 39.945391 ] } },
{ "type": "Feature", "properties": { "id": "w1371308060", "name": "Unnamed school", "category": "school", "address": "", "ground_elev_ft": 28.47, "elev_source": "epqs", "ffo_ft": 1.0, "source": "OpenStreetMap" }, "geometry": { "type": "Point", "coordinates": [ -75.096578, 39.924669 ] } },
{ "type": "Feature", "properties": { "id": "w576393410", "name": "Unnamed school", "category": "school", "address": "", "ground_elev_ft": 10.6, "elev_source": "epqs", "ffo_ft": 1.0, "source": "OpenStreetMap" }, "geometry": { "type": "Point", "coordinates": [ -75.101037, 39.950178 ] } },
{ "type": "Feature", "properties": { "id": "w365034075", "name": "Unnamed school", "category": "school", "address": "", "ground_elev_ft": 13.26, "elev_source": "epqs", "ffo_ft": 1.0, "source": "OpenStreetMap" }, "geometry": { "type": "Point", "coordinates": [ -75.111688, 39.920515 ] } },
{ "type": "Feature", "properties": { "id": "w30086472", "name": "Unnamed school", "category": "school", "address": "", "ground_elev_ft": 42.64, "elev_source": "epqs", "ffo_ft": 1.0, "source": "OpenStreetMap" }, "geometry": { "type": "Point", "coordinates": [ -75.077431, 39.945683 ] } },
{ "type": "Feature", "properties": { "id": "n5666953683", "name": "Covenant House", "category": "shelter", "address": "2113 Federal Street, Camden", "ground_elev_ft": 15.84, "elev_source": "epqs", "ffo_ft": 1.0, "source": "OpenStreetMap" }, "geometry": { "type": "Point", "coordinates": [ -75.092829, 39.945732 ] } }
]
}
