{"type":"FeatureCollection","features":[{"type":"Feature","properties":{"level_ft":16},"geometry":{"type":"Polygon","coordinates":[[[-74.033334,40.734991],[-74.033373,40.734673],[-74.035389,40.735273],[-74.035352,40.735438],[-74.035606,40.735338],[-74.039624,40.73643],[-74.041983,40.736069],[-74.042781,40.736209],[-74.043911,40.73754],[-74.04352,40.738505],[-74.043922,40.739012],[-74.043516,40.740349],[-74.042169,40.741354],[-74.042208,40.742804],[-74.041521,40.743999],[-74.041505,40.744518],[-74.039603,40.746747],[-74.033754,40.757058],[-74.032379,40.758745],[-74.03179,40.758915],[-74.02851,40.758173],[-74.028591,40.757673],[-74.028338,40.757741],[-74.027745,40.757121],[-74.027213,40.757173],[-74.027464,40.756373],[-74.026926,40.756311],[-74.027166,40.755496],[-74.02426,40.754976],[-74.02444,40.75435],[-74.02406,40.754289],[-74.023648,40.75565],[-74.023125,40.755585],[-74.023322,40.754867],[-74.021083,40.754479],[-74.020476,40.75416],[-74.023413,40.75454],[-74.023627,40.753847],[-74.020386,40.753265],[-74.022854,40.753583],[-74.023013,40.753507],[-74.022723,40.753313],[-74.023207,40.753126],[-74.023277,40.752875],[-74.020612,40.752286],[-74.02312,40.752732],[-74.023398,40.752515],[-74.023195,40.75201],[-74.020734,40.751557],[-74.023125,40.751863],[-74.023326,40.751353],[-74.020871,40.750888],[-74.0235,40.7513],[-74.023622,40.750953],[-74.020996,40.750318],[-74.023682,40.750783],[-74.023742,40.750589],[-74.021688,40.750219],[-74.021749,40.750028],[-74.023419,40.750319],[-74.023462,40.75017],[-74.023255,40.750135],[-74.023541,40.749188],[-74.022361,40.748959],[-74.022301,40.748793],[-74.022484,40.74842],[-74.023483,40.748544],[-74.023719,40.74829],[-74.023456,40.747863],[-74.023107,40.747791],[-74.022558,40.746486],[-74.02256,40.745214],[-74.023362,40.743753],[-74.023679,40.743808],[-74.024036,40.743091],[-74.024576,40.743188],[-74.025283,40.741406],[-74.0256,40.741461],[-74.026297,40.741016],[-74.027332,40.737555],[-74.024934,40.73713],[-74.025138,40.736282],[-74.027587,40.736663],[-74.027701,40.736332],[-74.027448,40.736109],[-74.026143,40.735859],[-74.026788,40.734682],[-74.026176,40.734355],[-74.026899,40.73431],[-74.026941,40.734065],[-74.025625,40.733959],[-74.025821,40.733516],[-74.027735,40.733628],[-74.027699,40.733972],[-74.029061,40.734093],[-74.029112,40.733815],[-74.029296,40.733631],[-74.030091,40.733695],[-74.03024,40.733771],[-74.02912,40.733903],[-74.029119,40.734068],[-74.030345,40.733771],[-74.03128,40.734049],[-74.031139,40.734186],[-74.0324,40.734383],[-74.032398,40.734713],[-74.032436,40.734394],[-74.033337,40.734662],[-74.033334,40.734991]],[[-74.033334,40.735101],[-74.033298,40.734991],[-74.033298,40.735101],[-74.033334,40.735101]]]}}]}