{"type":"FeatureCollection","features":[{"type":"Feature","properties":{"level_ft":6},"geometry":{"type":"MultiPolygon","coordinates":[[[[-74.033551,40.735019],[-74.034344,40.735187],[-74.034343,40.735242],[-74.033334,40.735073],[-74.033373,40.734673],[-74.033896,40.734829],[-74.033479,40.734964],[-74.033911,40.735048],[-74.033551,40.735019]],[[-74.033515,40.734909],[-74.03348,40.734882],[-74.033479,40.734909],[-74.033515,40.734909]]],[[[-74.033948,40.735021],[-74.03402,40.735049],[-74.033948,40.735048],[-74.033948,40.735021]]],[[[-74.03373,40.735185],[-74.033802,40.735213],[-74.03373,40.735212],[-74.03373,40.735185]]],[[[-74.03391,40.735213],[-74.033982,40.735241],[-74.03391,40.73524],[-74.03391,40.735213]]],[[[-74.034235,40.735269],[-74.034271,40.735297],[-74.034235,40.735297],[-74.034235,40.735269]]],[[[-74.037634,40.735942],[-74.038194,40.736109],[-74.037477,40.735996],[-74.037634,40.735942]]],[[[-74.038198,40.73611],[-74.038288,40.736136],[-74.038198,40.736136],[-74.038198,40.73611]]],[[[-74.038381,40.736164],[-74.038342,40.736164],[-74.038342,40.736153],[-74.038381,40.736164]]],[[[-74.041497,40.744521],[-74.041502,40.744521],[-74.041497,40.744528],[-74.041497,40.744521]]],[[[-74.04146,40.744577],[-74.04146,40.744576],[-74.041461,40.744576],[-74.04146,40.744577]]],[[[-74.041424,40.744627],[-74.041424,40.744604],[-74.041441,40.744604],[-74.041424,40.744627]]],[[[-74.041351,40.744725],[-74.041351,40.744713],[-74.04136,40.744713],[-74.041351,40.744725]]],[[[-74.041319,40.744768],[-74.041315,40.744774],[-74.041315,40.744768],[-74.041319,40.744768]]],[[[-74.041278,40.744823],[-74.041278,40.744823],[-74.041278,40.744823],[-74.041278,40.744823]]],[[[-74.0306,40.733882],[-74.030636,40.733858],[-74.030636,40.733882],[-74.0306,40.733882]]],[[[-74.030888,40.733933],[-74.030816,40.733938],[-74.030816,40.733911],[-74.030888,40.733933]]],[[[-74.030563,40.733992],[-74.030599,40.733964],[-74.030599,40.733992],[-74.030563,40.733992]]],[[[-74.031068,40.733986],[-74.030923,40.73402],[-74.030779,40.73402],[-74.030888,40.733965],[-74.031068,40.733986]]],[[[-74.030382,40.733991],[-74.03049,40.734019],[-74.030382,40.734018],[-74.030382,40.733991]]],[[[-74.030779,40.73402],[-74.030201,40.734155],[-74.030201,40.7341],[-74.030779,40.73402]]],[[[-74.031066,40.734268],[-74.03103,40.734295],[-74.03103,40.734268],[-74.031066,40.734268]]],[[[-74.032472,40.734521],[-74.032436,40.734394],[-74.032868,40.734522],[-74.032472,40.734521]]],[[[-74.030993,40.734378],[-74.031643,40.73427],[-74.031676,40.73482],[-74.031026,40.734872],[-74.030993,40.734378]]],[[[-74.033658,40.735157],[-74.033694,40.735185],[-74.033658,40.735184],[-74.033658,40.735157]]],[[[-74.033622,40.735157],[-74.033586,40.735184],[-74.033586,40.735157],[-74.033622,40.735157]]],[[[-74.031634,40.735561],[-74.031598,40.735588],[-74.031598,40.73556],[-74.031634,40.735561]]],[[[-74.041169,40.744959],[-74.039969,40.746245],[-74.039016,40.747915],[-74.038477,40.748078],[-74.037959,40.749805],[-74.03763,40.75038],[-74.037305,40.750406],[-74.037229,40.751038],[-74.033754,40.757058],[-74.033212,40.757664],[-74.032524,40.757963],[-74.03274,40.757992],[-74.033208,40.757747],[-74.032379,40.758745],[-74.03179,40.758915],[-74.02851,40.758173],[-74.028591,40.757673],[-74.028338,40.757741],[-74.028233,40.757342],[-74.027548,40.75714],[-74.02784,40.756737],[-74.027734,40.756352],[-74.027213,40.757173],[-74.027464,40.756373],[-74.026926,40.756311],[-74.027166,40.755496],[-74.02426,40.754976],[-74.02444,40.75435],[-74.02406,40.754289],[-74.02362,40.755662],[-74.023114,40.755578],[-74.023322,40.754867],[-74.020454,40.754241],[-74.021109,40.754156],[-74.023413,40.75454],[-74.023633,40.753854],[-74.020386,40.753265],[-74.022854,40.753583],[-74.023013,40.753507],[-74.022723,40.753313],[-74.023207,40.753126],[-74.023186,40.752918],[-74.023277,40.752875],[-74.020612,40.752286],[-74.02312,40.752732],[-74.023398,40.752515],[-74.023136,40.75228],[-74.023195,40.75201],[-74.020734,40.751557],[-74.023125,40.751863],[-74.023326,40.751353],[-74.020871,40.750888],[-74.0235,40.7513],[-74.023622,40.750953],[-74.020996,40.750318],[-74.023682,40.750783],[-74.023742,40.750589],[-74.021688,40.750219],[-74.021749,40.750028],[-74.023419,40.750319],[-74.023462,40.75017],[-74.023255,40.750135],[-74.023541,40.749188],[-74.022361,40.748959],[-74.022301,40.748793],[-74.022484,40.74842],[-74.023483,40.748544],[-74.023719,40.74829],[-74.023456,40.747863],[-74.023107,40.747791],[-74.022558,40.746486],[-74.02256,40.745214],[-74.023362,40.743753],[-74.023679,40.743808],[-74.024036,40.743091],[-74.024576,40.743188],[-74.025283,40.741406],[-74.0256,40.741461],[-74.026297,40.741016],[-74.027332,40.737555],[-74.024934,40.73713],[-74.024894,40.73707],[-74.025138,40.736282],[-74.027587,40.736663],[-74.027701,40.736332],[-74.027448,40.736109],[-74.026143,40.735859],[-74.026788,40.734682],[-74.026176,40.734355],[-74.026899,40.73431],[-74.026941,40.734065],[-74.025625,40.733959],[-74.025821,40.733516],[-74.027735,40.733628],[-74.027699,40.733972],[-74.029083,40.733989],[-74.029082,40.73415],[-74.028144,40.734174],[-74.028143,40.734311],[-74.028072,40.734174],[-74.028069,40.734476],[-74.027781,40.734502],[-74.027774,40.73549],[-74.028676,40.735411],[-74.028998,40.735797],[-74.028454,40.736289],[-74.028812,40.736592],[-74.028162,40.736672],[-74.028556,40.737113],[-74.027943,40.737028],[-74.027766,40.736533],[-74.027621,40.736697],[-74.027332,40.736696],[-74.025169,40.73633],[-74.025022,40.736741],[-74.024983,40.737098],[-74.02729,40.737492],[-74.027362,40.73752],[-74.027361,40.737657],[-74.02618,40.741385],[-74.026035,40.741494],[-74.025277,40.741491],[-74.025018,40.742396],[-74.025595,40.742481],[-74.025411,40.742974],[-74.023272,40.744365],[-74.022867,40.745462],[-74.02358,40.746645],[-74.023578,40.746864],[-74.023327,40.746754],[-74.023358,40.747413],[-74.023822,40.748128],[-74.023675,40.748512],[-74.022771,40.7487],[-74.023671,40.749116],[-74.023411,40.750075],[-74.023555,40.750103],[-74.023768,40.750653],[-74.023399,40.75175],[-74.023181,40.751914],[-74.023429,40.752573],[-74.023097,40.753588],[-74.023673,40.75381],[-74.023634,40.754221],[-74.023959,40.754305],[-74.024396,40.753648],[-74.025083,40.753568],[-74.025152,40.753981],[-74.025765,40.754038],[-74.025871,40.75434],[-74.026377,40.75437],[-74.026631,40.754151],[-74.027061,40.754565],[-74.027568,40.75432],[-74.027638,40.754677],[-74.028106,40.754844],[-74.027675,40.754595],[-74.027749,40.754211],[-74.028399,40.754213],[-74.028512,40.75361],[-74.029233,40.75364],[-74.029527,40.752928],[-74.030071,40.752573],[-74.030865,40.752631],[-74.031049,40.752111],[-74.031696,40.752443],[-74.031735,40.752086],[-74.031339,40.751947],[-74.031954,40.751812],[-74.031849,40.751345],[-74.03214,40.75099],[-74.032573,40.751019],[-74.032498,40.751375],[-74.032569,40.751485],[-74.032861,40.751157],[-74.032647,40.750745],[-74.032971,40.750773],[-74.03254,40.750497],[-74.03258,40.750003],[-74.03175,40.749945],[-74.031574,40.74934],[-74.031755,40.749176],[-74.03125,40.749174],[-74.031253,40.748735],[-74.030855,40.748926],[-74.030748,40.748678],[-74.030351,40.748676],[-74.030389,40.748457],[-74.030025,40.748895],[-74.029377,40.748645],[-74.029993,40.748236],[-74.029525,40.748152],[-74.029351,40.74719],[-74.029499,40.746697],[-74.029788,40.746588],[-74.029865,40.746012],[-74.029649,40.745901],[-74.030046,40.745903],[-74.030484,40.745218],[-74.029945,40.744804],[-74.030379,40.744669],[-74.030522,40.744889],[-74.030744,40.744121],[-74.030994,40.744479],[-74.031392,40.744344],[-74.031179,40.743931],[-74.030782,40.743874],[-74.031108,40.743711],[-74.030966,40.743409],[-74.031434,40.743575],[-74.03158,40.743384],[-74.031728,40.742753],[-74.031475,40.742834],[-74.031369,40.742504],[-74.032418,40.742234],[-74.032814,40.742346],[-74.03213,40.742151],[-74.032132,40.741821],[-74.031338,40.741736],[-74.031778,40.740832],[-74.031129,40.740719],[-74.031167,40.74039],[-74.031637,40.740392],[-74.031314,40.740034],[-74.031392,40.739293],[-74.031971,40.739021],[-74.031901,40.738664],[-74.032299,40.7385],[-74.031903,40.738471],[-74.031941,40.738224],[-74.032373,40.738254],[-74.032013,40.73817],[-74.032052,40.737786],[-74.032304,40.737842],[-74.032058,40.736935],[-74.03264,40.736251],[-74.03257,40.735976],[-74.03199,40.736358],[-74.031993,40.735864],[-74.031489,40.735725],[-74.031779,40.735589],[-74.031527,40.735478],[-74.03405,40.735927],[-74.034268,40.735654],[-74.031601,40.735149],[-74.032934,40.735484],[-74.030373,40.735308],[-74.030343,40.734402],[-74.030957,40.734377],[-74.030953,40.734899],[-74.030592,40.734925],[-74.030953,40.734926],[-74.030988,40.735174],[-74.031025,40.734927],[-74.031746,40.735122],[-74.031788,40.734244],[-74.028216,40.734229],[-74.029118,40.734233],[-74.029841,40.734016],[-74.030237,40.734073],[-74.029659,40.73418],[-74.030598,40.734184],[-74.031186,40.734022],[-74.031067,40.734186],[-74.031747,40.734189],[-74.0324,40.734383],[-74.032038,40.734547],[-74.032399,40.734548],[-74.032396,40.73507],[-74.032471,40.734548],[-74.032962,40.73455],[-74.033337,40.734689],[-74.033298,40.735073],[-74.032757,40.734989],[-74.032793,40.735044],[-74.034847,40.735436],[-74.034379,40.735242],[-74.0351,40.735328],[-74.035928,40.735633],[-74.03445,40.735462],[-74.035315,40.735658],[-74.034593,40.735655],[-74.034808,40.735793],[-74.034917,40.735766],[-74.036106,40.736045],[-74.037369,40.735968],[-74.037296,40.736215],[-74.037693,40.736134],[-74.038196,40.736411],[-74.038415,40.736174],[-74.039624,40.73643],[-74.041916,40.736079],[-74.042815,40.736237],[-74.043911,40.73754],[-74.04352,40.738505],[-74.043922,40.739012],[-74.043782,40.739857],[-74.043214,40.740623],[-74.042241,40.741203],[-74.042097,40.743235],[-74.041169,40.744959]],[[-74.024287,40.743656],[-74.024251,40.743683],[-74.024287,40.743683],[-74.024287,40.743656]],[[-74.031851,40.735561],[-74.031959,40.735644],[-74.032139,40.735645],[-74.031851,40.735561]],[[-74.032468,40.73507],[-74.032504,40.735097],[-74.032504,40.73507],[-74.032468,40.73507]],[[-74.032468,40.735097],[-74.032395,40.735124],[-74.032467,40.735125],[-74.032468,40.735097]],[[-74.032648,40.735098],[-74.03272,40.735181],[-74.032864,40.735181],[-74.032648,40.735098]],[[-74.032504,40.73507],[-74.032576,40.735043],[-74.032504,40.735043],[-74.032504,40.73507]],[[-74.034629,40.73571],[-74.034592,40.735737],[-74.034628,40.735737],[-74.034629,40.73571]],[[-74.034845,40.735793],[-74.03488,40.735821],[-74.034881,40.735793],[-74.034845,40.735793]]],[[[-74.033103,40.757801],[-74.033067,40.757773],[-74.033103,40.757774],[-74.033103,40.757801]]],[[[-74.029282,40.733657],[-74.029302,40.733631],[-74.029302,40.733657],[-74.029282,40.733657]]],[[[-74.029638,40.733658],[-74.029374,40.733657],[-74.029374,40.733637],[-74.029638,40.733658]]],[[[-74.029992,40.733687],[-74.029699,40.733686],[-74.029699,40.733663],[-74.029992,40.733687]]],[[[-74.030091,40.733695],[-74.030158,40.733715],[-74.03006,40.733715],[-74.030091,40.733695]]],[[[-74.029266,40.7337],[-74.029265,40.733739],[-74.029251,40.733739],[-74.029266,40.7337]]],[[[-74.029116,40.733813],[-74.029198,40.733816],[-74.029229,40.73379],[-74.029229,40.733821],[-74.029121,40.733821],[-74.029102,40.733876],[-74.029116,40.733813]]],[[[-74.030021,40.734017],[-74.030166,40.73399],[-74.030166,40.734017],[-74.030021,40.734017]]],[[[-74.029406,40.734289],[-74.029442,40.734316],[-74.029406,40.734316],[-74.029406,40.734289]]],[[[-74.029477,40.734454],[-74.029152,40.734452],[-74.029153,40.734398],[-74.029513,40.734399],[-74.029513,40.734427],[-74.029477,40.734426],[-74.029477,40.734454]]],[[[-74.028683,40.734451],[-74.029116,40.734397],[-74.029116,40.734452],[-74.028683,40.734451]]],[[[-74.02825,40.734449],[-74.028431,40.734395],[-74.028611,40.734395],[-74.028611,40.73445],[-74.02825,40.734449]]],[[[-74.029549,40.734454],[-74.029513,40.734427],[-74.029549,40.734427],[-74.029549,40.734454]]],[[[-74.030156,40.735362],[-74.030163,40.734457],[-74.02955,40.734399],[-74.030307,40.734402],[-74.030373,40.735391],[-74.030156,40.735362]]]]}}]}