{"type":"FeatureCollection","features":[{"type":"Feature","properties":{"level_ft":3},"geometry":{"type":"MultiPolygon","coordinates":[[[[-74.029302,40.733657],[-74.029289,40.733636],[-74.029302,40.733631],[-74.029302,40.733657]]],[[[-74.029638,40.733658],[-74.029446,40.733658],[-74.029447,40.733643],[-74.029638,40.733658]]],[[[-74.029807,40.733672],[-74.029992,40.733687],[-74.029807,40.733687],[-74.029807,40.733672]]],[[[-74.029694,40.734427],[-74.029766,40.7344],[-74.029766,40.734428],[-74.029694,40.734427]]],[[[-74.029622,40.734399],[-74.029658,40.734427],[-74.029621,40.734427],[-74.029622,40.734399]]],[[[-74.02955,40.734399],[-74.029585,40.734427],[-74.029549,40.734427],[-74.02955,40.734399]]],[[[-74.029513,40.734427],[-74.029477,40.734399],[-74.029513,40.734399],[-74.029513,40.734427]]],[[[-74.029261,40.734398],[-74.029441,40.734426],[-74.029261,40.734425],[-74.029261,40.734398]]],[[[-74.033365,40.735815],[-74.033257,40.735787],[-74.033365,40.735787],[-74.033365,40.735815]]],[[[-74.034195,40.735818],[-74.034231,40.735846],[-74.034195,40.735845],[-74.034195,40.735818]]],[[[-74.031951,40.746981],[-74.031699,40.746925],[-74.031554,40.747089],[-74.031587,40.747446],[-74.030831,40.747114],[-74.030907,40.746675],[-74.031341,40.746485],[-74.031054,40.746291],[-74.031498,40.744783],[-74.031967,40.744675],[-74.031645,40.744345],[-74.032185,40.744512],[-74.032469,40.745144],[-74.032975,40.745091],[-74.03355,40.745533],[-74.033259,40.745806],[-74.032971,40.745668],[-74.032607,40.74605],[-74.032211,40.746021],[-74.032285,40.745775],[-74.031995,40.745911],[-74.031956,40.74635],[-74.032571,40.74616],[-74.032205,40.74679],[-74.032382,40.74734],[-74.032128,40.747558],[-74.031876,40.747393],[-74.031951,40.746981]]],[[[-74.036086,40.744061],[-74.035515,40.743207],[-74.035298,40.743261],[-74.035331,40.743673],[-74.034971,40.74348],[-74.034754,40.743616],[-74.034979,40.742354],[-74.03404,40.74246],[-74.034006,40.742186],[-74.033177,40.7421],[-74.033034,40.74188],[-74.0339,40.741856],[-74.034263,40.741583],[-74.033907,40.74084],[-74.033399,40.74125],[-74.033474,40.740811],[-74.033188,40.74048],[-74.033477,40.740399],[-74.032936,40.74037],[-74.03301,40.74015],[-74.033659,40.740263],[-74.033408,40.73996],[-74.033733,40.739879],[-74.033591,40.739631],[-74.032907,40.739326],[-74.032508,40.739682],[-74.032184,40.739571],[-74.032367,40.739132],[-74.032583,40.73927],[-74.032909,40.739052],[-74.032804,40.73864],[-74.033345,40.738614],[-74.033167,40.738367],[-74.032769,40.738393],[-74.032621,40.738996],[-74.032369,40.73894],[-74.032701,40.737788],[-74.03238,40.737238],[-74.032527,40.736909],[-74.032309,40.737073],[-74.032166,40.73688],[-74.032457,40.73658],[-74.032745,40.736663],[-74.032967,40.735895],[-74.03643,40.736074],[-74.038231,40.736575],[-74.038595,40.736228],[-74.038918,40.736496],[-74.039156,40.736332],[-74.039278,40.736525],[-74.04018,40.736556],[-74.040411,40.73631],[-74.041119,40.736422],[-74.041807,40.73615],[-74.042781,40.736209],[-74.042808,40.737554],[-74.043421,40.737639],[-74.043604,40.737244],[-74.043911,40.73754],[-74.043336,40.739533],[-74.042826,40.740217],[-74.042894,40.740823],[-74.042351,40.740984],[-74.042165,40.741422],[-74.041664,40.741228],[-74.041518,40.741365],[-74.04155,40.742051],[-74.041222,40.742489],[-74.041547,40.742463],[-74.041546,40.742682],[-74.041076,40.742736],[-74.040929,40.743119],[-74.04136,40.743423],[-74.040999,40.743394],[-74.040344,40.744187],[-74.039659,40.74413],[-74.039363,40.745199],[-74.040407,40.745478],[-74.040009,40.745723],[-74.039902,40.745448],[-74.039253,40.745418],[-74.038957,40.746405],[-74.03924,40.74723],[-74.039058,40.747504],[-74.03848,40.747556],[-74.03833,40.748407],[-74.037713,40.748843],[-74.038183,40.748818],[-74.038069,40.749559],[-74.037565,40.749447],[-74.03713,40.749665],[-74.037779,40.749832],[-74.037778,40.749997],[-74.037201,40.749912],[-74.036911,40.750075],[-74.037054,40.750296],[-74.036653,40.750843],[-74.037083,40.751229],[-74.036353,40.752407],[-74.035992,40.752432],[-74.035807,40.753118],[-74.035702,40.752541],[-74.035197,40.752539],[-74.034827,40.7538],[-74.035112,40.754378],[-74.034533,40.754595],[-74.034821,40.754706],[-74.034745,40.755227],[-74.034236,40.755802],[-74.033941,40.756706],[-74.033401,40.756457],[-74.033182,40.756731],[-74.033721,40.757101],[-74.033576,40.757254],[-74.032313,40.757166],[-74.031737,40.75689],[-74.030727,40.756831],[-74.03054,40.757818],[-74.032091,40.757934],[-74.033104,40.757609],[-74.03209,40.758044],[-74.029025,40.75762],[-74.028321,40.757699],[-74.029,40.755973],[-74.029107,40.75622],[-74.029756,40.756305],[-74.029975,40.755922],[-74.030045,40.756306],[-74.030478,40.756363],[-74.030841,40.756035],[-74.030918,40.755349],[-74.031495,40.755434],[-74.031419,40.756037],[-74.032,40.755518],[-74.031639,40.755434],[-74.031536,40.754748],[-74.031681,40.754693],[-74.032005,40.754777],[-74.03215,40.75475],[-74.031573,40.754528],[-74.031391,40.754884],[-74.031358,40.754418],[-74.030637,40.754277],[-74.030128,40.754742],[-74.030241,40.754139],[-74.030747,40.754031],[-74.031431,40.754308],[-74.031685,40.754035],[-74.032369,40.754284],[-74.03266,40.753984],[-74.032659,40.754176],[-74.033272,40.754206],[-74.032877,40.753985],[-74.033131,40.753711],[-74.03263,40.753105],[-74.032776,40.752941],[-74.033136,40.753052],[-74.033104,40.752531],[-74.033536,40.752615],[-74.033684,40.752094],[-74.033287,40.752065],[-74.033105,40.752393],[-74.03289,40.752145],[-74.033254,40.751708],[-74.033686,40.751847],[-74.03412,40.751656],[-74.034267,40.7513],[-74.035098,40.751194],[-74.034775,40.750945],[-74.035427,40.750619],[-74.035502,40.750262],[-74.035216,40.749849],[-74.03482,40.749738],[-74.035218,40.74952],[-74.035148,40.749245],[-74.035691,40.749055],[-74.035262,40.748394],[-74.035983,40.74848],[-74.036238,40.748124],[-74.036208,40.747355],[-74.03668,40.746918],[-74.036896,40.747028],[-74.036613,40.746231],[-74.03687,40.745574],[-74.037158,40.745684],[-74.037191,40.746151],[-74.037659,40.746235],[-74.037373,40.745823],[-74.037593,40.745439],[-74.03716,40.745355],[-74.036946,40.744942],[-74.035961,40.746476],[-74.034951,40.746389],[-74.035133,40.746225],[-74.035098,40.746088],[-74.034624,40.746745],[-74.034227,40.746771],[-74.034124,40.745892],[-74.034774,40.745949],[-74.035211,40.745402],[-74.035716,40.745404],[-74.035823,40.745624],[-74.035388,40.745897],[-74.035386,40.746089],[-74.035567,40.74609],[-74.03593,40.745817],[-74.035859,40.745542],[-74.036402,40.745297],[-74.036297,40.74494],[-74.035467,40.744882],[-74.035649,40.74469],[-74.034887,40.745181],[-74.034419,40.745015],[-74.034602,40.744659],[-74.034316,40.744301],[-74.034677,40.744247],[-74.034999,40.744633],[-74.036086,40.744061]],[[-74.033907,40.74084],[-74.033943,40.740813],[-74.033907,40.740813],[-74.033907,40.74084]],[[-74.034663,40.736012],[-74.034735,40.73604],[-74.034735,40.736012],[-74.034663,40.736012]],[[-74.033437,40.756457],[-74.033474,40.756348],[-74.033438,40.756348],[-74.033437,40.756457]],[[-74.031419,40.756037],[-74.031382,40.756065],[-74.031418,40.756065],[-74.031419,40.756037]],[[-74.031382,40.756065],[-74.03131,40.756092],[-74.031382,40.756092],[-74.031382,40.756065]],[[-74.034774,40.745949],[-74.03481,40.745977],[-74.03481,40.74595],[-74.034774,40.745949]],[[-74.035873,40.743538],[-74.03591,40.743511],[-74.035873,40.743511],[-74.035873,40.743538]]],[[[-74.028387,40.757864],[-74.03144,40.758179],[-74.032415,40.7581],[-74.032673,40.758403],[-74.032379,40.758745],[-74.03179,40.758915],[-74.02851,40.758173],[-74.028387,40.757864]]],[[[-74.029266,40.7337],[-74.029265,40.733739],[-74.029251,40.733739],[-74.029266,40.7337]]],[[[-74.029112,40.733815],[-74.029198,40.733816],[-74.029229,40.73379],[-74.029229,40.733821],[-74.029121,40.733821],[-74.029102,40.733876],[-74.029112,40.733815]]],[[[-74.028289,40.734024],[-74.02844,40.734038],[-74.028289,40.734037],[-74.028289,40.734024]]],[[[-74.029083,40.733989],[-74.028902,40.734095],[-74.028902,40.734079],[-74.029083,40.733989]]],[[[-74.028765,40.734067],[-74.028614,40.734066],[-74.028614,40.734053],[-74.028765,40.734067]]],[[[-74.028468,40.734285],[-74.028503,40.73434],[-74.028467,40.73434],[-74.028468,40.734285]]],[[[-74.029152,40.734425],[-74.029189,40.734398],[-74.029188,40.734425],[-74.029152,40.734425]]],[[[-74.028972,40.734424],[-74.029116,40.734397],[-74.029116,40.734425],[-74.028972,40.734424]]],[[[-74.02825,40.734421],[-74.02843,40.73445],[-74.02825,40.734449],[-74.02825,40.734421]]],[[[-74.027999,40.734173],[-74.027961,40.734503],[-74.027383,40.734528],[-74.027744,40.734639],[-74.027774,40.73549],[-74.028457,40.735795],[-74.027879,40.735902],[-74.0282,40.73648],[-74.027732,40.736313],[-74.027621,40.736697],[-74.027368,40.736696],[-74.02517,40.736303],[-74.025022,40.736741],[-74.024947,40.737098],[-74.027254,40.737492],[-74.027362,40.73752],[-74.027361,40.737657],[-74.026327,40.741056],[-74.026035,40.741412],[-74.025675,40.741411],[-74.025638,40.741493],[-74.025277,40.741491],[-74.025054,40.742369],[-74.024873,40.742505],[-74.02476,40.743081],[-74.024543,40.743245],[-74.024038,40.743188],[-74.023744,40.743846],[-74.023348,40.743817],[-74.022727,40.744802],[-74.022608,40.746311],[-74.023107,40.747192],[-74.023213,40.747522],[-74.023139,40.747741],[-74.023428,40.74777],[-74.023786,40.748128],[-74.023712,40.748457],[-74.023637,40.748457],[-74.023703,40.748142],[-74.023107,40.747791],[-74.022558,40.746486],[-74.02256,40.745214],[-74.022844,40.744446],[-74.023362,40.743753],[-74.023679,40.743808],[-74.024036,40.743091],[-74.024576,40.743188],[-74.025283,40.741406],[-74.0256,40.741461],[-74.025636,40.741342],[-74.026297,40.741016],[-74.027332,40.737555],[-74.024934,40.73713],[-74.024894,40.73707],[-74.025138,40.736282],[-74.027587,40.736663],[-74.027701,40.736332],[-74.027448,40.736109],[-74.026143,40.735859],[-74.026788,40.734682],[-74.026176,40.734355],[-74.026899,40.73431],[-74.026941,40.734065],[-74.025625,40.733959],[-74.025622,40.733797],[-74.025838,40.733513],[-74.027735,40.733628],[-74.027699,40.733972],[-74.028115,40.734009],[-74.027567,40.734089],[-74.027999,40.734173]]],[[[-74.023603,40.748512],[-74.023597,40.748512],[-74.023603,40.748508],[-74.023603,40.748512]]],[[[-74.02353,40.748539],[-74.023503,40.748539],[-74.023531,40.748531],[-74.02353,40.748539]]],[[[-74.023408,40.75046],[-74.023769,40.750516],[-74.023768,40.750653],[-74.023399,40.75175],[-74.023181,40.751914],[-74.023429,40.752573],[-74.023356,40.75271],[-74.023139,40.752764],[-74.023319,40.75282],[-74.023319,40.75293],[-74.023245,40.753177],[-74.022992,40.75323],[-74.023097,40.753615],[-74.023637,40.75381],[-74.023636,40.754002],[-74.023562,40.754221],[-74.023886,40.754414],[-74.023995,40.754278],[-74.024464,40.754335],[-74.024315,40.754938],[-74.027344,40.755417],[-74.026977,40.756294],[-74.027554,40.756324],[-74.027331,40.757162],[-74.027464,40.756373],[-74.026926,40.756311],[-74.027166,40.755496],[-74.02426,40.754976],[-74.02444,40.75435],[-74.02406,40.754289],[-74.023648,40.75565],[-74.023125,40.755585],[-74.023322,40.754867],[-74.020454,40.754241],[-74.021109,40.754156],[-74.023429,40.754505],[-74.023627,40.753847],[-74.020386,40.753265],[-74.022854,40.753583],[-74.023013,40.753507],[-74.022723,40.753313],[-74.023207,40.753126],[-74.023277,40.752875],[-74.020586,40.752395],[-74.023351,40.752663],[-74.023195,40.75201],[-74.020734,40.751557],[-74.023125,40.751863],[-74.023429,40.751502],[-74.020871,40.750888],[-74.0235,40.7513],[-74.023541,40.750873],[-74.020968,40.750416],[-74.023682,40.750783],[-74.023742,40.750589],[-74.021688,40.750219],[-74.021749,40.750028],[-74.023419,40.750319],[-74.023255,40.750135],[-74.023541,40.749188],[-74.022349,40.748951],[-74.022372,40.748524],[-74.022522,40.748409],[-74.023422,40.748543],[-74.02252,40.748507],[-74.022409,40.748836],[-74.023598,40.74917],[-74.023408,40.75046]],[[-74.023337,40.75035],[-74.022616,40.750264],[-74.021787,40.750096],[-74.022255,40.75029],[-74.023337,40.75035]]]]}}]}