{"type":"FeatureCollection","features":[{"type":"Feature","properties":{"level_ft":5},"geometry":{"type":"MultiPolygon","coordinates":[[[[-74.033046,40.734962],[-74.032938,40.734989],[-74.032938,40.734962],[-74.033046,40.734962]]],[[[-74.033154,40.735018],[-74.033262,40.734991],[-74.033262,40.735018],[-74.033154,40.735018]]],[[[-74.033298,40.735018],[-74.033262,40.735046],[-74.033262,40.735018],[-74.033298,40.735018]]],[[[-74.033334,40.735018],[-74.03355,40.735074],[-74.03337,40.735074],[-74.033334,40.735018]]],[[[-74.03355,40.735102],[-74.033623,40.735075],[-74.033622,40.735102],[-74.03355,40.735102]]],[[[-74.032504,40.735097],[-74.032685,40.735043],[-74.032972,40.735154],[-74.032504,40.735097]]],[[[-74.034343,40.735242],[-74.033766,40.735157],[-74.033622,40.735102],[-74.034163,40.735159],[-74.034343,40.735242]]],[[[-74.033224,40.735238],[-74.033261,40.73521],[-74.033261,40.735238],[-74.033224,40.735238]]],[[[-74.033188,40.735265],[-74.034342,40.735407],[-74.03445,40.73549],[-74.033367,40.73543],[-74.031999,40.735095],[-74.0329,40.735236],[-74.033189,40.735128],[-74.033188,40.735265]],[[-74.033224,40.735347],[-74.03326,40.73532],[-74.033224,40.73532],[-74.033224,40.735347]]],[[[-74.032791,40.735291],[-74.032755,40.735318],[-74.032755,40.735291],[-74.032791,40.735291]]],[[[-74.035172,40.735438],[-74.034488,40.735215],[-74.035028,40.735327],[-74.035172,40.735438]]],[[[-74.034306,40.735324],[-74.03427,40.735352],[-74.03427,40.735324],[-74.034306,40.735324]]],[[[-74.034126,40.735324],[-74.034162,40.735351],[-74.034126,40.735351],[-74.034126,40.735324]]],[[[-74.034198,40.735351],[-74.034234,40.735379],[-74.034198,40.735379],[-74.034198,40.735351]]],[[[-74.03546,40.735494],[-74.035244,40.735493],[-74.035208,40.735383],[-74.03546,40.735494]]],[[[-74.043149,40.740465],[-74.043113,40.74041],[-74.043149,40.74041],[-74.043149,40.740465]]],[[[-74.043147,40.740665],[-74.043147,40.740658],[-74.043159,40.740658],[-74.043147,40.740665]]],[[[-74.04157,40.744384],[-74.041607,40.744249],[-74.041619,40.744285],[-74.04157,40.744384]]],[[[-74.041315,40.744768],[-74.041319,40.744768],[-74.041315,40.744774],[-74.041315,40.744768]]],[[[-74.040842,40.745315],[-74.040863,40.745315],[-74.040842,40.745336],[-74.040842,40.745315]]],[[[-74.043187,40.740109],[-74.042169,40.741354],[-74.042222,40.742466],[-74.041836,40.742464],[-74.041689,40.742848],[-74.042168,40.742959],[-74.041708,40.743821],[-74.041428,40.743972],[-74.041142,40.743614],[-74.04081,40.744629],[-74.040487,40.74438],[-74.040413,40.744737],[-74.039908,40.744652],[-74.040193,40.74523],[-74.041205,40.744921],[-74.041133,40.744959],[-74.04106,40.745115],[-74.039969,40.746245],[-74.039694,40.746628],[-74.039569,40.746627],[-74.03902,40.747833],[-74.038513,40.747996],[-74.038252,40.74923],[-74.037594,40.750408],[-74.037161,40.750378],[-74.03712,40.751191],[-74.035586,40.753639],[-74.035519,40.753034],[-74.035194,40.752978],[-74.035044,40.753856],[-74.03544,40.75394],[-74.033754,40.757058],[-74.032922,40.7578],[-74.031224,40.758068],[-74.032234,40.758127],[-74.033164,40.757801],[-74.032775,40.758284],[-74.032379,40.758745],[-74.03179,40.758915],[-74.02851,40.758173],[-74.028387,40.757864],[-74.028627,40.757783],[-74.029997,40.757926],[-74.030178,40.757872],[-74.028332,40.757727],[-74.028197,40.757314],[-74.027548,40.75714],[-74.028102,40.755393],[-74.027851,40.755199],[-74.028139,40.755228],[-74.028214,40.754817],[-74.027747,40.75454],[-74.027749,40.754293],[-74.028362,40.754323],[-74.028761,40.754078],[-74.028976,40.754353],[-74.029484,40.753998],[-74.029482,40.754273],[-74.029699,40.754109],[-74.029769,40.754411],[-74.030094,40.754412],[-74.030204,40.754276],[-74.029808,40.754027],[-74.030457,40.754112],[-74.029809,40.753862],[-74.029814,40.753176],[-74.030535,40.753344],[-74.030682,40.752987],[-74.030467,40.752767],[-74.030865,40.752659],[-74.030939,40.752385],[-74.031191,40.752413],[-74.031261,40.752743],[-74.031479,40.752606],[-74.031513,40.752826],[-74.031986,40.752334],[-74.031627,40.752003],[-74.032061,40.751895],[-74.032281,40.751374],[-74.032423,40.751787],[-74.032856,40.751843],[-74.032715,40.751376],[-74.033116,40.750801],[-74.03301,40.750472],[-74.033554,40.750117],[-74.033302,40.749924],[-74.033452,40.749211],[-74.034033,40.748664],[-74.033926,40.748471],[-74.032592,40.748246],[-74.032264,40.748657],[-74.032049,40.748519],[-74.032195,40.748217],[-74.031943,40.748161],[-74.031685,40.748984],[-74.031432,40.74901],[-74.03122,40.748351],[-74.031182,40.748598],[-74.030858,40.748459],[-74.030423,40.748704],[-74.030427,40.748183],[-74.030208,40.748539],[-74.029846,40.74862],[-74.029993,40.748236],[-74.029525,40.748152],[-74.029854,40.747576],[-74.030504,40.747442],[-74.030542,40.747277],[-74.029857,40.747055],[-74.030147,40.746891],[-74.029862,40.746396],[-74.030224,40.746233],[-74.030375,40.745273],[-74.030736,40.745357],[-74.030597,40.744587],[-74.031281,40.744782],[-74.031502,40.744097],[-74.03118,40.743794],[-74.031432,40.743822],[-74.03176,40.743439],[-74.031938,40.743742],[-74.0323,40.743579],[-74.031838,40.742561],[-74.03274,40.742565],[-74.033067,40.742264],[-74.032816,40.741989],[-74.032275,40.742014],[-74.031736,40.741655],[-74.032606,40.741109],[-74.033038,40.741194],[-74.032679,40.740972],[-74.032282,40.741053],[-74.032321,40.740614],[-74.031745,40.74031],[-74.032184,40.739598],[-74.031937,40.738746],[-74.032225,40.738775],[-74.03259,40.738309],[-74.03223,40.738061],[-74.03245,40.737595],[-74.032094,40.73688],[-74.032783,40.736389],[-74.032642,40.735949],[-74.032135,40.736167],[-74.031814,40.735699],[-74.032608,40.735729],[-74.032103,40.735617],[-74.032284,40.735591],[-74.034158,40.735928],[-74.034232,40.735681],[-74.034377,40.735627],[-74.035853,40.736044],[-74.037117,40.735994],[-74.037475,40.736325],[-74.038232,40.736466],[-74.038487,40.736196],[-74.039624,40.73643],[-74.041662,40.73626],[-74.04188,40.736085],[-74.042781,40.736209],[-74.043911,40.73754],[-74.04352,40.738505],[-74.043922,40.739012],[-74.043782,40.739857],[-74.043184,40.740642],[-74.043187,40.740109]],[[-74.040704,40.744381],[-74.04074,40.744354],[-74.040704,40.744354],[-74.040704,40.744381]],[[-74.037161,40.750378],[-74.037125,40.750351],[-74.037125,40.750378],[-74.037161,40.750378]],[[-74.030319,40.748182],[-74.030247,40.748127],[-74.030247,40.748155],[-74.030319,40.748182]],[[-74.034195,40.735845],[-74.034266,40.735901],[-74.034231,40.735846],[-74.034195,40.735845]],[[-74.036791,40.736048],[-74.036755,40.736075],[-74.036791,40.736075],[-74.036791,40.736048]],[[-74.043187,40.740109],[-74.04326,40.740027],[-74.043188,40.740026],[-74.043187,40.740109]]],[[[-74.033175,40.757774],[-74.033186,40.757774],[-74.033175,40.757787],[-74.033175,40.757774]]],[[[-74.031066,40.734268],[-74.03103,40.734295],[-74.03103,40.734268],[-74.031066,40.734268]]],[[[-74.03258,40.734494],[-74.032472,40.734405],[-74.032797,40.734501],[-74.03258,40.734494]]],[[[-74.031318,40.734406],[-74.031316,40.734626],[-74.030992,40.734597],[-74.030993,40.734378],[-74.031318,40.734406]]],[[[-74.032398,40.734685],[-74.031964,40.734848],[-74.031748,40.734792],[-74.031716,40.734271],[-74.0324,40.734383],[-74.032002,40.734546],[-74.032398,40.734685]],[[-74.031928,40.734793],[-74.031893,40.734766],[-74.031892,40.734793],[-74.031928,40.734793]]],[[[-74.031387,40.734764],[-74.031027,40.734707],[-74.031532,40.734682],[-74.031246,40.734296],[-74.031643,40.73427],[-74.031676,40.73482],[-74.031026,40.734872],[-74.031387,40.734764]]],[[[-74.032579,40.734604],[-74.032543,40.734631],[-74.032543,40.734604],[-74.032579,40.734604]]],[[[-74.032363,40.734603],[-74.032399,40.73463],[-74.032363,40.73463],[-74.032363,40.734603]]],[[[-74.03247,40.734713],[-74.032506,40.734741],[-74.03247,40.73474],[-74.03247,40.734713]]],[[[-74.030343,40.734402],[-74.030956,40.73446],[-74.030487,40.734485],[-74.030956,40.734487],[-74.030955,40.734652],[-74.030486,40.734705],[-74.030955,40.734707],[-74.030954,40.734762],[-74.030449,40.734815],[-74.030954,40.734872],[-74.030484,40.734925],[-74.030953,40.734981],[-74.030519,40.735062],[-74.030952,40.735036],[-74.031059,40.735256],[-74.030373,40.735281],[-74.030343,40.734402]]],[[[-74.032072,40.734904],[-74.032108,40.734931],[-74.032072,40.734931],[-74.032072,40.734904]]],[[[-74.032216,40.734986],[-74.03218,40.735014],[-74.03218,40.734986],[-74.032216,40.734986]]],[[[-74.03236,40.735015],[-74.032396,40.734987],[-74.032396,40.735042],[-74.03236,40.735015]]],[[[-74.032035,40.735013],[-74.032071,40.735041],[-74.032035,40.735041],[-74.032035,40.735013]]],[[[-74.032468,40.73507],[-74.032504,40.735043],[-74.032504,40.73507],[-74.032468,40.73507]]],[[[-74.031782,40.735067],[-74.031818,40.73504],[-74.031818,40.735067],[-74.031782,40.735067]]],[[[-74.03106,40.735147],[-74.031025,40.734954],[-74.031386,40.734956],[-74.031169,40.73501],[-74.031313,40.73512],[-74.03106,40.735147]],[[-74.031169,40.73501],[-74.031133,40.734982],[-74.031133,40.73501],[-74.031169,40.73501]],[[-74.031133,40.73501],[-74.031061,40.735037],[-74.031133,40.735064],[-74.031133,40.73501]]],[[[-74.031854,40.735122],[-74.031963,40.73504],[-74.031999,40.735095],[-74.031854,40.735122]]],[[[-74.03225,40.735234],[-74.032178,40.735261],[-74.032178,40.735233],[-74.03225,40.735234]]],[[[-74.032322,40.735261],[-74.032286,40.735289],[-74.032286,40.735261],[-74.032322,40.735261]]],[[[-74.032898,40.735511],[-74.031384,40.73523],[-74.032862,40.735428],[-74.032898,40.735511]]],[[[-74.032031,40.73559],[-74.032104,40.735562],[-74.032103,40.73559],[-74.032031,40.73559]]],[[[-74.032654,40.749756],[-74.032511,40.749564],[-74.031752,40.749643],[-74.031903,40.748655],[-74.032119,40.748848],[-74.0323,40.748739],[-74.032404,40.749316],[-74.033198,40.749319],[-74.032759,40.750196],[-74.032436,40.749893],[-74.032654,40.749756]],[[-74.03201,40.748848],[-74.031974,40.748875],[-74.03201,40.748875],[-74.03201,40.748848]],[[-74.032009,40.748985],[-74.031973,40.749012],[-74.032009,40.749013],[-74.032009,40.748985]]],[[[-74.029289,40.733636],[-74.029302,40.733657],[-74.029282,40.733657],[-74.029289,40.733636]]],[[[-74.029446,40.733658],[-74.029447,40.733643],[-74.029638,40.733658],[-74.029446,40.733658]]],[[[-74.029992,40.733687],[-74.029807,40.733687],[-74.029807,40.733672],[-74.029992,40.733687]]],[[[-74.029251,40.733739],[-74.029266,40.7337],[-74.029265,40.733739],[-74.029251,40.733739]]],[[[-74.029116,40.733813],[-74.029198,40.733816],[-74.029229,40.73379],[-74.029229,40.733821],[-74.029121,40.733821],[-74.029102,40.733876],[-74.029116,40.733813]]],[[[-74.030165,40.734045],[-74.030021,40.734127],[-74.029515,40.734125],[-74.029516,40.734097],[-74.030165,40.734045]]],[[[-74.029479,40.734124],[-74.029371,40.734151],[-74.029371,40.734124],[-74.029479,40.734124]]],[[[-74.029263,40.734151],[-74.029298,40.734179],[-74.029262,40.734178],[-74.029263,40.734151]]],[[[-74.029154,40.734178],[-74.03186,40.734244],[-74.028215,40.734311],[-74.029154,40.734178]]],[[[-74.028143,40.734256],[-74.028107,40.734311],[-74.028107,40.734256],[-74.028143,40.734256]]],[[[-74.028647,40.734396],[-74.028683,40.734423],[-74.028647,40.734423],[-74.028647,40.734396]]],[[[-74.028575,40.734395],[-74.028611,40.734423],[-74.028575,40.734423],[-74.028575,40.734395]]],[[[-74.029513,40.734399],[-74.029369,40.734453],[-74.029153,40.734398],[-74.029513,40.734399]]],[[[-74.029116,40.734397],[-74.029044,40.734452],[-74.02872,40.734396],[-74.029116,40.734397]]],[[[-74.02825,40.734421],[-74.028575,40.73445],[-74.02825,40.734449],[-74.02825,40.734421]]],[[[-74.02955,40.734399],[-74.030307,40.734402],[-74.030301,40.735336],[-74.030163,40.734457],[-74.02955,40.734399]]],[[[-74.029046,40.73415],[-74.028072,40.734174],[-74.028069,40.734476],[-74.027781,40.734502],[-74.027774,40.73549],[-74.028351,40.735437],[-74.028818,40.735741],[-74.028309,40.736261],[-74.028632,40.736564],[-74.028054,40.736644],[-74.028378,40.73681],[-74.028304,40.737057],[-74.0278,40.73689],[-74.027803,40.736451],[-74.027621,40.736697],[-74.027368,40.736696],[-74.02517,40.736303],[-74.024947,40.737098],[-74.02729,40.737492],[-74.027362,40.73752],[-74.027361,40.737657],[-74.0264,40.740865],[-74.02618,40.741358],[-74.026035,40.741494],[-74.025277,40.741491],[-74.025018,40.742369],[-74.025197,40.742644],[-74.024943,40.742807],[-74.025158,40.743028],[-74.02465,40.743328],[-74.024146,40.743271],[-74.02378,40.743873],[-74.023165,40.744173],[-74.022834,40.744967],[-74.022681,40.746202],[-74.023076,40.746423],[-74.022929,40.746862],[-74.023786,40.748101],[-74.023748,40.74843],[-74.023624,40.748484],[-74.023703,40.748142],[-74.023107,40.747791],[-74.022558,40.746486],[-74.02256,40.745214],[-74.023362,40.743753],[-74.023679,40.743808],[-74.024036,40.743091],[-74.024576,40.743188],[-74.025283,40.741406],[-74.0256,40.741461],[-74.026297,40.741016],[-74.027332,40.737555],[-74.024934,40.73713],[-74.025138,40.736282],[-74.027587,40.736663],[-74.027701,40.736332],[-74.027448,40.736109],[-74.026143,40.735859],[-74.026788,40.734682],[-74.026176,40.734355],[-74.026899,40.73431],[-74.026941,40.734065],[-74.025625,40.733959],[-74.025622,40.733797],[-74.025838,40.733513],[-74.027735,40.733628],[-74.027699,40.733972],[-74.029083,40.733989],[-74.029046,40.73415]],[[-74.028505,40.734148],[-74.028469,40.73412],[-74.028469,40.734148],[-74.028505,40.734148]]],[[[-74.023597,40.748512],[-74.023603,40.748508],[-74.023603,40.748512],[-74.023597,40.748512]]],[[[-74.023567,40.748539],[-74.023527,40.748532],[-74.023567,40.748521],[-74.023567,40.748539]]],[[[-74.022664,40.748617],[-74.023598,40.749143],[-74.02334,40.749938],[-74.023554,40.750268],[-74.023373,40.750405],[-74.023769,40.750516],[-74.023399,40.75175],[-74.023181,40.751914],[-74.023429,40.752573],[-74.023356,40.75271],[-74.023139,40.752764],[-74.023319,40.75282],[-74.023319,40.75293],[-74.023097,40.753615],[-74.023673,40.75381],[-74.023598,40.754221],[-74.023922,40.75436],[-74.024649,40.753704],[-74.024901,40.753787],[-74.024969,40.754309],[-74.024608,40.754363],[-74.024498,40.754609],[-74.024712,40.754912],[-74.026083,40.75511],[-74.026265,40.754891],[-74.026479,40.755139],[-74.027417,40.755307],[-74.027266,40.756158],[-74.027698,40.756352],[-74.027404,40.757146],[-74.027213,40.757173],[-74.027464,40.756373],[-74.026926,40.756311],[-74.027166,40.755496],[-74.02426,40.754976],[-74.02444,40.75435],[-74.02406,40.754289],[-74.02362,40.755662],[-74.023114,40.755578],[-74.023322,40.754867],[-74.020454,40.754241],[-74.021109,40.754156],[-74.023429,40.754505],[-74.023627,40.753847],[-74.020386,40.753265],[-74.022999,40.753545],[-74.022723,40.753313],[-74.023207,40.753126],[-74.023277,40.752875],[-74.020586,40.752395],[-74.023351,40.752663],[-74.023195,40.75201],[-74.020734,40.751557],[-74.023125,40.751863],[-74.023429,40.751502],[-74.020871,40.750888],[-74.0235,40.7513],[-74.023541,40.750873],[-74.020968,40.750416],[-74.023682,40.750783],[-74.023742,40.750589],[-74.021688,40.750219],[-74.021749,40.750028],[-74.023419,40.750319],[-74.023255,40.750135],[-74.023541,40.749188],[-74.022361,40.748959],[-74.022301,40.748793],[-74.022522,40.748409],[-74.023494,40.748541],[-74.022664,40.748617]]],[[[-74.028156,40.757506],[-74.028159,40.757506],[-74.028159,40.757509],[-74.028156,40.757506]]]]}}]}