{"type":"FeatureCollection","features":[{"type":"Feature","properties":{"level_ft":8},"geometry":{"type":"MultiPolygon","coordinates":[[[[-74.029879,40.733797],[-74.029302,40.733684],[-74.029409,40.73385],[-74.029084,40.733986],[-74.029296,40.733631],[-74.030252,40.733743],[-74.029879,40.733797]],[[-74.029879,40.733769],[-74.029843,40.733714],[-74.029843,40.733769],[-74.029879,40.733769]]],[[[-74.029442,40.734289],[-74.029406,40.734316],[-74.029406,40.734289],[-74.029442,40.734289]]],[[[-74.029298,40.734288],[-74.029261,40.734316],[-74.029262,40.734288],[-74.029298,40.734288]]],[[[-74.029225,40.734316],[-74.029189,40.734288],[-74.029226,40.734288],[-74.029225,40.734316]]],[[[-74.029153,40.734315],[-74.029117,40.734288],[-74.029153,40.734288],[-74.029153,40.734315]]],[[[-74.02825,40.734449],[-74.029116,40.734397],[-74.029116,40.734452],[-74.02825,40.734449]]],[[[-74.032436,40.734394],[-74.032868,40.734522],[-74.032436,40.734521],[-74.032436,40.734394]]],[[[-74.029258,40.734837],[-74.029221,40.734865],[-74.029222,40.734837],[-74.029258,40.734837]]],[[[-74.036401,40.752604],[-74.033661,40.757182],[-74.032379,40.758745],[-74.03179,40.758915],[-74.02851,40.758173],[-74.028591,40.757673],[-74.028338,40.757741],[-74.028197,40.757342],[-74.027512,40.757144],[-74.027698,40.756434],[-74.02744,40.757151],[-74.027213,40.757173],[-74.027464,40.756373],[-74.026926,40.756311],[-74.027166,40.755496],[-74.02426,40.754976],[-74.02444,40.75435],[-74.02406,40.754289],[-74.02362,40.755662],[-74.023114,40.755578],[-74.023322,40.754867],[-74.020454,40.754241],[-74.021109,40.754156],[-74.023413,40.75454],[-74.023633,40.753854],[-74.020386,40.753265],[-74.022854,40.753583],[-74.023013,40.753507],[-74.022723,40.753313],[-74.023207,40.753126],[-74.023277,40.752875],[-74.020612,40.752286],[-74.02312,40.752732],[-74.023398,40.752515],[-74.023195,40.75201],[-74.020734,40.751557],[-74.023125,40.751863],[-74.023326,40.751353],[-74.020871,40.750888],[-74.0235,40.7513],[-74.023622,40.750953],[-74.020996,40.750318],[-74.023682,40.750783],[-74.023742,40.750589],[-74.021688,40.750219],[-74.021749,40.750028],[-74.023419,40.750319],[-74.023462,40.75017],[-74.023255,40.750135],[-74.023541,40.749188],[-74.022361,40.748959],[-74.022301,40.748793],[-74.022484,40.74842],[-74.023483,40.748544],[-74.023719,40.74829],[-74.023456,40.747863],[-74.023107,40.747791],[-74.022558,40.746486],[-74.02256,40.745214],[-74.023362,40.743753],[-74.023679,40.743808],[-74.024036,40.743091],[-74.024576,40.743188],[-74.025283,40.741406],[-74.0256,40.741461],[-74.026297,40.741016],[-74.027332,40.737555],[-74.024934,40.73713],[-74.025138,40.736282],[-74.027587,40.736663],[-74.027701,40.736332],[-74.027448,40.736109],[-74.026143,40.735859],[-74.026788,40.734682],[-74.026176,40.734355],[-74.026899,40.73431],[-74.026941,40.734065],[-74.025625,40.733959],[-74.025821,40.733516],[-74.027735,40.733628],[-74.027699,40.733972],[-74.029083,40.733989],[-74.029082,40.73415],[-74.028144,40.734174],[-74.028143,40.734339],[-74.028072,40.734174],[-74.028069,40.734476],[-74.027781,40.734502],[-74.027774,40.73549],[-74.029037,40.735385],[-74.029359,40.735771],[-74.028959,40.736236],[-74.029173,40.736649],[-74.028809,40.737059],[-74.028987,40.737389],[-74.028655,40.738458],[-74.028035,40.739279],[-74.027712,40.739113],[-74.028075,40.738758],[-74.027681,40.738344],[-74.02837,40.737963],[-74.028664,40.737168],[-74.02841,40.737359],[-74.027942,40.737247],[-74.027871,40.737028],[-74.027615,40.737438],[-74.027657,40.736725],[-74.025241,40.736385],[-74.025344,40.737127],[-74.027362,40.73752],[-74.026401,40.740755],[-74.026506,40.741194],[-74.026794,40.74125],[-74.026247,40.742154],[-74.026569,40.742567],[-74.026313,40.742923],[-74.025736,40.742866],[-74.023308,40.744338],[-74.022902,40.745626],[-74.023937,40.747168],[-74.024039,40.748102],[-74.023529,40.748731],[-74.024211,40.749228],[-74.024244,40.749695],[-74.023916,40.750105],[-74.02467,40.750657],[-74.024596,40.750986],[-74.023727,40.751367],[-74.023652,40.751751],[-74.024011,40.751999],[-74.023577,40.752107],[-74.02361,40.752629],[-74.024441,40.752495],[-74.024627,40.751618],[-74.024955,40.75129],[-74.02473,40.752442],[-74.025382,40.752087],[-74.025306,40.752581],[-74.02588,40.753187],[-74.025373,40.75335],[-74.025697,40.753544],[-74.02595,40.75338],[-74.026127,40.753875],[-74.02685,40.753823],[-74.027388,40.754209],[-74.026811,40.754152],[-74.02681,40.754399],[-74.027424,40.754319],[-74.027355,40.75388],[-74.027644,40.753826],[-74.027827,40.753415],[-74.02826,40.753499],[-74.028586,40.753308],[-74.02957,40.751995],[-74.030291,40.75208],[-74.030506,40.752355],[-74.030288,40.752519],[-74.030865,40.752604],[-74.030771,40.750517],[-74.031312,40.750602],[-74.03127,40.751508],[-74.031631,40.751536],[-74.032067,40.751127],[-74.031962,40.750659],[-74.032359,40.750661],[-74.032578,40.750195],[-74.032544,40.75003],[-74.032002,40.750028],[-74.032109,40.750248],[-74.031313,40.750492],[-74.031568,40.750219],[-74.031027,40.750079],[-74.031175,40.749531],[-74.03089,40.74909],[-74.02934,40.748755],[-74.029306,40.74848],[-74.028945,40.748424],[-74.029271,40.74826],[-74.028804,40.747956],[-74.02928,40.74697],[-74.028921,40.746832],[-74.029392,40.746531],[-74.029249,40.746366],[-74.029031,40.746585],[-74.029032,40.74642],[-74.029252,40.745954],[-74.029504,40.745983],[-74.029471,40.745598],[-74.029942,40.745271],[-74.029584,40.744858],[-74.029882,40.743569],[-74.030459,40.743571],[-74.030824,40.743051],[-74.030645,40.742776],[-74.030935,40.74264],[-74.030502,40.742611],[-74.030468,40.742391],[-74.031157,40.741845],[-74.030692,40.741239],[-74.030731,40.74091],[-74.030915,40.740334],[-74.031132,40.740362],[-74.031321,40.739018],[-74.031791,40.738965],[-74.031432,40.738717],[-74.031686,40.738498],[-74.031617,40.737976],[-74.032162,40.737457],[-74.031804,40.737153],[-74.031843,40.736742],[-74.031482,40.736658],[-74.031451,40.736026],[-74.031668,40.735918],[-74.030838,40.735914],[-74.030118,40.735609],[-74.030127,40.734429],[-74.029152,40.734452],[-74.030307,40.734402],[-74.030373,40.735336],[-74.030344,40.734375],[-74.030957,40.734377],[-74.031024,40.735174],[-74.030993,40.734378],[-74.03121,40.734296],[-74.028216,40.734229],[-74.029082,40.734233],[-74.029155,40.734041],[-74.030419,40.733854],[-74.029444,40.73396],[-74.0293,40.733904],[-74.030348,40.733772],[-74.030906,40.733938],[-74.030129,40.7341],[-74.030996,40.733965],[-74.030417,40.734183],[-74.031186,40.734022],[-74.031139,40.734186],[-74.0324,40.734383],[-74.032432,40.73507],[-74.032471,40.734548],[-74.032962,40.73455],[-74.033337,40.734662],[-74.033261,40.735155],[-74.033373,40.734673],[-74.034633,40.735051],[-74.034272,40.735132],[-74.03427,40.735324],[-74.035136,40.735328],[-74.036541,40.735773],[-74.036143,40.735908],[-74.035854,40.73588],[-74.036106,40.736045],[-74.037514,40.735906],[-74.039624,40.73643],[-74.041916,40.736079],[-74.042781,40.736209],[-74.043911,40.73754],[-74.04352,40.738505],[-74.043922,40.739012],[-74.043782,40.739857],[-74.043214,40.740623],[-74.042241,40.741203],[-74.042208,40.742804],[-74.041521,40.743999],[-74.041505,40.744518],[-74.039603,40.746747],[-74.038833,40.748244],[-74.038766,40.748024],[-74.038513,40.748051],[-74.038655,40.748408],[-74.038361,40.749093],[-74.038253,40.749148],[-74.038032,40.749723],[-74.036949,40.75142],[-74.036401,40.752604]],[[-74.024801,40.752552],[-74.024621,40.752523],[-74.024584,40.752661],[-74.024801,40.752552]],[[-74.028949,40.747957],[-74.028985,40.74793],[-74.028949,40.74793],[-74.028949,40.747957]],[[-74.029986,40.733962],[-74.030022,40.733989],[-74.030022,40.733962],[-74.029986,40.733962]],[[-74.030129,40.7341],[-74.030093,40.734127],[-74.030129,40.734127],[-74.030129,40.7341]],[[-74.032468,40.73507],[-74.032504,40.735097],[-74.032504,40.73507],[-74.032468,40.73507]],[[-74.032504,40.73507],[-74.032576,40.735043],[-74.032504,40.735043],[-74.032504,40.73507]],[[-74.033009,40.735072],[-74.033046,40.735017],[-74.032829,40.735016],[-74.033009,40.735072]],[[-74.032829,40.735016],[-74.032757,40.734989],[-74.032757,40.735016],[-74.032829,40.735016]],[[-74.035172,40.735438],[-74.035136,40.735465],[-74.035172,40.735465],[-74.035172,40.735438]],[[-74.036288,40.735826],[-74.036252,40.735799],[-74.036252,40.735826],[-74.036288,40.735826]],[[-74.036242,40.752818],[-74.03617,40.75279],[-74.03617,40.752818],[-74.036242,40.752818]],[[-74.03617,40.75279],[-74.036134,40.752762],[-74.036134,40.75279],[-74.03617,40.75279]]],[[[-74.037594,40.75049],[-74.037605,40.75049],[-74.037594,40.750509],[-74.037594,40.75049]]]]}}]}