{"type":"FeatureCollection","features":[{"type":"Feature","properties":{"level_ft":9},"geometry":{"type":"MultiPolygon","coordinates":[[[[-74.029112,40.733815],[-74.029296,40.733631],[-74.030252,40.733743],[-74.02912,40.733876],[-74.029084,40.733986],[-74.029112,40.733815]]],[[[-74.030346,40.734018],[-74.030382,40.734046],[-74.030346,40.734046],[-74.030346,40.734018]]],[[[-74.029731,40.734318],[-74.029767,40.73429],[-74.029767,40.734318],[-74.029731,40.734318]]],[[[-74.02955,40.734317],[-74.029478,40.734289],[-74.02955,40.734289],[-74.02955,40.734317]]],[[[-74.034741,40.735134],[-74.034705,40.735106],[-74.034741,40.735106],[-74.034741,40.735134]]],[[[-74.036325,40.735607],[-74.036289,40.735579],[-74.036326,40.73558],[-74.036325,40.735607]]],[[[-74.036323,40.735936],[-74.036142,40.736018],[-74.037447,40.735886],[-74.039624,40.73643],[-74.041916,40.736079],[-74.042781,40.736209],[-74.043911,40.73754],[-74.04352,40.738505],[-74.043922,40.739012],[-74.043782,40.739857],[-74.043214,40.740623],[-74.042241,40.741203],[-74.042208,40.742804],[-74.041521,40.743999],[-74.041505,40.744518],[-74.039603,40.746747],[-74.033754,40.757058],[-74.032379,40.758745],[-74.03179,40.758915],[-74.02851,40.758173],[-74.028591,40.757673],[-74.028338,40.757741],[-74.027745,40.757121],[-74.027213,40.757173],[-74.027464,40.756373],[-74.026926,40.756311],[-74.027166,40.755496],[-74.02426,40.754976],[-74.02444,40.75435],[-74.02406,40.754289],[-74.023648,40.75565],[-74.023125,40.755585],[-74.023322,40.754867],[-74.021083,40.754479],[-74.020476,40.75416],[-74.023413,40.75454],[-74.023627,40.753847],[-74.020386,40.753265],[-74.022854,40.753583],[-74.023013,40.753507],[-74.022723,40.753313],[-74.023207,40.753126],[-74.023277,40.752875],[-74.020612,40.752286],[-74.02312,40.752732],[-74.023398,40.752515],[-74.023195,40.75201],[-74.020734,40.751557],[-74.023125,40.751863],[-74.023326,40.751353],[-74.020871,40.750888],[-74.0235,40.7513],[-74.023622,40.750953],[-74.020996,40.750318],[-74.023682,40.750783],[-74.023742,40.750589],[-74.021688,40.750219],[-74.021749,40.750028],[-74.023419,40.750319],[-74.023462,40.75017],[-74.023255,40.750135],[-74.023541,40.749188],[-74.022361,40.748959],[-74.022301,40.748793],[-74.022484,40.74842],[-74.023483,40.748544],[-74.023719,40.74829],[-74.023456,40.747863],[-74.023107,40.747791],[-74.022558,40.746486],[-74.02256,40.745214],[-74.023362,40.743753],[-74.023679,40.743808],[-74.024036,40.743091],[-74.024576,40.743188],[-74.025283,40.741406],[-74.0256,40.741461],[-74.026297,40.741016],[-74.027332,40.737555],[-74.024934,40.73713],[-74.025138,40.736282],[-74.027587,40.736663],[-74.027701,40.736332],[-74.027448,40.736109],[-74.026143,40.735859],[-74.026788,40.734682],[-74.026176,40.734355],[-74.026899,40.73431],[-74.026941,40.734065],[-74.025625,40.733959],[-74.025821,40.733516],[-74.027735,40.733628],[-74.027699,40.733972],[-74.029083,40.733989],[-74.02901,40.734177],[-74.028144,40.734174],[-74.028143,40.734339],[-74.028071,40.734201],[-74.028069,40.734476],[-74.027781,40.734502],[-74.027774,40.73549],[-74.029579,40.735388],[-74.029468,40.735771],[-74.029792,40.735882],[-74.029791,40.736047],[-74.02925,40.73599],[-74.029354,40.736594],[-74.02899,40.73695],[-74.028727,40.738458],[-74.028033,40.739609],[-74.027531,40.739112],[-74.027716,40.738537],[-74.027429,40.738261],[-74.027646,40.738289],[-74.028155,40.737633],[-74.027797,40.737329],[-74.027506,40.737657],[-74.027548,40.736779],[-74.026681,40.73694],[-74.025276,40.736495],[-74.025309,40.736935],[-74.026716,40.737105],[-74.027362,40.73752],[-74.026475,40.740508],[-74.026508,40.740892],[-74.026868,40.741114],[-74.026355,40.7421],[-74.026568,40.742595],[-74.026313,40.742923],[-74.025809,40.742866],[-74.023344,40.744311],[-74.022903,40.745462],[-74.024116,40.747416],[-74.023853,40.748815],[-74.024608,40.749312],[-74.023953,40.75005],[-74.024023,40.750298],[-74.024527,40.750519],[-74.024891,40.750136],[-74.025106,40.750247],[-74.024669,40.750904],[-74.025172,40.751236],[-74.024986,40.752003],[-74.025456,40.751896],[-74.025605,40.751155],[-74.026003,40.751074],[-74.025415,40.752554],[-74.025557,40.752884],[-74.025811,40.752693],[-74.025844,40.753078],[-74.026349,40.753189],[-74.026202,40.753546],[-74.026886,40.753741],[-74.027645,40.753716],[-74.027357,40.753578],[-74.027575,40.753359],[-74.027142,40.753275],[-74.027252,40.753111],[-74.027758,40.753058],[-74.028044,40.753443],[-74.028224,40.753417],[-74.028662,40.752732],[-74.028915,40.752733],[-74.028809,40.752431],[-74.029351,40.752323],[-74.029499,40.751747],[-74.030003,40.751942],[-74.030763,40.751698],[-74.030771,40.750517],[-74.031385,40.750547],[-74.030814,40.749639],[-74.030308,40.749637],[-74.030528,40.749199],[-74.030131,40.749225],[-74.029664,40.748838],[-74.029121,40.749083],[-74.029052,40.748644],[-74.028762,40.74878],[-74.028948,40.748067],[-74.028736,40.747435],[-74.029138,40.74664],[-74.02907,40.746173],[-74.029617,40.745325],[-74.02944,40.744775],[-74.029771,40.744008],[-74.029373,40.744088],[-74.029411,40.743814],[-74.029848,40.743294],[-74.030243,40.743543],[-74.030388,40.743406],[-74.029992,40.743267],[-74.030252,40.742198],[-74.031157,40.7419],[-74.030511,40.741348],[-74.030728,40.741349],[-74.030808,40.740141],[-74.031171,40.739868],[-74.031322,40.738936],[-74.031719,40.738965],[-74.031396,40.738716],[-74.031691,40.737784],[-74.03209,40.737456],[-74.031337,40.73685],[-74.03145,40.736109],[-74.0299,40.735828],[-74.030047,40.735554],[-74.029614,40.73547],[-74.030156,40.735362],[-74.030127,40.734429],[-74.029152,40.734452],[-74.030308,40.734375],[-74.030373,40.735336],[-74.030344,40.734375],[-74.030957,40.734377],[-74.031024,40.735174],[-74.030993,40.734378],[-74.03121,40.734296],[-74.028216,40.734229],[-74.029154,40.734205],[-74.029155,40.734041],[-74.030383,40.733908],[-74.030384,40.733826],[-74.02948,40.73396],[-74.0293,40.733904],[-74.030348,40.733772],[-74.030906,40.733938],[-74.030238,40.73399],[-74.030129,40.7341],[-74.030996,40.733965],[-74.031093,40.733994],[-74.030707,40.734047],[-74.030706,40.734102],[-74.031176,40.734019],[-74.031139,40.734186],[-74.0324,40.734383],[-74.032432,40.735042],[-74.032436,40.734394],[-74.033337,40.734662],[-74.033261,40.735155],[-74.033373,40.734673],[-74.034669,40.735059],[-74.034596,40.735243],[-74.036793,40.735774],[-74.03654,40.73591],[-74.036323,40.735936]],[[-74.036142,40.736018],[-74.036106,40.736045],[-74.036142,40.736045],[-74.036142,40.736018]],[[-74.030528,40.749226],[-74.030564,40.749254],[-74.030564,40.749226],[-74.030528,40.749226]],[[-74.030361,40.742198],[-74.030468,40.742281],[-74.030397,40.742198],[-74.030361,40.742198]],[[-74.030129,40.7341],[-74.030093,40.734127],[-74.030129,40.734127],[-74.030129,40.7341]],[[-74.030742,40.734102],[-74.030778,40.73413],[-74.030779,40.734102],[-74.030742,40.734102]],[[-74.036395,40.735909],[-74.03636,40.735882],[-74.036359,40.735909],[-74.036395,40.735909]]],[[[-74.029442,40.734289],[-74.029406,40.734316],[-74.029406,40.734289],[-74.029442,40.734289]]],[[[-74.02937,40.734316],[-74.029334,40.734289],[-74.02937,40.734289],[-74.02937,40.734316]]],[[[-74.029298,40.734316],[-74.029262,40.734288],[-74.029298,40.734288],[-74.029298,40.734316]]],[[[-74.029225,40.734316],[-74.029189,40.734288],[-74.029226,40.734288],[-74.029225,40.734316]]],[[[-74.029153,40.734315],[-74.029117,40.734288],[-74.029153,40.734288],[-74.029153,40.734315]]],[[[-74.029116,40.734452],[-74.02825,40.734394],[-74.029116,40.734397],[-74.029116,40.734452]]],[[[-74.029221,40.734865],[-74.029258,40.734837],[-74.029258,40.734865],[-74.029221,40.734865]]]]}}]}