{"type":"FeatureCollection","features":[{"type":"Feature","properties":{"level_ft":4},"geometry":{"type":"MultiPolygon","coordinates":[[[[-74.032027,40.734272],[-74.032004,40.734272],[-74.032004,40.734265],[-74.032027,40.734272]]],[[[-74.031643,40.73427],[-74.031571,40.734298],[-74.031571,40.73427],[-74.031643,40.73427]]],[[[-74.032076,40.7343],[-74.032076,40.734287],[-74.032121,40.7343],[-74.032076,40.7343]]],[[[-74.031427,40.734297],[-74.03139,40.734324],[-74.031391,40.734297],[-74.031427,40.734297]]],[[[-74.031318,40.734297],[-74.031246,40.734324],[-74.031246,40.734296],[-74.031318,40.734297]]],[[[-74.032308,40.734356],[-74.031714,40.734463],[-74.031716,40.734271],[-74.032308,40.734356]]],[[[-74.031245,40.734434],[-74.030993,40.734378],[-74.031282,40.734379],[-74.031245,40.734434]]],[[[-74.030343,40.734402],[-74.030957,40.734432],[-74.030343,40.73443],[-74.030343,40.734402]]],[[[-74.031642,40.734463],[-74.031354,40.734379],[-74.031643,40.734353],[-74.031642,40.734463]]],[[[-74.031281,40.734489],[-74.031245,40.734516],[-74.031245,40.734488],[-74.031281,40.734489]]],[[[-74.03092,40.734487],[-74.030956,40.734515],[-74.03092,40.734515],[-74.03092,40.734487]]],[[[-74.034411,40.735819],[-74.034483,40.735874],[-74.034411,40.735846],[-74.034411,40.735819]]],[[[-74.035312,40.735987],[-74.035349,40.73596],[-74.035348,40.735987],[-74.035312,40.735987]]],[[[-74.043372,40.739533],[-74.043335,40.73956],[-74.043336,40.739533],[-74.043372,40.739533]]],[[[-74.043335,40.739615],[-74.043371,40.739588],[-74.043371,40.739615],[-74.043335,40.739615]]],[[[-74.043408,40.739423],[-74.043045,40.739861],[-74.04293,40.740794],[-74.042205,40.741258],[-74.042236,40.742054],[-74.041803,40.74197],[-74.042089,40.742355],[-74.0418,40.742382],[-74.041543,40.743122],[-74.041217,40.743203],[-74.041539,40.743616],[-74.041179,40.743505],[-74.040561,40.744079],[-74.040669,40.744244],[-74.040307,40.744379],[-74.039658,40.744185],[-74.039835,40.744707],[-74.039363,40.745199],[-74.039723,40.745256],[-74.04005,40.744955],[-74.040084,40.745257],[-74.040805,40.74537],[-74.039715,40.746601],[-74.039499,40.74638],[-74.039826,40.746025],[-74.03983,40.745476],[-74.039468,40.745584],[-74.039253,40.745418],[-74.03903,40.746323],[-74.039461,40.746682],[-74.039313,40.747203],[-74.039021,40.747696],[-74.038588,40.747639],[-74.038289,40.749148],[-74.037777,40.750079],[-74.037525,40.749996],[-74.037414,40.750297],[-74.036945,40.750323],[-74.037083,40.751237],[-74.035586,40.753639],[-74.035666,40.752596],[-74.035233,40.752567],[-74.034935,40.753828],[-74.035367,40.75405],[-74.035038,40.75468],[-74.034533,40.754595],[-74.034929,40.754707],[-74.034855,40.755008],[-74.033493,40.757391],[-74.032922,40.7578],[-74.031874,40.758071],[-74.029277,40.757703],[-74.028321,40.757699],[-74.028196,40.757369],[-74.028637,40.756355],[-74.028132,40.756271],[-74.028016,40.757286],[-74.027584,40.757137],[-74.028283,40.755283],[-74.028252,40.754625],[-74.027785,40.754321],[-74.028614,40.754489],[-74.028791,40.754901],[-74.029372,40.75441],[-74.029766,40.75485],[-74.029841,40.754494],[-74.030275,40.754358],[-74.030097,40.754083],[-74.030494,40.754112],[-74.029774,40.753807],[-74.029994,40.753259],[-74.030896,40.753373],[-74.03082,40.753866],[-74.031071,40.75406],[-74.031111,40.753538],[-74.031436,40.753594],[-74.031252,40.754005],[-74.03136,40.754061],[-74.031728,40.753102],[-74.031441,40.752826],[-74.032019,40.752746],[-74.032198,40.752966],[-74.03274,40.752968],[-74.032888,40.75242],[-74.032493,40.752116],[-74.033108,40.751899],[-74.03333,40.751049],[-74.033115,40.750829],[-74.033441,40.750693],[-74.033118,40.750499],[-74.033515,40.750501],[-74.033698,40.750172],[-74.034273,40.750422],[-74.034527,40.750231],[-74.03474,40.750835],[-74.035357,40.750371],[-74.034997,40.750205],[-74.034999,40.749931],[-74.034853,40.750177],[-74.034528,40.750093],[-74.03486,40.749161],[-74.034572,40.748996],[-74.03508,40.748586],[-74.034395,40.748473],[-74.034176,40.748884],[-74.033963,40.748417],[-74.034327,40.747869],[-74.034721,40.748282],[-74.035119,40.748229],[-74.035265,40.747928],[-74.035589,40.748066],[-74.035266,40.747845],[-74.035197,40.747324],[-74.034837,40.747295],[-74.034365,40.747622],[-74.034296,40.747128],[-74.033646,40.747262],[-74.033215,40.746904],[-74.033068,40.747233],[-74.032527,40.747258],[-74.0322,40.747559],[-74.031624,40.747337],[-74.032125,40.747997],[-74.031909,40.747914],[-74.030605,40.748595],[-74.030388,40.748539],[-74.0305,40.748101],[-74.030753,40.748074],[-74.030575,40.747689],[-74.031478,40.747556],[-74.030937,40.747499],[-74.030833,40.746894],[-74.03058,40.746948],[-74.030614,40.747278],[-74.030217,40.747276],[-74.030002,40.747001],[-74.030006,40.746452],[-74.030331,40.746371],[-74.030228,40.745739],[-74.030916,40.745385],[-74.030882,40.745083],[-74.031279,40.745029],[-74.031681,40.74429],[-74.032223,40.744265],[-74.031468,40.743905],[-74.032478,40.743909],[-74.032047,40.743687],[-74.032301,40.743441],[-74.032697,40.74358],[-74.032846,40.742977],[-74.032484,40.74303],[-74.032343,40.742646],[-74.032848,40.742675],[-74.033103,40.742264],[-74.032997,40.741962],[-74.032204,40.741794],[-74.032606,40.741137],[-74.032929,40.741303],[-74.033183,40.741139],[-74.033115,40.740617],[-74.032718,40.740616],[-74.032575,40.740396],[-74.033371,40.740069],[-74.033482,40.739713],[-74.03258,40.7396],[-74.03247,40.739956],[-74.032036,40.740091],[-74.032187,40.739076],[-74.032662,40.738255],[-74.03213,40.73688],[-74.032857,40.736252],[-74.03275,40.735949],[-74.032318,40.735783],[-74.03304,40.735813],[-74.032644,40.735702],[-74.032752,40.735675],[-74.034158,40.735928],[-74.034195,40.735763],[-74.034411,40.735791],[-74.034411,40.735819],[-74.034375,40.735819],[-74.034375,40.735846],[-74.034339,40.735846],[-74.034375,40.735901],[-74.034627,40.735902],[-74.034484,40.735764],[-74.034701,40.735738],[-74.035277,40.735905],[-74.035096,40.735986],[-74.036791,40.736075],[-74.038304,40.736548],[-74.038523,40.736206],[-74.039624,40.73643],[-74.041459,40.736149],[-74.041662,40.736287],[-74.041771,40.736123],[-74.042781,40.736209],[-74.043911,40.73754],[-74.04352,40.738505],[-74.043922,40.739012],[-74.043617,40.740138],[-74.043408,40.739423]],[[-74.042933,40.74041],[-74.042896,40.740492],[-74.042932,40.740492],[-74.042933,40.74041]],[[-74.029766,40.75485],[-74.029802,40.754878],[-74.029802,40.75485],[-74.029766,40.75485]],[[-74.029802,40.754878],[-74.029838,40.754906],[-74.029838,40.754878],[-74.029802,40.754878]],[[-74.03541,40.747873],[-74.035446,40.747846],[-74.03541,40.747846],[-74.03541,40.747873]],[[-74.039892,40.736417],[-74.039856,40.736445],[-74.039892,40.736445],[-74.039892,40.736417]],[[-74.041553,40.736287],[-74.041517,40.736314],[-74.041553,40.736314],[-74.041553,40.736287]],[[-74.043445,40.739314],[-74.043517,40.739314],[-74.04359,40.739287],[-74.043445,40.739314]]],[[[-74.033175,40.757774],[-74.033186,40.757774],[-74.033175,40.757787],[-74.033175,40.757774]]],[[[-74.033061,40.757928],[-74.032921,40.757965],[-74.033142,40.757829],[-74.033061,40.757928]]],[[[-74.028387,40.757864],[-74.031656,40.758179],[-74.032632,40.758019],[-74.032775,40.758285],[-74.032379,40.758745],[-74.03179,40.758915],[-74.030091,40.758639],[-74.029243,40.7582],[-74.028844,40.758277],[-74.028387,40.757864]]],[[[-74.029992,40.733687],[-74.029807,40.733687],[-74.029807,40.733672],[-74.029992,40.733687]]],[[[-74.029117,40.73426],[-74.02937,40.734234],[-74.031644,40.734188],[-74.03186,40.734244],[-74.029117,40.73426]]],[[[-74.030307,40.734402],[-74.030163,40.734457],[-74.02955,40.734399],[-74.030307,40.734402]]],[[[-74.030487,40.734485],[-74.030451,40.734513],[-74.030451,40.734485],[-74.030487,40.734485]]],[[[-74.030379,40.734485],[-74.030343,40.734512],[-74.030343,40.734485],[-74.030379,40.734485]]],[[[-74.030307,40.734485],[-74.03027,40.734539],[-74.030271,40.734484],[-74.030307,40.734485]]],[[[-74.030559,40.734513],[-74.030631,40.734541],[-74.030559,40.734541],[-74.030559,40.734513]]],[[[-74.030306,40.734594],[-74.030161,40.734649],[-74.030162,40.734594],[-74.030306,40.734594]]],[[[-74.030377,40.734705],[-74.030558,40.734705],[-74.030774,40.734706],[-74.030377,40.734759],[-74.030377,40.734705]]],[[[-74.03016,40.734759],[-74.030305,40.734704],[-74.030305,40.734759],[-74.03016,40.734759]]],[[[-74.030629,40.734815],[-74.030376,40.734869],[-74.030377,40.734814],[-74.030629,40.734815]]],[[[-74.030304,40.734814],[-74.030159,40.734896],[-74.03016,40.734813],[-74.030304,40.734814]]],[[[-74.030376,40.734952],[-74.03052,40.73498],[-74.030375,40.734979],[-74.030376,40.734952]]],[[[-74.030303,40.734951],[-74.030159,40.735006],[-74.030159,40.734951],[-74.030303,40.734951]]],[[[-74.030555,40.735062],[-74.030375,40.735089],[-74.030375,40.735061],[-74.030555,40.735062]]],[[[-74.030303,40.735061],[-74.030158,40.735115],[-74.030158,40.73506],[-74.030303,40.735061]]],[[[-74.030158,40.73517],[-74.030338,40.735226],[-74.030157,40.735253],[-74.030158,40.73517]]],[[[-74.030337,40.735253],[-74.030229,40.73528],[-74.030229,40.735253],[-74.030337,40.735253]]],[[[-74.030193,40.73528],[-74.030157,40.735308],[-74.030157,40.73528],[-74.030193,40.73528]]],[[[-74.029289,40.733636],[-74.029302,40.733657],[-74.029282,40.733657],[-74.029289,40.733636]]],[[[-74.029446,40.733658],[-74.029447,40.733643],[-74.029638,40.733658],[-74.029446,40.733658]]],[[[-74.029251,40.733739],[-74.029266,40.7337],[-74.029265,40.733739],[-74.029251,40.733739]]],[[[-74.029116,40.733813],[-74.029198,40.733816],[-74.029229,40.73379],[-74.029229,40.733821],[-74.029121,40.733821],[-74.029102,40.733876],[-74.029116,40.733813]]],[[[-74.028145,40.734012],[-74.02844,40.734038],[-74.028145,40.734037],[-74.028145,40.734012]]],[[[-74.029083,40.734095],[-74.029064,40.734093],[-74.029083,40.733989],[-74.029083,40.734095]]],[[[-74.028578,40.73405],[-74.028541,40.734066],[-74.028542,40.734047],[-74.028578,40.73405]]],[[[-74.028614,40.734066],[-74.028614,40.734053],[-74.028765,40.734067],[-74.028614,40.734066]]],[[[-74.028144,40.734146],[-74.028107,40.734201],[-74.028108,40.734146],[-74.028144,40.734146]]],[[[-74.028503,40.73434],[-74.028252,40.734229],[-74.028685,40.734231],[-74.028503,40.73434]]],[[[-74.029116,40.734397],[-74.0289,40.734424],[-74.0289,40.734397],[-74.029116,40.734397]]],[[[-74.028792,40.734424],[-74.028828,40.734396],[-74.028828,40.734424],[-74.028792,40.734424]]],[[[-74.029513,40.734399],[-74.029441,40.734454],[-74.029153,40.734398],[-74.029513,40.734399]]],[[[-74.02825,40.734421],[-74.028503,40.73445],[-74.02825,40.734449],[-74.02825,40.734421]]],[[[-74.027774,40.73549],[-74.028602,40.735658],[-74.028637,40.735905],[-74.028201,40.736233],[-74.02838,40.736536],[-74.027874,40.736616],[-74.027731,40.736368],[-74.027621,40.736697],[-74.027368,40.736696],[-74.02517,40.736303],[-74.025022,40.736741],[-74.024947,40.737098],[-74.02729,40.737492],[-74.027362,40.73752],[-74.027361,40.737657],[-74.026437,40.740727],[-74.026144,40.741412],[-74.025277,40.741491],[-74.024905,40.742999],[-74.024579,40.743245],[-74.024074,40.743188],[-74.023744,40.743846],[-74.023348,40.743817],[-74.022727,40.744802],[-74.022608,40.746257],[-74.023284,40.747632],[-74.023786,40.748101],[-74.023748,40.748402],[-74.023624,40.748484],[-74.023703,40.748142],[-74.023107,40.747791],[-74.022558,40.746486],[-74.02256,40.745214],[-74.022844,40.744446],[-74.023362,40.743753],[-74.023679,40.743808],[-74.024036,40.743091],[-74.024576,40.743188],[-74.025283,40.741406],[-74.0256,40.741461],[-74.026297,40.741016],[-74.027332,40.737555],[-74.024934,40.73713],[-74.024894,40.73707],[-74.025138,40.736282],[-74.027587,40.736663],[-74.027701,40.736332],[-74.027448,40.736109],[-74.026143,40.735859],[-74.026788,40.734682],[-74.026176,40.734355],[-74.026899,40.73431],[-74.026941,40.734065],[-74.025625,40.733959],[-74.025821,40.733516],[-74.027735,40.733628],[-74.027699,40.733972],[-74.028115,40.734009],[-74.028069,40.734476],[-74.027781,40.734502],[-74.027774,40.73549]]],[[[-74.023597,40.748512],[-74.023603,40.748508],[-74.023603,40.748512],[-74.023597,40.748512]]],[[[-74.02353,40.748539],[-74.023527,40.748532],[-74.023531,40.748531],[-74.02353,40.748539]]],[[[-74.022662,40.748865],[-74.023598,40.74917],[-74.02334,40.749938],[-74.023554,40.750268],[-74.023373,40.750405],[-74.023769,40.750516],[-74.023399,40.75175],[-74.023181,40.751914],[-74.023429,40.752573],[-74.023356,40.75271],[-74.023139,40.752764],[-74.023319,40.75282],[-74.023319,40.75293],[-74.023245,40.753177],[-74.022992,40.75323],[-74.023097,40.753615],[-74.023637,40.75381],[-74.023636,40.754029],[-74.023562,40.754221],[-74.024464,40.754307],[-74.024424,40.754883],[-74.02738,40.75539],[-74.027194,40.756157],[-74.027625,40.756434],[-74.027368,40.757158],[-74.027464,40.756373],[-74.026926,40.756311],[-74.027166,40.755496],[-74.02426,40.754976],[-74.02444,40.75435],[-74.02406,40.754289],[-74.023648,40.75565],[-74.023125,40.755585],[-74.023322,40.754867],[-74.020454,40.754241],[-74.021109,40.754156],[-74.023429,40.754505],[-74.023627,40.753847],[-74.020386,40.753265],[-74.022999,40.753545],[-74.022723,40.753313],[-74.023207,40.753126],[-74.023277,40.752875],[-74.020586,40.752395],[-74.023351,40.752663],[-74.023195,40.75201],[-74.020734,40.751557],[-74.023125,40.751863],[-74.023429,40.751502],[-74.020871,40.750888],[-74.0235,40.7513],[-74.023541,40.750873],[-74.020968,40.750416],[-74.023682,40.750783],[-74.023742,40.750589],[-74.021688,40.750219],[-74.021749,40.750028],[-74.023419,40.750319],[-74.023255,40.750135],[-74.023541,40.749188],[-74.022361,40.748959],[-74.022301,40.748793],[-74.022522,40.748409],[-74.023458,40.748545],[-74.022556,40.74859],[-74.022662,40.748865]]]]}}]}