{
"type": "FeatureCollection",
"name": "boundary",
"crs": { "type": "name", "properties": { "name": "urn:ogc:def:crs:OGC:1.3:CRS84" } },
"features": [
{ "type": "Feature", "properties": { "name": "Bayonne", "geoid": "3401703580" }, "geometry": { "type": "Polygon", "coordinates": [ [ [ -74.161424999968133, 40.644706999666347 ], [ -74.161435000013867, 40.644582000019106 ], [ -74.161419999945252, 40.644483000192373 ], [ -74.161388999983117, 40.644383000293985 ], [ -74.161389999808023, 40.644304999983 ], [ -74.161428000341175, 40.644147999840854 ], [ -74.161327999883738, 40.644136999947314 ], [ -74.161209999882971, 40.644123000266035 ], [ -74.159904000376841, 40.643969000170394 ], [ -74.158106999702696, 40.643757000156683 ], [ -74.15794299967115, 40.643738000042234 ], [ -74.149095000161097, 40.64269500031218 ], [ -74.143109999733468, 40.641989999771504 ], [ -74.142236999872381, 40.642135000036539 ], [ -74.142003000418967, 40.64217399976733 ], [ -74.14179500000651, 40.642207999688793 ], [ -74.13654000022315, 40.643082000306123 ], [ -74.136199999566216, 40.643138999830335 ], [ -74.135838999891192, 40.643198999815034 ], [ -74.13427100044423, 40.643459000034269 ], [ -74.13292099965885, 40.643684000153677 ], [ -74.13181500016924, 40.643437999957165 ], [ -74.130221999709619, 40.643085000138797 ], [ -74.128076999779239, 40.642607999830254 ], [ -74.126018000062587, 40.6421510000512 ], [ -74.125459999845773, 40.642355000072179 ], [ -74.123443999786844, 40.643091999747845 ], [ -74.121642999813062, 40.64375399967264 ], [ -74.120959999922746, 40.644000999998184 ], [ -74.119293999668187, 40.644609999867747 ], [ -74.109847999758301, 40.648064000100582 ], [ -74.106142999878585, 40.648064000100582 ], [ -74.105038000213909, 40.648064000100582 ], [ -74.103927999628027, 40.648064000100582 ], [ -74.100240000365048, 40.648064000100582 ], [ -74.094189999640093, 40.648064999970195 ], [ -74.093442000350791, 40.648064999970195 ], [ -74.091126999642796, 40.649300999776713 ], [ -74.090615000355029, 40.64957199976066 ], [ -74.086985999744982, 40.651506000276797 ], [ -74.072557000038344, 40.651492000096688 ], [ -74.071660999712705, 40.651496000051104 ], [ -74.069780000271308, 40.65148899996035 ], [ -74.05577400016395, 40.65147600027673 ], [ -74.055749000049602, 40.65147600027673 ], [ -74.055354999864292, 40.652135000079994 ], [ -74.054596999630917, 40.653404000030307 ], [ -74.054517999988221, 40.653536000068442 ], [ -74.054422999553651, 40.653695999971049 ], [ -74.05419800032108, 40.654071000156094 ], [ -74.053483999570332, 40.655203000034213 ], [ -74.053229000200503, 40.655656999766663 ], [ -74.053045999902409, 40.655979999854054 ], [ -74.05172399960442, 40.658167999779522 ], [ -74.051285999936496, 40.658893000068545 ], [ -74.050735000290686, 40.659807000264138 ], [ -74.050664999970479, 40.659921999688116 ], [ -74.049987999927964, 40.661042999947341 ], [ -74.049630999552591, 40.66163400021707 ], [ -74.065825999971224, 40.666880999788951 ], [ -74.065768000244915, 40.666949999917222 ], [ -74.065713999818243, 40.667032000036073 ], [ -74.065860000306415, 40.667089000225488 ], [ -74.065894999568201, 40.6671079998235 ], [ -74.076513999813145, 40.67157500026179 ], [ -74.078830000346045, 40.672546000024923 ], [ -74.081453999952217, 40.673647000057258 ], [ -74.085542999971494, 40.675362000258907 ], [ -74.087650000267033, 40.676244999703243 ], [ -74.0884150001731, 40.676565999996782 ], [ -74.088799000312648, 40.676726999965297 ], [ -74.089047000009771, 40.67683100023757 ], [ -74.089207999668247, 40.676898000051906 ], [ -74.089291000407229, 40.676934000229373 ], [ -74.089503999944256, 40.677009000196044 ], [ -74.089669999625613, 40.677068000265017 ], [ -74.089869999642133, 40.677139000301807 ], [ -74.091928000432191, 40.678032999812189 ], [ -74.093622000275843, 40.678767000262859 ], [ -74.094345000349136, 40.679082000159966 ], [ -74.094837000443718, 40.679294000338373 ], [ -74.095225999707836, 40.679454999849966 ], [ -74.095848000397069, 40.679716999958686 ], [ -74.097399000125591, 40.680376000079157 ], [ -74.098128999871577, 40.680685000176659 ], [ -74.098170999704365, 40.680798000266932 ], [ -74.09821400026037, 40.680913000282644 ], [ -74.098258999567904, 40.681034999815886 ], [ -74.098281000207535, 40.681092999672046 ], [ -74.098311000344751, 40.681174000056146 ], [ -74.098378000291902, 40.681350999947405 ], [ -74.098384000139689, 40.681368000147039 ], [ -74.098685000438579, 40.68217300010658 ], [ -74.098789000195637, 40.682452999709191 ], [ -74.098834000401496, 40.682573999796297 ], [ -74.098850000295002, 40.682616999864457 ], [ -74.098896000325752, 40.682739999716084 ], [ -74.098968000295784, 40.682934000017667 ], [ -74.099029000395149, 40.683097999670672 ], [ -74.09906700002999, 40.683199000149237 ], [ -74.099297000183768, 40.683816999986995 ], [ -74.099352000435346, 40.683972000079244 ], [ -74.099460000390394, 40.684407000060716 ], [ -74.099759999966039, 40.68562299977927 ], [ -74.099794000301216, 40.685771999845223 ], [ -74.099821000065404, 40.68590499984213 ], [ -74.099914999776743, 40.68607600022662 ], [ -74.100257000083502, 40.686722999810122 ], [ -74.100682000230933, 40.687557999938647 ], [ -74.100936999600748, 40.688057999947041 ], [ -74.101001999898088, 40.688219000087194 ], [ -74.101077000241148, 40.688400000127238 ], [ -74.101348000402808, 40.688956999834389 ], [ -74.101447999961906, 40.689163000329785 ], [ -74.101478999924041, 40.689227000208504 ], [ -74.10157099998554, 40.689418000226247 ], [ -74.101638999757611, 40.689554000226146 ], [ -74.1017290001693, 40.689707999991107 ], [ -74.101822000055719, 40.689870000155878 ], [ -74.101885999629815, 40.689979999891897 ], [ -74.10193800040669, 40.690068999743538 ], [ -74.101955999950022, 40.690112999664578 ], [ -74.101979000414559, 40.690179999751713 ], [ -74.101985000262346, 40.69019900026229 ], [ -74.101987999737077, 40.690210999972514 ], [ -74.102007999828558, 40.690292000173862 ], [ -74.102022999897173, 40.690373000276743 ], [ -74.102025000445309, 40.690391000134866 ], [ -74.102027000095134, 40.690403999726655 ], [ -74.102027999920054, 40.690415000165203 ], [ -74.102034999592732, 40.690479000203773 ], [ -74.102037000140868, 40.690531999763451 ], [ -74.102037000140868, 40.690584999962191 ], [ -74.102037000140868, 40.69059700028405 ], [ -74.102032999942907, 40.690659000323279 ], [ -74.102032000118015, 40.690669000126491 ], [ -74.102028999744959, 40.690701000031481 ], [ -74.102027999920054, 40.690713000332444 ], [ -74.102017999874306, 40.690772999761542 ], [ -74.101996000132999, 40.690874000188316 ], [ -74.101914000117233, 40.690957999988299 ], [ -74.101895999675577, 40.690975999688398 ], [ -74.101566999787579, 40.691311999782044 ], [ -74.101504999863323, 40.691383000312761 ], [ -74.101394000433558, 40.69151300031136 ], [ -74.101321999565215, 40.691595000190496 ], [ -74.101231000226946, 40.691709999967287 ], [ -74.101139999990338, 40.69190400004122 ], [ -74.101044999555768, 40.692135000263214 ], [ -74.101049999578649, 40.692236999876357 ], [ -74.101068000020305, 40.692327999893621 ], [ -74.101089999761626, 40.69240699979283 ], [ -74.101134000142551, 40.692523999980139 ], [ -74.101187999670913, 40.692636999750647 ], [ -74.101448999786825, 40.693058999953998 ], [ -74.101535999825444, 40.693190999836787 ], [ -74.101582999681128, 40.693277999740459 ], [ -74.101986000087265, 40.693877999834299 ], [ -74.102121999631379, 40.694084999961689 ], [ -74.102311999602165, 40.694373000135137 ], [ -74.102572999718092, 40.694766999661297 ], [ -74.102765000237014, 40.695056000138507 ], [ -74.102797000024069, 40.695130000301837 ], [ -74.102827000161312, 40.69523100025404 ], [ -74.102838999856857, 40.695283000277641 ], [ -74.102848999902605, 40.695359999714086 ], [ -74.10285099955243, 40.695423999770618 ], [ -74.103583999671443, 40.695779000191614 ], [ -74.105187000176826, 40.696558000260488 ], [ -74.105680999921233, 40.696796999935835 ], [ -74.106311000108079, 40.697102000236804 ], [ -74.106487999660104, 40.69718799998666 ], [ -74.106579999721589, 40.697231999974143 ], [ -74.107563999910781, 40.697709999760967 ], [ -74.107640999903666, 40.69774700008162 ], [ -74.1076569997972, 40.697754999890591 ], [ -74.107936000354769, 40.697890999900693 ], [ -74.107962000294037, 40.697903000268852 ], [ -74.10798499986025, 40.697914000150362 ], [ -74.108892999881462, 40.698354999848732 ], [ -74.109995000071407, 40.698889999992872 ], [ -74.111170999881224, 40.699459999734358 ], [ -74.112365000132684, 40.700039000034195 ], [ -74.113487000414125, 40.70058300018831 ], [ -74.114231000403791, 40.700944000269445 ], [ -74.11455899956853, 40.701071999807631 ], [ -74.117266999738604, 40.697807999792296 ], [ -74.119170999644538, 40.695612000219604 ], [ -74.119205999804635, 40.695571999878659 ], [ -74.119256999858266, 40.695512000003333 ], [ -74.120754000058426, 40.693739000207167 ], [ -74.122887000293247, 40.691202000201478 ], [ -74.122910999684365, 40.69117199966513 ], [ -74.128648000414856, 40.684234000145054 ], [ -74.129208000281523, 40.683556999682075 ], [ -74.131403000440599, 40.680902000319364 ], [ -74.131487000106191, 40.680801999826521 ], [ -74.131891000337234, 40.68030800028653 ], [ -74.132657999893127, 40.679368000293337 ], [ -74.133432999844928, 40.678433999882095 ], [ -74.133652000128038, 40.678169999981648 ], [ -74.135211000252482, 40.676253000049812 ], [ -74.136067000395158, 40.67503500010131 ], [ -74.13655699994159, 40.674367999751929 ], [ -74.136703000429776, 40.674444000035599 ], [ -74.13700300000545, 40.674104000101316 ], [ -74.137886999737177, 40.673101999873573 ], [ -74.138219999823121, 40.67269900007188 ], [ -74.140107999835536, 40.670421000243707 ], [ -74.14251600042995, 40.667514999703855 ], [ -74.144613999606335, 40.664982999822435 ], [ -74.145508000282149, 40.663903999921743 ], [ -74.14778100025903, 40.661160999667807 ], [ -74.149085999940255, 40.659586000139043 ], [ -74.149839000150763, 40.658677999949312 ], [ -74.1523489999541, 40.655648999675016 ], [ -74.152386999588941, 40.65560299998139 ], [ -74.153041000065244, 40.654799999745883 ], [ -74.159911999874424, 40.646365000311938 ], [ -74.160287999618063, 40.645903000164779 ], [ -74.160684000351509, 40.645313000177666 ], [ -74.160718999613294, 40.64526000011179 ], [ -74.160752999948485, 40.64526399975815 ], [ -74.160769999666911, 40.645262999846572 ], [ -74.160814999872741, 40.64526000011179 ], [ -74.160850000032866, 40.645253000048541 ], [ -74.160886999842774, 40.645253000048541 ], [ -74.160930000398807, 40.645254999871931 ], [ -74.160977000254476, 40.645276999970342 ], [ -74.161087999684227, 40.645347999773655 ], [ -74.161141000285994, 40.645399999860125 ], [ -74.161199000012317, 40.645430999774433 ], [ -74.161257999563546, 40.645443000045162 ], [ -74.16130199994447, 40.645443000045162 ], [ -74.161354999647926, 40.645420000092294 ], [ -74.161369999716541, 40.645403000270228 ], [ -74.161369999716541, 40.645382000123156 ], [ -74.161368000066716, 40.645313000177666 ], [ -74.161383000135345, 40.645250000313311 ], [ -74.161383999960236, 40.645219000314938 ], [ -74.161368000066716, 40.645197000197406 ], [ -74.161327999883738, 40.64517400015977 ], [ -74.161291000073817, 40.645152000027409 ], [ -74.161240999845106, 40.645099999747707 ], [ -74.161229000149547, 40.645055000193928 ], [ -74.161229999974466, 40.645002999838667 ], [ -74.161235999822239, 40.644955999705566 ], [ -74.161264000309629, 40.644922999737346 ], [ -74.161317000013085, 40.644889999752806 ], [ -74.161384999785156, 40.644850000328013 ], [ -74.161403000226812, 40.644822999816633 ], [ -74.161424999968133, 40.644765999685731 ], [ -74.161424999968133, 40.644706999666347 ] ] ] } }
]
}
