{
"type": "FeatureCollection",
"name": "study_area",
"crs": { "type": "name", "properties": { "name": "urn:ogc:def:crs:OGC:1.3:CRS84" } },
"features": [
{ "type": "Feature", "properties": { "name": "Bayonne study area", "buffer_m": 1000, "muni_area_km2": 29.037, "clipped_to_nj": true }, "geometry": { "type": "Polygon", "coordinates": [ [ [ -74.17319787241118, 40.645622682180232 ], [ -74.173196715389878, 40.645628810336326 ], [ -74.17318489299123, 40.645831208747964 ], [ -74.173171919369096, 40.645984210280616 ], [ -74.173026180476555, 40.646926945729504 ], [ -74.172751002390299, 40.647852765187643 ], [ -74.172349435701406, 40.648751387418443 ], [ -74.171825935042406, 40.649612832813865 ], [ -74.171186309816406, 40.650427534266122 ], [ -74.171171311070793, 40.650444535362126 ], [ -74.17052201224547, 40.651111851011812 ], [ -74.169794761639409, 40.651730777021939 ], [ -74.169004632220535, 40.652289760559711 ], [ -74.163092824493077, 40.659548395412784 ], [ -74.16243936287924, 40.66035087961275 ], [ -74.162399456536235, 40.660399539243848 ], [ -74.162361460945121, 40.660445542235962 ], [ -74.162352781316486, 40.660456035014228 ], [ -74.159841053700774, 40.663487657190686 ], [ -74.159089441798002, 40.664394143983742 ], [ -74.157785826052944, 40.66596775242602 ], [ -74.15551335261533, 40.668710603971441 ], [ -74.154619744169509, 40.669789321925833 ], [ -74.152522055291001, 40.672321396730176 ], [ -74.150114082732543, 40.675227879282907 ], [ -74.148230642269795, 40.677500781296231 ], [ -74.147902028303477, 40.677898543811928 ], [ -74.147709125748122, 40.678124465646775 ], [ -74.146824876161375, 40.679126912812443 ], [ -74.146524903084796, 40.679466938252077 ], [ -74.145982684430848, 40.680020460702288 ], [ -74.145644017324472, 40.680502448503589 ], [ -74.145271548995368, 40.680994571960348 ], [ -74.143712721901309, 40.682911707985284 ], [ -74.143656884212717, 40.682979699881066 ], [ -74.143437222527155, 40.683244543944546 ], [ -74.142686202692772, 40.684149805371149 ], [ -74.14194289913307, 40.68506092924148 ], [ -74.141936598848559, 40.685068643171697 ], [ -74.141532642817523, 40.685562677922661 ], [ -74.14145643337794, 40.685654638642688 ], [ -74.141395436991559, 40.685727266740749 ], [ -74.139222079922803, 40.688356553937737 ], [ -74.138663022157161, 40.689032535821113 ], [ -74.132903516941042, 40.695999969003282 ], [ -74.132855922352491, 40.696057061652354 ], [ -74.130723138949449, 40.698594246032975 ], [ -74.130711051150683, 40.698608595226688 ], [ -74.129214201373145, 40.700381724256665 ], [ -74.129194748184347, 40.700404690566423 ], [ -74.129143753160719, 40.700464694835127 ], [ -74.129057424586634, 40.700564809166814 ], [ -74.129036303793512, 40.700588951310031 ], [ -74.127211852203303, 40.702693557528164 ], [ -74.124567707072387, 40.705881153125567 ], [ -74.123895895611454, 40.706608759695548 ], [ -74.123133071104732, 40.707282408042254 ], [ -74.122286666855189, 40.707895531578473 ], [ -74.121364931575357, 40.708442153539067 ], [ -74.120376848990318, 40.708916945293034 ], [ -74.119332050243315, 40.709315278336923 ], [ -74.118240719958905, 40.709633269460774 ], [ -74.117113496882567, 40.709867818643438 ], [ -74.115961370069058, 40.710016639306687 ], [ -74.114795571636435, 40.710078280630974 ], [ -74.113627467137064, 40.710052141714542 ], [ -74.112468444620262, 40.709938477436751 ], [ -74.111329803475002, 40.709738395968422 ], [ -74.110222644142453, 40.70945384795364 ], [ -74.109157759780132, 40.709087607469115 ], [ -74.108829732180581, 40.70895959245582 ], [ -74.107867306399996, 40.708539524573027 ], [ -74.107125035619234, 40.708179346134571 ], [ -74.106004197356469, 40.707635883114186 ], [ -74.104811283114969, 40.70705738152509 ], [ -74.103629194497756, 40.706484400092322 ], [ -74.102530144921928, 40.705950806626127 ], [ -74.101576106515211, 40.705488220015965 ], [ -74.101560270782542, 40.705480528138665 ], [ -74.101194951206807, 40.705302770023202 ], [ -74.100118733152826, 40.704780636714112 ], [ -74.099949900341258, 40.704698601019729 ], [ -74.099329591203528, 40.704398277920419 ], [ -74.098837104850432, 40.704159998958744 ], [ -74.098817120886039, 40.704150308677036 ], [ -74.097221800248022, 40.703375003263666 ], [ -74.096496544232807, 40.703023736422686 ], [ -74.095549702235999, 40.702513868409163 ], [ -74.094672994212559, 40.701935914236273 ], [ -74.093874839442961, 40.701295425460629 ], [ -74.093162902012381, 40.70059855414091 ], [ -74.09254401722697, 40.699851993697642 ], [ -74.092024126021727, 40.699062914576437 ], [ -74.091608217988181, 40.6982388953354 ], [ -74.091595340824881, 40.698203306861153 ], [ -74.091544882527643, 40.698126803927813 ], [ -74.091536129457893, 40.69811350546852 ], [ -74.091423692232581, 40.697942327334268 ], [ -74.091044718182815, 40.697377964914502 ], [ -74.090934049369636, 40.697194902193239 ], [ -74.090870051805226, 40.697097779064599 ], [ -74.090740750152591, 40.696895272378164 ], [ -74.090479803529433, 40.696473248802477 ], [ -74.090065643369002, 40.695715654822045 ], [ -74.090011660340124, 40.695602650082463 ], [ -74.089755832408173, 40.695002430713068 ], [ -74.089711850462734, 40.694885426433771 ], [ -74.089512216659969, 40.694274323141201 ], [ -74.089490230062296, 40.694195321200382 ], [ -74.089364994516814, 40.693668570195243 ], [ -74.089347009705861, 40.693577568540341 ], [ -74.089223512600171, 40.692572270545114 ], [ -74.089218530608079, 40.692470270618124 ], [ -74.089244878107692, 40.691448102372753 ], [ -74.089423217641382, 40.690434789446066 ], [ -74.089435755087948, 40.690396897800383 ], [ -74.08924965700912, 40.690031148704314 ], [ -74.088966662145538, 40.689495609166265 ], [ -74.088904100924339, 40.689381766312927 ], [ -74.088431102924844, 40.688348965233921 ], [ -74.088126042072815, 40.687280140128124 ], [ -74.0881159205872, 40.687230239006638 ], [ -74.088114653814216, 40.68722468335811 ], [ -74.087982593125886, 40.686689022777479 ], [ -74.087756474954176, 40.686590501826984 ], [ -74.086074609538827, 40.685861729569829 ], [ -74.086063590681547, 40.685856948882183 ], [ -74.084430486120496, 40.685147501278358 ], [ -74.084323645791869, 40.685109880208387 ], [ -74.083533815987735, 40.684800230129824 ], [ -74.0835324044901, 40.684802195599296 ], [ -74.083371391788148, 40.684735187816692 ], [ -74.083337828798506, 40.684721166312904 ], [ -74.083090280478658, 40.684617351345828 ], [ -74.082703277393037, 40.684455085527617 ], [ -74.081941084036899, 40.684135250615491 ], [ -74.07983368976781, 40.683252051658222 ], [ -74.075743067134511, 40.681536304901869 ], [ -74.073120765639189, 40.680435975119707 ], [ -74.070806488152527, 40.679465660468438 ], [ -74.070792776483202, 40.679459902304977 ], [ -74.060172926949107, 40.674992372059542 ], [ -74.059993636788889, 40.674906383436571 ], [ -74.05931553767121, 40.674608962214343 ], [ -74.059099675673195, 40.674491564627345 ], [ -74.044998213218506, 40.669922555506275 ], [ -74.044693024840512, 40.669809615285054 ], [ -74.045848999679976, 40.667894999792466 ], [ -74.045970999878719, 40.667694000260987 ], [ -74.047331999636441, 40.665439999964832 ], [ -74.047689000011815, 40.664849000029427 ], [ -74.047955999975514, 40.664406999749325 ], [ -74.048248000053547, 40.663922999745736 ], [ -74.048976000149707, 40.662718000337911 ], [ -74.049630999552591, 40.661634000217063 ], [ -74.049987999927964, 40.661042999947341 ], [ -74.050664999970479, 40.659921999688116 ], [ -74.050735000290686, 40.659807000264138 ], [ -74.051285999936496, 40.658893000068531 ], [ -74.05172399960442, 40.658167999779515 ], [ -74.053045999902409, 40.655979999854061 ], [ -74.053229000200503, 40.655656999766663 ], [ -74.053483999570332, 40.655203000034213 ], [ -74.05419800032108, 40.654071000156087 ], [ -74.054422999553651, 40.653695999971049 ], [ -74.054517999988221, 40.653536000068435 ], [ -74.054596999630931, 40.653404000030292 ], [ -74.055354999864292, 40.65213500007998 ], [ -74.055749000049602, 40.65147600027673 ], [ -74.055774000163964, 40.65147600027673 ], [ -74.069780000271308, 40.651488999960357 ], [ -74.071660999712705, 40.651496000051111 ], [ -74.072557000038358, 40.651492000096681 ], [ -74.086985999744982, 40.65150600027679 ], [ -74.090615000355029, 40.64957199976066 ], [ -74.091126999642796, 40.649300999776699 ], [ -74.093442000350791, 40.648064999970188 ], [ -74.094189999640108, 40.648064999970202 ], [ -74.100240000365062, 40.648064000100582 ], [ -74.103927999628041, 40.64806400010059 ], [ -74.105038000213909, 40.648064000100597 ], [ -74.106142999878585, 40.648064000100582 ], [ -74.109847999758315, 40.64806400010059 ], [ -74.119293999668187, 40.644609999867733 ], [ -74.120959999922746, 40.64400099999817 ], [ -74.121642999813062, 40.643753999672654 ], [ -74.123443999786844, 40.643091999747838 ], [ -74.125459999845773, 40.642355000072179 ], [ -74.126018000062587, 40.642151000051207 ], [ -74.128076999779239, 40.642607999830247 ], [ -74.130221999709619, 40.643085000138797 ], [ -74.13181500016924, 40.643437999957158 ], [ -74.13292099965885, 40.643684000153669 ], [ -74.13427100044423, 40.643459000034262 ], [ -74.135838999891192, 40.643198999815034 ], [ -74.136199999566216, 40.643138999830327 ], [ -74.13654000022315, 40.64308200030613 ], [ -74.14179500000651, 40.642207999688793 ], [ -74.142003000418967, 40.642173999767323 ], [ -74.142236999872381, 40.642135000036539 ], [ -74.143109999733468, 40.641989999771496 ], [ -74.149095000161097, 40.642695000312173 ], [ -74.15794299967115, 40.643738000042227 ], [ -74.158106999702696, 40.643757000156683 ], [ -74.159904000376841, 40.643969000170394 ], [ -74.161209999882971, 40.644123000266028 ], [ -74.161327999883738, 40.644136999947314 ], [ -74.161428000341175, 40.644147999840861 ], [ -74.161536000296209, 40.644156999876337 ], [ -74.162124999576861, 40.644230999970695 ], [ -74.170623000180882, 40.645230000030132 ], [ -74.173203411637544, 40.645533963786669 ], [ -74.17319787241118, 40.645622682180232 ] ] ] } }
]
}
